{"type":"Feature","properties":{"ISO3166-1-Alpha-3":"COD","country":"Democratic Republic of the Congo","fill":"#00F","id":"1872","name":"Kasaï-Occidental"},
"geometry":{"type": "Polygon","coordinates": [[[21.83028,-2.52289,444.1826],[21.82175,-2.52191,435.6048],[21.8157,-2.52021,468.6633],[21.81105,-2.51731,465.1917],[21.77813,-2.50284,537.7311],[21.77271,-2.49897,457.8434],[21.75891,-2.48693,543.9661],[21.75069,-2.4815,481.0462],[21.74093,-2.47737,487.1216],[21.72542,-2.47334,482.4868],[21.68661,-2.45737,475.0413],[21.68227,-2.45494,485.9425],[21.66579,-2.44393,521.1729],[21.6585,-2.43742,536.2888],[21.64967,-2.42564,473.2603],[21.64626,-2.42223,489.7052],[21.6416,-2.41996,471.8368],[21.60683,-2.41282,471.8216],[21.60202,-2.41065,482.5398],[21.59334,-2.40523,565.2567],[21.57086,-2.38544,472.1477],[21.56171,-2.37401,461.2278],[21.55489,-2.36714,489.8853],[21.55034,-2.36471,435.8259],[21.54523,-2.36311,470.5931],[21.52166,-2.35882,463.0582],[21.51174,-2.35505,464.5911],[21.47991,-2.33898,457.2818],[21.47479,-2.33898,450.3078],[21.4703,-2.34213,433.9776],[21.46549,-2.35479,466.7339],[21.45402,-2.4566499999999998,480.6774],[21.44141,-2.46925,407.075],[21.41676,-2.47995,400.7785],[21.32255,-2.49866,380.016],[21.31155,-2.50274,384.2859],[21.28798,-2.50889,416.0064],[21.25739,-2.51184,412.2926],[21.18215,-2.5106,444.8495],[21.00712,-2.48879,510.4426],[20.96862,-2.56155,430.7568],[20.96351,-2.57814,448.7724],[20.9601,-2.59431,444.6782],[20.95839,-2.6171,444.4893],[20.95979,-2.65653,450.6789],[20.95762,-2.67033,450.387],[20.95219,-2.68686,432.9185],[20.93943,-2.71089,455.502],[20.92671,-2.72759,422.5867],[20.87814,-2.77673,385.1341],[20.84139,-2.82753,385.5164],[20.66466,-3.28026,342.6614],[20.65515,-3.32688,400.3252],[20.64244,-3.50842,374.862],[20.66404,-3.74551,471.947],[20.66089,-3.86524,488.1929],[20.669,-3.92219,485.1729],[20.67768,-4.09375,412.449],[20.67551,-4.11112,366.8523],[20.67086,-4.13076,361.5196],[20.6612,-4.14693,362.3308],[20.658,-4.14988,363.2133],[20.64461,-4.15339,367.7081],[20.63805,-4.16217,365.7791],[20.63391,-4.17323,362.855],[20.62787,-4.18403,352.5],[20.59908,-4.20806,363.8614],[20.56007,-4.22879,359.9149],[20.51702,-4.24424,357.3454],[20.47578,-4.2523,352.8774],[20.46059,-4.25318,353.4896],[20.4485,-4.25912,358.6509],[20.44757,-4.26222,357.0266],[20.44679,-4.26852,348.5],[20.44514,-4.27535,353.9135],[20.44168,-4.28026,353.0887],[20.43486,-4.2817,356.588],[20.42855,-4.27886,354.9394],[20.42282,-4.27483,364.3661],[20.41744,-4.27281,360.077],[20.39393,-4.27824,373.4617],[20.37677,-4.2925,355.5742],[20.36545,-4.31245,348.8419],[20.3591,-4.33488,349.1833],[20.35662,-4.36568,380.4198],[20.35228,-4.37586,416.6592],[20.34236,-4.38934,413.5748],[20.33646,-4.39027,413.9349],[20.32918,-4.38578,346.0],[20.31533,-4.38268,345.5],[20.29378,-4.38614,410.0048],[20.27905,-4.39151,364.8861],[20.26618,-4.39064,356.635],[20.25047,-4.37586,344.5],[20.23218,-4.34526,405.885],[20.22164,-4.33286,361.2638],[20.20205,-4.32061,356.6183],[20.18464,-4.32914,417.7558],[20.16531,-4.31545,362.0974],[20.13379,-4.28026,342.0],[20.10867,-4.27333,371.5845],[20.05653,-4.27674,408.2672],[20.04542,-4.27514,405.0405],[20.03788,-4.28475,341.0],[20.03648,-4.28945,341.0],[20.03571,-4.29622,345.2118],[20.03555,-4.3047,370.7122],[20.04036,-4.34666,365.7376],[20.04253,-4.3541,366.1357],[20.04532,-4.35994,367.1986],[20.05917,-4.37358,373.1354],[20.06211,-4.37756,422.8636],[20.06459,-4.38195,422.9816],[20.07483,-4.40624,368.1881],[20.08552,-4.42309,347.5],[20.08769,-4.42774,360.821],[20.08909,-4.43456,371.5961],[20.09002,-4.45606,374.4849],[20.0911,-4.46412,391.6482],[20.09297,-4.47063,370.9714],[20.09576,-4.47466,412.9762],[20.09948,-4.47787,428.0719],[20.1079,-4.48329,355.1156],[20.11147,-4.4866,358.0938],[20.11472,-4.49068,354.4291],[20.1172,-4.49456,370.8053],[20.1186,-4.49812,368.5679],[20.11844,-4.50081,369.7347],[20.1172,-4.50422,370.3921],[20.10325,-4.53202,362.4323],[20.10072,-4.53518,354.5],[20.09917,-4.53683,354.5],[20.08661,-4.54375,360.2659],[20.08351,-4.54582,368.3073],[20.0818,-4.54763,374.8413],[20.07963,-4.55109,375.7903],[20.06521,-4.5915,374.8116],[20.06382,-4.59832,373.6361],[20.06335,-4.61,371.4026],[20.06506,-4.63072,371.0075],[20.06428,-4.6654,362.0],[20.06025,-4.6761,410.3838],[20.05777,-4.68033,386.2032],[20.05529,-4.684,393.421],[20.05452,-4.68927,372.6703],[20.05266,-4.7287,421.8847],[20.05545,-4.76576,386.5298],[20.05746,-4.77325,375.9538],[20.05963,-4.7779,384.2316],[20.06242,-4.78209,437.7893],[20.07266,-4.79247,466.2048],[20.07839,-4.80064,423.5425],[20.08242,-4.81025,479.0969],[20.08847,-4.83846,377.5055],[20.09033,-4.84342,390.4199],[20.09503,-4.85262,409.4376],[20.09669,-4.85795,405.4633],[20.10805,-4.9291,376.0],[20.11131,-4.93949,376.5],[20.11565,-4.94905,446.2059],[20.11844,-4.95324,467.2508],[20.14588,-4.98745,509.6659],[20.14759,-4.99267,508.3214],[20.14759,-4.99907,473.8087],[20.14433,-5.00817,392.2651],[20.14247,-5.01623,381.0],[20.14154,-5.02486,381.5],[20.14402,-5.03794,403.0162],[20.14681,-5.04507,382.5],[20.15038,-5.05054,383.0],[20.16113,-5.06036,385.8237],[20.16423,-5.06434,401.8331],[20.1664,-5.06889,426.2466],[20.17058,-5.08522,386.0],[20.17477,-5.09483,402.056],[20.17632,-5.09995,405.6837],[20.17787,-5.11142,388.5],[20.18996,-5.14718,396.7585],[20.19105,-5.15462,467.6032],[20.19539,-5.26846,395.5],[20.1943,-5.27327,395.75],[20.18965,-5.27802,419.6298],[20.18531,-5.28087,511.5319],[20.17957,-5.28407,466.407],[20.17787,-5.28531,443.6326],[20.17663,-5.28686,499.8381],[20.16934,-5.31301,404.6465],[20.16593,-5.32107,527.1853],[20.16252,-5.32696,407.6769],[20.15673,-5.33394,400.5],[20.15301,-5.33967,458.6653],[20.15115,-5.34381,492.4225],[20.14976,-5.34991,457.3076],[20.14836,-5.36303,496.0955],[20.15007,-5.55175,469.4551],[20.15146,-5.55733,515.3385],[20.15322,-5.56235,542.8279],[20.15756,-5.57165,518.3594],[20.16035,-5.57584,536.2344],[20.16454,-5.5854,486.0099],[20.16965,-5.60105,530.5108],[20.17477,-5.60968,508.2807],[20.17678,-5.61444,461.573],[20.17787,-5.61986,480.9752],[20.17849,-5.6256,423.0],[20.17957,-5.63123,423.5],[20.18113,-5.65025,456.9175],[20.17973,-5.66999,442.3699],[20.17787,-5.68053,427.0],[20.17337,-5.68999,434.9255],[20.16965,-5.69629,459.9945],[20.1681,-5.72678,430.5],[20.16578,-5.73593,431.0],[20.16035,-5.75035,440.38],[20.15322,-5.76414,433.0],[20.15069,-5.76755,433.0],[20.13953,-5.77846,455.2652],[20.12774,-5.78698,435.0],[20.12216,-5.79241,435.5],[20.1203,-5.79505,435.875],[20.11813,-5.80161,447.5442],[20.1096,-5.83804,439.0],[20.10867,-5.83913,443.4542],[20.10263,-5.8444,446.7332],[20.08583,-5.8554,452.8464],[20.08118,-5.85742,441.5],[20.05917,-5.86254,443.0],[20.05529,-5.86424,443.0],[20.05343,-5.86533,443.0],[20.04801,-5.87148,448.9866],[20.0447,-5.87706,486.0903],[20.03995,-5.8907,454.3126],[20.0371,-5.89721,445.125],[20.03276,-5.90414,445.5],[20.03168,-5.90693,446.0],[20.02284,-5.93638,447.5],[20.02082,-5.93979,449.3667],[20.01896,-5.94196,456.8428],[20.00873,-5.95039,522.6356],[20.00594,-5.95349,525.4113],[20.0047,-5.9554,475.8638],[20.00315,-5.95834,450.7816],[20.00207,-5.95974,451.0602],[20.00021,-5.96186,452.0046],[19.99493,-5.96594,464.2849],[19.98651,-5.97054,530.5017],[19.98124,-5.97436,545.4968],[19.97442,-5.98072,502.6409],[19.96667,-5.9863,453.0],[19.96186,-5.98816,485.6161],[19.95675,-5.98909,563.9219],[19.94,-5.98666,584.5468],[19.93396,-5.98677,588.8062],[19.92884,-5.98775,591.4868],[19.92491,-5.98971,586.5249],[19.92305,-5.99142,581.0501],[19.91468,-6.00315,505.3054],[19.91205,-6.00594,490.8399],[19.90848,-6.00785,482.4028],[19.90429,-6.00707,554.0145],[19.89484,-6.00273,560.9049],[19.88926,-6.00175,587.6192],[19.88662,-6.00175,603.1104],[19.88414,-6.0032,593.646],[19.88259,-6.00532,580.6496],[19.87541,-6.01819,461.0],[19.87282,-6.02206,461.0],[19.8689,-6.02516,510.2477],[19.86409,-6.02723,538.16],[19.84642,-6.03023,567.7148],[19.84146,-6.03209,580.9949],[19.83789,-6.03539,565.0237],[19.82316,-6.05539,517.6533],[19.81024,-6.06831,535.1207],[19.80606,-6.07084,557.4247],[19.79614,-6.07482,586.8668],[19.79195,-6.07751,569.6859],[19.78838,-6.08077,577.0132],[19.78203,-6.08826,560.276],[19.778,-6.0911,564.6514],[19.76808,-6.09492,588.4701],[19.75485,-6.10319,607.6407],[19.74492,-6.10691,539.8192],[19.74089,-6.10981,492.0484],[19.73779,-6.11379,496.7776],[19.73547,-6.11828,473.0],[19.73252,-6.12231,476.1241],[19.71531,-6.13957,524.3821],[19.70291,-6.14774,578.6262],[19.69945,-6.15125,576.1564],[19.69743,-6.15621,564.4167],[19.69418,-6.17358,540.634],[19.69108,-6.18365,547.0382],[19.68984,-6.19001,539.6233],[19.68984,-6.19802,485.4266],[19.72942,-6.54947,568.981],[19.74802,-6.59133,620.5089],[19.80559,-6.6845,613.5524],[19.91809,-6.81995,661.4178],[19.93318,-6.8462,649.9832],[19.94093,-6.86423,632.8099],[19.95132,-6.90568,572.4691],[19.96279,-6.99988,635.8174],[19.96305,-7.00174,652.5102],[19.96308,-7.00195,652.5102],[19.99406,-7.00195,643.2645],[20.03612,-7.00195,640.9531],[20.07818,-7.00195,755.6006],[20.12015,-7.00195,756.9901],[20.16211,-7.00195,783.9],[20.20407,-7.00195,787.9033],[20.24624,-7.00195,693.9748],[20.2943,-7.00195,688.1031],[20.29419,-6.98748,685.3734],[20.29864,-6.95451,689.3483],[20.30318,-6.94014,688.4485],[20.31125,-6.92505,656.7776],[20.31951,-6.91854,612.2861],[20.33109,-6.91679,680.1792],[20.3837,-6.91668,717.6245],[20.46731,-6.91637,776.7073],[20.55371,-6.91617,665.3737],[20.61149,-6.91596,663.0135],[20.58813,-6.97683,680.4218],[20.56095,-7.04784,668.5712],[20.54544,-7.08856,683.1304],[20.52446,-7.14313,690.4633],[20.51826,-7.18974,706.6899],[20.5194,-7.23718,730.0616],[20.52054,-7.28638,735.5101],[20.56704,-7.28617,660.8441],[20.6398,-7.28596,801.7593],[20.71256,-7.28586,778.4013],[20.78522,-7.28555,715.097],[20.85798,-7.28534,678.6248],[20.93074,-7.28524,703.3369],[21.0035,-7.28493,738.9345],[21.07626,-7.28472,786.6403],[21.14892,-7.28462,736.6729],[21.22178,-7.28441,727.7863],[21.29434,-7.28421,680.4774],[21.3671,-7.284,685.6147],[21.43996,-7.28379,759.108],[21.51262,-7.28359,825.3414],[21.58548,-7.28338,782.0443],[21.65824,-7.28317,774.9713],[21.7309,-7.28297,752.2256],[21.76449,-7.28276,762.1534],[21.78495,-7.28338,702.1636],[21.78464,-7.28689,720.4353],[21.78826,-7.29175,704.0037],[21.79477,-7.29402,748.6238],[21.80252,-7.29888,761.1505],[21.80883,-7.30643,723.1543],[21.83136,-7.35418,730.016],[21.83694,-7.36058,732.8011],[21.84242,-7.36988,725.6473],[21.83994,-7.37815,739.2553],[21.83498,-7.38528,763.8527],[21.83291,-7.39076,744.7485],[21.8387,-7.40203,731.6799],[21.84573,-7.40906,741.7087],[21.85162,-7.4165,736.1217],[21.8541,-7.4289,731.1123],[21.85296,-7.435,729.0],[21.84779,-7.44409,741.2675],[21.84666,-7.44905,738.7936],[21.84893,-7.45484,732.8159],[21.85864,-7.46404,738.0746],[21.86092,-7.46983,737.7043],[21.85906,-7.48264,737.5764],[21.84996,-7.5029,733.5023],[21.84666,-7.51427,743.1084],[21.84593,-7.52677,735.6454],[21.84821,-7.53298,738.8555],[21.85151,-7.53845,737.9505],[21.8541,-7.54838,735.9715],[21.8541,-7.586,746.9782],[21.85079,-7.59364,738.26],[21.83622,-7.60832,768.5403],[21.83291,-7.61421,769.1847],[21.83105,-7.63281,741.8231],[21.82656,-7.6456,764.8233],[21.96546,-7.70072,858.9412],[21.9774,-7.70878,860.4589],[21.98778,-7.71824,882.3517],[21.99693,-7.72831,842.3203],[22.01419,-7.74345,881.9053],[22.02613,-7.7509,906.5809],[22.07672,-7.77518,970.5973],[22.17945,-7.79927,941.4428],[22.24741,-7.805,920.3295],[22.48589,-7.78666,940.6597],[22.5154,-7.78009,905.4175],[22.53804,-7.77069,852.5363],[22.58475,-7.72935,814.7942],[22.59514,-7.72227,794.2601],[22.60382,-7.72082,810.4289],[22.61793,-7.72253,851.1002],[22.63364,-7.73172,881.1886],[22.6448,-7.74263,833.8116],[22.65255,-7.75493,837.6617],[22.65689,-7.76743,830.1655],[22.67053,-7.83379,814.5756],[22.67524,-7.84391,832.9913],[22.67627,-7.84701,839.4209],[22.67875,-7.85223,827.5947],[22.68361,-7.85921,834.8965],[22.69601,-7.86805,876.9966],[22.70826,-7.87451,859.751],[22.72082,-7.87905,869.8878],[22.73435,-7.8821,876.1579],[22.75265,-7.88376,880.1539],[22.80525,-7.88334,867.8328],[22.82479,-7.88608,866.1349],[22.85755,-7.89724,898.5608],[22.87646,-7.90143,912.0716],[22.89801,-7.9005,956.2894],[22.94411,-7.8914,1009.2002],[23.0886,-7.83952,934.251],[23.1581,-7.7974,912.4236],[23.18761,-7.51138,881.9913],[23.21272,-7.3812,845.9735],[23.2135,-7.35345,859.7336],[23.21179,-7.32436,864.0939],[23.20528,-7.27987,866.7749],[23.2042,-7.24659,874.0857],[23.20869,-7.19506,853.604],[23.20327,-7.16287,867.7746],[23.19582,-7.13807,851.2451],[23.19505,-7.11631,863.2922],[23.19644,-7.09957,860.9142],[23.19986,-7.08546,848.3806],[23.24233,-6.97404,830.3134],[23.24409,-6.96092,840.2468],[23.24223,-6.9479,849.0873],[23.23427,-6.9326,879.6531],[23.22854,-6.92407,856.5747],[23.19955,-6.89116,896.241],[23.175,-6.87188,883.7017],[23.1626,-6.86511,897.7021],[23.1241,-6.8495,826.6498],[23.0965,-6.83493,861.2682],[23.08488,-6.82594,855.0095],[23.0748,-6.81529,856.7086],[23.06622,-6.80351,848.0578],[23.03816,-6.7522,791.0241],[23.02049,-6.72615,807.3674],[23.01067,-6.71535,804.3662],[23.00168,-6.7076,822.9573],[22.99408,-6.70238,816.2194],[22.96028,-6.68455,834.4545],[22.94922,-6.67659,835.0292],[22.93961,-6.66626,862.1926],[22.93295,-6.65158,874.0106],[22.92861,-6.63381,892.9236],[22.92628,-6.60549,874.4273],[22.92799,-6.58787,884.4431],[22.93264,-6.57205,856.8639],[22.99904,-6.45315,832.6128],[23.01878,-6.40876,785.3368],[23.02669,-6.38204,809.1839],[23.03847,-6.29719,722.5778],[23.0439,-6.28205,728.6984],[23.06545,-6.2438,695.0818],[23.07759,-6.2283,713.9908],[23.08658,-6.21394,718.4666],[23.08922,-6.19967,682.0547],[23.08534,-6.18443,701.3418],[23.07118,-6.16417,698.2833],[23.02049,-6.12495,727.1816],[23.00292,-6.10536,701.1484],[22.99098,-6.08723,702.0829],[22.97811,-6.0632,718.3896],[22.9671,-6.03395,761.6985],[22.95667,-5.9848,701.8],[22.95372,-5.85964,715.8673],[22.95605,-5.84724,660.0153],[22.96928,-5.81148,725.7318],[22.98183,-5.7875,708.6235],[22.99005,-5.77846,693.5303],[22.99842,-5.77236,728.8903],[23.00524,-5.76905,755.0309],[23.01578,-5.76564,708.5012],[23.04018,-5.76146,668.1252],[23.14399,-5.75851,689.0361],[23.27944,-5.74094,542.7161],[23.30662,-5.73272,517.9617],[23.35783,-5.70621,529.8871],[23.37008,-5.70115,540.0198],[23.38015,-5.70053,535.0119],[23.38775,-5.70575,470.9843],[23.38729,-5.71572,502.4565],[23.38434,-5.72787,484.7024],[23.38264,-5.74089,509.8187],[23.38543,-5.75221,507.9678],[23.39814,-5.76275,477.8398],[23.41152,-5.76383,507.8599],[23.4247,-5.76146,499.6109],[23.45012,-5.75143,631.4818],[23.4632,-5.74435,589.4549],[23.47421,-5.73598,607.2736],[23.48351,-5.72554,571.1855],[23.49653,-5.70456,546.4789],[23.50289,-5.69738,554.9802],[23.51265,-5.6889,488.6506],[23.52433,-5.68255,554.6478],[23.59275,-5.65878,659.9182],[23.61818,-5.64715,706.0709],[23.65792,-5.62343,664.553],[23.67016,-5.61893,731.0566],[23.6821,-5.61743,745.5566],[23.71626,-5.62162,712.9153],[23.72696,-5.61898,668.2704],[23.73517,-5.61103,539.8317],[23.73905,-5.60043,628.8325],[23.73781,-5.42566,702.1757],[23.73378,-5.4113,728.0844],[23.7254,-5.39678,670.3702],[23.70432,-5.37817,658.1107],[23.6882,-5.36908,667.1545],[23.64722,-5.35326,659.2175],[23.55766,-5.30391,595.4832],[23.46738,-5.27539,509.1132],[23.45509,-5.26753,552.1487],[23.44423,-5.25575,511.9864],[23.43679,-5.23865,434.6804],[23.42889,-5.22578,499.759],[23.41896,-5.21725,480.4396],[23.40759,-5.21565,511.9831],[23.39473,-5.21736,549.6514],[23.30197,-5.25022,562.1662],[23.28796,-5.25343,579.6606],[23.27556,-5.25513,598.6702],[23.26362,-5.25503,564.4736],[23.25153,-5.2527,580.1657],[23.23789,-5.24573,535.0449],[23.22358,-5.23239,560.7355],[23.16074,-5.1524,553.65],[23.058,-5.06036,631.0256],[22.97749,-5.00057,609.2911],[22.97346,-4.99654,580.7026],[22.9671,-4.98734,613.531],[22.96101,-4.97448,613.8392],[22.95636,-4.95463,614.6865],[22.9531,-4.90838,600.3561],[22.95465,-4.88487,606.0045],[22.95698,-4.87329,591.8551],[22.9609,-4.86213,578.6558],[22.96617,-4.85097,585.6352],[22.97951,-4.82854,571.1744],[22.98772,-4.81924,582.1138],[22.99641,-4.81263,568.7844],[23.00292,-4.80953,579.9091],[23.13888,-4.77449,509.9258],[23.15066,-4.76844,517.9591],[23.16198,-4.75986,502.1884],[23.17143,-4.74839,521.2401],[23.17686,-4.73682,512.9388],[23.17856,-4.72467,525.9152],[23.17903,-4.71243,509.2633],[23.17701,-4.6885,494.7153],[23.15686,-4.58561,501.497],[23.15019,-4.57073,515.0627],[23.14012,-4.55543,489.0124],[23.11898,-4.53388,519.7942],[23.10348,-4.52598,566.7461],[23.08891,-4.5221,524.0748],[23.02328,-4.51574,595.2692],[22.95093,-4.49983,569.6907],[22.90396,-4.50004,545.0115],[22.87848,-4.49688,549.5844],[22.86763,-4.4943,520.6061],[22.86034,-4.49146,494.4501],[22.85026,-4.48536,532.6126],[22.83843,-4.47435,533.2804],[22.77234,-4.39136,477.4041],[22.67596,-4.29266,490.3618],[22.62651,-4.25535,517.0167],[22.56827,-4.22475,464.316],[22.51571,-4.20429,508.9115],[22.4969,-4.19349,416.3192],[22.42275,-4.13696,473.0083],[22.4105,-4.12492,462.2093],[22.39804,-4.10993,436.0684],[22.37603,-4.07696,467.6004],[22.30389,-3.99521,412.1632],[22.29366,-3.9887,392.5212],[22.28508,-3.99288,383.1945],[22.21397,-4.00653,416.2362],[22.19403,-4.0259,382.3063],[22.17299,-4.03009,380.0],[22.14974,-4.02978,385.2399],[22.13367,-4.02637,382.0599],[22.12235,-4.01924,384.136],[22.10897,-4.00813,397.1725],[22.09796,-3.99505,379.3278],[22.09331,-3.98203,390.7456],[22.08385,-3.97511,385.9549],[22.03667,-3.96679,383.9925],[22.02789,-3.96642,380.4766],[22.01915,-3.96679,392.847],[22.01962,-3.96276,377.0],[22.02349,-3.95087,398.9658],[22.02969,-3.93981,449.7349],[22.03853,-3.92865,498.5805],[22.05,-3.92069,426.7264],[22.06225,-3.91495,441.2851],[22.07532,-3.91061,530.8055],[22.08742,-3.90813,495.3192],[22.09966,-3.90684,490.7317],[22.11222,-3.90658,444.9875],[22.15134,-3.9103,451.8911],[22.16467,-3.90999,531.0978],[22.17728,-3.90813,514.7161],[22.18984,-3.90286,566.8804],[22.19744,-3.89248,565.0994],[22.19992,-3.8764,503.0052],[22.19744,-3.85765,581.051],[22.14809,-3.72902,609.572],[22.13289,-3.70277,503.201],[22.12266,-3.69166,530.6687],[22.11129,-3.68437,545.064],[22.09827,-3.67941,570.4883],[22.02768,-3.66298,429.5852],[22.01698,-3.65833,449.1959],[22.00706,-3.65213,406.162],[22.00003,-3.64613,385.2368],[21.99306,-3.63859,384.181],[21.98608,-3.62846,382.7355],[21.97988,-3.60743,411.4585],[21.97585,-3.5804,486.351],[21.97647,-3.50516,470.878],[21.98189,-3.4863,456.2061],[21.98934,-3.47653,473.6656],[22.02535,-3.4416,453.2384],[22.0359,-3.42744,448.0123],[22.04365,-3.41276,450.0329],[22.04969,-3.3971,464.438],[22.05357,-3.38165,471.5557],[22.05915,-3.34129,466.6255],[22.06401,-3.32755,493.3734],[22.11269,-3.24533,467.4171],[22.19248,-3.01801,489.4666],[22.19465,-3.00163,478.8873],[22.19294,-2.98524,475.6489],[22.18426,-2.95165,522.4018],[22.17263,-2.91961,499.4174],[22.15692,-2.89207,485.1872],[22.03233,-2.72386,426.5795],[22.00985,-2.70345,467.2674],[22.00081,-2.6927,450.6429],[21.99352,-2.67989,451.1654],[21.98468,-2.65358,455.2897],[21.97848,-2.62744,468.5425],[21.9698,-2.56496,474.2108],[21.95166,-2.5355,543.2587],[21.89906,-2.49039,496.6802],[21.88831,-2.49664,474.2723],[21.83028,-2.52289,444.1826]]]}}