{"type":"Feature","properties":{"featurecla":"River","scalerank":3,"rivernum":81,"dissolve":"81River","name":"Kasai3","name_alt":null,"note":null,"min_zoom":3.0,"strokeweig":0.3,"name_en":"Kasai","min_label":4.0},
"geometry":{"type": "LineString","coordinates": [[21.205810546875,-6.69231536250588,560.1967],[21.184814453125,-6.68572356563088,562.9967],[21.146142578125023,-6.6521786437558887,509.3838],[21.108154296875,-6.62615325313088,551.4742],[21.061767578125,-6.5794247375058887,490.8917],[21.05029296875,-6.57170989375588,498.2627],[21.041259765625,-6.57219817500588,517.2356],[21.033837890625023,-6.57463958125588,507.0141],[21.02734375,-6.57219817500588,500.6019],[21.017333984375,-6.56218840938088,554.5263],[21.006982421875023,-6.5550106750058887,561.7721],[20.995849609375,-6.55022551875588,548.9473],[20.982666015625,-6.5476864562558887,518.7621],[20.973291015625023,-6.54924895625588,518.7794],[20.952880859375,-6.55657317500588,505.0979],[20.941064453125023,-6.55510833125588,481.9405],[20.936181640625023,-6.54900481563088,482.1449],[20.935546875,-6.53972747188088,487.6638],[20.933496093750023,-6.53142669063088,480.7728],[20.915185546875023,-6.5234677062558859,472.4908],[20.9140625,-6.5139950500058887,512.2128],[20.914794921875,-6.5042294250058887,486.9738],[20.911035156250023,-6.49993255000588,517.9057],[20.887939453125,-6.4988583312558887,485.2613],[20.876953125,-6.49700286250588,469.6531],[20.86669921875,-6.4936825500058859,505.0018],[20.855224609375,-6.4878231750058859,514.5213],[20.85,-6.48235442500588,472.2266],[20.846435546875,-6.47576262813088,485.9317],[20.839257812500023,-6.46575286250588,499.9229],[20.808251953125023,-6.4350888000058859,450.5629],[20.803466796875,-6.42595794063088,458.4168],[20.799218750000023,-6.40325286250588,448.2332],[20.794677734375,-6.39373137813088,460.9588],[20.765283203125023,-6.3608700500058859,490.9359],[20.757470703125023,-6.3491513000058859,472.6398],[20.725488281250023,-6.28313567500588,434.5433],[20.71240234375,-6.2637020812558859,433.5169],[20.684814453125,-6.23650481563088,434.8683],[20.68115234375,-6.22844817500588,431.0015],[20.6748046875,-6.19207122188088,436.9177],[20.653076171875,-6.1548153625058859,444.7425],[20.636865234375023,-6.13323333125588,472.1329],[20.623681640625023,-6.1238583312558887,433.9533],[20.621484375000023,-6.11419036250588,458.5579],[20.5849609375,-6.0335263000058887,442.1869],[20.580322265625,-6.0176083312558859,429.6382],[20.57763671875,-5.9297177062558859,463.7167],[20.57861328125,-5.9178036437558887,503.2066],[20.591552734375,-5.9041317687558887,477.3881],[20.631591796875,-5.8831356750058887,439.4954],[20.64013671875,-5.8733700500058887,427.1138],[20.645654296875023,-5.85930755000588,479.1508],[20.658837890625023,-5.8496395812558859,472.389],[20.687890625000023,-5.8357723937558887,449.3822],[20.69580078125,-5.8301083312558859,431.5565],[20.699951171875,-5.82610442500588,480.5566],[20.708984375,-5.81462981563088,423.1837],[20.7138671875,-5.8061825500058859,425.5251],[20.715478515625023,-5.7996395812558887,413.125],[20.720117187500023,-5.79558684688088,496.002],[20.733544921875023,-5.7942684875058887,418.6985],[20.74267578125,-5.78972747188088,426.5469],[20.750244140625,-5.7791317687558887,413.1357],[20.755517578125023,-5.76653411250588,432.1118],[20.757470703125023,-5.75628020625588,421.6382],[20.763574218750023,-5.7493466125058887,476.4563],[20.777734375000023,-5.7517880187558887,520.0192],[20.80517578125,-5.7600888000058887,444.5806],[20.814355468750023,-5.75090911250588,407.0],[20.829345703125,-5.71379973750588,470.7075],[20.835595703125023,-5.70549895625588,415.9861],[20.846826171875023,-5.69963958125588,404.0],[20.856689453125,-5.68523528438088,404.3581],[20.863916015625023,-5.66741301875588,413.7307],[20.86669921875,-5.65081145625588,459.2782],[20.863525390625,-5.61028411250588,489.8754],[20.871972656250023,-5.59929778438088,443.7789],[20.897705078125,-5.59563567500588,448.8689]]}}