{"type":"Feature","properties":{"featurecla":"River","scalerank":3,"rivernum":81,"dissolve":"81River","name":"Kasai2","name_alt":null,"note":null,"min_zoom":3.0,"strokeweig":0.25,"name_en":"Kasai","min_label":4.0},
"geometry":{"type": "LineString","coordinates": [[21.785302734375023,-7.27459075313088,705.8203],[21.79638671875,-7.2615536437558887,693.8514],[21.797021484375023,-7.25066497188088,721.1909],[21.7890625,-7.2431942687558859,694.2357],[21.761865234375023,-7.23796965938088,691.6866],[21.75439453125,-7.23162200313088,694.7336],[21.72509765625,-7.18474700313088,720.4577],[21.722558593750023,-7.17546965938088,687.1515],[21.721337890625023,-7.1655575500058859,686.9222],[21.717431640625023,-7.1504208312558859,693.3994],[21.711181640625,-7.13494231563088,689.5951],[21.70263671875,-7.1243466125058887,727.2648],[21.688232421875,-7.12664153438088,715.4315],[21.67724609375,-7.11077239375588,686.1268],[21.670312500000023,-7.08709075313088,709.0181],[21.66796875,-7.06560637813088,679.2937],[21.661279296875023,-7.0540341125058887,732.9937],[21.644775390625,-7.0447567687558887,760.8871],[21.6064453125,-7.0281552062558887,691.1605],[21.578759765625023,-7.00603606563088,700.193],[21.517724609375023,-6.9251278625058887,640.3508],[21.476953125000023,-6.8916317687558859,591.3504],[21.469970703125,-6.8872372375058859,599.3612],[21.422119140625,-6.8426083312558887,572.1375],[21.362451171875023,-6.8135067687558859,557.8778],[21.353271484375,-6.80535247188088,552.1333],[21.34521484375,-6.78679778438088,567.9512],[21.326416015625,-6.77312590938088,535.5502],[21.284326171875023,-6.75383880000588,557.5307],[21.227294921875,-6.7000302062558887,597.6005],[21.205810546875,-6.69231536250588,560.1967]]}}