{"type": "Feature","bbox": [18.3897,-2.7119,19.9537,-0.736],"geometry": {"type": "MultiPolygon","coordinates": [[[[18.7611,-1.2363,326.433],[18.785,-1.2515,322.1935],[18.7882,-1.2545,320.8598],[18.7929,-1.2636,319.7642],[18.8025,-1.3054,315.0124],[18.8192,-1.3304,314.7361],[18.8328,-1.3877,316.5341],[18.8274,-1.3936,319.3691],[18.813,-1.3938,315.5002],[18.806,-1.3991,315.2031],[18.7957,-1.4153,312.0089],[18.7972,-1.4224,294.7948],[18.8037,-1.4353,306.4579],[18.799,-1.4528,307.4996],[18.7792,-1.4702,299.5005],[18.7635,-1.471,313.8159],[18.7598,-1.4735,313.2191],[18.7413,-1.498,312.3354],[18.7244,-1.5039,304.8018],[18.7281,-1.5112,305.1392],[18.7305,-1.5213,308.4017],[18.7287,-1.5273,310.0614],[18.7225,-1.5313,292.0],[18.7201,-1.5349,292.0],[18.7179,-1.5506,292.0],[18.7049,-1.5691,314.4461],[18.6997,-1.5684,309.3572],[18.6966,-1.5662,315.6602],[18.6952,-1.5357,310.0246],[18.691,-1.5287,294.1479],[18.6878,-1.5278,292.0],[18.6393,-1.552,293.8074],[18.6159,-1.5513,294.7265],[18.5958,-1.5526,293.8636],[18.5847,-1.5545,295.7054],[18.5735,-1.5589,291.9776],[18.5524,-1.5588,291.4248],[18.5429,-1.5637,293.319],[18.5381,-1.5683,293.9201],[18.531,-1.5702,296.1393],[18.5207,-1.5682,294.1092],[18.5174,-1.5777,296.2427],[18.5124,-1.5775,294.2746],[18.5062,-1.5791,291.0],[18.5046,-1.581,292.2472],[18.5056,-1.5856,294.2504],[18.504,-1.5911,296.8917],[18.4976,-1.5976,291.0],[18.494,-1.6073,291.5627],[18.4823,-1.6273,291.0],[18.4719,-1.6791,294.2847],[18.4653,-1.6923,294.6019],[18.4459,-1.7186,293.2741],[18.4313,-1.7268,307.0415],[18.427,-1.7273,306.6718],[18.4194,-1.7243,316.1458],[18.4036,-1.7244,291.0],[18.3961,-1.727,310.2253],[18.3897,-1.7346,311.4573],[18.3994,-1.7371,307.3102],[18.4143,-1.7494,305.1477],[18.4232,-1.7494,310.5637],[18.4382,-1.7605,320.8678],[18.4461,-1.7573,301.5056],[18.4681,-1.7557,328.5218],[18.4792,-1.7522,316.8371],[18.4945,-1.7367,313.7858],[18.5038,-1.7314,318.6998],[18.5253,-1.7278,312.7568],[18.5291,-1.7257,315.2238],[18.5348,-1.7187,315.4747],[18.5478,-1.7198,315.7832],[18.5604,-1.7124,311.3392],[18.5715,-1.7088,315.4436],[18.5825,-1.7083,316.7786],[18.6159,-1.7125,305.4386],[18.6367,-1.707,297.4942],[18.6426,-1.7082,292.4461],[18.6525,-1.7145,304.041],[18.6747,-1.7227,306.0159],[18.678,-1.7258,303.1899],[18.6808,-1.7438,308.3448],[18.6843,-1.7506,310.8337],[18.6851,-1.7603,300.0409],[18.6897,-1.7658,299.681],[18.6956,-1.7694,298.2046],[18.7039,-1.7705,299.687],[18.7223,-1.7909,313.1425],[18.7271,-1.7927,314.2232],[18.7376,-1.7917,296.5164],[18.7694,-1.825,315.1067],[18.7765,-1.8282,311.4148],[18.7854,-1.8169,309.7675],[18.7906,-1.8157,298.947],[18.8012,-1.8207,303.3856],[18.8192,-1.8208,300.9454],[18.8234,-1.824,308.8737],[18.8298,-1.8331,308.8137],[18.8337,-1.8336,306.4089],[18.8487,-1.8169,312.7201],[18.8551,-1.8166,314.848],[18.8687,-1.8306,317.2023],[18.8726,-1.8328,312.2525],[18.8774,-1.8333,314.0625],[18.8843,-1.8406,312.8289],[18.8958,-1.8481,312.1196],[18.9054,-1.8501,317.0807],[18.9194,-1.8615,320.6938],[18.9509,-1.876,306.7462],[18.9554,-1.8764,308.1327],[18.9758,-1.8724,320.3648],[18.9906,-1.8727,316.4174],[19.0,-1.8755,319.0786],[19.1161,-1.9647,309.4188],[19.162,-2.0528,307.9388],[19.1593,-2.0521,307.3894],[19.1586,-2.0599,308.5253],[19.1649,-2.074,305.7898],[19.1643,-2.0874,307.8549],[19.1677,-2.1,312.6528],[19.1763,-2.1159,314.3585],[19.1838,-2.1259,312.0685],[19.2092,-2.1456,307.2424],[19.2138,-2.1511,307.7833],[19.2293,-2.1885,307.4424],[19.2435,-2.1957,312.8605],[19.26,-2.2126,318.2578],[19.2621,-2.2212,319.6686],[19.2578,-2.24,309.4111],[19.2589,-2.2467,299.8509],[19.2512,-2.2685,319.513],[19.2497,-2.278,318.7712],[19.2668,-2.3418,318.7913],[19.3017,-2.4482,301.9442],[19.3047,-2.4643,316.0719],[19.3051,-2.4804,321.1731],[19.3026,-2.5057,319.8536],[19.2915,-2.53,318.7454],[19.2875,-2.544,319.6395],[19.2841,-2.5709,327.2616],[19.2797,-2.5806,335.0699],[19.2777,-2.6049,323.413],[19.2744,-2.618,316.7135],[19.2739,-2.6295,319.9788],[19.2835,-2.6981,322.8404],[19.2821,-2.7119,331.0959],[19.2993,-2.7077,319.6426],[19.311,-2.7092,336.5275],[19.3222,-2.7076,332.7573],[19.3265,-2.6986,336.519],[19.3281,-2.6844,330.3378],[19.3295,-2.5531,323.9655],[19.3332,-2.5446,321.5615],[19.3668,-2.4978,317.9733],[19.3821,-2.4529,332.7343],[19.3695,-2.4535,326.5591],[19.3478,-2.4423,319.9123],[19.3415,-2.4361,323.3192],[19.3399,-2.4303,324.6408],[19.3488,-2.4041,323.6658],[19.3509,-2.3839,320.7457],[19.3473,-2.3756,324.1271],[19.3405,-2.3664,323.8643],[19.3288,-2.3407,317.2177],[19.3279,-2.3306,319.149],[19.3241,-2.3262,321.7737],[19.3216,-2.3168,321.4415],[19.3109,-2.3059,322.5018],[19.3075,-2.307,321.312],[19.2994,-2.2916,322.0066],[19.2999,-2.2766,321.6754],[19.304,-2.2748,319.7638],[19.3356,-2.2808,320.3183],[19.3493,-2.2756,318.9937],[19.362,-2.2885,316.5926],[19.3766,-2.2944,320.6872],[19.3874,-2.2855,319.6267],[19.3932,-2.2848,319.0159],[19.4032,-2.2904,317.403],[19.4082,-2.2909,318.5923],[19.4213,-2.2825,317.534],[19.4362,-2.2805,319.6462],[19.4635,-2.2699,320.5184],[19.4759,-2.2631,323.6005],[19.4802,-2.2633,320.8916],[19.4839,-2.2615,324.9572],[19.4998,-2.2441,314.4518],[19.5133,-2.2396,322.384],[19.525,-2.239,323.1722],[19.5408,-2.2322,321.3368],[19.5522,-2.2295,322.8232],[19.5577,-2.2307,318.6894],[19.6212,-2.2039,317.9784],[19.6418,-2.1895,321.0569],[19.6538,-2.1841,314.5847],[19.6673,-2.1819,317.0283],[19.691,-2.1717,321.1121],[19.7056,-2.1626,329.1165],[19.7211,-2.1471,331.5102],[19.7286,-2.1437,329.842],[19.7488,-2.1403,338.5437],[19.7706,-2.1191,342.7148],[19.7918,-2.0941,346.2814],[19.8146,-2.0722,361.0302],[19.813,-2.0651,362.587],[19.8141,-2.0567,354.1574],[19.8179,-2.0483,356.9012],[19.8264,-2.043,364.3946],[19.8386,-2.0382,351.5577],[19.8763,-2.0381,375.175],[19.8786,-2.0287,361.025],[19.8755,-2.0114,368.9425],[19.8778,-2.0018,364.9904],[19.8841,-1.9907,371.3068],[19.8924,-1.9871,364.0644],[19.9307,-1.9864,380.3132],[19.945,-1.9817,386.146],[19.9498,-1.9759,367.8617],[19.9537,-1.9684,380.3058],[19.9526,-1.9608,387.0215],[19.9494,-1.9548,361.1798],[19.9479,-1.9405,391.9423],[19.9407,-1.9276,383.7592],[19.9339,-1.9034,359.8005],[19.9276,-1.8972,356.7302],[19.9137,-1.8918,380.5241],[19.9014,-1.8791,364.289],[19.8975,-1.8497,355.6575],[19.8735,-1.7729,368.6309],[19.8551,-1.7069,367.0648],[19.8396,-1.6635,348.2704],[19.8354,-1.6571,365.9327],[19.8243,-1.6466,351.8277],[19.8176,-1.6431,351.0303],[19.807,-1.6408,352.0385],[19.8007,-1.6367,358.4156],[19.7672,-1.6,346.7215],[19.7492,-1.5862,352.4561],[19.7322,-1.5784,349.2523],[19.7293,-1.5807,356.9559],[19.7297,-1.5897,348.4486],[19.7274,-1.6042,357.1664],[19.7187,-1.6076,353.3654],[19.7122,-1.6131,358.0679],[19.6896,-1.6582,365.1642],[19.6852,-1.663,365.1534],[19.6795,-1.6644,364.9294],[19.6797,-1.6674,369.9884],[19.6652,-1.6817,384.4398],[19.6604,-1.6836,377.8506],[19.6526,-1.6966,350.2849],[19.6467,-1.728,339.439],[19.6444,-1.7579,341.0722],[19.6383,-1.7722,346.7216],[19.6343,-1.7775,342.2826],[19.6209,-1.7884,330.303],[19.6074,-1.7945,336.8361],[19.6013,-1.802,331.1118],[19.5434,-1.8001,334.6336],[19.5313,-1.7954,335.6492],[19.5026,-1.7743,321.1413],[19.5068,-1.7681,322.16],[19.5102,-1.7573,320.1436],[19.5178,-1.7473,329.1302],[19.519,-1.7381,328.8943],[19.5178,-1.7199,328.9248],[19.5204,-1.71,335.952],[19.5152,-1.6957,337.4048],[19.5157,-1.6838,330.8692],[19.5133,-1.673,332.0932],[19.5099,-1.6672,332.4185],[19.4928,-1.6531,330.3474],[19.489,-1.6434,330.6804],[19.4884,-1.6339,330.4347],[19.4919,-1.608,339.8717],[19.4904,-1.6004,348.8477],[19.4946,-1.5859,337.6346],[19.4947,-1.5721,332.2613],[19.4756,-1.5419,337.299],[19.4571,-1.4796,334.4944],[19.4456,-1.4532,326.7069],[19.4344,-1.4366,325.4215],[19.4334,-1.4247,327.5531],[19.4272,-1.4228,324.1511],[19.4157,-1.3941,327.6563],[19.3918,-1.3441,324.433],[19.3774,-1.2884,328.4109],[19.3503,-1.2135,345.935],[19.337,-1.186,342.8636],[19.3114,-1.104,342.8277],[19.301,-1.0772,343.6652],[19.2884,-1.0609,348.1058],[19.281,-1.0562,350.0154],[19.2718,-1.0529,345.5995],[19.2168,-1.0521,360.5695],[19.2116,-1.0484,363.9298],[19.2068,-1.0406,354.9889],[19.2016,-0.9902,347.4388],[19.1974,-0.9285,333.3059],[19.1903,-0.8927,337.2552],[19.1829,-0.8744,337.8406],[19.1399,-0.7972,328.4681],[19.1218,-0.7746,327.6815],[19.1029,-0.7561,333.1014],[19.0904,-0.7405,339.2679],[19.0816,-0.736,342.5049],[19.0786,-0.7507,332.5104],[19.0691,-0.7722,332.2327],[19.0606,-0.7836,333.2939],[19.0562,-0.7868,332.8653],[19.0363,-0.7922,339.3382],[19.0097,-0.8161,370.3553],[19.0,-0.8195,369.8706],[18.9524,-0.8263,363.9368],[18.9483,-0.8282,367.5804],[18.9278,-0.8264,355.4337],[18.8975,-0.8174,385.6209],[18.8824,-0.8153,353.9601],[18.793,-0.822,368.414],[18.769,-0.868,355.2867],[18.749,-0.935,355.8921],[18.743,-1.012,335.2134],[18.752,-1.023,330.3184],[18.818,-1.038,325.1541],[18.851,-1.078,330.9145],[18.869,-1.133,321.6628],[18.871,-1.166,318.0314],[18.83,-1.184,317.8888],[18.798,-1.144,319.1015],[18.745,-1.118,316.4364],[18.733,-1.144,320.6429],[18.72,-1.183,315.861],[18.7611,-1.2363,326.433]]]]}
,"properties": {"GID_2": "COD.16.5_1","GID_0": "COD","country": "DemocraticRepublicoftheCongo","GID_1": "COD.16_1","province": "Mai-Ndombe","NL_NAME_1": "NA","county": "Kiri","VARNAME_2": "NA","NL_NAME_2": "NA","TYPE_2": "Territoire","ENGTYPE_2": "Territory","CC_2": "NA","HASC_2": "NA","name": "Kiri.county","area_km2": 12658.285,"hist_schema_id": "Elevation0-9000","hist_area_km2": {"300": 2252.052,"325": 7313.719,"350": 2372.233,"375": 703.601,"400": 16.659}}}