{"type": "Feature","bbox": [23.1705,-7.9796,24.1581,-6.6448],"geometry": {"type": "MultiPolygon","coordinates": [[[[24.1471,-6.9031,628.0455],[24.1423,-6.9026,711.4268],[24.1375,-6.9067,622.637],[24.1352,-6.9056,651.0075],[24.1299,-6.9111,716.3741],[24.1234,-6.9118,722.3345],[24.1131,-6.9216,656.8157],[24.1048,-6.9262,672.174],[24.0776,-6.9267,665.0119],[24.0717,-6.9303,668.9979],[24.0597,-6.9168,697.2222],[24.0507,-6.9006,704.0376],[24.0384,-6.887,722.6493],[24.0185,-6.8833,717.6787],[23.9901,-6.8922,710.9888],[23.9348,-6.9003,761.7205],[23.9262,-6.8996,757.288],[23.9144,-6.8913,718.4684],[23.9094,-6.8842,729.6826],[23.9101,-6.8719,715.8968],[23.9084,-6.8672,719.7407],[23.9045,-6.8635,717.6879],[23.867,-6.8519,694.3892],[23.8617,-6.847,695.0739],[23.8604,-6.8423,683.8471],[23.863,-6.8341,678.6788],[23.8705,-6.8243,689.1112],[23.8728,-6.8181,690.5284],[23.8728,-6.8054,711.9955],[23.8621,-6.7993,698.6056],[23.8347,-6.7996,695.0474],[23.8234,-6.7888,698.2703],[23.815,-6.7902,684.7684],[23.8076,-6.7827,698.2889],[23.806,-6.7769,673.0425],[23.8095,-6.7616,674.2946],[23.8056,-6.7567,690.9742],[23.7969,-6.7554,685.4857],[23.7878,-6.7588,687.0003],[23.779,-6.7589,688.842],[23.7531,-6.7501,659.8595],[23.7417,-6.7504,657.5813],[23.7338,-6.7437,657.3097],[23.7374,-6.7278,632.3334],[23.7091,-6.7487,681.8562],[23.7047,-6.7483,693.0499],[23.702,-6.7299,647.625],[23.6954,-6.7266,672.4148],[23.6909,-6.7271,676.4651],[23.6751,-6.7411,685.657],[23.6691,-6.7434,680.6617],[23.6484,-6.7463,715.9734],[23.6383,-6.7459,724.494],[23.628,-6.7486,723.498],[23.6242,-6.7533,737.9912],[23.6193,-6.7693,749.7916],[23.6164,-6.7714,744.0822],[23.599,-6.7704,751.694],[23.5867,-6.7655,791.0278],[23.5421,-6.7412,756.8353],[23.5343,-6.7362,751.2118],[23.5145,-6.718,771.0496],[23.5072,-6.7167,757.921],[23.4957,-6.7063,758.1945],[23.4879,-6.6911,721.6492],[23.4805,-6.6854,723.4678],[23.4778,-6.6706,703.2666],[23.475,-6.666,722.2894],[23.4684,-6.6601,705.1215],[23.4578,-6.6566,687.5029],[23.4502,-6.6465,688.8814],[23.4461,-6.6448,697.3641],[23.442,-6.6455,684.5074],[23.4353,-6.6589,693.3187],[23.43,-6.6607,714.9091],[23.4247,-6.6662,713.111],[23.4153,-6.6666,695.0731],[23.4116,-6.6721,713.1729],[23.412,-6.6756,696.6459],[23.4191,-6.688,708.9786],[23.4129,-6.7013,722.647],[23.412,-6.7071,739.9951],[23.4028,-6.7158,736.5535],[23.389,-6.7169,734.8569],[23.3673,-6.7307,754.5505],[23.3581,-6.7318,742.4771],[23.3547,-6.7348,734.772],[23.3487,-6.749,741.6349],[23.342,-6.7532,748.3445],[23.339,-6.7589,754.0885],[23.3296,-6.7609,752.0798],[23.3236,-6.7602,761.608],[23.3183,-6.7655,759.1244],[23.3121,-6.7653,762.4899],[23.3128,-6.7692,755.0911],[23.3229,-6.7791,753.2543],[23.3323,-6.7938,751.6661],[23.3316,-6.7977,754.1075],[23.3376,-6.8016,768.7062],[23.3339,-6.8044,753.3088],[23.3252,-6.8035,761.572],[23.3153,-6.7998,765.4851],[23.315,-6.8071,762.5146],[23.309,-6.8193,763.8068],[23.3104,-6.822,761.2733],[23.3053,-6.8262,794.2192],[23.3,-6.8347,814.3245],[23.2913,-6.8425,813.1549],[23.2906,-6.8457,805.8372],[23.2998,-6.862,810.001],[23.3078,-6.86,811.7214],[23.3081,-6.8623,808.749],[23.3028,-6.8701,814.4543],[23.2933,-6.8733,813.8428],[23.2889,-6.8795,817.0046],[23.2917,-6.8852,812.7587],[23.282,-6.9079,812.8351],[23.2795,-6.91,822.1705],[23.2827,-6.9132,812.3147],[23.2811,-6.9157,817.3345],[23.2772,-6.9153,832.7537],[23.2765,-6.9171,826.2784],[23.279,-6.9201,811.6385],[23.2783,-6.9226,812.7253],[23.2691,-6.9362,814.2498],[23.2709,-6.938,816.0277],[23.2758,-6.9346,815.5256],[23.2801,-6.936,815.2194],[23.2716,-6.9493,815.4297],[23.2737,-6.9585,813.8445],[23.2718,-6.9628,814.0136],[23.2651,-6.9674,814.4355],[23.2647,-6.9704,814.4011],[23.2702,-6.9748,815.5123],[23.263,-6.9768,815.2282],[23.258,-6.9888,814.6736],[23.2511,-6.9904,817.8065],[23.2494,-6.9927,824.8945],[23.2515,-7.0005,815.6854],[23.2467,-7.008,823.8352],[23.2471,-7.0106,817.6855],[23.2513,-7.0115,816.2631],[23.2513,-7.0147,816.3871],[23.2547,-7.0173,817.8922],[23.2519,-7.0207,818.3535],[23.26,-7.0258,815.678],[23.2591,-7.0301,815.9398],[23.2615,-7.04,822.0728],[23.2602,-7.0425,817.7303],[23.2554,-7.0407,820.5394],[23.254,-7.0492,816.5256],[23.2478,-7.045,822.1847],[23.2411,-7.051,820.6749],[23.2441,-7.054,816.7929],[23.2335,-7.0597,820.7171],[23.2353,-7.0627,818.5911],[23.2312,-7.0703,819.0385],[23.2323,-7.0747,819.1621],[23.2291,-7.0788,824.0352],[23.2304,-7.0834,822.994],[23.2275,-7.0936,826.1414],[23.2272,-7.1004,827.8522],[23.2318,-7.102,824.4812],[23.2311,-7.1082,842.9688],[23.2286,-7.1139,847.4752],[23.2251,-7.1144,846.4564],[23.2228,-7.1169,833.9529],[23.223,-7.1291,821.3113],[23.2198,-7.1332,834.6417],[23.2161,-7.1514,824.2225],[23.2163,-7.1592,835.7777],[23.2145,-7.1612,834.4161],[23.2165,-7.1635,830.7753],[23.2144,-7.167,831.7155],[23.219,-7.1693,831.1071],[23.2319,-7.17,827.7463],[23.2349,-7.1721,827.5427],[23.2314,-7.184,829.0008],[23.231,-7.1959,827.2866],[23.2326,-7.2035,828.8884],[23.2374,-7.2084,835.5079],[23.2339,-7.2139,832.7128],[23.2351,-7.2189,828.4556],[23.2335,-7.2279,831.5456],[23.2374,-7.2295,828.5942],[23.2307,-7.2511,833.3494],[23.232,-7.2529,831.8441],[23.2387,-7.247,830.0135],[23.2394,-7.2497,829.272],[23.2357,-7.2568,843.0785],[23.2347,-7.2892,836.6412],[23.2315,-7.3113,834.3664],[23.2273,-7.3209,852.8032],[23.2296,-7.3273,847.334],[23.2264,-7.337,840.0933],[23.2381,-7.3439,834.9261],[23.2475,-7.3441,831.5547],[23.2494,-7.3464,836.6738],[23.2475,-7.3575,841.6577],[23.2558,-7.3644,831.373],[23.2546,-7.3699,836.0184],[23.2491,-7.3795,838.6243],[23.2496,-7.385,834.8154],[23.2452,-7.3917,835.0231],[23.2452,-7.3944,835.2009],[23.236,-7.3995,849.9077],[23.2392,-7.4041,834.0564],[23.2323,-7.4137,851.2131],[23.2373,-7.4279,843.3298],[23.2403,-7.4286,835.4609],[23.2412,-7.425,840.649],[23.2449,-7.425,848.6588],[23.2465,-7.4277,840.3466],[23.2451,-7.4323,841.9307],[23.2465,-7.4372,846.4068],[23.2545,-7.4505,836.138],[23.2504,-7.4624,849.6033],[23.2448,-7.4665,860.2261],[23.2439,-7.4714,842.5291],[23.2453,-7.4746,838.4123],[23.243,-7.4773,843.7505],[23.2393,-7.4778,842.7933],[23.2344,-7.4867,844.2782],[23.2361,-7.4911,843.0146],[23.2319,-7.4948,867.2197],[23.2296,-7.5003,868.0183],[23.2275,-7.5028,851.537],[23.2204,-7.5012,853.4744],[23.2142,-7.5062,883.6954],[23.2142,-7.511,863.9849],[23.2077,-7.5113,863.2906],[23.2077,-7.5133,870.241],[23.2121,-7.5182,854.2877],[23.2086,-7.5358,844.6391],[23.2095,-7.5386,850.9576],[23.2148,-7.5414,847.2137],[23.2143,-7.5473,853.2891],[23.2187,-7.5501,868.6342],[23.2198,-7.5528,863.5411],[23.2189,-7.5584,877.2917],[23.2283,-7.5701,867.7091],[23.2276,-7.5733,864.442],[23.2235,-7.5779,885.3884],[23.2249,-7.5822,877.6377],[23.2191,-7.588,905.5139],[23.2184,-7.5916,897.0605],[23.2193,-7.5985,873.5912],[23.2251,-7.6008,873.7587],[23.2209,-7.6105,871.9219],[23.2227,-7.6181,869.4733],[23.2195,-7.6226,884.656],[23.22,-7.6249,879.007],[23.2264,-7.6305,860.0543],[23.2273,-7.6346,876.0975],[23.2262,-7.6392,876.3371],[23.2296,-7.6452,864.7234],[23.228,-7.6488,878.4567],[23.2294,-7.6566,876.5687],[23.2254,-7.667,875.2422],[23.219,-7.6695,872.2239],[23.2199,-7.6768,871.1407],[23.2148,-7.6793,870.7832],[23.2134,-7.6823,867.7434],[23.2164,-7.689,865.3704],[23.2132,-7.6894,862.9527],[23.2111,-7.692,868.3746],[23.2127,-7.6943,871.3413],[23.2196,-7.6964,872.6226],[23.2185,-7.7025,862.1279],[23.2139,-7.7062,863.8358],[23.2109,-7.7145,865.6215],[23.2069,-7.7174,869.4445],[23.2037,-7.7296,873.3523],[23.1933,-7.7496,870.3456],[23.1862,-7.7544,875.1814],[23.1838,-7.7601,870.2038],[23.1863,-7.7808,867.0725],[23.1817,-7.7817,867.7161],[23.1824,-7.7851,868.5477],[23.176,-7.7943,873.4241],[23.1794,-7.8115,870.9276],[23.1879,-7.8122,880.7975],[23.1844,-7.8242,869.7653],[23.1856,-7.832,869.9614],[23.1814,-7.8372,882.1078],[23.1817,-7.8395,875.7621],[23.1888,-7.8418,869.4822],[23.1853,-7.8522,870.9877],[23.1747,-7.8581,889.0527],[23.1731,-7.8652,883.2932],[23.177,-7.8705,872.4351],[23.1705,-7.8749,873.1422],[23.1749,-7.901,880.3412],[23.1783,-7.9082,874.7752],[23.1767,-7.9111,882.0975],[23.1808,-7.9237,891.5159],[23.2004,-7.9374,881.8774],[23.1978,-7.9422,886.1776],[23.1994,-7.947,891.947],[23.205,-7.9493,878.241],[23.2057,-7.9537,880.6458],[23.2098,-7.9573,880.933],[23.2146,-7.9567,883.0526],[23.2241,-7.9505,888.8753],[23.2282,-7.9507,891.6774],[23.237,-7.9611,889.4685],[23.2473,-7.9682,891.2994],[23.2554,-7.9689,892.8192],[23.2678,-7.9756,891.3148],[23.2798,-7.9704,902.7101],[23.2908,-7.9577,935.9006],[23.3095,-7.944,1003.2442],[23.3802,-7.9524,1003.0404],[23.3899,-7.9551,998.2516],[23.3993,-7.9549,1002.2234],[23.4423,-7.944,1023.7945],[23.46,-7.9588,1052.679],[23.4793,-7.9619,1001.1632],[23.4818,-7.9677,990.7908],[23.4885,-7.9707,975.7207],[23.4928,-7.9789,968.7783],[23.4974,-7.9796,961.3616],[23.5085,-7.9741,962.6453],[23.5184,-7.9728,951.2057],[23.526,-7.9673,940.5284],[23.5415,-7.948,923.6497],[23.5594,-7.9453,921.9012],[23.5673,-7.9393,917.2433],[23.5735,-7.9398,912.7924],[23.5749,-7.9382,912.2375],[23.5836,-7.9365,916.4411],[23.5921,-7.9472,940.4568],[23.6256,-7.9668,993.2964],[23.6477,-7.9689,1024.4521],[23.6884,-7.9675,957.4611],[23.6884,-7.9597,968.5666],[23.6916,-7.9526,960.6854],[23.6912,-7.9448,963.7744],[23.7064,-7.9278,946.9734],[23.7066,-7.9232,943.4453],[23.7133,-7.9168,947.0894],[23.7135,-7.9118,939.3896],[23.7177,-7.9079,940.0712],[23.7165,-7.9035,949.0765],[23.7184,-7.8957,952.0823],[23.7156,-7.884,952.0078],[23.7166,-7.8803,953.3088],[23.7253,-7.8686,934.8457],[23.7357,-7.8583,933.3337],[23.75,-7.8305,928.8652],[23.756,-7.8241,928.598],[23.7714,-7.8365,931.1977],[23.7744,-7.8441,938.5807],[23.7804,-7.8494,935.7764],[23.7972,-7.8593,937.0779],[23.8011,-7.8664,944.5127],[23.811,-7.9137,959.7786],[23.8107,-7.9229,955.3705],[23.8146,-7.9362,962.766],[23.8123,-7.9449,973.3292],[23.8139,-7.9486,959.7734],[23.8118,-7.9527,974.8273],[23.8118,-7.9576,989.0643],[23.8213,-7.9538,968.4987],[23.8223,-7.9252,972.5588],[23.8191,-7.8951,978.9131],[23.8241,-7.8867,973.9202],[23.8577,-7.8736,945.33],[23.9025,-7.8628,907.7655],[23.939,-7.8407,875.3174],[23.9549,-7.8333,843.1595],[23.9513,-7.8262,845.3536],[23.9584,-7.8195,833.0951],[23.9612,-7.8129,839.5586],[23.9598,-7.8002,839.736],[23.9575,-7.7936,829.3752],[23.952,-7.786,842.5336],[23.9529,-7.7796,844.0896],[23.9481,-7.7745,831.5604],[23.9223,-7.7281,824.1129],[23.9198,-7.7178,824.8095],[23.9205,-7.7114,827.6447],[23.9249,-7.7038,820.4567],[23.9281,-7.6914,824.3781],[23.9329,-7.6854,823.3657],[23.9311,-7.6834,819.8948],[23.9219,-7.6808,827.4948],[23.9297,-7.6723,824.9762],[23.9313,-7.668,822.9079],[23.9309,-7.6616,817.6857],[23.9231,-7.637,846.1859],[23.9277,-7.6266,828.611],[23.9258,-7.6172,836.706],[23.9364,-7.5952,820.9799],[23.9309,-7.5839,813.6522],[23.9316,-7.5754,812.4099],[23.93,-7.5715,810.3275],[23.9224,-7.5679,823.7295],[23.9215,-7.566,832.4067],[23.927,-7.5582,816.5689],[23.9326,-7.5529,818.8583],[23.9344,-7.5532,811.42],[23.9351,-7.5484,818.9042],[23.9273,-7.5295,805.4078],[23.9298,-7.5242,828.9656],[23.9386,-7.5167,819.7614],[23.9469,-7.5125,814.2474],[23.9487,-7.4976,806.5515],[23.9554,-7.4928,804.6404],[23.9575,-7.4887,802.5468],[23.9561,-7.4861,809.585],[23.9638,-7.4719,800.7292],[23.9618,-7.4625,800.5177],[23.966,-7.4584,797.4547],[23.9669,-7.4499,803.2361],[23.9718,-7.4453,797.0443],[23.9745,-7.4177,798.7035],[23.9768,-7.4117,794.9406],[23.9752,-7.4012,791.8165],[23.9794,-7.3883,786.2325],[23.9787,-7.3849,787.2661],[23.9835,-7.3835,783.2593],[23.9914,-7.378,782.7821],[24.0038,-7.3776,775.6769],[24.007,-7.3753,775.0898],[24.01,-7.3698,773.8655],[24.0093,-7.3645,776.0236],[24.0006,-7.3652,773.9523],[23.9962,-7.361,779.1406],[23.9946,-7.3548,796.8623],[23.9879,-7.3493,763.927],[23.9773,-7.3486,760.9282],[23.9697,-7.3458,761.2424],[23.9663,-7.3415,760.34],[23.9651,-7.3339,759.8101],[23.9617,-7.3265,760.6091],[23.9622,-7.3215,765.365],[23.9652,-7.3169,784.2782],[23.9744,-7.3114,759.6237],[23.9711,-7.302,766.8492],[23.977,-7.2958,762.4108],[23.973,-7.2896,754.0889],[23.979,-7.2743,749.9984],[23.9781,-7.2691,751.0308],[23.9799,-7.265,749.9517],[23.9857,-7.2622,749.2542],[23.9772,-7.2498,756.1438],[23.9654,-7.2367,758.8677],[23.962,-7.2268,742.5286],[23.9638,-7.2174,741.7979],[23.9611,-7.2103,741.6295],[23.9733,-7.1981,742.1262],[23.9793,-7.202,752.3086],[23.9825,-7.2009,742.4365],[23.9865,-7.1959,739.3015],[23.983,-7.1871,733.193],[23.9839,-7.1846,733.8017],[24.0027,-7.1747,730.25],[24.0067,-7.169,732.2389],[24.0145,-7.1635,726.875],[24.0267,-7.1311,740.211],[24.0306,-7.1288,707.1346],[24.0315,-7.1221,697.6444],[24.0451,-7.1148,691.541],[24.0504,-7.1098,677.4052],[24.0557,-7.0891,674.1678],[24.0605,-7.0836,675.1749],[24.0612,-7.0748,679.288],[24.0665,-7.068,672.9855],[24.0748,-7.0675,674.7703],[24.0808,-7.0696,680.0591],[24.0849,-7.0654,673.3653],[24.0898,-7.0645,676.1622],[24.0918,-7.0618,676.1793],[24.0971,-7.0613,675.4873],[24.0997,-7.0638,668.9059],[24.1086,-7.0627,670.3417],[24.1135,-7.065,671.7432],[24.1133,-7.072,663.7472],[24.1199,-7.0701,651.3516],[24.1217,-7.0673,653.9581],[24.1243,-7.0503,647.2051],[24.1266,-7.0482,636.3149],[24.1411,-7.0506,632.3969],[24.1418,-7.0402,637.7443],[24.1475,-7.017,632.7371],[24.1367,-7.0117,636.0242],[24.1321,-7.0078,633.8704],[24.1305,-7.0034,631.3311],[24.1314,-6.9995,634.0051],[24.1494,-6.9888,639.1597],[24.1524,-6.9846,633.2416],[24.1519,-6.9823,629.29],[24.1463,-6.9785,629.3499],[24.1418,-6.9727,628.3274],[24.14,-6.9593,627.6766],[24.1266,-6.9609,627.7441],[24.1241,-6.9589,627.3455],[24.1218,-6.9467,631.6108],[24.1252,-6.9439,626.4501],[24.1487,-6.9426,626.4476],[24.1575,-6.9322,627.1321],[24.1581,-6.9288,625.3016],[24.147,-6.9196,638.7974],[24.1471,-6.9031,628.0455]],
[[23.4453,-6.9348,916.3553],[23.4749,-6.9417,908.8292],[23.5085,-6.9399,846.0972],[23.5291,-6.9409,845.5948],[23.5464,-6.9587,839.8572],[23.5508,-6.9801,853.9571],[23.553,-7.0032,819.7483],[23.5328,-7.0115,837.0156],[23.509,-7.026,838.1415],[23.4942,-7.0407,872.695],[23.4794,-7.0434,899.7703],[23.4548,-7.0339,965.5064],[23.4311,-7.0306,941.9612],[23.4082,-7.0296,885.0499],[23.4065,-7.0096,878.3777],[23.4102,-6.9822,928.6935],[23.4229,-6.9493,910.9163],[23.4333,-6.9314,899.0143],[23.4453,-6.9348,916.3553]]]]}
,"properties": {"GID_2": "COD.14.6_1","GID_0": "COD","country": "DemocraticRepublicoftheCongo","GID_1": "COD.14_1","province": "Lomami","NL_NAME_1": "NA","county": "Luilu","VARNAME_2": "NA","NL_NAME_2": "NA","TYPE_2": "Territoire","ENGTYPE_2": "Territory","CC_2": "NA","HASC_2": "NA","name": "Luilu.county","area_km2": 10641.169,"hist_schema_id": "Elevation0-9000","hist_area_km2": {"625": 8.145,"650": 63.509,"675": 157.743,"700": 240.968,"725": 325.66,"750": 407.79,"775": 550.505,"800": 770.085,"825": 1063.714,"850": 1211.762,"875": 1358.672,"900": 1351.682,"925": 1200.727,"950": 897.4,"975": 635.823,"1000": 269.198,"1025": 81.151,"1050": 46.637}}}