{"type": "Feature","bbox": [20.7668,-6.4564,20.8674,-6.3701],"geometry": {"type": "MultiPolygon","coordinates": [[[[20.8281,-6.4564,470.6298],[20.8434,-6.4544,467.1673],[20.8531,-6.4513,540.4692],[20.8603,-6.4452,546.061],[20.8649,-6.436,572.494],[20.8674,-6.4141,587.2908],[20.8664,-6.4033,607.9442],[20.8608,-6.386,633.364],[20.8521,-6.3793,596.3728],[20.8388,-6.3722,574.3652],[20.825,-6.3701,551.4301],[20.8123,-6.3722,566.6402],[20.7822,-6.389,440.3298],[20.7745,-6.3987,471.1332],[20.7668,-6.4141,533.8406],[20.7684,-6.4314,548.5335],[20.7806,-6.4472,472.2138],[20.7959,-6.4539,531.6774],[20.8281,-6.4564,470.6298]]]]}
,"properties": {"GID_2": "COD.9.8_1","GID_0": "COD","country": "DemocraticRepublicoftheCongo","GID_1": "COD.9_1","province": "Kasaï","NL_NAME_1": "NA","county": "Tshikapa","VARNAME_2": "NA","NL_NAME_2": "NA","TYPE_2": "Ville","ENGTYPE_2": "Town","CC_2": "NA","HASC_2": "NA","name": "Tshikapa.county","area_km2": 84.2356,"hist_schema_id": "Elevation0-9000","hist_area_km2": {"425": 3.58175,"450": 11.77761,"475": 14.95921,"500": 14.83283,"525": 14.09541,"550": 12.07289,"575": 7.56413,"600": 4.65644,"625": 0.69532}}}