{"type":"Feature","properties":{"GID_2":"COD.25.7_1","GID_0":"COD","country":"DemocraticRepublicoftheCongo","GID_1":"COD.25_1","province":"Tshopo","NL_NAME_1":"NA","county":"Kisangani","VARNAME_2":"NA","NL_NAME_2":"NA","TYPE_2":"Territoire","ENGTYPE_2":"Territory","CC_2":"NA","HASC_2":"NA","name":"Kisangani.county"},
"geometry":{"type": "MultiPolygon","coordinates": [[[[25.3592,0.9633,474.612],[25.3492,0.957,472.7651],[25.2815,0.7967,444.0315],[25.2767,0.7908,448.8631],[25.2767,0.7878,448.466],[25.2575,0.7788,447.3591],[25.2546,0.7683,434.023],[25.2571,0.7555,436.1628],[25.2541,0.7456,444.5172],[25.25,0.7421,430.5684],[25.2278,0.6878,427.3943],[25.2135,0.6749,424.3959],[25.1919,0.6595,425.4282],[25.14,0.6409,378.0],[25.0752,0.6302,431.8939],[25.0362,0.6325,436.7519],[25.0179,0.6306,434.1571],[25.0072,0.6278,427.3863],[25.0115,0.6133,417.5522],[25.038,0.5931,403.5798],[25.0438,0.5857,414.2057],[25.0378,0.5557,376.5],[24.986,0.5504,385.2952],[24.9333,0.5373,379.9701],[24.9217,0.5377,375.0],[24.8962,0.5472,374.5],[24.8731,0.5403,440.4063],[24.862,0.529,439.4955],[24.862,0.5091,451.9054],[24.8642,0.4892,468.873],[24.9003,0.4675,501.5372],[24.9547,0.4622,449.6971],[24.9685,0.4583,473.5948],[24.9943,0.421,516.9607],[25.0028,0.3981,500.5929],[25.005,0.363,509.3478],[25.0255,0.3409,483.2646],[25.0327,0.2747,508.7523],[25.0269,0.1381,522.6976],[25.0205,0.1238,480.6017],[25.0429,0.1305,484.7796],[25.0641,0.1474,492.2409],[25.0699,0.1953,505.1915],[25.0729,0.253,525.2034],[25.0986,0.2649,515.3264],[25.1047,0.2958,458.0491],[25.1242,0.2987,455.6832],[25.1509,0.2937,450.2664],[25.1591,0.3106,432.4722],[25.1775,0.3743,419.5853],[25.1796,0.4001,436.4522],[25.1878,0.4081,431.1346],[25.3006,0.3391,426.5117],[25.3006,0.3103,463.4424],[25.3077,0.3003,466.5368],[25.3118,0.2874,461.3782],[25.3375,0.2803,424.0837],[25.3805,0.2922,463.0223],[25.4288,0.3292,399.2633],[25.4126,0.3436,423.5147],[25.395,0.3497,402.576],[25.3778,0.3591,412.8204],[25.3614,0.3714,399.9503],[25.3566,0.3726,418.4934],[25.3522,0.3971,407.9564],[25.3374,0.4345,396.0973],[25.3223,0.4558,391.282],[25.325,0.4572,397.4624],[25.3378,0.4566,419.8606],[25.3428,0.4584,406.6194],[25.3506,0.4582,428.4799],[25.3617,0.4652,407.9997],[25.3633,0.4695,427.0782],[25.3619,0.4748,432.2997],[25.3648,0.5026,434.0079],[25.3716,0.5171,461.3456],[25.3876,0.519,445.773],[25.396,0.5156,452.8356],[25.4003,0.5239,458.0094],[25.4151,0.5354,457.4718],[25.4436,0.5837,445.4761],[25.461,0.6071,463.1394],[25.4697,0.6289,476.4771],[25.4769,0.6369,456.999],[25.4923,0.6448,487.2586],[25.5108,0.6716,462.5573],[25.521,0.6796,453.6438],[25.5189,0.6983,435.1324],[25.5155,0.6932,432.9534],[25.5077,0.6893,424.5614],[25.4997,0.6883,420.8811],[25.4949,0.691,425.4279],[25.4801,0.6896,424.696],[25.4758,0.691,402.7023],[25.4707,0.705,397.0],[25.4718,0.7142,426.9383],[25.4702,0.7174,411.1505],[25.4604,0.7215,398.6454],[25.4524,0.7231,417.7947],[25.449,0.721,413.8635],[25.4471,0.715,440.6596],[25.4394,0.7113,441.297],[25.4323,0.7101,435.2649],[25.4293,0.7191,439.3418],[25.4247,0.7241,400.2543],[25.422,0.7248,419.9656],[25.4075,0.7039,449.0992],[25.4013,0.7013,440.8064],[25.3933,0.7017,430.9773],[25.3844,0.7072,408.785],[25.3801,0.707,418.3217],[25.359,0.7222,447.3828],[25.3568,0.749,458.697],[25.3513,0.7595,468.0609],[25.3534,0.7657,472.4817],[25.362,0.7713,482.5334],[25.3682,0.7809,453.5043],[25.3773,0.7858,452.7492],[25.3795,0.7906,448.5293],[25.3742,0.8044,454.8982],[25.377,0.8099,448.2676],[25.3731,0.8157,456.8209],[25.3717,0.8216,457.2151],[25.3723,0.8301,454.0659],[25.3696,0.8366,457.4863],[25.3711,0.8474,460.548],[25.37,0.8543,451.393],[25.3566,0.882,461.0779],[25.3589,0.8885,460.5219],[25.3659,0.8984,458.4893],[25.3682,0.9113,470.57],[25.3736,0.9242,480.2509],[25.3804,0.9295,483.6712],[25.3684,0.962,469.961],[25.3592,0.9633,474.612]]]]}}