{"type":"Feature","properties":{"ISO3166-1-Alpha-3":"COD","country":"Democratic Republic of the Congo","fill":"#F00","id":"1897","name":"Katanga"},
"geometry":{"type": "Polygon","coordinates": [[[29.96911,-6.80304,770.0],[29.87309,-6.75421,770.0],[29.73863,-6.65241,770.0],[29.707,-6.61934,770.0],[29.68437,-6.58151,770.0],[29.63393,-6.44694,770.0],[29.56603,-6.35951,770.0],[29.53771,-6.31238,770.0],[29.52552,-6.2731,770.0],[29.50882,-6.15373,770.0],[29.4787,-6.0418,770.0],[29.47611,-6.00211,770.0],[29.49606,-5.93865,770.0],[29.57089,-5.83799,770.0],[29.60303,-5.78166,770.0],[29.61243,-5.70435,770.0],[29.59352,-5.62033,770.0],[29.49637,-5.39171,770.0],[29.45565,-5.22996,770.0],[29.37782,-5.08754,770.0],[29.34423,-5.006,770.0],[29.34279,-4.99995,770.0],[29.34248,-4.99995,770.0],[29.11376,-4.99995,1023.6766],[28.82453,-4.99995,889.1731],[26.26944,-4.99995,556.8644],[26.24696,-5.04439,558.0601],[26.20629,-5.16242,582.7567],[26.19606,-5.18134,584.4541],[26.12391,-5.28071,610.0496],[26.10066,-5.32924,624.25],[26.08635,-5.37946,608.0413],[26.08666,-5.39833,593.4221],[26.09069,-5.41455,597.5936],[26.13368,-5.47987,621.281],[26.13988,-5.49269,625.4515],[26.1419,-5.50457,634.1384],[26.13833,-5.51594,633.6545],[26.13027,-5.5269,640.1448],[26.10593,-5.55305,654.0833],[26.09162,-5.57268,650.3914],[26.07534,-5.60581,668.7388],[26.0696,-5.62529,675.7402],[26.06774,-5.64152,690.5176],[26.0696,-5.65051,688.0922],[26.07224,-5.65841,689.8321],[26.07813,-5.66968,717.1013],[26.08588,-5.6812,748.4686],[26.09534,-5.69283,728.0164],[26.14252,-5.7336,746.1295],[26.15368,-5.74523,691.6425],[26.16288,-5.76383,709.5743],[26.16846,-5.79505,693.2877],[26.16303,-5.92661,772.7644],[26.16861,-5.98806,767.6871],[26.17172,-6.0047,724.0848],[26.1728,-6.01669,717.7588],[26.17063,-6.02831,687.6336],[26.16474,-6.0419,734.082],[26.14019,-6.08536,752.395],[26.13771,-6.09978,799.9827],[26.13833,-6.11446,817.5763],[26.14283,-6.12774,780.7106],[26.17063,-6.1805,829.5108],[26.17668,-6.19848,827.191],[26.17714,-6.21244,783.9905],[26.17404,-6.22556,779.6611],[26.16753,-6.2376,817.0423],[26.15916,-6.24861,852.1736],[26.14872,-6.25693,853.7986],[26.1374,-6.26112,852.348],[26.12453,-6.26132,852.5251],[26.07193,-6.25621,792.7755],[26.05968,-6.25667,798.0633],[26.0479,-6.25838,786.6025],[26.03591,-6.26236,805.3131],[26.02444,-6.26969,793.3924],[26.01467,-6.279,732.4665],[26.00568,-6.28918,756.2592],[25.99855,-6.29595,774.6281],[25.98956,-6.3023,786.637],[25.97834,-6.30607,798.4977],[25.96718,-6.30525,824.8157],[25.9571,-6.30018,808.9402],[25.95028,-6.29114,790.0997],[25.94734,-6.28034,781.0],[25.94625,-6.25714,771.051],[25.94269,-6.24603,768.866],[25.93493,-6.23517,750.2829],[25.92403,-6.22691,728.8695],[25.91163,-6.22091,711.157],[25.83577,-6.1959,638.3247],[25.81184,-6.1914,623.6876],[25.79959,-6.19089,641.9199],[25.78781,-6.19202,646.973],[25.77556,-6.19616,667.5267],[25.76373,-6.20298,667.9116],[25.65046,-6.30478,811.1279],[25.63898,-6.31005,845.0569],[25.62751,-6.31238,905.8445],[25.59185,-6.31455,946.9204],[25.58018,-6.31791,950.5417],[25.56808,-6.32261,938.9371],[25.53237,-6.34643,864.4879],[25.52137,-6.35212,862.6055],[25.51083,-6.35496,854.2047],[25.50152,-6.35584,841.7996],[25.49362,-6.35527,853.1804],[25.39135,-6.33222,860.0789],[25.33456,-6.32907,797.3586],[25.31936,-6.33326,816.8705],[25.30241,-6.34204,826.3405],[25.28009,-6.36085,842.8173],[25.26831,-6.3761,865.5802],[25.2604,-6.38964,843.1459],[25.25709,-6.39951,815.362],[25.25947,-6.40364,826.7225],[25.28738,-6.44519,841.356],[25.36055,-6.52513,861.7349],[25.37616,-6.53459,839.0916],[25.3822,-6.53552,833.3958],[25.38846,-6.53459,840.0786],[25.39528,-6.53691,832.7256],[25.40282,-6.54761,819.033],[25.41145,-6.54684,828.2505],[25.42473,-6.54632,853.0245],[25.4669,-6.53795,888.738],[25.49873,-6.535,940.2166],[25.50571,-6.5366,921.0284],[25.51377,-6.54229,924.4697],[25.51811,-6.55242,947.447],[25.5192,-6.56285,1011.5193],[25.51703,-6.57247,917.8322],[25.50959,-6.57836,999.9873],[25.48302,-6.59148,894.1024],[25.4729,-6.5996,867.4274],[25.46731,-6.60611,831.628],[25.46886,-6.61226,831.2346],[25.46845,-6.6291,831.3003],[25.46489,-6.64383,836.3495],[25.44644,-6.68884,852.1117],[25.44432,-6.69969,854.7925],[25.4362,-6.7076,852.468],[25.43326,-6.71142,836.0214],[25.42174,-6.71918,874.3392],[25.32913,-6.75633,922.1899],[25.31611,-6.76005,938.4468],[25.30226,-6.76124,924.055],[25.28831,-6.75804,932.7555],[25.2295,-6.70683,870.2756],[25.21787,-6.69944,899.8801],[25.14372,-6.67019,842.4408],[25.11855,-6.66492,899.4944],[25.06982,-6.65964,899.2003],[25.02202,-6.65866,935.8861],[24.97344,-6.66244,918.5994],[24.96057,-6.66538,884.5645],[24.94724,-6.67112,879.5188],[24.93143,-6.68373,871.7131],[24.92089,-6.69603,888.8112],[24.91277,-6.709,871.1385],[24.90812,-6.72212,881.7797],[24.90642,-6.73633,872.4911],[24.90998,-6.7645,899.5159],[24.90766,-6.78067,863.9485],[24.8996,-6.79039,892.844],[24.75687,-6.90035,693.0581],[24.72891,-6.91415,698.63],[24.71449,-6.91901,699.0307],[24.68855,-6.92459,693.9131],[24.67103,-6.93239,705.1072],[24.65072,-6.94526,651.674],[24.59812,-6.9881,805.5178],[24.58168,-6.99477,826.4806],[24.53104,-6.99575,742.6505],[24.51864,-6.99838,759.604],[24.50856,-7.00329,804.8864],[24.50267,-7.01104,767.5059],[24.49166,-7.0327,781.1587],[24.4788,-7.05285,795.5253],[24.46665,-7.06339,817.5137],[24.45378,-7.07027,842.3899],[24.442,-7.07244,823.056],[24.43037,-7.07228,780.3499],[24.41921,-7.07058,743.6702],[24.37002,-7.05502,714.7542],[24.2446,-6.99229,685.0767],[24.23654,-6.98428,651.8745],[24.23158,-6.97404,641.9028],[24.23049,-6.96149,647.6623],[24.23235,-6.93627,689.1654],[24.23158,-6.92454,699.4605],[24.22847,-6.91322,713.8245],[24.22212,-6.90211,708.232],[24.21328,-6.89147,728.5588],[24.20228,-6.88201,714.9547],[24.18781,-6.87762,713.5654],[24.17153,-6.87669,678.1926],[24.15757,-6.88041,691.0316],[24.14595,-6.87658,676.2365],[24.13541,-6.88041,703.6497],[24.13789,-6.88836,684.5512],[24.14517,-6.8956,713.6232],[24.14905,-6.89705,661.4169],[24.15401,-6.92717,627.1613],[24.15246,-6.9312,632.0688],[24.14068,-6.93105,660.6007],[24.13086,-6.93229,668.9769],[24.12419,-6.93741,654.7435],[24.12171,-6.94888,628.9948],[24.12559,-6.95053,630.9104],[24.14352,-6.97115,628.7906],[24.14905,-6.98025,628.6907],[24.14584,-6.9789,629.3499],[24.1413,-6.98267,641.2783],[24.13716,-6.98841,661.0968],[24.13541,-6.99327,663.7271],[24.13758,-6.99854,629.8546],[24.14223,-7.00086,637.0328],[24.14688,-7.00117,646.7333],[24.14905,-7.00071,653.9993],[24.14538,-7.02298,648.8232],[24.13634,-7.04272,652.9064],[24.120729999999998,-7.05683,660.0848],[24.09784,-7.06215,668.8402],[24.08595,-7.06334,672.7332],[24.07556,-7.06639,674.7703],[24.06673,-7.07073,673.2493],[24.05965,-7.07585,680.2086],[24.05841,-7.0791,680.8051],[24.05551,-7.09156,676.137],[24.05345,-7.09631,675.2993],[24.05019,-7.09864,700.4415],[24.04156,-7.10169,728.0867],[24.03918,-7.10313,735.8695],[24.01526,-7.15011,741.7909],[24.01185,-7.16147,731.7399],[24.00714,-7.1669,729.0117],[23.97774,-7.18509,750.6807],[23.9702,-7.19723,756.3801],[23.96808,-7.20617,742.4575],[23.97562,-7.27098,751.274],[23.97262,-7.29299,775.4979],[23.96064,-7.31263,796.7882],[23.95847,-7.32348,766.3171],[23.96921,-7.33258,760.9424],[23.99138,-7.34332,772.7297],[23.99758,-7.35118,776.673],[24.00069,-7.35671,772.2424],[24.001,-7.36234,775.5049],[23.99882,-7.37066,786.9118],[23.99386,-7.37733,779.5264],[23.98673,-7.38167,780.6244],[23.98043,-7.38818,785.1945],[23.96405,-7.47717,801.1505],[23.95738,-7.49432,803.2814],[23.9504,-7.50781,803.8896],[23.94493,-7.51349,813.3539],[23.93785,-7.51861,823.1212],[23.93185,-7.52414,823.1883],[23.92932,-7.53112,805.5124],[23.93087,-7.54042,823.7939],[23.9332,-7.54703,829.0057],[23.93289,-7.55416,811.42],[23.92622,-7.56522,821.8605],[23.92312,-7.73002,824.2916],[23.92798,-7.74743,851.5066],[23.95056,-7.78619,856.5232],[23.95723,-7.8095,845.4724],[23.95676,-7.81978,842.5328],[23.95428,-7.82764,842.2903],[23.9518,-7.83043,847.8948],[23.94684,-7.83115,846.7726],[23.90415,-7.82712,880.087],[23.87981,-7.82774,882.4003],[23.86772,-7.8296,898.6379],[23.85377,-7.83384,904.3211],[23.840699999999998,-7.84014,929.7188],[23.82442,-7.85451,992.8935],[23.79941,-7.89042,959.5694],[23.78638,-7.89978,979.1365],[23.77321,-7.90344,999.9088],[23.76173,-7.90086,979.399],[23.74391,-7.88453,974.357],[23.73347,-7.87998,962.2255],[23.68101,-7.90567,969.9267],[23.66908,-7.90799,960.3824],[23.65761,-7.90913,969.846],[23.56681,-7.90427,936.9901],[23.55301,-7.90582,908.8652],[23.53983,-7.90965,934.8562],[23.51575,-7.92019,956.1717],[23.49762,-7.92515,977.8328],[23.4756,-7.92701,1026.4994],[23.44857,-7.92494,1006.6211],[23.43478,-7.92189,1026.0592],[23.39535,-7.90732,993.5911],[23.38233,-7.90407,982.1454],[23.36946,-7.90303,1002.2644],[23.34538,-7.90706,981.2588],[23.3339,-7.90768,967.3145],[23.32197,-7.90567,940.3115],[23.3091,-7.90133,950.5414],[23.29515,-7.89786,965.1602],[23.27789,-7.9022,966.8012],[23.26548,-7.91228,939.2104],[23.25076,-7.92778,928.7507],[23.23789,-7.93569,909.3088],[23.22513,-7.93812,913.2498],[23.21381,-7.93538,914.3622],[23.20327,-7.92913,877.9309],[23.19443,-7.91941,887.2809],[23.18807,-7.90794,894.2384],[23.18404,-7.89528,892.6273],[23.17577,-7.84557,897.0534],[23.16818,-7.8205,895.4482],[23.1581,-7.7974,912.4236],[23.0886,-7.83952,934.251],[22.94411,-7.8914,1009.2002],[22.89801,-7.9005,956.2894],[22.87646,-7.90143,912.0716],[22.85755,-7.89724,898.5608],[22.82479,-7.88608,866.1349],[22.80525,-7.88334,867.8328],[22.75265,-7.88376,880.1539],[22.73435,-7.8821,876.1579],[22.72082,-7.87905,869.8878],[22.70826,-7.87451,859.751],[22.69601,-7.86805,876.9966],[22.68361,-7.85921,834.8965],[22.67875,-7.85223,827.5947],[22.67627,-7.84701,839.4209],[22.67524,-7.84391,832.9913],[22.67053,-7.83379,814.5756],[22.65689,-7.76743,830.1655],[22.65255,-7.75493,837.6617],[22.6448,-7.74263,833.8116],[22.63364,-7.73172,881.1886],[22.61793,-7.72253,851.1002],[22.60382,-7.72082,810.4289],[22.59514,-7.72227,794.2601],[22.58475,-7.72935,814.7942],[22.53804,-7.77069,852.5363],[22.5154,-7.78009,905.4175],[22.48589,-7.78666,940.6597],[22.24741,-7.805,920.3295],[22.17945,-7.79927,941.4428],[22.07672,-7.77518,970.5973],[22.02613,-7.7509,906.5809],[22.01419,-7.74345,881.9053],[21.99693,-7.72831,842.3203],[21.98778,-7.71824,882.3517],[21.9774,-7.70878,860.4589],[21.96546,-7.70072,858.9412],[21.82656,-7.6456,764.8233],[21.81958,-7.66547,746.8237],[21.8079,-7.69937,749.8538],[21.79508,-7.73627,752.9288],[21.78723,-7.7586,761.6972],[21.77617,-7.79032,757.7495],[21.77048,-7.80676,784.1564],[21.76459,-7.85068,774.9192],[21.7709,-7.87652,778.9286],[21.77214,-7.8882,777.0198],[21.76883,-7.89988,777.1912],[21.75436,-7.91962,796.279],[21.75105,-7.92923,777.3712],[21.75395,-7.99734,804.8877],[21.7585,-8.01512,781.0209],[21.76821,-8.02318,794.6105],[21.79963,-8.04085,780.5033],[21.80635,-8.05243,779.7124],[21.80852,-8.07672,811.2272],[21.81513,-8.09677,807.256],[21.82599,-8.11444,786.8626],[21.8512,-8.14348,781.5],[21.8573,-8.15692,814.1446],[21.86019,-8.17376,820.5696],[21.86247,-8.21645,826.3036],[21.87322,-8.26409,815.0557],[21.88138,-8.28208,799.596],[21.91063,-8.3105,793.8157],[21.92055,-8.329,796.0734],[21.91315,-8.333,797.3223],[21.90526,-8.33727,802.585],[21.89988,-8.34884,828.7058],[21.91146,-8.37427,793.8539],[21.93595,-8.41303,791.3722],[21.94391,-8.45592,794.4943],[21.93998,-8.49995,803.4293],[21.91621,-8.57684,824.0206],[21.92128,-8.5786,813.491],[21.92438,-8.58077,807.88],[21.92841,-8.58252,804.099],[21.93595,-8.58314,814.2648],[21.91776,-8.61518,844.5349],[21.90691,-8.64547,829.7235],[21.89513,-8.71874,854.0825],[21.88479,-8.78231,878.2916],[21.87776,-8.78923,880.0461],[21.87012,-8.8223,872.8826],[21.85988,-8.84638,873.0994],[21.85172,-8.92586,880.0658],[21.8541,-8.97785,880.3696],[21.83973,-9.09236,890.5695],[21.85193,-9.19293,922.7913],[21.85162,-9.23375,911.0737],[21.84107,-9.27582,912.6823],[21.81017,-9.33814,914.2692],[21.80376,-9.37297,928.4273],[21.79333,-9.39353,934.7385],[21.79198,-9.40614,921.3105],[21.79622,-9.4171,935.0485],[21.81317,-9.43746,925.2106],[21.81989,-9.44769,925.8475],[21.83219,-9.48841,941.7299],[21.84366,-9.57616,965.5594],[21.8541,-9.61781,974.4301],[21.8789,-9.65708,960.7361],[21.94236,-9.72292,961.4355],[21.95652,-9.76178,969.5641],[21.96272,-9.75847,987.1097],[21.97822,-9.75217,946.2628],[21.98443,-9.74876,952.2615],[21.98629,-9.78111,975.6443],[21.99838,-9.80912,965.1219],[22.05584,-9.87537,979.6052],[22.06576,-9.88105,952.4685],[22.07279,-9.87888,953.3721],[22.07992,-9.87164,950.9588],[22.09098,-9.87712,949.2933],[22.10762,-9.89138,975.2614],[22.14628,-9.91567,997.1613],[22.15992,-9.93149,977.7896],[22.16757,-9.95371,990.877],[22.17563,-9.98895,1000.9003],[22.19609,-10.04362,965.8085],[22.20488,-10.08579,966.0992],[22.20973,-10.09819,955.4565],[22.20281,-10.13065,963.5039],[22.2211,-10.17623,961.1426],[22.2457,-10.22118,961.1887],[22.26348,-10.26821,968.4656],[22.28694,-10.30914,960.3854],[22.29552,-10.33932,968.3394],[22.31009,-10.35699,961.4912],[22.3134,-10.36856,962.9736],[22.31226,-10.37993,967.3256],[22.30709,-10.39957,975.189],[22.30596,-10.4098,974.4931],[22.3011,-10.42489,965.7746],[22.27867,-10.46096,986.4052],[22.27185,-10.48174,1000.6274],[22.27402,-10.50303,973.8004],[22.28405,-10.51646,970.8036],[22.29645,-10.52969,976.2832],[22.30596,-10.55067,976.9342],[22.30947,-10.59294,972.7936],[22.30857,-10.61252,978.7199],[22.30761,-10.63356,995.4448],[22.31009,-10.66881,983.6462],[22.32642,-10.69464,997.9656],[22.32105,-10.70074,993.7926],[22.3195,-10.70384,993.1974],[22.32239,-10.74219,1007.8362],[22.3195,-10.76131,996.4089],[22.30968,-10.76978,1010.1084],[22.29066,-10.77267,1036.2897],[22.26585,-10.77991,1015.3033],[22.224,-10.79707,1047.9978],[22.20601,-10.80988,1040.3239],[22.18276,-10.83045,1029.0992],[22.1655,-10.85236,1033.8757],[22.16571,-10.86879,1021.5974],[22.1748,-10.8843,1023.4251],[22.19609,-10.95416,1027.5023],[22.19609,-10.9923,1072.6937],[22.1993,-10.99736,1072.5291],[22.21397,-11.00791,1065.541],[22.21718,-11.01276,1094.4292],[22.22059,-11.03002,1097.7065],[22.23733,-11.05938,1109.8911],[22.24384,-11.07829,1111.8658],[22.25552,-11.16655,1094.908],[22.25201,-11.20862,1095.3079],[22.23764,-11.24954,1107.0845],[22.26306,-11.2482,1106.4349],[22.28177,-11.23673,1100.8331],[22.3257,-11.19032,1115.1396],[22.34027,-11.1802,1115.6868],[22.44031,-11.14692,1128.7104],[22.46936,-11.12242,1124.8641],[22.50098,-11.04243,1136.795],[22.53757,-11.03715,1138.6299],[22.61364,-11.06754,1140.3346],[22.65095,-11.08232,1145.8484],[22.68898,-11.09297,1147.7932],[22.72774,-11.09679,1141.9597],[22.76422,-11.09048,1143.1122],[22.78531,-11.0785,1160.9623],[22.80691,-11.0631,1151.1504],[22.82923,-11.05214,1162.7784],[22.85311,-11.05307,1158.6571],[22.87357,-11.06372,1169.9751],[22.91119,-11.08831,1166.4109],[22.93114,-11.09679,1179.1416],[22.96958,-11.10247,1172.127],[23.01434,-11.10247,1182.3225],[23.11469,-11.08552,1196.9014],[23.19675,-11.07188,1178.6649],[23.30651,-11.01173,1210.4243],[23.37328,-10.97514,1216.1738],[23.41545,-10.96326,1228.1309],[23.45596,-10.96098,1219.571],[23.49482,-10.96429,1234.561],[23.55704,-10.98134,1240.1637],[23.64158,-11.0045,1249.4523],[23.67486,-11.00698,1271.7302],[23.71414,-11.00388,1270.0931],[23.75228,-11.00822,1261.8673],[23.79372,-11.02113,1274.0127],[23.83372,-11.02847,1278.6704],[23.86741,-11.01638,1273.6505],[23.87413,-11.00687,1267.6827],[23.88178,-10.98455,1241.7155],[23.88777,-10.97442,1253.6375],[23.89728,-10.96646,1259.6643],[23.91857,-10.95406,1264.734],[23.92798,-10.94538,1245.6331],[23.93614,-10.92522,1255.2788],[23.94058,-10.90156,1262.5529],[23.94865,-10.88151,1253.7523],[23.96746,-10.87231,1253.9323],[24.00146,-10.87344,1271.069],[24.04838,-10.88233,1284.701],[24.09148,-10.89783,1294.7809],[24.11422,-10.91923,1279.9899],[24.11432,-10.92791,1287.6245],[24.10874,-10.94579,1291.5563],[24.10802,-10.95499,1293.3409],[24.1105,-10.96594,1291.6398],[24.11752,-10.9861,1293.0417],[24.11939,-10.99757,1305.0558],[24.11773,-11.03085,1283.5487],[24.12424,-11.04325,1275.9442],[24.1444,-11.04036,1325.0922],[24.16455,-11.03395,1319.356],[24.18129,-11.03447,1307.3296],[24.21829,-11.04522,1310.0505],[24.23803,-11.04801,1334.3877],[24.27514,-11.0479,1320.5004],[24.29384,-11.05028,1330.5605],[24.31638,-11.0601,1327.906],[24.34531,-11.07829,1337.3892],[24.37053,-11.1002,1341.134],[24.3818,-11.12056,1360.6066],[24.37828,-11.13214,1350.6067],[24.36991,-11.14092,1369.5428],[24.36247,-11.15053,1354.9812],[24.36175,-11.16469,1338.9688],[24.36743,-11.17627,1362.8022],[24.38438,-11.19125,1383.6626],[24.39131,-11.19983,1389.7524],[24.39658,-11.2174,1395.2389],[24.39782,-11.23828,1405.6715],[24.39606,-11.25967,1410.1702],[24.39224,-11.2791,1425.9448],[24.38449,-11.29523,1426.2567],[24.35245,-11.34504,1472.376],[24.33994,-11.35807,1480.2251],[24.29829,-11.37057,1501.9956],[24.28547,-11.38122,1501.7771],[24.29395,-11.3992,1499.0337],[24.31007,-11.40664,1494.8451],[24.35172,-11.40705,1483.6455],[24.37022,-11.41016,1470.8354],[24.39255,-11.42338,1461.2942],[24.42645,-11.45408,1417.9656],[24.4465,-11.46359,1461.41],[24.46965,-11.46555,1471.8209],[24.49094,-11.46152,1471.7145],[24.53269,-11.44612,1465.1893],[24.54251,-11.4454,1465.6681],[24.55419,-11.44633,1450.3016],[24.56473,-11.44467,1431.5029],[24.57124,-11.43641,1444.7419],[24.57445,-11.42514,1415.6614],[24.57858,-11.41563,1446.5146],[24.58458,-11.40736,1411.6101],[24.59326,-11.39961,1427.7322],[24.60225,-11.39569,1406.6794],[24.62468,-11.39083,1423.7307],[24.63522,-11.38587,1431.9426],[24.64504,-11.37605,1410.1355],[24.66333,-11.35166,1398.3932],[24.67408,-11.34163,1399.6575],[24.71253,-11.32603,1410.0646],[24.78797,-11.32582,1419.1379],[24.82673,-11.31755,1411.2756],[24.90104,-11.28127,1454.2507],[24.9429,-11.26856,1411.6722],[24.98124,-11.27187,1387.3632],[25.12429,-11.25916,1429.061],[25.18402,-11.24665,1467.0812],[25.2788,-11.19994,1516.2623],[25.31032,-11.19477,1517.8733],[25.32252,-11.20541,1508.6133],[25.32458,-11.22784,1474.4897],[25.32334,-11.25347,1533.3049],[25.32541,-11.27394,1524.1064],[25.32489,-11.28365,1484.3245],[25.31714,-11.29047,1483.8268],[25.29626,-11.29843,1457.8131],[25.28469,-11.30732,1450.7146],[25.29017,-11.3159,1448.5084],[25.30133,-11.32448,1463.3259],[25.3065,-11.33305,1462.5465],[25.29802,-11.35145,1472.3167],[25.28634,-11.36065,1457.4016],[25.27797,-11.37181,1480.0066],[25.279,-11.39631,1510.5608],[25.28665,-11.41656,1478.6617],[25.30929,-11.45542,1539.4275],[25.31673,-11.47299,1534.9585],[25.31538,-11.4825,1543.9821],[25.30174,-11.49842,1528.8257],[25.29771,-11.50793,1535.2961],[25.2975,-11.51723,1539.0295],[25.3004,-11.53501,1540.6865],[25.32737,-11.61665,1493.0668],[25.33678,-11.6335,1507.6561],[25.34494,-11.64218,1480.0374],[25.35197,-11.64611,1496.8774],[25.36045,-11.64725,1482.9922],[25.37316,-11.64714,1503.5494],[25.38639,-11.64983,1511.7277],[25.3928,-11.65645,1496.1373],[25.39755,-11.66492,1467.9458],[25.40634,-11.67308,1476.423],[25.46359,-11.70006,1483.3439],[25.48116,-11.71525,1473.4512],[25.48282,-11.72042,1478.5642],[25.48328,-11.72579,1495.8997],[25.48282,-11.73117,1499.5137],[25.47413,-11.75618,1469.9771],[25.48044,-11.76982,1502.3575],[25.49558,-11.77654,1478.6708],[25.51522,-11.77582,1478.4454],[25.52452,-11.77096,1454.8145],[25.53062,-11.76424,1437.1658],[25.53764,-11.75835,1447.908],[25.55025,-11.75659,1459.3596],[25.561,-11.75329,1464.2788],[25.56493,-11.74398,1449.8552],[25.56782,-11.73375,1454.8871],[25.57568,-11.72735,1446.2229],[25.62146,-11.7289,1443.4871],[25.65578,-11.7505,1446.5793],[25.6874,-11.77871,1460.2841],[25.72564,-11.80052,1483.022],[25.74404,-11.80383,1462.7964],[25.80161,-11.80424,1476.3995],[25.81267,-11.803,1470.3774],[25.83251,-11.7938,1457.8977],[25.83985,-11.79194,1446.0814],[25.8507,-11.7938,1464.3903],[25.85577,-11.79721,1453.3159],[25.85959,-11.80197,1467.194],[25.91416,-11.84558,1489.9373],[25.93555,-11.85364,1473.63],[25.94982,-11.86398,1465.5383],[25.96356,-11.89509,1457.3859],[25.98113,-11.90304,1489.6487],[25.99405,-11.9048,1483.0865],[26.16665,-11.90242,1465.4106],[26.18908,-11.9109,1493.2021],[26.20934,-11.92361,1518.109],[26.22959,-11.93312,1504.7004],[26.26556,-11.93085,1497.1514],[26.28623,-11.94056,1509.6067],[26.29801,-11.94118,1512.4946],[26.30917,-11.93653,1490.7238],[26.32881,-11.9233,1474.3198],[26.33915,-11.91896,1472.613],[26.37635,-11.91286,1491.8623],[26.41459,-11.91183,1502.8733],[26.43837,-11.91906,1516.0636],[26.45542,-11.93198,1500.0305],[26.47071,-11.94697,1456.6562],[26.48911,-11.96082,1505.9423],[26.52487,-11.97229,1491.7307],[26.6059,-11.97777,1436.896],[26.64352,-11.98552,1435.676],[26.66274,-11.99658,1430.7527],[26.6798,-12.0096,1414.3373],[26.69706,-12.01746,1435.3033],[26.71742,-12.01301,1433.0433],[26.73256,-11.99834,1429.0743],[26.74419,-11.98118,1403.3286],[26.75938,-11.96867,1429.4833],[26.78501,-11.96836,1396.698],[26.83173,-11.97332,1401.9379],[26.8742,-11.96433,1383.7363],[26.91275,-11.94253,1389.3391],[26.94769,-11.90914,1383.661],[26.96733,-11.87039,1377.2745],[26.97136,-11.78853,1325.6426],[26.98107,-11.74905,1335.5894],[26.99637,-11.72704,1340.377],[27.01115,-11.71319,1325.9193],[27.02148,-11.69789,1340.2646],[27.02324,-11.67112,1351.9083],[27.01084,-11.62885,1366.3586],[27.01027,-11.60983,1352.2649],[27.02376,-11.59557,1342.5939],[27.03244,-11.59433,1369.0891],[27.05445,-11.59753,1383.7942],[27.06437,-11.59712,1384.4971],[27.1022,-11.58492,1364.9485],[27.14499,-11.58131,1341.4342],[27.17362,-11.57056,1357.7117],[27.18013,-11.56963,1372.6799],[27.19718,-11.59371,1378.3759],[27.20762,-11.63939,1368.5072],[27.21196,-11.68828,1359.8917],[27.21,-11.72197,1352.868],[27.23418,-11.8091,1326.6499],[27.42073,-11.92196,1313.3932],[27.46755,-12.00164,1334.1997],[27.47179,-12.04164,1327.9458],[27.52047,-12.17962,1326.0847],[27.53608,-12.20008,1321.8975],[27.58984,-12.24296,1294.5182],[27.5953,-12.24731,1305.3818],[27.63819,-12.29362,1367.6901],[27.6662,-12.30271,1393.9716],[27.71074,-12.30633,1408.16],[27.75673,-12.30426,1379.0643],[27.78831,-12.29651,1347.9952],[27.80727,-12.28142,1360.8479],[27.81828,-12.26778,1347.589],[27.83141,-12.25992,1339.2887],[27.85668,-12.2624,1353.3785],[27.87704,-12.26995,1339.6962],[27.93388,-12.30333,1316.6188],[27.94845,-12.32142,1323.1003],[27.95223,-12.34653,1320.1644],[27.95869,-12.36782,1344.226],[27.98101,-12.37454,1321.0464],[27.99899,-12.37144,1365.1796],[28.01403,-12.37051,1320.4624],[28.08767,-12.37754,1311.9839],[28.09687,-12.38302,1334.9463],[28.10043,-12.39149,1341.6902],[28.10245,-12.40121,1327.0223],[28.107,-12.4102,1335.8916],[28.13129,-12.42921,1308.3311],[28.14596,-12.42312,1320.9813],[28.16074,-12.40875,1296.5966],[28.18575,-12.40245,1337.0251],[28.20498,-12.41082,1332.7009],[28.22007,-12.42539,1331.2278],[28.23753,-12.43707,1316.4336],[28.26389,-12.43697,1296.9025],[28.28383,-12.43407,1324.3898],[28.30368,-12.43542,1316.2466],[28.32249,-12.4411,1316.4305],[28.33975,-12.45051,1344.1024],[28.42274,-12.5213,1322.0593],[28.43643,-12.5428,1296.5649],[28.45592,-12.5921,1301.9729],[28.46827,-12.61463,1303.1421],[28.50201,-12.64956,1323.6912],[28.5123,-12.66837,1321.348],[28.51162,-12.69442,1329.1602],[28.50015,-12.71095,1271.3098],[28.48398,-12.72222,1289.0442],[28.474,-12.73648,1288.3362],[28.48093,-12.76211,1313.2473],[28.5016,-12.78847,1306.4277],[28.52361,-12.81017,1334.3937],[28.53943,-12.83384,1347.9607],[28.54284,-12.88562,1329.4458],[28.55338,-12.89492,1351.7141],[28.56847,-12.89554,1360.2792],[28.58397,-12.88872,1348.5819],[28.59369,-12.87673,1322.7686],[28.60816,-12.8479,1282.4731],[28.62118,-12.83942,1271.7697],[28.66789,-12.84934,1304.7404],[28.70799,-12.88975,1281.0183],[28.77569,-12.97657,1292.9966],[28.79336,-12.99156,1260.4845],[28.8006,-13.00241,1262.4095],[28.80943,-13.03838,1331.4296],[28.81362,-13.04282,1341.6951],[28.82706,-13.04757,1353.0193],[28.83088,-13.05181,1358.7842],[28.83026,-13.05688,1375.3127],[28.82551,-13.06783,1378.9634],[28.8253,-13.07238,1384.0452],[28.82602,-13.07682,1440.3782],[28.82463,-13.08726,1463.2324],[28.82582,-13.09284,1461.8622],[28.82974,-13.09718,1448.9709],[28.83543,-13.09894,1443.748],[28.84091,-13.10008,1424.0073],[28.84421,-13.10235,1421.6372],[28.85367,-13.13708,1411.0387],[28.86323,-13.14266,1385.3835],[28.88271,-13.14359,1378.6973],[28.89186,-13.14731,1361.5233],[28.90343,-13.1623,1346.7573],[28.93413,-13.30963,1308.9092],[28.95036,-13.35097,1326.0037],[28.98085,-13.38022,1383.5238],[28.99397,-13.39593,1393.7063],[29.0103,-13.39944,1373.9111],[29.02849,-13.39551,1387.4379],[29.04668,-13.3889,1393.3409],[29.06539,-13.38868,1472.7805],[29.07293,-13.38859,1454.2917],[29.09805,-13.38466,1382.2625],[29.12213,-13.38435,1388.9052],[29.14445,-13.39448,1384.1527],[29.15339,-13.40698,1373.0797],[29.16016,-13.42207,1375.9573],[29.16895,-13.43386,1402.4641],[29.18414,-13.43685,1416.0627],[29.19479,-13.43096,1443.9044],[29.21401,-13.40833,1389.2981],[29.22745,-13.40078,1382.2644],[29.25018,-13.39158,1372.7581],[29.30827,-13.35365,1353.957],[29.44955,-13.30032,1387.4019],[29.47001,-13.28782,1389.0076],[29.528,-13.23407,1449.7081],[29.55104,-13.22415,1516.3456],[29.5744,-13.22539,1474.8019],[29.5928,-13.23563,1492.7944],[29.60985,-13.24947,1481.3842],[29.62907,-13.26146,1442.019],[29.64106,-13.26281,1420.1077],[29.64975,-13.25991,1441.3187],[29.6575,-13.26012,1499.1937],[29.66659,-13.27118,1483.7401],[29.66918,-13.2812,1472.3486],[29.66752,-13.29195,1452.8494],[29.66359,-13.30187,1442.8969],[29.65889,-13.30952,1452.6294],[29.6515,-13.31459,1455.1803],[29.63362,-13.31893,1425.3558],[29.62659,-13.32637,1536.4539],[29.62504,-13.33484,1561.2357],[29.62701,-13.35489,1706.2994],[29.62515,-13.3642,1618.7942],[29.61895,-13.3673,1616.5016],[29.60944,-13.36905,1676.7147],[29.60169,-13.37443,1621.4896],[29.60169,-13.38838,1561.4983],[29.60551,-13.39996,1511.0717],[29.61068,-13.41101,1544.2677],[29.6174,-13.42125,1522.8873],[29.62608,-13.42983,1509.8186],[29.64148,-13.43851,1521.8835],[29.66308,-13.44688,1554.1917],[29.70287,-13.45763,1640.4691],[29.76715,-13.45835,1515.7456],[29.78224,-13.45566,1530.4674],[29.79764,-13.42424,1544.207],[29.79775,-13.31376,1465.3068],[29.79795,-13.16436,1357.7922],[29.79821,-13.02277,1335.3501],[29.79847,-12.87301,1350.5149],[29.79868,-12.69835,1238.6248],[29.79899,-12.54869,1176.8907],[29.79914,-12.38229,1172.8608],[29.7994,-12.26581,1165.2557],[29.79961,-12.15946,1162.2285],[29.79958,-12.15904,1162.2285],[29.7994,-12.15582,1160.9667],[29.7993,-12.15409,1159.5223],[29.7561,-12.1576,1161.3665],[29.73491,-12.16484,1160.8525],[29.70127,-12.18902,1160.5094],[29.64892,-12.21279,1159.886],[29.63187,-12.216,1159.6593],[29.62112,-12.21021,1159.2596],[29.60318,-12.19285,1158.9366],[29.59032,-12.18809,1158.5952],[29.57673,-12.18809,1159.1968],[29.56758,-12.19171,1158.7816],[29.55306,-12.20515,1158.4172],[29.53347,-12.21672,1161.903],[29.48955,-12.2315,1189.4434],[29.47425,-12.24266,1196.7974],[29.46795,-12.25527,1195.147],[29.45591,-12.29434,1169.5103],[29.45182,-12.3178,1176.8258],[29.44816,-12.32679,1199.5356],[29.44655,-12.33506,1199.4014],[29.45038,-12.34291,1200.3091],[29.48045,-12.38054,1158.8981],[29.49606,-12.38632,1161.9919],[29.51146,-12.38736,1158.1456],[29.52345,-12.39252,1157.0],[29.5282,-12.41051,1157.6282],[29.52469,-12.42921,1157.0],[29.51466,-12.44389,1159.7834],[29.49968,-12.45309,1159.4109],[29.48045,-12.45495,1159.3674],[29.47301,-12.45247,1161.1824],[29.46877,-12.44844,1162.2565],[29.46526,-12.4442,1170.2792],[29.45989,-12.44131,1165.6157],[29.45332,-12.44079,1171.3601],[29.43922,-12.44203,1160.5837],[29.4326,-12.44131,1157.6285],[29.40594,-12.43169,1158.8752],[29.36439,-12.40927,1159.778],[29.35653,-12.40761,1159.6895],[29.31643,-12.40668,1158.5997],[29.30486,-12.40482,1158.9879],[29.2955,-12.401,1174.4016],[29.28305,-12.39046,1174.391],[29.26507,-12.37092,1157.0889],[29.25499,-12.36617,1153.1732],[29.17339,-12.36762,1153.312],[29.14895,-12.37371,1157.9594],[29.12812,-12.38281,1139.5067],[29.11107,-12.39345,1153.9713],[29.10022,-12.37402,1141.548],[29.08441,-12.3764,1131.3116],[29.06725,-12.38477,1076.671],[29.05278,-12.38384,1074.4763],[29.04265,-12.37878,1144.0312],[29.03511,-12.37888,1056.0],[29.03035,-12.37619,1108.6995],[29.02859,-12.36307,1117.5057],[29.02611,-12.35304,1131.2908],[28.94467,-12.20608,1055.1754],[28.91873,-12.17435,1052.5],[28.85951,-12.14179,1052.0],[28.85041,-12.13001,1056.4979],[28.84597,-12.1113,1054.6005],[28.83501,-12.09218,1070.2809],[28.82148,-12.07575,1062.8945],[28.80887,-12.06459,1056.0947],[28.77362,-12.04588,1052.572],[28.75988,-12.03523,1071.1003],[28.75419,-12.02014,1063.3666],[28.75109,-11.99224,1070.3708],[28.742,-11.98428,1057.9604],[28.70706,-11.98945,1052.3604],[28.68603,-11.984069999999999,1071.041],[28.63689,-11.95762,1071.7389],[28.62386,-11.9478,1065.0396],[28.60619,-11.91028,1054.668],[28.59265,-11.90046,1054.6155],[28.56919,-11.91369,1066.0159],[28.56609,-11.90449,1048.6549],[28.5542,-11.88506,1066.1138],[28.54945,-11.87958,1069.3905],[28.54056,-11.87204,1068.3361],[28.53157,-11.86646,1074.6125],[28.52113,-11.86573,1073.1228],[28.50785,-11.87276,1057.1875],[28.49715,-11.85736,1056.3298],[28.48889,-11.80868,1107.1797],[28.47679,-11.79825,1083.9617],[28.46067,-11.79339,1067.5751],[28.45251,-11.78078,1045.5],[28.44269,-11.71164,1079.782],[28.43959,-11.70151,1057.2971],[28.42512,-11.68807,1047.3152],[28.4184,-11.67887,1045.7388],[28.42212,-11.67474,1046.6537],[28.42274,-11.66471,1043.5],[28.40548,-11.60518,1066.8328],[28.39959,-11.59609,1063.1982],[28.38491,-11.58131,1043.3025],[28.37742,-11.57108,1048.533],[28.36559,-11.54162,1059.1633],[28.36031,-11.53356,1077.5503],[28.35566,-11.51816,1061.5031],[28.35442,-11.46473,1107.4146],[28.35701,-11.44695,1099.3757],[28.40858,-11.37243,1054.7637],[28.41199,-11.3684,1051.2122],[28.43421,-11.35124,1059.0295],[28.43959,-11.34825,1045.3455],[28.43199,-11.31104,1038.0865],[28.43618,-11.28913,1061.8951],[28.44558,-11.27456,1038.3864],[28.45509,-11.2637,1044.1908],[28.47369,-11.22567,1030.8903],[28.47245,-11.19198,1042.2957],[28.47369,-11.18123,1035.5825],[28.47623,-11.17544,1032.1187],[28.48475,-11.16283,1030.0774],[28.48734,-11.15343,1030.3198],[28.48692,-11.14092,1025.4858],[28.47617,-11.08769,1022.8129],[28.47679,-11.07798,1025.292],[28.49095,-11.05865,1021.5679],[28.50408,-11.03436,1015.3265],[28.50785,-11.02362,1014.0],[28.50863,-11.013489999999999,1018.2308],[28.50666,-10.99209,1025.3926],[28.50785,-10.98207,1013.8945],[28.51379,-10.97287,1016.175],[28.53136,-10.95509,1013.0],[28.53508,-10.94445,1022.1157],[28.53736,-10.93411,1053.3652],[28.54718,-10.91375,1012.0],[28.54945,-10.9029,1012.0],[28.54945,-10.85856,1011.4822],[28.55441,-10.835,1008.5],[28.56351,-10.81195,1018.0098],[28.57653,-10.79066,1030.4487],[28.59348,-10.77288,1023.7659],[28.60092,-10.76317,1017.1968],[28.60805,-10.74136,1006.0],[28.62324,-10.71686,1009.8894],[28.62759,-10.7117,1013.586],[28.63348,-10.70891,1024.6018],[28.64619,-10.70984,1009.5109],[28.65187,-10.70839,1002.4487],[28.66588,-10.69743,1003.1568],[28.68154,-10.68193,995.3332],[28.69435,-10.66333,979.0],[28.69962,-10.64317,1017.7377],[28.69425,-10.63677,991.0775],[28.67089,-10.61909,986.2756],[28.66552,-10.60896,980.8898],[28.66717,-10.59739,964.2466],[28.6727,-10.5761,945.5187],[28.67234,-10.56432,944.0103],[28.64805,-10.53765,930.4294],[28.63492,-10.51946,927.9745],[28.63472,-10.50571,929.0919],[28.63875,-10.49621,924.0],[28.63048,-10.48101,924.6437],[28.63472,-10.47161,929.9229],[28.64061,-10.46262,927.8254],[28.64454,-10.45104,927.661],[28.64609,-10.43843,924.0],[28.64495,-10.42655,924.0],[28.63771,-10.40701,928.1285],[28.62862,-10.3911,929.3203],[28.62087,-10.37332,928.5868],[28.61777,-10.34831,946.582],[28.62071,-10.32733,927.1354],[28.62645,-10.31141,927.9166],[28.62924,-10.29591,927.9244],[28.62386,-10.27637,927.727],[28.62211,-10.27586,927.8391],[28.61332,-10.27069,928.3101],[28.61084,-10.26883,923.95],[28.60805,-10.26356,923.8085],[28.60598,-10.25291,927.0997],[28.60402,-10.24837,928.394],[28.56991,-10.21963,927.199],[28.57932,-10.20113,927.2134],[28.60402,-10.17271,926.2614],[28.61963,-10.14191,927.6439],[28.62852,-10.10274,926.4099],[28.63125,-10.02306,926.9314],[28.62386,-9.95102,923.0],[28.62795,-9.92942,939.8546],[28.65869,-9.86482,922.5],[28.66846,-9.82162,925.8087],[28.67807,-9.80384,925.3461],[28.69652,-9.79651,926.3547],[28.69849,-9.79196,925.9205],[28.67234,-9.7655,925.7522],[28.66996,-9.75093,926.2469],[28.66366,-9.74504,926.3724],[28.65497,-9.74194,926.0067],[28.64495,-9.73512,925.6006],[28.63125,-9.71558,925.5362],[28.62516,-9.69563,925.3577],[28.62386,-9.64913,924.7574],[28.6218,-9.63827,925.6147],[28.61291,-9.6175,924.8896],[28.61084,-9.60789,921.5],[28.6065,-9.59435,925.5641],[28.58759,-9.57316,924.6072],[28.58356,-9.56376,925.4338],[28.58862,-9.55828,926.2594],[28.6111,-9.55104,924.8649],[28.61777,-9.54329,924.8284],[28.5863,-9.54402,924.6976],[28.5741,-9.53916,925.1358],[28.56919,-9.52593,920.5],[28.56873,-9.50898,924.9648],[28.56687,-9.49596,924.739],[28.56278,-9.4849,921.2321],[28.5556,-9.47446,920.5],[28.53157,-9.45689,925.1769],[28.51969,-9.44562,924.9275],[28.51472,-9.43002,921.3142],[28.51627,-9.41555,925.3456],[28.51813,-9.39746,920.0],[28.51596,-9.37834,920.0],[28.4954,-9.35323,920.0],[28.46046,-9.33504,920.0],[28.41137,-9.32491,920.0],[28.36853,-9.30858,920.0],[28.35246,-9.27199,920.0],[28.3723,-9.23509,920.0],[28.41509,-9.20709,920.0],[28.5062,-9.1644,920.0],[28.59906,-9.09639,920.0],[28.76541,-8.93403,920.0],[28.8931,-8.76577,920.0],[28.93046,-8.67988,920.0],[28.93547,-8.59079,920.0],[28.89279,-8.50191,920.0],[28.88917,-8.4831,920.0],[28.91527,-8.47287,935.6071],[29.03511,-8.45478,970.3811],[29.20812,-8.42853,1020.6617],[29.36594,-8.40455,1273.64],[29.57584,-8.37273,1125.9377],[29.59228,-8.37024,1099.2524],[29.8581,-8.32983,1051.6046],[30.12362,-8.28952,1068.0085],[30.32495,-8.25893,1220.7423],[30.58178,-8.21996,770.0],[30.75211,-8.19412,770.0],[30.72813,-8.1041,770.0],[30.65496,-7.92737,770.0],[30.44163,-7.59633,770.0],[30.41471,-7.50197,770.0],[30.40494,-7.43603,770.0],[30.3696,-7.31025,770.0],[30.29446,-7.14943,770.0],[30.23467,-7.05714,770.0],[30.09086,-6.89002,770.0],[30.01272,-6.82522,770.0],[29.96911,-6.80304,770.0]]]}}