{"type":"Feature","properties":{"GID_2":"COD.17.11_1","GID_0":"COD","country":"DemocraticRepublicoftheCongo","GID_1":"COD.17_1","province":"Maniema","NL_NAME_1":"NA","county":"Pangi","VARNAME_2":"NA","NL_NAME_2":"NA","TYPE_2":"Territoire","ENGTYPE_2":"Territory","CC_2":"NA","HASC_2":"NA","name":"Pangi.county"},
"geometry":{"type": "MultiPolygon","coordinates": [[[[25.8799,-3.3531,459.1811],[25.8915,-3.3601,470.9943],[25.9004,-3.3735,509.254],[25.9095,-3.3815,496.603],[25.923,-3.3845,513.1964],[25.9336,-3.3979,515.689],[25.9423,-3.4009,519.9236],[25.9552,-3.3862,530.5609],[25.971,-3.3802,520.7991],[25.9886,-3.3807,514.0073],[26.0181,-3.3859,524.5941],[26.028199999999998,-3.4116,545.5769],[26.0404,-3.4961,553.1283],[26.0525,-3.5503,558.0974],[26.0603,-3.6015,535.7249],[26.0579,-3.6316,489.9681],[26.0606,-3.6298,485.4963],[26.0651,-3.6334,487.2382],[26.067,-3.6371,478.0645],[26.0712,-3.6375,492.3442],[26.0737,-3.6427,483.1443],[26.0743,-3.6393,485.6696],[26.0785,-3.6377,489.0337],[26.0778,-3.64,491.7689],[26.0824,-3.6454,491.5906],[26.0814,-3.6405,494.8134],[26.0841,-3.6397,494.2537],[26.0853,-3.6418,499.6291],[26.087,-3.641,489.0323],[26.0848,-3.6373,502.7374],[26.0885,-3.6379,491.04],[26.0878,-3.634,486.7834],[26.0965,-3.6375,493.2308],[26.096,-3.6349,489.7902],[26.0977,-3.6333,491.0038],[26.0977,-3.6357,486.779],[26.1039,-3.637,492.4746],[26.1058,-3.6345,508.3208],[26.106,-3.6307,488.9334],[26.1094,-3.6314,497.417],[26.1161,-3.629,520.5173],[26.1276,-3.6356,498.1815],[26.1294,-3.6338,515.5469],[26.1347,-3.6338,519.9441],[26.1379,-3.637,483.0081],[26.1475,-3.6298,513.7663],[26.1498,-3.6229,522.8878],[26.153199999999998,-3.6243,513.3795],[26.1567,-3.6218,526.9894],[26.1589,-3.6238,515.4354],[26.1615,-3.7248,539.0329],[26.1584,-3.7856,505.8806],[26.1609,-3.7906,481.3692],[26.1666,-3.7959,497.4991],[26.1648,-3.7998,489.2767],[26.174,-3.7968,483.4208],[26.1764,-3.8028,485.84],[26.1808,-3.8034,486.5695],[26.1799,-3.8071,488.5739],[26.1816,-3.8079,488.5739],[26.1917,-3.803,487.8004],[26.197,-3.796,491.5045],[26.1991,-3.7947,505.2918],[26.2017,-3.7955,497.8713],[26.2022,-3.7911,500.0081],[26.2049,-3.7934,492.8013],[26.2062,-3.79,502.3807],[26.2081,-3.7903,510.0203],[26.2094,-3.7865,500.0252],[26.2108,-3.7882,502.1771],[26.2162,-3.7864,504.4883],[26.216,-3.7884,514.1834],[26.2173,-3.7889,503.6328],[26.2195,-3.7852,500.4258],[26.2221,-3.7866,505.2902],[26.2344,-3.7842,494.3348],[26.2388,-3.791,500.5469],[26.2466,-3.7926,509.6151],[26.2521,-3.7916,504.6144],[26.2544,-3.7942,515.9847],[26.2608,-3.7889,528.0193],[26.2622,-3.7902,511.048],[26.2658,-3.7886,512.5536],[26.2695,-3.7921,513.5823],[26.2709,-3.7916,530.3486],[26.2707,-3.7888,518.8549],[26.2725,-3.7863,518.0494],[26.2778,-3.787,525.4933],[26.2826,-3.7844,501.0587],[26.2865,-3.7877,505.0221],[26.2946,-3.7838,541.261],[26.3046,-3.7853,533.3796],[26.3259,-3.797,556.1031],[26.3329,-3.8021,553.2382],[26.3318,-3.8154,541.3013],[26.3355,-3.8299,526.289],[26.3481,-3.8415,553.6682],[26.3531,-3.8498,538.6421],[26.3622,-3.8531,529.7177],[26.3711,-3.8665,539.703],[26.3708,-3.8712,542.0729],[26.3643,-3.8762,544.324],[26.3574,-3.8769,577.4065],[26.3562,-3.8852,562.5301],[26.3679,-3.9037,574.8994],[26.3819,-3.9326,611.3282],[26.4521,-3.9337,628.2982],[26.4592,-3.9155,633.1547],[26.4753,-3.9076,628.7763],[26.4907,-3.9092,599.3784],[26.4984,-3.912,579.5052],[26.5044,-3.9108,577.5032],[26.504,-3.9036,601.8467],[26.4938,-3.8823,593.8773],[26.4917,-3.8738,605.5815],[26.4942,-3.8643,574.8132],[26.5093,-3.8362,545.5901],[26.5313,-3.8076,564.7997],[26.5535,-3.7752,580.3469],[26.5658,-3.7526,593.9219],[26.5752,-3.7299,596.7213],[26.5856,-3.6972,605.3013],[26.5922,-3.662,684.4504],[26.5982,-3.6406,636.2533],[26.6175,-3.6172,627.8867],[26.6339,-3.6108,609.7924],[26.6411,-3.6104,605.6761],[26.6802,-3.6269,671.0428],[26.7035,-3.6331,641.0009],[26.7315,-3.6323,664.3363],[26.7589,-3.6482,648.0295],[26.7856,-3.6694,636.9977],[26.8017,-3.6784,605.1115],[26.8057,-3.6837,613.3568],[26.8066,-3.6876,609.9039],[26.8242,-3.6991,620.6635],[26.8307,-3.7127,600.8946],[26.8372,-3.7175,601.0302],[26.8714,-3.7275,607.3297],[26.909,-3.7227,610.2338],[26.9214,-3.7251,601.4283],[26.9323,-3.7306,604.5754],[26.9486,-3.7277,592.2792],[26.9531,-3.7232,590.6435],[26.9562,-3.7238,585.6881],[26.9675,-3.7177,588.7515],[26.9708,-3.7175,585.5437],[26.9741,-3.7141,584.7131],[26.98,-3.7131,583.2165],[26.9915,-3.7053,584.0372],[27.0075,-3.7061,587.2936],[27.0095,-3.7102,586.8324],[27.0134,-3.7081,595.9332],[27.0193,-3.7116,587.6027],[27.0238,-3.7066,588.728],[27.0298,-3.7058,591.9484],[27.042,-3.7108,586.9926],[27.0482,-3.7112,579.6801],[27.0486,-3.7092,585.7806],[27.0549,-3.7124,580.4118],[27.06,-3.7122,580.382],[27.0656,-3.7145,588.2196],[27.0682,-3.7116,585.0817],[27.0753,-3.7169,591.5371],[27.0825,-3.7178,593.763],[27.0865,-3.7165,596.4323],[27.088,-3.7143,587.0622],[27.0874,-3.7105,583.3119],[27.0918,-3.7078,585.8908],[27.0885,-3.7055,578.6566],[27.0908,-3.7006,573.5279],[27.0974,-3.7022,589.439],[27.0988,-3.6999,581.5319],[27.0961,-3.6983,580.5964],[27.0981,-3.6964,597.0352],[27.097,-3.6913,571.6287],[27.0999,-3.6892,594.2417],[27.0978,-3.688,577.6702],[27.0944,-3.6901,598.8403],[27.0927,-3.6855,578.7894],[27.0965,-3.6837,589.4591],[27.1001,-3.6787,574.0959],[27.0959,-3.6741,585.7716],[27.0995,-3.6698,596.1948],[27.1001,-3.6658,578.8606],[27.1002,-3.6625,578.2858],[27.0976,-3.6591,588.8838],[27.1001,-3.6508,571.4911],[27.0967,-3.6468,567.379],[27.0987,-3.6451,579.1063],[27.0994,-3.6407,572.451],[27.0993,-3.6235,568.735],[27.104,-3.6234,594.6587],[27.1029,-3.6169,576.0212],[27.1095,-3.6136,569.4471],[27.1068,-3.6066,565.3352],[27.1106,-3.6048,566.9176],[27.1112,-3.5948,565.0587],[27.1152,-3.5944,556.3348],[27.1164,-3.5929,581.0701],[27.1149,-3.5899,565.1146],[27.1168,-3.5821,561.5251],[27.1191,-3.5801,559.1794],[27.1248,-3.58,563.4182],[27.1228,-3.5739,569.4157],[27.1272,-3.5736,566.0422],[27.1251,-3.5644,564.6879],[27.1217,-3.5617,586.6843],[27.1215,-3.5584,574.6752],[27.1258,-3.5563,569.2263],[27.1311,-3.5597,574.2798],[27.1346,-3.5594,584.3309],[27.1323,-3.5531,563.9723],[27.135,-3.5465,563.1049],[27.1334,-3.5449,551.7467],[27.1352,-3.5388,559.3497],[27.1286,-3.5409,560.1489],[27.1236,-3.5396,554.5795],[27.1203,-3.5469,566.5544],[27.1183,-3.5452,555.009],[27.1183,-3.5414,553.9734],[27.1168,-3.5397,551.3873],[27.1189,-3.5369,551.6156],[27.1223,-3.5361,563.1152],[27.1259,-3.5314,548.2947],[27.1285,-3.5319,561.5202],[27.1269,-3.5279,570.3227],[27.129,-3.5218,570.0714],[27.1279,-3.5125,572.981],[27.1336,-3.4989,552.9074],[27.1289,-3.4884,539.5],[27.1297,-3.4839,541.7722],[27.1236,-3.4797,541.9046],[27.1236,-3.474,543.9901],[27.1202,-3.4714,544.3069],[27.1209,-3.4628,540.798],[27.1191,-3.4572,542.2998],[27.1231,-3.4532,563.1129],[27.1244,-3.4471,560.9388],[27.1298,-3.4431,556.9937],[27.1323,-3.4267,538.5],[27.1286,-3.4237,538.5],[27.1205,-3.4305,542.3842],[27.1154,-3.4306,546.059],[27.1133,-3.4216,556.8459],[27.1146,-3.4164,584.5865],[27.1187,-3.413,571.6456],[27.1193,-3.4096,538.0],[27.1145,-3.3872,574.6034],[27.1117,-3.3847,569.2828],[27.1082,-3.3846,552.6422],[27.104,-3.389,544.8311],[27.103,-3.3923,546.7945],[27.1006,-3.3928,547.4391],[27.0964,-3.3901,540.3243],[27.0919,-3.3816,549.4992],[27.0933,-3.3764,568.0212],[27.101,-3.3702,556.9444],[27.105,-3.3637,575.2043],[27.0946,-3.3412,549.9169],[27.0954,-3.3272,582.5236],[27.0977,-3.3248,575.7924],[27.0991,-3.318,557.8473],[27.1018,-3.314,557.1865],[27.1109,-3.3081,580.1738],[27.1131,-3.3045,563.9514],[27.1205,-3.3023,562.411],[27.1237,-3.2934,548.5706],[27.1304,-3.2894,573.1461],[27.1347,-3.2826,561.7277],[27.1346,-3.2737,579.6183],[27.1381,-3.2717,583.0195],[27.142,-3.2653,551.327],[27.1374,-3.2623,551.7405],[27.128,-3.2609,564.0334],[27.1105,-3.2456,554.914],[27.1177,-3.2339,545.5573],[27.1167,-3.2294,562.0676],[27.1209,-3.2239,545.2448],[27.1208,-3.2194,552.8887],[27.1233,-3.2131,550.3641],[27.1275,-3.2084,546.8126],[27.1279,-3.2046,550.7592],[27.1255,-3.2022,539.7297],[27.1212,-3.2015,566.1304],[27.1229,-3.1926,580.2651],[27.1225,-3.1897,581.9322],[27.1202,-3.1879,560.1024],[27.1186,-3.1786,553.7383],[27.1211,-3.17,545.5153],[27.1317,-3.1544,548.3724],[27.1298,-3.1448,551.4226],[27.1267,-3.1447,561.8049],[27.1234,-3.1411,566.004],[27.115,-3.1407,558.9616],[27.1117,-3.1365,559.9429],[27.112,-3.1331,544.1057],[27.1228,-3.1155,580.1018],[27.1211,-3.1052,553.16],[27.1225,-3.0974,578.0385],[27.1172,-3.0845,552.9534],[27.1199,-3.0767,559.0317],[27.1137,-3.069,550.1646],[27.0988,-3.0675,554.4048],[27.0954,-3.0657,556.3907],[27.0729,-3.0411,559.9725],[27.0671,-3.0406,538.9001],[27.0622,-3.0447,557.4152],[27.058,-3.0413,575.7756],[27.054,-3.0289,530.5],[27.0606,-3.021,560.704],[27.0582,-3.007,559.7736],[27.0578,-2.9877,540.4082],[27.0577,-2.9893,547.7053],[27.0538,-2.9827,534.3103],[27.049,-2.9786,546.5561],[27.034,-2.9722,542.7256],[27.029,-2.9685,546.4211],[27.0236,-2.9597,543.977],[27.0259,-2.952,540.4601],[27.0245,-2.9492,544.729],[27.0208,-2.9507,527.2532],[27.0159,-2.9611,524.2006],[27.0014,-2.959,534.7244],[26.9984,-2.9455,588.3951],[26.9912,-2.9421,570.1018],[26.9798,-2.9288,576.5747],[26.9758,-2.9026,614.4119],[26.9617,-2.863,657.5552],[26.9571,-2.8368,598.8281],[26.9449,-2.8201,590.8533],[26.9162,-2.8075,578.8954],[26.9151,-2.8042,574.1376],[26.9183,-2.7978,583.4535],[26.9155,-2.7941,582.3574],[26.9187,-2.7913,581.7208],[26.9198,-2.7877,589.1671],[26.927,-2.7824,582.8538],[26.9317,-2.7764,592.1932],[26.9335,-2.7724,588.5587],[26.9333,-2.7683,600.6802],[26.9371,-2.7628,595.8159],[26.9383,-2.7497,596.5634],[26.9458,-2.7397,607.6439],[26.9429,-2.7124,659.7887],[26.9057,-2.6956,638.3285],[26.9007,-2.6861,744.3044],[26.91,-2.6782,773.6276],[26.905,-2.6647,608.2236],[26.8898,-2.6544,596.2563],[26.8816,-2.6449,566.9943],[26.8642,-2.6088,523.4848],[26.8629,-2.6073,519.8163],[26.8566,-2.607,557.9827],[26.8569,-2.6041,516.1321],[26.8598,-2.6021,534.6735],[26.8544,-2.5917,563.0877],[26.8549,-2.5798,571.048],[26.8657,-2.5719,560.6243],[26.871,-2.5632,562.1751],[26.8706,-2.5425,567.76],[26.856,-2.4942,620.0947],[26.8269,-2.4632,627.6861],[26.8202,-2.4465,659.525],[26.8182,-2.3958,684.0184],[26.8241,-2.3783,591.902],[26.8214,-2.3656,579.2842],[26.814,-2.3514,683.8459],[26.8106,-2.3398,549.1139],[26.8041,-2.3394,555.1302],[26.7977,-2.3447,568.3939],[26.7927,-2.3403,555.366],[26.789,-2.3422,555.746],[26.7737,-2.3404,562.442],[26.7703,-2.3452,563.3251],[26.7701,-2.3512,546.5333],[26.7687,-2.3519,536.7117],[26.7657,-2.3487,542.494],[26.7604,-2.3469,546.9325],[26.7568,-2.3414,562.4562],[26.7544,-2.3299,568.6708],[26.7476,-2.3306,545.5906],[26.7389,-2.337,540.3247],[26.733,-2.3485,531.1396],[26.7271,-2.3499,534.5227],[26.7095,-2.3663,528.7026],[26.6935,-2.3707,531.0186],[26.6795,-2.3698,529.8724],[26.6695,-2.3742,534.6925],[26.667,-2.377,533.2062],[26.6645,-2.3888,530.1329],[26.6648,-2.3947,530.7413],[26.6569,-2.4481,587.3427],[26.6454,-2.4584,546.1346],[26.6334,-2.4818,532.5245],[26.6217,-2.4882,527.9871],[26.6188,-2.5005,559.3774],[26.6197,-2.5169,553.6401],[26.6165,-2.5247,584.7548],[26.6071,-2.5316,605.7901],[26.5873,-2.5598,630.782],[26.577,-2.5647,620.4517],[26.5584,-2.569,616.717],[26.5387,-2.582,599.9457],[26.5267,-2.5855,657.8058],[26.4984,-2.5832,684.5354],[26.4985,-2.592,708.9854],[26.4881,-2.6045,617.9558],[26.4574,-2.6192,567.7275],[26.4046,-2.6245,679.1275],[26.3762,-2.6409,568.6086],[26.3313,-2.661,563.9232],[26.2941,-2.6825,583.757],[26.2302,-2.7294,532.6779],[26.2222,-2.7478,545.2009],[26.2184,-2.7772,528.122],[26.2221,-2.8167,512.4443],[26.2192,-2.8347,514.4323],[26.2074,-2.8478,511.5164],[26.1989,-2.8486,514.6516],[26.1907,-2.845,497.9834],[26.1899,-2.8422,489.4548],[26.1839,-2.8391,497.6427],[26.1819,-2.8343,480.3114],[26.1704,-2.8305,454.8347],[26.144,-2.8642,507.6923],[26.0594,-2.9578,529.6151],[26.0612,-3.001,550.9736],[26.1252,-3.139,538.3982],[26.1253,-3.1602,544.5103],[26.121,-3.1635,550.3628],[26.0922,-3.1668,518.1804],[26.0167,-3.1792,483.4848],[25.9989,-3.1792,485.7643],[25.9493,-3.1872,510.9738],[25.9352,-3.1925,456.8851],[25.9343,-3.2029,455.9784],[25.9301,-3.2126,454.9939],[25.9199,-3.224,449.7617],[25.9147,-3.2349,454.1597],[25.9158,-3.2412,453.4904],[25.9034,-3.2552,450.0],[25.9054,-3.2581,452.6479],[25.9058,-3.2665,452.2398],[25.8977,-3.2916,454.1392],[25.8839,-3.3232,457.0342],[25.8799,-3.3531,459.1811]]]]}}