{"type": "Feature","bbox": [23.4114,-4.9808,23.5079,-4.9212],"geometry": {"type": "MultiPolygon","coordinates": [[[[23.4493,-4.9797,422.9127],[23.4548,-4.9772,431.8611],[23.4679,-4.9767,415.8154],[23.4643,-4.9748,432.0255],[23.4659,-4.9701,443.8185],[23.4986,-4.947,497.9525],[23.5079,-4.9334,510.1859],[23.5043,-4.9298,458.7664],[23.4987,-4.9274,504.2404],[23.4775,-4.9212,566.8356],[23.4514,-4.9212,539.4057],[23.4332,-4.9275,536.0549],[23.4211,-4.9427,453.0342],[23.4114,-4.9635,439.8779],[23.427,-4.9704,410.0],[23.4341,-4.9794,410.5],[23.4417,-4.9808,418.2469],[23.4493,-4.9797,422.9127]]]]}
,"properties": {"GID_2": "COD.21.9_1","GID_0": "COD","country": "DemocraticRepublicoftheCongo","GID_1": "COD.21_1","province": "Sankuru","NL_NAME_1": "NA","county": "Lusambo(ville)","VARNAME_2": "NA","NL_NAME_2": "NA","TYPE_2": "Ville","ENGTYPE_2": "Town","CC_2": "NA","HASC_2": "NA","name": "Lusambo(ville).county","area_km2": 44.90791,"hist_schema_id": "Elevation0-9000","hist_area_km2": {"400": 0.48581,"425": 4.52021,"450": 6.42144,"475": 11.36426,"500": 13.68785,"525": 5.25977,"550": 2.4081,"575": 0.76046}}}