{"type":"Feature","properties":{"GID_2":"COD.7.5_1","GID_0":"COD","country":"DemocraticRepublicoftheCongo","GID_1":"COD.7_1","province":"Kasaï-Central","NL_NAME_1":"NA","county":"Kazumba","VARNAME_2":"NA","NL_NAME_2":"NA","TYPE_2":"Territoire","ENGTYPE_2":"Territory","CC_2":"NA","HASC_2":"NA","name":"Kazumba.county"},
"geometry":{"type": "MultiPolygon","coordinates": [[[[21.9365,-5.7517,607.3489],[21.9233,-5.7607,625.5907],[21.9074,-5.7756,611.4043],[21.8959,-5.7928,627.1707],[21.8858,-5.8045,650.77],[21.8809,-5.8134,657.6074],[21.8784,-5.8148,658.6303],[21.8751,-5.8293,641.5948],[21.8783,-5.8431,630.2974],[21.8769,-5.853,643.3875],[21.8782,-5.8589,622.6475],[21.8622,-5.8625,680.9252],[21.8308,-5.8649,661.4933],[21.8222,-5.8636,630.0895],[21.8126,-5.8507,598.111],[21.7903,-5.8363,652.296],[21.7869,-5.8264,605.5826],[21.7835,-5.8239,631.1191],[21.7812,-5.8161,581.2848],[21.7792,-5.814,603.1754],[21.7732,-5.8133,589.2892],[21.7638,-5.8091,558.4447],[21.7562,-5.8029,556.9692],[21.7517,-5.7916,605.6148],[21.7549,-5.7796,574.1033],[21.751,-5.7771,573.5237],[21.7504,-5.7697,550.8549],[21.7434,-5.7699,587.0539],[21.7371,-5.7739,576.8334],[21.7188,-5.7891,580.2417],[21.7139,-5.7963,594.7673],[21.6976,-5.8036,651.4633],[21.6903,-5.8215,602.7906],[21.6795,-5.8608,630.6349],[21.6755,-5.8672,618.8624],[21.6668,-5.8731,614.8334],[21.665,-5.8763,605.6719],[21.6638,-5.8947,587.3793],[21.6578,-5.9,556.6368],[21.6483,-5.9156,558.5045],[21.6375,-5.9234,572.5964],[21.632,-5.9337,581.6583],[21.629,-5.9362,561.6622],[21.6214,-5.9378,521.3643],[21.6172,-5.9339,568.0687],[21.6138,-5.9339,538.6156],[21.6115,-5.941,545.9343],[21.6016,-5.9467,574.3706],[21.5965,-5.9589,580.2498],[21.59,-5.965,544.0602],[21.5865,-5.9745,577.6768],[21.5826,-5.9777,550.5734],[21.5814,-6.0004,543.8155],[21.5732,-6.0333,543.4456],[21.5787,-6.043,556.2807],[21.5776,-6.0489,584.6235],[21.5832,-6.0678,571.3545],[21.5821,-6.0738,572.1516],[21.5843,-6.0786,553.3247],[21.579,-6.0843,586.316],[21.58,-6.0862,593.2747],[21.5848,-6.086,557.5809],[21.5866,-6.0885,544.5201],[21.5787,-6.1055,594.1],[21.5828,-6.1143,557.7855],[21.5883,-6.1389,586.4294],[21.5904,-6.1771,579.7676],[21.5966,-6.1867,583.2557],[21.5957,-6.1897,591.0351],[21.5915,-6.1918,641.0428],[21.589,-6.1966,616.9271],[21.5899,-6.2,565.0251],[21.5943,-6.204,604.3809],[21.597,-6.2141,582.135],[21.5926,-6.2249,592.4293],[21.5884,-6.2474,586.0404],[21.5895,-6.252,598.3507],[21.5941,-6.2541,596.1177],[21.5961,-6.2571,614.078],[21.5952,-6.2621,579.3735],[21.6014,-6.2658,577.912],[21.6034,-6.27,613.4745],[21.5993,-6.2799,615.1417],[21.5993,-6.2842,610.0443],[21.6036,-6.2898,614.4612],[21.6031,-6.3003,612.3138],[21.6088,-6.3068,584.726],[21.6079,-6.31,595.7218],[21.6129,-6.3139,589.1047],[21.6141,-6.3215,596.2823],[21.6166,-6.3248,599.9683],[21.6184,-6.3395,594.449],[21.6172,-6.3434,593.3915],[21.6211,-6.3567,607.5845],[21.6194,-6.3735,626.1097],[21.615,-6.3889,600.3062],[21.6161,-6.391,591.6595],[21.6117,-6.3946,608.4757],[21.6135,-6.4059,600.9221],[21.6108,-6.4098,602.1732],[21.6115,-6.4139,595.1431],[21.6064,-6.4213,593.1544],[21.6075,-6.4259,592.7671],[21.6033,-6.4367,597.6256],[21.6035,-6.4436,597.9125],[21.5998,-6.4497,606.9278],[21.601,-6.4557,601.6874],[21.5996,-6.461,613.3117],[21.6055,-6.4723,600.3633],[21.5833,-6.476,691.4476],[21.5617,-6.4751,673.7567],[21.5531,-6.4764,699.9276],[21.5434,-6.4803,706.3357],[21.5399,-6.4858,693.8651],[21.5411,-6.5044,716.4297],[21.5456,-6.5105,718.2894],[21.5669,-6.518,679.0168],[21.5687,-6.5267,675.7208],[21.5672,-6.5324,633.5613],[21.5553,-6.5435,654.3757],[21.5525,-6.5488,650.1089],[21.5529,-6.5586,650.5198],[21.5519,-6.5652,670.0471],[21.5479,-6.5708,670.7499],[21.5485,-6.5766,700.0927],[21.5557,-6.5795,714.5403],[21.5718,-6.5756,678.7443],[21.5851,-6.5615,639.7814],[21.599,-6.5509,638.1482],[21.6032,-6.5465,638.5649],[21.6039,-6.5427,627.7556],[21.6083,-6.5394,606.9543],[21.611,-6.5502,609.1807],[21.61,-6.5544,609.8161],[21.6137,-6.5571,627.6008],[21.6132,-6.5615,659.8483],[21.6201,-6.5675,650.7015],[21.6242,-6.5742,646.002],[21.6279,-6.5891,657.7953],[21.6347,-6.5981,649.6555],[21.6393,-6.5988,663.1277],[21.6425,-6.6016,665.4604],[21.6457,-6.6094,658.1427],[21.6531,-6.6164,678.4838],[21.6724,-6.6236,687.1104],[21.6797,-6.63,686.9484],[21.6916,-6.6333,687.7063],[21.7008,-6.6483,682.1392],[21.7045,-6.6497,688.3464],[21.7074,-6.6552,683.7838],[21.7125,-6.6577,699.3632],[21.7109,-6.6611,684.6867],[21.7042,-6.6654,700.5727],[21.6684,-6.6631,775.3207],[21.6458,-6.6757,684.5683],[21.6274,-6.679,703.2117],[21.6168,-6.6781,682.4557],[21.6126,-6.6801,665.1852],[21.6108,-6.684,673.7474],[21.611,-6.69,671.6678],[21.6141,-6.7,693.3508],[21.6205,-6.71,717.9515],[21.6217,-6.7168,686.5721],[21.62,-6.7264,684.5231],[21.6178,-6.7284,689.8965],[21.5928,-6.7112,750.9736],[21.5877,-6.7108,698.5217],[21.5831,-6.7126,707.9758],[21.5821,-6.7168,718.5046],[21.5879,-6.7243,675.3331],[21.5993,-6.7323,699.4752],[21.6041,-6.7383,736.0316],[21.6055,-6.7465,752.1779],[21.6032,-6.7535,723.6611],[21.5989,-6.7584,724.5705],[21.5819,-6.765,724.7066],[21.5744,-6.7581,712.6129],[21.5608,-6.753,718.1776],[21.5516,-6.7543,732.9162],[21.5463,-6.7596,705.9896],[21.5399,-6.7591,711.5014],[21.5222,-6.7634,719.3954],[21.4853,-6.7807,670.6025],[21.4802,-6.7867,675.261],[21.4724,-6.791,661.2233],[21.4675,-6.8029,663.9579],[21.464,-6.8064,662.3937],[21.459,-6.8075,638.1853],[21.4491,-6.8047,621.917],[21.4431,-6.8109,640.8951],[21.4256,-6.809,617.916],[21.4217,-6.8103,636.3821],[21.4157,-6.8184,605.3623],[21.4104,-6.8195,604.5081],[21.403,-6.8261,564.9568],[21.4005,-6.8358,575.6591],[21.4018,-6.839,584.6954],[21.4048,-6.8406,579.9073],[21.4161,-6.839,573.2452],[21.417,-6.8494,575.5273],[21.4186,-6.8517,580.2761],[21.4275,-6.8609,579.5142],[21.431,-6.8628,585.3483],[21.4369,-6.8623,577.0],[21.4381,-6.8663,581.6925],[21.444,-6.8709,579.97],[21.4502,-6.8831,582.6685],[21.4562,-6.8868,586.8063],[21.4727,-6.8914,598.2611],[21.4826,-6.8972,605.7479],[21.4876,-6.8979,594.2092],[21.4959,-6.9106,609.2045],[21.5071,-6.9201,612.2103],[21.5117,-6.9302,607.0833],[21.5199,-6.9376,605.0138],[21.5211,-6.942,623.0777],[21.532,-6.9565,609.7335],[21.5332,-6.9645,621.8336],[21.5371,-6.9719,621.7864],[21.5414,-6.9779,614.1405],[21.5439,-6.9774,604.625],[21.5471,-6.98,613.8252],[21.5508,-6.9857,640.4349],[21.5542,-6.9986,640.8196],[21.5641,-7.0051,620.9073],[21.5707,-7.0138,621.856],[21.5905,-7.0289,668.8191],[21.5895,-7.0357,670.7136],[21.5982,-7.0383,663.7371],[21.6017,-7.0422,692.3719],[21.61,-7.0462,655.9186],[21.6152,-7.0565,668.1833],[21.6214,-7.0517,648.0007],[21.6265,-7.0515,668.3896],[21.6311,-7.0566,673.761],[21.6536,-7.0697,705.4844],[21.6551,-7.0681,671.3317],[21.6658,-7.0659,680.3574],[21.6722,-7.0684,675.239],[21.6786,-7.074,681.6332],[21.6833,-7.0722,681.4483],[21.6888,-7.0738,676.2572],[21.6927,-7.0708,688.5504],[21.7136,-7.0725,677.417],[21.7187,-7.0751,678.308],[21.7184,-7.079,679.3784],[21.7341,-7.0804,676.3997],[21.738,-7.0737,699.8829],[21.7428,-7.0758,683.0797],[21.7449,-7.0823,697.725],[21.7554,-7.0908,682.9757],[21.7598,-7.092,680.8192],[21.7649,-7.0906,683.8346],[21.7734,-7.0849,684.2219],[21.778,-7.0879,681.5135],[21.7838,-7.0859,683.8603],[21.7879,-7.093,704.4376],[21.792,-7.0891,687.921],[21.7936,-7.0974,685.0439],[21.7952,-7.0988,687.6312],[21.7984,-7.099,683.7424],[21.8019,-7.0958,683.183],[21.806,-7.0986,687.1402],[21.8083,-7.0981,682.3758],[21.8109,-7.0926,687.1494],[21.8153,-7.0917,690.6536],[21.8187,-7.0943,683.1245],[21.8208,-7.092,684.4659],[21.8219,-7.0844,703.7803],[21.836,-7.0847,684.6885],[21.8411,-7.0785,687.5506],[21.853,-7.0771,688.2907],[21.859,-7.0703,698.0806],[21.8713,-7.063,684.9296],[21.8784,-7.0653,694.0339],[21.8837,-7.063,692.732],[21.888,-7.0639,687.7673],[21.8935,-7.0704,700.5971],[21.9044,-7.0714,697.8762],[21.9124,-7.0689,694.4733],[21.9267,-7.0611,723.5182],[21.9322,-7.0561,717.2784],[21.9354,-7.0595,691.2579],[21.9382,-7.0593,690.9802],[21.9486,-7.054,731.0681],[21.9539,-7.0573,700.7806],[21.9534,-7.0616,701.446],[21.9497,-7.0685,703.8427],[21.9513,-7.0722,714.9546],[21.9559,-7.0727,716.3732],[21.9577,-7.0679,736.0524],[21.9605,-7.0663,736.7838],[21.9614,-7.0681,724.4767],[21.9589,-7.0734,722.2222],[21.9596,-7.0764,728.1792],[21.9623,-7.0778,728.3226],[21.9701,-7.0732,725.7125],[21.9796,-7.073,715.5483],[21.9862,-7.0762,715.4754],[21.9913,-7.0751,717.8915],[21.9998,-7.0763,716.8892],[22.0097,-7.0722,723.5953],[22.0171,-7.072,717.3931],[22.0226,-7.0681,718.5253],[22.0314,-7.0649,717.7987],[22.0364,-7.0658,718.8076],[22.0397,-7.0631,718.2322],[22.0463,-7.061,722.752],[22.0505,-7.0631,718.8573],[22.0604,-7.0613,718.8733],[22.0645,-7.0687,719.0749],[22.0679,-7.0696,721.3575],[22.0702,-7.0685,719.3919],[22.0723,-7.063,721.9291],[22.079,-7.0605,720.3177],[22.0838,-7.0648,721.0621],[22.0942,-7.066,720.6577],[22.0979,-7.0681,727.3419],[22.1043,-7.0642,768.5902],[22.1066,-7.0656,734.6506],[22.1098,-7.0635,769.3524],[22.1158,-7.0645,742.8987],[22.1195,-7.0633,739.9728],[22.1222,-7.0647,730.4437],[22.1247,-7.0751,746.8],[22.1238,-7.0781,774.9902],[22.133,-7.0829,736.2188],[22.1372,-7.0779,754.9354],[22.1489,-7.0786,728.0286],[22.1558,-7.0745,735.0427],[22.1609,-7.0754,728.9485],[22.1661,-7.0805,743.0875],[22.1684,-7.0803,742.1337],[22.1717,-7.0745,736.4423],[22.1799,-7.0808,729.3477],[22.1928,-7.0767,733.5969],[22.1958,-7.0721,773.5048],[22.214,-7.0655,745.4083],[22.2244,-7.0664,782.1212],[22.2308,-7.0653,750.3876],[22.2341,-7.06,774.4584],[22.2368,-7.0593,778.5583],[22.2394,-7.0518,802.2697],[22.247,-7.0401,800.8912],[22.2521,-7.0353,809.7139],[22.2537,-7.024,793.4085],[22.2563,-7.0187,788.9015],[22.2477,-6.9988,821.7319],[22.2456,-6.975,845.9389],[22.2413,-6.969,849.4618],[22.2331,-6.9694,851.3253],[22.2283,-6.9713,839.6514],[22.2224,-6.9688,828.6449],[22.2152,-6.969,810.3768],[22.2088,-6.9614,812.4775],[22.2024,-6.9584,819.7212],[22.1971,-6.9443,807.5028],[22.1882,-6.9344,783.8796],[22.1838,-6.9275,789.787],[22.1813,-6.9174,786.0154],[22.1692,-6.9013,792.1357],[22.1699,-6.8976,789.0749],[22.1667,-6.8875,799.472],[22.1761,-6.8888,805.7325],[22.1818,-6.8947,794.6875],[22.1977,-6.9014,825.7129],[22.2037,-6.9012,830.4214],[22.2109,-6.8903,809.0341],[22.2158,-6.8884,801.07],[22.2214,-6.8888,809.4609],[22.2255,-6.8915,826.6652],[22.226,-6.9076,852.2621],[22.2309,-6.9126,839.4865],[22.2365,-6.9152,857.0657],[22.2411,-6.9145,849.2086],[22.2599,-6.8784,791.9666],[22.2642,-6.8734,785.3066],[22.2691,-6.8711,776.6005],[22.3127,-6.8738,804.6288],[22.3365,-6.8672,857.1843],[22.3508,-6.8654,857.6479],[22.3645,-6.8616,870.6399],[22.371,-6.8581,861.2852],[22.3844,-6.8449,852.5483],[22.3904,-6.8222,844.0182],[22.3857,-6.7829,810.8172],[22.3818,-6.7661,799.0571],[22.3879,-6.7379,788.1015],[22.3946,-6.7321,794.5041],[22.3971,-6.7275,787.5159],[22.4122,-6.7234,779.0949],[22.4127,-6.7122,795.2426],[22.4056,-6.6984,825.9079],[22.4063,-6.6812,807.4146],[22.4024,-6.6769,816.3584],[22.3982,-6.6755,796.265],[22.3914,-6.6761,803.4395],[22.3853,-6.6788,807.0601],[22.3783,-6.6788,802.149],[22.3744,-6.6748,819.7156],[22.3721,-6.6626,840.7571],[22.3802,-6.6454,825.6727],[22.384,-6.6281,803.082],[22.387,-6.6195,793.6029],[22.3918,-6.6129,773.5966],[22.4021,-6.5818,790.3793],[22.4048,-6.5465,733.6063],[22.4133,-6.535,711.7272],[22.41,-6.5285,695.7714],[22.41,-6.5251,717.6849],[22.4377,-6.5013,683.658],[22.434,-6.49,697.5623],[22.428,-6.4895,698.6382],[22.4235,-6.4867,685.2986],[22.4214,-6.4828,690.4868],[22.4108,-6.4803,686.4689],[22.4143,-6.4709,677.9925],[22.4219,-6.4612,679.2316],[22.4228,-6.455,668.4181],[22.4258,-6.45,667.5353],[22.4238,-6.4461,668.223],[22.4184,-6.4436,669.5471],[22.4201,-6.4394,668.1223],[22.4192,-6.4287,664.2905],[22.4137,-6.4224,669.4424],[22.4073,-6.4184,661.1249],[22.4117,-6.4125,658.2095],[22.4105,-6.4097,658.7045],[22.3986,-6.3991,655.9346],[22.4011,-6.3943,673.5363],[22.4118,-6.3844,660.5384],[22.4127,-6.3782,656.4359],[22.4159,-6.3743,659.819],[22.4191,-6.3718,665.2845],[22.4265,-6.3697,673.5867],[22.4313,-6.3647,656.0897],[22.4426,-6.3588,662.5638],[22.4468,-6.3452,653.4002],[22.4585,-6.3246,636.9442],[22.4593,-6.3204,627.9225],[22.4569,-6.3139,637.4001],[22.4625,-6.3117,628.2322],[22.4648,-6.3045,624.6512],[22.4635,-6.3004,624.7559],[22.4692,-6.2922,629.9779],[22.477,-6.2848,627.5115],[22.4819,-6.2763,621.7436],[22.4807,-6.2738,629.2939],[22.4752,-6.2713,625.9773],[22.4732,-6.2683,625.8296],[22.476,-6.2614,617.571],[22.4791,-6.2581,619.7783],[22.4818,-6.2622,621.4792],[22.4844,-6.2524,619.229],[22.4813,-6.2504,621.1826],[22.4787,-6.2524,623.5905],[22.4686,-6.2478,620.5564],[22.4721,-6.2347,608.6541],[22.4749,-6.2303,602.6265],[22.4691,-6.228,604.408],[22.468,-6.2257,596.7601],[22.471,-6.2099,596.2664],[22.4752,-6.2027,590.4518],[22.4733,-6.1991,587.8447],[22.4694,-6.1974,585.6],[22.464,-6.188,584.4541],[22.4518,-6.1776,581.6301],[22.4499,-6.1736,581.4373],[22.4452,-6.1576,580.0143],[22.4466,-6.1332,582.9658],[22.4443,-6.1288,587.4795],[22.4409,-6.1277,584.819],[22.4377,-6.1288,599.2021],[22.4278,-6.136,577.7525],[22.4239,-6.1331,579.8154],[22.4167,-6.1327,574.595],[22.4116,-6.1282,573.6896],[22.4144,-6.1235,574.342],[22.4076,-6.1152,572.7745],[22.4074,-6.1122,568.75],[22.4019,-6.1064,580.1742],[22.4019,-6.1034,577.6395],[22.3971,-6.1027,576.4218],[22.3946,-6.0804,571.8559],[22.4018,-6.0665,570.8824],[22.3953,-6.0471,565.5594],[22.3986,-6.0381,563.1411],[22.397,-6.031,563.7424],[22.3923,-6.0229,552.3173],[22.392,-6.0087,553.6378],[22.3897,-6.0034,548.5],[22.3831,-5.999,551.5889],[22.3822,-5.9942,546.6564],[22.3792,-5.9914,564.6111],[22.3716,-5.9921,538.8474],[22.3705,-5.9907,540.9443],[22.369,-5.9704,533.4477],[22.3601,-5.9692,531.243],[22.3572,-5.9665,532.148],[22.3581,-5.9522,527.2187],[22.3568,-5.9506,527.3482],[22.3437,-5.952,524.0336],[22.3409,-5.9508,524.1098],[22.3384,-5.9478,523.4931],[22.3386,-5.9448,528.6476],[22.3428,-5.9396,525.6369],[22.3409,-5.9298,522.1901],[22.3348,-5.929,518.1543],[22.3303,-5.9251,520.3737],[22.3236,-5.9265,521.4124],[22.3198,-5.9255,515.1505],[22.3074,-5.8983,513.5638],[22.2971,-5.8978,514.1858],[22.2911,-5.8908,521.7242],[22.2845,-5.8913,507.65],[22.2712,-5.8848,511.8411],[22.2678,-5.8745,509.6042],[22.2543,-5.8664,495.1962],[22.2481,-5.8595,500.5697],[22.2465,-5.8539,497.6468],[22.2341,-5.8505,500.0535],[22.2256,-5.853,494.6729],[22.2215,-5.849,490.2679],[22.2201,-5.8421,492.6338],[22.2227,-5.8336,489.7912],[22.2227,-5.8247,504.8304],[22.2199,-5.824,503.2644],[22.214,-5.8272,497.0593],[22.205,-5.8248,483.7119],[22.2041,-5.8223,485.9803],[22.2054,-5.8182,485.616],[22.2035,-5.8127,509.737],[22.1878,-5.8006,485.1122],[22.1878,-5.7972,503.7688],[22.1794,-5.7967,498.0142],[22.1775,-5.7942,489.5982],[22.1727,-5.7939,480.2224],[22.1709,-5.7914,481.5219],[22.1714,-5.7854,478.375],[22.1679,-5.7771,519.1272],[22.15,-5.7706,499.4145],[22.1492,-5.7651,474.9656],[22.1454,-5.7608,485.8967],[22.1479,-5.7594,467.717],[22.1472,-5.7571,488.0532],[22.1443,-5.7541,502.4216],[22.1365,-5.7517,473.3606],[22.1367,-5.741,470.4307],[22.1286,-5.7292,471.1408],[22.1201,-5.7271,465.8997],[22.1182,-5.7229,470.4394],[22.1211,-5.703,466.3132],[22.1077,-5.7086,479.5321],[22.0947,-5.7093,515.423],[22.046,-5.7272,580.5118],[22.0385,-5.7322,611.1179],[22.0277,-5.7434,579.9265],[22.0222,-5.7457,604.9464],[22.0127,-5.7444,603.5871],[21.9974,-5.7389,607.0117],[21.962,-5.736,645.7449],[21.9558,-5.7376,616.1771],[21.9365,-5.7517,607.3489]]]]}}