{"type":"Feature","properties":{"GID_2":"COD.26.6_1","GID_0":"COD","country":"DemocraticRepublicoftheCongo","GID_1":"COD.26_1","province":"Tshuapa","NL_NAME_1":"NA","county":"Ikela","VARNAME_2":"NA","NL_NAME_2":"NA","TYPE_2":"Territoire","ENGTYPE_2":"Territory","CC_2":"NA","HASC_2":"NA","name":"Ikela.county"},
"geometry":{"type": "MultiPolygon","coordinates": [[[[24.444,-1.7153,563.1646],[24.4228,-1.6677,586.0637],[24.4056,-1.6524,546.1352],[24.4092,-1.6258,486.0133],[24.3853,-1.4214,588.3845],[24.3684,-1.3934,503.3122],[24.3599,-1.3248,481.4318],[24.2657,-1.3251,518.6622],[24.126,-1.3228,451.2289],[24.0719,-1.3074,428.6236],[24.0603,-1.3187,425.17],[24.0468,-1.3267,450.1274],[24.0244,-1.3317,431.8598],[24.0176,-1.335,417.3322],[24.0102,-1.3428,404.2291],[24.005,-1.3517,408.3142],[23.9984,-1.3531,410.6591],[23.9748,-1.3524,419.3548],[23.9689,-1.3563,415.0262],[23.9639,-1.3655,414.329],[23.9577,-1.3701,441.2393],[23.9554,-1.3742,443.6527],[23.9344,-1.3788,405.5185],[23.9093,-1.3389,468.4911],[23.9054,-1.3193,466.7189],[23.8983,-1.3109,405.5803],[23.8909,-1.3095,447.2148],[23.8503,-1.2886,404.6486],[23.8417,-1.2788,436.3872],[23.8367,-1.2467,423.513],[23.8224,-1.237,407.7912],[23.8037,-1.2145,410.991],[23.8043,-1.1921,451.6988],[23.8,-1.1879,427.2805],[23.7681,-1.1751,448.3],[23.739,-1.1601,436.4385],[23.7287,-1.1602,438.556],[23.7024,-1.1502,419.346],[23.6775,-1.1491,459.4639],[23.6582,-1.1534,450.9658],[23.651,-1.1492,449.9377],[23.6483,-1.138,401.5068],[23.6706,-1.0749,439.7174],[23.6655,-1.0469,433.8251],[23.6385,-1.0106,421.4807],[23.5812,-1.0094,446.609],[23.5609,-0.9968,434.535],[23.5097,-0.9858,443.3411],[23.4693,-0.9537,405.1778],[23.4392,-0.9272,427.0479],[23.4016,-0.9007,429.3301],[23.3855,-0.8979,448.9357],[23.3687,-0.8672,425.2558],[23.3558,-0.8532,424.3584],[23.344,-0.8425,423.6964],[23.3081,-0.8197,399.1487],[23.2986,-0.7904,404.8205],[23.2823,-0.7824,403.9546],[23.2553,-0.7611,406.4406],[23.257,-0.7513,423.8398],[23.2777,-0.7456,408.193],[23.2968,-0.7483,400.7578],[23.3096,-0.7574,399.6508],[23.3131,-0.7568,400.4967],[23.3151,-0.751,403.2136],[23.3208,-0.7453,420.2586],[23.3227,-0.7384,418.4782],[23.3222,-0.7315,413.5161],[23.327,-0.7198,405.3815],[23.3284,-0.703,411.8707],[23.3335,-0.6915,422.4977],[23.3364,-0.6881,408.1228],[23.3472,-0.6833,412.3875],[23.3712,-0.6748,412.3169],[23.3824,-0.6728,406.4461],[23.3874,-0.6677,409.4661],[23.3931,-0.6556,413.6929],[23.3977,-0.6498,407.4204],[23.4271,-0.6492,410.9002],[23.4409,-0.6421,423.3997],[23.4965,-0.6245,434.0321],[23.5172,-0.6202,428.5902],[23.5344,-0.6128,421.664],[23.5393,-0.5946,434.0031],[23.5284,-0.5862,439.4907],[23.5024,-0.5702,426.0732],[23.4744,-0.5443,415.5509],[23.4567,-0.4919,401.6406],[23.455,-0.4524,403.2411],[23.4459,-0.4473,402.4444],[23.4315,-0.4321,404.177],[23.4235,-0.4186,413.1585],[23.4187,-0.4135,408.969],[23.4112,-0.4091,419.0166],[23.3987,-0.411,411.1497],[23.3717,-0.4235,405.4698],[23.356,-0.4231,404.9311],[23.3496,-0.426,404.6094],[23.3384,-0.4347,415.7652],[23.3281,-0.4386,408.1686],[23.3101,-0.4391,403.7834],[23.2895,-0.4505,398.0248],[23.2448,-0.4575,397.6108],[23.2158,-0.4752,429.1461],[23.1954,-0.4972,406.0841],[23.1769,-0.5063,407.9482],[23.1591,-0.5238,411.1848],[23.1262,-0.5366,409.3382],[23.1175,-0.5444,410.3491],[23.107,-0.5572,418.2481],[23.1008,-0.5595,412.8125],[23.0981,-0.548,406.8992],[23.099,-0.5406,422.0914],[23.1075,-0.5227,414.2643],[23.1091,-0.5101,394.8184],[23.1137,-0.4979,411.537],[23.1137,-0.4881,412.7107],[23.1186,-0.4663,414.7902],[23.1289,-0.4488,417.4401],[23.1266,-0.438,414.8341],[23.1351,-0.4121,419.0691],[23.1107,-0.4072,420.2361],[23.0928,-0.4058,425.1292],[22.9436,-0.4037,408.5851],[22.9374,-0.3973,405.228],[22.9204,-0.3663,415.155],[22.9096,-0.351,409.9104],[22.8979,-0.3408,427.5402],[22.8828,-0.3366,410.5769],[22.877,-0.3319,415.539],[22.8694,-0.3165,418.0641],[22.8612,-0.2895,429.5089],[22.8515,-0.272,428.8743],[22.7984,-0.2072,492.2995],[22.762,-0.178,463.7654],[22.7326,-0.1593,499.9867],[22.7168,-0.154,488.3317],[22.7118,-0.1484,454.8935],[22.705,-0.1457,457.7529],[22.6838,-0.1452,477.7525],[22.6783,-0.1387,505.0871],[22.6834,-0.1291,470.4672],[22.6747,-0.1164,466.9654],[22.6686,-0.1026,447.411],[22.6659,-0.0838,488.5992],[22.6588,-0.0783,498.2542],[22.6581,-0.0751,487.5966],[22.6609,-0.0682,506.0062],[22.6518,-0.0411,500.5711],[22.6389,-0.0326,477.0689],[22.6231,-0.0183,411.6113],[22.595,0.0,413.0983],[22.5327,0.0005,468.1537],[22.4911,0.0079,481.3528],[22.4624,0.0157,455.4709],[22.44,0.0272,472.4847],[22.4137,0.0446,422.3975],[22.3982,0.0478,444.7533],[22.3806,0.055,429.6464],[22.3396,0.1146,390.0307],[22.3387,0.1137,392.4842],[22.3469,0.0915,399.405],[22.3462,0.0821,412.1446],[22.3489,0.0637,415.4498],[22.358,0.038,428.8767],[22.3572,0.0224,425.3752],[22.3611,0.013,445.4066],[22.3906,-0.0269,475.391],[22.3981,-0.0406,424.8546],[22.4014,-0.0489,422.9997],[22.4094,-0.0939,456.1512],[22.4126,-0.0985,436.8427],[22.4276,-0.1104,438.2479],[22.4632,-0.146,479.6055],[22.4744,-0.1592,457.436],[22.5829,-0.4034,431.7043],[22.5842,-0.412,410.636],[22.5831,-0.4258,423.632],[22.584,-0.4322,436.9661],[22.5896,-0.4465,433.2892],[22.5899,-0.4615,452.343],[22.5699,-0.5219,432.2546],[22.5503,-0.6037,443.3552],[22.5332,-0.6601,409.849],[22.5305,-0.6892,405.7975],[22.5311,-0.7016,397.6548],[22.5328,-0.7066,379.2815],[22.5381,-0.711,392.6104],[22.5574,-0.7143,380.9844],[22.5681,-0.7205,383.2869],[22.5888,-0.744,348.0],[22.6039,-0.7658,368.206],[22.6158,-0.7763,371.3265],[22.6792,-0.8101,373.9178],[22.6994,-0.8181,385.4106],[22.7054,-0.8231,386.584],[22.7059,-0.8295,385.3654],[22.7028,-0.8357,385.9207],[22.7009,-0.846,405.139],[22.7031,-0.8718,404.4829],[22.7026,-0.8912,397.4695],[22.6974,-0.8958,391.0912],[22.6885,-0.8954,396.9281],[22.6787,-0.8985,385.6416],[22.671,-0.904,406.6833],[22.6612,-0.9217,397.452],[22.6525,-0.9433,393.8804],[22.6492,-0.9567,391.1446],[22.6481,-0.977,384.6479],[22.6848,-1.1526,402.1347],[22.6911,-1.1891,409.6384],[22.7051,-1.2451,440.3206],[22.7161,-1.2677,436.3798],[22.7346,-1.2961,413.7482],[22.7419,-1.3104,405.1588],[22.7489,-1.3317,432.3731],[22.7537,-1.3388,413.1085],[22.7612,-1.3434,422.809],[22.7653,-1.343,418.0935],[22.7691,-1.3395,416.0348],[22.7878,-1.2974,408.1764],[22.7941,-1.2938,418.5491],[22.7985,-1.2943,418.6166],[22.8081,-1.3011,409.0669],[22.8256,-1.3187,417.6096],[22.8498,-1.3396,419.4564],[22.8612,-1.3631,430.0619],[22.8757,-1.3776,428.2854],[22.8876,-1.3772,445.1673],[22.9041,-1.3721,444.7709],[22.9223,-1.3765,440.8852],[22.9316,-1.3767,440.7329],[22.942,-1.3709,451.9732],[22.9739,-1.3429,431.5654],[22.9775,-1.342,434.882],[22.9953,-1.3656,430.2871],[23.0022,-1.3711,424.2608],[23.0166,-1.3778,435.2962],[23.0261,-1.3946,438.6866],[23.0375,-1.4064,446.3684],[23.0368,-1.413,445.0994],[23.0386,-1.4197,442.4397],[23.0344,-1.425,424.429],[23.0162,-1.4371,428.8705],[22.9959,-1.4631,433.8535],[22.9569,-1.5042,432.2996],[22.9471,-1.5196,410.9295],[22.9338,-1.533,402.9915],[22.9294,-1.5316,407.971],[22.9176,-1.5203,400.5642],[22.9085,-1.5153,410.1667],[22.8911,-1.5143,414.726],[22.8545,-1.531,410.1915],[22.8435,-1.5422,391.34],[22.8275,-1.5496,384.7069],[22.8211,-1.556,384.6781],[22.7938,-1.6025,393.5219],[22.7716,-1.6224,416.8959],[22.6788,-1.7208,449.5203],[22.6725,-1.7244,416.7692],[22.667,-1.7239,428.335],[22.6517,-1.7165,441.6122],[22.6432,-1.7156,416.2997],[22.6301,-1.7169,421.2597],[22.612,-1.7289,445.2747],[22.5917,-1.7386,406.6209],[22.5896,-1.7508,422.0193],[22.5928,-1.752,423.9026],[22.5964,-1.7598,400.5177],[22.6074,-1.7695,414.5414],[22.6095,-1.7769,405.5212],[22.6185,-1.7754,417.9318],[22.6225,-1.7771,410.8065],[22.6229,-1.779,414.2454],[22.6188,-1.7856,413.6914],[22.6217,-1.8023,377.5173],[22.6297,-1.8012,418.6586],[22.6381,-1.8156,384.1596],[22.6444,-1.8162,406.2896],[22.6488,-1.8108,399.8784],[22.6551,-1.8097,382.7418],[22.6631,-1.8059,392.0649],[22.6747,-1.8094,398.5981],[22.6903,-1.8083,396.0505],[22.6936,-1.8094,393.4868],[22.7002,-1.8155,420.4828],[22.7115,-1.8206,404.991],[22.716,-1.8211,422.2742],[22.7227,-1.8287,401.4592],[22.7388,-1.8336,410.286],[22.7478,-1.8389,403.9785],[22.7518,-1.8424,401.3138],[22.7593,-1.8555,407.4507],[22.7703,-1.8567,413.7179],[22.7765,-1.8601,426.5587],[22.7801,-1.8601,428.1575],[22.7887,-1.8563,416.6113],[22.7955,-1.8575,419.2275],[22.8078,-1.8611,401.5435],[22.8117,-1.8645,397.2854],[22.8249,-1.8628,426.4304],[22.8306,-1.8665,430.1698],[22.8291,-1.869,425.0425],[22.8304,-1.8749,418.3013],[22.8428,-1.8759,416.1956],[22.8684,-1.8849,414.8661],[22.8705,-1.8831,432.382],[22.878,-1.8817,428.6718],[22.8874,-1.8826,434.3942],[22.8938,-1.8787,408.8138],[22.9025,-1.8795,420.4911],[22.9096,-1.8769,448.8455],[22.9144,-1.8788,452.597],[22.9247,-1.8772,430.9882],[22.9316,-1.8781,409.6827],[22.9366,-1.883,405.3297],[22.9485,-1.8851,446.2404],[22.9608,-1.8945,435.6629],[22.9843,-1.9024,399.127],[22.99,-1.9063,392.5867],[23.0067,-1.9073,417.2152],[23.0156,-1.9114,433.8142],[23.0291,-1.9119,427.2999],[23.0383,-1.9145,393.2358],[23.0732,-1.915,437.3264],[23.1029,-1.9243,444.3902],[23.1077,-1.9282,434.3258],[23.1468,-1.9448,410.8978],[23.1781,-1.9614,454.9023],[23.2014,-1.9792,457.4833],[23.2108,-1.9889,455.9063],[23.2295,-2.0227,418.3758],[23.2377,-2.0333,431.1862],[23.2413,-2.0437,458.2755],[23.2516,-2.0552,431.3199],[23.2555,-2.0625,462.0976],[23.2669,-2.0715,476.644],[23.2744,-2.0798,468.4584],[23.2804,-2.0808,466.9271],[23.2875,-2.0878,456.0924],[23.303,-2.0739,440.7393],[23.3275,-2.0293,438.8976],[23.424,-1.9974,477.8157],[23.4353,-2.0107,483.881],[23.4459,-2.0276,441.3295],[23.4597,-2.0302,457.7372],[23.5855,-1.9904,494.7645],[23.5835,-1.9835,487.1252],[23.5844,-1.9748,498.6794],[23.5821,-1.9635,528.7179],[23.5824,-1.9389,520.2651],[23.586,-1.9373,519.7284],[23.5876,-1.9343,507.8933],[23.5867,-1.9295,501.4297],[23.5879,-1.9249,486.5981],[23.5854,-1.9177,490.9432],[23.5925,-1.8846,530.6361],[23.5884,-1.8718,460.4873],[23.5841,-1.8644,472.7857],[23.5761,-1.8391,487.395],[23.5649,-1.8207,524.0203],[23.5592,-1.8011,479.6501],[23.5623,-1.7933,471.9031],[23.5791,-1.7941,515.9087],[23.6612,-1.8245,448.8339],[23.6781,-1.8217,425.3759],[23.6854,-1.8151,443.9102],[23.6939,-1.7907,422.3409],[23.7025,-1.7812,445.8518],[23.714,-1.7735,499.421],[23.7676,-1.7651,436.3773],[23.7773,-1.7598,426.9175],[23.7973,-1.7409,454.5898],[23.8112,-1.7356,446.1838],[23.8743,-1.734,470.5461],[23.9182,-1.7351,483.8004],[23.947,-1.739,477.2216],[23.9547,-1.737,463.3326],[23.9558,-1.7158,455.5717],[23.9649,-1.7089,468.609],[23.9677,-1.6983,464.1588],[23.9879,-1.6975,521.6137],[23.9991,-1.7032,519.9695],[24.0107,-1.7026,495.5664],[24.0197,-1.7046,517.7874],[24.0279,-1.7028,520.3506],[24.0409,-1.7079,498.127],[24.0576,-1.7047,494.9819],[24.0853,-1.7091,528.4928],[24.091,-1.7052,524.0588],[24.0962,-1.7047,553.3705],[24.1024,-1.7091,547.8444],[24.1216,-1.7049,582.218],[24.125,-1.7061,576.4292],[24.1332,-1.7142,559.9493],[24.1476,-1.7149,515.2623],[24.1616,-1.7089,490.8329],[24.1669,-1.7089,498.6711],[24.1701,-1.7126,494.4785],[24.1883,-1.7126,477.9803],[24.1959,-1.7167,426.5983],[24.2672,-1.7091,496.3532],[24.3705,-1.7145,482.5605],[24.4397,-1.7165,583.3199],[24.444,-1.7153,563.1646]]]]}}