{"type": "Feature","bbox": [25.6571,-5.0011,27.1441,-3.3531],"geometry": {"type": "MultiPolygon","coordinates": [[[[26.2705,-5.0,553.8535],[26.2798,-5.0011,560.1158],[26.9684,-4.9995,523.7717],[26.9611,-4.9858,499.772],[26.9554,-4.9799,523.7734],[26.9487,-4.9657,500.7736],[26.9469,-4.957,523.9666],[26.9425,-4.9542,504.0879],[26.9266,-4.9324,498.4214],[26.9231,-4.9211,489.3208],[26.9237,-4.9098,496.3448],[26.9259,-4.9075,490.5197],[26.9262,-4.897,488.1761],[26.9138,-4.875,487.355],[26.9164,-4.8702,493.397],[26.915,-4.8625,489.5322],[26.9192,-4.861,489.3072],[26.9235,-4.8549,499.4478],[26.931,-4.8396,487.0079],[26.932,-4.8306,485.4903],[26.9524,-4.8292,506.1795],[26.9724,-4.8249,527.2601],[26.9648,-4.8097,540.7322],[26.9563,-4.7856,519.2913],[26.9585,-4.7789,489.1302],[26.9543,-4.7781,498.8275],[26.9516,-4.7735,489.4997],[26.9506,-4.7568,488.2719],[26.9473,-4.7546,489.6337],[26.9465,-4.7503,499.4288],[26.9428,-4.7458,488.2333],[26.9383,-4.7434,486.5462],[26.941,-4.728,593.498],[26.9368,-4.7159,916.4352],[26.9334,-4.7133,870.4296],[26.9246,-4.7107,619.5645],[26.9098,-4.701,590.9935],[26.9094,-4.6504,876.6594],[26.9452,-4.6093,653.3325],[26.9594,-4.5869,605.7723],[26.9467,-4.5666,591.3761],[26.9355,-4.5586,580.9277],[26.9341,-4.5554,581.4005],[26.9297,-4.5524,578.6992],[26.9292,-4.5448,594.2518],[26.9235,-4.537,561.3077],[26.9279,-4.5322,558.3212],[26.927,-4.5306,558.2726],[26.929,-4.5295,570.6994],[26.9287,-4.5275,564.7227],[26.9345,-4.5232,561.4218],[26.9353,-4.5202,562.6042],[26.9472,-4.521,569.6033],[26.946,-4.5172,564.9633],[26.9482,-4.5164,564.9647],[26.9478,-4.5106,569.0897],[26.9501,-4.5101,571.3885],[26.9483,-4.5063,568.9419],[26.951,-4.5043,563.2976],[26.9565,-4.5041,565.3254],[26.957,-4.4962,569.609],[26.9649,-4.4975,562.1584],[26.9662,-4.4935,561.6328],[26.9689,-4.4958,561.1312],[26.9685,-4.4933,561.8767],[26.9722,-4.4932,571.3289],[26.9733,-4.4909,584.4259],[26.9746,-4.4923,570.0886],[26.9736,-4.4951,564.9401],[26.9772,-4.4949,573.5376],[26.9763,-4.4906,565.6537],[26.9787,-4.4853,570.3993],[26.983,-4.4809,574.9242],[26.9868,-4.4728,569.5881],[26.991,-4.4712,572.4977],[26.9883,-4.4648,597.4482],[26.9911,-4.4641,569.5534],[26.9921,-4.4598,570.2399],[27.0012,-4.4553,572.5303],[27.0086,-4.4563,570.5718],[27.0093,-4.4514,577.5385],[27.0123,-4.4509,579.9523],[27.015,-4.4528,571.8452],[27.0152,-4.45,570.9196],[27.0173,-4.4484,571.4963],[27.0203,-4.45,572.2781],[27.021,-4.4535,577.6299],[27.0257,-4.4531,585.5446],[27.0272,-4.4507,572.5288],[27.0326,-4.4502,572.6395],[27.0325,-4.4519,574.9664],[27.0392,-4.4511,590.9406],[27.045,-4.4541,591.0815],[27.0541,-4.4433,592.1958],[27.0572,-4.4366,596.8397],[27.0626,-4.4199,607.0863],[27.0558,-4.3945,627.7864],[27.0397,-4.3651,603.6276],[27.0442,-4.36,624.4937],[27.0451,-4.3522,632.9132],[27.0423,-4.337,637.6242],[27.0437,-4.3328,629.1503],[27.056,-4.3215,675.9319],[27.0583,-4.3174,674.4375],[27.056,-4.313,674.4838],[27.0505,-4.3121,711.7436],[27.0482,-4.3059,718.8283],[27.0518,-4.2997,704.6904],[27.0569,-4.278,904.4204],[27.0616,-4.2243,653.1045],[27.0564,-4.2166,649.4905],[27.0222,-4.1929,627.6537],[27.0193,-4.1754,638.7517],[27.0081,-4.1496,641.1789],[27.0117,-4.1355,688.3172],[27.0183,-4.1325,694.168],[27.0199,-4.1302,688.3464],[27.018,-4.1237,703.2251],[27.0219,-4.1168,706.0048],[27.0138,-4.0949,676.6599],[27.0135,-4.0697,638.9057],[27.0086,-4.0297,600.761],[27.0001,-4.0285,589.0834],[26.9836,-4.0323,597.1312],[26.9786,-4.032,592.717],[26.9712,-4.0263,594.4232],[26.9572,-4.0275,593.2649],[26.9529,-4.0247,587.0864],[26.9478,-4.0252,590.4124],[26.9442,-4.0227,586.0684],[26.9389,-4.0236,608.164],[26.9295,-4.0145,599.0586],[26.9148,-4.0154,593.3853],[26.9109,-4.0127,612.012],[26.9026,-4.0138,592.5906],[26.8996,-4.0092,588.6234],[26.9033,-4.0033,586.8622],[26.9047,-3.9968,604.3992],[26.9101,-3.9938,598.7712],[26.922,-3.9818,596.6648],[26.9245,-3.9717,627.3022],[26.9339,-3.9652,616.0207],[26.9391,-3.9594,614.6472],[26.9412,-3.953,621.7284],[26.9548,-3.9534,628.481],[26.9783,-3.9393,626.4709],[27.0184,-3.9216,740.1447],[27.0191,-3.9124,809.7437],[27.024,-3.9006,822.9917],[27.0247,-3.8787,727.7501],[27.0355,-3.8561,655.6967],[27.0448,-3.8551,662.0597],[27.061,-3.8315,648.9957],[27.0975,-3.83,635.707],[27.1333,-3.8211,628.4843],[27.1412,-3.8204,597.1012],[27.1411,-3.8171,601.1502],[27.1441,-3.8127,592.6888],[27.1356,-3.8078,599.219],[27.131,-3.8116,605.4085],[27.1302,-3.8101,619.515],[27.1318,-3.8095,590.4744],[27.1321,-3.8048,593.1708],[27.1286,-3.8054,601.795],[27.1288,-3.7978,595.7961],[27.1244,-3.7961,597.5372],[27.1212,-3.7893,594.1537],[27.1216,-3.7863,595.7475],[27.1194,-3.7853,581.5292],[27.1171,-3.7872,589.3831],[27.1164,-3.7855,587.9361],[27.1123,-3.7846,598.8653],[27.1134,-3.7824,596.4783],[27.1122,-3.7802,590.6083],[27.1158,-3.7784,590.8368],[27.1167,-3.7749,585.3379],[27.1111,-3.771,592.8856],[27.1125,-3.769,586.9036],[27.1064,-3.7669,589.3148],[27.109,-3.7586,579.9344],[27.1023,-3.7604,590.7881],[27.1021,-3.7524,587.5488],[27.0966,-3.7534,585.4845],[27.0964,-3.7519,581.985],[27.0995,-3.7514,589.8264],[27.0959,-3.7404,594.6805],[27.0881,-3.7356,584.0656],[27.0903,-3.735,596.7377],[27.0908,-3.7327,589.522],[27.0856,-3.7285,600.6932],[27.0866,-3.7271,594.8849],[27.0881,-3.7282,599.666],[27.0904,-3.727,591.5212],[27.0885,-3.725,592.4616],[27.0926,-3.7235,588.0602],[27.088,-3.7143,587.0622],[27.0865,-3.7165,596.4323],[27.0808,-3.7178,592.6669],[27.0753,-3.7169,591.5371],[27.0682,-3.7116,585.0817],[27.0656,-3.7145,588.2196],[27.06,-3.7122,580.382],[27.0549,-3.7124,580.4118],[27.0486,-3.7092,585.7806],[27.0482,-3.7112,579.6801],[27.042,-3.7108,586.9926],[27.0298,-3.7058,591.9484],[27.0238,-3.7066,588.728],[27.0193,-3.7116,587.6027],[27.0134,-3.7081,595.9332],[27.0095,-3.7102,586.8324],[27.0075,-3.7061,587.2936],[26.9915,-3.7053,584.0372],[26.98,-3.7131,583.2165],[26.9741,-3.7141,584.7131],[26.9708,-3.7175,585.5437],[26.9675,-3.7177,588.7515],[26.9562,-3.7238,585.6881],[26.9531,-3.7232,590.6435],[26.9486,-3.7277,592.2792],[26.9323,-3.7306,604.5754],[26.9214,-3.7251,601.4283],[26.909,-3.7227,610.2338],[26.8714,-3.7275,607.3297],[26.8372,-3.7175,601.0302],[26.8307,-3.7127,600.8946],[26.8242,-3.6991,620.6635],[26.8066,-3.6876,609.9039],[26.8057,-3.6837,613.3568],[26.8017,-3.6784,605.1115],[26.7856,-3.6694,636.9977],[26.7589,-3.6482,648.0295],[26.7315,-3.6323,664.3363],[26.7035,-3.6331,641.0009],[26.6802,-3.6269,671.0428],[26.6411,-3.6104,605.6761],[26.6339,-3.6108,609.7924],[26.6175,-3.6172,627.8867],[26.5982,-3.6406,636.2533],[26.5922,-3.662,684.4504],[26.5856,-3.6972,605.3013],[26.5752,-3.7299,596.7213],[26.5658,-3.7526,593.9219],[26.5535,-3.7752,580.3469],[26.5313,-3.8076,564.7997],[26.5093,-3.8362,545.5901],[26.4942,-3.8643,574.8132],[26.4917,-3.8738,605.5815],[26.4938,-3.8823,593.8773],[26.504,-3.9036,601.8467],[26.5044,-3.9108,577.5032],[26.4984,-3.912,579.5052],[26.4907,-3.9092,599.3784],[26.4753,-3.9076,628.7763],[26.4592,-3.9155,633.1547],[26.4521,-3.9337,628.2982],[26.3819,-3.9326,611.3282],[26.3679,-3.9037,574.8994],[26.3562,-3.8852,562.5301],[26.3574,-3.8769,577.4065],[26.3643,-3.8762,544.324],[26.3708,-3.8712,542.0729],[26.3711,-3.8665,539.703],[26.3622,-3.8531,529.7177],[26.3531,-3.8498,538.6421],[26.3481,-3.8415,553.6682],[26.3355,-3.8299,526.289],[26.3318,-3.8154,541.3013],[26.3329,-3.8021,553.2382],[26.3259,-3.797,556.1031],[26.3046,-3.7853,533.3796],[26.2946,-3.7838,541.261],[26.2865,-3.7877,505.0221],[26.2826,-3.7844,501.0587],[26.2778,-3.787,525.4933],[26.2725,-3.7863,518.0494],[26.2707,-3.7888,518.8549],[26.2709,-3.7916,530.3486],[26.2695,-3.7921,513.5823],[26.2658,-3.7886,512.5536],[26.2622,-3.7902,511.048],[26.2608,-3.7889,528.0193],[26.2544,-3.7942,515.9847],[26.2521,-3.7916,504.6144],[26.2466,-3.7926,509.6151],[26.2388,-3.791,500.5469],[26.2344,-3.7842,494.3348],[26.2221,-3.7866,505.2902],[26.2195,-3.7852,500.4258],[26.2173,-3.7889,503.6328],[26.216,-3.7884,514.1834],[26.2162,-3.7864,504.4883],[26.2108,-3.7882,502.1771],[26.2094,-3.7865,500.0252],[26.2081,-3.7903,510.0203],[26.2062,-3.79,502.3807],[26.2049,-3.7934,492.8013],[26.2022,-3.7911,500.0081],[26.2017,-3.7955,497.8713],[26.1991,-3.7947,505.2918],[26.197,-3.796,491.5045],[26.1917,-3.803,487.8004],[26.1816,-3.8079,488.5739],[26.1799,-3.8071,488.5739],[26.1808,-3.8034,486.5695],[26.1764,-3.8028,485.84],[26.174,-3.7968,483.4208],[26.1648,-3.7998,489.2767],[26.1666,-3.7959,497.4991],[26.1609,-3.7906,481.3692],[26.1584,-3.7856,505.8806],[26.1615,-3.7248,539.0329],[26.1589,-3.6238,515.4354],[26.1567,-3.6218,526.9894],[26.153199999999998,-3.6243,513.3795],[26.1498,-3.6229,522.8878],[26.1475,-3.6298,513.7663],[26.1379,-3.637,483.0081],[26.1347,-3.6338,519.9441],[26.1294,-3.6338,515.5469],[26.1276,-3.6356,498.1815],[26.1161,-3.629,520.5173],[26.1094,-3.6314,497.417],[26.106,-3.6307,488.9334],[26.1058,-3.6345,508.3208],[26.1039,-3.637,492.4746],[26.0977,-3.6357,486.779],[26.0977,-3.6333,491.0038],[26.096,-3.6349,489.7902],[26.0965,-3.6375,493.2308],[26.0878,-3.634,486.7834],[26.0885,-3.6379,491.04],[26.0848,-3.6373,502.7374],[26.087,-3.641,489.0323],[26.0853,-3.6418,499.6291],[26.0841,-3.6397,494.2537],[26.0814,-3.6405,494.8134],[26.0824,-3.6454,491.5906],[26.0778,-3.64,491.7689],[26.0785,-3.6377,489.0337],[26.0743,-3.6393,485.6696],[26.0737,-3.6427,483.1443],[26.0712,-3.6375,492.3442],[26.067,-3.6371,478.0645],[26.0651,-3.6334,487.2382],[26.0606,-3.6298,485.4963],[26.0579,-3.6316,489.9681],[26.0603,-3.6015,535.7249],[26.0525,-3.5503,558.0974],[26.0404,-3.4961,553.1283],[26.028199999999998,-3.4116,545.5769],[26.0181,-3.3859,524.5941],[25.9886,-3.3807,514.0073],[25.971,-3.3802,520.7991],[25.9552,-3.3862,530.5609],[25.9423,-3.4009,519.9236],[25.9336,-3.3979,515.689],[25.923,-3.3845,513.1964],[25.9095,-3.3815,496.603],[25.9004,-3.3735,509.254],[25.8915,-3.3601,470.9943],[25.8799,-3.3531,459.1811],[25.8811,-3.3807,452.5],[25.8844,-3.3995,453.9306],[25.8839,-3.4183,455.7742],[25.8854,-3.4254,463.62],[25.8906,-3.4363,455.0322],[25.8935,-3.4557,455.1702],[25.8927,-3.4645,453.9428],[25.9065,-3.4901,456.4689],[25.9145,-3.511,459.3466],[25.9224,-3.5231,454.0],[25.9288,-3.5281,470.2438],[25.9304,-3.5323,456.0587],[25.9369,-3.5401,456.3907],[25.9385,-3.5457,454.5],[25.9708,-3.5825,455.9628],[25.9772,-3.5851,456.8725],[25.9907,-3.5943,462.361],[26.0031,-3.608,457.4308],[26.0087,-3.619,455.0],[26.0158,-3.639,458.3164],[26.0243,-3.6782,456.0],[26.0304,-3.6898,457.2827],[26.0413,-3.7052,456.5],[26.0463,-3.722,463.5902],[26.0466,-3.7328,461.6336],[26.0449,-3.7392,463.7509],[26.037,-3.7556,458.3114],[26.033,-3.7714,458.4526],[26.0278,-3.7814,470.2764],[26.0217,-3.7991,460.0438],[26.0159,-3.8573,458.5],[26.0097,-3.8859,461.6689],[26.0016,-3.9059,466.1833],[26.0034,-3.9225,463.5483],[25.9956,-3.9311,467.4958],[25.9989,-3.9363,470.8676],[25.9981,-3.9459,459.0],[25.9947,-3.9493,462.8545],[25.9925,-3.9607,472.1874],[25.9879,-3.9631,461.7386],[25.9857,-3.9678,461.3233],[25.9795,-3.9914,459.5],[25.9817,-4.0062,462.6136],[25.977,-4.0245,462.8559],[25.9762,-4.0431,466.207],[25.9787,-4.0469,464.3347],[25.9818,-4.0619,462.0],[25.9887,-4.0692,465.5358],[26.0026,-4.0938,463.0],[26.0188,-4.1096,463.0],[26.0401,-4.1266,464.0315],[26.068,-4.1598,463.0],[26.074,-4.1639,463.9574],[26.0739,-4.1714,463.0],[26.0755,-4.176,465.9045],[26.0824,-4.1813,467.6901],[26.0856,-4.1872,475.5324],[26.0842,-4.193,475.9158],[26.0792,-4.1877,476.8943],[26.0769,-4.1875,470.3804],[26.0751,-4.1919,468.2542],[26.0817,-4.2013,474.6492],[26.0792,-4.2082,478.2581],[26.0813,-4.2151,471.8258],[26.0848,-4.2188,467.5112],[26.0822,-4.2238,467.5655],[26.0832,-4.2259,467.5525],[26.0868,-4.2263,467.6334],[26.0864,-4.242,474.7388],[26.0903,-4.2431,469.5728],[26.0954,-4.248,476.3752],[26.1025,-4.2461,489.1038],[26.1121,-4.2574,513.6053],[26.1107,-4.2597,494.5865],[26.1055,-4.2601,488.4931],[26.1017,-4.264,479.3531],[26.1015,-4.2666,473.4473],[26.1036,-4.2657,475.4658],[26.1072,-4.2686,471.7386],[26.1075,-4.2737,471.5522],[26.1043,-4.2704,471.8712],[26.0995,-4.2714,476.8459],[26.0992,-4.2727,472.9853],[26.1008,-4.2729,476.8459],[26.0982,-4.2757,473.7898],[26.095,-4.2744,476.9075],[26.0858,-4.2761,492.2671],[26.0835,-4.2777,479.7945],[26.0866,-4.2845,479.8279],[26.0856,-4.288,475.5966],[26.0767,-4.2903,477.3572],[26.0729,-4.294,476.5773],[26.0732,-4.2967,478.6375],[26.0715,-4.2976,476.6954],[26.0687,-4.2975,481.0273],[26.0671,-4.2914,479.4309],[26.0649,-4.2936,479.8965],[26.0639,-4.2958,478.9582],[26.0664,-4.2988,473.946],[26.0717,-4.3008,479.261],[26.0714,-4.3061,481.219],[26.069,-4.3066,480.569],[26.0708,-4.3071,480.0591],[26.0703,-4.3102,479.9482],[26.0685,-4.3115,474.1713],[26.068,-4.3089,481.7769],[26.0624,-4.3123,481.8796],[26.0603,-4.3158,478.1577],[26.063,-4.3187,474.7262],[26.061,-4.3173,478.3417],[26.0572,-4.3198,481.2019],[26.0575,-4.3218,483.9847],[26.0533,-4.3236,481.4662],[26.0531,-4.3262,478.0225],[26.049,-4.3235,480.0056],[26.0464,-4.3259,483.0003],[26.0471,-4.3282,475.2159],[26.0451,-4.329,474.7454],[26.0473,-4.3292,475.2159],[26.047,-4.3313,482.8694],[26.0503,-4.3329,481.1923],[26.0521,-4.331,477.2475],[26.0531,-4.3326,484.2318],[26.056,-4.331,475.828],[26.055,-4.3332,480.8288],[26.057,-4.3359,481.4764],[26.0546,-4.3358,479.4778],[26.0556,-4.3391,475.7262],[26.0477,-4.3394,493.7879],[26.0437,-4.341,475.4156],[26.0417,-4.3446,485.0956],[26.0388,-4.3444,480.7974],[26.037,-4.3465,478.5571],[26.0319,-4.3477,491.5435],[26.0316,-4.354,483.4236],[26.024,-4.3547,486.3435],[26.0215,-4.3588,485.6211],[26.0189,-4.3592,485.6051],[26.0187,-4.3607,481.8979],[26.006,-4.3689,483.0923],[26.0058,-4.3744,482.3422],[26.0084,-4.3832,477.8411],[26.0136,-4.3777,487.273],[26.0177,-4.3782,485.6412],[26.0182,-4.381,489.5865],[26.0145,-4.3825,484.2368],[26.0074,-4.3909,482.2521],[26.0042,-4.3911,483.9024],[26.0019,-4.3894,480.6926],[26.0006,-4.3821,486.2226],[25.9994,-4.3822,486.2226],[25.996,-4.3904,479.5014],[25.9886,-4.3928,487.9044],[25.9856,-4.3956,486.772],[25.9881,-4.3974,479.6055],[25.9867,-4.3987,483.7825],[25.989,-4.4012,483.0134],[25.99,-4.3988,484.4083],[25.9918,-4.4016,485.0119],[25.9931,-4.4009,486.5772],[25.9939,-4.4056,484.6026],[25.9968,-4.4047,488.617],[25.9967,-4.4087,481.2768],[26.0019,-4.4077,485.4897],[26.003,-4.4061,490.4536],[26.001,-4.4056,486.6727],[26.0015,-4.4032,488.0388],[26.0037,-4.4049,490.4536],[26.0056,-4.4016,486.781],[26.0074,-4.402,483.0955],[26.0066,-4.4052,492.5704],[26.0081,-4.4036,483.9719],[26.0105,-4.4055,483.012],[26.0084,-4.4067,487.1509],[26.0118,-4.4087,482.4489],[26.0135,-4.4129,479.8302],[26.0131,-4.4207,487.1161],[26.0154,-4.4192,481.6403],[26.0144,-4.4232,481.8445],[26.0212,-4.4262,487.9528],[26.0145,-4.4264,482.8307],[26.0145,-4.432,481.3569],[26.0221,-4.4331,488.0738],[26.0186,-4.4395,486.9464],[26.0046,-4.4437,484.7277],[26.0144,-4.4538,484.5291],[26.0129,-4.4616,483.5325],[26.0158,-4.4631,484.7131],[26.0205,-4.4601,483.3845],[26.018,-4.4588,488.3867],[26.0196,-4.4557,488.7498],[26.0215,-4.4562,487.8998],[26.0219,-4.453,487.8441],[26.0232,-4.4543,487.8441],[26.0288,-4.4525,485.8923],[26.034,-4.4532,486.9697],[26.0344,-4.4546,487.6769],[26.0371,-4.4535,487.1034],[26.039,-4.4551,488.2129],[26.0406,-4.4534,487.2451],[26.0407,-4.4556,487.7272],[26.0422,-4.4545,489.0506],[26.0453,-4.4566,490.9979],[26.0438,-4.4586,486.1345],[26.0462,-4.4581,490.8005],[26.0459,-4.4613,488.5125],[26.0477,-4.4634,488.5244],[26.0505,-4.4634,488.7168],[26.0521,-4.4687,498.0496],[26.05,-4.4741,487.0072],[26.0462,-4.4726,488.402],[26.0448,-4.4735,491.1572],[26.0428,-4.48,484.9583],[26.0309,-4.475,491.7719],[26.025,-4.4899,500.1541],[26.0154,-4.4964,518.2316],[26.0027,-4.4989,558.0922],[25.9952,-4.5054,544.015],[25.9954,-4.5159,505.9161],[25.9936,-4.5189,496.6976],[25.9893,-4.5217,498.9522],[25.9826,-4.5231,501.58],[25.9794,-4.5277,515.1835],[25.9757,-4.5296,559.0244],[25.9716,-4.5374,534.4509],[25.965699999999998,-4.5418,501.9435],[25.9593,-4.5528,502.4898],[25.9487,-4.563,504.3246],[25.9476,-4.5735,502.9499],[25.943,-4.5777,499.6693],[25.9407,-4.5867,501.3692],[25.9316,-4.6028,512.5892],[25.9254,-4.6097,519.3548],[25.9181,-4.6132,524.0029],[25.9048,-4.6159,557.2596],[25.8972,-4.6212,520.5055],[25.8933,-4.6261,529.1854],[25.8876,-4.6275,520.3549],[25.8865,-4.6328,514.5795],[25.8711,-4.6505,519.6782],[25.8661,-4.6636,522.409],[25.8636,-4.6777,515.4642],[25.8586,-4.6809,524.4069],[25.8476,-4.6945,545.4755],[25.8304,-4.7101,534.5551],[25.8299,-4.7145,561.5135],[25.8272,-4.7161,550.3848],[25.8206,-4.7263,555.2737],[25.816,-4.7286,584.4581],[25.8153,-4.7336,557.7751],[25.81,-4.7373,536.6607],[25.8089,-4.7419,529.9431],[25.8009,-4.7484,531.0261],[25.7933,-4.7502,539.7982],[25.7901,-4.7532,536.7621],[25.7759,-4.7818,538.7299],[25.7722,-4.7861,541.6827],[25.7663,-4.788,564.2274],[25.758,-4.7967,548.7309],[25.7498,-4.8018,551.9871],[25.7425,-4.8177,553.7371],[25.7351,-4.8278,563.102],[25.7734,-4.8637,573.6972],[25.8043,-4.8779,598.4388],[25.8269,-4.8962,538.4462],[25.8073,-4.9048,537.1287],[25.8,-4.912,543.7188],[25.7968,-4.9124,545.8278],[25.7881,-4.923,536.2154],[25.7826,-4.9274,540.6281],[25.7764,-4.9285,552.4935],[25.7699,-4.9353,547.1304],[25.7633,-4.9359,541.0609],[25.7599,-4.9387,547.418],[25.7438,-4.9403,550.1885],[25.7342,-4.9454,551.0729],[25.7275,-4.9461,538.8087],[25.7218,-4.9512,550.8494],[25.7039,-4.9535,547.7655],[25.6711,-4.9188,584.7826],[25.6571,-4.9508,568.0112],[25.6709,-4.9728,553.7156],[25.6585,-4.9989,576.5684],[26.1001,-4.9992,576.4761],[26.2252,-5.0011,568.7893],[26.2705,-5.0,553.8535]],
[[26.7226,-4.4916,544.4232],[26.7007,-4.4929,552.6593],[26.6661,-4.4815,617.9649],[26.6429,-4.4673,570.4496],[26.6297,-4.433,639.2672],[26.6342,-4.4024,607.1642],[26.6438,-4.391,559.7339],[26.6889,-4.3827,572.0077],[26.7112,-4.3868,600.8377],[26.7249,-4.3914,618.0193],[26.7376,-4.3987,575.1292],[26.7477,-4.4147,583.4782],[26.7531,-4.4289,556.9411],[26.7554,-4.4431,555.1179],[26.7536,-4.4623,552.5984],[26.7499,-4.4756,559.985],[26.7399,-4.4842,563.8857],[26.7226,-4.4916,544.4232]]]]}
,"properties": {"GID_2": "COD.17.4_1","GID_0": "COD","country": "DemocraticRepublicoftheCongo","GID_1": "COD.17_1","province": "Maniema","NL_NAME_1": "NA","county": "Kasongo","VARNAME_2": "NA","NL_NAME_2": "NA","TYPE_2": "Territoire","ENGTYPE_2": "Territory","CC_2": "NA","HASC_2": "NA","name": "Kasongo.county","area_km2": 16482.61,"hist_schema_id": "Elevation0-9000","hist_area_km2": {"450": 13.63,"475": 735.63,"500": 1812.34,"525": 2476.49,"550": 3008.8,"575": 3003.8,"600": 2300.82,"625": 1668.9,"650": 786.88,"675": 310.15,"700": 136.91,"725": 68.39,"750": 41.85,"775": 30.58,"800": 22.06,"825": 16.56,"850": 13.09,"875": 10.68,"900": 9.51,"925": 5.09,"950": 3.23,"975": 3.11,"1000": 2.03,"1025": 0.8,"1050": 0.72,"1075": 0.34,"1100": 0.15}}}