{"type": "Feature","bbox": [24.7305,-4.9989,26.1121,-3.1648],"geometry": {"type": "MultiPolygon","coordinates": [[[[25.6585,-4.9989,576.5684],[25.6709,-4.9728,553.7156],[25.6571,-4.9508,568.0112],[25.6711,-4.9188,584.7826],[25.7039,-4.9535,547.7655],[25.7218,-4.9512,550.8494],[25.7275,-4.9461,538.8087],[25.7342,-4.9454,551.0729],[25.7438,-4.9403,550.1885],[25.7599,-4.9387,547.418],[25.7633,-4.9359,541.0609],[25.7699,-4.9353,547.1304],[25.7764,-4.9285,552.4935],[25.7826,-4.9274,540.6281],[25.7881,-4.923,536.2154],[25.7968,-4.9124,545.8278],[25.8,-4.912,543.7188],[25.8073,-4.9048,537.1287],[25.8269,-4.8962,538.4462],[25.8043,-4.8779,598.4388],[25.7734,-4.8637,573.6972],[25.7351,-4.8278,563.102],[25.7425,-4.8177,553.7371],[25.7498,-4.8018,551.9871],[25.758,-4.7967,548.7309],[25.7663,-4.788,564.2274],[25.7722,-4.7861,541.6827],[25.7759,-4.7818,538.7299],[25.7901,-4.7532,536.7621],[25.7933,-4.7502,539.7982],[25.8009,-4.7484,531.0261],[25.8089,-4.7419,529.9431],[25.81,-4.7373,536.6607],[25.8153,-4.7336,557.7751],[25.816,-4.7286,584.4581],[25.8206,-4.7263,555.2737],[25.8272,-4.7161,550.3848],[25.8299,-4.7145,561.5135],[25.8304,-4.7101,534.5551],[25.8476,-4.6945,545.4755],[25.8586,-4.6809,524.4069],[25.8636,-4.6777,515.4642],[25.8661,-4.6636,522.409],[25.8711,-4.6505,519.6782],[25.8865,-4.6328,514.5795],[25.8876,-4.6275,520.3549],[25.8933,-4.6261,529.1854],[25.8972,-4.6212,520.5055],[25.9048,-4.6159,557.2596],[25.9181,-4.6132,524.0029],[25.9254,-4.6097,519.3548],[25.9316,-4.6028,512.5892],[25.9407,-4.5867,501.3692],[25.943,-4.5777,499.6693],[25.9476,-4.5735,502.9499],[25.9487,-4.563,504.3246],[25.9593,-4.5528,502.4898],[25.965699999999998,-4.5418,501.9435],[25.9716,-4.5374,534.4509],[25.9757,-4.5296,559.0244],[25.9794,-4.5277,515.1835],[25.9826,-4.5231,501.58],[25.9893,-4.5217,498.9522],[25.9936,-4.5189,496.6976],[25.9954,-4.5159,505.9161],[25.9952,-4.5054,544.015],[26.0027,-4.4989,558.0922],[26.0154,-4.4964,518.2316],[26.025,-4.4899,500.1541],[26.0309,-4.475,491.7719],[26.0428,-4.48,484.9583],[26.0448,-4.4735,491.1572],[26.0462,-4.4726,488.402],[26.05,-4.4741,487.0072],[26.0521,-4.4687,498.0496],[26.0505,-4.4634,488.7168],[26.0477,-4.4634,488.5244],[26.0459,-4.4613,488.5125],[26.0462,-4.4581,490.8005],[26.0438,-4.4586,486.1345],[26.0453,-4.4566,490.9979],[26.0422,-4.4545,489.0506],[26.0407,-4.4556,487.7272],[26.0406,-4.4534,487.2451],[26.039,-4.4551,488.2129],[26.0371,-4.4535,487.1034],[26.0344,-4.4546,487.6769],[26.034,-4.4532,486.9697],[26.0288,-4.4525,485.8923],[26.0232,-4.4543,487.8441],[26.0219,-4.453,487.8441],[26.0215,-4.4562,487.8998],[26.0196,-4.4557,488.7498],[26.018,-4.4588,488.3867],[26.0205,-4.4601,483.3845],[26.0158,-4.4631,484.7131],[26.0129,-4.4616,483.5325],[26.0144,-4.4538,484.5291],[26.0046,-4.4437,484.7277],[26.0186,-4.4395,486.9464],[26.0221,-4.4331,488.0738],[26.0145,-4.432,481.3569],[26.0145,-4.4264,482.8307],[26.0212,-4.4262,487.9528],[26.0144,-4.4232,481.8445],[26.0154,-4.4192,481.6403],[26.0131,-4.4207,487.1161],[26.0135,-4.4129,479.8302],[26.0118,-4.4087,482.4489],[26.0084,-4.4067,487.1509],[26.0105,-4.4055,483.012],[26.0081,-4.4036,483.9719],[26.0066,-4.4052,492.5704],[26.0074,-4.402,483.0955],[26.0056,-4.4016,486.781],[26.0037,-4.4049,490.4536],[26.0015,-4.4032,488.0388],[26.001,-4.4056,486.6727],[26.003,-4.4061,490.4536],[26.0019,-4.4077,485.4897],[25.9967,-4.4087,481.2768],[25.9968,-4.4047,488.617],[25.9939,-4.4056,484.6026],[25.9931,-4.4009,486.5772],[25.9918,-4.4016,485.0119],[25.99,-4.3988,484.4083],[25.989,-4.4012,483.0134],[25.9867,-4.3987,483.7825],[25.9881,-4.3974,479.6055],[25.9856,-4.3956,486.772],[25.9886,-4.3928,487.9044],[25.996,-4.3904,479.5014],[25.9994,-4.3822,486.2226],[26.0006,-4.3821,486.2226],[26.0019,-4.3894,480.6926],[26.0042,-4.3911,483.9024],[26.0074,-4.3909,482.2521],[26.0145,-4.3825,484.2368],[26.0182,-4.381,489.5865],[26.0177,-4.3782,485.6412],[26.0136,-4.3777,487.273],[26.0084,-4.3832,477.8411],[26.0058,-4.3744,482.3422],[26.006,-4.3689,483.0923],[26.0187,-4.3607,481.8979],[26.0189,-4.3592,485.6051],[26.0215,-4.3588,485.6211],[26.024,-4.3547,486.3435],[26.0316,-4.354,483.4236],[26.0319,-4.3477,491.5435],[26.037,-4.3465,478.5571],[26.0388,-4.3444,480.7974],[26.0417,-4.3446,485.0956],[26.0437,-4.341,475.4156],[26.0477,-4.3394,493.7879],[26.0556,-4.3391,475.7262],[26.0546,-4.3358,479.4778],[26.057,-4.3359,481.4764],[26.055,-4.3332,480.8288],[26.056,-4.331,475.828],[26.0531,-4.3326,484.2318],[26.0521,-4.331,477.2475],[26.0503,-4.3329,481.1923],[26.047,-4.3313,482.8694],[26.0473,-4.3292,475.2159],[26.0451,-4.329,474.7454],[26.0471,-4.3282,475.2159],[26.0464,-4.3259,483.0003],[26.049,-4.3235,480.0056],[26.0531,-4.3262,478.0225],[26.0533,-4.3236,481.4662],[26.0575,-4.3218,483.9847],[26.0572,-4.3198,481.2019],[26.061,-4.3173,478.3417],[26.063,-4.3187,474.7262],[26.0634,-4.3179,480.7225],[26.0603,-4.3158,478.1577],[26.0624,-4.3123,481.8796],[26.068,-4.3089,481.7769],[26.0685,-4.3115,474.1713],[26.0703,-4.3102,479.9482],[26.0708,-4.3071,480.0591],[26.069,-4.3066,480.569],[26.0714,-4.3061,481.219],[26.0717,-4.3008,479.261],[26.0664,-4.2988,473.946],[26.0639,-4.2958,478.9582],[26.0649,-4.2936,479.8965],[26.0671,-4.2914,479.4309],[26.0687,-4.2975,481.0273],[26.0715,-4.2976,476.6954],[26.0732,-4.2967,478.6375],[26.0729,-4.294,476.5773],[26.0767,-4.2903,477.3572],[26.0856,-4.288,475.5966],[26.0866,-4.2845,479.8279],[26.0835,-4.2777,479.7945],[26.0858,-4.2761,492.2671],[26.095,-4.2744,476.9075],[26.0982,-4.2757,473.7898],[26.1008,-4.2729,476.8459],[26.0992,-4.2727,472.9853],[26.0995,-4.2714,476.8459],[26.1043,-4.2704,471.8712],[26.1075,-4.2737,471.5522],[26.1072,-4.2686,471.7386],[26.1036,-4.2657,475.4658],[26.1015,-4.2666,473.4473],[26.1017,-4.264,479.3531],[26.1055,-4.2601,488.4931],[26.1107,-4.2597,494.5865],[26.1121,-4.2574,513.6053],[26.1025,-4.2461,489.1038],[26.0954,-4.248,476.3752],[26.0903,-4.2431,469.5728],[26.0864,-4.242,474.7388],[26.0868,-4.2263,467.6334],[26.0832,-4.2259,467.5525],[26.0822,-4.2238,467.5655],[26.0848,-4.2188,467.5112],[26.0813,-4.2151,471.8258],[26.0792,-4.2082,478.2581],[26.0817,-4.2013,474.6492],[26.0751,-4.1919,468.2542],[26.0769,-4.1875,470.3804],[26.0792,-4.1877,476.8943],[26.0842,-4.193,475.9158],[26.0856,-4.1872,475.5324],[26.0824,-4.1813,467.6901],[26.0755,-4.176,465.9045],[26.0739,-4.1714,463.0],[26.074,-4.1639,463.9574],[26.068,-4.1598,463.0],[26.0401,-4.1266,464.0315],[26.0188,-4.1096,463.0],[26.0026,-4.0938,463.0],[25.9887,-4.0692,465.5358],[25.9818,-4.0619,462.0],[25.9787,-4.0469,464.3347],[25.9762,-4.0431,466.207],[25.977,-4.0245,462.8559],[25.9817,-4.0062,462.6136],[25.9795,-3.9914,459.5],[25.9857,-3.9678,461.3233],[25.9879,-3.9631,461.7386],[25.9925,-3.9607,472.1874],[25.9947,-3.9493,462.8545],[25.9981,-3.9459,459.0],[25.9989,-3.9363,470.8676],[25.9956,-3.9311,467.4958],[26.0034,-3.9225,463.5483],[26.0016,-3.9059,466.1833],[26.0097,-3.8859,461.6689],[26.0159,-3.8573,458.5],[26.0217,-3.7991,460.0438],[26.0278,-3.7814,470.2764],[26.033,-3.7714,458.4526],[26.037,-3.7556,458.3114],[26.0449,-3.7392,463.7509],[26.0466,-3.7328,461.6336],[26.0463,-3.722,463.5902],[26.0413,-3.7052,456.5],[26.0304,-3.6898,457.2827],[26.0243,-3.6782,456.0],[26.0158,-3.639,458.3164],[26.0087,-3.619,455.0],[26.0031,-3.608,457.4308],[25.9907,-3.5943,462.361],[25.9772,-3.5851,456.8725],[25.9708,-3.5825,455.9628],[25.9385,-3.5457,454.5],[25.9369,-3.5401,456.3907],[25.9304,-3.5323,456.0587],[25.9288,-3.5281,470.2438],[25.9224,-3.5231,454.0],[25.9145,-3.511,459.3466],[25.9065,-3.4901,456.4689],[25.8927,-3.4645,453.9428],[25.8935,-3.4557,455.1702],[25.8906,-3.4363,455.0322],[25.8854,-3.4254,463.62],[25.8839,-3.4183,455.7742],[25.8844,-3.3995,453.9306],[25.8811,-3.3807,452.5],[25.8799,-3.3531,459.1811],[25.8691,-3.3465,455.0886],[25.8577,-3.3355,492.1674],[25.8618,-3.2954,483.7679],[25.855,-3.2713,489.8332],[25.8558,-3.2577,503.9405],[25.8693,-3.2147,499.215],[25.8679,-3.1775,512.853],[25.8497,-3.1657,517.682],[25.7731,-3.1648,506.7854],[25.773,-3.1699,525.5138],[25.7669,-3.1761,499.1181],[25.7686,-3.1833,495.3196],[25.7665,-3.1897,498.6743],[25.7713,-3.1914,505.7882],[25.7816,-3.1892,500.6276],[25.7839,-3.2019,499.2417],[25.7825,-3.2038,507.9316],[25.7736,-3.2059,480.5318],[25.7748,-3.2151,497.6706],[25.7707,-3.2243,495.2529],[25.7629,-3.2243,491.3591],[25.7565,-3.2328,490.325],[25.7107,-3.2559,470.9649],[25.6926,-3.2582,465.0],[25.6887,-3.2617,468.8714],[25.6752,-3.2683,492.6364],[25.6686,-3.2647,465.0],[25.6641,-3.2646,465.0],[25.6551,-3.2688,475.8916],[25.645,-3.2702,465.0],[25.6381,-3.2684,465.0],[25.6374,-3.2645,468.3404],[25.6455,-3.2607,465.0],[25.6459,-3.2587,465.0],[25.6361,-3.258,465.0],[25.6312,-3.2599,468.5403],[25.6274,-3.2585,472.1407],[25.6257,-3.2546,474.5269],[25.6193,-3.2486,472.7379],[25.6205,-3.2447,473.77],[25.6184,-3.241,485.1901],[25.6152,-3.2387,484.7662],[25.6088,-3.2396,480.1318],[25.6063,-3.2369,485.3366],[25.5985,-3.2362,496.8307],[25.5953,-3.2317,482.8538],[25.5912,-3.2201,495.1357],[25.5837,-3.2178,510.7828],[25.5816,-3.2147,499.0324],[25.5789,-3.2138,523.0309],[25.5715,-3.2175,492.111],[25.5487,-3.2169,486.3963],[25.5422,-3.2195,475.3922],[25.5367,-3.2242,476.4718],[25.5322,-3.2227,475.45],[25.5148,-3.2245,474.2573],[25.5016,-3.223,500.5437],[25.4858,-3.2248,483.6877],[25.4789,-3.2198,487.9324],[25.462,-3.2156,487.5367],[25.4464,-3.2147,485.0811],[25.4368,-3.2108,493.358],[25.4278,-3.2092,496.8336],[25.4235,-3.2065,499.2451],[25.4233,-3.2032,507.6118],[25.4086,-3.2,496.236],[25.3777,-3.2599,500.2946],[25.3677,-3.2501,493.8939],[25.3592,-3.2504,495.0521],[25.3062,-3.2414,483.2793],[25.2625,-3.2429,491.0329],[25.1802,-3.2401,485.8032],[25.1264,-3.2328,484.7362],[25.1219,-3.243,484.7099],[25.1078,-3.2619,481.0781],[25.0899,-3.2803,492.5014],[25.0764,-3.3003,485.6098],[25.0642,-3.2885,473.3711],[25.0533,-3.2841,480.1559],[25.0366,-3.2734,480.7744],[25.0172,-3.258,472.6545],[24.9996,-3.2513,469.7784],[24.9926,-3.242,466.7065],[24.9822,-3.2331,464.4816],[24.9587,-3.2339,479.366],[24.9575,-3.2401,478.7639],[24.9632,-3.2569,473.2539],[24.9635,-3.2617,481.3749],[24.9603,-3.2679,469.7601],[24.9562,-3.2698,466.0505],[24.9491,-3.2693,473.7493],[24.941,-3.2645,482.1099],[24.925,-3.2629,475.5974],[24.9122,-3.2652,460.0069],[24.9019,-3.2741,483.0678],[24.8982,-3.282,475.294],[24.8966,-3.2898,475.6962],[24.8978,-3.293,467.3849],[24.9017,-3.2955,468.0936],[24.9156,-3.296,465.3295],[24.9179,-3.3004,467.4954],[24.9097,-3.3107,463.3106],[24.9079,-3.3172,472.8295],[24.9101,-3.3314,463.2691],[24.9063,-3.3459,476.409],[24.9065,-3.3636,472.1067],[24.9031,-3.3712,472.5364],[24.8997,-3.3738,472.204],[24.8717,-3.3749,475.1211],[24.8676,-3.3777,482.5124],[24.8648,-3.3837,476.8006],[24.86,-3.4083,480.5926],[24.8552,-3.4198,487.3732],[24.8507,-3.4239,499.9254],[24.8371,-3.4255,493.6043],[24.8339,-3.4281,484.1261],[24.834,-3.4444,506.633],[24.8307,-3.4541,507.2482],[24.8248,-3.4589,498.8391],[24.8163,-3.4591,465.687],[24.8023,-3.4543,487.6991],[24.7982,-3.455,483.8384],[24.7744,-3.4757,470.7578],[24.7726,-3.4822,486.2982],[24.7751,-3.4856,488.7023],[24.7799,-3.4902,483.4471],[24.7891,-3.4941,464.5707],[24.7985,-3.5042,467.2692],[24.8001,-3.5187,491.1656],[24.8076,-3.5328,489.481],[24.8058,-3.5369,481.4551],[24.7939,-3.5397,479.9514],[24.7921,-3.5427,483.9409],[24.793,-3.5477,467.739],[24.7912,-3.5523,460.731],[24.7877,-3.5491,471.8658],[24.7831,-3.5496,474.6962],[24.777,-3.5454,469.6708],[24.774,-3.5457,471.2339],[24.7733,-3.548,479.0345],[24.7786,-3.5613,459.5],[24.7772,-3.5643,463.7372],[24.7715,-3.5654,465.6004],[24.7694,-3.5682,463.3138],[24.7757,-3.5756,464.1649],[24.7777,-3.5797,462.5545],[24.7772,-3.5845,465.0412],[24.7703,-3.5875,460.5],[24.7669,-3.5912,465.9995],[24.7692,-3.594,478.5842],[24.7733,-3.5949,460.5],[24.7838,-3.5942,464.2387],[24.7827,-3.6025,462.3905],[24.7882,-3.6105,463.0219],[24.7882,-3.6138,462.9951],[24.7859,-3.6184,466.8803],[24.7807,-3.6204,463.396],[24.7788,-3.6243,473.1544],[24.7811,-3.6283,463.5041],[24.7917,-3.6273,463.1488],[24.788,-3.6324,462.9092],[24.7882,-3.6365,466.1147],[24.7967,-3.6399,464.6035],[24.7978,-3.6444,465.1889],[24.7958,-3.648,463.6615],[24.7862,-3.6515,464.9469],[24.7857,-3.6561,468.553],[24.7889,-3.66,464.9038],[24.7995,-3.6577,465.3596],[24.804,-3.6589,468.8343],[24.8075,-3.6665,471.2264],[24.8059,-3.6722,470.0275],[24.7974,-3.6761,465.8443],[24.7951,-3.6789,464.2309],[24.8011,-3.6904,468.0657],[24.7976,-3.6991,470.71],[24.7972,-3.7109,474.6971],[24.7814,-3.707,469.7107],[24.778199999999998,-3.7081,471.9903],[24.7761,-3.7152,465.9529],[24.7676,-3.7233,474.0737],[24.7663,-3.7373,467.0327],[24.7612,-3.7343,467.4171],[24.758,-3.7343,468.0924],[24.7546,-3.7362,474.4236],[24.7516,-3.741,473.844],[24.7527,-3.7435,464.1698],[24.7635,-3.7447,466.7106],[24.7651,-3.7468,466.8455],[24.7621,-3.755,469.6181],[24.753,-3.7594,473.4064],[24.7473,-3.776,477.04],[24.7427,-3.7822,474.4081],[24.7406,-3.7815,471.9038],[24.7381,-3.7758,469.4933],[24.7316,-3.7747,500.4753],[24.7305,-3.7808,482.1499],[24.7337,-3.7907,467.4565],[24.7422,-3.7997,467.5371],[24.7413,-3.8057,472.0319],[24.7431,-3.8107,470.6501],[24.7484,-3.8096,473.5686],[24.7555,-3.8183,468.1377],[24.759,-3.8174,470.2092],[24.7615,-3.8146,467.3734],[24.764,-3.8146,466.5602],[24.7649,-3.8183,464.7288],[24.7613,-3.8257,468.259],[24.7645,-3.8271,466.5926],[24.7734,-3.8252,468.128],[24.7794,-3.8273,469.4778],[24.7814,-3.8305,468.232],[24.7794,-3.8337,472.7334],[24.7663,-3.8356,468.4131],[24.767,-3.8381,468.0742],[24.7821,-3.8432,464.5],[24.7961,-3.8446,471.585],[24.8197,-3.8542,476.0205],[24.8222,-3.859,468.5795],[24.8204,-3.8625,472.2253],[24.8121,-3.8579,464.5],[24.8078,-3.8574,471.2314],[24.803,-3.8604,469.9027],[24.8009,-3.8694,474.0224],[24.803,-3.8763,471.6263],[24.8133,-3.8839,472.41],[24.8177,-3.8899,482.1491],[24.8239,-3.9094,470.442],[24.8303,-3.9166,476.2233],[24.8367,-3.9196,482.1896],[24.8436,-3.9186,482.0382],[24.8477,-3.9078,484.542],[24.8511,-3.9051,469.5673],[24.8543,-3.9067,471.989],[24.8585,-3.9177,476.718],[24.853,-3.9347,477.3593],[24.8539,-3.9396,495.8121],[24.858,-3.9449,467.827],[24.8715,-3.9439,473.6258],[24.8881,-3.9596,487.2209],[24.8874,-3.9667,486.4661],[24.889,-3.9683,488.636],[24.9009,-3.9699,479.1661],[24.9062,-3.9769,477.9214],[24.9059,-3.9798,472.4233],[24.8995,-3.986,484.6437],[24.8954,-4.0022,529.8345],[24.8956,-4.0091,517.8928],[24.8975,-4.0121,518.7576],[24.905,-4.0137,479.5291],[24.9083,-4.0201,481.5352],[24.9163,-4.0229,476.6767],[24.9209,-4.044,514.64],[24.9239,-4.0468,503.9257],[24.9268,-4.047,515.3378],[24.9328,-4.0447,489.8611],[24.9397,-4.0445,477.4072],[24.9454,-4.0323,490.0979],[24.9468,-4.0302,502.1028],[24.9493,-4.03,475.294],[24.952,-4.0321,481.0496],[24.9624,-4.033,484.1444],[24.9651,-4.0346,483.8954],[24.9713,-4.0461,485.9757],[24.98,-4.0479,485.144],[24.9816,-4.0507,481.4454],[24.9796,-4.0558,486.999],[24.9839,-4.065,528.8043],[24.9839,-4.0707,487.8635],[24.9729,-4.1015,504.1145],[24.9768,-4.1084,513.9707],[24.9924,-4.111,496.4177],[24.9979,-4.1149,483.4542],[25.0007,-4.119,497.308],[25.0016,-4.1252,488.8589],[25.0,-4.1324,483.03],[24.9954,-4.1381,484.1203],[24.9849,-4.1455,515.2263],[24.984,-4.1492,512.0128],[24.9863,-4.1572,507.041],[24.989,-4.16,507.3872],[25.0131,-4.169,479.5061],[25.0159,-4.1724,483.2894],[25.0131,-4.1765,480.8236],[25.0021,-4.183,485.8924],[25.0097,-4.1975,494.2075],[25.0069,-4.2051,500.4074],[25.0014,-4.2092,486.5792],[24.9989,-4.2134,507.5721],[25.0053,-4.2226,500.5095],[25.0015,-4.2308,508.6231],[25.009,-4.2442,498.8441],[25.0067,-4.2518,493.0907],[25.0132,-4.266,496.8268],[25.0191,-4.2702,487.2827],[25.0205,-4.2732,486.6133],[25.0175,-4.2819,486.9879],[24.9946,-4.3118,492.2863],[24.991,-4.3351,483.438],[24.9937,-4.3597,482.1512],[24.9917,-4.3682,482.1214],[24.9729,-4.3855,490.3117],[24.9736,-4.3931,487.1408],[24.9791,-4.4025,486.6584],[24.9947,-4.4158,488.1536],[24.9952,-4.4186,500.569],[24.9915,-4.4255,488.0],[24.9924,-4.4283,495.4721],[25.0076,-4.4425,503.3613],[25.005,-4.4478,499.6684],[24.9991,-4.4504,492.0],[24.9984,-4.4536,504.7714],[25.0021,-4.4607,494.4893],[25.0,-4.466,502.4965],[24.9879,-4.4731,492.5],[24.9782,-4.472,497.9521],[24.9725,-4.483,513.1073],[24.9679,-4.4812,504.838],[24.9652,-4.4821,510.8419],[24.9613,-4.4948,509.8763],[24.9537,-4.5019,506.5847],[24.9292,-4.5196,529.1607],[24.9274,-4.5277,495.5228],[24.9221,-4.5334,506.3419],[24.928,-4.5415,494.0],[24.9274,-4.5468,500.4538],[24.9177,-4.5463,512.6343],[24.9163,-4.5495,504.3838],[24.9205,-4.5615,505.3202],[24.9175,-4.5682,510.1232],[24.9168,-4.567,507.7525],[24.9122,-4.5673,506.7985],[24.9086,-4.5647,510.5089],[24.9058,-4.5652,504.4174],[24.9021,-4.5762,508.4616],[24.8973,-4.5838,497.8653],[24.89,-4.5866,498.0406],[24.8831,-4.5871,495.0],[24.8788,-4.5896,496.2203],[24.8801,-4.597,495.5],[24.8783,-4.6013,497.4446],[24.8721,-4.6027,506.6216],[24.871,-4.6052,501.5062],[24.8735,-4.6101,496.2994],[24.8723,-4.6128,498.5094],[24.868,-4.616,510.4775],[24.8639,-4.6271,499.4441],[24.859,-4.6338,500.2446],[24.8639,-4.6425,502.5116],[24.8595,-4.6455,498.482],[24.8597,-4.6542,500.8578],[24.8579,-4.6607,515.6025],[24.8593,-4.6655,499.2234],[24.8676,-4.6726,503.3076],[24.8696,-4.6812,496.5],[24.8735,-4.6862,514.5465],[24.8653,-4.6911,505.4077],[24.8639,-4.6943,507.636],[24.8731,-4.7026,506.65],[24.8804,-4.7145,497.7993],[24.8878,-4.7154,516.2423],[24.8898,-4.7194,505.4141],[24.8882,-4.724,500.8968],[24.8901,-4.729,499.6955],[24.8963,-4.7368,499.7232],[24.8953,-4.7444,500.5706],[24.9018,-4.7564,500.0689],[24.9096,-4.7658,498.687],[24.9236,-4.7688,502.7084],[24.9266,-4.7725,505.8555],[24.9296,-4.7868,503.1878],[24.9325,-4.7902,500.0668],[24.9415,-4.793,506.0924],[24.9491,-4.7992,504.2393],[24.9603,-4.7992,506.546],[24.9633,-4.8063,504.6428],[24.9764,-4.8173,508.9115],[24.9775,-4.8263,502.0085],[24.9837,-4.8353,505.519],[24.9844,-4.8449,503.3464],[24.9867,-4.85,508.6219],[25.0111,-4.8742,525.8753],[25.0164,-4.891,515.153],[25.0127,-4.9082,509.4174],[25.0148,-4.917,508.3806],[25.0205,-4.9227,517.0004],[25.0288,-4.9271,510.6017],[25.0308,-4.9411,508.1988],[25.0398,-4.9526,513.5197],[25.0416,-4.9676,505.4266],[25.0527,-4.9786,515.5507],[25.0609,-4.9837,530.3258],[25.0614,-4.9866,534.2867],[25.6585,-4.9989,576.5684]]]]}
,"properties": {"GID_2": "COD.17.6_1","GID_0": "COD","country": "DemocraticRepublicoftheCongo","GID_1": "COD.17_1","province": "Maniema","NL_NAME_1": "NA","county": "Kibombo","VARNAME_2": "NA","NL_NAME_2": "NA","TYPE_2": "Territoire","ENGTYPE_2": "Territory","CC_2": "NA","HASC_2": "NA","name": "Kibombo.county","area_km2": 22551.64,"hist_schema_id": "Elevation0-9000","hist_area_km2": {"450": 115.62,"475": 2225.68,"500": 4516.22,"525": 7071.1,"550": 4028.04,"575": 2132.47,"600": 1332.07,"625": 691.95,"650": 322.55,"675": 100.68,"700": 15.04,"725": 0.21}}}