{"type": "Feature","bbox": [22.6724,-4.0683,22.7215,-4.0215],"geometry": {"type": "MultiPolygon","coordinates": [[[[22.7027,-4.0683,476.3575],[22.7104,-4.0631,499.1064],[22.716,-4.0567,491.9462],[22.7203,-4.0503,470.5389],[22.7215,-4.0434,484.7628],[22.7194,-4.0352,473.5345],[22.7134,-4.0288,443.3876],[22.7027,-4.0232,471.6715],[22.695,-4.0215,494.3021],[22.6852,-4.0262,504.7975],[22.6745,-4.0417,529.9563],[22.6724,-4.0541,462.9229],[22.6784,-4.0644,501.364],[22.6848,-4.067,465.8735],[22.7027,-4.0683,476.3575]]]]}
,"properties": {"GID_2": "COD.21.10_1","GID_0": "COD","country": "DemocraticRepublicoftheCongo","GID_1": "COD.21_1","province": "Sankuru","NL_NAME_1": "NA","county": "Tshumbe","VARNAME_2": "NA","NL_NAME_2": "NA","TYPE_2": "Ville","ENGTYPE_2": "Town","CC_2": "NA","HASC_2": "NA","name": "Tshumbe.county","area_km2": 20.83213,"hist_schema_id": "Elevation0-9000","hist_area_km2": {"425": 0.80367,"450": 3.87033,"475": 6.91584,"500": 7.78298,"525": 1.43816,"550": 0.02115}}}