{"type":"Feature","properties":{"GID_2":"COD.16.4_1","GID_0":"COD","country":"DemocraticRepublicoftheCongo","GID_1":"COD.16_1","province":"Mai-Ndombe","NL_NAME_1":"NA","county":"Inongo(ville)","VARNAME_2":"NA","NL_NAME_2":"NA","TYPE_2":"Ville","ENGTYPE_2":"Town","CC_2":"NA","HASC_2":"NA","name":"Inongo(ville).county"},
"geometry":{"type": "MultiPolygon","coordinates": [[[[18.3229,-2.0252,291.0],[18.3438,-2.0063,291.0],[18.3548,-1.9841,294.0331],[18.357,-1.9609,312.2959],[18.3482,-1.9332,314.6365],[18.3129,-1.9143,315.6901],[18.3052,-1.901,316.0736],[18.2788,-1.8899,291.0],[18.2568,-1.8966,291.0],[18.2149,-1.9154,291.0],[18.2071,-1.9626,291.0],[18.2281,-2.003,291.0],[18.2568,-2.0252,291.0],[18.2931,-2.0318,291.0],[18.3229,-2.0252,291.0]]]]}}