{"type":"Feature","properties":{"GID_2":"COD.21.5_1","GID_0":"COD","country":"DemocraticRepublicoftheCongo","GID_1":"COD.21_1","province":"Sankuru","NL_NAME_1":"NA","county":"Lodja(ville)","VARNAME_2":"NA","NL_NAME_2":"NA","TYPE_2":"Ville","ENGTYPE_2":"Town","CC_2":"NA","HASC_2":"NA","name":"Lodja(ville).county"},
"geometry":{"type": "MultiPolygon","coordinates": [[[[23.4205,-3.4486,472.4003],[23.4075,-3.4351,516.6021],[23.3988,-3.4386,491.1015],[23.3832,-3.4595,426.4745],[23.3799,-3.4674,441.2822],[23.3799,-3.4795,470.8404],[23.3855,-3.5123,484.1446],[23.383,-3.5286,514.0093],[23.3861,-3.537,487.7924],[23.3858,-3.5448,485.3773],[23.3891,-3.5568,520.6367],[23.395,-3.5595,519.8571],[23.4178,-3.5578,502.8489],[23.433,-3.5546,487.1961],[23.4509,-3.5471,487.2315],[23.4605,-3.5405,484.0342],[23.4687,-3.5316,448.0478],[23.4746,-3.5295,430.8242],[23.4723,-3.5143,452.061],[23.476,-3.4751,497.5208],[23.4718,-3.4663,472.9478],[23.4567,-3.4557,532.4282],[23.4419,-3.4532,474.4521],[23.4297,-3.4546,479.7021],[23.4205,-3.4486,472.4003]]]]}}