{"type":"Feature","properties":{"GID_2":"COD.5.4_1","GID_0":"COD","country":"DemocraticRepublicoftheCongo","GID_1":"COD.5_1","province":"Haut-Uele","NL_NAME_1":"NA","county":"Faradje","VARNAME_2":"NA","NL_NAME_2":"NA","TYPE_2":"Territoire","ENGTYPE_2":"Territory","CC_2":"NA","HASC_2":"NA","name":"Faradje.county"},
"geometry":{"type": "MultiPolygon","coordinates": [[[[29.3481,3.3835,763.9902],[29.3539,3.3785,767.6405],[29.3599,3.3776,770.721],[29.366,3.3792,775.9282],[29.3711,3.3776,775.4711],[29.3759,3.3725,789.0447],[29.3969,3.358,787.967],[29.4024,3.3589,783.9009],[29.4114,3.3653,794.3307],[29.4187,3.3653,787.8412],[29.4231,3.3699,794.8991],[29.4274,3.3711,802.984],[29.4494,3.3632,811.482],[29.4601,3.3536,815.0141],[29.4743,3.3517,818.1911],[29.4904,3.353,816.3142],[29.5169,3.3525,813.5632],[29.5204,3.3502,826.0965],[29.5206,3.3431,813.7525],[29.5249,3.341,839.5961],[29.5354,3.341,820.6845],[29.5439,3.3451,812.1382],[29.5462,3.3481,819.4317],[29.5439,3.3543,819.1492],[29.5456,3.3578,835.4472],[29.5488,3.3568,830.4376],[29.5515,3.349,817.0322],[29.5545,3.3488,814.4045],[29.5572,3.3534,815.6253],[29.5618,3.3524,823.7648],[29.5684,3.346,824.1496],[29.5719,3.3365,828.233],[29.5753,3.3324,819.1354],[29.5759,3.319,815.175],[29.5737,3.3172,814.1309],[29.5714,3.3092,817.9166],[29.5734,3.3048,828.8892],[29.5798,3.3036,820.993],[29.5848,3.2962,826.1458],[29.5883,3.2857,832.8771],[29.5919,3.281,839.4054],[29.5963,3.278,828.7234],[29.6061,3.2769,817.9579],[29.6132,3.2838,837.0977],[29.618,3.2835,845.2424],[29.6242,3.2762,829.4426],[29.6276,3.2766,835.8238],[29.6308,3.2745,849.1748],[29.6322,3.2706,845.3167],[29.6306,3.2653,838.6486],[29.6326,3.2635,831.5491],[29.6409,3.2697,831.3535],[29.6475,3.2692,833.6202],[29.6473,3.2731,825.8482],[29.6496,3.2775,829.2986],[29.6535,3.2784,836.9293],[29.6569,3.2766,828.0781],[29.6597,3.2692,829.182],[29.6626,3.2669,828.9186],[29.6675,3.2666,823.0895],[29.6695,3.2694,836.2991],[29.6638,3.2763,827.6641],[29.6634,3.2798,828.5801],[29.6686,3.283,836.1115],[29.6666,3.2857,850.0433],[29.6581,3.2869,835.9099],[29.6499,3.2927,827.0126],[29.6508,3.2947,825.7923],[29.6545,3.2964,824.0042],[29.6611,3.3053,833.3477],[29.67,3.306,834.1016],[29.6721,3.3083,835.8937],[29.6712,3.3122,831.0614],[29.6733,3.3157,833.9204],[29.6769,3.3161,838.3816],[29.6842,3.3138,832.9905],[29.6859,3.3168,829.2604],[29.6822,3.3228,835.3839],[29.6838,3.3251,841.9978],[29.6909,3.3253,827.9391],[29.6969,3.3214,836.2542],[29.7058,3.3131,845.9711],[29.7126,3.3008,841.3985],[29.711,3.2921,835.6082],[29.706,3.2903,842.1296],[29.7037,3.2859,837.3211],[29.7057,3.282,852.4226],[29.7137,3.2769,858.2515],[29.7146,3.2721,858.6646],[29.7215,3.2709,868.9458],[29.7256,3.2647,853.8094],[29.73,3.2638,857.5256],[29.7343,3.2587,859.2712],[29.732,3.2541,855.2727],[29.7327,3.2525,859.5187],[29.7464,3.2534,869.7289],[29.7483,3.2511,868.4624],[29.7478,3.2467,879.5023],[29.7432,3.238,867.7199],[29.7464,3.231,901.6082],[29.7395,3.2208,911.1837],[29.7366,3.2105,912.4818],[29.722,3.1985,917.881],[29.7125,3.2084,883.8777],[29.6992,3.2177,876.8182],[29.6843,3.224,867.0508],[29.679,3.2118,862.9309],[29.6815,3.2026,873.5475],[29.687,3.1957,883.7114],[29.6838,3.1888,875.9225],[29.6788,3.1858,881.4659],[29.6762,3.181,880.0076],[29.6707,3.1766,889.4059],[29.6664,3.1638,904.2831],[29.6611,3.1594,902.0038],[29.6849,3.1355,895.8053],[29.7026,3.1478,899.0131],[29.7246,3.149,931.8382],[29.7443,3.1402,951.2311],[29.76,3.1141,1050.0574],[29.7871,3.0903,854.2701],[29.7979,3.0772,886.3373],[29.8105,3.0653,901.5807],[29.8274,3.0514,977.4648],[29.8484,3.042,932.6159],[29.8617,3.0385,960.0656],[29.8853,3.0328,1070.2861],[29.9501,3.0217,1145.2346],[29.9535,3.0171,1165.9747],[29.9581,3.0015,1053.1716],[29.9697,2.9738,982.2479],[29.9706,2.9638,949.6597],[29.9671,2.9587,943.2401],[29.9647,2.9561,947.1733],[29.9542,2.9524,927.7188],[29.9498,2.9659,929.9072],[29.9457,2.9706,923.7436],[29.9391,2.971,917.5284],[29.9359,2.9752,924.7842],[29.9316,2.9752,917.7059],[29.9252,2.9851,943.5543],[29.9229,2.9856,932.6897],[29.9181,2.9826,908.64],[29.9078,2.984,915.2849],[29.8977,2.9941,917.7622],[29.8961,3.002,925.7194],[29.8943,3.0038,921.8339],[29.8824,3.0048,925.4418],[29.8755,3.0094,969.1409],[29.8714,3.0101,914.1855],[29.8673,3.0073,895.4556],[29.8648,3.0078,902.826],[29.857,3.0154,963.7305],[29.8515,3.0147,888.3433],[29.8433,3.0166,899.6613],[29.8325,3.021,968.1567],[29.8257,3.0203,874.1912],[29.8133,3.0251,889.8434],[29.7985,3.0376,854.2351],[29.7847,3.0526,842.1675],[29.7795,3.0611,848.3941],[29.7733,3.0667,848.9875],[29.7612,3.0681,830.4306],[29.7553,3.0722,833.9659],[29.7498,3.0718,842.6061],[29.7463,3.0667,837.4587],[29.7406,3.0663,823.5429],[29.7372,3.0693,876.5833],[29.7317,3.07,843.4073],[29.7285,3.0723,832.4055],[29.7257,3.0727,817.05],[29.7232,3.0709,824.5909],[29.7097,3.0714,816.3716],[29.6925,3.076,826.8308],[29.6827,3.0763,818.4869],[29.6836,3.0705,830.6826],[29.6806,3.0671,817.9248],[29.6804,3.0636,833.0786],[29.6758,3.0652,828.384],[29.6731,3.0645,831.9204],[29.6724,3.0592,847.9915],[29.6744,3.0551,859.0624],[29.6794,3.0509,856.1041],[29.6803,3.0443,850.6875],[29.6877,3.0417,860.5906],[29.6989,3.0281,895.2784],[29.703,3.0263,1009.1188],[29.705,3.021,990.311],[29.7133,3.0141,884.2485],[29.7174,3.0053,902.9411],[29.7183,2.9929,913.2907],[29.7242,2.9816,921.4042],[29.7212,2.9728,942.1362],[29.7228,2.9567,923.2734],[29.728,2.9351,939.0457],[29.7342,2.9252,926.5106],[29.7337,2.9201,936.76],[29.7307,2.9158,926.7811],[29.7362,2.9045,978.6275],[29.7403,2.9012,971.8094],[29.7496,2.8853,1012.7124],[29.7578,2.8639,1034.8793],[29.7695,2.8473,999.2097],[29.7745,2.8452,987.7923],[29.7885,2.8445,1024.5554],[29.793,2.8399,994.213],[29.816,2.8523,1053.4287],[29.8271,2.8521,1032.9518],[29.8903,2.8678,1133.2961],[29.9608,2.8666,1019.64],[29.9682,2.86,1034.2344],[29.9706,2.8509,1128.6102],[29.9705,2.825,1081.3324],[29.9581,2.8071,1082.3923],[29.9456,2.7957,1146.9503],[29.9406,2.7841,1106.948],[29.9505,2.7697,1164.3943],[29.9826,2.7639,1100.9326],[29.9849,2.7341,1077.8525],[29.9899,2.7276,1193.5106],[29.9972,2.7197,1071.0176],[30.012,2.7091,1126.2766],[30.0454,2.6878,1169.4626],[30.0563,2.6397,1194.1667],[30.0636,2.6266,1270.7585],[30.0822,2.6211,1283.9849],[30.1441,2.6303,1257.8188],[30.1473,2.6197,1279.6161],[30.1449,2.6148,1254.5364],[30.145,2.6038,1284.3822],[30.149,2.5879,1253.9336],[30.1847,2.5843,1289.046],[30.2083,2.593,1260.3099],[30.2133,2.6045,1258.8467],[30.2086,2.6693,1191.8572],[30.1964,2.7006,1130.6863],[30.1853,2.7099,1130.8762],[30.1793,2.7371,1075.084],[30.1856,2.7681,1038.8091],[30.177,2.7825,1019.9335],[30.1609,2.7892,1014.6078],[30.1486,2.8024,1019.1996],[30.1518,2.8127,1006.6002],[30.1605,2.8177,1012.9174],[30.1803,2.82,1032.6411],[30.205,2.8163,1027.2556],[30.2137,2.8245,1011.4557],[30.2088,2.8447,1025.3411],[30.2107,2.8769,994.353],[30.2012,2.8855,1000.5002],[30.1986,2.8855,990.9113],[30.1964,2.8831,998.8335],[30.1942,2.8714,989.3508],[30.1892,2.8716,993.6722],[30.1662,2.8782,982.2026],[30.1554,2.8781,974.9937],[30.1433,2.875,986.6899],[30.1286,2.8794,970.97],[30.1211,2.8791,969.7612],[30.1147,2.8746,976.1576],[30.1119,2.882,987.1576],[30.1132,2.8923,981.6408],[30.1169,2.8981,981.2752],[30.1299,2.9063,990.1205],[30.146,2.9073,983.5033],[30.167,2.903,1004.4084],[30.1887,2.9046,1021.0306],[30.2063,2.9228,1026.5754],[30.1751,2.9471,984.5022],[30.1719,2.9641,981.3253],[30.1622,2.9886,966.3916],[30.1612,2.9991,962.3428],[30.1593,3.0026,966.4153],[30.1515,3.0052,962.7744],[30.145,3.0112,952.489],[30.1396,3.0254,942.1067],[30.1702,3.0537,970.0901],[30.2341,3.0881,961.7361],[30.2497,3.1073,1013.9916],[30.2609,3.1258,1008.6277],[30.2802,3.152,1019.1261],[30.292,3.1641,989.1639],[30.3337,3.1976,1061.0912],[30.3517,3.218,1078.2731],[30.3591,3.2295,996.5011],[30.3561,3.2346,997.6479],[30.3534,3.2484,989.2816],[30.3429,3.2678,963.5591],[30.3424,3.2749,966.5197],[30.3459,3.2846,962.3999],[30.3465,3.292,953.4448],[30.3427,3.3021,958.0069],[30.337,3.3048,952.5814],[30.3421,3.3166,964.5645],[30.3505,3.3226,980.1246],[30.3547,3.3231,981.5611],[30.3681,3.3571,989.7033],[30.3692,3.381,994.7516],[30.3668,3.4075,995.9234],[30.3779,3.4011,998.3132],[30.3963,3.3958,1059.9294],[30.4009,3.3924,1075.6544],[30.4063,3.3978,1073.5647],[30.4117,3.4091,1059.5005],[30.4172,3.4126,1058.158],[30.4217,3.4212,1060.8896],[30.4231,3.4327,1057.9414],[30.41,3.4398,1065.8882],[30.4023,3.4464,1056.4327],[30.3949,3.4569,1051.8519],[30.3743,3.5016,1025.4407],[30.376,3.5065,1034.2347],[30.3757,3.5141,1059.0148],[30.3705,3.5336,1033.4611],[30.3722,3.5403,1042.3169],[30.3761,3.5456,1058.6676],[30.3832,3.5487,1064.97],[30.3912,3.5495,1081.0099],[30.4015,3.5463,1093.7109],[30.4084,3.5462,1098.1904],[30.418,3.5514,1113.7891],[30.4314,3.5621,1115.127],[30.4511,3.5612,1136.2177],[30.4557,3.5591,1134.0134],[30.4927,3.579,1137.9539],[30.541,3.5949,1153.4913],[30.5587,3.596,1199.8766],[30.5569,3.5988,1189.7668],[30.5563,3.6064,1204.8199],[30.5675,3.6242,1194.921],[30.5749,3.6412,1193.8322],[30.5768,3.6569,1187.0454],[30.5818,3.6673,1152.8741],[30.5849,3.6802,1148.8291],[30.5715,3.765,1131.1042],[30.5557,3.8274,1067.0232],[30.5261,3.8486,1060.9265],[30.4989,3.8413,1024.2689],[30.4716,3.8269,1005.4073],[30.453,3.8311,1007.4338],[30.4456,3.8384,974.1492],[30.4303,3.871,979.4556],[30.4155,3.8706,987.6702],[30.4038,3.8662,998.5463],[30.379,3.8952,953.142],[30.3519,3.9125,973.1055],[30.3358,3.9192,950.2296],[30.3209,3.9315,933.9194],[30.2993,3.931,1036.1578],[30.2848,3.9501,945.2369],[30.2736,3.9564,942.6463],[30.264,3.9563,931.5669],[30.2452,3.945,916.2362],[30.2226,3.9374,936.5043],[30.2091,3.9495,938.1155],[30.2045,3.9555,937.9808],[30.2015,3.9674,927.9415],[30.1975,3.9714,941.7725],[30.1909,4.0155,896.3961],[30.1733,4.0304,879.4565],[30.1739,4.0431,887.5789],[30.171,4.0453,877.5511],[30.1667,4.0457,874.9673],[30.1586,4.055,895.5304],[30.1574,4.0707,885.7191],[30.1588,4.0801,879.0586],[30.1577,4.0927,881.2825],[30.1557,4.097,892.0711],[30.1481,4.1035,893.6127],[30.1315,4.111,896.2496],[30.1085,4.1178,894.3656],[30.0924,4.1278,879.394],[30.0572,4.1394,871.2336],[30.0387,4.1571,873.0187],[30.0299,4.1925,877.1896],[30.0267,4.1968,888.9484],[30.0,4.2157,873.6846],[29.9873,4.2266,874.6263],[29.9754,4.2308,874.2561],[29.9566,4.2321,883.9392],[29.9479,4.2347,894.928],[29.9441,4.2416,896.0978],[29.9503,4.2528,900.9689],[29.9515,4.26,893.798],[29.9636,4.2774,891.9675],[29.9611,4.2896,898.0387],[29.9502,4.306,896.0157],[29.9418,4.3148,894.3884],[29.9023,4.3436,881.999],[29.8932,4.3462,875.8733],[29.8856,4.344,874.4205],[29.8768,4.339,876.0996],[29.8599,4.3398,867.0402],[29.8505,4.3373,873.7731],[29.8397,4.3367,884.2617],[29.8312,4.3427,868.7662],[29.8228,4.3541,861.4537],[29.8064,4.3617,872.2017],[29.803,4.3487,840.6471],[29.7926,4.3335,841.1491],[29.7825,4.3112,830.3524],[29.7722,4.2997,824.1069],[29.7644,4.2813,824.1316],[29.7432,4.2616,813.8334],[29.7361,4.26,810.304],[29.7336,4.2568,798.7401],[29.7208,4.2567,816.0676],[29.7104,4.2519,827.2748],[29.697,4.2434,825.0338],[29.6908,4.2341,815.1461],[29.6842,4.2124,805.6726],[29.6883,4.2055,807.9637],[29.691,4.1864,807.5909],[29.6828,4.1655,808.3412],[29.6738,4.16,792.9675],[29.6736,4.1572,786.9034],[29.6786,4.1471,801.5265],[29.6781,4.1441,803.524],[29.6745,4.1404,797.8412],[29.6673,4.1227,784.9275],[29.6712,4.1036,778.8754],[29.6703,4.0941,770.7209],[29.6723,4.0868,767.3541],[29.6716,4.0748,773.7671],[29.6691,4.0663,764.6436],[29.6631,4.0587,766.5466],[29.6612,4.0387,767.9078],[29.6589,4.0327,766.4912],[29.6557,4.0295,769.5135],[29.6523,4.029,765.2974],[29.6484,4.0309,760.6424],[29.6442,4.0297,767.993],[29.6408,4.027,771.541],[29.6351,4.018,763.3893],[29.6181,4.0077,765.4004],[29.6151,4.0079,760.5728],[29.6107,4.0116,752.0422],[29.603,4.0084,753.1627],[29.5949,4.0096,749.8364],[29.5789,4.0008,745.2118],[29.5555,3.9938,743.0828],[29.5568,3.985,763.1659],[29.5613,3.9775,753.6989],[29.5673,3.9745,760.647],[29.6096,3.9623,791.3956],[29.6299,3.9525,788.3323],[29.6416,3.939,808.0872],[29.6462,3.9071,774.6749],[29.6227,3.859,764.7703],[29.6256,3.8539,763.2889],[29.6327,3.8511,773.4058],[29.6348,3.8433,752.5231],[29.6375,3.841,763.209],[29.6446,3.8419,766.4613],[29.6492,3.8378,753.5216],[29.6455,3.8251,759.8973],[29.6462,3.8221,763.8198],[29.6524,3.8196,783.1015],[29.6553,3.812,770.9782],[29.6643,3.8027,780.1873],[29.6654,3.7961,758.1078],[29.6668,3.7947,756.1132],[29.6743,3.7954,769.6155],[29.6823,3.793,769.2055],[29.6878,3.7933,772.5699],[29.6904,3.7912,765.6608],[29.6899,3.784,759.2405],[29.6922,3.7801,763.4684],[29.6951,3.7787,775.9657],[29.6979,3.773,767.3987],[29.6789,3.7655,764.3444],[29.6331,3.7352,772.2493],[29.616,3.7003,768.6665],[29.6065,3.6852,761.9568],[29.5636,3.6754,775.183],[29.5535,3.6868,786.3319],[29.5504,3.6952,780.1038],[29.5153,3.6824,778.242],[29.4725,3.663,770.3125],[29.4379,3.6521,742.2403],[29.431,3.6524,753.3016],[29.4299,3.6431,743.1769],[29.4324,3.6342,750.1106],[29.4369,3.6286,754.2196],[29.4543,3.6201,760.4415],[29.4573,3.6173,761.9854],[29.4601,3.6102,761.6877],[29.4653,3.6088,761.4954],[29.4715,3.604,759.9637],[29.4733,3.5883,756.9295],[29.4676,3.5807,752.0001],[29.4685,3.5738,760.9117],[29.4664,3.5685,758.7641],[29.468,3.5641,756.4863],[29.4609,3.5559,756.1891],[29.4533,3.5384,761.207],[29.4451,3.5134,764.1828],[29.4431,3.4992,774.8068],[29.4309,3.4859,774.8674],[29.4229,3.4835,782.5865],[29.407,3.4892,795.3528],[29.399,3.488,786.3382],[29.3937,3.4828,810.0872],[29.3774,3.4416,791.6866],[29.3707,3.4132,770.6039],[29.3654,3.4021,775.5352],[29.3481,3.3835,763.9902]],
[[30.2431,3.818,888.4768],[30.2242,3.8153,872.9108],[30.2141,3.8182,893.9323],[30.1987,3.83,881.6315],[30.1919,3.8502,891.4109],[30.1944,3.8733,914.6798],[30.2048,3.8848,909.6213],[30.2181,3.8902,919.9615],[30.2213,3.8953,913.7063],[30.2328,3.8964,912.8244],[30.2482,3.9028,900.8981],[30.259,3.9018,928.5154],[30.2669,3.8982,934.9854],[30.2744,3.8906,925.0624],[30.2791,3.8823,911.9301],[30.2823,3.8711,921.4498],[30.283,3.8585,919.8118],[30.2802,3.847,912.8822],[30.2752,3.8355,909.5703],[30.2651,3.8261,885.7412],[30.2554,3.821,885.5115],[30.2431,3.818,888.4768]]]]}}