{"type":"Feature","properties":{"GID_2":"COD.26.4_1","GID_0":"COD","country":"DemocraticRepublicoftheCongo","GID_1":"COD.26_1","province":"Tshuapa","NL_NAME_1":"NA","county":"Bokungu","VARNAME_2":"NA","NL_NAME_2":"NA","TYPE_2":"Territoire","ENGTYPE_2":"Territory","CC_2":"NA","HASC_2":"NA","name":"Bokungu.county"},
"geometry":{"type": "MultiPolygon","coordinates": [[[[22.5896,-1.7508,422.0193],[22.5917,-1.7386,406.6209],[22.612,-1.7289,445.2747],[22.6301,-1.7169,421.2597],[22.6432,-1.7156,416.2997],[22.6517,-1.7165,441.6122],[22.667,-1.7239,428.335],[22.6725,-1.7244,416.7692],[22.6788,-1.7208,449.5203],[22.7716,-1.6224,416.8959],[22.7938,-1.6025,393.5219],[22.8211,-1.556,384.6781],[22.8275,-1.5496,384.7069],[22.8435,-1.5422,391.34],[22.8545,-1.531,410.1915],[22.8911,-1.5143,414.726],[22.9085,-1.5153,410.1667],[22.9176,-1.5203,400.5642],[22.9294,-1.5316,407.971],[22.9338,-1.533,402.9915],[22.9471,-1.5196,410.9295],[22.9569,-1.5042,432.2996],[22.9959,-1.4631,433.8535],[23.0162,-1.4371,428.8705],[23.0344,-1.425,424.429],[23.0386,-1.4197,442.4397],[23.0368,-1.413,445.0994],[23.0375,-1.4064,446.3684],[23.0261,-1.3946,438.6866],[23.0166,-1.3778,435.2962],[23.0022,-1.3711,424.2608],[22.9953,-1.3656,430.2871],[22.9775,-1.342,434.882],[22.9739,-1.3429,431.5654],[22.942,-1.3709,451.9732],[22.9316,-1.3767,440.7329],[22.9223,-1.3765,440.8852],[22.9041,-1.3721,444.7709],[22.8876,-1.3772,445.1673],[22.8757,-1.3776,428.2854],[22.8612,-1.3631,430.0619],[22.8498,-1.3396,419.4564],[22.8256,-1.3187,417.6096],[22.8081,-1.3011,409.0669],[22.7985,-1.2943,418.6166],[22.7941,-1.2938,418.5491],[22.7878,-1.2974,408.1764],[22.7691,-1.3395,416.0348],[22.7653,-1.343,418.0935],[22.7612,-1.3434,422.809],[22.7537,-1.3388,413.1085],[22.7489,-1.3317,432.3731],[22.7419,-1.3104,405.1588],[22.7346,-1.2961,413.7482],[22.7161,-1.2677,436.3798],[22.7051,-1.2451,440.3206],[22.6911,-1.1891,409.6384],[22.6848,-1.1526,402.1347],[22.6481,-0.977,384.6479],[22.6492,-0.9567,391.1446],[22.6525,-0.9433,393.8804],[22.6612,-0.9217,397.452],[22.671,-0.904,406.6833],[22.6787,-0.8985,385.6416],[22.6885,-0.8954,396.9281],[22.6974,-0.8958,391.0912],[22.7026,-0.8912,397.4695],[22.7031,-0.8718,404.4829],[22.7009,-0.846,405.139],[22.7028,-0.8357,385.9207],[22.7059,-0.8295,385.3654],[22.7054,-0.8231,386.584],[22.6994,-0.8181,385.4106],[22.6792,-0.8101,373.9178],[22.6158,-0.7763,371.3265],[22.6039,-0.7658,368.206],[22.5888,-0.744,348.0],[22.5681,-0.7205,383.2869],[22.5574,-0.7143,380.9844],[22.5381,-0.711,392.6104],[22.5328,-0.7066,379.2815],[22.5311,-0.7016,397.6548],[22.5305,-0.6892,405.7975],[22.5332,-0.6601,409.849],[22.5503,-0.6037,443.3552],[22.5699,-0.5219,432.2546],[22.5899,-0.4615,452.343],[22.5896,-0.4465,433.2892],[22.584,-0.4322,436.9661],[22.5831,-0.4258,423.632],[22.5842,-0.412,410.636],[22.5829,-0.4034,431.7043],[22.4744,-0.1592,457.436],[22.4632,-0.146,479.6055],[22.4276,-0.1104,438.2479],[22.4126,-0.0985,436.8427],[22.4094,-0.0939,456.1512],[22.4014,-0.0489,422.9997],[22.3981,-0.0406,424.8546],[22.3906,-0.0269,475.391],[22.3611,0.013,445.4066],[22.3572,0.0224,425.3752],[22.358,0.038,428.8767],[22.3489,0.0637,415.4498],[22.3462,0.0821,412.1446],[22.3469,0.0915,399.405],[22.3387,0.1137,392.4842],[22.3396,0.1146,390.0307],[22.3227,0.1202,388.2612],[22.3152,0.1181,393.6404],[22.3086,0.1137,389.4527],[22.2989,0.1017,397.5913],[22.2952,0.1012,408.8026],[22.2918,0.0973,400.1373],[22.2896,0.0984,412.1555],[22.2868,0.1039,391.6499],[22.2824,0.1043,405.4315],[22.2813,0.1018,406.1959],[22.2765,0.1024,408.3041],[22.272,0.0976,408.8786],[22.2649,0.0987,396.7114],[22.2613,0.0975,400.7704],[22.2517,0.091,403.642],[22.2469,0.0967,408.3689],[22.2389,0.0976,402.3974],[22.2344,0.093,411.74],[22.2262,0.0933,400.541],[22.2078,0.0794,381.6559],[22.2032,0.0789,390.3961],[22.1967,0.0683,398.9073],[22.1912,0.0701,399.1194],[22.1891,0.0816,397.955],[22.187,0.083,398.7922],[22.1775,0.0804,388.7458],[22.1576,0.0837,387.7077],[22.1462,0.0774,390.8286],[22.1399,0.0697,387.619],[22.1362,0.0725,393.3947],[22.1299,0.072,391.23],[22.1278,0.0674,388.8625],[22.1244,0.0648,390.0027],[22.1144,0.0622,388.4688],[22.1044,0.0566,387.1964],[22.0944,0.0559,380.7832],[22.0866,0.0629,383.478],[22.0811,0.0633,383.603],[22.0761,0.0582,380.7836],[22.0697,0.058,383.106],[22.0579,0.0521,381.9213],[22.0575,0.0443,395.0535],[22.053,0.0418,395.8973],[22.0476,0.0346,385.6716],[22.0432,0.035,401.6831],[22.0414,0.0385,398.5575],[22.0352,0.0355,398.8111],[22.0286,0.0354,394.9806],[22.0209,0.0326,401.2284],[22.0148,0.0259,417.945],[22.0056,0.0279,379.9832],[21.9977,0.02,421.4615],[21.9952,0.023,417.6693],[21.9906,0.0206,422.042],[21.985,0.0093,363.777],[21.982,0.0121,385.2442],[21.9759,0.01,379.7462],[21.9716,0.0049,384.9196],[21.9686,0.0081,384.218],[21.9652,0.009,381.1791],[21.9627,0.0053,380.7489],[21.9486,0.0042,385.1448],[21.9392,0.0095,383.1268],[21.9326,0.0062,388.405],[21.9284,0.0105,392.2025],[21.9218,0.0105,382.544],[21.9198,0.0132,380.9674],[21.9132,0.0113,385.7042],[21.9122,0.0168,387.2103],[21.9101,0.0189,387.5332],[21.8898,0.0261,385.1187],[21.8831,0.032,384.7928],[21.8722,0.033,384.1617],[21.863,0.0422,386.2125],[21.8582,0.043,382.0739],[21.8524,0.0474,379.2379],[21.8465,0.0446,384.6044],[21.8431,0.0496,384.5941],[21.8408,0.05,378.4714],[21.836,0.0477,382.6114],[21.8298,0.0536,387.7522],[21.8207,0.057,369.383],[21.8182,0.0556,370.4828],[21.8171,0.0492,372.2008],[21.8084,0.0532,379.1429],[21.8045,0.0486,379.7513],[21.7984,0.0485,382.8075],[21.7961,0.0446,382.8111],[21.7927,0.0476,383.2747],[21.7879,0.043,384.1653],[21.7829,0.0493,382.8647],[21.7776,0.053,380.6349],[21.7703,0.0541,380.1624],[21.7732,0.0578,377.9761],[21.7727,0.0621,381.9045],[21.7756,0.0693,379.6874],[21.7767,0.0785,380.1259],[21.7796,0.0835,372.0523],[21.7862,0.088,374.2922],[21.7796,0.0881,373.4333],[21.7764,0.0863,372.1897],[21.7739,0.0828,374.7735],[21.7706,0.0708,379.2921],[21.7633,0.0682,374.8699],[21.7554,0.056,381.8776],[21.7534,0.0567,386.7792],[21.7527,0.0599,383.8966],[21.7544,0.0675,382.2825],[21.7486,0.081,378.7832],[21.7443,0.083,376.0775],[21.74,0.0782,376.6177],[21.7315,0.0836,373.8033],[21.7274,0.0781,370.351],[21.7265,0.0815,371.508],[21.7287,0.0898,369.5672],[21.7266,0.0939,370.428],[21.7216,0.0943,371.6642],[21.715699999999998,0.0851,368.7744],[21.7107,0.0876,376.0451],[21.7063,0.0921,375.6106],[21.6982,0.0833,373.3611],[21.6923,0.0829,370.3588],[21.687,0.0846,373.8216],[21.685,0.0835,373.3496],[21.6836,0.0793,375.6076],[21.6784,0.0786,376.7915],[21.668,0.0709,374.2679],[21.6664,0.0714,376.8583],[21.6654,0.0748,376.0135],[21.6699,0.0822,375.1482],[21.6689,0.0907,368.5641],[21.666,0.0918,372.5411],[21.648,0.085,375.4087],[21.6404,0.0638,378.963],[21.6343,0.0527,380.6561],[21.6307,0.0488,379.8183],[21.6143,0.0439,384.2286],[21.6105,0.0401,384.442],[21.5624,-0.0164,404.881],[21.5608,-0.0226,417.2723],[21.5497,-0.0327,406.3244],[21.5088,-0.0766,426.6218],[21.5006,-0.0874,420.7444],[21.4869,-0.1141,412.1989],[21.466,-0.1458,381.945],[21.4467,-0.1957,408.4644],[21.4346,-0.208,370.6039],[21.4232,-0.2162,411.2375],[21.4019,-0.2255,387.9967],[21.3934,-0.2262,417.3315],[21.384,-0.2343,408.2734],[21.3654,-0.3024,348.859],[21.3629,-0.309,348.9533],[21.3551,-0.3187,353.9106],[21.3537,-0.323,352.8242],[21.3664,-0.3375,353.9318],[21.3691,-0.3495,353.88],[21.3739,-0.3546,353.3453],[21.3769,-0.3543,353.5798],[21.3792,-0.3493,356.113],[21.3876,-0.3482,357.5984],[21.4207,-0.3515,348.9324],[21.4351,-0.3589,328.5],[21.4549,-0.3491,347.9928],[21.4593,-0.3501,349.5198],[21.4625,-0.3529,349.71],[21.4702,-0.3669,341.6532],[21.4743,-0.3701,354.4367],[21.4793,-0.3713,351.9568],[21.485,-0.3706,349.1098],[21.4974,-0.3592,348.8565],[21.5083,-0.3604,346.436],[21.5108,-0.3625,351.5266],[21.5158,-0.374,343.3481],[21.5116,-0.3896,355.0309],[21.5157,-0.3967,359.4913],[21.52,-0.3974,359.5445],[21.5223,-0.396,359.6647],[21.529,-0.3871,355.2214],[21.5322,-0.3858,354.3202],[21.5367,-0.3871,357.5386],[21.5433,-0.3931,351.3752],[21.5517,-0.4042,352.1047],[21.5645,-0.3969,351.6826],[21.5844,-0.3967,352.171],[21.5878,-0.3938,352.511],[21.5899,-0.3892,349.8925],[21.587,-0.3765,351.3394],[21.5884,-0.3731,354.5009],[21.5916,-0.3724,357.9952],[21.5991,-0.375,351.0795],[21.6041,-0.378,357.3995],[21.6048,-0.383,357.6266],[21.5997,-0.398,353.118],[21.6028,-0.4072,353.1681],[21.6199,-0.4118,356.9842],[21.6379,-0.4247,349.9045],[21.6409,-0.425,355.625],[21.6484,-0.4209,357.0762],[21.6566,-0.4262,354.3414],[21.6653,-0.4283,351.5322],[21.6989,-0.4256,360.1888],[21.708,-0.4275,352.4501],[21.7107,-0.4305,351.3442],[21.7125,-0.4386,361.1973],[21.7104,-0.4542,358.4716],[21.7131,-0.4643,358.2529],[21.7218,-0.4726,350.5254],[21.7263,-0.4726,357.4508],[21.7275,-0.4712,352.0066],[21.7298,-0.465,356.3402],[21.7301,-0.449,352.1319],[21.7337,-0.4442,354.5477],[21.7449,-0.4403,361.1045],[21.752,-0.4408,356.2349],[21.7545,-0.4433,360.5808],[21.7556,-0.4488,360.7682],[21.751,-0.4704,333.5],[21.7514,-0.4775,356.7417],[21.7541,-0.4837,360.3343],[21.7577,-0.4871,342.0847],[21.7653,-0.487,354.4143],[21.7772,-0.4806,357.8253],[21.7815,-0.4811,357.905],[21.7876,-0.5013,358.9954],[21.7914,-0.505,360.7927],[21.7976,-0.5072,361.3575],[21.8044,-0.5058,364.2972],[21.8066,-0.5039,364.1376],[21.8137,-0.4902,359.4138],[21.8233,-0.4911,362.8369],[21.8283,-0.4898,359.4095],[21.8313,-0.4868,358.7915],[21.8363,-0.4758,362.2085],[21.8382,-0.476,355.4965],[21.8511,-0.4983,358.5976],[21.8572,-0.5048,358.4266],[21.8643,-0.5078,356.0283],[21.8672,-0.5119,352.6505],[21.8675,-0.5168,353.8108],[21.8624,-0.528,350.5656],[21.8638,-0.5319,336.0],[21.8843,-0.5446,364.9778],[21.892,-0.5573,363.8114],[21.8936,-0.5712,361.4868],[21.889,-0.625,425.6866],[21.8889,-0.6418,423.7962],[21.8906,-0.6462,425.3883],[21.9459,-0.6908,388.8629],[21.9299,-0.6996,386.1805],[21.8847,-0.714,441.1846],[21.8708,-0.7211,407.1346],[21.8295,-0.7957,386.7816],[21.8216,-0.806,423.3528],[21.8008,-0.8069,381.2784],[21.7839,-0.8096,377.5126],[21.7517,-0.821,374.64],[21.7372,-0.8333,395.902],[21.7194,-0.8447,412.6258],[21.7123,-0.8459,407.7944],[21.7052,-0.8514,397.6581],[21.6897,-0.8563,363.7448],[21.6654,-0.8694,361.0807],[21.646,-0.8753,360.5287],[21.6179,-0.8772,354.4099],[21.6063,-0.8721,356.807],[21.5903,-0.8734,358.0203],[21.5906,-0.8852,338.9338],[21.5963,-0.9052,374.3471],[21.6016,-0.9089,347.9321],[21.6161,-0.9119,352.1556],[21.6119,-0.919,378.2873],[21.6154,-0.9339,388.5945],[21.6136,-0.9425,395.7723],[21.6151,-0.9477,381.2166],[21.6199,-0.9521,384.0961],[21.6318,-0.9568,359.1671],[21.6457,-0.9699,356.0707],[21.6477,-0.9759,358.6426],[21.6456,-0.9844,354.2392],[21.6469,-0.9859,356.6075],[21.6554,-0.9865,354.8591],[21.6613,-0.9891,357.7706],[21.6757,-1.0054,361.3024],[21.6821,-1.0098,360.9202],[21.6878,-1.0085,360.0089],[21.6995,-0.9975,351.4343],[21.7022,-0.9975,353.2827],[21.7083,-1.0085,358.2994],[21.7156,-1.0118,359.4061],[21.7234,-1.0061,361.9122],[21.7276,-0.9964,351.5253],[21.7335,-0.9935,367.1823],[21.7406,-0.994,364.0873],[21.7481,-0.997,363.9335],[21.7738,-1.0233,376.1761],[21.7841,-1.0256,404.6727],[21.7948,-1.0307,369.0284],[21.798,-1.0341,379.3812],[21.795,-1.0514,364.4265],[21.7975,-1.056,366.0939],[21.7996,-1.0562,365.2097],[21.8005,-1.0541,362.7206],[21.7997,-1.0469,368.1154],[21.8028,-1.0422,379.2919],[21.8057,-1.0436,377.5217],[21.8137,-1.053,367.5251],[21.8246,-1.061,368.9904],[21.8249,-1.0655,369.8131],[21.8075,-1.079,380.6238],[21.8218,-1.0908,378.844],[21.8172,-1.0997,357.7678],[21.7936,-1.1249,349.7379],[21.7842,-1.1405,354.2469],[21.7791,-1.1511,371.5358],[21.7629,-1.2114,373.9882],[21.7616,-1.2119,381.1913],[21.7623,-1.2137,376.2617],[21.765,-1.2184,372.9161],[21.7799,-1.2324,391.7151],[21.8129,-1.2605,380.8731],[21.8537,-1.2889,408.7747],[21.8673,-1.3016,423.6131],[21.8783,-1.3288,402.8535],[21.8856,-1.3583,417.3881],[21.8953,-1.3837,413.7072],[21.9198,-1.481,406.6468],[21.9209,-1.5003,415.6377],[21.9255,-1.5068,404.9712],[21.9307,-1.5032,443.0546],[21.9363,-1.5028,450.3553],[21.9527,-1.509,439.6761],[21.9788,-1.523,427.6349],[22.0491,-1.6099,441.8223],[22.0593,-1.6358,461.3513],[22.0726,-1.6575,463.7887],[22.082,-1.6669,488.02],[22.1025,-1.6801,470.8184],[22.1307,-1.7191,462.9767],[22.1402,-1.7297,447.8448],[22.1466,-1.7486,471.2921],[22.1489,-1.7699,437.1691],[22.1785,-1.7929,467.3834],[22.1954,-1.8109,484.6113],[22.2328,-1.8221,501.1432],[22.3988,-1.8822,418.0921],[22.4804,-1.9142,441.5757],[22.4927,-1.9168,429.3865],[22.498,-1.913,391.6627],[22.5061,-1.8985,414.8774],[22.5227,-1.8603,390.0912],[22.5738,-1.7664,398.715],[22.5775,-1.7614,404.5514],[22.5843,-1.7582,406.5094],[22.5896,-1.7508,422.0193]]]]}}