{"type": "Feature","bbox": [17.4995,-1.4798,18.871,-0.0225],"geometry": {"type": "MultiPolygon","coordinates": [[[[18.3947,-0.036,313.5185],[18.39,-0.0528,312.417],[18.3846,-0.0634,306.4192],[18.374,-0.0724,326.4625],[18.3603,-0.0925,322.3244],[18.3542,-0.1189,324.3835],[18.3601,-0.1488,325.5364],[18.3574,-0.1589,327.0175],[18.3411,-0.1767,331.9434],[18.3319,-0.1927,342.4604],[18.3283,-0.1959,333.6777],[18.2669,-0.234,326.8302],[18.2541,-0.2387,320.7087],[18.2439,-0.2448,324.6906],[18.2332,-0.2451,326.1624],[18.1827,-0.2371,322.4888],[18.1747,-0.2307,323.9494],[18.1584,-0.2274,318.8173],[18.1534,-0.2281,320.5577],[18.1374,-0.2241,318.1411],[18.118,-0.2148,315.0879],[18.1014,-0.1866,318.9142],[18.0945,-0.1919,312.7939],[18.0828,-0.2159,314.261],[18.0652,-0.242,314.7162],[18.0561,-0.2521,313.4205],[18.0382,-0.2639,318.1179],[17.9969,-0.3011,311.2631],[17.9919,-0.3092,305.663],[17.9825,-0.332,305.213],[17.9766,-0.3392,305.3045],[17.9559,-0.3544,320.6718],[17.9303,-0.3826,316.5823],[17.9148,-0.3958,300.1566],[17.8937,-0.4191,310.9786],[17.8821,-0.4254,309.1223],[17.8499,-0.4568,306.7428],[17.8322,-0.4785,299.8058],[17.819,-0.5153,307.3792],[17.8083,-0.5234,297.2348],[17.7791,-0.5555,298.1793],[17.7484,-0.5836,298.3196],[17.732,-0.5905,294.0],[17.7298,-0.5967,294.0],[17.73,-0.6059,298.8896],[17.7323,-0.6129,294.0],[17.7346,-0.6162,295.0263],[17.7417,-0.6187,305.4537],[17.7481,-0.6154,309.4286],[17.7639,-0.6137,309.6613],[17.7739,-0.6068,308.9846],[17.7887,-0.6065,309.1313],[17.7971,-0.6011,307.5193],[17.8009,-0.5901,299.3476],[17.8043,-0.5864,299.9477],[17.8087,-0.5882,306.3564],[17.8103,-0.5923,301.7296],[17.8079,-0.6084,304.833],[17.7901,-0.6448,310.7842],[17.7854,-0.6591,305.3711],[17.7856,-0.6655,316.8376],[17.7764,-0.7049,318.1673],[17.7306,-0.9477,336.252],[17.7164,-1.0488,326.2395],[17.7105,-1.0693,328.6271],[17.7016,-1.0861,317.1106],[17.6767,-1.1131,322.7148],[17.6524,-1.1346,314.3284],[17.5723,-1.1969,326.9329],[17.557,-1.2225,318.6631],[17.5438,-1.2724,343.572],[17.5455,-1.2857,328.285],[17.5442,-1.2977,321.0107],[17.5458,-1.3041,323.9431],[17.5437,-1.3296,329.7332],[17.5385,-1.3395,327.6171],[17.5251,-1.3509,329.2451],[17.5224,-1.358,334.3306],[17.5171,-1.3654,346.554],[17.5017,-1.4045,352.1349],[17.4995,-1.4266,351.5415],[17.4998,-1.4416,340.6703],[17.5064,-1.4798,331.7031],[17.5204,-1.4777,324.892],[17.5459,-1.4778,334.8222],[17.5543,-1.4753,320.6783],[17.5777,-1.4623,315.1546],[17.5909,-1.4576,339.3481],[17.6127,-1.4581,323.5045],[17.621,-1.4519,324.5537],[17.6328,-1.4476,325.8627],[17.7102,-1.4279,319.0515],[17.7186,-1.4229,320.2702],[17.7237,-1.4169,319.3427],[17.7321,-1.4115,319.8639],[17.8835,-1.3799,310.5075],[17.9104,-1.3763,306.3255],[18.0371,-1.2779,320.2425],[18.1202,-1.212,326.1195],[18.1275,-1.2044,335.2279],[18.1301,-1.1699,317.8328],[18.134,-1.16,316.437],[18.1309,-1.1126,339.3347],[18.1315,-1.1064,325.7026],[18.137,-1.1028,322.4621],[18.1562,-1.1036,323.7177],[18.1707,-1.1074,327.027],[18.1858,-1.1056,335.073],[18.2053,-1.1069,327.6557],[18.2453,-1.1148,326.0301],[18.2878,-1.1166,325.7464],[18.3148,-1.1197,325.7999],[18.3285,-1.123,330.6695],[18.3334,-1.126,326.5373],[18.3522,-1.1452,322.0665],[18.36,-1.1504,344.1011],[18.3749,-1.1556,333.3586],[18.3929,-1.173,336.6539],[18.406,-1.1804,337.8392],[18.4384,-1.1881,334.4058],[18.446,-1.1935,328.0558],[18.4523,-1.2061,333.707],[18.4746,-1.2315,325.0732],[18.4952,-1.2413,326.0521],[18.5134,-1.257,336.3865],[18.5223,-1.2608,319.9337],[18.5296,-1.2603,318.9172],[18.5412,-1.255,319.9839],[18.554,-1.2549,328.6306],[18.5662,-1.2603,317.8812],[18.5721,-1.2608,323.1081],[18.5844,-1.2554,314.3871],[18.5984,-1.2539,325.8941],[18.618,-1.2485,303.9332],[18.6414,-1.2364,311.2434],[18.6601,-1.234,315.0139],[18.6772,-1.2263,317.2463],[18.6973,-1.2213,320.7128],[18.7094,-1.2208,323.1634],[18.7263,-1.2229,333.0599],[18.7511,-1.2354,338.5952],[18.7611,-1.2363,326.433],[18.72,-1.183,315.861],[18.733,-1.144,320.6429],[18.745,-1.118,316.4364],[18.798,-1.144,319.1015],[18.83,-1.184,317.8888],[18.871,-1.166,318.0314],[18.869,-1.133,321.6628],[18.851,-1.078,330.9145],[18.818,-1.038,325.1541],[18.752,-1.023,330.3184],[18.743,-1.012,335.2134],[18.749,-0.935,355.8921],[18.769,-0.868,355.2867],[18.793,-0.822,368.414],[18.648,-0.729,372.387],[18.554,-0.672,341.2144],[18.491,-0.615,330.8332],[18.5159,-0.5834,332.9904],[18.5137,-0.563,339.8309],[18.5107,-0.5541,334.0625],[18.499,-0.5399,322.64],[18.4976,-0.5344,326.0111],[18.4985,-0.5107,330.5968],[18.4957,-0.4963,329.8781],[18.4895,-0.4892,329.1801],[18.4923,-0.4674,325.3302],[18.5312,-0.4088,324.0122],[18.5361,-0.3931,325.3295],[18.5337,-0.375,325.6151],[18.5297,-0.3596,324.8435],[18.5372,-0.3235,322.8026],[18.5544,-0.3048,321.4234],[18.5589,-0.2949,321.7798],[18.5584,-0.2876,321.7244],[18.5622,-0.2786,320.8343],[18.5666,-0.2563,306.5687],[18.5734,-0.2404,320.9245],[18.5669,-0.1986,323.4295],[18.5666,-0.18,312.1505],[18.5695,-0.1745,309.9342],[18.564,-0.1644,302.972],[18.569,-0.136,321.4338],[18.5702,-0.0762,307.4066],[18.5579,-0.0715,306.5299],[18.5386,-0.0581,318.6791],[18.5121,-0.0495,318.0672],[18.4866,-0.0283,318.755],[18.4823,-0.0293,323.061],[18.473,-0.044,316.2553],[18.4662,-0.0429,317.1336],[18.4614,-0.0391,318.4989],[18.4565,-0.0303,319.5299],[18.4515,-0.0279,321.749],[18.4216,-0.0225,317.1604],[18.3947,-0.036,313.5185]]]]}
,"properties": {"GID_2": "COD.2.3_1","GID_0": "COD","country": "DemocraticRepublicoftheCongo","GID_1": "COD.2_1","province": "Équateur","NL_NAME_1": "NA","county": "Bikoro","VARNAME_2": "NA","NL_NAME_2": "NA","TYPE_2": "Territoire","ENGTYPE_2": "Territory","CC_2": "NA","HASC_2": "NA","name": "Bikoro.county","area_km2": 11933.626,"hist_schema_id": "Elevation0-9000","hist_area_km2": {"300": 2178.374,"325": 7905.579,"350": 1737.652,"375": 111.321,"400": 0.7}}}