{"type": "Feature","bbox": [16.9631,-3.6704,19.0516,-2.2793],"geometry": {"type": "MultiPolygon","coordinates": [[[[18.8612,-3.6598,319.5],[18.8686,-3.6591,328.3062],[18.8839,-3.6608,337.985],[18.9039,-3.6704,340.3784],[18.909,-3.6441,330.3756],[18.9196,-3.6128999999999998,346.2216],[18.9259,-3.6019,357.8272],[18.9268,-3.5954,364.8705],[18.9256,-3.5892,381.7397],[18.914,-3.5681,387.3359],[18.9135,-3.5614,413.2715],[18.9271,-3.5457,434.2004],[18.9235,-3.5305,418.054],[18.9184,-3.5232,434.7518],[18.9111,-3.5168,386.7337],[18.9025,-3.5049,404.7261],[18.8848,-3.4912,394.5202],[18.867,-3.4709,347.5281],[18.8585,-3.4454,341.9624],[18.8582,-3.4314,342.5424],[18.8715,-3.399,339.1429],[18.8858,-3.378,379.3863],[18.911,-3.3557,350.8946],[18.9174,-3.3456,342.6682],[18.9207,-3.3357,328.8245],[18.9316,-3.3218,332.1128],[18.9526,-3.3005,321.6237],[18.9665,-3.2925,320.1138],[18.9913,-3.2721,325.9224],[18.9942,-3.2661,328.634],[18.9958,-3.2562,338.6937],[18.9945,-3.2454,334.1793],[18.9966,-3.241,333.6055],[18.9913,-3.2371,370.7243],[18.9787,-3.2377,349.886],[18.9575,-3.2238,338.8052],[18.9501,-3.2133,341.1316],[18.9464,-3.2126,347.5786],[18.9201,-3.2169,366.8975],[18.9142,-3.2218,365.4347],[18.9053,-3.2221,359.1031],[18.9012,-3.2286,350.5657],[18.8936,-3.2298,319.0049],[18.8863,-3.2222,355.8863],[18.8737,-3.2221,321.797],[18.8665,-3.2189,315.6908],[18.8571,-3.2061,355.3084],[18.8536,-3.1969,330.1853],[18.8533,-3.1882,320.3668],[18.8505,-3.185,325.8405],[18.8454,-3.1836,322.1957],[18.8456,-3.1774,322.8111],[18.8481,-3.1686,336.7189],[18.8723,-3.1333,366.4871],[18.8775,-3.1226,337.6949],[18.8894,-3.083,334.0717],[18.8948,-3.0735,358.8431],[18.9007,-3.0677,371.1021],[18.9146,-3.0612,389.585],[18.9336,-3.0551,387.021],[18.9582,-3.0441,364.1822],[18.9676,-3.0429,365.9403],[18.9815,-3.0361,363.6226],[18.9865,-3.0308,369.4599],[18.9966,-3.0015,337.3821],[19.0,-2.9957,343.8466],[19.0161,-2.9865,369.573],[19.0297,-2.9764,377.997],[19.038,-2.9654,354.2394],[19.0468,-2.948,386.6484],[19.0516,-2.9209,367.4484],[19.0514,-2.897,356.3708],[19.0494,-2.8787,366.0864],[19.0407,-2.8361,335.4031],[19.0313,-2.7671,357.1177],[19.0437,-2.7404,335.8643],[19.0442,-2.7331,330.1441],[19.0407,-2.708,330.1483],[19.0417,-2.693,334.2761],[19.03,-2.6582,327.1278],[19.0271,-2.6419,332.097],[19.0276,-2.609,316.4756],[19.0332,-2.5849,320.0796],[19.0416,-2.5661,319.8099],[19.0233,-2.5273,320.6636],[19.0118,-2.4973,312.9265],[19.0075,-2.4927,311.0786],[19.0,-2.4887,316.3715],[18.9772,-2.4793,321.7454],[18.9703,-2.4642,321.1191],[18.9613,-2.4567,320.2737],[18.9551,-2.4544,320.0793],[18.9494,-2.4542,321.3894],[18.9457,-2.4573,320.9525],[18.9315,-2.4553,322.2273],[18.9205,-2.4512,321.4498],[18.9113,-2.4409,320.7066],[18.8801,-2.437,320.569],[18.8767,-2.4361,318.7708],[18.8691,-2.4297,319.8659],[18.8581,-2.4289,317.808],[18.829,-2.4217,321.6362],[18.8189,-2.4172,318.5903],[18.8014,-2.427,315.8145],[18.7986,-2.432,319.9789],[18.792,-2.4312,321.2619],[18.7701,-2.4357,318.8707],[18.7352,-2.4578,320.4551],[18.7247,-2.4672,319.6715],[18.703,-2.4915,322.7141],[18.6781,-2.523,314.9454],[18.6702,-2.5247,314.2893],[18.6583,-2.5214,314.4183],[18.6474,-2.5211,312.7969],[18.635,-2.5278,329.8012],[18.6245,-2.5392,314.0007],[18.6145,-2.553,313.3773],[18.5944,-2.5713,306.9762],[18.5902,-2.5794,313.8551],[18.5848,-2.5854,313.0251],[18.5625,-2.5943,318.6526],[18.5533,-2.5942,316.0574],[18.5376,-2.5852,316.4642],[18.532,-2.5854,319.1597],[18.4964,-2.6044,316.4],[18.4834,-2.6139,329.4641],[18.4795,-2.6187,303.6297],[18.4782,-2.6252,314.9142],[18.4874,-2.65,297.0814],[18.4832,-2.6588,314.2848],[18.4578,-2.6765,308.6346],[18.452,-2.6774,333.4925],[18.4452,-2.674,343.1163],[18.4346,-2.6637,348.6299],[18.4276,-2.6509,312.9044],[18.4188,-2.6287,331.0404],[18.413,-2.5911,325.1558],[18.4106,-2.5879,343.8382],[18.402,-2.5838,345.1107],[18.3392,-2.5801,303.081],[18.3295,-2.5786,306.8806],[18.3239,-2.5744,312.9298],[18.2927,-2.5814,291.0],[18.2829,-2.5864,291.0],[18.2682,-2.5878,291.0],[18.2639,-2.5825,291.0],[18.2641,-2.5615,291.0],[18.2624,-2.5557,291.0],[18.2579,-2.5508,291.0],[18.2151,-2.5509,339.9354],[18.2082,-2.5453,341.8996],[18.1891,-2.5092,353.1383],[18.1785,-2.4845,350.2932],[18.1517,-2.4131,321.4492],[18.1483,-2.3845,331.5063],[18.1525,-2.3779,335.8969],[18.1576,-2.3738,333.1429],[18.1566,-2.3658,330.1824],[18.1519,-2.3551,317.4081],[18.1352,-2.3389,334.3691],[18.1115,-2.3381,341.8574],[18.1059,-2.3339,327.854],[18.0852,-2.3076,315.5372],[18.0773,-2.302,330.8016],[18.0477,-2.2891,312.7618],[18.0198,-2.2793,334.7606],[18.0043,-2.2805,321.0764],[17.9961,-2.2912,331.5471],[17.9856,-2.2987,340.0588],[17.9617,-2.303,307.93],[17.9504,-2.307,309.2764],[17.9412,-2.3217,314.0236],[17.9336,-2.3248,299.5372],[17.9266,-2.325,317.9339],[17.9221,-2.3226,325.7626],[17.9151,-2.3224,294.8753],[17.898,-2.3312,299.0562],[17.8906,-2.3314,313.5419],[17.8601,-2.3264,316.0693],[17.8563,-2.3333,311.3916],[17.8558,-2.3616,310.7467],[17.8529,-2.3837,299.3999],[17.8583,-2.3986,292.7346],[17.8494,-2.4012,303.8163],[17.8392,-2.4123,305.3437],[17.8321,-2.4142,306.3538],[17.8196,-2.4253,292.5646],[17.8153,-2.4363,297.0219],[17.8069,-2.4447,293.1838],[17.808,-2.4635,306.5199],[17.8057,-2.4739,293.3147],[17.8011,-2.4843,295.1414],[17.792,-2.4848,316.7392],[17.7872,-2.4871,298.8826],[17.7731,-2.5026,292.3796],[17.7631,-2.5059,292.2008],[17.7613,-2.5213,290.8369],[17.7354,-2.5856,291.0185],[17.7272,-2.6372,290.8515],[17.7212,-2.6507,306.6059],[17.7052,-2.6662,306.8647],[17.7128,-2.6966,304.3169],[17.7134,-2.7054,290.9896],[17.7105,-2.7128,289.5347],[17.7038,-2.7206,289.4839],[17.689,-2.7278,308.3911],[17.6713,-2.7256,294.3117],[17.6617,-2.7211,293.8118],[17.6538,-2.7139,290.7509],[17.6374,-2.6911,294.7939],[17.6004,-2.6916,311.1917],[17.595,-2.6976,329.2405],[17.5947,-2.7102,324.4077],[17.6088,-2.7498,303.6216],[17.6085,-2.7579,298.0813],[17.5986,-2.7761,300.6915],[17.5712,-2.8085,290.1555],[17.5634,-2.8134,290.0077],[17.5298,-2.8198,289.8148],[17.5205,-2.8268,289.771],[17.5001,-2.8342,290.3737],[17.4862,-2.8373,287.0],[17.4793,-2.8371,287.0],[17.466,-2.8286,288.8745],[17.463,-2.8291,287.0],[17.4598,-2.8321,289.7853],[17.4555,-2.8453,289.3893],[17.4517,-2.8497,289.3624],[17.4247,-2.8588,287.0],[17.4165,-2.8577,287.0],[17.4014,-2.8598,287.0],[17.3929,-2.8635,287.5609],[17.3802,-2.8756,289.0495],[17.3731,-2.88,289.0521],[17.3617,-2.8837,286.5],[17.3466,-2.8842,289.279],[17.3411,-2.8863,286.9023],[17.3347,-2.894,288.6707],[17.3333,-2.8981,288.6095],[17.3332,-2.9188,288.2863],[17.3289,-2.9313,288.6583],[17.2784,-2.986,287.5952],[17.2508,-3.003,285.5],[17.2272,-3.0003,287.8235],[17.224,-3.0034,286.2447],[17.2155,-3.0038,286.4216],[17.2048,-3.0069,285.0],[17.1961,-3.0127,284.5],[17.1861,-3.0155,284.5],[17.1797,-3.0142,287.6814],[17.1599,-2.9986,287.2569],[17.1406,-2.9886,284.0],[17.1064,-2.9777,284.0],[17.097,-2.9798,284.0],[17.0765,-2.9882,284.4744],[17.0705,-2.9921,284.6492],[17.0616,-2.9947,284.0],[17.0422,-2.9976,284.0],[17.0172,-2.997,284.0],[16.98,-3.0103,287.1359],[16.9761,-3.0098,284.8603],[16.9731,-3.0117,286.7683],[16.9711,-3.0163,286.1975],[16.9631,-3.0172,284.0],[16.9633,-3.0195,285.9413],[16.9723,-3.0243,285.6924],[16.9904,-3.0254,287.061],[16.9986,-3.0297,286.7817],[17.006,-3.0428,287.2521],[17.0141,-3.052,286.9544],[17.0191,-3.0538,287.9954],[17.0242,-3.0531,288.7717],[17.0257,-3.0505,289.9817],[17.0356,-3.0583,285.5],[17.0416,-3.0657,288.2543],[17.0432,-3.0714,287.8703],[17.0483,-3.0762,288.3737],[17.054,-3.0769,287.9747],[17.0591,-3.0821,288.4545],[17.0713,-3.0897,289.1491],[17.0798,-3.0982,288.4965],[17.0988,-3.1027,289.0288],[17.1005,-3.1114,289.4915],[17.1149,-3.1194,289.8495],[17.1205,-3.126,286.5],[17.1287,-3.1317,287.0],[17.1353,-3.1329,287.0],[17.1506,-3.1225,287.0],[17.1667,-3.1323,287.125],[17.169,-3.132,293.7155],[17.1734,-3.1391,292.7058],[17.1794,-3.1418,287.5],[17.1849,-3.1485,288.7611],[17.179,-3.1511,287.5],[17.1811,-3.1543,287.5],[17.1925,-3.1556,290.1144],[17.197,-3.1535,293.0225],[17.2224,-3.1735,288.0],[17.2275,-3.1732,288.0],[17.2391,-3.177,290.6912],[17.2812,-3.177,302.085],[17.2978,-3.1806,290.5],[17.306,-3.1774,290.5],[17.3101,-3.1773,290.5],[17.3108,-3.1838,293.0106],[17.3195,-3.1849,293.254],[17.3188,-3.1805,292.4986],[17.3204,-3.1803,291.4241],[17.3282,-3.1844,291.0],[17.331,-3.1837,291.0],[17.3386,-3.188,299.2043],[17.3427,-3.1926,294.6094],[17.3537,-3.1985,307.4682],[17.3663,-3.1978,302.4847],[17.3757,-3.1917,303.2746],[17.3929,-3.1965,309.9713],[17.3975,-3.1981,298.8437],[17.4,-3.2015,295.1602],[17.4016,-3.2084,306.8192],[17.4067,-3.2123,302.071],[17.4113,-3.2136,313.61],[17.42,-3.2118,303.4559],[17.4257,-3.2124,308.4032],[17.4301,-3.2156,295.3894],[17.4319,-3.2184,294.7631],[17.4315,-3.2278,303.7409],[17.4329,-3.2315,312.6406],[17.4423,-3.237,301.2552],[17.4637,-3.2456,297.7468],[17.4731,-3.2469,299.1255],[17.4848,-3.2547,300.8981],[17.4924,-3.2546,303.6822],[17.4992,-3.2507,307.6988],[17.5031,-3.2504,298.2399],[17.5272,-3.2623,315.3916],[17.5309,-3.2646,313.1395],[17.5572,-3.2936,306.6766],[17.5733,-3.3028,304.367],[17.5854,-3.3055,300.5573],[17.5971,-3.3059,302.4053],[17.6028,-3.3051,301.6097],[17.6147,-3.2993,300.8488],[17.6275,-3.2988,299.6215],[17.6333,-3.3008,300.6929],[17.6468,-3.3136,302.0618],[17.6569,-3.312,303.2164],[17.6611,-3.3133,303.6085],[17.6797,-3.3316,298.0],[17.6859,-3.3318,306.3523],[17.6927,-3.3274,306.2024],[17.6993,-3.3205,303.7068],[17.7046,-3.3189,306.4888],[17.711,-3.3193,306.7022],[17.7193,-3.3229,299.5649],[17.7396,-3.3458,304.8956],[17.7511,-3.3533,301.3697],[17.755,-3.3602,300.923],[17.7584,-3.363,302.4196],[17.7991,-3.3818,302.8237],[17.8193,-3.387,321.6035],[17.8228,-3.3918,311.8049],[17.8265,-3.4095,305.4572],[17.8325,-3.4182,311.5025],[17.8447,-3.4246,301.0],[17.8495,-3.4253,301.0],[17.8601,-3.4227,301.0],[17.8699,-3.4164,301.0],[17.8785,-3.4136,304.2645],[17.9026,-3.4125,313.3401],[17.9058,-3.4111,310.8349],[17.9154,-3.4125,301.5],[17.9205,-3.4104,301.5],[17.9282,-3.4101,301.5],[17.938,-3.4029,304.7332],[17.9525,-3.4026,301.5],[17.9575,-3.4,301.5],[17.9678,-3.3905,307.2004],[17.9918,-3.3823,302.0],[18.0,-3.3853,311.2084],[18.0131,-3.387,302.0],[18.0341,-3.3782,302.5],[18.0435,-3.3774,303.0],[18.0681,-3.3849,311.2491],[18.0851,-3.4032,303.5],[18.0941,-3.4047,304.0],[18.1092,-3.4021,312.0839],[18.1382,-3.4351,307.8342],[18.1511,-3.446,306.6973],[18.1566,-3.4472,305.5],[18.1662,-3.4411,305.5],[18.1692,-3.4356,305.5],[18.1712,-3.4257,308.2277],[18.1737,-3.4218,308.4328],[18.1789,-3.4185,308.5078],[18.1867,-3.4178,306.0],[18.194,-3.414,306.9875],[18.202,-3.4057,308.7839],[18.2086,-3.4027,306.8239],[18.2143,-3.4042,308.9312],[18.2269,-3.4032,308.808],[18.2416,-3.3995,309.2469],[18.2462,-3.4038,309.9516],[18.2488,-3.4153,308.1836],[18.2527,-3.4206,308.2498],[18.2628,-3.4242,309.5962],[18.2683,-3.4283,315.4165],[18.2755,-3.4457,319.3699],[18.2731,-3.4573,314.1291],[18.2816,-3.4586,308.8752],[18.294,-3.4682,308.5],[18.3011,-3.4698,316.3107],[18.3055,-3.4736,318.3278],[18.3097,-3.4833,314.4661],[18.3122,-3.4858,312.2643],[18.3218,-3.489,318.167],[18.3419,-3.499,313.206],[18.347,-3.5141,309.5],[18.3552,-3.5164,311.6832],[18.3569,-3.5223,310.0],[18.3631,-3.5306,311.4786],[18.3909,-3.5391,312.605],[18.3978,-3.5366,312.1292],[18.3982,-3.5382,312.2969],[18.3955,-3.5419,312.0006],[18.3925,-3.5433,312.2713],[18.3958,-3.5465,311.6129],[18.4038,-3.5448,312.5667],[18.4019,-3.5382,312.5442],[18.4033,-3.5368,312.4464],[18.4129,-3.5397,313.6363],[18.4251,-3.5523,313.0333],[18.4378,-3.5593,313.4377],[18.4378,-3.5665,313.5359],[18.4413,-3.5683,313.1041],[18.4479,-3.5636,313.1399],[18.4541,-3.5641,312.0],[18.4628,-3.5709,312.7458],[18.469,-3.5718,314.1698],[18.4814,-3.5779,312.5],[18.4874,-3.5744,312.5],[18.502,-3.5736,313.0],[18.511,-3.5777,313.0],[18.5245,-3.5797,314.4607],[18.5344,-3.5863,313.5],[18.542,-3.5854,313.5],[18.5473,-3.5774,314.9259],[18.5499,-3.5764,314.7425],[18.5525,-3.5834,313.5],[18.5653,-3.5833,314.9731],[18.5813,-3.5685,315.8003],[18.5872,-3.5673,316.0771],[18.604,-3.5709,322.1131],[18.6155,-3.5807,330.9781],[18.6185,-3.5867,315.8056],[18.63,-3.5875,315.0],[18.6422,-3.598,315.5],[18.6465,-3.5962,315.5],[18.658,-3.5952,316.6783],[18.6663,-3.5995,316.7532],[18.6741,-3.6089,316.8824],[18.6842,-3.6116,317.1734],[18.7118,-3.6236,316.5],[18.7152,-3.6233,316.5],[18.7211,-3.6159,316.5],[18.7262,-3.6149,317.0],[18.7368,-3.6216,318.4277],[18.745,-3.624,317.0],[18.7659,-3.6239,320.0053],[18.7709,-3.6255,322.2561],[18.7836,-3.6387,318.0],[18.7868,-3.6383,318.0],[18.7926,-3.6407,318.0],[18.7994,-3.64,318.0],[18.8054,-3.6439,319.786],[18.816,-3.6475,331.6752],[18.8284,-3.6483,333.1616],[18.833,-3.6508,329.7435],[18.8474,-3.6516,321.918],[18.8612,-3.6598,319.5]]]]}
,"properties": {"GID_2": "COD.16.6_1","GID_0": "COD","country": "DemocraticRepublicoftheCongo","GID_1": "COD.16_1","province": "Mai-Ndombe","NL_NAME_1": "NA","county": "Kutu","VARNAME_2": "NA","NL_NAME_2": "NA","TYPE_2": "Territoire","ENGTYPE_2": "Territory","CC_2": "NA","HASC_2": "NA","name": "Kutu.county","area_km2": 18672.96,"hist_schema_id": "Elevation0-9000","hist_area_km2": {"275": 57.7,"300": 3336.14,"325": 6672.34,"350": 5154.89,"375": 2529.73,"400": 738.54,"425": 142.87,"450": 37.95,"475": 2.79}}}