{"type": "Feature","bbox": [19.7431,3.2231,19.8189,3.3003],"geometry": {"type": "MultiPolygon","coordinates": [[[[19.799,3.2244,414.9471],[19.8138,3.238,416.3587],[19.8173,3.2502,425.8937],[19.8189,3.2596,402.7133],[19.8131,3.2828,426.853],[19.8077,3.2919,424.8219],[19.7993,3.2977,479.8727],[19.7839,3.3003,511.3354],[19.7736,3.2993,508.0393],[19.7521,3.287,529.6898],[19.7438,3.2706,513.4066],[19.7431,3.257,401.8846],[19.7476,3.2406,385.3572],[19.7553,3.2302,413.0247],[19.7675,3.226,395.4704],[19.789,3.2231,416.8314],[19.799,3.2244,414.9471]]]]}
,"properties": {"GID_2": "COD.23.3_1","GID_0": "COD","country": "DemocraticRepublicoftheCongo","GID_1": "COD.23_1","province": "Sud-Ubangi","NL_NAME_1": "NA","county": "Gemena(ville)","VARNAME_2": "NA","NL_NAME_2": "NA","TYPE_2": "Ville","ENGTYPE_2": "Town","CC_2": "NA","HASC_2": "NA","name": "Gemena(ville).county","area_km2": 57.21676,"hist_schema_id": "Elevation0-9000","hist_area_km2": {"375": 1.50295,"400": 24.11027,"425": 19.79206,"450": 4.44525,"475": 2.18024,"500": 3.06926,"525": 2.11673}}}