{"type":"Feature","properties":{"GID_2":"COD.6.2_1","GID_0":"COD","country":"DemocraticRepublicoftheCongo","GID_1":"COD.6_1","province":"Ituri","NL_NAME_1":"NA","county":"Aru","VARNAME_2":"NA","NL_NAME_2":"NA","TYPE_2":"Territoire","ENGTYPE_2":"Territory","CC_2":"NA","HASC_2":"NA","name":"Aru.county"},
"geometry":{"type": "MultiPolygon","coordinates": [[[[30.1847,2.5843,1289.046],[30.1942,2.5728,1259.2427],[30.1871,2.5558,1192.3312],[30.1765,2.5467,1198.1118],[30.1648,2.5306,1187.985],[30.1548,2.5211,1168.8177],[30.1497,2.5127,1189.6663],[30.1444,2.5115,1165.6105],[30.1454,2.5072,1163.9891],[30.1569,2.4963,1172.7356],[30.1581,2.4896,1170.9857],[30.1688,2.4808,1200.9056],[30.1709,2.4755,1182.4205],[30.1691,2.4679,1176.4705],[30.1726,2.4617,1186.3701],[30.1779,2.4588,1195.5173],[30.1823,2.4593,1209.0637],[30.1971,2.4654,1183.5933],[30.2024,2.4655,1213.3311],[30.2139,2.4497,1214.3459],[30.236,2.4429,1272.0945],[30.2439,2.4365,1309.5667],[30.2545,2.4311,1322.0367],[30.2573,2.4384,1317.8478],[30.2662,2.4416,1350.7488],[30.2742,2.4657,1353.3162],[30.2917,2.4685,1351.512],[30.3065,2.4589,1379.5399],[30.3179,2.4412,1384.7386],[30.3181,2.4043,1399.3628],[30.3084,2.3884,1458.53],[30.3094,2.3806,1410.2668],[30.3359,2.3827,1340.6211],[30.3846,2.3944,1267.5789],[30.3873,2.3974,1229.838],[30.3886,2.4098,1233.947],[30.3958,2.4175,1222.5876],[30.4025,2.4369,1216.7131],[30.4017,2.4486,1220.3436],[30.3949,2.4628,1231.7051],[30.3925,2.4727,1201.7109],[30.3956,2.4826,1202.4756],[30.4015,2.4884,1208.6816],[30.4072,2.4915,1207.7273],[30.4108,2.4965,1199.0386],[30.4175,2.513,1196.5839],[30.4254,2.517,1196.2805],[30.4221,2.5275,1188.166],[30.4292,2.5524,1196.9624],[30.4272,2.5644,1188.4631],[30.429,2.572,1201.6949],[30.4407,2.59,1173.6499],[30.4426,2.5988,1163.1116],[30.435,2.6284,1146.9631],[30.438,2.6638,1115.4108],[30.43,2.6867,1112.1392],[30.4276,2.7175,1099.4465],[30.4254,2.7245,1098.8121],[30.4136,2.7392,1087.3789],[30.4118,2.7434,1078.7621],[30.4112,2.7542,1074.7949],[30.4079,2.7606,1176.6248],[30.3948,2.7703,1063.238],[30.3876,2.7788,1041.431],[30.382,2.7898,1045.6066],[30.3818,2.7977,1036.3113],[30.3876,2.8181,1024.4148],[30.3866,2.8222,1025.5566],[30.3795,2.8315,1027.9207],[30.3778,2.8375,1022.2517],[30.3709,2.8418,1017.3319],[30.3673,2.8496,1019.7638],[30.3652,2.8599,1016.8832],[30.3515,2.8558,1017.0795],[30.3397,2.8565,1024.5898],[30.3224,2.8744,1010.5189],[30.3307,2.8871,1016.3578],[30.3509,2.8915,1019.281],[30.3654,2.8897,1024.3451],[30.3905,2.8468,1030.3899],[30.3984,2.8302,1061.1812],[30.4127,2.8222,1058.9053],[30.4284,2.8199,1074.7256],[30.4372,2.8142,1097.4702],[30.4515,2.7922,1094.3228],[30.461,2.7713,1157.5653],[30.4741,2.7346,1170.1055],[30.4814,2.7269,1185.8427],[30.494,2.7235,1225.8738],[30.5295,2.7292,1266.9734],[30.5354,2.7269,1302.0114],[30.5488,2.7103,1258.4069],[30.5625,2.7126,1226.9465],[30.5722,2.7301,1202.1702],[30.5817,2.7585,1196.7461],[30.6013,2.7716,1221.0227],[30.6079,2.7738,1218.8962],[30.6235,2.7714,1242.9292],[30.6423,2.759,1248.8784],[30.6432,2.7513,1267.4175],[30.6403,2.7443,1270.0393],[30.6258,2.7434,1274.4268],[30.6209,2.7213,1252.1526],[30.6172,2.7162,1235.2251],[30.6067,2.7119,1263.4233],[30.5994,2.706,1251.4857],[30.6011,2.6859,1287.1956],[30.6069,2.6739,1299.6234],[30.6196,2.6697,1308.9701],[30.6331,2.6776,1306.7512],[30.6611,2.7142,1300.4568],[30.6712,2.7449,1272.7325],[30.6793,2.7492,1283.708],[30.6931,2.7462,1271.1057],[30.7044,2.7354,1293.0884],[30.7153,2.7216,1332.5515],[30.7269,2.7139,1414.1558],[30.7329,2.7213,1465.3999],[30.7418,2.7268,1357.6595],[30.7523,2.7288,1394.5369],[30.7644,2.7176,1383.6451],[30.7839,2.6914,1508.306],[30.8004,2.6853,1516.854],[30.8092,2.7078,1506.9929],[30.8083,2.7089,1498.8112],[30.8139,2.7135,1510.4321],[30.8136,2.7155,1492.144],[30.8186,2.7169,1516.8401],[30.8191,2.7195,1516.4784],[30.8221,2.7204,1502.9561],[30.8234,2.7274,1488.1501],[30.8266,2.7294,1498.7302],[30.8223,2.7385,1495.2172],[30.829,2.756,1460.9548],[30.8363,2.7665,1461.3386],[30.848,2.773,1469.5952],[30.8533,2.7804,1466.473],[30.827,2.7992,1378.6813],[30.8083,2.8307,1323.2751],[30.8121,2.8333,1316.4034],[30.8229,2.8484,1350.7148],[30.8101,2.9062,1323.9358],[30.8692,2.905,1331.0225],[30.8699,2.9107,1326.5973],[30.8665,2.912,1322.1909],[30.8654,2.9148,1329.2168],[30.8649,2.9186,1322.0493],[30.8669,2.9224,1316.894],[30.8628,2.9263,1318.5397],[30.8582,2.9279,1324.322],[30.8575,2.93,1322.062],[30.8606,2.9343,1317.3688],[30.8545,2.9412,1314.4816],[30.8534,2.9516,1312.6426],[30.8561,2.9543,1306.7245],[30.858,2.9619,1301.7573],[30.8383,2.9739,1296.9227],[30.8325,2.984,1290.9728],[30.8255,2.989,1299.5347],[30.824,2.9916,1303.033],[30.8253,3.0013,1307.8313],[30.8226,3.0044,1290.0336],[30.817,3.0085,1283.6416],[30.8086,3.0056,1279.8171],[30.8022,3.0071,1281.3865],[30.7918,3.0176,1286.2042],[30.7807,3.0229,1298.1948],[30.7778,3.0269,1295.7085],[30.778,3.0368,1295.6953],[30.7692,3.0455,1302.0944],[30.768,3.0522,1297.4763],[30.7721,3.0551,1297.7471],[30.775,3.06,1293.1271],[30.7849,3.0639,1278.6326],[30.7905,3.0637,1288.6768],[30.7944,3.0694,1282.3059],[30.7931,3.0756,1274.64],[30.7935,3.0954,1275.5687],[30.7994,3.1045,1277.3965],[30.7998,3.122,1270.3129],[30.8022,3.127,1275.9231],[30.8021,3.1357,1269.759],[30.8091,3.1427,1264.5968],[30.8097,3.1617,1258.98],[30.8148,3.1769,1266.8882],[30.822,3.19,1257.6936],[30.8246,3.1983,1253.7551],[30.8297,3.2045,1271.4541],[30.8267,3.218,1262.2198],[30.8297,3.2274,1254.4553],[30.8359,3.2361,1246.9968],[30.8411,3.2394,1259.0671],[30.8414,3.2431,1267.2839],[30.8362,3.2513,1266.2367],[30.8383,3.2636,1249.2334],[30.842,3.27,1248.592],[30.8459,3.27,1249.5651],[30.8563,3.2752,1248.592],[30.8652,3.2764,1237.2319],[30.8707,3.2808,1257.9982],[30.8665,3.2863,1247.6536],[30.8752,3.2952,1229.4812],[30.8735,3.3022,1249.417],[30.875,3.3064,1241.1339],[30.8761,3.3077,1243.6375],[30.8822,3.305,1248.6654],[30.885,3.311,1245.7173],[30.887,3.316,1236.2892],[30.887,3.33,1238.9697],[30.89,3.34,1238.606],[30.9105,3.3654,1251.3445],[30.9117,3.3688,1253.7539],[30.918,3.3731,1251.2438],[30.917,3.385,1258.5427],[30.9187,3.3887,1257.5942],[30.9241,3.3917,1241.5205],[30.9378,3.4046,1254.9266],[30.9375,3.4279,1245.0305],[30.935,3.4444,1254.3486],[30.9372,3.458,1241.5532],[30.9367,3.4628,1236.4399],[30.9413,3.4655,1251.8174],[30.943,3.4687,1256.6016],[30.9413,3.4842,1268.3455],[30.9374,3.4959,1272.0979],[30.94,3.5025,1266.2222],[30.936,3.5095,1256.5505],[30.9299,3.508,1262.6893],[30.9116,3.5087,1243.4729],[30.9035,3.5037,1241.9994],[30.897,3.502,1242.7615],[30.8791,3.4888,1230.6155],[30.8784,3.4842,1233.9891],[30.8768,3.4852,1230.2268],[30.8724,3.4826,1207.9735],[30.862,3.481,1205.8638],[30.8536,3.4864,1207.0879],[30.8474,3.4975,1217.3732],[30.8461,3.5083,1226.0745],[30.85,3.5238,1241.8535],[30.8602,3.5467,1252.089],[30.8621,3.554,1297.0214],[30.862,3.5631,1290.9189],[30.857,3.569,1278.4417],[30.8143,3.5799,1216.4941],[30.8072,3.5834,1209.9614],[30.7993,3.5904,1205.5746],[30.7909,3.6033,1194.7943],[30.786,3.621,1211.2866],[30.786,3.648,1189.2087],[30.784,3.657,1189.9092],[30.778,3.669,1204.6365],[30.7713,3.6747,1214.4296],[30.761,3.672,1192.5181],[30.755,3.666,1167.1111],[30.746,3.6378,1187.5549],[30.7346,3.6243,1184.0122],[30.7275,3.6217,1185.2487],[30.719,3.6206,1183.0782],[30.6975,3.6275,1198.1292],[30.6869,3.634,1207.3773],[30.674,3.637,1226.8693],[30.667,3.636,1201.512],[30.6226,3.6069,1190.0559],[30.5919,3.5943,1160.832],[30.5733,3.5921,1184.2214],[30.559,3.596,1199.8766],[30.541,3.5949,1153.4913],[30.4927,3.579,1137.9539],[30.4557,3.5591,1134.0134],[30.4511,3.5612,1136.2177],[30.4314,3.5621,1115.127],[30.418,3.5514,1113.7891],[30.4084,3.5462,1098.1904],[30.4015,3.5463,1093.7109],[30.3912,3.5495,1081.0099],[30.3832,3.5487,1064.97],[30.3761,3.5456,1058.6676],[30.3722,3.5403,1042.3169],[30.3705,3.5336,1033.4611],[30.3757,3.5141,1059.0148],[30.376,3.5065,1034.2347],[30.3743,3.5016,1025.4407],[30.3848,3.4771,1038.9204],[30.3949,3.4569,1051.8519],[30.4023,3.4464,1056.4327],[30.41,3.4398,1065.8882],[30.4231,3.4327,1057.9414],[30.4217,3.4212,1060.8896],[30.4172,3.4126,1058.158],[30.4117,3.4091,1059.5005],[30.4063,3.3978,1073.5647],[30.4009,3.3924,1075.6544],[30.3963,3.3958,1059.9294],[30.3779,3.4011,998.3132],[30.3668,3.4075,995.9234],[30.3692,3.381,994.7516],[30.3681,3.3571,989.7033],[30.3547,3.3231,981.5611],[30.3505,3.3226,980.1246],[30.3421,3.3166,964.5645],[30.337,3.3048,952.5814],[30.3427,3.3021,958.0069],[30.3465,3.292,953.4448],[30.3459,3.2846,962.3999],[30.3424,3.2749,966.5197],[30.3429,3.2678,963.5591],[30.3534,3.2484,989.2816],[30.3561,3.2346,997.6479],[30.3591,3.2295,996.5011],[30.3517,3.218,1078.2731],[30.3337,3.1976,1061.0912],[30.292,3.1641,989.1639],[30.2802,3.152,1019.1261],[30.2609,3.1258,1008.6277],[30.2497,3.1073,1013.9916],[30.2341,3.0881,961.7361],[30.1702,3.0537,970.0901],[30.1396,3.0254,942.1067],[30.145,3.0112,952.489],[30.1515,3.0052,962.7744],[30.1593,3.0026,966.4153],[30.1612,2.9991,962.3428],[30.1622,2.9886,966.3916],[30.1719,2.9641,981.3253],[30.1751,2.9471,984.5022],[30.2063,2.9228,1026.5754],[30.1887,2.9046,1021.0306],[30.167,2.903,1004.4084],[30.146,2.9073,983.5033],[30.1299,2.9063,990.1205],[30.1169,2.8981,981.2752],[30.1132,2.8923,981.6408],[30.1119,2.882,987.1576],[30.1147,2.8746,976.1576],[30.1211,2.8791,969.7612],[30.1286,2.8794,970.97],[30.1433,2.875,986.6899],[30.1554,2.8781,974.9937],[30.1662,2.8782,982.2026],[30.1892,2.8716,993.6722],[30.1942,2.8714,989.3508],[30.1964,2.8831,998.8335],[30.1986,2.8855,990.9113],[30.2012,2.8855,1000.5002],[30.2107,2.8769,994.353],[30.2088,2.8447,1025.3411],[30.2137,2.8245,1011.4557],[30.205,2.8163,1027.2556],[30.1803,2.82,1032.6411],[30.1605,2.8177,1012.9174],[30.1518,2.8127,1006.6002],[30.1486,2.8024,1019.1996],[30.1609,2.7892,1014.6078],[30.177,2.7825,1019.9335],[30.1856,2.7681,1038.8091],[30.1793,2.7371,1075.084],[30.1853,2.7099,1130.8762],[30.1964,2.7006,1130.6863],[30.2086,2.6693,1191.8572],[30.2133,2.6045,1258.8467],[30.2083,2.593,1260.3099],[30.1847,2.5843,1289.046]],
[[30.7147,3.1273,1257.0087],[30.7114,3.1242,1263.988],[30.7053,3.125,1265.9592],[30.6992,3.128,1272.1482],[30.6949,3.1334,1257.0291],[30.6946,3.1407,1239.6036],[30.6967,3.1453,1254.5],[30.708,3.1489,1265.1592],[30.7153,3.1472,1258.3369],[30.719,3.1394,1243.1108],[30.7187,3.1352,1257.6108],[30.7147,3.1273,1257.0087]],
[[30.7756,3.3769,1197.0743],[30.7607,3.378,1198.4827],[30.7491,3.3892,1188.3839],[30.7444,3.4014,1207.2937],[30.7463,3.4131,1201.0482],[30.764,3.4203,1190.6523],[30.7709,3.4211,1189.3815],[30.7798,3.4198,1186.5076],[30.7884,3.4142,1183.6962],[30.7914,3.4086,1187.3108],[30.7917,3.3944,1174.9561],[30.7848,3.3833,1191.3546],[30.7756,3.3769,1197.0743]]]]}}