{"type": "Feature","bbox": [23.6389,-6.4122,24.1748,-5.7418],"geometry": {"type": "MultiPolygon","coordinates": [[[[23.6726,-6.1581,514.1019],[23.6868,-6.1581,579.658],[23.6987,-6.1894,566.3381],[23.7125,-6.2005,582.871],[23.7356,-6.2052,607.8946],[23.7553,-6.2165,580.1541],[23.7835,-6.2189,547.5011],[23.7913,-6.2222,530.3105],[23.7982,-6.2401,532.8559],[23.8164,-6.2447,535.3447],[23.8235,-6.2385,579.1779],[23.8265,-6.2389,573.0443],[23.832,-6.2445,534.5415],[23.8403,-6.2442,538.1418],[23.843,-6.2477,533.5],[23.8352,-6.2597,535.2285],[23.829,-6.2638,534.5],[23.8168,-6.2658,582.3499],[23.8111,-6.2865,540.8438],[23.8016,-6.2978,597.2935],[23.8044,-6.3104,536.2605],[23.8085,-6.3136,538.0912],[23.8159,-6.3127,545.887],[23.8248,-6.3171,572.2457],[23.8315,-6.3291,539.4571],[23.843,-6.3413,537.0],[23.8444,-6.347,540.2427],[23.8425,-6.3633,540.938],[23.8432,-6.3695,538.0],[23.8489,-6.3759,544.3378],[23.8466,-6.3833,544.329],[23.8492,-6.3884,539.0504],[23.8551,-6.3935,543.0042],[23.862,-6.3905,548.1854],[23.8767,-6.391,556.3938],[23.8816,-6.385,553.3437],[23.8963,-6.3887,544.886],[23.9046,-6.3866,549.8277],[23.9066,-6.3885,547.1329],[23.9094,-6.3988,546.518],[23.9073,-6.403,546.6884],[23.9126,-6.4046,546.9103],[23.917,-6.4082,553.843],[23.9234,-6.4083,591.7731],[23.9273,-6.4103,566.7526],[23.9271,-6.4064,598.5966],[23.9285,-6.4048,612.3203],[23.9351,-6.4103,554.4577],[23.9402,-6.4122,556.3284],[23.9487,-6.4062,614.8261],[23.9659,-6.3996,567.8522],[23.9701,-6.4003,566.8823],[23.9749,-6.3959,593.6889],[23.9799,-6.3996,570.4175],[23.9845,-6.3996,572.595],[23.9905,-6.3934,586.4761],[24.0165,-6.395,587.5358],[24.0216,-6.3874,584.7278],[24.0379,-6.3895,589.7591],[24.0427,-6.3855,599.4717],[24.0482,-6.3852,598.2265],[24.0565,-6.3793,607.2444],[24.0657,-6.3798,601.2772],[24.0676,-6.3749,610.3243],[24.0765,-6.369,608.6906],[24.0762,-6.3626,616.1729],[24.0833,-6.3586,623.4973],[24.0882,-6.3598,614.7718],[24.0914,-6.355,623.1019],[24.077,-6.3368,717.7709],[24.0202,-6.3053,825.8712],[24.0093,-6.3014,818.5865],[24.0041,-6.2965,853.1046],[24.0008,-6.2892,915.6549],[24.0012,-6.2762,905.2167],[24.0053,-6.2293,872.2302],[24.008,-6.2175,833.9572],[24.0295,-6.2097,865.7739],[24.0366,-6.2056,847.6459],[24.0581,-6.2085,831.9659],[24.0612,-6.2062,835.7168],[24.0658,-6.1954,825.9509],[24.0759,-6.1954,808.2783],[24.0814,-6.1894,800.7736],[24.0858,-6.1892,827.4885],[24.0904,-6.1914,824.4695],[24.0954,-6.1891,868.2863],[24.1003,-6.1928,849.7987],[24.1079,-6.1926,862.2167],[24.114,-6.1769,836.7413],[24.1392,-6.1459,821.0949],[24.1405,-6.1411,824.4856],[24.1391,-6.1362,806.9454],[24.1398,-6.1289,822.7701],[24.1428,-6.1259,796.6597],[24.1557,-6.1197,791.2209],[24.1623,-6.114,787.2017],[24.1662,-6.113,775.0197],[24.1727,-6.1071,772.8582],[24.1748,-6.1029,779.9208],[24.1683,-6.088,731.9602],[24.1633,-6.0852,743.8965],[24.161,-6.0751,730.8615],[24.1548,-6.0645,795.0821],[24.1516,-6.0622,787.551],[24.1454,-6.0624,811.6396],[24.1398,-6.0659,783.1169],[24.1304,-6.0631,773.035],[24.1189,-6.0654,741.8477],[24.1169,-6.0587,708.0417],[24.1118,-6.0514,749.1058],[24.1063,-6.0486,704.8381],[24.0955,-6.0488,726.502],[24.0884,-6.0548,707.5552],[24.0803,-6.0553,667.2831],[24.076,-6.0573,664.2616],[24.0714,-6.0569,662.3177],[24.062,-6.049,698.4064],[24.0578,-6.0373,626.6135],[24.0558,-6.0359,612.8658],[24.0523,-6.0355,610.7776],[24.0413,-6.0398,601.1879],[24.03,-6.0398,593.6594],[24.0245,-6.0373,612.4387],[24.0165,-6.0288,593.1444],[24.0087,-6.0246,584.5493],[23.9965,-6.0304,578.618],[23.9923,-6.0287,574.5976],[23.9896,-6.0255,576.5483],[23.9974,-6.0212,583.2242],[24.0026,-6.0062,673.7477],[24.0078,-5.9797,673.0612],[24.0152,-5.9613,684.6826],[24.0152,-5.9522,693.1677],[24.0113,-5.9464,657.652],[24.005,-5.9426,682.2729],[23.9815,-5.9433,678.3302],[23.9763,-5.9392,685.4484],[23.9705,-5.8861,689.6432],[23.9689,-5.8802,665.9094],[23.9645,-5.8772,675.3407],[23.9597,-5.8687,636.0008],[23.9564,-5.853,646.1006],[23.9612,-5.845,644.7013],[23.9576,-5.8409,670.4736],[23.9559,-5.8324,608.6446],[23.9556,-5.8231,571.0356],[23.9575,-5.816,635.721],[23.947,-5.8194,583.2643],[23.9451,-5.827,603.9053],[23.9396,-5.8266,606.2228],[23.9357,-5.8307,609.1583],[23.9359,-5.8344,595.7067],[23.93,-5.8408,601.3893],[23.9153,-5.8442,641.5875],[23.9116,-5.8491,591.1498],[23.9063,-5.8456,594.2495],[23.9038,-5.8495,597.117],[23.8996,-5.8488,597.5833],[23.901,-5.8456,569.7719],[23.8996,-5.8231,615.1364],[23.8918,-5.8194,630.9627],[23.8806,-5.8044,633.6979],[23.873,-5.801,612.9198],[23.8571,-5.8007,674.5397],[23.8477,-5.7982,687.0226],[23.8376,-5.7925,680.0317],[23.8366,-5.796,717.7188],[23.8274,-5.7996,710.1883],[23.8256,-5.793,700.1387],[23.8288,-5.779,671.0909],[23.8336,-5.7718,690.0539],[23.8366,-5.7707,717.7192],[23.837,-5.7631,718.7506],[23.84,-5.7599,716.0762],[23.8434,-5.7592,696.5798],[23.8441,-5.7534,664.5376],[23.8482,-5.7484,725.4557],[23.8434,-5.7483,694.329],[23.8329,-5.742,668.244],[23.8237,-5.7418,669.2296],[23.8124,-5.7443,689.2327],[23.8069,-5.7482,669.0291],[23.7968,-5.7519,677.1017],[23.7858,-5.762,627.7737],[23.7805,-5.7611,654.191],[23.7715,-5.77,611.4758],[23.7655,-5.7797,545.7189],[23.7621,-5.7788,503.5819],[23.7598,-5.7748,536.7335],[23.7506,-5.7746,508.8902],[23.7412,-5.7698,487.9815],[23.7366,-5.7631,511.0735],[23.721,-5.764,478.5145],[23.7186,-5.7679,472.5842],[23.7244,-5.7725,454.0],[23.7251,-5.7748,459.4174],[23.7221,-5.7801,486.0167],[23.7184,-5.7799,534.8838],[23.7161,-5.7842,594.2944],[23.7074,-5.7872,537.1797],[23.7065,-5.7929,512.4519],[23.7108,-5.7985,456.5],[23.7097,-5.8008,485.9572],[23.7037,-5.8012,572.2913],[23.6973,-5.8047,475.6208],[23.6945,-5.8081,485.5179],[23.6957,-5.8272,477.1257],[23.6917,-5.8366,498.651],[23.6924,-5.8417,484.1605],[23.7002,-5.8532,479.0617],[23.7041,-5.8564,483.2648],[23.7078,-5.8658,488.2689],[23.7138,-5.8702,464.3537],[23.7202,-5.8707,459.0],[23.7324,-5.8797,491.7702],[23.734,-5.8792,459.0],[23.7351,-5.8818,476.0813],[23.7289,-5.8916,469.7136],[23.7305,-5.8944,474.8432],[23.7477,-5.8935,459.5],[23.7505,-5.8972,467.1199],[23.7571,-5.914,475.5887],[23.7539,-5.9193,501.2333],[23.7489,-5.9227,473.7692],[23.7477,-5.9275,488.0627],[23.7493,-5.9388,505.0191],[23.7486,-5.9452,488.856],[23.7507,-5.9505,486.84],[23.7562,-5.9544,465.2171],[23.764,-5.9551,463.2655],[23.7668,-5.9584,469.1458],[23.7672,-5.9625,484.6915],[23.7621,-5.9694,535.8021],[23.7596,-5.9763,487.9481],[23.7541,-5.9797,485.0641],[23.7504,-5.9866,487.0039],[23.7369,-5.9953,498.0725],[23.7364,-5.9977,488.662],[23.7389,-6.0034,487.1412],[23.743,-6.008,484.663],[23.7443,-6.0159,485.9953],[23.7485,-6.0216,512.2912],[23.7465,-6.0311,522.3869],[23.7373,-6.0358,493.5478],[23.7299,-6.0324,490.2582],[23.726,-6.0365,493.811],[23.7217,-6.0363,501.3383],[23.7155,-6.0303,499.3722],[23.7086,-6.0291,499.9704],[23.7076,-6.0308,499.9264],[23.7114,-6.0456,501.0599],[23.7096,-6.048,504.7955],[23.7044,-6.0473,501.5014],[23.7023,-6.0486,502.2047],[23.704,-6.0581,507.7635],[23.7008,-6.0618,502.7706],[23.6984,-6.0704,501.2122],[23.6908,-6.0788,505.7731],[23.6989,-6.0953,505.9422],[23.6961,-6.1004,504.6199],[23.6931,-6.1006,518.3322],[23.692,-6.0965,504.6026],[23.6892,-6.0953,505.5661],[23.686,-6.0969,504.6018],[23.6732,-6.0966,507.3122],[23.6682,-6.0987,505.5923],[23.6689,-6.1023,506.0941],[23.6825,-6.1089,509.2643],[23.6839,-6.1133,507.0754],[23.6816,-6.1176,509.3251],[23.6752,-6.1233,529.1548],[23.6701,-6.1238,563.3496],[23.6678,-6.1217,567.2502],[23.6683,-6.1197,548.2441],[23.6717,-6.1181,509.3502],[23.6694,-6.116,508.1075],[23.6609,-6.1157,541.3231],[23.6509,-6.1386,518.6548],[23.6483,-6.1373,527.2173],[23.6466,-6.1304,510.0253],[23.6446,-6.1285,509.4768],[23.642,-6.13,510.6151],[23.6389,-6.1369,513.1391],[23.6395,-6.1402,512.4496],[23.6452,-6.1414,526.7623],[23.6408,-6.1438,511.5133],[23.6413,-6.1465,512.5887],[23.6482,-6.1516,521.6964],[23.6613,-6.1495,556.0313],[23.6672,-6.1501,519.2617],[23.6726,-6.1581,514.1019]]]]}
,"properties": {"GID_2": "COD.8.2_1","GID_0": "COD","country": "DemocraticRepublicoftheCongo","GID_1": "COD.8_1","province": "Kasaï-Oriental","NL_NAME_1": "NA","county": "Katanda","VARNAME_2": "NA","NL_NAME_2": "NA","TYPE_2": "Territoire","ENGTYPE_2": "Territory","CC_2": "NA","HASC_2": "NA","name": "Katanda.county","area_km2": 2172.824,"hist_schema_id": "Elevation0-9000","hist_area_km2": {"450": 10.124,"475": 69.111,"500": 103.606,"525": 179.595,"550": 321.923,"575": 284.645,"600": 270.021,"625": 170.104,"650": 147.96,"675": 100.088,"700": 72.962,"725": 67.54,"750": 71.544,"775": 75.739,"800": 92.413,"825": 61.887,"850": 30.331,"875": 19.876,"900": 18.927,"925": 4.426}}}