{"type":"Feature","properties":{"GID_1":"COD.1_1","GID_0":"COD","country":"DemocraticRepublicoftheCongo","province":"Bas-Uele","VARNAME_1":"NA","NL_NAME_1":"NA","TYPE_1":"Province","ENGTYPE_1":"Province","CC_1":"NA","HASC_1":"CD.BU","ISO_1":"NA","name":"Bas-Uele.province"},
"geometry":{"type": "MultiPolygon","coordinates": [[[[23.5429,2.4456,489.1386],[23.5473,2.4357,526.447],[23.5669,2.4162,521.3742],[23.5726,2.3962,518.1144],[23.5696,2.377,528.5212],[23.5815,2.3404,539.5192],[23.5844,2.3381,546.3503],[23.5852,2.3227,508.3814],[23.6064,2.2901,480.0366],[23.6071,2.286,478.994],[23.6037,2.2837,465.3185],[23.6033,2.2802,431.9056],[23.6117,2.2543,464.6057],[23.6103,2.249,462.5938],[23.6053,2.242,466.078],[23.6016,2.2199,461.7741],[23.6028,2.2096,435.2422],[23.594,2.1911,417.9633],[23.6189,2.192,421.5969],[23.637,2.1901,413.3231],[23.6486,2.1914,398.6249],[23.6649,2.1888,403.0172],[23.6802,2.1813,401.2703],[23.6981,2.1761,404.2318],[23.7123,2.1644,428.6671],[23.7224,2.1606,403.6675],[23.7316,2.1509,410.0646],[23.7566,2.137,420.0703],[23.7665,2.1283,429.7968],[23.7738,2.1252,447.3481],[23.7997,2.1239,443.5513],[23.8241,2.1287,450.3951],[23.8447,2.1288,442.8185],[23.8669,2.1268,455.1424],[23.8763,2.1243,452.0771],[23.8827,2.1202,425.1211],[23.8903,2.1083,451.5792],[23.8931,2.0989,433.8748],[23.8996,2.0876,454.1204],[23.9039,2.0844,454.3812],[23.914,2.0824,480.2073],[23.92,2.0781,494.971],[23.9305,2.0793,490.6296],[23.9463,2.0757,494.2646],[23.9602,2.0774,482.4107],[23.9616,2.0788,482.4995],[23.9627,2.0873,476.482],[23.9715,2.0977,516.495],[23.9749,2.112,513.1422],[23.9785,2.1141,514.5016],[23.9879,2.1155,521.6548],[24.0007,2.1245,528.5441],[24.0121,2.1278,522.5607],[24.024,2.124,527.5948],[24.0322,2.1242,561.0095],[24.0406,2.1342,551.2291],[24.0475,2.1365,566.5524],[24.0585,2.1347,555.1928],[24.0857,2.1543,529.8716],[24.0689,2.1708,548.9535],[24.0608,2.1761,564.5871],[24.0574,2.1848,563.9819],[24.058,2.1971,564.5948],[24.0638,2.2024,560.8423],[24.0656,2.2064,550.6],[24.0581,2.2071,548.7103],[24.0598,2.2106,540.1555],[24.0755,2.2158,525.6477],[24.0946,2.2075,527.6855],[24.1044,2.2057,510.5554],[24.1154,2.2097,546.5059],[24.1612,2.2195,574.5687],[24.1722,2.22,587.152],[24.1955,2.2287,581.4731],[24.2024,2.2369,571.929],[24.2036,2.245,572.2291],[24.2153,2.2602,568.6461],[24.2246,2.2637,570.1272],[24.2732,2.26,566.9714],[24.3046,2.2762,573.5466],[24.3104,2.2808,585.8148],[24.3196,2.2808,585.9266],[24.337,2.2749,571.0824],[24.3474,2.2608,582.8529],[24.3566,2.2432,582.8701],[24.3647,2.2397,578.6365],[24.41,2.2594,583.1956],[24.425,2.2593,573.0362],[24.4401,2.2698,542.672],[24.4483,2.2814,534.3721],[24.4575,2.2826,498.8386],[24.8445,2.2634,460.1588],[24.8616,2.2642,443.9167],[24.8637,2.2663,445.0539],[24.8612,2.2755,438.8363],[24.8635,2.2806,438.7398],[24.8666,2.2827,433.9605],[24.8696,2.2792,438.7083],[24.877,2.2756,447.4553],[24.8795,2.2708,445.3601],[24.8793,2.262,443.6107],[24.8873,2.254,436.9034],[24.8915,2.2441,439.5373],[24.897,2.24,439.942],[24.8995,2.2416,440.7517],[24.9025,2.2494,430.5189],[24.9057,2.2495,430.6829],[24.9123,2.2566,447.8975],[24.9187,2.2585,444.7421],[24.9225,2.2649,444.9381],[24.9259,2.2663,435.6196],[24.934,2.2608,433.2737],[24.9417,2.2609,446.692],[24.9488,2.2655,431.8925],[24.9509,2.2644,436.736],[24.953,2.2568,438.4098],[24.95,2.2508,438.2609],[24.9526,2.2471,441.6937],[24.9564,2.2471,442.6973],[24.9599,2.2492,450.4031],[24.9605,2.2568,438.4043],[24.9623,2.2598,451.3099],[24.9655,2.2603,450.5052],[24.9717,2.2534,459.7375],[24.9747,2.2525,446.2387],[24.9788,2.2571,448.0129],[24.9861,2.2601,451.6735],[24.9898,2.2595,443.144],[24.9937,2.2551,440.7629],[24.9992,2.2581,445.12],[25.006,2.2575,442.1239],[25.0126,2.2655,451.7174],[25.0149,2.2644,457.4803],[25.0179,2.2566,452.8455],[25.0232,2.2543,455.4378],[25.0234,2.2591,451.138],[25.0259,2.2624,442.7407],[25.0284,2.261,445.0599],[25.0323,2.2518,455.458],[25.0346,2.25,452.0028],[25.0367,2.2509,455.8593],[25.0394,2.256,460.519],[25.0417,2.2555,451.9155],[25.0447,2.2479,453.0176],[25.0465,2.2473,451.809],[25.0493,2.2486,457.0909],[25.0506,2.2546,458.8438],[25.0529,2.2572,455.4155],[25.0591,2.2567,457.1703],[25.0634,2.2538,465.4768],[25.0683,2.2391,457.752],[25.0717,2.2377,457.9405],[25.0825,2.2253,448.6393],[25.0867,2.2246,455.0608],[25.0908,2.2203,468.9085],[25.094,2.2196,449.5315],[25.0956,2.2178,447.7122],[25.0965,2.2106,470.162],[25.0988,2.2088,466.9835],[25.1071,2.2091,455.4865],[25.1123,2.2111,463.0793],[25.1189,2.2277,461.0028],[25.123,2.2314,458.083],[25.1225,2.2347,456.4911],[25.1259,2.2478,451.7386],[25.1295,2.2529,462.2505],[25.138,2.2563,457.5094],[25.1496,2.2647,457.8416],[25.1556,2.2654,459.114],[25.1642,2.2739,456.5669],[25.1717,2.2914,468.0955],[25.177,2.2935,463.2142],[25.1827,2.3002,458.9759],[25.1881,2.3021,470.3839],[25.192,2.3065,466.6245],[25.2114,2.3082,469.6687],[25.2492,2.2894,472.9251],[25.2632,2.2892,489.0874],[25.2827,2.2794,489.3057],[25.2859,2.279,469.1182],[25.295,2.2831,477.9149],[25.3053,2.2846,472.7059],[25.3119,2.283,473.2311],[25.3179,2.277,472.8798],[25.3277,2.2741,480.0201],[25.3332,2.275,473.5191],[25.3387,2.2702,468.3046],[25.3401,2.2654,474.1],[25.3466,2.2571,471.5056],[25.3468,2.2518,474.4863],[25.3532,2.2442,475.2457],[25.3619,2.2383,476.0665],[25.37,2.2372,471.2377],[25.3816,2.2291,473.4086],[25.3846,2.2241,479.66],[25.3977,2.2216,470.5603],[25.4025,2.2182,479.3214],[25.4128,2.2166,473.9651],[25.4155,2.2143,484.2405],[25.413,2.2092,477.1163],[25.4153,2.2067,484.7579],[25.4263,2.2061,476.9655],[25.4364,2.1992,496.82],[25.4513,2.1986,487.9645],[25.4568,2.2006,486.0627],[25.4627,2.1997,487.2648],[25.465699999999998,2.2016,487.9759],[25.4716,2.2018,488.4206],[25.4783,2.1991,487.6325],[25.4888,2.1998,485.4271],[25.4977,2.1964,485.3536],[25.5069,2.1953,485.2117],[25.5119,2.1912,489.0065],[25.5199,2.1778,489.1416],[25.5275,2.174,485.5683],[25.5408,2.1724,492.15],[25.5463,2.1749,498.7549],[25.5648,2.1771,482.1989],[25.5696,2.175,512.5298],[25.5842,2.1774,495.3652],[25.5874,2.1753,522.5254],[25.5934,2.1765,500.8835],[25.602,2.1744,540.0316],[25.607,2.1677,567.6176],[25.624,2.173,579.8641],[25.6419,2.1732,563.3687],[25.6598,2.1785,601.1713],[25.6931,2.1993,563.2032],[25.7289,2.2252,543.2126],[25.7405,2.2266,547.2873],[25.7622,2.2581,560.8369],[25.7776,2.2646,588.5659],[25.7923,2.2743,571.8177],[25.807,2.2783,588.7118],[25.8205,2.2644,605.031],[25.8403,2.2652,593.563],[25.8499,2.2627,575.322],[25.864,2.2539,554.4881],[25.88,2.2515,561.8644],[25.8941,2.2555,572.2646],[25.9161,2.2188,529.6005],[25.9214,2.2152,536.6898],[25.9315,2.2159,532.1101],[25.9532,2.204,554.2091],[25.9582,2.2029,568.1758],[25.9658,2.2082,585.7903],[25.9676,2.2114,581.9179],[25.966,2.2169,568.4175],[25.971,2.2236,574.4688],[25.9717,2.23,568.5249],[25.9794,2.239,566.8523],[25.9851,2.2579,546.9005],[25.9905,2.2701,568.1169],[26.0127,2.2771,593.3914],[26.0164,2.2762,586.2978],[26.0264,2.2776,592.0559],[26.0394,2.2848,589.3796],[26.0536,2.2855,609.8398],[26.0696,2.2807,609.3419],[26.0875,2.2791,640.7867],[26.1051,2.284,615.4612],[26.1119,2.2879,624.5454],[26.114,2.2916,633.4267],[26.1121,2.2971,627.1378],[26.1135,2.3008,628.9296],[26.1276,2.3124,636.6973],[26.1372,2.3151,633.1199],[26.1464,2.3239,649.8253],[26.1537,2.3276,634.0437],[26.1651,2.3295,641.3773],[26.1718,2.3233,641.2191],[26.175,2.3226,633.2144],[26.1901,2.3127,638.0418],[26.1931,2.3125,637.1234],[26.1969,2.3227,643.5887],[26.2042,2.3277,652.1673],[26.2131,2.3383,653.4733],[26.2177,2.3416,654.3027],[26.246,2.3436,664.6748],[26.2566,2.3479,657.5953],[26.2622,2.3574,667.2144],[26.2713,2.3626,656.981],[26.3169,2.3644,692.9288],[26.3266,2.3181,706.1085],[26.3266,2.3055,688.353],[26.3183,2.2962,674.8918],[26.3132,2.27,655.9325],[26.3132,2.25,635.2982],[26.3288,2.2392,610.7027],[26.3299,2.2256,580.3289],[26.3278,2.2161,617.4433],[26.3164,2.21,536.0026],[26.3254,2.135,501.8572],[26.3241,2.1209,514.0795],[26.3259,2.117,516.6669],[26.3312,2.1171,504.9601],[26.3308,2.1078,515.3696],[26.3333,2.1067,505.8734],[26.3365,2.0993,512.4313],[26.3422,2.0945,502.613],[26.3418,2.0878,493.4155],[26.3562,2.0685,507.7559],[26.3687,2.0631,511.0048],[26.3978,2.0594,518.5305],[26.4248,2.0653,531.5563],[26.4352,2.0851,599.4332],[26.4752,2.1157,604.3684],[26.4825,2.113,608.5464],[26.4862,2.1008,590.8247],[26.4956,2.0513,575.4622],[26.5039,2.0469,571.8312],[26.564,2.0504,551.4373],[26.5843,2.0532,575.3883],[26.5999,2.0677,580.013],[26.604,2.095,604.0219],[26.5998,2.1014,591.032],[26.5972,2.1103,604.9245],[26.6026,2.1163,610.0269],[26.6149,2.1206,615.5317],[26.6221,2.1204,631.5936],[26.6266,2.1104,604.4547],[26.6263,2.0967,601.106],[26.6422,2.1025,590.153],[26.7191,2.174,652.1223],[26.7455,2.1931,611.2136],[26.7638,2.1938,570.2484],[26.7695,2.1919,547.4598],[26.7747,2.1789,547.7593],[26.7729,2.1671,544.6462],[26.775,2.1563,568.5171],[26.7805,2.1499,564.3444],[26.7888,2.1487,595.3157],[26.7966,2.1386,535.5447],[26.8008,2.1294,555.1882],[26.8091,2.1274,534.64],[26.8154,2.1304,538.0059],[26.8213,2.1445,532.0586],[26.8262,2.15,535.2009],[26.8369,2.1506,525.3301],[26.8471,2.1494,530.9671],[26.8554,2.1456,526.486],[26.8593,2.146,529.641],[26.8645,2.1528,530.5195],[26.8686,2.1643,505.8743],[26.8689,2.1731,513.655],[26.8817,2.1701,523.8155],[26.8863,2.1593,544.2645],[26.8936,2.1494,528.5781],[26.8934,2.1411,529.9401],[26.895,2.1363,528.4481],[26.8978,2.1333,523.9146],[26.9019,2.1331,528.312],[26.9014,2.1276,526.0358],[26.9069,2.1251,511.2086],[26.9106,2.1175,511.6356],[26.9159,2.1172,517.5735],[26.9232,2.0943,504.0876],[26.928,2.0956,505.4319],[26.9294,2.092,500.6534],[26.9274,2.0853,504.982],[26.931,2.0851,504.8863],[26.9319,2.0805,504.7076],[26.9299,2.0738,525.4974],[26.9265,2.0713,522.7858],[26.9285,2.063,506.4019],[26.9354,2.0577,502.961],[26.9365,2.0549,499.5228],[26.9345,2.0515,499.6119],[26.9386,2.0464,504.274],[26.937,2.0423,497.0887],[26.9414,2.0271,493.5001],[26.9377,2.0209,498.3781],[26.94,2.017,497.4089],[26.9371,2.0135,502.562],[26.9366,2.0075,499.6721],[26.9421,1.9981,517.0495],[26.9458,1.9956,500.2574],[26.9513,1.9947,497.9729],[26.9527,1.9889,496.3853],[26.9565,1.9892,497.0238],[26.9595,1.9857,494.242],[26.9618,1.9859,498.7678],[26.9664,1.98,494.2418],[26.9707,1.9788,494.1132],[26.9746,1.971,494.4473],[26.9783,1.9678,489.7217],[26.9826,1.9671,506.4101],[26.9849,1.9632,492.6878],[26.9826,1.9579,495.9383],[26.984,1.9552,499.5576],[26.9996,1.9547,501.1742],[27.0078,1.9453,494.3395],[27.0151,1.9465,511.9548],[27.0286,1.9529,498.263],[27.0316,1.9449,494.9628],[27.0348,1.9414,495.2716],[27.044,1.9412,513.036],[27.0451,1.9552,506.2982],[27.0403,1.9589,508.2314],[27.0354,1.9677,505.1275],[27.0361,1.9748,513.394],[27.0418,1.9838,498.0237],[27.0432,2.0109,503.6259],[27.0457,2.0169,510.3716],[27.0523,2.0234,521.9642],[27.0518,2.0316,496.3802],[27.0568,2.0471,527.3522],[27.0561,2.053,493.1921],[27.0593,2.0625,516.5632],[27.0586,2.0678,522.5935],[27.0554,2.0714,528.416],[27.0536,2.0823,527.5636],[27.0549,2.0961,541.5297],[27.0538,2.1158,504.8304],[27.0558,2.1221,522.371],[27.072,2.1361,510.8734],[27.0759,2.1373,546.8611],[27.083,2.1348,555.0674],[27.085,2.1364,539.2305],[27.0871,2.1465,551.7087],[27.0917,2.1504,669.2205],[27.0949,2.1592,648.2916],[27.1024,2.1578,653.1964],[27.1042,2.1589,657.4695],[27.1065,2.1649,660.7989],[27.1095,2.1661,663.5145],[27.1115,2.1638,672.0756],[27.114,2.1654,688.7261],[27.1216,2.1852,672.2847],[27.1213,2.1976,676.8696],[27.1261,2.2034,681.6655],[27.1261,2.2197,694.6726],[27.1286,2.2225,679.1066],[27.1336,2.2241,692.5659],[27.1637,2.2867,683.0955],[27.1713,2.2909,682.6198],[27.1779,2.29,685.8405],[27.1885,2.328,721.9117],[27.1911,2.3519,737.8846],[27.1883,2.3601,721.5779],[27.1666,2.3751,725.6002],[27.1531,2.3898,722.2267],[27.1519,2.3944,721.0968],[27.1451,2.4052,713.0907],[27.1371,2.4068,719.3843],[27.1451,2.4116,739.7985],[27.1514,2.4188,699.7148],[27.1576,2.419,717.9399],[27.1601,2.4172,710.7496],[27.1608,2.4142,700.4889],[27.1643,2.414,701.0825],[27.167,2.4407,716.5743],[27.1603,2.4545,717.5372],[27.1525,2.4779,720.7054],[27.1484,2.4844,719.1351],[27.149,2.5439,742.6897],[27.1442,2.5631,767.6523],[27.1355,2.5755,740.3054],[27.13,2.5688,731.0522],[27.113,2.5685,722.579],[27.1101,2.5701,718.6967],[27.1018,2.5651,733.1645],[27.0957,2.5664,711.1577],[27.0556,2.562,716.6768],[27.0426,2.5624,699.4316],[27.0332,2.5657,701.4042],[27.0257,2.5564,729.5732],[27.0181,2.5373,724.5424],[27.0138,2.5353,715.2472],[27.0019,2.5336,715.9318],[26.9953,2.5343,702.8356],[26.9898,2.5322,697.4741],[26.985,2.5329,699.6342],[26.9804,2.5368,712.5501],[26.9731,2.535,721.7047],[26.9561,2.5386,682.6595],[26.9495,2.5368,696.5516],[26.942,2.5379,667.4645],[26.9381,2.5374,665.1883],[26.9289,2.5305,672.7155],[26.9196,2.5289,649.9332],[26.9157,2.5294,661.7228],[26.9015,2.5365,667.5455],[26.8932,2.5348,644.1789],[26.9033,2.55,649.7723],[26.9097,2.571,667.2751],[26.9101,2.5887,659.9542],[26.9192,2.6021,661.7163],[26.9313,2.612,680.4977],[26.935,2.6189,675.6381],[26.9318,2.6272,679.356],[26.9333,2.6405,701.3201],[26.9363,2.6426,726.5668],[26.9411,2.6431,713.4127],[26.9454,2.6465,715.7518],[26.9555,2.6477,728.5292],[26.9624,2.6514,721.7449],[26.9635,2.6546,698.8676],[26.9566,2.6728,720.6201],[26.958,2.679,720.0754],[26.9708,2.6896,718.4741],[26.9756,2.7014,734.1254],[26.9785,2.7039,737.6545],[26.987,2.7044,722.7572],[26.9948,2.6961,707.2103],[27.0039,2.703,717.3652],[26.9992,2.7136,725.2646],[27.0001,2.7217,743.9048],[27.0105,2.7259,742.1113],[27.0376,2.7216,710.5709],[27.0452,2.7224,703.0529],[27.0721,2.7466,738.5229],[27.0887,2.7666,747.7256],[27.0977,2.7731,735.5496],[27.1118,2.7952,704.7684],[27.1187,2.8093,723.1306],[27.1209,2.8198,708.2537],[27.1248,2.8284,714.4283],[27.1275,2.847,728.142],[27.1227,2.8558,677.8279],[27.1264,2.8638,680.6888],[27.1277,2.8806,670.4093],[27.1323,2.8958,670.3942],[27.1346,2.9029,673.0535],[27.1396,2.9103,668.1221],[27.1423,2.9066,663.5515],[27.1542,2.8988,659.5443],[27.1634,2.8958,699.0725],[27.1694,2.8848,663.8763],[27.1733,2.8848,667.2299],[27.1765,2.8869,671.6166],[27.1813,2.883,671.3945],[27.1827,2.8738,670.5239],[27.1856,2.871,670.8446],[27.1966,2.8717,666.4698],[27.2177,2.8593,668.6646],[27.2232,2.854,671.7814],[27.2323,2.8517,676.0892],[27.2468,2.8439,677.786],[27.2525,2.8377,691.5091],[27.2612,2.8202,695.9088],[27.2695,2.815,680.1866],[27.272,2.8078,695.9806],[27.286,2.7878,699.3213],[27.3045,2.7766,687.3285],[27.3201,2.7596,691.1986],[27.3274,2.7538,687.1392],[27.3442,2.7492,700.8725],[27.3731,2.7363,703.2677],[27.384,2.7366,706.6469],[27.3949,2.7498,710.5456],[27.4244,2.759,750.5396],[27.44,2.7683,722.7079],[27.4609,2.7612,741.494],[27.4751,2.7826,730.4279],[27.4879,2.7891,763.8043],[27.504,2.7888,733.0188],[27.5064,2.7907,719.6901],[27.505,2.8017,732.5667],[27.4997,2.8076,742.3288],[27.4997,2.8152,744.1564],[27.5073,2.817,732.8578],[27.5182,2.8164,739.244],[27.5187,2.8308,727.4197],[27.5225,2.8417,733.6921],[27.5286,2.8474,762.5497],[27.5367,2.8506,746.3735],[27.5666,2.8309,736.6393],[27.5946,2.8195,751.0988],[27.6046,2.8188,760.8882],[27.6079,2.826,741.3412],[27.6036,2.8409,722.5089],[27.6026,2.8596,720.196],[27.6107,2.8647,719.0923],[27.6232,2.8625,722.2193],[27.6373,2.8638,725.659],[27.6444,2.8675,743.5084],[27.6558,2.8798,727.3962],[27.6609,2.8956,721.0034],[27.6609,2.9128,734.032],[27.6381,2.9276,734.0974],[27.5882,2.9418,721.7197],[27.552,2.9584,711.2787],[27.5536,2.9655,712.7612],[27.5531,2.9722,720.1934],[27.5467,2.9837,715.8112],[27.5458,2.9897,702.577],[27.5574,2.9927,713.6179],[27.5682,2.9922,723.6401],[27.5785,2.9849,717.9363],[27.6735,3.0132,746.3123],[27.6906,3.0561,744.6673],[27.7048,3.0722,738.9703],[27.7057,3.0798,740.5087],[27.6924,3.0829,728.001],[27.663,3.0738,747.0305],[27.6478,3.0779,751.9805],[27.6601,3.1026,749.0173],[27.6467,3.1421,732.4735],[27.6486,3.1564,744.2784],[27.6562,3.1707,749.5738],[27.6609,3.186,720.879],[27.6551,3.2474,734.9058],[27.6655,3.2769,723.5677],[27.6619,3.2925,705.3111],[27.6577,3.3028,705.0115],[27.6453,3.2986,718.6151],[27.6362,3.3048,711.0355],[27.6295,3.3067,694.8048],[27.627,3.3115,675.9385],[27.6245,3.3127,660.0626],[27.6163,3.312,661.0607],[27.6119,3.3039,686.7103],[27.6089,3.3041,686.0331],[27.5989,3.3099,681.546],[27.5924,3.3177,661.4714],[27.5904,3.3159,681.3622],[27.5881,3.303,703.9276],[27.5808,3.2938,700.4565],[27.5643,3.2912,727.5812],[27.5586,3.2967,698.2222],[27.5531,3.2891,728.0181],[27.551,3.2896,728.0367],[27.5487,3.2958,713.4305],[27.5451,3.2965,694.3463],[27.5377,3.2894,709.8046],[27.5288,3.2873,700.7412],[27.5263,3.2891,699.8419],[27.5235,3.296,678.5092],[27.5178,3.299,692.5868],[27.5059,3.299,688.7828],[27.4997,3.293,700.6967],[27.494,3.2928,695.7423],[27.491,3.29,700.1935],[27.4899,3.2803,684.5034],[27.4871,3.2829,670.8554],[27.4832,3.2833,674.9152],[27.48,3.2783,691.1132],[27.4764,3.278,697.8864],[27.4732,3.2801,718.1617],[27.4716,3.2849,687.9001],[27.4732,3.2967,689.1216],[27.4709,3.3015,688.7639],[27.467,3.3059,675.3909],[27.4624,3.3066,672.0993],[27.456,3.3033,680.5266],[27.4612,3.2994,683.3519],[27.4622,3.295,683.5768],[27.4601,3.2886,694.701],[27.4571,3.2865,692.1284],[27.4436,3.2849,706.9498],[27.4372,3.2819,697.0112],[27.4255,3.2842,703.2784],[27.4219,3.2828,707.6616],[27.4212,3.28,707.7968],[27.4253,3.2642,711.0089],[27.4249,3.2575,704.8486],[27.421,3.2529,726.1381],[27.4114,3.2513,710.5325],[27.404,3.2575,710.6127],[27.4033,3.2623,701.0149],[27.4054,3.2701,709.8163],[27.4038,3.274,701.7682],[27.3953,3.2713,694.0612],[27.3839,3.2644,680.3102],[27.383,3.2618,677.7817],[27.3846,3.2584,678.0311],[27.3921,3.2538,681.5973],[27.3935,3.2494,692.0002],[27.3915,3.2459,679.7893],[27.3816,3.2489,694.558],[27.3773,3.2471,699.2623],[27.3727,3.2519,690.8014],[27.3647,3.2494,718.5887],[27.361,3.2459,726.9587],[27.3583,3.2349,689.3221],[27.3525,3.2298,706.7191],[27.3409,3.2293,707.0419],[27.3329,3.2217,704.4138],[27.3303,3.2243,707.0537],[27.3287,3.2312,697.2974],[27.3294,3.2369,692.1219],[27.3269,3.2401,707.3312],[27.318,3.2387,693.9744],[27.3134,3.2341,696.1537],[27.3093,3.2256,680.7655],[27.3003,3.2272,676.0834],[27.2882,3.2711,668.1231],[27.2834,3.2788,682.2661],[27.2739,3.2828,678.6586],[27.2587,3.2773,679.5181],[27.2464,3.2775,680.3515],[27.2435,3.2967,678.1691],[27.2539,3.3205,664.747],[27.2729,3.3317,697.9899],[27.2861,3.3727,696.6547],[27.2851,3.4005,703.2363],[27.2803,3.413,699.8715],[27.2945,3.4271,705.4795],[27.2983,3.451,725.6465],[27.3135,3.4575,730.6266],[27.3191,3.4785,724.2674],[27.3371,3.505,734.225],[27.3674,3.539,735.6237],[27.374,3.5485,743.9618],[27.3692,3.5763,716.9327],[27.3673,3.6233,705.9719],[27.3625,3.6301,704.8619],[27.3463,3.6409,719.136],[27.3312,3.643,712.8311],[27.3274,3.646,719.0635],[27.3216,3.6547,699.1133],[27.3339,3.6966,695.6313],[27.3329,3.7129,699.299],[27.3424,3.7316,681.764],[27.3385,3.7399,678.5539],[27.3366,3.7551,666.9677],[27.3343,3.7553,663.6622],[27.329,3.7813,652.0496],[27.3226,3.7946,650.6943],[27.3173,3.8004,650.7654],[27.3102,3.814,652.2379],[27.3033,3.8209,656.0917],[27.2953,3.8349,644.0],[27.288,3.8441,648.6241],[27.2763,3.8517,652.3881],[27.2545,3.8567,664.8723],[27.2565,3.8701,668.3846],[27.2597,3.8733,652.8356],[27.2774,3.8793,663.2511],[27.2707,3.8986,657.6315],[27.265,3.9078,649.8867],[27.2583,3.9143,646.4721],[27.2562,3.9228,647.8005],[27.256,3.937,655.1744],[27.2507,3.9451,652.7231],[27.2326,3.957,654.7294],[27.2271,3.9679,674.2243],[27.2236,3.9872,678.217],[27.2241,3.9957,667.2806],[27.2275,4.0003,660.3015],[27.2293,4.0109,655.2463],[27.2245,4.0217,670.4034],[27.222,4.0224,665.6562],[27.2201,4.0298,663.4022],[27.2236,4.0364,663.7144],[27.221,4.0475,661.5382],[27.218,4.0507,666.9526],[27.2084,4.0514,661.1812],[27.2009,4.0544,656.9797],[27.1976,4.059,659.0602],[27.1912,4.079,666.5593],[27.1983,4.1057,667.1871],[27.2008,4.1216,670.9962],[27.2136,4.1347,681.8862],[27.2152,4.1449,670.4396],[27.2145,4.1518,679.1935],[27.2291,4.2024,691.1321],[27.2261,4.2148,694.4846],[27.2279,4.2218,702.2988],[27.2323,4.2248,700.7748],[27.2405,4.2248,700.8265],[27.2395,4.2619,695.5062],[27.2409,4.3117,706.8727],[27.2465,4.331,698.592],[27.2655,4.3664,717.2016],[27.2647,4.4058,695.8818],[27.2669,4.4178,712.7092],[27.2918,4.4513,710.1498],[27.2943,4.4551,712.2855],[27.2947,4.4595,721.628],[27.2922,4.4647,724.7626],[27.281,4.4709,709.199],[27.2728,4.4706,712.4776],[27.2556,4.4616,698.2057],[27.2173,4.4584,686.7607],[27.2102,4.4519,678.5754],[27.1944,4.4441,671.6301],[27.1884,4.4445,665.1475],[27.1811,4.4491,659.8425],[27.1719,4.4516,663.0306],[27.1643,4.4514,661.5645],[27.1552,4.4553,664.3259],[27.1453,4.467,653.854],[27.1375,4.4686,652.6229],[27.1327,4.4716,655.847],[27.112,4.4741,652.0472],[27.09,4.4828,659.7449],[27.0779,4.4819,643.4205],[27.0719,4.4879,637.0096],[27.0402,4.5074,646.9144],[27.0375,4.5049,640.711],[27.0338,4.5049,638.0491],[27.0308,4.5019,630.6829],[27.0168,4.511,646.0503],[27.006,4.5113,650.0718],[26.995,4.5071,637.5278],[26.9888,4.5066,626.742],[26.9808,4.5098,628.5483],[26.9696,4.5066,629.4872],[26.9599,4.51,633.0035],[26.9698,4.5377,651.4797],[26.97,4.5476,669.1327],[26.9727,4.5531,673.4855],[26.9805,4.5621,665.0863],[26.9793,4.569,658.7848],[26.972,4.5757,667.9753],[26.9683,4.5849,680.2706],[26.9704,4.5927,660.7444],[26.9763,4.5975,682.7123],[26.9811,4.6042,706.9271],[26.9814,4.6245,764.6782],[26.9767,4.636,724.7177],[26.9811,4.6415,714.3762],[26.9941,4.6516,675.958],[27.0026,4.6682,672.9692],[27.0138,4.6763,676.2221],[27.025,4.6876,669.6454],[27.0278,4.6931,662.7902],[27.0275,4.6973,672.2297],[27.0172,4.718,659.0558],[27.0062,4.7352,658.9878],[26.9889,4.7522,659.8797],[26.9774,4.7849,636.2603],[26.9838,4.7884,642.0375],[26.9971,4.7891,657.808],[27.0024,4.7865,643.8614],[27.0107,4.787,636.7288],[27.0304,4.7972,649.1596],[27.0354,4.7972,654.4578],[27.0464,4.8179,672.2989],[27.0468,4.8384,661.2396],[27.0391,4.8452,703.3207],[27.0136,4.8527,686.6049],[26.9988,4.8642,680.7076],[26.9888,4.8848,686.5886],[26.9869,4.9207,673.4387],[26.9823,4.9376,683.4138],[26.9575,4.9651,690.2126],[26.9504,4.9757999999999996,687.9688],[26.9653,4.9887,638.1303],[26.9661,4.9948,658.8042],[26.9562,4.9943,634.2552],[26.947,4.9973,650.1804],[26.9443,5.0023,642.2432],[26.9293,5.0108,630.24],[26.9289,5.0249,649.6925],[26.9314,5.034,659.3256],[26.9409,5.0437,629.171],[26.9413,5.0485,632.2244],[26.9365,5.0579,652.5808],[26.9364,5.0815,678.1732],[26.9444,5.0876,662.1355],[26.965,5.0927,679.1825],[26.9807,5.0921,696.2009],[26.9875,5.0955,678.663],[26.9883,5.1219,659.5726],[26.9817,5.1319,675.3541],[26.9774,5.1427,659.9125],[26.9702,5.1522,667.447],[26.9668,5.1487,659.3349],[26.9551,5.1448,658.4728],[26.948,5.1386,639.5008],[26.9351,5.1342,646.8503],[26.9321,5.1277,631.4261],[26.936,5.1213,645.9197],[26.9349,5.1195,643.3469],[26.9276,5.1178,647.5229],[26.9251,5.1137,646.4771],[26.9122,5.0884,647.8916],[26.9122,5.0801,636.5847],[26.9054,5.0734,630.9155],[26.901,5.0722,628.7287],[26.8948,5.0745,624.7147],[26.8911,5.0736,632.5864],[26.8886,5.0681,627.1777],[26.8914,5.063,625.2479],[26.8898,5.0591,621.8115],[26.8843,5.0533,626.0264],[26.885,5.0455,616.098],[26.8809,5.0444,618.8092],[26.8788,5.0407,624.5066],[26.8756,5.04,621.7769],[26.8722,5.0338,619.606],[26.8563,5.039,619.598],[26.8545,5.0422,621.3556],[26.8483,5.045,617.0762],[26.8501,5.0512,622.1141],[26.846,5.0547,621.1738],[26.8352,5.0567,619.1882],[26.8315,5.0592,617.0278],[26.8292,5.0588,613.4573],[26.8258,5.0498,626.9727],[26.8212,5.0477,621.6006],[26.8081,5.0491,618.0923],[26.8063,5.0504,615.8707],[26.8037,5.0587,614.5681],[26.7978,5.0585,613.2457],[26.7939,5.0631,619.3598],[26.7922,5.0672,621.1118],[26.7932,5.0725,632.0233],[26.7837,5.0755,619.7764],[26.789,5.0815,631.8885],[26.7865,5.0861,621.6705],[26.7814,5.0835,618.2312],[26.7713,5.0856,616.8297],[26.7713,5.0937,619.2587],[26.7734,5.1003,620.0184],[26.7725,5.1017,623.2253],[26.7665,5.0987,610.8831],[26.7578,5.1005,626.2808],[26.7539,5.0973,625.3823],[26.75,5.1035,608.9816],[26.7408,5.1019,622.9619],[26.7325,5.0947,630.7678],[26.7252,5.1,617.7409],[26.7231,5.0922,619.5357],[26.7215,5.0917,628.9988],[26.7178,5.0995,607.9297],[26.7109,5.1025,616.2108],[26.7094,5.0935,641.9663],[26.6972,5.0882,649.6792],[26.6906,5.0875,615.3512],[26.6878,5.091,610.903],[26.6894,5.094,614.3936],[26.6889,5.097,617.2957],[26.6814,5.0963,611.4658],[26.68,5.0935,612.3636],[26.683,5.0875,619.6165],[26.6812,5.0841,631.8479],[26.6697,5.0774,614.6158],[26.6555,5.0762,612.5764],[26.6529,5.0787,618.1251],[26.6504,5.0856,604.6859],[26.6456,5.0849,618.1763],[26.641,5.0886,613.6695],[26.6382,5.0814,620.6566],[26.6309,5.0828,610.6328],[26.6275,5.0803,616.7386],[26.6334,5.069,619.1743],[26.6323,5.0651,619.9227],[26.6289,5.0635,629.4209],[26.6252,5.0674,608.2375],[26.6213,5.0678,624.1041],[26.6215,5.0789,604.3994],[26.6146,5.0802,606.5621],[26.621,5.0869,619.1689],[26.6194,5.0881,609.2516],[26.602,5.0816,610.0494],[26.5995,5.0754,614.4199],[26.5965,5.0738,618.1772],[26.5924,5.0747,620.9679],[26.5896,5.0825,603.4492],[26.5852,5.082,607.5795],[26.585,5.0788,604.7811],[26.5834,5.0777,608.8699],[26.5783,5.0813,604.4095],[26.5751,5.0809,605.3088],[26.5717,5.073,606.1381],[26.5719,5.0687,602.138],[26.5756,5.0645,607.3752],[26.5745,5.0634,604.061],[26.5644,5.0636,601.1505],[26.5609,5.0668,603.358],[26.5598,5.0765,607.7114],[26.5572,5.0765,600.8557],[26.5556,5.0751,608.2712],[26.5543,5.0679,615.8511],[26.5504,5.064,602.0815],[26.5545,5.0585,635.4681],[26.5488,5.0571,624.157],[26.5442,5.049,618.5399],[26.5403,5.0465,605.5732],[26.5385,5.0499,599.4946],[26.5437,5.0573,604.1819],[26.5437,5.0628,619.205],[26.5417,5.0679,610.8151],[26.5339,5.0672,604.5029],[26.5318,5.0631,610.1366],[26.5334,5.0568,616.4643],[26.5268,5.0442,637.8331],[26.519,5.0453,624.6221],[26.5153,5.0504,598.8978],[26.5091,5.0439,617.7969],[26.5038,5.0478,601.4694],[26.5029,5.0538,604.0912],[26.4997,5.0559,602.466],[26.4949,5.0554,611.4423],[26.4928,5.0485,628.4318],[26.4908,5.0464,615.9316],[26.488,5.0464,622.7471],[26.4832,5.0524,610.3169],[26.4859,5.0588,616.7667],[26.4848,5.0616,628.0593],[26.4786,5.0586,598.1584],[26.4705,5.0632,597.3885],[26.4662,5.0588,620.8538],[26.4637,5.0585,627.1713],[26.46,5.0641,604.198],[26.4558,5.0657,604.4465],[26.4528,5.073,598.7474],[26.4549,5.0749,604.4158],[26.4609,5.0756,634.0735],[26.4618,5.0772,652.4617],[26.4569,5.0864,622.7729],[26.459,5.0951,643.5909],[26.4572,5.097,626.7993],[26.451,5.0963,599.9366],[26.4443,5.0905,610.0148],[26.4409,5.0912,599.7312],[26.4388,5.0955,596.5456],[26.4429,5.1057,605.8175],[26.441,5.114,607.6875],[26.4337,5.1109,610.3354],[26.4241,5.113,605.289],[26.4218,5.1151,596.5448],[26.4224,5.1224,604.3672],[26.4181,5.1208,597.316],[26.413,5.1213,599.2153],[26.4119,5.1236,595.8038],[26.4148,5.1305,599.7985],[26.4142,5.133,592.401],[26.4054,5.1328,599.2366],[26.4018,5.1226,604.6409],[26.3995,5.1212,602.4571],[26.3972,5.129,594.6635],[26.3907,5.1323,593.7003],[26.3937,5.1366,603.942],[26.3909,5.1474,601.095],[26.3884,5.1488,591.7768],[26.3799,5.1481,594.4108],[26.3735,5.1435,596.4187],[26.3664,5.1428,590.5265],[26.3611,5.1446,590.7371],[26.3512,5.1554,592.3835],[26.3421,5.1469,604.3728],[26.3333,5.1496,596.2948],[26.3283,5.1485,596.8743],[26.3258,5.1452,593.5192],[26.3272,5.1363,606.1949],[26.3244,5.136,606.3992],[26.3189,5.1427,596.9766],[26.318,5.1517,597.4869],[26.3159,5.1533,594.7182],[26.3127,5.1526,593.5715],[26.3109,5.1475,601.9537],[26.3116,5.1443,605.7703],[26.3097,5.142,611.2061],[26.3065,5.1404,600.8615],[26.3033,5.1408,598.4649],[26.3017,5.1417,599.7762],[26.3012,5.1514,597.8894],[26.2973,5.1544,596.0312],[26.2952,5.1608,596.9183],[26.2831,5.156,603.4612],[26.2821,5.1599,608.4777],[26.2874,5.1654,601.066],[26.2855,5.1693,590.4353],[26.2826,5.1709,587.5803],[26.2571,5.1699,603.3099],[26.2546,5.1715,598.1805],[26.2539,5.175,587.6949],[26.2605,5.1858,602.0948],[26.2543,5.1911,588.2345],[26.2538,5.198,589.2886],[26.2495,5.1984,589.6688],[26.2458,5.1957,595.3058],[26.2433,5.1835,592.3647],[26.2382,5.1853,593.9031],[26.2366,5.1927,593.6974],[26.2322,5.1982,587.7961],[26.2396,5.2056,592.2941],[26.2375,5.2085,593.0727],[26.2233,5.2069,597.7037],[26.2212,5.194,604.1795],[26.218,5.1974,586.5819],[26.2159,5.2041,586.9144],[26.2097,5.2085,588.8502],[26.2184,5.2142,601.8265],[26.2117,5.2218,583.5916],[26.2113,5.232,597.8031],[26.208,5.237,586.0831],[26.203,5.2372,590.3315],[26.2002,5.2342,592.6663],[26.1968,5.2218,601.4076],[26.1907,5.2176,599.4888],[26.1867,5.2179,587.9875],[26.1844,5.2199,590.1275],[26.1915,5.2271,591.4905],[26.1879,5.2335,587.6072],[26.1869,5.2416,592.8574],[26.1846,5.2416,583.0378],[26.18,5.2358,591.3362],[26.1743,5.2339,597.2243],[26.169,5.2291,592.5955],[26.1642,5.2288,615.8482],[26.1601,5.2321,615.7327],[26.1578,5.2376,582.3732],[26.1635,5.256,599.6947],[26.1609,5.2585,582.9129],[26.1467,5.2578,594.0679],[26.141,5.2631,581.5629],[26.1364,5.264,584.2092],[26.1343,5.2621,585.3864],[26.1339,5.2506,596.2991],[26.1307,5.2502,594.7861],[26.1286,5.2437,595.7645],[26.1227,5.2402,601.3121],[26.1201,5.232,614.1879],[26.1167,5.2299,621.0502],[26.1121,5.2312,605.8192],[26.1077,5.237,581.7299],[26.1031,5.2388,590.6487],[26.0928,5.2379,582.6633],[26.0905,5.2335,595.7422],[26.1009,5.2252,594.1794],[26.1014,5.2222,594.9604],[26.0975,5.214,599.9464],[26.0996,5.2082,601.5691],[26.0982,5.2059,603.3894],[26.0927,5.2066,601.6625],[26.0865,5.2135,592.406],[26.0768,5.2132,589.9949],[26.0711,5.2074,585.1191],[26.0704,5.1985,607.7745],[26.0679,5.1941,608.8427],[26.0631,5.1943,597.1781],[26.0539,5.2021,579.4809],[26.0536,5.2134,584.9601],[26.0502,5.2134,581.9025],[26.0465,5.2108,581.1705],[26.0415,5.203,612.7311],[26.0383,5.2023,614.5387],[26.0277,5.2069,599.8334],[26.0165,5.2057,608.8669],[26.011,5.2082,606.2355],[26.0087,5.2128,578.0367],[26.0116,5.2222,585.8873],[26.0093,5.2284,587.1048],[26.0065,5.2303,579.0319],[26.001,5.2298,586.2842],[25.9926,5.2201,594.9407],[25.9893,5.2238,588.5517],[25.9852,5.2397,586.1875],[25.9771,5.2353,587.9203],[25.9666,5.223,578.4814],[25.9612,5.2039,579.3188],[25.9619,5.2005,575.4219],[25.9662,5.1945,607.5176],[25.964,5.1917,613.8782],[25.9591,5.1922,606.8013],[25.9501,5.2046,580.8092],[25.9423,5.2066,579.7108],[25.9377,5.2055,583.9827],[25.9265,5.1972,590.325],[25.9095,5.2003,579.5774],[25.9096,5.1916,574.7905],[25.9167,5.1833,582.943],[25.9174,5.1748,600.0846],[25.916,5.1702,604.2253],[25.9085,5.1649,599.0677],[25.905,5.1651,584.7672],[25.9027,5.1706,573.8351],[25.903199999999998,5.1803,579.511],[25.8997,5.1874,580.1954],[25.8985,5.1945,584.1232],[25.896,5.198,582.286],[25.89,5.1991,578.1957],[25.885,5.2039,572.5823],[25.8801,5.206,572.7457],[25.8872,5.2136,586.8357],[25.8838,5.2187,580.7601],[25.862,5.2198,584.0939],[25.8471,5.2119,577.2589],[25.845,5.2084,583.5577],[25.8457,5.2025,593.7157],[25.843,5.1953,625.4227],[25.8391,5.193,608.1752],[25.8359,5.1868,613.1594],[25.832,5.1895,587.1118],[25.8327,5.1934,572.5012],[25.8313,5.1955,572.9996],[25.8249,5.1996,574.0986],[25.8218,5.2063,577.9041],[25.8207,5.2171,588.3138],[25.8115,5.2136,573.1927],[25.809,5.2152,577.8867],[25.8085,5.2194,571.3894],[25.817,5.2298,590.5926],[25.8179,5.2383,591.5378],[25.8208,5.2429,608.1042],[25.8201,5.2459,612.6759],[25.8098,5.244,569.1093],[25.7963,5.2368,583.4357],[25.7915,5.2361,576.3179],[25.7901,5.2377,570.7708],[25.7905,5.2403,568.5221],[25.799,5.2486,572.5334],[25.8008,5.2532,596.4035],[25.799,5.2626,598.3073],[25.7925,5.2727,571.3401],[25.7877,5.2734,570.4265],[25.77,5.2637,566.0258],[25.7721,5.2595,575.8209],[25.7822,5.261,566.4782],[25.785,5.2591,581.6117],[25.7859,5.2564,577.5274],[25.7834,5.2515,576.0994],[25.7754,5.2476,584.8481],[25.7708,5.242,596.0552],[25.7497,5.2378,600.7947],[25.7492,5.2367,607.188],[25.746,5.2514,584.4694],[25.7402,5.2606,582.219],[25.74,5.265,584.124],[25.7358,5.2659,563.9326],[25.7285,5.2636,576.2388],[25.7202,5.267,576.3242],[25.7181,5.2702,566.2894],[25.719,5.2748,590.0998],[25.714,5.2796,560.3147],[25.7126,5.292,571.3745],[25.7089,5.2971,564.0424],[25.7043,5.2994,565.6102],[25.6914,5.3014,564.4692],[25.6863,5.3048,563.7125],[25.6797,5.3053,569.5984],[25.6744,5.3122,563.4998],[25.6698,5.3112,561.8882],[25.665,5.3064,564.7499],[25.6609,5.3061,563.6537],[25.6629,5.3216,566.1151],[25.6617,5.3259,570.9897],[25.6587,5.328,572.9855],[25.645,5.327,564.7675],[25.6372,5.3169,562.9325],[25.6372,5.3137,561.4447],[25.642,5.3072,570.8231],[25.64,5.3029,583.9446],[25.6345,5.3017,576.9896],[25.6306,5.3035,569.0425],[25.628,5.307,561.5229],[25.6273,5.3176,565.3983],[25.6239,5.3215,560.9593],[25.6034,5.3202,564.2415],[25.6018,5.3228,560.4393],[25.6123,5.3341,565.1584],[25.6245,5.3378,571.5255],[25.6268,5.3415,571.6415],[25.6226,5.3475,570.7758],[25.5972,5.3455,560.7158],[25.5877,5.3547,560.9482],[25.5866,5.3588,561.3297],[25.5879,5.3699,569.1688],[25.5815,5.3752,557.549],[25.5736,5.3768,558.4511],[25.5603,5.3753,561.4902],[25.555,5.3765,561.7274],[25.5461,5.3861,557.0272],[25.5408,5.3859,556.0292],[25.5369,5.3828,562.0358],[25.5353,5.3766,558.3495],[25.5367,5.3718,558.5684],[25.5468,5.3638,572.567],[25.5503,5.3583,576.7131],[25.5475,5.3546,577.916],[25.528,5.3529,567.9221],[25.5113,5.3439,560.3932],[25.5067,5.3473,556.5829],[25.5021,5.3588,567.3796],[25.4975,5.3641,569.3763],[25.4929,5.3661,570.2499],[25.4869,5.3659,569.4811],[25.4828,5.3626,557.8179],[25.4805,5.3518,560.1824],[25.4764,5.3477,561.8473],[25.4718,5.3465,557.1874],[25.4642,5.3492,556.6179],[25.4603,5.349,555.8388],[25.4459,5.3407,554.1697],[25.4292,5.3206,558.8239],[25.4198,5.3189,558.3273],[25.415,5.321,564.6771],[25.4099,5.3274,561.9863],[25.4085,5.3396,565.0748],[25.4041,5.3426,564.7741],[25.4002,5.3405,563.3508],[25.3984,5.3352,555.8344],[25.3982,5.3267,555.9782],[25.395,5.3223,562.0567],[25.3918,5.3207,562.3008],[25.3762,5.3209,555.9108],[25.3677,5.3155,555.2645],[25.3668,5.3103,557.9478],[25.3696,5.305,555.2612],[25.3735,5.3045,558.9166],[25.3815,5.308,556.4258],[25.3847,5.3043,556.7779],[25.3843,5.3,556.0217],[25.3804,5.293,558.4672],[25.371,5.2852,558.4037],[25.3573,5.2863,556.7191],[25.344,5.2605,561.3654],[25.3359,5.2105,581.3074],[25.3328,5.204,592.1755],[25.322,5.195,555.7525],[25.3207,5.1874,558.0654],[25.3241,5.1826,562.5566],[25.3244,5.1755,560.4028],[25.3322,5.1564,555.8065],[25.3371,5.1511,551.5508],[25.3412,5.1502,556.1144],[25.3527,5.1537,556.922],[25.3545,5.1526,557.6134],[25.3552,5.1491,558.9459],[25.3512,5.1141,568.3771],[25.3487,5.107,571.9911],[25.3359,5.0924,563.0978],[25.3295,5.0818,556.0358],[25.3277,5.0742,555.0192],[25.3305,5.0519,554.2305],[25.3274,5.0432,550.3887],[25.318,5.0362,549.5288],[25.2845,5.0297,552.4827],[25.2593,5.0275,551.7405],[25.2476,5.0247,551.3976],[25.2313,5.0143,552.9178],[25.2235,5.014,555.7077],[25.2095,5.0177,555.7944],[25.2017,5.0174,566.5033],[25.1976,5.0137,549.8912],[25.1944,5.0059,551.0772],[25.1912,5.0038,550.1266],[25.1839,5.0033,554.0974],[25.1799,5.0049,554.7078],[25.1673,5.0157,553.3448],[25.1666,5.0228,553.1168],[25.1636,5.0269,556.6046],[25.1542,5.0283,552.59],[25.1491,5.0223,554.7029],[25.1476,5.0114,574.6146],[25.1364,5.0,578.6752],[25.0,5.0,590.6739],[25.0003,4.9932,578.3777],[24.9834,4.9931,572.9565],[24.9533,4.9863,544.3716],[24.9494,4.9828,552.2882],[24.9444,4.9711,566.7123],[24.9394,4.9646,574.4142],[24.9337,4.9611,548.7592],[24.9284,4.9607,553.5226],[24.9192,4.9634,543.6089],[24.8908,4.9617,550.3048],[24.884,4.9423,575.5168],[24.8785,4.9377,572.3697],[24.8732,4.9365,564.5521],[24.8229,4.9393,548.6897],[24.8181,4.937,542.5034],[24.8113,4.9303,543.8961],[24.8045,4.9164,552.6898],[24.7992,4.9111,556.4076],[24.7917,4.9069,543.7832],[24.7845,4.9055,543.8312],[24.7799,4.908,553.7945],[24.779,4.911,559.4282],[24.7811,4.9172,542.3832],[24.7806,4.9212,541.929],[24.7774,4.9232,541.7333],[24.7721,4.9227,544.8058],[24.7641,4.9117,542.9642],[24.7598,4.9089,540.6647],[24.749,4.9095,541.9387],[24.7348,4.9062,541.3143],[24.7297,4.9097,544.3264],[24.7251,4.9216,557.8265],[24.7209,4.9239,580.7521],[24.7055,4.9236,615.9445],[24.6764,4.9193,555.1713],[24.6682,4.9163,546.3674],[24.662,4.917,540.6323],[24.6581,4.9195,543.3057],[24.6564,4.9241,576.142],[24.658,4.9285,569.2674],[24.668,4.937,541.3822],[24.673,4.95,539.778],[24.676,4.96,559.5267],[24.6739,4.9695,553.1666],[24.6723,4.9686,537.6399],[24.6597,4.9708,540.9011],[24.652,4.974,540.1583],[24.6328,4.9751,536.8715],[24.6299,4.9822,561.8554],[24.6225,5.0142,537.3109],[24.6138,5.0301,552.5493],[24.6105,5.0321,589.0595],[24.5919,5.0315,538.4191],[24.5653,5.0362,534.8693],[24.5483,5.049,565.6709],[24.545,5.0555,575.4169],[24.5438,5.0644,560.1998],[24.5392,5.0759,539.6227],[24.5344,5.0805,540.9634],[24.4944,5.0928,536.9051],[24.4856,5.0994,539.6219],[24.4751,5.0989,565.5029],[24.4672,5.1046,535.5483],[24.4544,5.1045,540.9473],[24.4391,5.0972,580.6259],[24.4376,5.0902,585.0964],[24.4478,5.0745,546.7039],[24.4475,5.0644,545.272],[24.4439,5.0604,551.2322],[24.4342,5.0592,593.0463],[24.4299,5.0635,607.6072],[24.4073,5.1106,549.9986],[24.4029,5.1128,546.886],[24.3958,5.1126,543.2065],[24.3897,5.1088,534.5037],[24.382,5.0966,559.0049],[24.3797,5.0817,573.4088],[24.3761,5.0738,581.8678],[24.3722,5.0712,583.2239],[24.3609,5.068,577.0027],[24.358,5.0647,571.6098],[24.3573,5.0599,566.5868],[24.3631,5.0493,537.8231],[24.3689,5.0462,554.8158],[24.3743,5.0459,589.4929],[24.3901,5.0532,535.8958],[24.3982,5.0535,546.5695],[24.4092,5.0446,586.9214],[24.4124,5.0364,616.9],[24.4108,5.0313,614.4597],[24.4061,5.0273,565.0596],[24.3919,5.0226,544.2619],[24.3808,5.0107,578.8762],[24.3753,5.0084,580.9932],[24.362,5.0075,528.5],[24.355,5.0098,559.3601],[24.3491,5.0098,528.5],[24.3343,5.0031,590.3355],[24.3257,5.0038,530.8177],[24.3192,5.007,544.4225],[24.2983,5.0029,537.1932],[24.2831,4.986,546.1617],[24.2742,4.9806,552.6085],[24.2735,4.9783,543.09],[24.2733,4.9723,541.6714],[24.2823,4.9583,552.4779],[24.2837,4.95,569.2658],[24.2801,4.9392,551.3342],[24.2751,4.9369,554.1707],[24.2525,4.9349,531.9969],[24.2505,4.9404,536.892],[24.2534,4.952,544.1818],[24.2481,4.9588,553.6439],[24.2363,4.9595,543.5059],[24.2293,4.9567,533.9203],[24.1911,4.9307,534.9735],[24.1708,4.9067,530.8782],[24.1681,4.9011,532.9561],[24.1632,4.8972,525.0],[24.1362,4.8975,531.4525],[24.1166,4.9126,568.9095],[24.1054,4.9135,548.1036],[24.096,4.912,530.8162],[24.0746,4.9034,575.4022],[24.065,4.8977,559.4267],[24.0487,4.8827,524.9709],[24.0389,4.8772,525.567],[24.0182,4.8737,535.7339],[23.992,4.8599,522.4034],[23.9849,4.861,516.217],[23.9762,4.8562,514.4324],[23.9712,4.858,544.9674],[23.9698,4.8714,513.9647],[23.9668,4.8767,515.465],[23.9599,4.8771,575.71],[23.9535,4.8718,579.1263],[23.9507,4.8668,539.4318],[23.9491,4.8523,549.417],[23.9537,4.8375,573.8916],[23.9554,4.8226,541.8451],[23.9517,4.8108,514.9422],[23.9498,4.8094,514.0335],[23.9301,4.812,514.969],[23.9161,4.817,552.0691],[23.9072,4.8288,503.0],[23.8922,4.8327,505.7778],[23.8847,4.831,502.0],[23.8734,4.8218,501.375],[23.8702,4.8165,501.0],[23.8562,4.8108,510.0336],[23.8512,4.8108,506.2382],[23.8427,4.8237,516.2338],[23.8374,4.8282,512.7211],[23.8335,4.8294,522.1015],[23.8158,4.819,505.5379],[23.8064,4.8112,499.5],[23.7803,4.7836,568.0087],[23.7707,4.7796,564.9701],[23.7587,4.7787,562.6426],[23.7289,4.7849,529.4359],[23.7092,4.7823,513.0736],[23.6775,4.7639,502.3573],[23.6199,4.7406,520.6375],[23.6087,4.7369,511.6287],[23.5901,4.7355,537.2863],[23.5821,4.733,525.9227],[23.5612,4.7148,520.1692],[23.5514,4.7035,510.0534],[23.5399,4.6961,518.1539],[23.5264,4.6912,493.5121],[23.5007,4.6733,528.2162],[23.4649,4.6735,507.0289],[23.4573,4.6695,544.2383],[23.4495,4.6615,499.0637],[23.431,4.6502,514.575],[23.4259,4.6446,518.2914],[23.425,4.6322,484.5],[23.4292,4.6009,490.2426],[23.4271,4.5919,502.8743],[23.4209,4.5889,495.1293],[23.4081,4.5901,502.7823],[23.3826,4.5889,491.6447],[23.3771,4.5909,482.5],[23.3714,4.6024,482.0],[23.3603,4.6079,530.6876],[23.3466,4.6089,512.7436],[23.3312,4.6022,507.2517],[23.3193,4.6068,494.5846],[23.3057,4.6201,498.8761],[23.2949,4.6274,486.9515],[23.2887,4.6283,484.2295],[23.2805,4.6256,490.1945],[23.2752,4.6304,494.9314],[23.271,4.6507,485.8018],[23.263,4.6638,489.2545],[23.2582,4.6667,491.3533],[23.2382,4.6683,490.7665],[23.2254,4.6817,488.2101],[23.2084,4.6922,491.0463],[23.1955,4.7201,487.7123],[23.1831,4.732,485.5692],[23.1716,4.7382,489.3101],[23.1594,4.7361,496.0146],[23.1429,4.7234,484.3243],[23.123,4.7153,495.5972],[23.1133,4.708,495.65],[23.08,4.7351,491.2517],[23.0631,4.7523,493.5197],[23.0489,4.7571,492.36],[23.0323,4.7658,488.8168],[22.9964,4.8102,485.7813],[22.9793,4.8428,488.4255],[22.9748,4.847,519.9924],[22.9672,4.8378,475.5],[22.9634,4.8368,477.885],[22.9546,4.8264,483.689],[22.9413,4.8154,488.8069],[22.9354,4.8145,475.0],[22.9225,4.8181,479.7117],[22.9115,4.8193,474.5],[22.9067,4.8179,474.0],[22.8952,4.807,478.958],[22.8877,4.7845,481.7469],[22.8886,4.775,484.4873],[22.9013,4.7633,484.782],[22.9026,4.7571,487.491],[22.9008,4.7534,480.25],[22.8766,4.7391,473.7654],[22.8745,4.7225,483.4531],[22.8701,4.7131,482.1353],[22.8658,4.7078,480.3569],[22.8575,4.7013,480.1877],[22.8456,4.7017,471.8975],[22.8286,4.7213,475.6405],[22.8219,4.7243,470.0],[22.8091,4.7252,477.094],[22.802,4.7226,477.5064],[22.7905,4.7145,477.0257],[22.7834,4.7044,476.5303],[22.7814,4.6903,489.7863],[22.7784,4.6825,490.085],[22.769,4.6682,485.9968],[22.7624,4.6507,531.4723],[22.7426,4.6284,505.5723],[22.739,4.6192,507.0275],[22.7357,4.5968,513.5851],[22.7343,4.5948,488.9199],[22.7337,4.556,490.1896],[22.7303,4.5461,506.8712],[22.7216,4.5385,517.4277],[22.7106,4.5238,459.375],[22.7065,4.5157,458.0],[22.7072,4.4913,469.2496],[22.699,4.4717,464.8748],[22.6882,4.4613,504.0795],[22.6802,4.4618,471.5509],[22.6722,4.4668,456.6409],[22.6627,4.4806,470.029],[22.648,4.4811,478.2919],[22.6272,4.4847,465.1974],[22.6143,4.4805,475.4695],[22.6098,4.4754,490.3234],[22.6026,4.475,458.5119],[22.5992,4.4717,471.5239],[22.5967,4.4634,459.8955],[22.5983,4.4457,453.1049],[22.5979,4.4245,473.8621],[22.5867,4.4061,454.5912],[22.5856,4.3999,446.5922],[22.59,4.3893,425.0165],[22.6017,4.3829,432.8778],[22.62,4.3776,417.2332],[22.6235,4.3721,417.9519],[22.6219,4.3581,438.5372],[22.6194,4.3505,445.8038],[22.6086,4.3481,435.4023],[22.5807,4.3308,447.3783],[22.575,4.3287,425.9994],[22.5693,4.3209,409.4424],[22.5622,4.2985,425.2137],[22.558,4.2945,406.3696],[22.5462,4.2708,407.2859],[22.5445,4.2615,406.0161],[22.5461,4.2482,396.7827],[22.5547,4.2386,403.8967],[22.5561,4.2347,415.2249],[22.5504,4.2154,404.8389],[22.5406,4.2034,403.0457],[22.5317,4.1956,407.4669],[22.5205,4.1896,407.1971],[22.5075,4.1767,393.5],[22.5042,4.1711,397.1656],[22.5015,4.1704,405.2773],[22.4937,4.1596,404.1141],[22.4699,4.1434,406.6934],[22.4559,4.128,400.8982],[22.4452,4.1243,400.2516],[22.4629,4.1171,396.8164],[22.4693,4.1167,394.5],[22.4769,4.1193,397.423],[22.4879,4.1157,395.9604],[22.4989,4.1144,399.8519],[22.5184,4.126,405.3604],[22.5469,4.1363,436.5121],[22.5576,4.1345,436.0805],[22.5853,4.122,438.4177],[22.5999,4.1217,445.1105],[22.6215,4.1291,460.5651],[22.6291,4.1281,447.3909],[22.6485,4.1137,492.4692],[22.6676,4.1233,509.8557],[22.6735,4.1222,481.8781],[22.6803,4.0924,494.216],[22.6941,4.084,500.3809],[22.7098,4.1016,487.3265],[22.7143,4.1027,482.2976],[22.7222,4.0831,480.9709],[22.7343,4.075,518.4104],[22.7475,4.0737,485.0],[22.7609,4.0449,504.2074],[22.7601,4.0302,510.1192],[22.7757,4.0292,523.1194],[22.7868,4.0338,515.967],[22.7934,4.0289,529.0663],[22.8003,4.0201,533.6408],[22.8117,4.0188,520.8557],[22.837,3.9871,492.9449],[22.8294,3.9861,503.142],[22.8221,3.9819,489.8013],[22.8096,3.9652,483.7863],[22.8044,3.9479,496.282],[22.7985,3.9368,464.6766],[22.8019,3.9194,456.1661],[22.8005,3.9115,456.3658],[22.798,3.9081,480.9829],[22.7864,3.9082,448.8881],[22.7839,3.9047,463.9396],[22.7821,3.8856,440.6069],[22.784,3.8829,425.2959],[22.7914,3.8792,428.383],[22.7946,3.8754,430.2516],[22.7958,3.871,433.5945],[22.8107,3.861,420.8166],[22.814,3.8559,438.1315],[22.8263,3.8597,406.3088],[22.8289,3.8516,437.1832],[22.838,3.8598,461.9668],[22.8442,3.8616,408.0867],[22.849,3.8598,405.625],[22.8546,3.8493,414.8085],[22.8596,3.8486,428.9582],[22.8686,3.8436,467.8882],[22.8709,3.8452,464.654],[22.8761,3.8455,459.4457],[22.8818,3.8501,419.2349],[22.8903,3.8451,409.0],[22.8957,3.8362,456.3198],[22.9014,3.8346,473.3399],[22.9135,3.8441,427.2107],[22.9181,3.843,433.0517],[22.9288,3.8505,455.4025],[22.937,3.8533,453.1426],[22.9492,3.852,452.6262],[22.9595,3.8589,439.4877],[22.9631,3.8578,453.7154],[22.9654,3.8597,458.321],[22.9693,3.8597,415.0],[22.973,3.8572,431.9932],[22.9746,3.8514,447.4794],[22.9815,3.8503,422.9354],[22.9831,3.8469,425.9184],[22.9863,3.8458,451.3156],[22.9871,3.8402,435.5008],[22.9901,3.8382,449.4914],[22.993,3.8384,459.9589],[23.0056,3.8507,482.4529],[23.0127,3.8501,464.1961],[23.0215,3.86,459.1193],[23.0254,3.8607,442.4238],[23.0328,3.8582,458.1526],[23.0412,3.8617,454.1709],[23.0495,3.8618,430.7461],[23.0585,3.8543,472.0775],[23.0628,3.8554,468.3511],[23.069,3.8608,425.0],[23.0715,3.8571,425.5],[23.0773,3.8548,459.8692],[23.0891,3.8591,477.0705],[23.0926,3.8614,491.2463],[23.0978,3.8692,473.0862],[23.1017,3.8697,462.1757],[23.1065,3.873,430.0],[23.1113,3.8728,430.5],[23.1184,3.8664,455.0592],[23.1294,3.8644,466.8472],[23.1347,3.8669,444.3136],[23.1409,3.8649,467.8257],[23.1504,3.8774,455.1209],[23.1537,3.8776,436.0],[23.1548,3.876,448.701],[23.1488,3.8555,436.5],[23.1545,3.8477,446.2028],[23.1655,3.8485,455.7893],[23.169,3.8448,460.213],[23.1784,3.8451,459.9939],[23.1886,3.8516,468.0473],[23.198,3.8524,472.4077],[23.2078,3.8644,464.1256],[23.2151,3.8651,450.9228],[23.2264,3.8628999999999998,439.0],[23.2434,3.8545,457.0701],[23.2487,3.8499,456.0593],[23.2519,3.8511,442.0598],[23.2547,3.8495,440.75],[23.254,3.8465,441.0],[23.2554,3.8442,443.0875],[23.2689,3.8367,470.3752],[23.2781,3.8349,501.4156],[23.2852,3.8363,448.7247],[23.2912,3.8327,492.4647],[23.2978,3.8316,514.3854],[23.301,3.8346,491.1107],[23.3116,3.8319,511.2731],[23.3209,3.8363,465.54],[23.3242,3.8354,472.6837],[23.3217,3.828,464.1636],[23.3251,3.8246,486.0291],[23.3366,3.827,455.125],[23.3456,3.8164,467.4584],[23.358,3.8124,465.4688],[23.3635,3.808,456.0],[23.3656,3.8018,459.8807],[23.3697,3.7977,478.884],[23.3741,3.7991,479.8051],[23.3768,3.8028,476.0375],[23.3835,3.8035,478.2485],[23.388,3.8075,471.9589],[23.3931,3.808,477.6054],[23.4028,3.8246,483.4123],[23.4023,3.8333,479.7229],[23.414,3.8323,457.875],[23.4255,3.828,458.0],[23.4333,3.8225,485.3788],[23.4438,3.8234,486.8604],[23.4521,3.8288,468.6247],[23.4557,3.8284,459.0],[23.4578,3.8208,464.0377],[23.4611,3.818,480.487],[23.4826,3.8131,484.2729],[23.5073,3.8176,460.0],[23.5197,3.8156,487.012],[23.5291,3.8186,491.4784],[23.5331,3.8062,496.3539],[23.5305,3.7765,511.5596],[23.5241,3.7657,505.876],[23.5052,3.7478,516.2365],[23.4975,3.7441,504.6957],[23.4886,3.7335,526.4927],[23.4836,3.7304,514.6899],[23.4691,3.7315,509.9257],[23.4636,3.7276,512.236],[23.4589,3.7197,509.1639],[23.4493,3.7107,513.6348],[23.4436,3.7077,524.3508],[23.4383,3.7085,520.8287],[23.434,3.7074,529.9579],[23.4251,3.6979,531.2446],[23.4224,3.6903,554.5513],[23.4073,3.6883,573.3064],[23.3518,3.7128,554.1583],[23.340699999999998,3.7249,594.6776],[23.3232,3.7487,586.611],[23.2852,3.7777,570.5249],[23.2624,3.7814,550.974],[23.243,3.7923,543.1798],[23.2367,3.7856,573.4658],[23.2406,3.7822,570.5118],[23.2464,3.7714,551.5297],[23.2107,3.7531,544.1917],[23.1908,3.731,525.9709],[23.1869,3.7298,519.0085],[23.1809,3.725,523.027],[23.1563,3.714,530.6703],[23.143,3.7045,525.726],[23.1403,3.7003,535.7497],[23.1233,3.6962,512.4637],[23.1187,3.6919,514.7312],[23.1085,3.6757,503.9839],[23.099,3.6496,511.4611],[23.0912,3.6393,531.9818],[23.0843,3.6358,552.0771],[23.0615,3.6346,566.3079],[23.0567,3.6326,564.8361],[23.0467,3.6116,537.6459],[23.0368,3.5994,507.353],[23.0236,3.5906,554.4762],[22.9951,3.5808,548.2628],[22.9654,3.5754,557.6108],[22.9336,3.5655,540.5275],[22.8821,3.562,557.3558],[22.8418,3.554,563.8629],[22.8287,3.5456,549.8254],[22.8197,3.5278,536.724],[22.8069,3.517,537.0991],[22.7869,3.5039,533.0563],[22.7468,3.4898,518.5187],[22.7288,3.477,512.0034],[22.7053,3.4525,535.1821],[22.6815,3.445,554.2261],[22.6658,3.429,526.7104],[22.6547,3.408,507.2301],[22.6166,3.3693,549.2151],[22.6131,3.3597,545.6304],[22.6122,3.3433,550.5439],[22.6159,3.3333,546.3319],[22.6286,3.3233,549.3057],[22.6402,3.3186,553.0223],[22.6486,3.3124,537.5623],[22.6529,3.3045,518.082],[22.6514,3.2838,539.8466],[22.6235,3.2544,546.0796],[22.613,3.2392,555.2076],[22.606,3.2228,551.5711],[22.5885,3.2025,560.4248],[22.5745,3.1692,545.5343],[22.5774,3.161,536.4398],[22.5843,3.1569,539.7709],[22.5953,3.1539,530.9113],[22.6596,3.1524,546.8447],[22.6706,3.1477,556.2244],[22.696,3.133,540.2481],[22.7007,3.133,539.5245],[22.715699999999998,3.1276,546.528],[22.7261,3.1188,548.7645],[22.7597,3.124,579.0548],[22.7696,3.1181,575.0411],[22.7817,3.1057,548.2895],[22.7815,3.0543,565.3309],[22.7884,3.0402,555.2125],[22.8115,3.0249,560.1243],[22.8278,3.019,565.7947],[22.844,3.0166,563.4101],[22.8579,3.02,557.9382],[22.8917,3.0678,565.5903],[22.9056,3.0771,564.7492],[22.9218,3.0806,571.3762],[22.9415,3.0817,565.0834],[22.9554,3.0804,557.916],[22.9659,3.0775,555.5134],[22.9913,3.0534,555.4311],[23.0,3.0569,570.7388],[23.0122,3.0708,566.8622],[23.0197,3.0714,564.0902],[23.0232,3.0679,542.9254],[23.028,3.0503,536.719],[23.0381,3.0453,515.0902],[23.0508,3.0336,507.3738],[23.0597,3.0334,496.0477],[23.0333,2.9889,542.8186],[23.0211,2.9597,519.5739],[22.9832,2.8897,437.1017],[22.9541,2.853,483.7303],[22.9521,2.7992,560.3452],[22.9486,2.7746,555.0564],[22.9428,2.7922,559.2368],[22.9324,2.8028,542.1284],[22.9162,2.8098,526.0332],[22.9058,2.8099,528.6163],[22.8849,2.7948,479.5671],[22.886,2.7772,445.6651],[22.8802,2.7644,459.7096],[22.879,2.7574,442.2365],[22.887,2.7386,463.4249],[22.8997,2.7234,497.2036],[23.0296,2.5906,450.6137],[23.0472,2.5745,432.3543],[23.0646,2.5636,483.0837],[23.075,2.56,470.5645],[23.0889,2.5597,466.7024],[23.0984,2.5531,464.1528],[23.1027,2.5605,445.3752],[23.1071,2.5631,423.4354],[23.1213,2.5618,433.5364],[23.1571,2.5425,427.2174],[23.169,2.5377,408.2384],[23.1804,2.5362,394.3676],[23.1974,2.5294,403.8465],[23.2141,2.5255,392.6822],[23.2153,2.5237,390.737],[23.2403,2.5181,384.2551],[23.2566,2.5099,397.1886],[23.2733,2.4987,375.5645],[23.2979,2.4775,376.069],[23.2986,2.4743,373.1034],[23.2936,2.4667,381.4024],[23.2884,2.4685,376.9496],[23.284,2.4726,366.9405],[23.2742,2.4702,378.2302],[23.2738,2.4649,380.2481],[23.2776,2.4679,378.5555],[23.282,2.468,374.2117],[23.2868,2.4563,380.1367],[23.2903,2.4517,382.4753],[23.2938,2.4503,380.4369],[23.3084,2.4511,379.2566],[23.3145,2.4564,369.4729],[23.317,2.4659,370.9763],[23.3142,2.4762,376.4519],[23.3167,2.4822,372.1688],[23.3148,2.49,371.1282],[23.3159,2.4919,371.8336],[23.3189,2.4926,380.0393],[23.326,2.4873,373.8327],[23.3345,2.4874,368.8458],[23.3381,2.4878999999999998,368.7178],[23.3427,2.4927,373.6194],[23.3442,2.5008,366.9287],[23.3384,2.5134,375.1887],[23.3386,2.5175,378.9388],[23.3479,2.5289,371.3799],[23.3499,2.551,385.3124],[23.356,2.5632,383.8274],[23.3594,2.5651,382.0625],[23.3633,2.5628,367.2322],[23.3739,2.5451,381.5578],[23.3771,2.5431,365.379],[23.3829,2.5438,358.8284],[23.3911,2.5295,382.0012],[23.4001,2.5336,389.8442],[23.4088,2.5302,384.5293],[23.4132,2.5265,385.2039],[23.4245,2.51,394.899],[23.4273,2.5029,397.2318],[23.4327,2.5117,397.0829],[23.4519,2.5111,401.1067],[23.4579,2.4985,410.818],[23.4648,2.4921,413.7841],[23.4777,2.4845,389.9822],[23.4876,2.4758,401.648],[23.4917,2.4745,418.6487],[23.5204,2.4556,420.674],[23.5364,2.4513,464.2122],[23.5429,2.4456,489.1386]]]]}}