{"type": "Feature","bbox": [16.242,-2.3306,16.6918,-1.8628],"geometry": {"type": "MultiPolygon","coordinates": [[[[16.5042,-1.874,283.0],[16.4879,-1.8956,283.0],[16.4055,-1.992,285.323],[16.3592,-2.0383,283.0],[16.3235,-2.0689,283.0],[16.2678,-2.1071,282.5],[16.242,-2.123,282.0],[16.292,-2.1247,283.6544],[16.3021,-2.1302,285.0539],[16.3309,-2.1287,285.3756],[16.3468,-2.1367,291.1845],[16.3575,-2.1378,288.9436],[16.3714,-2.1366,292.6565],[16.4003,-2.1452,294.5559],[16.4035,-2.1507,293.3736],[16.4106,-2.1537,297.9878],[16.4127,-2.1583,292.6768],[16.4137,-2.1748,294.5543],[16.4314,-2.2051,309.6818],[16.434,-2.2201,318.2989],[16.4475,-2.229,343.5901],[16.46,-2.2296,333.5837],[16.4786,-2.2358,341.1701],[16.4868,-2.2426,323.7849],[16.5077,-2.2715,339.6678],[16.5265,-2.2911,342.9407],[16.5337,-2.2955,369.962],[16.57,-2.3064,396.1897],[16.624,-2.328,416.5092],[16.6341,-2.3306,369.0902],[16.6429,-2.3282,393.6107],[16.648,-2.3225,389.789],[16.653,-2.3016,347.2344],[16.679,-2.2762,357.6758],[16.6811,-2.2574,334.5994],[16.674,-2.2435,339.6426],[16.6728,-2.236,319.1681],[16.6738,-2.2292,318.1149],[16.6773,-2.2193,316.1873],[16.6918,-2.1949,321.3897],[16.6746,-2.1792,318.8469],[16.6661,-2.1435,308.3527],[16.6577,-2.1356,304.7313],[16.655,-2.13,307.6692],[16.6537,-2.1026,308.306],[16.6443,-2.0918,300.7705],[16.644,-2.069,309.8318],[16.6462,-2.0626,303.2021],[16.6462,-2.0536,298.3336],[16.6498,-2.0359,298.3767],[16.6486,-2.0283,296.055],[16.6398,-2.0019,294.2061],[16.637,-1.9982,293.7492],[16.6237,-1.9966,297.0192],[16.6118,-1.9893,292.7155],[16.5925,-1.963,300.6044],[16.5835,-1.9467,291.8417],[16.5798,-1.9368,299.1461],[16.5797,-1.9198,291.7256],[16.5701,-1.9046,297.8328],[16.5682,-1.8957,295.2501],[16.5627,-1.8897,307.3191],[16.559,-1.8819,283.0],[16.5603,-1.8628,283.0],[16.5042,-1.874,283.0]]]]}
,"properties": {"GID_2": "COD.16.11_1","GID_0": "COD","country": "DemocraticRepublicoftheCongo","GID_1": "COD.16_1","province": "Mai-Ndombe","NL_NAME_1": "NA","county": "Yumbi","VARNAME_2": "NA","NL_NAME_2": "NA","TYPE_2": "Territoire","ENGTYPE_2": "Territory","CC_2": "NA","HASC_2": "NA","name": "Yumbi.county","area_km2": 1218.5773,"hist_schema_id": "Elevation0-9000","hist_area_km2": {"275": 199.7735,"300": 457.4392,"325": 445.9037,"350": 66.4382,"375": 26.2698,"400": 14.745,"425": 7.9656,"450": 0.0424}}}