{"type":"Feature","properties":{"GID_2":"COD.22.3_1","GID_0":"COD","country":"DemocraticRepublicoftheCongo","GID_1":"COD.22_1","province":"Sud-Kivu","NL_NAME_1":"NA","county":"Fizi","VARNAME_2":"NA","NL_NAME_2":"NA","TYPE_2":"Territoire","ENGTYPE_2":"Territory","CC_2":"NA","HASC_2":"NA","name":"Fizi.county"},
"geometry":{"type": "MultiPolygon","coordinates": [[[[29.2148,-3.4098,770.0],[29.2102,-3.3939,770.0],[29.2041,-3.362,770.0],[29.2035,-3.3463,771.6802],[29.1975,-3.3474,771.7866],[29.1969,-3.3844,770.0],[29.2159,-3.458,770.0],[29.2282,-3.5383,770.0],[29.2331,-3.5485,770.0],[29.2349,-3.5583,770.0],[29.2083,-3.5628,770.0],[29.16,-3.5628,770.0],[29.1548,-3.5577,776.9697],[29.1312,-3.5427,1202.3164],[29.1066,-3.5418,1361.5179],[29.0896,-3.5554,2034.252],[29.083,-3.556,2379.7793],[29.0735,-3.5448,2763.4326],[29.0695,-3.5422,2979.1018],[29.0646,-3.5428,2986.8081],[29.0553,-3.5484,3010.6277],[29.0463,-3.548,2837.27],[29.0268,-3.5849,2794.4744],[29.0132,-3.6195,2842.7212],[29.0012,-3.6342,2642.0427],[29.0001,-3.6416,2784.0813],[28.9941,-3.6489,2886.1338],[28.993,-3.6564,2518.624],[28.982,-3.6578,2859.5029],[28.9581,-3.6591,2862.4504],[28.9464,-3.658,2674.0051],[28.923,-3.6487,2593.083],[28.9009,-3.6501,2578.1606],[28.8908,-3.6378,2469.4663],[28.8876,-3.6408,2454.4019],[28.8811,-3.6348,2485.0537],[28.881,-3.6317,2478.0569],[28.876,-3.6258,2456.2583],[28.874,-3.6248,2386.854],[28.8713,-3.6269,2441.2319],[28.8683,-3.6217,2407.4277],[28.8617,-3.6192,2450.7161],[28.86,-3.6164,2376.2021],[28.8554,-3.6163,2482.0586],[28.8498,-3.6127,2327.3918],[28.8476,-3.6063,2175.9424],[28.84,-3.6027,2146.1831],[28.8397,-3.5997,2133.9915],[28.8373,-3.5992,2141.6348],[28.8337,-3.6012,2133.1006],[28.8281,-3.5973,2131.1265],[28.8207,-3.6032,2085.4849],[28.8196,-3.6075,2073.8687],[28.8154,-3.6042,2072.0347],[28.8111,-3.6044,2084.0347],[28.8115,-3.6026,2085.2341],[28.8068,-3.6035,2054.9448],[28.7998,-3.6099,2067.8755],[28.796,-3.6068,2052.1919],[28.7891,-3.6164,2087.6753],[28.785,-3.6284,2284.6514],[28.7828,-3.6393,2280.447],[28.7837,-3.6519,2283.1372],[28.7711,-3.6506,2253.0776],[28.7665,-3.6483,2166.73],[28.7504,-3.635,2151.915],[28.7171,-3.6136,2072.4233],[28.7071,-3.628,2187.429],[28.7101,-3.6412,2249.7771],[28.6976,-3.6621,2057.3049],[28.7098,-3.6776,2131.95],[28.725,-3.6932,2248.0933],[28.732,-3.7146,2237.8433],[28.742,-3.7386,2160.3674],[28.7526,-3.745,2183.1724],[28.7871,-3.7738,2175.1045],[28.8275,-3.8186,2360.9985],[28.8345,-3.8172,2461.022],[28.8362,-3.8088,2413.1516],[28.8439,-3.8074,2468.3015],[28.848,-3.8103,2568.5181],[28.8544,-3.821,2463.7087],[28.8543,-3.8343,2507.7227],[28.8363,-3.8863,2439.5061],[28.8292,-3.9135,2275.8237],[28.8202,-3.9697,2321.4043],[28.8139,-3.9864,2173.1467],[28.8086,-3.9931,2191.2493],[28.7834,-3.9811,2092.5371],[28.7789,-3.9741,2087.5547],[28.777,-3.9619,1961.6696],[28.7709,-3.9622,1938.3921],[28.7643,-3.9725,1917.615],[28.7634,-3.9813,1938.1199],[28.7572,-3.9868,1973.4878],[28.7462,-3.9905,1952.1664],[28.733,-3.9978,1892.0846],[28.7278,-3.9888,1919.3855],[28.7307,-3.9826,1949.9437],[28.7338,-3.9676,1992.7858],[28.731,-3.9598,1977.3064],[28.7137,-3.9362,1930.4253],[28.713,-3.93,1930.6155],[28.715,-3.9231,1953.6263],[28.7123,-3.9183,1930.682],[28.7142,-3.9044,1932.0465],[28.7196,-3.8985,1918.7604],[28.7312,-3.8755,2168.3418],[28.7316,-3.8654,2103.5088],[28.7272,-3.8588,2129.4609],[28.7122,-3.8471,2255.4207],[28.7024,-3.7931,2170.6611],[28.7098,-3.7852,2167.3389],[28.7161,-3.7725,2144.3406],[28.7071,-3.769,2179.4758],[28.6985,-3.77,2172.9404],[28.6843,-3.7764,2171.6665],[28.6799,-3.782,2194.4658],[28.6747,-3.785,2199.6284],[28.6724,-3.7937,2168.936],[28.6647,-3.8055,2124.1611],[28.6478,-3.8235,2086.9094],[28.6426,-3.8387,2005.1176],[28.6372,-3.8436,1976.99],[28.625,-3.848,1989.7872],[28.618,-3.8607,1967.5631],[28.6082,-3.8672,1939.3824],[28.5983,-3.8709,1847.9469],[28.5924,-3.8809,1725.7412],[28.5865,-3.8846,1723.5375],[28.5818,-3.8819,1846.6725],[28.5761,-3.8753,1829.3435],[28.5746,-3.8623,1848.2981],[28.5685,-3.8525,2052.2668],[28.5663,-3.831,1838.637],[28.5622,-3.8273,1720.5691],[28.5593,-3.8356,1715.0613],[28.5429,-3.8461,1789.8955],[28.5216,-3.8519,1835.5732],[28.5214,-3.8733,1761.0907],[28.5156,-3.8892,1694.2344],[28.4808,-3.9084,1485.7424],[28.478,-3.9022,1457.6858],[28.4756,-3.8839,1433.0619],[28.4692,-3.8798,1386.8186],[28.466,-3.8623,1572.1818],[28.4643,-3.8256,1650.3301],[28.4596,-3.8032,1774.2151],[28.4547,-3.7958,1824.4816],[28.4511,-3.7965,1830.1843],[28.4461,-3.8089,1808.5005],[28.4446,-3.8363,1738.5642],[28.4376,-3.8522,1862.801],[28.403,-3.8537,1778.9232],[28.3957,-3.8558,1724.615],[28.3939,-3.8578,1763.2708],[28.3503,-3.8539,1737.2314],[28.3399,-3.8468,1762.1171],[28.3353,-3.8388,1666.7346],[28.3328,-3.8282,1694.7535],[28.322,-3.8285,1683.8124],[28.3144,-3.823,1705.0699],[28.3068,-3.8228,1687.6758],[28.2995,-3.8184,1697.8004],[28.2928,-3.8194,1663.9208],[28.288,-3.8219,1675.7314],[28.2814,-3.8204,1597.3544],[28.2747,-3.8213,1558.6135],[28.267,-3.8294,1534.7864],[28.2608,-3.8329,1550.53],[28.2556,-3.8331,1568.8976],[28.2482,-3.8309,1548.6921],[28.2342,-3.8346,1522.2297],[28.2265,-3.83,1442.3768],[28.2228,-3.8326,1410.4087],[28.2195,-3.8325,1419.1997],[28.2135,-3.8352,1421.131],[28.2061,-3.8321,1376.7131],[28.2051,-3.8346,1379.2156],[28.2029,-3.8354,1354.5886],[28.2016,-3.8333,1340.6276],[28.2035,-3.828,1336.3699],[28.1482,-3.825,1385.2383],[28.1062,-3.8277,1267.6472],[28.0889,-3.8271,1316.5807],[28.0773,-3.8292,1514.4434],[28.0714,-3.8331,1452.5446],[28.0691,-3.8506,1446.0609],[28.0547,-3.8626,1469.1276],[28.0429,-3.8697,1426.9678],[28.0128,-3.8783,1399.748],[27.9987,-3.8926,1325.3197],[27.993,-3.9026,1276.5588],[27.9809,-3.9157,896.6526],[27.9787,-3.9249,812.6002],[27.9798,-3.9332,807.0746],[27.9767,-3.9569,758.9631],[27.981,-3.9652,752.5266],[27.9559,-3.9777,766.8551],[27.9284,-3.9851,955.8167],[27.8699,-4.0114,1252.3723],[27.8378,-4.0224,1128.98],[27.8271,-4.0442,795.2715],[27.8281,-4.0544,787.3142],[27.8233,-4.0587,772.2723],[27.8223,-4.0704,740.2667],[27.8336,-4.0791,753.8402],[27.8343,-4.0899,700.4431],[27.8385,-4.0923,697.7235],[27.8415,-4.0919,697.324],[27.8418,-4.0943,692.0034],[27.8472,-4.0971,699.9425],[27.8461,-4.0985,706.7994],[27.8509,-4.099,691.5068],[27.8543,-4.1016,686.7771],[27.8542,-4.1042,694.6486],[27.8586,-4.1063,693.1458],[27.8584,-4.1096,706.7053],[27.8604,-4.1116,695.2814],[27.8655,-4.1144,689.5251],[27.8742,-4.1132,690.3369],[27.8755,-4.1165,697.6592],[27.8781,-4.1151,682.8431],[27.8834,-4.1157,677.5497],[27.8876,-4.1193,671.8529],[27.8924,-4.1193,686.0599],[27.8951,-4.1257,682.4146],[27.8988,-4.1221,670.758],[27.8997,-4.1237,676.4534],[27.9038,-4.1225,670.097],[27.9048,-4.1243,670.1573],[27.9115,-4.1245,665.0603],[27.9136,-4.1287,681.8134],[27.9155,-4.1251,674.9923],[27.919,-4.1245,677.5744],[27.924,-4.1256,672.069],[27.9251,-4.1274,664.9698],[27.9307,-4.1265,676.5217],[27.9337,-4.128,688.6641],[27.9366,-4.1259,672.5789],[27.9422,-4.1272,687.7369],[27.9408,-4.1258,675.4136],[27.9414,-4.1221,663.2521],[27.9435,-4.1213,666.1081],[27.9437,-4.1223,666.1081],[27.9669,-4.105,704.7537],[27.9857,-4.109,696.3254],[27.9831,-4.1114,700.9994],[28.0034,-4.1189,686.683],[28.0362,-4.1225,694.9024],[28.0336,-4.1339,650.2431],[28.0298,-4.1395,658.8965],[28.0166,-4.1458,656.9572],[28.0225,-4.1552,651.9155],[28.0244,-4.1631,651.6546],[28.0239,-4.1662,651.5719],[28.0163,-4.1712,662.2222],[28.0215,-4.175,668.9445],[28.0168,-4.1847,672.6068],[28.0178,-4.1909,657.3793],[28.0246,-4.1899,658.6113],[28.031,-4.1856,661.3903],[28.0372,-4.1903,665.147],[28.0392,-4.19,664.7507],[28.0494,-4.1806,663.4386],[28.0552,-4.1839,661.9886],[28.0611,-4.1835,660.4916],[28.0659,-4.1872,660.3239],[28.0743,-4.1895,659.5176],[28.0719,-4.1963,683.145],[28.0829,-4.1961,664.0667],[28.0936,-4.2086,660.8636],[28.1001,-4.2128,662.916],[28.104,-4.2111,668.6708],[28.1068,-4.2119,660.2317],[28.1148,-4.2195,672.6978],[28.1161,-4.2258,664.6929],[28.1179,-4.227,673.5669],[28.1214,-4.2261,668.5875],[28.1263,-4.2156,662.0544],[28.1297,-4.2164,673.006],[28.1361,-4.2238,657.8899],[28.1375,-4.2226,663.4471],[28.1457,-4.223,674.2907],[28.1512,-4.2209,670.9592],[28.158,-4.214,666.4709],[28.1605,-4.2131,665.3096],[28.16,-4.2146,670.4308],[28.1617,-4.2157,674.9457],[28.1622,-4.2134,667.3124],[28.166,-4.2119,679.7111],[28.1692,-4.2051,673.4104],[28.1697,-4.1972,674.5955],[28.1756,-4.1909,671.9407],[28.1748,-4.1856,674.412],[28.1783,-4.1855,681.8591],[28.1768,-4.1822,676.0788],[28.1742,-4.1809,676.3646],[28.1755,-4.178,674.4564],[28.1791,-4.1759,681.3481],[28.1822,-4.1686,687.9903],[28.1823,-4.1672,683.1691],[28.1796,-4.1673,681.7793],[28.179,-4.1647,684.6145],[28.1808,-4.1602,679.6942],[28.1851,-4.1573,706.5897],[28.1746,-4.1363,769.1133],[28.1812,-4.123,801.3798],[28.186,-4.1192,804.4875],[28.1982,-4.1213,896.9669],[28.2052,-4.1266,811.4088],[28.2103,-4.1366,763.8055],[28.2172,-4.1594,730.7849],[28.2247,-4.178,811.0885],[28.2427,-4.1996,880.5458],[28.3076,-4.2431,810.8165],[28.3584,-4.282,1022.082],[28.3733,-4.2731,968.7682],[28.3789,-4.2744,907.4004],[28.3935,-4.3038,780.2521],[28.3971,-4.3061,779.0209],[28.3997,-4.3171,740.7906],[28.3974,-4.3217,767.9738],[28.4,-4.327,795.8709],[28.3964,-4.3348,745.6713],[28.4036,-4.3599,713.0687],[28.4025,-4.3642,723.6155],[28.4168,-4.3751,753.6234],[28.4457,-4.3873,765.1503],[28.4808,-4.3967,1133.3656],[28.4918,-4.4085,1081.6349],[28.4939,-4.4546,801.5054],[28.5034,-4.461,824.8276],[28.513,-4.4595,827.5289],[28.5531,-4.4601,1133.1052],[28.5546,-4.4642,1152.4578],[28.5528,-4.5234,832.1447],[28.5674,-4.5406,1006.0722],[28.6073,-4.6766,757.4526],[28.6138,-4.6861,738.1517],[28.6196,-4.6913,736.066],[28.6305,-4.6983,730.1743],[28.6335,-4.6978,735.4588],[28.6349,-4.701,730.7498],[28.6461,-4.7015,732.8291],[28.6477,-4.7033,731.6094],[28.6556,-4.7033,722.4321],[28.6569,-4.7058,734.8166],[28.6593,-4.7057,742.3528],[28.6639,-4.7108,732.1385],[28.6634,-4.7145,729.0612],[28.6655,-4.7206,740.5938],[28.6694,-4.7246,743.1779],[28.6747,-4.7257,744.3922],[28.6744,-4.73,735.0692],[28.677,-4.7309,736.4922],[28.6776,-4.7359,738.3423],[28.6818,-4.7396,744.2859],[28.6838,-4.7396,741.9424],[28.6795,-4.7507,745.5567],[28.6834,-4.7535,743.6465],[28.685,-4.7522,742.5829],[28.689,-4.756,746.6987],[28.6847,-4.7685,742.7585],[28.6877,-4.774,741.8904],[28.687,-4.7773,741.4099],[28.685,-4.7781,741.8836],[28.6871,-4.7821,743.6823],[28.6899,-4.7995,752.0229],[28.6964,-4.801,749.9908],[28.6973,-4.8029,748.4248],[28.6951,-4.81,753.644],[28.6978,-4.8091,747.4037],[28.7039,-4.8108,752.1163],[28.7161,-4.82,754.0186],[28.7173,-4.825,756.9136],[28.7163,-4.8264,759.749],[28.7138,-4.826,760.1927],[28.7125,-4.8284,757.7698],[28.7117,-4.8304,758.2124],[28.7132,-4.8342,760.431],[28.7188,-4.8395,762.8098],[28.7281,-4.8449,773.885],[28.7269,-4.8482,770.181],[28.7347,-4.8489,768.2233],[28.7373,-4.853,765.7739],[28.7377,-4.8587,769.2207],[28.7411,-4.8631,769.3768],[28.7388,-4.8655,766.625],[28.7417,-4.8693,783.7247],[28.7414,-4.8726,772.55],[28.7438,-4.8733,791.7443],[28.7417,-4.8761,767.9682],[28.7458,-4.8817,793.0391],[28.7462,-4.8902,774.8671],[28.7506,-4.8979,778.8479],[28.7493,-4.8985,776.799],[28.75,-4.9009,779.6196],[28.7526,-4.9024,781.3268],[28.7522,-4.9039,778.2141],[28.7609,-4.9077,783.5723],[28.7682,-4.9142,783.1412],[28.7689,-4.9178,785.7352],[28.7555,-4.9237,788.8418],[28.7572,-4.9271,790.5118],[28.757,-4.9334,792.6345],[28.76,-4.9388,789.9044],[28.7539,-4.9429,799.7997],[28.752,-4.9425,797.3423],[28.751,-4.9452,796.3853],[28.7491,-4.9437,794.5852],[28.7489,-4.9472,794.9669],[28.7515,-4.9505,800.8987],[28.7546,-4.9609,812.2175],[28.7615,-4.9605,810.0402],[28.7645,-4.9654,809.8663],[28.7696,-4.9673,812.9604],[28.7719,-4.967,802.6052],[28.7726,-4.9651,802.5782],[28.7767,-4.966,833.2871],[28.7776,-4.9669,804.0557],[28.7758,-4.9679,804.0203],[28.775,-4.9713,820.3133],[28.7713,-4.973,814.2568],[28.7761,-4.9838,819.9263],[28.785,-4.9943,817.0154],[28.7887,-4.9912,835.3302],[28.7957,-4.9935,822.4044],[28.8014,-5.0012,835.1925],[28.8035,-5.0103,832.5951],[29.3721,-5.0079,770.0],[29.3713,-5.0009,770.0],[29.3576,-4.9563,770.0],[29.3372,-4.8536,770.0],[29.3285,-4.7741,770.0],[29.3272,-4.6989,770.0],[29.3356,-4.6514,770.0],[29.3719,-4.5677,770.0],[29.3864,-4.5407,770.0],[29.3943,-4.5054,770.0],[29.3901,-4.4327,770.0],[29.3904,-4.389,770.0],[29.3879,-4.3578,770.0],[29.3889,-4.3381,770.0],[29.3821,-4.2108,770.0],[29.3788,-4.1758,770.0],[29.3687,-4.1194,770.0],[29.3678,-4.1,770.0],[29.3613,-4.0854,770.0],[29.3478,-4.0414,770.0],[29.3439,-4.0337,770.0],[29.327,-4.012,770.0],[29.3059,-3.9895,770.0],[29.2843,-3.9733,770.0],[29.2642,-3.9426,770.0],[29.2537,-3.9181,770.0],[29.2446,-3.8753,770.0],[29.2402,-3.8432,770.0],[29.2399,-3.829,770.0],[29.2318,-3.7905,770.0],[29.2417,-3.7185,770.0],[29.2431,-3.6538,770.0],[29.2455,-3.6422,770.0],[29.2413,-3.5609,770.0],[29.2382,-3.5211,770.0],[29.2327,-3.4882,770.0],[29.2276,-3.4745,770.0],[29.2196,-3.4261,770.0],[29.2148,-3.4098,770.0]],
[[29.0907,-4.0967,792.0443],[29.0836,-4.0947,820.1432],[29.0814,-4.0906,838.526],[29.082,-4.0881,830.7038],[29.0912,-4.0828,779.8287],[29.0976,-4.0833,770.0],[29.101,-4.0884,770.0],[29.1001,-4.093,770.9568],[29.0907,-4.0967,792.0443]]]]}}