{"type":"Feature","properties":{"GID_2":"COD.22.6_1","GID_0":"COD","country":"DemocraticRepublicoftheCongo","GID_1":"COD.22_1","province":"Sud-Kivu","NL_NAME_1":"NA","county":"Kalehe","VARNAME_2":"NA","NL_NAME_2":"NA","TYPE_2":"Territoire","ENGTYPE_2":"Territory","CC_2":"NA","HASC_2":"NA","name":"Kalehe.county"},
"geometry":{"type": "MultiPolygon","coordinates": [[[[28.6678,-1.7525,1215.0532],[28.6751,-1.77,1450.0211],[28.6689,-1.7939,1346.3208],[28.6957,-1.806,1582.5115],[28.6963,-1.8165,1876.8499],[28.7003,-1.8286,1721.578],[28.6777,-1.8677,1786.4827],[28.6617,-1.8777,1832.9775],[28.6474,-1.8831,1746.4355],[28.6442,-1.8854,1744.4187],[28.641,-1.8909,1767.3785],[28.6376,-1.8905,1778.7946],[28.63,-1.8836,1846.0342],[28.6172,-1.8802,1837.7559],[28.6055,-1.8807,1815.6863],[28.5911,-1.8845,1720.5988],[28.5793,-1.8907,1664.5984],[28.5668,-1.9048,1550.5465],[28.5585,-1.9046,1324.739],[28.5416,-1.8969,1173.8658],[28.5242,-1.8968,1261.889],[28.5214,-1.8942,1209.4885],[28.5143,-1.8798,1207.7053],[28.5111,-1.8768,1183.2383],[28.506,-1.8759,1151.7352],[28.4987,-1.8787,1152.0511],[28.4816,-1.8767,1052.8542],[28.4717,-1.8747,1015.8767],[28.4596,-1.8669,944.3035],[28.4497,-1.8651,817.2572],[28.4513,-1.8686,813.0493],[28.4498,-1.8805,883.6293],[28.4508,-1.8929,909.3687],[28.4334,-1.8994,892.5558],[28.4244,-1.8999,946.1281],[28.372,-1.9215,1227.7377],[28.3624,-1.9277,1225.2622],[28.3593,-1.9347,1296.7227],[28.3539,-1.9399,1246.9646],[28.3502,-1.9476,1252.9404],[28.377,-1.9609,1302.519],[28.3823,-1.9779,1277.9608],[28.3743,-1.9932,1283.791],[28.3503,-1.994,1206.3903],[28.3384,-1.9891,1318.1482],[28.3271,-1.9762,1388.687],[28.3157,-1.9787,1446.9993],[28.3042,-1.9905,1451.8636],[28.2664,-1.994,1354.5776],[28.24,-1.9905,1223.0051],[28.1717,-1.9939,1160.8414],[28.155,-2.0009,1007.075],[28.1545,-2.0099,952.0344],[28.1512,-2.02,1031.3977],[28.1516,-2.0246,1100.5066],[28.1613,-2.0352,1039.9385],[28.1671,-2.046,1121.2317],[28.1711,-2.0775,1172.0376],[28.179,-2.1006,1178.03],[28.1765,-2.1117,1240.3699],[28.1777,-2.1188,1253.7549],[28.1842,-2.1358,1220.4645],[28.1904,-2.1452,1172.7126],[28.2051,-2.1557,1139.6024],[28.2131,-2.1647,1248.6232],[28.2246,-2.1867,1284.1178],[28.2334,-2.1966,1271.2332],[28.2391,-2.2007,1238.5906],[28.2474,-2.2045,1281.9702],[28.2817,-2.2049,1084.4204],[28.2915,-2.2087,1106.4475],[28.2795,-2.2535,1182.0997],[28.2634,-2.275,1195.4635],[28.2675,-2.2814,1209.683],[28.2975,-2.2799,1298.4889],[28.3094,-2.2816,1346.4644],[28.3243,-2.3136,1316.6982],[28.328,-2.3344,1421.1519],[28.3339,-2.3503,1360.42],[28.3336,-2.3664,1396.675],[28.3393,-2.3775,1524.728],[28.3353,-2.3833,1316.6825],[28.3763,-2.3882,1285.6641],[28.3935,-2.393,1492.6118],[28.3966,-2.4135,1531.4427],[28.4306,-2.4326,1746.1012],[28.469,-2.4365,1831.5581],[28.502,-2.4562,1719.6129],[28.5084,-2.4559,1695.8524],[28.5288,-2.4657,1589.9946],[28.5407,-2.4664,1682.5001],[28.5688,-2.4605,2186.0396],[28.571,-2.485,1991.8413],[28.5969,-2.4718,2306.4126],[28.6538,-2.422,2516.8989],[28.6648,-2.396,2308.5881],[28.671,-2.3752,2270.3281],[28.6574,-2.3562,2061.1287],[28.6589,-2.3251,2181.3315],[28.6442,-2.2963,2185.5957],[28.6521,-2.2896,2306.7222],[28.6727,-2.2624,2394.3926],[28.6843,-2.2401,2887.4995],[28.6856,-2.2276,2722.8574],[28.684,-2.2122,2451.5547],[28.7277,-2.1552,2739.4155],[28.743,-2.1308,2555.4268],[28.7538,-2.1264,2333.3394],[28.7614,-2.1427,2327.1267],[28.774,-2.1469,2335.2212],[28.804,-2.1414,2184.3962],[28.8309,-2.1529,1822.5833],[28.8583,-2.1436,1467.3486],[28.8605,-2.1477,1462.0343],[28.8568,-2.15,1474.3844],[28.8602,-2.1508,1461.0],[28.8596,-2.1557,1461.9084],[28.8626,-2.1578,1463.2461],[28.8638,-2.1617,1465.5659],[28.8673,-2.1633,1498.1346],[28.8704,-2.1622,1475.3668],[28.8729,-2.1561,1461.0],[28.8758,-2.1536,1506.5133],[28.884,-2.1509,1462.1141],[28.8842,-2.1491,1467.0247],[28.8802,-2.1472,1467.8629],[28.8828,-2.1435,1465.1868],[28.8892,-2.147,1480.1908],[28.8961,-2.1433,1465.0966],[28.8979,-2.1498,1484.3597],[28.9009,-2.1462,1461.0],[28.9091,-2.1486,1463.801],[28.9081,-2.1536,1462.9363],[28.9026,-2.1539,1461.0],[28.906,-2.162,1474.976],[28.9131,-2.1564,1476.9161],[28.9205,-2.1591,1461.0],[28.9289,-2.1577,1461.0],[28.9509,-2.1301,1461.0],[28.9947,-2.0642,1461.0],[29.0176,-1.9978,1461.0],[29.0247,-1.9714,1461.0],[29.0602,-1.8742,1461.0],[29.0702,-1.8204,1461.0],[29.1115,-1.7242,1461.0],[29.1296,-1.6986,1461.0],[29.1362,-1.6775,1461.0],[29.1441,-1.66,1461.0],[29.142,-1.6426,1485.3685],[29.1354,-1.6412,1467.62],[29.1337,-1.6307,1468.818],[29.1317,-1.6307,1465.2275],[29.1316,-1.6286,1484.7501],[29.1268,-1.6303,1461.0],[29.1182,-1.6282,1461.0],[29.118,-1.6299,1461.0],[29.1152,-1.6303,1461.0],[29.1124,-1.6274,1465.3005],[29.11,-1.6276,1462.3555],[29.1036,-1.6238,1463.7463],[29.0993,-1.6238,1461.0],[29.0969,-1.6199,1468.8239],[29.0928,-1.6202,1461.0],[29.0872,-1.6099,1461.0],[29.0876,-1.6031,1467.2885],[29.0855,-1.5995,1467.381],[29.0812,-1.5986,1463.5314],[29.0795,-1.5956,1464.5314],[29.0758,-1.5957,1461.9543],[29.067,-1.5852,1463.0397],[29.0626,-1.586,1466.2144],[29.0576,-1.584,1466.6206],[29.0543,-1.5854,1461.629],[29.0502,-1.5837,1462.9655],[29.046,-1.5905,1476.129],[29.0406,-1.5923,1464.7764],[29.0404,-1.5957,1468.3677],[29.0367,-1.6022,1464.0424],[29.0378,-1.6078,1464.1995],[29.0329,-1.6118,1473.4043],[29.0347,-1.6173,1461.0],[29.0318,-1.6158,1465.9878],[29.031,-1.617,1483.7063],[29.0332,-1.6208,1470.6787],[29.0258,-1.6178,1506.0856],[29.0215,-1.6205,1462.3259],[29.0231,-1.6274,1492.15],[29.0265,-1.626,1461.0],[29.033,-1.6295,1477.744],[29.0309,-1.631,1476.5852],[29.0288,-1.6389,1464.012],[29.0294,-1.6528,1469.8907],[29.0259,-1.6561,1461.887],[29.0251,-1.6603,1466.2167],[29.0179,-1.6673,1461.7904],[29.0168,-1.6699,1495.3855],[29.0189,-1.6736,1465.9104],[29.0183,-1.6753,1461.0],[29.0117,-1.6828,1519.704],[28.9991,-1.6897,1646.291],[28.9839,-1.7098,1868.2583],[28.9795,-1.733,1775.9819],[28.9692,-1.7417,1701.8464],[28.9356,-1.7449,2233.2412],[28.917,-1.7422,2837.8733],[28.9033,-1.7331,2643.2803],[28.883,-1.7287,2350.9868],[28.8627,-1.707,2712.4548],[28.8523,-1.7236,2603.5608],[28.8359,-1.7398,2355.1633],[28.8327,-1.7447,2362.748],[28.8315,-1.753,2301.1938],[28.8253,-1.7615,2318.2449],[28.8166,-1.7675,2160.1455],[28.8052,-1.7664,2174.2634],[28.7903,-1.7704,2157.1077],[28.7645,-1.7714,1857.5093],[28.7552,-1.7795,1760.5308],[28.7495,-1.7819,1705.0115],[28.7161,-1.7802,1319.0032],[28.6993,-1.7632,1304.6278],[28.6846,-1.7419,1536.5562],[28.6677,-1.7398,1289.4259],[28.6654,-1.7429,1246.5718],[28.6678,-1.7525,1215.0532]]]]}}