{"type":"Feature","properties":{"GID_2":"COD.23.1_1","GID_0":"COD","country":"DemocraticRepublicoftheCongo","GID_1":"COD.23_1","province":"Sud-Ubangi","NL_NAME_1":"NA","county":"Budjala","VARNAME_2":"NA","NL_NAME_2":"NA","TYPE_2":"Territoire","ENGTYPE_2":"Territory","CC_2":"NA","HASC_2":"NA","name":"Budjala.county"},
"geometry":{"type": "MultiPolygon","coordinates": [[[[19.4498,2.0394,345.7154],[19.5119,2.022,341.3031],[19.6003,2.0052,342.2619],[19.7213,2.0037,343.06],[19.9051,2.0069,325.4977],[19.9077,2.015,329.5864],[19.9191,2.0253,339.3183],[19.9189,2.0179,334.4078],[19.9294,2.0201,329.7149],[19.9317,2.0229,325.5],[19.9334,2.0279,327.7],[19.9256,2.0322,329.1178],[19.9231,2.0352,329.8708],[19.9223,2.0407,332.4149],[19.9259,2.0518,332.9992],[19.932,2.0558,332.528],[19.9396,2.0563,331.5222],[19.942,2.06,326.1318],[19.9397,2.066,327.7054],[19.937,2.0857,330.8317],[19.9426,2.0931,341.4168],[19.9513,2.1137,343.4211],[19.9556,2.1193,335.4974],[19.9622,2.1228,346.9707],[19.9638,2.127,348.6853],[19.9628,2.1325,332.8132],[19.9575,2.1359,326.5],[19.9543,2.1411,336.7753],[19.9538,2.145,340.8544],[19.9587,2.1511,343.3319],[19.9637,2.1539,338.9782],[19.9754,2.1567,345.3937],[19.9819,2.1715,327.8082],[19.9864,2.1769,336.2101],[19.9955,2.182,341.5939],[20.0048,2.1851,342.4053],[20.015,2.1767,348.4066],[20.0193,2.1772,350.2157],[20.0227,2.1807,351.0235],[20.0268,2.201,352.3149],[20.0382,2.2071,352.061],[20.0412,2.2103,352.9655],[20.0418,2.2142,351.1953],[20.0378,2.2246,351.8833],[20.0424,2.2419,341.1243],[20.0452,2.2453,346.6675],[20.0572,2.2528,328.4304],[20.0609,2.2526,333.1],[20.0689,2.2483,350.0498],[20.0728,2.2491,348.9746],[20.0825,2.2644,349.121],[20.0854,2.2669,350.1216],[20.0968,2.2709,350.0178],[20.1011,2.2747,347.2978],[20.1015,2.2779,348.8027],[20.0976,2.2845,349.2],[20.0994,2.2903,350.6075],[20.1023,2.2933,350.6627],[20.1101,2.295,350.991],[20.1128,2.2987,351.0223],[20.1065,2.3076,335.7986],[20.1103,2.3169,349.542],[20.1091,2.3215,348.3633],[20.0978,2.3285,348.7835],[20.0962,2.3324,345.3995],[20.0978,2.3368,350.2762],[20.103,2.341,328.5],[20.1082,2.3424,338.1995],[20.1325,2.3424,347.5564],[20.1423,2.3476,340.301],[20.1585,2.3477,339.0913],[20.1626,2.3496,353.0535],[20.1705,2.3591,351.2996],[20.1883,2.3687,354.4529],[20.1939,2.3754,352.2449],[20.1973,2.3847,346.1377],[20.2212,2.3948,350.5718],[20.2327,2.4057,329.7602],[20.2392,2.4044,342.6847],[20.2498,2.3937,354.3655],[20.256,2.3933,351.5531],[20.2587,2.3947,352.4559],[20.2612,2.3991,351.4725],[20.2581,2.4117,352.5453],[20.2651,2.4173,331.2602],[20.2804,2.4193,342.0571],[20.2846,2.4161,351.4309],[20.2892,2.4061,352.7587],[20.2929,2.4022,352.5397],[20.297,2.4025,359.5566],[20.3095,2.4175,352.8698],[20.3145,2.4203,340.279],[20.337,2.4139,345.3252],[20.3434,2.4146,354.1897],[20.3647,2.4319,339.6236],[20.3759,2.4308,349.14],[20.3833,2.4235,330.0],[20.3877,2.4215,349.5449],[20.3913,2.4225,356.4224],[20.4002,2.4306,339.2672],[20.4068,2.4304,335.225],[20.4279,2.4214,333.9004],[20.4348,2.421,348.1604],[20.4459,2.4333,352.2779],[20.4704,2.4262,343.1478],[20.4796,2.4261,348.3782],[20.4896,2.4328,335.1661],[20.4939,2.434,343.0146],[20.4962,2.432,355.9445],[20.4993,2.423,333.0767],[20.5096,2.4192,352.9229],[20.5106,2.4162,349.0183],[20.5056,2.404,356.2621],[20.5075,2.3985,347.0455],[20.5112,2.3953,336.7834],[20.5165,2.3956,340.4308],[20.5208,2.3981,342.7756],[20.526,2.409,342.3269],[20.5353,2.4165,331.0],[20.5426,2.4163,356.2489],[20.5465,2.4143,356.7615],[20.5537,2.4049,356.6482],[20.5555,2.4045,359.0818],[20.5625,2.4105,333.3036],[20.5671,2.4174,332.0656],[20.5668,2.4209,339.9753],[20.5716,2.4207,348.2345],[20.5802,2.4104,342.6118],[20.5882,2.4107,351.7524],[20.5966,2.4151,354.3584],[20.6062,2.4176,346.4265],[20.6235,2.4276,337.2822],[20.6377,2.4259,355.2065],[20.6402,2.4283,353.989],[20.6378,2.434,354.7398],[20.6392,2.4363,332.0],[20.6513,2.4357,350.304],[20.6593,2.4397,332.0],[20.6657,2.4405,355.6732],[20.6686,2.4391,359.2188],[20.671,2.4306,355.1949],[20.6665,2.4218,353.5274],[20.6707,2.4138,333.5],[20.676,2.4127,359.676],[20.6903,2.4207,335.9815],[20.6995,2.421,359.2077],[20.7036,2.4238,360.6408],[20.7101,2.439,354.0814],[20.7132,2.4413,334.5],[20.7229,2.4401,354.6574],[20.7288,2.4431,341.6677],[20.7352,2.4439,357.5744],[20.7379,2.442,360.3024],[20.7391,2.4393,359.967],[20.7372,2.4271,356.8059],[20.7397,2.4193,357.1715],[20.7441,2.4142,350.8237],[20.7483,2.4138,338.7922],[20.7642,2.4181,350.555],[20.7682,2.4161,356.156],[20.7743,2.4159,356.6196],[20.7773,2.4189,350.2538],[20.7788,2.427,361.1129],[20.7766,2.4364,362.81],[20.7839,2.4411,349.5758],[20.7943,2.434,357.6996],[20.8018,2.4348,362.4765],[20.8045,2.4383,354.1687],[20.8071,2.4535,359.3143],[20.8123,2.4655,337.3683],[20.8191,2.4734,354.8623],[20.842,2.4922,360.3143],[20.8457,2.4943,362.8801],[20.8612,2.4947,367.4675],[20.8739,2.5054,363.7949],[20.8843,2.5269,359.3989],[20.8883,2.5311,359.9007],[20.9036,2.5604,366.0466],[20.9163,2.5778,361.4547],[20.91,2.5946,363.8599],[20.9092,2.6067,363.7744],[20.9071,2.6099,362.2544],[20.9027,2.612,362.4555],[20.8962,2.6214,362.6127],[20.8923,2.6321,363.4247],[20.8816,2.6422,366.7112],[20.8725,2.6612,362.4762],[20.8585,2.6733,358.7191],[20.8522,2.6822,361.889],[20.8423,2.692,355.7361],[20.8333,2.6977,365.9878],[20.8326,2.7029,356.4034],[20.8282,2.7096,356.9027],[20.823,2.7238,356.2559],[20.8244,2.7277,364.3866],[20.8204,2.733,360.6111],[20.8133,2.7373,364.1829],[20.8047,2.7453,363.6842],[20.8022,2.7526,343.2179],[20.8025,2.7632,347.1024],[20.7976,2.7737,365.0331],[20.7966,2.7806,366.4701],[20.8004,2.7966,367.3768],[20.7964,2.8083,366.1697],[20.7974,2.8228,348.4319],[20.7932,2.828,349.8148],[20.7868,2.8287,362.2205],[20.7798,2.8258,345.8925],[20.7665,2.8278,359.2263],[20.7611,2.8351,357.2264],[20.762,2.8386,359.7233],[20.7681,2.8446,365.0751],[20.7679,2.8469,361.9281],[20.764,2.851,361.4971],[20.7564,2.8537,351.542],[20.7538,2.858,351.5401],[20.7585,2.8698,364.9507],[20.7601,2.8705,362.4605],[20.7576,2.8749,363.9792],[20.7523,2.8776,365.7935],[20.7367,2.8781,346.5219],[20.7346,2.8827,356.8224],[20.736,2.8864,358.3218],[20.7437,2.892,361.0706],[20.7457,2.8994,364.6213],[20.7426,2.906,366.7051],[20.7358,2.9069,350.8165],[20.7282,2.9119,348.5706],[20.7283,2.9181,364.1477],[20.7335,2.9267,361.0725],[20.7394,2.9309,367.8826],[20.7417,2.935,360.9299],[20.7385,2.9391,364.6879],[20.7288,2.9404,361.0679],[20.7233,2.9438,340.0],[20.7148,2.9449,356.9836],[20.7187,2.9491,347.197],[20.7243,2.9609,362.0133],[20.724,2.9662,367.7314],[20.7194,2.971,362.0573],[20.7227,2.9814,362.165],[20.7181,2.9889,364.0816],[20.7185,2.9944,363.743],[20.7286,2.9936,368.4389],[20.7327,2.9957,363.1073],[20.7336,2.9989,363.369],[20.7287,3.0053,360.1988],[20.7273,3.0115,351.9597],[20.7284,3.0169,362.2335],[20.7251,3.021,363.1596],[20.7189,3.0228,346.0536],[20.718,3.0248,343.2708],[20.7215,3.0361,361.8142],[20.7027,3.0686,358.6705],[20.7043,3.0719,356.357],[20.7079,3.0712,359.9291],[20.7151,3.0621,368.3103],[20.7183,3.0619,365.0076],[20.7208,3.0674,365.4391],[20.7199,3.0713,367.0051],[20.7131,3.0802,351.6907],[20.7269,3.1057,350.3186],[20.7284,3.1158,345.7469],[20.7189,3.1263,357.5435],[20.7241,3.1294,353.9492],[20.7252,3.1365,348.2049],[20.7281,3.1421,358.6365],[20.7235,3.1519,365.6918],[20.7248,3.1586,363.2434],[20.7322,3.1725,364.1932],[20.7334,3.1884,366.8222],[20.701,3.1651,360.1868],[20.6471,3.112,362.9949],[20.6297,3.0934,373.3368],[20.5929,3.0442,396.5317],[20.5515,2.9988,394.5614],[20.4884,2.934,391.9363],[20.4447,2.8834,390.6029],[20.411,2.8473,399.7167],[20.3947,2.8269,384.6404],[20.3823,2.8168,370.8544],[20.3719,2.8248,368.43],[20.337,2.8419,401.2652],[20.3235,2.8504,408.5178],[20.2757,2.8853,394.5103],[20.2618,2.9004,387.1514],[20.2312,2.9188,377.01],[20.2221,2.9267,390.7655],[20.2086,2.9518,399.8281],[20.2021,2.9496,407.9688],[20.1923,2.9489,379.7615],[20.1765,2.9502,382.8025],[20.1578,2.9541,366.6193],[20.1387,2.9192,349.5266],[20.1364,2.9226,349.666],[20.1162,2.924,364.9809],[20.0817,2.917,373.8219],[20.0626,2.9099,371.2559],[20.0359,2.8968,391.3143],[20.0192,2.8964,386.3113],[20.0026,2.8854,387.4003],[19.9924,2.8814,386.3502],[19.9778,2.8782,391.9872],[19.9677,2.8733,391.6966],[19.9531,2.8757,400.3012],[19.9407,2.8751,398.3292],[19.9344,2.8778,396.8234],[19.9239,2.8873,448.0724],[19.9172,2.9007,457.0201],[19.9063,2.909,407.7861],[19.8978,2.9101,410.0302],[19.8873,2.9086,395.1005],[19.8808,2.9129,406.8821],[19.8598,2.9129,398.2521],[19.8441,2.9176,395.3564],[19.84,2.9171,400.5768],[19.8309,2.9108,384.161],[19.8264,2.9096,389.5712],[19.7771,2.9137,378.8607],[19.7618,2.9124,379.2416],[19.7582,2.9096,380.2614],[19.7488,2.9088,376.3639],[19.7456,2.9053,380.3914],[19.7432,2.8917,375.2478],[19.739,2.8838,374.3895],[19.7276,2.8754,371.6192],[19.7233,2.8694,371.378],[19.722,2.8639,371.7249],[19.7247,2.851,374.1169],[19.722,2.8448,371.2563],[19.7194,2.8252,366.2917],[19.7165,2.8189,371.428],[19.6958,2.8137,371.8084],[19.6872,2.8177,373.3604],[19.6644,2.8147,376.9946],[19.6602,2.817,366.0494],[19.6479,2.8175,377.7745],[19.6426,2.8216,381.1597],[19.6379,2.8322,369.3037],[19.6259,2.8378,380.2023],[19.5964,2.8471,412.9655],[19.5766,2.8476,378.7427],[19.568,2.8388,380.8113],[19.557,2.8396,381.789],[19.5466,2.848,379.1775],[19.5409,2.8484,385.849],[19.5257,2.8554,389.5085],[19.5141,2.8551,386.6635],[19.3103,2.7875,370.6384],[19.2965,2.7853,392.0878],[19.3328,2.7497,393.8388],[19.3329,2.7408,367.9354],[19.3266,2.7317,369.9875],[19.3115,2.7253,369.8234],[19.3075,2.7211,368.5035],[19.2908,2.6752,364.491],[19.2847,2.6638,362.1947],[19.2775,2.6582,361.6049],[19.2718,2.6563,361.8959],[19.2598,2.6449,360.5782],[19.2525,2.6414,358.441],[19.2383,2.62,361.1926],[19.2162,2.5947,351.2387],[19.2078,2.5447,356.9861],[19.2029,2.5324,357.0085],[19.2018,2.511,341.6321],[19.198,2.502,346.0182],[19.1896,2.4925,337.1716],[19.182,2.4719,342.1499],[19.1939,2.4569,337.9038],[19.1947,2.4405,335.8066],[19.2053,2.3995,339.3881],[19.2262,2.3832,335.1553],[19.2625,2.3506,332.2678],[19.2634,2.3124,335.5072],[19.2607,2.3034,342.5062],[19.2558,2.2974,342.8402],[19.2478,2.2966,337.3987],[19.24,2.2984,330.7682],[19.2412,2.2956,330.7131],[19.2373,2.2746,340.2215],[19.2371,2.2654,345.6944],[19.2333,2.2582,341.0525],[19.2261,2.2519,343.2756],[19.218,2.2344,339.5551],[19.2056,2.2216,336.8675],[19.2011,2.2114,333.5702],[19.195,2.2056,337.6631],[19.1886,2.2039,324.4177],[19.1814,2.1981,323.1996],[19.1467,2.1487,330.5795],[19.1383,2.1424,330.0113],[19.1255,2.1264,331.2203],[19.3144,2.0776,344.8071],[19.4498,2.0394,345.7154]]]]}}