{"type": "Feature","bbox": [22.1743,-11.251,24.4054,-9.8271],"geometry": {"type": "MultiPolygon","coordinates": [[[[22.3166,-10.6083,987.1078],[22.3189,-10.6557,1001.3019],[22.3141,-10.6762,985.2703],[22.3242,-10.6901,994.7505],[22.3276,-10.7038,988.1911],[22.329,-10.733,985.9033],[22.3342,-10.7426,1000.328],[22.3346,-10.7479,1007.6816],[22.3344,-10.7559,1020.5712],[22.3279,-10.7722,990.1645],[22.3109,-10.7829,1016.631],[22.2975,-10.7838,1001.619],[22.2827,-10.7756,1002.2817],[22.267,-10.7956,1032.0924],[22.242,-10.806,1011.2547],[22.2038,-10.8351,1039.5984],[22.192,-10.842,1028.3756],[22.181,-10.852,1013.5067],[22.176,-10.8639,1057.1814],[22.1743,-10.8747,1027.918],[22.1791,-10.8913,1035.069],[22.1818,-10.8955,1035.3284],[22.182,-10.9074,1041.9749],[22.199,-10.93,1027.7488],[22.2063,-10.9466,1050.1322],[22.208,-10.954,1049.7021],[22.207,-10.998,1039.4088],[22.21,-11.013,1043.1869],[22.2169,-11.0255,1036.4832],[22.22,-11.0354,1069.2551],[22.221,-11.047,1104.6786],[22.217,-11.073,1066.5317],[22.217,-11.088,1091.9277],[22.221,-11.104,1078.6113],[22.227,-11.117,1091.49],[22.2462,-11.1357,1052.7532],[22.2637,-11.1659,1077.1292],[22.2689,-11.1823,1077.1921],[22.27,-11.1951,1094.9661],[22.2589,-11.2266,1100.0189],[22.261,-11.233,1103.8411],[22.272,-11.246,1108.7032],[22.278,-11.25,1113.8464],[22.29,-11.251,1118.0112],[22.2997,-11.244,1117.6422],[22.334,-11.207,1113.0975],[22.339,-11.2,1116.6006],[22.347,-11.179,1122.9946],[22.351,-11.177,1123.8511],[22.37,-11.176,1127.3145],[22.426,-11.179,1129.1409],[22.437,-11.175,1128.0513],[22.452,-11.162,1132.71],[22.4673,-11.1433,1135.1907],[22.4872,-11.1322,1133.5035],[22.4949,-11.1205,1132.8641],[22.4973,-11.1129,1134.2865],[22.498,-11.098,1133.4039],[22.49,-11.082,1132.6024],[22.489,-11.0684,1131.7704],[22.4911,-11.0608,1131.7441],[22.4975,-11.0515,1131.2157],[22.5083,-11.0434,1136.6584],[22.5337,-11.0412,1137.6014],[22.562,-11.031,1145.052],[22.573,-11.031,1146.2542],[22.585,-11.036,1144.637],[22.61,-11.056,1139.9645],[22.6536,-11.0827,1147.1111],[22.6927,-11.0989,1148.875],[22.694,-11.101,1149.7916],[22.723,-11.11,1153.2556],[22.746,-11.114,1156.2244],[22.787,-11.113,1162.3777],[22.793,-11.111,1164.1871],[22.8009,-11.1057,1162.5641],[22.8059,-11.0931,1160.6705],[22.8123,-11.0831,1165.8623],[22.833,-11.081,1163.623],[22.841,-11.077,1168.8555],[22.8591,-11.0616,1167.3593],[22.8673,-11.0619,1168.9774],[22.8794,-11.0665,1175.6116],[22.904,-11.081,1176.3481],[22.959,-11.098,1173.4602],[22.9761,-11.1006,1173.38],[23.0022,-11.0992,1181.6379],[23.0143,-11.1001,1181.754],[23.032,-11.109,1168.7312],[23.073,-11.123,1179.4792],[23.084,-11.124,1192.0186],[23.102,-11.119,1194.4019],[23.1419,-11.0955,1203.8804],[23.1522,-11.0932,1205.8765],[23.183,-11.102,1210.5508],[23.197,-11.104,1210.1625],[23.203,-11.102,1210.5092],[23.225,-11.087,1198.5259],[23.252,-11.059,1207.8584],[23.272,-11.046,1214.2396],[23.289,-11.031,1211.0164],[23.338,-11.003,1210.8435],[23.36,-10.983,1213.222],[23.384,-10.966,1220.9268],[23.4192,-10.9445,1228.3702],[23.4355,-10.9382,1231.2593],[23.459,-10.939,1223.6973],[23.5056,-10.9463,1238.0922],[23.5404,-10.9595,1246.6021],[23.5594,-10.9734,1245.8762],[23.5762,-10.9895,1232.377],[23.585,-10.993,1244.1282],[23.6,-10.994,1250.625],[23.629,-10.991,1254.6151],[23.651,-11.003,1253.7371],[23.672,-11.008,1275.3075],[23.693,-11.0048,1271.3071],[23.7079,-11.0078,1273.6324],[23.717,-11.005,1271.6638],[23.7369,-10.9933,1275.9071],[23.7448,-10.9923,1271.4073],[23.7634,-10.9974,1271.083],[23.7808,-11.0062,1280.1023],[23.802,-11.021,1274.6334],[23.8155,-11.0279,1284.455],[23.8304,-11.03,1276.2734],[23.852,-11.0277,1299.6516],[23.863,-11.023,1296.114],[23.872,-11.017,1273.4302],[23.8854,-11.0013,1261.434],[23.8905,-10.9875,1257.8329],[23.8961,-10.9832,1252.0349],[23.917,-10.973,1251.2793],[23.945,-10.955,1261.345],[23.96,-10.938,1271.9495],[23.97,-10.921,1267.1913],[23.973,-10.905,1266.6152],[23.984,-10.8941,1262.9097],[23.9887,-10.8921,1269.6987],[23.9949,-10.8926,1269.3402],[23.9922,-10.8962,1267.8132],[24.0065,-10.8911,1279.8604],[24.0299,-10.8887,1275.0399],[24.0598,-10.8902,1289.153],[24.0685,-10.8922,1305.2635],[24.090699999999998,-10.8989,1301.3801],[24.0949,-10.9019,1303.6079],[24.105,-10.9036,1301.6086],[24.1159,-10.9138,1293.2189],[24.1178,-10.9211,1291.7075],[24.1173,-10.9326,1291.5056],[24.1135,-10.9516,1299.759],[24.1194,-10.9608,1301.7954],[24.1265,-10.9682,1301.3877],[24.1298,-10.9879,1301.5836],[24.128,-11.0093,1288.6732],[24.1289,-11.0142,1295.7324],[24.1362,-11.0245,1281.2632],[24.1508,-11.0295,1304.8163],[24.1739,-11.0176,1314.3854],[24.1707,-11.001,1289.1508],[24.1795,-10.992,1285.1147],[24.1967,-10.9837,1278.0256],[24.2297,-10.9791,1266.6382],[24.2413,-10.9735,1296.495],[24.2519,-10.9541,1288.634],[24.2592,-10.9348,1266.41],[24.2649,-10.9117,1274.3762],[24.2621,-10.8991,1248.6484],[24.2643,-10.8924,1246.6191],[24.2739,-10.8924,1261.8579],[24.2804,-10.8893,1261.5708],[24.2939,-10.8879,1247.608],[24.2997,-10.8846,1245.2407],[24.3071,-10.8844,1266.2606],[24.3141,-10.8896,1244.3035],[24.3211,-10.891,1241.5793],[24.3281,-10.8895,1244.343],[24.3388,-10.8902,1237.8757],[24.3534,-10.8864,1241.1547],[24.367,-10.8927,1240.0919],[24.3879,-10.8825,1242.2755],[24.3987,-10.8744,1228.0752],[24.4024,-10.8672,1218.9138],[24.4054,-10.8649,1205.1106],[24.4023,-10.8539,1231.4736],[24.3953,-10.8406,1205.5857],[24.3966,-10.8323,1197.7467],[24.4012,-10.8275,1225.2018],[24.3974,-10.8134,1200.4714],[24.4025,-10.8084,1215.4119],[24.3985,-10.7989,1209.916],[24.3947,-10.7946,1200.7434],[24.3945,-10.7905,1190.5652],[24.3979,-10.7872,1193.5068],[24.3982,-10.7845,1197.1106],[24.3951,-10.7785,1206.1525],[24.3902,-10.7744,1199.6326],[24.3841,-10.7728,1189.6702],[24.3813,-10.7694,1193.2955],[24.379,-10.7689,1185.7747],[24.3748,-10.7618,1187.9316],[24.3699,-10.7603,1183.5072],[24.3689,-10.7515,1183.563],[24.3654,-10.7515,1184.1311],[24.359,-10.7431,1184.2328],[24.364,-10.724,1178.1372],[24.3635,-10.7102,1171.2368],[24.3595,-10.7008,1168.042],[24.3489,-10.6856,1138.6597],[24.3517,-10.6783,1140.4797],[24.3491,-10.6728,1137.1992],[24.344,-10.6762,1138.2687],[24.3445,-10.6553,1131.3882],[24.3424,-10.6503,1144.348],[24.3328,-10.6423,1132.0753],[24.3281,-10.6349,1131.3751],[24.3304,-10.6299,1129.6375],[24.3292,-10.6269,1130.2698],[24.3227,-10.6285,1129.832],[24.3197,-10.6258,1130.0498],[24.3171,-10.6159,1147.8396],[24.3187,-10.6115,1169.1805],[24.3128,-10.6015,1128.0447],[24.3172,-10.5975,1129.0901],[24.3188,-10.5934,1131.9434],[24.3164,-10.5853,1131.1636],[24.3168,-10.5725,1154.5157],[24.3147,-10.566,1125.9873],[24.3151,-10.5598,1126.0077],[24.3118,-10.5511,1139.0081],[24.3083,-10.55,1126.2737],[24.3038,-10.5387,1126.3809],[24.3014,-10.5215,1124.8721],[24.3072,-10.5143,1135.6185],[24.3118,-10.5042,1121.4304],[24.3077,-10.4941,1144.481],[24.3077,-10.4792,1168.0525],[24.3106,-10.4582,1170.9314],[24.3075,-10.4522,1178.0105],[24.2926,-10.4364,1157.8779],[24.2923,-10.419,1139.6348],[24.2946,-10.3983,1149.5931],[24.2912,-10.3839,1163.4384],[24.2798,-10.3808,1171.9778],[24.2668,-10.3808,1181.113],[24.2591,-10.3875,1184.2306],[24.2471,-10.3899,1189.4453],[24.2452,-10.3781,1184.0237],[24.2405,-10.3702,1182.5834],[24.2135,-10.3717,1183.3207],[24.208,-10.3622,1170.147],[24.2151,-10.3447,1142.2778],[24.2153,-10.3378,1167.381],[24.2118,-10.3321,1171.2144],[24.2062,-10.3273,1174.9917],[24.1799,-10.3286,1134.6577],[24.1678,-10.3217,1104.3846],[24.1611,-10.3225,1110.2181],[24.1506,-10.3154,1084.6854],[24.1326,-10.2927,1109.2059],[24.1307,-10.2879,1084.8412],[24.1325,-10.2801,1085.4706],[24.1306,-10.2748,1089.2054],[24.1194,-10.2622,1064.4583],[24.1296,-10.2569,1061.0505],[24.1349,-10.2515,1063.8676],[24.1397,-10.2419,1068.6073],[24.1427,-10.2281,1123.6704],[24.1431,-10.2168,1102.7004],[24.1344,-10.2028,1050.9907],[24.1242,-10.1971,1046.9067],[24.119,-10.184,1050.3805],[24.1127,-10.1795,1043.7345],[24.1075,-10.1613,1062.1278],[24.1084,-10.1248,1048.2136],[24.1433,-10.0981,1025.2144],[24.1445,-10.0949,1020.4867],[24.1421,-10.0832,1015.621],[24.143,-10.0752,1039.5967],[24.1411,-10.0669,1024.3247],[24.1417,-10.0602,1026.881],[24.1394,-10.0552,1032.7727],[24.1175,-10.0436,1083.967],[24.1142,-10.0385,1026.2203],[24.1195,-10.0323,1003.0169],[24.1221,-10.0249,1001.1558],[24.1334,-10.0117,1002.9307],[24.1222,-10.0124,1021.6685],[24.1036,-10.0084,1051.248],[24.095,-10.003,1074.8047],[24.0859,-9.9927,1048.4539],[24.085,-9.9564,1043.8507],[24.0869,-9.9501,1036.5798],[24.0935,-9.9437,1034.7697],[24.1058,-9.9363,1028.1003],[24.1083,-9.9291,1026.8628],[24.1053,-9.9218,1024.7246],[24.1045,-9.9142,1023.3603],[24.0873,-9.906,1022.1138],[24.0708,-9.9022,1026.1006],[24.0599,-9.8976,1017.6965],[24.0335,-9.8985,1015.6016],[24.0258,-9.8923,1014.9413],[24.0218,-9.8866,1023.0924],[24.0199,-9.8792,1026.5952],[24.0233,-9.8594,1012.6218],[24.0279,-9.847,1011.6638],[24.0276,-9.8412,1011.3594],[24.0207,-9.8401,1022.8993],[24.013,-9.8356,1011.316],[24.0079,-9.8349,1012.6085],[23.9952,-9.8377,1013.6531],[23.9884,-9.8364,1028.2494],[23.9675,-9.8277,1023.7509],[23.9573,-9.8271,1022.6891],[23.9511,-9.8299,1039.7634],[23.9469,-9.835,1037.9906],[23.9405,-9.8591,1027.6272],[23.942,-9.863,1035.6406],[23.9538,-9.8749,1036.5024],[23.9764,-9.8907,1034.1117],[23.9827,-9.8982,1035.6333],[23.9858,-9.9056,1035.7272],[23.9853,-9.9095,1035.9561],[23.9768,-9.9261,1046.0226],[23.975,-9.9413,1057.391],[23.9788,-9.9458,1056.9197],[23.9897,-9.9472,1047.384],[23.9943,-9.9501,1045.4115],[23.9967,-9.9543,1046.2057],[23.9969,-9.9651,1062.457],[23.9828,-9.9919,1080.8062],[23.9709,-9.9882,1076.8397],[23.9109,-9.8719,1036.7401],[23.9112,-9.9109,1057.3306],[23.9132,-9.9264,1070.0259],[23.9169,-9.9391,1067.3142],[23.9234,-9.9527,1071.1338],[23.9427,-9.9809,1062.3965],[23.9438,-10.0008,1045.9382],[23.9385,-10.0153,1045.5415],[23.8536,-10.0192,1048.0183],[23.8349,-10.0155,1052.864],[23.8284,-10.0028,1030.4297],[23.8179,-9.9914,1022.4664],[23.8076,-9.9899,1021.326],[23.7972,-10.0168,1014.886],[23.7955,-10.0326,1029.8118],[23.7818,-10.0711,1070.0614],[23.7641,-10.0706,1029.5153],[23.7553,-10.0615,1027.4514],[23.753,-10.0488,998.3674],[23.7363,-10.0089,1078.4697],[23.7303,-10.0007,1072.8285],[23.6933,-9.9734,1020.975],[23.6864,-9.9732,1005.9174],[23.6803,-9.977,986.1814],[23.6517,-10.0056,966.5269],[23.6343,-10.0066,962.4875],[23.616,-10.0,964.6561],[23.6145,-9.9839,954.5548],[23.6165,-9.9478,954.4848],[23.6118,-9.9322,932.765],[23.593,-9.9108,932.2283],[23.5753,-9.9416,962.5009],[23.5573,-9.9651,979.4846],[23.544,-9.9974,1018.2174],[23.5237,-10.0707,1014.5699],[23.5003,-10.0919,1040.7285],[23.4776,-10.096,1000.1029],[23.4634,-10.0821,990.5605],[23.4578,-10.0795,994.9194],[23.4502,-10.0821,1002.5693],[23.4314,-10.0808,977.0461],[23.4165,-10.073,966.7197],[23.384,-10.0694,958.1176],[23.367,-10.0651,960.5609],[23.3497,-10.0697,951.3922],[23.3367,-10.0697,950.2324],[23.3272,-10.0739,947.9225],[23.3058,-10.0792,929.6506],[23.2912,-10.08,928.0116],[23.2836,-10.0827,927.5917],[23.2629,-10.0963,938.0211],[23.2516,-10.0982,936.1963],[23.1896,-10.099,915.5938],[23.1766,-10.0977,913.017],[23.1657,-10.0931,915.186],[23.1474,-10.092,916.3922],[23.1346,-10.0867,909.5581],[23.1265,-10.0805,909.803],[23.1044,-10.0575,904.2868],[23.1007,-10.05,905.3336],[23.0983,-10.0311,918.9526],[23.0943,-10.0226,900.6959],[23.0732,-10.0075,898.2268],[23.0539,-9.9854,895.7628],[23.0379,-9.9735,894.2301],[23.0333,-9.9788,894.8954],[23.0323,-9.9834,895.0935],[23.03,-9.9862,895.1049],[23.0317,-9.994,895.2164],[23.0319,-10.0144,902.2057],[23.0275,-10.0243,915.1128],[23.0206,-10.0317,895.4263],[23.0213,-10.0331,895.2666],[23.0109,-10.042,895.5878],[23.0116,-10.0494,898.062],[23.0069,-10.0558,904.533],[22.9462,-10.0483,982.0185],[22.928,-10.0437,993.274],[22.918,-10.0383,1013.9592],[22.9072,-10.05,1014.9781],[22.8862,-10.0445,993.7224],[22.8689,-10.0354,1004.0652],[22.8216,-10.0353,1016.4952],[22.8089,-10.0316,1018.7595],[22.7952,-10.0253,1018.474],[22.7375,-10.0158,1027.6605],[22.7241,-9.9714,1012.971],[22.7134,-9.9632,983.1511],[22.7092,-9.9576,1015.4529],[22.6856,-9.9526,984.6579],[22.677,-9.9478,982.7534],[22.6288,-9.8917,1006.1245],[22.6161,-9.869,1032.2834],[22.5968,-9.8814,1049.3148],[22.5832,-9.8823,1042.6273],[22.556,-9.8904,1039.2004],[22.5488,-9.904,1033.9192],[22.5473,-9.9375,1037.5046],[22.5532,-9.9893,1035.2532],[22.5334,-10.011,1028.8539],[22.5136,-10.0291,1045.3132],[22.47,-10.0362,1035.8772],[22.3948,-10.0559,1041.8733],[22.372,-10.0532,1057.0288],[22.3348,-10.054,1016.6215],[22.3231,-10.0621,1004.1848],[22.2789,-10.1028,996.2749],[22.2725,-10.1037,981.8931],[22.2616,-10.0973,990.2054],[22.2194,-10.0816,965.6125],[22.2256,-10.1114,962.0561],[22.2248,-10.1204,964.9492],[22.2201,-10.1293,955.0],[22.2242,-10.1371,961.0823],[22.223,-10.159,964.7144],[22.2351,-10.1819,960.543],[22.2386,-10.1988,960.73],[22.236,-10.209,957.4224],[22.239,-10.215,958.2714],[22.2449,-10.2212,958.5859],[22.2448,-10.2304,962.5527],[22.2481,-10.241,958.5622],[22.2613,-10.2639,968.8116],[22.2406,-10.29,994.3668],[22.2464,-10.2998,979.5067],[22.2555,-10.3063,993.7052],[22.285,-10.307,959.9903],[22.298,-10.3154,961.5576],[22.3067,-10.3276,963.1509],[22.3125,-10.3402,968.5687],[22.3141,-10.3503,973.0748],[22.3096,-10.3507,961.4177],[22.3116,-10.3684,963.9827],[22.3281,-10.3868,965.3528],[22.3292,-10.3994,967.9173],[22.3228,-10.4202,974.2946],[22.3165,-10.4267,967.413],[22.3104,-10.4367,986.2435],[22.3092,-10.4507,993.3577],[22.2959,-10.467,975.432],[22.2927,-10.4975,994.5514],[22.2885,-10.5041,995.5594],[22.278,-10.5085,970.852],[22.278,-10.516,969.3595],[22.2884,-10.5207,972.6978],[22.3102,-10.5355,970.6143],[22.3159,-10.5421,983.1539],[22.3148,-10.5557,978.1729],[22.3183,-10.5766,996.5243],[22.3166,-10.6083,987.1078]],
[[23.4605,-10.3466,1073.4437],[23.4667,-10.345,1074.6846],[23.4737,-10.3541,1059.2562],[23.4745,-10.3595,1075.5145],[23.4732,-10.3648,1074.873],[23.4678,-10.3715,1079.2966],[23.461,-10.3774,1092.2323],[23.4391,-10.3718,1105.9412],[23.434,-10.3619,1086.8043],[23.4353,-10.3563,1091.6326],[23.4413,-10.3485,1083.5533],[23.4551,-10.3461,1057.5499],[23.4605,-10.3466,1073.4437]]]]}
,"properties": {"GID_2": "COD.15.1_1","GID_0": "COD","country": "DemocraticRepublicoftheCongo","GID_1": "COD.15_1","province": "Lualaba","NL_NAME_1": "NA","county": "Dilolo","VARNAME_2": "NA","NL_NAME_2": "NA","TYPE_2": "Territoire","ENGTYPE_2": "Territory","CC_2": "NA","HASC_2": "NA","name": "Dilolo.county","area_km2": 24894.34,"hist_schema_id": "Elevation0-9000","hist_area_km2": {"900": 213.97,"925": 390.32,"950": 707.87,"975": 1199.05,"1000": 1834.78,"1025": 3085.03,"1050": 2868.3,"1075": 2543.72,"1100": 2368.15,"1125": 2534.32,"1150": 1839.54,"1175": 1679.14,"1200": 1517.93,"1225": 913.16,"1250": 491.9,"1275": 340.33,"1300": 321.13,"1325": 45.7}}}