{"type": "Feature","bbox": [28.9988,-0.1525,29.9904,0.9542],"geometry": {"type": "MultiPolygon","coordinates": [[[[29.3867,0.8209,908.9202],[29.3827,0.8256,919.5307],[29.3775,0.8278,920.7113],[29.3697,0.8221,931.241],[29.3695,0.7876,946.7435],[29.3657,0.7759,961.1475],[29.3643,0.7638,960.9171],[29.3706,0.7534,957.8672],[29.3701,0.747,949.6128],[29.3612,0.7236,927.6619],[29.3476,0.7134,914.1555],[29.347,0.7098,919.251],[29.3501,0.7042,936.7192],[29.3629,0.6931,931.0218],[29.3767,0.697,946.7981],[29.3894,0.6837,966.6198],[29.3943,0.6714,983.4933],[29.4113,0.6658,1016.2752],[29.4319,0.6513,1039.6162],[29.4695,0.6487,1057.8881],[29.4739,0.6253,1050.6449],[29.4569,0.6154,1027.0475],[29.4337,0.6085,1035.936],[29.407,0.6036,988.9301],[29.3922,0.6029,968.1248],[29.3813,0.5963,988.176],[29.365,0.611,962.9895],[29.3643,0.6126,957.8166],[29.3671,0.6154,946.6381],[29.3662,0.6167,942.7908],[29.3591,0.6163,944.3503],[29.3475,0.6227,939.5504],[29.3392,0.6251,935.0125],[29.334,0.6241,927.9702],[29.3301,0.6253,940.722],[29.3281,0.6283,930.2705],[29.3283,0.6324,926.543],[29.332,0.6407,924.0808],[29.3313,0.6446,934.1119],[29.3388,0.6526,924.4061],[29.3395,0.6561,926.1844],[29.3363,0.6595,926.5327],[29.3366,0.6627,918.9932],[29.3261,0.6738,909.7257],[29.3297,0.6844,909.7606],[29.3254,0.6869,910.4995],[29.3086,0.6796,937.5509],[29.3044,0.6756,942.5634],[29.2963,0.6606,977.85],[29.295,0.6461,969.8605],[29.2871,0.6344,1012.5223],[29.2855,0.6264,988.3854],[29.2807,0.6179,953.1702],[29.2863,0.6039,958.8459],[29.2901,0.6007,970.6425],[29.2919,0.5899,980.9101],[29.2905,0.5867,968.687],[29.2827,0.5886,947.6234],[29.2766,0.5961,951.4192],[29.2637,0.6036,924.7795],[29.2536,0.6188,892.1278],[29.2222,0.6169,862.6398],[29.2187,0.6252,856.2915],[29.2149,0.6259,851.6],[29.2046,0.6335,842.377],[29.2037,0.6386,842.1725],[29.1973,0.6406,837.8854],[29.1946,0.6445,826.3528],[29.1873,0.6455,818.0946],[29.1818,0.6549,811.5534],[29.177,0.6482,818.1254],[29.1752,0.6496,818.4938],[29.1734,0.6561,823.3719],[29.1651,0.6584,821.1965],[29.1624,0.6618,811.2787],[29.1649,0.6655,808.964],[29.1629,0.6768,811.5239],[29.157,0.6761,810.9636],[29.1343,0.6621,822.0358],[29.1279,0.6612,827.3702],[29.1224,0.6547,863.5685],[29.1177,0.6518,841.1465],[29.1101,0.6502,837.701],[29.104,0.6536,827.7316],[29.1017,0.6424,827.1664],[29.0989,0.6391,827.1672],[29.085,0.6332,851.8956],[29.0756,0.6314,846.1777],[29.0727,0.6288,848.1348],[29.0706,0.6171,834.8616],[29.0676,0.6123,829.0895],[29.0621,0.6082,844.0057],[29.0612,0.6003,846.8253],[29.0537,0.5937,854.9576],[29.0592,0.5866,852.3829],[29.0486,0.5753,906.869],[29.0514,0.5723,870.7717],[29.0468,0.5691,981.23],[29.047,0.5645,868.6693],[29.0448,0.5592,871.2034],[29.0463,0.5528,851.3987],[29.0447,0.5512,857.278],[29.04,0.5507,890.0581],[29.0406,0.5457,858.8339],[29.0372,0.5425,871.2332],[29.0383,0.5376,848.032],[29.0361,0.5347,850.443],[29.0319,0.5351,841.6745],[29.0269,0.5326,870.101],[29.0253,0.5298,871.4225],[29.0271,0.5257,885.1538],[29.0224,0.5243,872.9667],[29.0153,0.5156,903.6526],[29.0084,0.5007,895.0363],[29.0077,0.4945,900.9829],[29.0091,0.488,898.2214],[29.0105,0.4867,894.2356],[29.0139,0.4873,878.4781],[29.0146,0.4853,873.558],[29.0132,0.4837,886.0315],[29.0212,0.4795,886.4868],[29.0248,0.4715,906.9608],[29.0228,0.4678,913.3294],[29.0271,0.4637,908.998],[29.0241,0.4582,938.0718],[29.0145,0.4515,910.245],[29.0031,0.4272,943.683],[28.9988,0.4233,961.7661],[29.0035,0.4161,946.5101],[29.0035,0.4106,1010.0361],[29.0111,0.4019,999.207],[29.0274,0.3966,1025.1857],[29.0727,0.3886,1184.6747],[29.0807,0.383,1385.6377],[29.0833,0.3786,1561.0573],[29.0893,0.3515,1102.3881],[29.097,0.3404,1135.6608],[29.1155,0.3292,1202.5583],[29.1072,0.3197,1249.3029],[29.0948,0.3101,1206.1306],[29.0816,0.3054,1159.2427],[29.0627,0.3028,1160.6641],[29.0583,0.2998,1151.3732],[29.0565,0.2958,1222.8831],[29.0576,0.2897,1229.1166],[29.064,0.2844,1171.9521],[29.091,0.2729,1609.2104],[29.1037,0.2724,1571.7695],[29.1128,0.2739,1485.98],[29.1221,0.2809,1344.8796],[29.1341,0.2783,1676.3275],[29.1481,0.2639,1884.5979],[29.1496,0.2588,1831.9492],[29.1461,0.2457,1603.6395],[29.1473,0.2385,1578.3715],[29.1558,0.2292,1511.707],[29.1559,0.2237,1510.9629],[29.1527,0.2174,1509.1708],[29.1496,0.201,1484.8992],[29.1515,0.1929,1526.8335],[29.1584,0.1859,1589.5583],[29.1889,0.1685,1736.7988],[29.1964,0.1789,1716.4213],[29.2125,0.1756,1825.6997],[29.2195,0.1763,1913.3724],[29.2261,0.1851,1887.5444],[29.2307,0.2085,1672.92],[29.2382,0.2115,1761.8197],[29.2604,0.2147,1842.1238],[29.2699,0.2125,1951.8994],[29.2738,0.2055,1941.8254],[29.2838,0.1939,1871.8876],[29.3029,0.2006,1802.4448],[29.3135,0.2001,1692.4226],[29.3316,0.1916,1764.9948],[29.3419,0.1776,1741.1338],[29.3487,0.1652,1763.2847],[29.3528,0.1411,1805.8091],[29.3587,0.1293,1795.3201],[29.3653,0.1104,1838.296],[29.3611,0.1013,1844.0394],[29.3523,0.0983,1841.5972],[29.3611,0.0674,1958.3186],[29.366,0.0689,1945.918],[29.3737,0.0656,1918.9641],[29.3903,0.0472,1938.616],[29.3827,0.0458,1877.5991],[29.3804,0.0433,1848.9603],[29.3795,0.0357,1946.7346],[29.3818,0.0226,1929.673],[29.3799,0.0,2002.2452],[29.3826,-0.0026,2020.1182],[29.3755,-0.0089,1912.6619],[29.369,-0.025,2073.1462],[29.3759,-0.0346,2190.1108],[29.3739,-0.0412,2017.2318],[29.3817,-0.0419,2029.5051],[29.3856,-0.0451,2137.0112],[29.3895,-0.0453,2122.4006],[29.3935,-0.0421,2076.917],[29.3976,-0.0411,2132.6072],[29.3999,-0.0361,2092.4241],[29.4044,-0.034,2145.2437],[29.4092,-0.0339,2124.3193],[29.4127,-0.0376,2095.2905],[29.4148,-0.0433,2132.1104],[29.4146,-0.0532,2153.4861],[29.4174,-0.0626,2202.2334],[29.4123,-0.083,2273.9814],[29.405,-0.0884,2196.9741],[29.403,-0.093,2205.3289],[29.4037,-0.1072,2249.7476],[29.4101,-0.1361,2543.9341],[29.4283,-0.1276,2840.9241],[29.4454,-0.1264,2592.1211],[29.4584,-0.1296,2305.7432],[29.4817,-0.141,1689.4877],[29.5272,-0.1448,956.6595],[29.5391,-0.1525,932.9586],[29.5782,-0.1446,928.614],[29.5926,-0.1388,921.5421],[29.608,-0.1375,960.515],[29.6156,-0.1341,974.6561],[29.6414,-0.1294,959.4833],[29.6501,-0.1239,967.8815],[29.6549,-0.1181,1026.3278],[29.6742,-0.1102,992.3537],[29.6814,-0.1045,1003.4929],[29.6963,-0.0789,945.9249],[29.6966,-0.0756,940.0654],[29.6989,-0.0733,936.7693],[29.7052,-0.0722,916.3933],[29.6971,-0.0712,992.0173],[29.6971,-0.0688,993.7954],[29.7019,-0.066,930.4677],[29.7055,-0.0695,919.8705],[29.7073,-0.0686,920.3705],[29.7152,-0.0725,917.8109],[29.7245,-0.0746,924.7728],[29.7265,-0.0733,923.5842],[29.7242,-0.0657,924.0854],[29.725,-0.0585,931.8375],[29.726,-0.0556,927.4159],[29.7291,-0.0541,930.0398],[29.7283,-0.0495,934.1119],[29.7298,-0.0462,938.6823],[29.7296,-0.0415,940.5681],[29.7274,-0.0378,965.034],[29.7299,-0.038,943.61],[29.7315,-0.034,982.9008],[29.7375,-0.035,946.9726],[29.7376,-0.0324,957.2731],[29.7387,-0.033,954.704],[29.7413,-0.0295,962.8335],[29.7398,-0.0287,962.8335],[29.7414,-0.0264,972.7534],[29.7436,-0.0271,956.586],[29.7462,-0.0228,1013.013],[29.7574,-0.0138,1050.1201],[29.7423,0.0066,1059.0078],[29.7395,0.0057,1055.3339],[29.7368,0.0,1033.4751],[29.7329,-0.0025,1032.0525],[29.7306,-0.0063,980.2751],[29.7285,-0.0019,1011.6377],[29.7247,-0.0011,1027.8402],[29.7245,0.0008,1047.6416],[29.7261,0.0015,1034.103],[29.7247,0.0022,1050.5508],[29.7272,0.0041,1009.0125],[29.7262,0.0075,1026.3367],[29.7282,0.0101,1014.6978],[29.7223,0.0141,1063.6469],[29.7274,0.02,1088.594],[29.7205,0.0242,1041.2397],[29.7204,0.0288,1049.6923],[29.7189,0.0293,1060.1082],[29.721,0.0335,1059.7925],[29.7187,0.033,1053.4692],[29.7152,0.0376,1074.4095],[29.7191,0.0438,1062.4939],[29.717,0.0556,1068.9331],[29.7314,0.0605,1142.335],[29.731,0.0651,1123.699],[29.7354,0.0716,1137.4631],[29.7277,0.0753,1127.1976],[29.7179,0.0731,1089.6433],[29.717,0.0779,1129.5033],[29.7286,0.0821,1154.1323],[29.7324,0.0871,1151.6134],[29.7321,0.0908,1173.7828],[29.7347,0.0916,1155.3665],[29.7357,0.0903,1153.4358],[29.7374,0.0924,1163.4812],[29.7384,0.0907,1181.7166],[29.7423,0.0913,1242.5577],[29.7484,0.0837,1216.4508],[29.748,0.1068,1387.6941],[29.7531,0.1153,1507.7472],[29.7515,0.1173,1600.6479],[29.751,0.1138,1544.2341],[29.7461,0.1105,1475.9812],[29.7446,0.1053,1343.9663],[29.7385,0.1017,1254.8733],[29.7391,0.098,1210.4812],[29.7332,0.0939,1178.6071],[29.7346,0.1043,1195.3843],[29.7332,0.1056,1311.4897],[29.7334,0.1121,1343.1467],[29.7353,0.1156,1461.6887],[29.7368,0.1157,1276.9075],[29.7366,0.1214,1316.9531],[29.7392,0.1227,1356.2411],[29.7371,0.1228,1337.0706],[29.7379,0.1242,1390.9661],[29.7359,0.1243,1359.5425],[29.7348,0.1271,1495.7941],[29.7409,0.13,1477.535],[29.7421,0.129,1473.1742],[29.744,0.1339,1504.1824],[29.7493,0.1342,1494.7174],[29.7501,0.1371,1567.3048],[29.7553,0.1424,1709.9067],[29.7666,0.1509,1669.4043],[29.7699,0.1586,1704.7688],[29.7682,0.1647,1757.4634],[29.7693,0.1667,1798.1414],[29.7725,0.1654,1743.231],[29.7762,0.1697,1845.8602],[29.7811,0.1707,1854.141],[29.7841,0.168,1832.535],[29.7887,0.1722,2009.954],[29.7931,0.17,1949.9139],[29.7982,0.1707,2093.6145],[29.8047,0.1668,2067.8943],[29.8055,0.1679,2204.8765],[29.811,0.1674,2232.3171],[29.8146,0.1658,2308.0195],[29.8192,0.169,2492.3635],[29.8234,0.1756,2692.8352],[29.8639,0.353,3784.687],[29.8733,0.351,3986.1165],[29.8732,0.357,4130.2466],[29.8788,0.3743,4732.021],[29.883,0.3856,4386.7666],[29.8876,0.3913,4336.1128],[29.8987,0.3958,4554.0283],[29.929,0.4034,3856.5847],[29.9467,0.4056,3806.6562],[29.9428,0.4086,3891.8032],[29.9342,0.4114,4185.9185],[29.9304,0.4197,4279.3555],[29.9187,0.422,4549.7568],[29.9159,0.424,4492.7397],[29.9125,0.4388,4407.1885],[29.9572,0.4949,3020.5962],[29.9787,0.5197,2345.6057],[29.9763,0.5275,2235.2656],[29.9769,0.5322,2235.8191],[29.9791,0.535,2166.2681],[29.9828,0.534,2415.7651],[29.9904,0.535,2559.082],[29.9887,0.543,2386.0857],[29.9817,0.5526,1899.3984],[29.9787,0.5604,1728.2931],[29.9769,0.5609,1682.3474],[29.9774,0.5639,1666.6318],[29.9687,0.5844,1342.4058],[29.9707,0.5876,1224.8226],[29.9693,0.5942,1194.2019],[29.9717,0.602,1131.4192],[29.9641,0.6172,1035.3353],[29.9617,0.6185,1021.6943],[29.9624,0.6213,1000.3944],[29.9548,0.6355,939.8064],[29.9544,0.6388,929.998],[29.957,0.6535,890.5014],[29.956,0.6561,880.0349],[29.9612,0.6683,865.0444],[29.9606,0.6734,872.2672],[29.9626,0.6767,844.1398],[29.9614,0.6824,863.4852],[29.963,0.685,847.3285],[29.9659,0.6848,809.6969],[29.967,0.6901,829.1124],[29.9707,0.6957,794.6709],[29.9711,0.7,765.7077],[29.968,0.7045,761.6291],[29.9708,0.7073,759.7083],[29.971,0.7117,751.8772],[29.9696,0.7122,751.2734],[29.9691,0.7154,747.7732],[29.9662,0.7169,748.2959],[29.9669,0.7189,746.9537],[29.9685,0.719,742.5835],[29.9674,0.7218,748.3517],[29.9693,0.7253,738.934],[29.968,0.7255,739.6648],[29.9682,0.7271,745.0751],[29.9707,0.7277,736.2421],[29.9704,0.7304,736.6363],[29.9733,0.7318,730.6223],[29.972,0.7322,760.5144],[29.9752,0.7458,717.895],[29.9741,0.7499,717.8052],[29.972,0.7502,718.3971],[29.9698,0.7544,716.4364],[29.9713,0.7564,710.2103],[29.9686,0.7587,709.3593],[29.9681,0.7619,713.5902],[29.9646,0.7626,707.053],[29.9661,0.7667,702.9097],[29.9654,0.7694,700.168],[29.9632,0.7702,722.2517],[29.9646,0.7745,696.8022],[29.9632,0.7781,697.5474],[29.9611,0.7781,701.9484],[29.9603,0.7869,710.3965],[29.9696,0.8104,704.8802],[29.9706,0.8143,702.0688],[29.9695,0.8158,701.6382],[29.9716,0.8189,699.9806],[29.973,0.8185,708.8666],[29.9784,0.8317,682.7234],[29.9819,0.8327,685.6375],[29.9829,0.8363,674.1025],[29.9701,0.8349,671.0524],[29.9646,0.8319,676.2452],[29.9557,0.8227,680.8882],[29.9571,0.8163,680.5349],[29.9538,0.8133,673.9197],[29.9495,0.8168,686.4072],[29.945,0.817,687.9962],[29.9365,0.8072,679.9115],[29.9237,0.7987,698.6141],[29.907,0.8051,695.9942],[29.907,0.8109,701.9504],[29.9089,0.8137,701.6925],[29.8998,0.8242,758.3654],[29.8986,0.8344,729.4528],[29.8952,0.8438,731.4802],[29.8879,0.8475,749.7906],[29.8788,0.8578,811.6587],[29.875,0.8666,819.0266],[29.8768,0.8882,846.3876],[29.8752,0.8907,937.5081],[29.8684,0.8889,1073.8807],[29.865,0.8898,1170.7599],[29.8602,0.8974,1162.7593],[29.8628,0.9307,1438.5029],[29.8626,0.9505,1424.3483],[29.8612,0.9542,1435.917],[29.8515,0.9399,1359.2021],[29.8381,0.9414,1210.6195],[29.826,0.932,1203.9785],[29.8216,0.9308,1203.4326],[29.8078,0.9105,1207.4186],[29.7981,0.9096,1165.5585],[29.7946,0.9064,1150.4635],[29.7629,0.9092,1128.542],[29.7561,0.908,1124.1062],[29.7435,0.897,1157.9116],[29.7453,0.8873,1089.2937],[29.741,0.8749,1084.506],[29.7352,0.8745,1035.5339],[29.7268,0.8655,1071.674],[29.7047,0.8644,1100.875],[29.696,0.8683,1150.646],[29.6689,0.8977,1173.311],[29.6636,0.9061,1172.3223],[29.6591,0.9077,1176.9779],[29.6485,0.9015,1273.6158],[29.6409,0.901,1232.1729],[29.6367,0.8954,1125.6714],[29.634,0.8861,1113.6145],[29.6274,0.8816,1112.679],[29.6262,0.8736,1084.4761],[29.6275,0.8563,1163.63],[29.6232,0.8535,1155.6355],[29.6138,0.8546,1097.6576],[29.6001,0.8612,1070.7102],[29.5859,0.8619,1048.1177],[29.5725,0.871,1028.6749],[29.5598,0.8748,1032.6782],[29.5373,0.8633,1007.8434],[29.5229,0.8612,991.4216],[29.5208,0.8543,990.8331],[29.5216,0.8471,1003.722],[29.5282,0.8375,1108.6577],[29.5291,0.813,1035.183],[29.5369,0.7887,1044.8691],[29.5096,0.7902,1020.3191],[29.4946,0.801,1003.1301],[29.4861,0.842,972.5582],[29.4813,0.845,970.7544],[29.4754,0.8528,968.0709],[29.4581,0.8602,961.9031],[29.4549,0.8586,943.0182],[29.4519,0.852,945.9106],[29.4471,0.8474,938.6033],[29.4448,0.8373,931.8516],[29.442,0.834,936.6348],[29.4297,0.8302,930.6055],[29.4199,0.8233,931.0948],[29.4158,0.8157,923.6581],[29.4096,0.815,923.3838],[29.4046,0.81,928.567],[29.3986,0.8116,922.2945],[29.3961,0.8164,922.1368],[29.3884,0.819,917.799],[29.3867,0.8209,908.9202]],
[[29.3644,0.5266,1049.3765],[29.3672,0.533,1044.7478],[29.3841,0.5448,1022.5665],[29.4171,0.5553,1038.3096],[29.4288,0.5554,1048.3057],[29.4361,0.5511,1036.9109],[29.4801,0.5502,1072.5889],[29.489,0.5548,1064.114],[29.492,0.5727,1027.3584],[29.4995,0.5846,1026.8879],[29.5117,0.5855,968.7611],[29.5227,0.5795,941.728],[29.5277,0.5786,926.8607],[29.535,0.5811,927.5913],[29.5333,0.5685,935.1752],[29.5286,0.5574,967.9039],[29.5298,0.548,961.7646],[29.5501,0.4894,964.1939],[29.5522,0.4738,913.8567],[29.5467,0.4662,912.3839],[29.5132,0.3887,907.0098],[29.4933,0.3764,925.5422],[29.4033,0.3802,1534.3568],[29.3971,0.4101,1323.2163],[29.3695,0.4359,1121.4355],[29.3547,0.4662,1082.323],[29.3542,0.5038,1048.4264],[29.3644,0.5266,1049.3765]],
[[29.5439,0.733,1059.2029],[29.56,0.7209,1063.7489],[29.562,0.7048,973.201],[29.562,0.6866,949.1063],[29.552,0.6665,1003.0298],[29.5319,0.6584,1002.8439],[29.5059,0.6665,1061.4518],[29.4879,0.6967,1053.719],[29.4899,0.7229,1042.2446],[29.5139,0.731,1028.3413],[29.5439,0.733,1059.2029]]],
[[[29.9596,0.4075,4195.7959],[29.9621,0.4098,4271.5444],[29.9583,0.4071,4195.7959],[29.9596,0.4075,4195.7959]]]]}
,"properties": {"GID_2": "COD.19.7_1","GID_0": "COD","country": "DemocraticRepublicoftheCongo","GID_1": "COD.19_1","province": "Nord-Kivu","NL_NAME_1": "NA","county": "Oicha","VARNAME_2": "NA","NL_NAME_2": "NA","TYPE_2": "Territoire","ENGTYPE_2": "Territory","CC_2": "NA","HASC_2": "NA","name": "Oicha.county","area_km2": 7249.848,"hist_schema_id": "Elevation0-9000","hist_area_km2": {"675": 5.342,"700": 41.214,"725": 104.583,"750": 195.894,"775": 342.116,"800": 305.566,"825": 214.086,"850": 197.826,"875": 178.619,"900": 227.194,"925": 369.521,"950": 510.51,"975": 503.856,"1000": 400.752,"1025": 378.36,"1050": 343.122,"1075": 260.501,"1100": 180.276,"1125": 142.94,"1150": 120.784,"1175": 96.255,"1200": 81.923,"1225": 69.181,"1250": 59.025,"1275": 51.796,"1300": 48.022,"1325": 52.114,"1350": 55.04,"1375": 54.637,"1400": 51.732,"1425": 47.789,"1450": 46.793,"1475": 46.199,"1500": 46.814,"1525": 47.047,"1550": 44.863,"1575": 46.623,"1600": 44.312,"1625": 45.839,"1650": 44.545,"1675": 42.976,"1700": 44.609,"1725": 47.492,"1750": 47.302,"1775": 46.517,"1800": 46.475,"1825": 49.061,"1850": 47.196,"1875": 42.213,"1900": 36.065,"1925": 31.379,"1950": 27.478,"1975": 22.305,"2000": 18.955,"2025": 18.106,"2050": 18.446,"2075": 17.958,"2100": 18.467,"2125": 19.167,"2150": 20.799,"2175": 20.142,"2200": 21.075,"2225": 18.806,"2250": 18.149,"2275": 15.287,"2300": 13.951,"2325": 13.696,"2350": 11.937,"2375": 9.838,"2400": 9.371,"2425": 9.604,"2450": 8.629,"2475": 8.375,"2500": 8.035,"2525": 6.806,"2550": 6.869,"2575": 6.785,"2600": 6.954,"2625": 6.509,"2650": 7.103,"2675": 6.848,"2700": 6.912,"2725": 6.721,"2750": 6.0,"2775": 7.209,"2800": 6.021,"2825": 6.085,"2850": 6.148,"2875": 5.131,"2900": 4.41,"2925": 4.58,"2950": 4.516,"2975": 4.452,"3000": 4.58,"3025": 4.601,"3050": 4.516,"3075": 4.622,"3100": 3.753,"3125": 4.028,"3150": 3.774,"3175": 4.346,"3200": 4.389,"3225": 3.795,"3250": 4.262,"3275": 3.922,"3300": 4.113,"3325": 3.562,"3350": 3.901,"3375": 3.095,"3400": 3.329,"3425": 3.329,"3450": 3.329,"3475": 3.095,"3500": 3.286,"3525": 2.841,"3550": 2.989,"3575": 2.905,"3600": 3.159,"3625": 3.117,"3650": 2.587,"3675": 2.693,"3700": 2.735,"3725": 2.671,"3750": 2.565,"3775": 2.226,"3800": 2.608,"3825": 2.968,"3850": 2.587,"3875": 2.587,"3900": 2.989,"3925": 2.396,"3950": 2.205,"3975": 2.841,"4000": 2.417,"4025": 2.82,"4050": 2.184,"4075": 2.332,"4100": 2.184,"4125": 2.226,"4150": 2.035,"4175": 2.353,"4200": 2.459,"4225": 1.929,"4250": 1.972,"4275": 1.929,"4300": 1.675,"4325": 2.014,"4350": 1.569,"4375": 1.527,"4400": 1.675,"4425": 1.357,"4450": 1.293,"4475": 0.996,"4500": 0.954,"4525": 0.912,"4550": 0.594,"4575": 0.466,"4600": 0.678,"4625": 0.53,"4650": 0.615,"4675": 0.403,"4700": 0.551,"4725": 0.424,"4750": 0.382,"4775": 0.382,"4800": 0.382,"4825": 0.233,"4850": 0.148,"4875": 0.127,"4950": 0.085,"5000": 0.064}}}