{"type":"Feature","properties":{"GID_2":"COD.20.5_1","GID_0":"COD","country":"DemocraticRepublicoftheCongo","GID_1":"COD.20_1","province":"Nord-Ubangi","NL_NAME_1":"NA","county":"Mobayi-Mbongo(ville)","VARNAME_2":"NA","NL_NAME_2":"NA","TYPE_2":"Ville","ENGTYPE_2":"Town","CC_2":"NA","HASC_2":"NA","name":"Mobayi-Mbongo(ville).county"},
"geometry":{"type": "MultiPolygon","coordinates": [[[[21.1706,4.3071,376.5],[21.169,4.2937,384.5898],[21.1707,4.2751,435.7748],[21.1756,4.2581,430.856],[21.1835,4.2527,487.8273],[21.1951,4.2498,426.7312],[21.2068,4.2491,416.0518],[21.2111,4.251,424.5487],[21.2171,4.2565,436.5082],[21.2211,4.2652,447.7164],[21.2247,4.2889,377.5],[21.219,4.287,377.0],[21.2113,4.287,384.4456],[21.206,4.29,385.6158],[21.202,4.296,377.0],[21.192,4.304,385.9197],[21.182,4.301,380.4485],[21.175,4.302,376.5],[21.1706,4.3071,376.5]]]]}}