{"type": "Feature","bbox": [25.4872,-13.4525,29.8257,-7.6227],"geometry": {"type": "MultiPolygon","coordinates": [[[[28.5232,-11.882,1051.406],[28.5125,-11.8805,1053.4348],[28.5079,-11.8778,1048.0],[28.5044,-11.873,1053.8015],[28.5057,-11.8534,1061.1248],[28.4973,-11.8371,1056.8271],[28.4934,-11.8334,1054.8893],[28.4804,-11.8326,1047.4609],[28.4742,-11.8392,1057.3218],[28.4675,-11.8413,1059.3331],[28.4629,-11.8401,1053.6727],[28.4569,-11.8298,1058.7629],[28.4508,-11.825,1053.9243],[28.4479,-11.8196,1051.0151],[28.4483,-11.8138,1060.9495],[28.4533,-11.7978,1067.0],[28.464,-11.7827,1062.0344],[28.465,-11.7773,1058.3323],[28.4596,-11.7604,1061.1395],[28.4404,-11.7354,1046.542],[28.4298,-11.7281,1049.2897],[28.4295,-11.7237,1054.9321],[28.4421,-11.7156,1085.0294],[28.4462,-11.7113,1084.0986],[28.4487,-11.7035,1069.6804],[28.445,-11.6973,1085.4694],[28.4331,-11.6883,1059.5039],[28.4289,-11.6829,1073.8047],[28.4287,-11.6775,1071.1991],[28.4404,-11.6568,1058.8137],[28.4398,-11.6496,1055.8088],[28.4363,-11.6418,1046.3938],[28.4294,-11.6323,1053.3738],[28.4164,-11.6243,1042.5],[28.4071,-11.6141,1054.4108],[28.3935,-11.5933,1053.3455],[28.3916,-11.5797,1050.2002],[28.3939,-11.5514,1070.6638],[28.4039,-11.5036,1062.5686],[28.4046,-11.4853,1078.1116],[28.4077,-11.4759,1065.2241],[28.4219,-11.4632,1062.7582],[28.4285,-11.454,1055.4353],[28.4315,-11.4357,1074.5869],[28.44,-11.4198,1056.5062],[28.4358,-11.3963,1049.4846],[28.4369,-11.3907,1059.6028],[28.4402,-11.3861,1059.2283],[28.4511,-11.3825,1052.7357],[28.46,-11.3761,1053.1353],[28.464,-11.3682,1062.1068],[28.465,-11.3579,1063.9169],[28.4638,-11.3484,1048.5251],[28.4579,-11.3361,1038.2736],[28.456,-11.3258,1054.9082],[28.4575,-11.3135,1038.3833],[28.4615,-11.3035,1038.5439],[28.4665,-11.2975,1040.0232],[28.4784,-11.2915,1063.0892],[28.4804,-11.2871,1051.2299],[28.4798,-11.2752,1043.0083],[28.4825,-11.2656,1039.6398],[28.4907,-11.2544,1047.8544],[28.494,-11.246,1039.845],[28.4952,-11.2364,1036.9117],[28.4907,-11.2277,1032.8799],[28.489,-11.2191,1030.314],[28.4896,-11.2087,1028.0447],[28.5042,-11.1728,1046.4304],[28.505,-11.1556,1036.9895],[28.5007,-11.1408,1021.2892],[28.4936,-11.1332,1021.4043],[28.4846,-11.1174,1028.0513],[28.4827,-11.1112,1030.5134],[28.4836,-11.1045,1034.0447],[28.498,-11.0859,1038.5302],[28.5002,-11.0801,1045.0677],[28.5023,-11.0532,1017.6145],[28.5138,-11.0324,1021.0198],[28.518,-11.0188,1020.0304],[28.513,-10.999,1013.0],[28.5121,-10.9853,1013.0],[28.5146,-10.979,1016.0836],[28.5461,-10.9486,1021.9651],[28.5489,-10.9337,1015.3079],[28.5495,-10.9106,1013.2869],[28.5461,-10.8708,1017.0605],[28.5499,-10.8539,1009.0],[28.5551,-10.8459,1015.1218],[28.5609,-10.8313,1020.7869],[28.5801,-10.815,1013.9786],[28.5825,-10.7998,1008.0],[28.5859,-10.7934,1020.324],[28.6061,-10.7755,1021.2144],[28.6121,-10.7395,1016.7236],[28.6165,-10.732,1019.779],[28.6223,-10.7271,1019.2999],[28.6307,-10.7245,1019.525],[28.6515,-10.722,1008.063],[28.6597,-10.7179,1012.1053],[28.6647,-10.7083,999.5],[28.6681,-10.6943,1004.6473],[28.6721,-10.6867,1009.0428],[28.6899,-10.6786,991.0892],[28.6969,-10.6736,985.0804],[28.6983,-10.6684,983.0179],[28.6949,-10.6535,1012.2867],[28.6885,-10.6411,977.0],[28.6785,-10.6352,1002.9182],[28.6641,-10.6319,997.4919],[28.6599,-10.6294,971.6235],[28.6653,-10.5971,964.1448],[28.6753,-10.5724,952.1473],[28.6755,-10.5663,950.1997],[28.6719,-10.5592,945.9099],[28.6611,-10.5508,942.0363],[28.6533,-10.5415,943.4155],[28.6313,-10.5287,928.3645],[28.6303,-10.5238,926.7246],[28.6403,-10.5082,925.6051],[28.6367,-10.4901,928.8112],[28.6329,-10.4842,926.1732],[28.6313,-10.4742,924.0],[28.6349,-10.4651,928.8207],[28.6417,-10.4576,925.9257],[28.6421,-10.4428,927.9385],[28.6371,-10.4244,927.6984],[28.6329,-10.4176,928.1017],[28.6187,-10.4024,938.7448],[28.6197,-10.388,937.8854],[28.6163,-10.3678,926.4007],[28.6273,-10.3357,956.3285],[28.6299,-10.3153,927.6058],[28.6295,-10.3069,926.4277],[28.6243,-10.2976,926.2116],[28.6083,-10.29,945.788],[28.6045,-10.2828,946.927],[28.6021,-10.273,928.2913],[28.5931,-10.2586,938.34],[28.5825,-10.2469,935.6965],[28.5767,-10.2434,934.2413],[28.5711,-10.2339,927.3239],[28.5715,-10.2254,927.6451],[28.5801,-10.211,926.2424],[28.5913,-10.1958,926.5967],[28.6113,-10.1744,926.5968],[28.6163,-10.1651,923.9534],[28.6183,-10.1552,927.6101],[28.6177,-10.1289,927.1417],[28.6241,-10.0865,927.471],[28.6249,-10.068,927.4078],[28.6323,-10.0481,926.6732],[28.6353,-10.0304,925.879],[28.6335,-10.024,927.2952],[28.6197,-10.0082,926.1527],[28.6149,-9.9966,926.0245],[28.6219,-9.9829,925.7282],[28.6173,-9.9671,926.2206],[28.6197,-9.9485,940.7969],[28.6287,-9.9248,936.2494],[28.6379,-9.9085,926.2781],[28.6507,-9.8907,926.1317],[28.6521,-9.8819,926.0204],[28.6495,-9.873,925.4822],[28.6511,-9.8664,926.3634],[28.6629,-9.8526,926.3448],[28.6655,-9.8474,923.2025],[28.6685,-9.8341,926.2745],[28.6675,-9.8185,926.0249],[28.6705,-9.8152,925.7337],[28.6859,-9.815,922.375],[28.6893,-9.8133,924.1919],[28.6893,-9.8089,926.1132],[28.6813,-9.7981,925.363],[28.6647,-9.7839,924.9839],[28.6675,-9.7738,926.1176],[28.6635,-9.7607,925.0319],[28.6575,-9.7547,925.51],[28.6357,-9.7551,925.0742],[28.6299,-9.7519,925.1113],[28.6255,-9.7482,925.7338],[28.6092,-9.7255,921.5],[28.6086,-9.722,924.5101],[28.6105,-9.7173,925.4059],[28.6162,-9.7107,925.4368],[28.62,-9.7013,921.5],[28.6154,-9.6834,930.9611],[28.6131,-9.6639,928.7922],[28.6079,-9.6455,929.1639],[28.5974,-9.6287,929.5908],[28.6028,-9.6043,928.4671],[28.5964,-9.5935,925.2559],[28.5889,-9.5869,925.5829],[28.5852,-9.5844,925.6038],[28.5743,-9.583,925.5104],[28.5726,-9.5788,924.8289],[28.5776,-9.5733,925.3942],[28.5833,-9.57,923.9094],[28.6041,-9.5686,924.9518],[28.6095,-9.5666,924.7343],[28.6105,-9.5628,925.1083],[28.6094,-9.5577,925.0062],[28.6032,-9.5488,929.8458],[28.5998,-9.549,928.5287],[28.5835,-9.5634,925.4338],[28.5767,-9.5649,924.8682],[28.5694,-9.5643,924.691],[28.5645,-9.5606,925.9784],[28.5611,-9.5538,925.4467],[28.5592,-9.543,925.2134],[28.5629,-9.5066,924.3769],[28.5621,-9.4941,924.9589],[28.5561,-9.4859,922.4464],[28.5462,-9.4808,924.9067],[28.5313,-9.4825,924.4962],[28.5268,-9.4817,924.5776],[28.5245,-9.4782,925.5645],[28.5268,-9.4666,924.7502],[28.5246,-9.4558,920.6081],[28.5123,-9.4472,922.6028],[28.5091,-9.4416,925.2229],[28.509,-9.4378,924.9645],[28.5119,-9.4302,926.617],[28.5164,-9.379,920.0],[28.5111,-9.3637,920.0],[28.5038,-9.358,920.0],[28.4835,-9.3481,920.0],[28.4516,-9.341,920.0],[28.4081,-9.3225,920.0],[28.3823,-9.2989,920.0],[28.3784,-9.2928,920.0],[28.373,-9.2728,920.0],[28.3703,-9.2476,920.0],[28.3746,-9.2389,920.0],[28.3906,-9.2257,920.0],[28.6161,-9.0821,920.0],[28.6321,-9.0705,920.0],[28.7086,-9.0051,920.0],[28.7353,-8.9752,920.0],[28.7824,-8.9297,920.0],[28.7993,-8.8987,920.0],[28.9506,-8.5104,920.0],[28.9557,-8.5041,927.5457],[28.9701,-8.4964,934.6295],[28.9816,-8.4873,959.8527],[28.9846,-8.4814,968.7783],[28.9857,-8.4689,966.669],[28.9899,-8.4618,968.0818],[29.5602,-8.3804,1102.8315],[29.5659,-8.3876,1075.9741],[29.5726,-8.3915,1057.5905],[29.5921,-8.3937,1016.2711],[29.6018,-8.4076,987.608],[29.6255,-8.4048,969.3362],[29.6284,-8.3955,966.8264],[29.6226,-8.3804,1010.065],[29.611,-8.3711,1060.7679],[29.5907,-8.3677,1123.4973],[29.575,-8.3596,1181.4951],[29.5628,-8.3451,1206.3153],[29.5564,-8.3317,1346.3003],[29.5511,-8.2945,1362.4609],[29.5389,-8.28,1440.5325],[29.5342,-8.2568,1519.021],[29.5284,-8.2376,1591.0544],[29.5191,-8.2283,1548.9854],[29.5202,-8.1871,1557.4786],[29.5265,-8.1539,1567.538],[29.5317,-8.1527,1554.4241],[29.541,-8.1719,1586.0063],[29.5433,-8.1806,1607.6099],[29.5601,-8.1817,1664.2999],[29.5792,-8.1741,1621.5597],[29.5832,-8.1683,1620.0514],[29.5727,-8.1299,1563.6978],[29.5749,-8.1192,1574.8943],[29.583,-8.1105,1584.5995],[29.5927,-8.1101,1616.5654],[29.6084,-8.1035,1609.776],[29.619,-8.103,1608.8691],[29.6294,-8.0954,1612.4614],[29.6358,-8.0948,1621.4347],[29.639,-8.0924,1627.907],[29.6456,-8.0791,1627.0479],[29.6499,-8.059,1667.6621],[29.6486,-8.0517,1645.2498],[29.6564,-8.0343,1684.7018],[29.6602,-8.0204,1700.1013],[29.6668,-8.0097,1742.6708],[29.6686,-7.9958,1725.8658],[29.663,-7.9818,1751.3749],[29.6659,-7.9707,1746.3447],[29.6624,-7.9616,1777.8429],[29.6607,-7.9467,1792.9946],[29.6567,-7.941,1819.333],[29.6627,-7.9359,1817.3508],[29.6622,-7.9325,1820.5776],[29.6602,-7.929,1815.2723],[29.6524,-7.9308,1820.04],[29.6428,-7.9375,1849.1591],[29.6358,-7.9399,1833.9053],[29.6313,-7.9387,1854.9359],[29.626,-7.9347,1896.2747],[29.624,-7.912,1805.9526],[29.5879,-7.8492,1615.6615],[29.5826,-7.8351,1581.353],[29.5763,-7.8301,1584.0151],[29.5731,-7.823,1579.8004],[29.5668,-7.8203,1579.5864],[29.5609,-7.8318,1577.9858],[29.5554,-7.8369,1579.4124],[29.5366,-7.8441,1580.7073],[29.5341,-7.851,1573.6565],[29.524,-7.8598,1574.7086],[29.5213,-7.8676,1586.988],[29.5179,-7.8711,1568.1082],[29.5037,-7.8755,1581.7367],[29.4975,-7.874,1599.3069],[29.4937,-7.8708,1606.3444],[29.4858,-7.8588,1602.2036],[29.4843,-7.8479,1631.9364],[29.4855,-7.8276,1650.0859],[29.4836,-7.8128,1667.41],[29.4813,-7.8097,1669.9969],[29.4742,-7.8073,1688.9357],[29.4537,-7.8144,1664.9382],[29.4548,-7.8079,1691.5708],[29.4635,-7.7933,1662.8567],[29.4579,-7.7865,1658.0276],[29.4529,-7.7886,1658.3455],[29.4487,-7.7881,1669.0272],[29.4432,-7.7801,1699.8496],[29.4382,-7.7632,1701.0302],[29.4377,-7.7545,1699.6172],[29.4398,-7.7501,1714.0917],[29.4434,-7.7475,1716.2579],[29.445,-7.7416,1731.4486],[29.4431,-7.7349,1718.0272],[29.4387,-7.7297,1715.7124],[29.435,-7.7292,1741.3989],[29.4298,-7.7348,1739.3562],[29.4236,-7.7366,1738.4788],[29.4196,-7.7328,1799.1283],[29.4171,-7.7325,1796.9771],[29.3593,-7.7574,1583.0259],[29.3377,-7.7506,1608.542],[29.3266,-7.7401,1590.3947],[29.3153,-7.7348,1585.0574],[29.2737,-7.7282,1451.1377],[29.263,-7.7292,1427.2095],[29.2259,-7.7615,1490.2264],[29.2067,-7.7819,1452.2368],[29.1714,-7.7708,1163.6233],[29.1609,-7.7603,1183.0056],[29.148,-7.7398,1117.0916],[29.1427,-7.7403,1100.0209],[29.133,-7.7497,1088.9844],[29.1229,-7.7491,1124.3253],[29.1225,-7.7562,1087.8129],[29.1177,-7.7555,1089.3213],[29.1139,-7.7507,1112.6711],[29.1109,-7.751,1105.72],[29.1089,-7.7576,1117.1345],[29.1046,-7.7602,1113.8118],[29.0983,-7.7586,1084.2666],[29.0967,-7.7602,1090.0714],[29.0949,-7.7681,1082.0576],[29.1058,-7.7714,1087.7589],[29.113,-7.7804,1074.6868],[29.1123,-7.7859,1084.1562],[29.1091,-7.7916,1077.7759],[29.0983,-7.7999,1078.257],[29.0958,-7.8068,1064.3625],[29.1005,-7.81,1060.7009],[29.1026,-7.8155,1063.5916],[29.1081,-7.8155,1076.5103],[29.1099,-7.8171,1066.9386],[29.1093,-7.8215,1058.426],[29.1139,-7.8221,1062.3422],[29.1148,-7.8253,1055.1541],[29.1132,-7.8283,1055.5862],[29.1169,-7.8315,1054.1458],[29.1084,-7.8366,1057.1605],[29.1064,-7.8412,1053.0459],[29.1071,-7.8449,1054.5034],[29.1112,-7.8433,1051.1351],[29.1131,-7.8462,1067.4994],[29.1092,-7.8476,1054.1934],[29.109,-7.8527,1063.7377],[29.1113,-7.8534,1056.1135],[29.1128,-7.8653,1023.1658],[29.1086,-7.8691,1040.2999],[29.0968,-7.8706,1065.0742],[29.0894,-7.869,1078.3474],[29.08,-7.8697,1133.532],[29.0702,-7.873,1177.7268],[29.0543,-7.8843,1145.6243],[29.0397,-7.8923,1211.0101],[29.0245,-7.8936,1227.3252],[29.0204,-7.8897,1243.2015],[29.0259,-7.8801,1227.0808],[29.0278,-7.8725,1201.2903],[29.0169,-7.8702,1238.0723],[28.9738,-7.8728,1218.8816],[28.9676,-7.8723,1215.3673],[28.962,-7.8698,1159.8896],[28.9443,-7.8496,1220.9915],[28.9375,-7.8463,1405.021],[28.9094,-7.8234,1160.1714],[28.9033,-7.8225,1139.4579],[28.9026,-7.8286,1149.08],[28.9082,-7.8353,1093.6819],[28.9052,-7.8398,1120.4235],[28.904,-7.8469,1107.7751],[28.8989,-7.8485,1079.3096],[28.8986,-7.8518,1122.7784],[28.8968,-7.8517,1062.4436],[28.8959,-7.8578,1125.4009],[28.8899,-7.8598,1036.1145],[28.8874,-7.8659,1001.502],[28.8894,-7.8715,1027.0719],[28.8836,-7.8758,990.1591],[28.8846,-7.8773,996.1386],[28.8828,-7.8793,983.4963],[28.8832,-7.8875,987.0197],[28.8816,-7.8932,1064.8268],[28.8783,-7.8966,995.3986],[28.8756,-7.9015,991.3768],[28.8768,-7.9034,996.1093],[28.8739,-7.9065,978.8199],[28.8753,-7.9139,1046.1843],[28.8726,-7.9183,973.7531],[28.8784,-7.9214,998.4085],[28.8739,-7.9224,973.2739],[28.8726,-7.925,979.8511],[28.8702,-7.9257,974.0812],[28.8687,-7.9236,979.1635],[28.8667,-7.9243,973.657],[28.8666,-7.9273,974.9198],[28.8704,-7.9296,994.5981],[28.87,-7.9308,994.5981],[28.8663,-7.9336,971.4082],[28.8644,-7.9306,968.6821],[28.8616,-7.9325,973.9976],[28.8611,-7.9357,986.5366],[28.8589,-7.9376,977.9689],[28.8624,-7.9416,968.301],[28.8594,-7.943,978.6357],[28.854,-7.9584,1072.6675],[28.8426,-7.9703,1218.1946],[28.83,-7.9765,1271.7948],[28.7905,-7.978,906.9494],[28.7791,-7.9757,900.5322],[28.771,-7.9702,906.4595],[28.7584,-7.9266,890.15239999999994],[28.7474,-7.9156,881.2007],[28.7263,-7.9159,827.0367],[28.7208,-7.9139,810.8376],[28.7124,-7.9081,778.8373],[28.7049,-7.8999,789.6625],[28.6909,-7.893,827.0634],[28.6788,-7.8957,794.8304],[28.671,-7.8932,761.5258],[28.6565,-7.8926,752.666],[28.6585,-7.878,782.5565],[28.6824,-7.8558,894.9176],[28.6873,-7.8456,1013.6261],[28.6855,-7.8354,1004.4783],[28.6685,-7.8282,856.4174],[28.6586,-7.8262,969.1896],[28.6487,-7.8208,805.2769],[28.651,-7.8105,814.9785],[28.6446,-7.7904,1095.0458],[28.6379,-7.7732,1101.9089],[28.6228,-7.748,1145.276],[28.623,-7.7244,1184.6853],[28.6291,-7.7066,1217.1277],[28.6328,-7.6847,1213.8116],[28.619,-7.6756,1226.2985],[28.6127,-7.6733,1223.55],[28.6099,-7.6612,1241.5532],[28.6034,-7.6529,1256.61],[28.6,-7.6514,1250.9976],[28.5958,-7.6518,1253.5018],[28.5806,-7.6421,1236.4182],[28.571,-7.6404,1206.8903],[28.5623,-7.6355,1222.5967],[28.5481,-7.6227,1129.5188],[28.5222,-7.6272,1064.1436],[28.5197,-7.6318,1088.4479],[28.5061,-7.6286,972.4449],[28.4933,-7.6369,962.2029],[28.4857,-7.6372,940.2852],[28.4806,-7.6404,948.7833],[28.4793,-7.6439,951.3746],[28.4804,-7.6475,933.8015],[28.474,-7.6547,942.787],[28.4715,-7.6556,940.8336],[28.4706,-7.6582,926.6609],[28.4757,-7.6648,921.2482],[28.4736,-7.6678,925.6555],[28.467,-7.6683,924.0929],[28.461,-7.6793,904.4641],[28.4415,-7.6881,908.0995],[28.4288,-7.6862,1144.8955],[28.4131,-7.6875,1153.7045],[28.407,-7.6942,1415.3873],[28.3972,-7.7221,1380.0662],[28.368,-7.7549,1010.6222],[28.3558,-7.7755,894.9446],[28.3606,-7.7864,1120.4501],[28.3781,-7.7882,1016.9818],[28.4047,-7.7994,1087.3113],[28.4252,-7.8106,1125.7299],[28.432,-7.8382,999.6042],[28.4709,-7.8597,1063.2611],[28.4839,-7.8645,999.9642],[28.5038,-7.8669,1062.6648],[28.5261,-7.8818,1138.3872],[28.53,-7.8915,1211.073],[28.5263,-7.9066,782.4771],[28.4798,-8.0092,1289.4025],[28.4561,-8.0268,1212.2452],[28.4397,-8.0414,1132.1385],[28.4294,-8.048,1153.6783],[28.4261,-8.1008,1249.714],[28.4308,-8.1232,1191.259],[28.438,-8.1365,1199.1147],[28.4404,-8.1535,1327.0857],[28.4324,-8.1675,1400.9536],[28.4082,-8.1833,1328.0303],[28.3918,-8.1996,1348.4581],[28.3383,-8.2451,1333.0234],[28.3128,-8.2688,1257.0443],[28.3031,-8.2803,1260.5759],[28.2722,-8.284,1283.3673],[28.2638,-8.281,1265.7783],[28.2621,-8.2537,1069.0979],[28.2319,-8.2489,1027.0718],[28.2198,-8.2544,1352.8074],[28.2033,-8.2744,1364.2046],[28.1859,-8.2788,1322.075],[28.1749,-8.2971,1310.1024],[28.1646,-8.3084,1301.101],[28.1613,-8.3167,1292.2725],[28.1317,-8.3369,1306.1348],[28.1153,-8.3381,1339.1708],[28.108,-8.3418,1359.0859],[28.0977,-8.3593,1372.2914],[28.0838,-8.3557,1426.1995],[28.0663,-8.3436,1348.2445],[28.0627,-8.3479,1328.3645],[28.0729,-8.3642,1422.9426],[28.0893,-8.4039,1356.9434],[28.0814,-8.406,1272.4009],[28.0705,-8.412,1211.3519],[28.0624,-8.4123,1190.825],[28.0554,-8.4077,1171.2695],[28.0431,-8.4065,1148.5867],[28.0301,-8.4001,1124.9185],[28.0208,-8.3858,1097.2202],[28.0058,-8.3749,1082.4524],[27.9956,-8.3721,1090.833],[27.9906,-8.3639,1062.2332],[27.9843,-8.361,1046.7002],[27.9859,-8.3475,1034.6868],[27.9814,-8.3264,1006.6841],[27.9773,-8.3164,997.6484],[27.9858,-8.3038,959.3561],[27.9895,-8.2918,942.6945],[27.9887,-8.2863,939.2062],[27.9908,-8.2787,925.3163],[27.9855,-8.2687,920.8019],[27.986,-8.2584,897.6996],[27.9837,-8.2432,887.4958],[27.9881,-8.234,881.1641],[27.9859,-8.2286,884.0706],[27.981,-8.228,905.4801],[27.9719,-8.2419,972.1606],[27.9718,-8.2565,1007.7404],[27.9682,-8.2644,1045.0461],[27.9603,-8.2723,985.9614],[27.9107,-8.2626,1088.7842],[27.9047,-8.2602,1189.585],[27.9005,-8.2541,1268.0035],[27.8981,-8.2457,1137.422],[27.8903,-8.242,1077.5679],[27.889,-8.2469,1061.6823],[27.8745,-8.2511,1040.6379],[27.8515,-8.2445,1160.4878],[27.8339,-8.2463,1081.7913],[27.8325,-8.2335,1043.3591],[27.837,-8.2277,1031.3168],[27.8403,-8.2065,1004.8105],[27.840699999999998,-8.1812,953.9167],[27.8272,-8.1851,960.4995],[27.8187,-8.1977,1003.8068],[27.8073,-8.2062,1032.5781],[27.802,-8.2173,1081.5928],[27.79,-8.2285,1123.8605],[27.7846,-8.2362,1174.2997],[27.7766,-8.2639,1348.5753],[27.7737,-8.2695,1351.3599],[27.7637,-8.2792,1345.0354],[27.7516,-8.287,1416.9453],[27.7437,-8.2816,1433.2939],[27.7609,-8.241,1316.2281],[27.7579,-8.2337,1327.301],[27.7476,-8.2349,1346.5939],[27.7354,-8.2459,1363.6938],[27.7215,-8.2483,1415.3488],[27.7307,-8.2325,1375.9983],[27.752,-8.2083,1321.3257],[27.7932,-8.1755,1176.6169],[27.8193,-8.1615,1061.2786],[27.8375,-8.1445,1156.9597],[27.8222,-8.1514,1216.6139],[27.8073,-8.1515,1295.9197],[27.7891,-8.1545,1404.041],[27.7631,-8.1603,1373.7582],[27.7363,-8.1695,1379.0103],[27.6989,-8.1996,1376.1892],[27.6964,-8.1906,1373.624],[27.6969,-8.1797,1408.23],[27.7026,-8.1535,1497.884],[27.6992,-8.1497,1478.2039],[27.6819,-8.1574,1521.5652],[27.6747,-8.1484,1484.8046],[27.6814,-8.1369,1521.6803],[27.6819,-8.1302,1465.7495],[27.6732,-8.1174,1374.8447],[27.6582,-8.1051,1402.3579],[27.6501,-8.1014,1414.2157],[27.6443,-8.0957,1443.6744],[27.6413,-8.0767,1429.6897],[27.6351,-8.0762,1404.9391],[27.6183,-8.0806,1393.77],[27.6072,-8.0802,1355.1711],[27.5909,-8.0879,1317.4391],[27.5597,-8.0818,1266.115],[27.5333,-8.1,1264.0002],[27.5141,-8.1073,1296.7535],[27.5059,-8.1064,1248.8948],[27.5016,-8.0992,1246.1394],[27.4841,-8.1094,1141.7042],[27.4751,-8.1256,1072.2736],[27.4658,-8.1342,1062.113],[27.4555,-8.1369,1030.0591],[27.4318,-8.1486,1021.2861],[27.4223,-8.1499,977.1289],[27.3896,-8.1734,942.7917],[27.3781,-8.1782,857.4403],[27.366,-8.186,839.0378],[27.3416,-8.1862,813.0364],[27.3377,-8.1837,818.0077],[27.332,-8.1753,800.8049],[27.3255,-8.1724,822.9556],[27.3174,-8.1735,781.1503],[27.3106,-8.1679,775.8579],[27.3065,-8.167,775.7458],[27.2985,-8.1692,778.562],[27.2903,-8.1783,769.0428],[27.2851,-8.1818,770.4801],[27.2823,-8.1826,764.011],[27.2784,-8.1799,761.8673],[27.2652,-8.1907,754.2206],[27.2659,-8.195,758.562],[27.2641,-8.1976,763.2264],[27.2511,-8.2042,751.8614],[27.2263,-8.2072,749.0714],[27.2151,-8.2277,1101.8046],[27.195,-8.2521,1078.9978],[27.1741,-8.2714,675.6585],[27.1642,-8.2856,675.5826],[27.1663,-8.2908,687.8787],[27.1562,-8.307,722.007],[27.0562,-8.4383,1422.8228],[27.0155,-8.487,1354.9093],[27.0055,-8.5165,1502.2991],[27.0065,-8.5329,1161.5615],[27.012,-8.5379,1214.9614],[27.0502,-8.5475,1618.5599],[27.0718,-8.5414,1629.79],[27.0817,-8.5487,1651.1014],[27.0856,-8.5551,1667.4143],[27.0851,-8.5606,1680.5868],[27.0717,-8.5673,1638.5031],[27.0681,-8.5728,1617.874],[27.0525,-8.5822,1543.1638],[27.0389,-8.6091,1530.9738],[27.0322,-8.6126,1530.8723],[27.0063,-8.6387,1518.2822],[26.9763,-8.6654,1515.7939],[26.9678,-8.6699,1514.2722],[26.9583,-8.6818,1498.0001],[26.957,-8.6861,1496.0535],[26.9581,-8.6972,1511.1555],[26.9561,-8.7029,1522.2457],[26.942,-8.7155,1507.8528],[26.9231,-8.7211,1491.2737],[26.9066,-8.7384,1466.6414],[26.8946,-8.7445,1468.5363],[26.8863,-8.7541,1467.0773],[26.875,-8.7584,1459.707],[26.8634,-8.77,1477.8258],[26.8561,-8.7736,1458.5181],[26.8497,-8.7813,1463.9441],[26.8426,-8.7812,1463.6708],[26.8342,-8.7751,1473.203],[26.8317,-8.7662,1374.2207],[26.8275,-8.7653,1389.168],[26.8261,-8.7626,1409.9899],[26.8244,-8.7417,908.7326],[26.8264,-8.7336,825.5884],[26.8304,-8.729,877.262],[26.8283,-8.7242,796.4041],[26.8359,-8.7094,779.922],[26.8353,-8.6967,750.7695],[26.8308,-8.6913,736.2581],[26.8307,-8.6862,721.807],[26.823,-8.6827,709.7089],[26.818,-8.671,686.3078],[26.8109,-8.6714,685.2139],[26.7969,-8.6619,636.7144],[26.7923,-8.6645,633.8992],[26.786,-8.6632,647.9035],[26.7779,-8.6599,624.7903],[26.7765,-8.6553,614.3184],[26.7732,-8.654,620.8184],[26.7604,-8.6655,620.3036],[26.7531,-8.6695,587.4772],[26.7606,-8.674,597.7668],[26.7646,-8.6806,614.6122],[26.7704,-8.6825,595.3818],[26.7604,-8.691,599.4644],[26.7574,-8.6908,615.8488],[26.7553,-8.6887,604.9521],[26.7512,-8.6775,598.3134],[26.7321,-8.6714,597.3853],[26.7306,-8.6799,607.3072],[26.7275,-8.6839,615.4192],[26.7192,-8.6872,599.9432],[26.716,-8.6902,609.8006],[26.7143,-8.6951,608.1328],[26.7187,-8.7129,598.7065],[26.7225,-8.72,607.256],[26.721,-8.7274,622.1842],[26.7216,-8.7365,634.1592],[26.715,-8.7428,610.8302],[26.7199,-8.7467,609.7795],[26.7197,-8.7527,617.7042],[26.7179,-8.7531,607.6551],[26.7111,-8.7627,613.5942],[26.7155,-8.7768,610.7476],[26.7136,-8.7918,623.7393],[26.7289,-8.8097,625.259],[26.7306,-8.815,650.0441],[26.7293,-8.8235,643.8181],[26.7325,-8.8329,668.6731],[26.7318,-8.8372,660.6846],[26.7209,-8.8445,646.8759],[26.7068,-8.8599,623.3621],[26.6916,-8.8665,631.2867],[26.6801,-8.8991,640.9536],[26.6774,-8.952,654.7175],[26.6732,-8.9647,655.9225],[26.6772,-8.9715,646.2408],[26.6788,-8.9841,643.4249],[26.6775,-8.9931,659.725],[26.6748,-8.9957,659.0314],[26.6734,-9.007,682.9494],[26.6709,-9.0104,664.9255],[26.6601,-9.0145,785.6547],[26.6534,-9.0201,799.2671],[26.6469,-9.0305,835.644],[26.6414,-9.0318,922.5309],[26.6327,-9.0395,916.1547],[26.6295,-9.0455,942.115],[26.625,-9.0492,968.4552],[26.6226,-9.058,1027.8936],[26.6162,-9.0641,999.9839],[26.6104,-9.0639,979.6185],[26.6077,-9.0704,1028.1],[26.6029,-9.0702,942.8257],[26.5973,-9.0678,895.4714],[26.589,-9.0684,952.8771],[26.5856,-9.0748,944.4653],[26.5728,-9.0858,911.5385],[26.5675,-9.0857,937.7526],[26.562,-9.089,933.0906],[26.5474,-9.1069,945.2486],[26.5482,-9.1135,986.5809],[26.5447,-9.1234,965.8913],[26.5401,-9.1258,1019.3375],[26.5362,-9.1339,1025.0895],[26.5269,-9.1405,960.1044],[26.5254,-9.1481,962.9035],[26.5129,-9.1519,950.3956],[26.5011,-9.1521,937.4001],[26.4979,-9.1563,935.174],[26.4954,-9.174,962.8533],[26.4932,-9.1775,973.3701],[26.4826,-9.184,953.4969],[26.4823,-9.1932,978.564],[26.4787,-9.202,972.6721],[26.4734,-9.2053,966.197],[26.4692,-9.2155,999.7938],[26.4646,-9.2174,983.3537],[26.4663,-9.2224,988.0286],[26.4707,-9.2274,1010.4669],[26.4758,-9.2285,1011.1081],[26.4777,-9.2308,1025.1631],[26.4695,-9.2359,1012.6447],[26.4771,-9.2397,1043.8164],[26.4827,-9.2406,1051.1992],[26.4851,-9.2447,1049.1968],[26.4883,-9.2453,1055.7322],[26.4933,-9.2524,1137.8896],[26.4941,-9.2583,1123.4065],[26.498,-9.2597,1094.1163],[26.4995,-9.2638,1110.1267],[26.5022,-9.264,1141.14],[26.5013,-9.2789,1213.2893],[26.4963,-9.2845,1132.834],[26.4987,-9.2951,1287.6202],[26.4903,-9.3225,1218.9492],[26.484,-9.3288,1203.4073],[26.4852,-9.3329,1225.0402],[26.4784,-9.3459,1275.6593],[26.4774,-9.354,1306.1527],[26.4744,-9.3561,1289.9927],[26.4731,-9.3646,1329.3672],[26.4683,-9.3679,1294.8171],[26.4651,-9.3732,1379.9258],[26.4655,-9.3861,1438.8513],[26.4733,-9.3954,1458.118],[26.4774,-9.4043,1468.3778],[26.4823,-9.4263,1526.8109],[26.476,-9.436,1510.6685],[26.48,-9.4406,1540.5824],[26.4695,-9.4529,1531.2253],[26.4623,-9.4537,1538.2943],[26.4585,-9.4632,1561.1658],[26.4519,-9.4724,1558.1138],[26.4473,-9.4858,1571.6339],[26.437,-9.4945,1562.1641],[26.4319,-9.4964,1563.8876],[26.4275,-9.5003,1565.7064],[26.423,-9.5089,1561.8093],[26.4063,-9.522,1566.7036],[26.4006,-9.5306,1596.0261],[26.3956,-9.5346,1592.6733],[26.3852,-9.551,1601.6842],[26.3703,-9.5641,1624.4579],[26.3666,-9.5653,1620.8372],[26.3362,-9.5931,1615.9709],[26.323,-9.6146,1613.9015],[26.3215,-9.6192,1615.3579],[26.3283,-9.6267,1629.095],[26.3326,-9.6412,1640.681],[26.3428,-9.6431,1640.9481],[26.3527,-9.6483,1645.4271],[26.3523,-9.6545,1654.6083],[26.335,-9.6715,1661.1488],[26.3308,-9.6794,1657.8979],[26.3301,-9.6911,1588.1152],[26.3392,-9.7091,1401.8572],[26.3402,-9.7179,1407.0928],[26.3384,-9.7208,1407.441],[26.3212,-9.7342,1627.6849],[26.289,-9.7686,1598.9806],[26.2857,-9.7803,1601.7102],[26.2852,-9.793,1626.4805],[26.2671,-9.8221,1510.1299],[26.266,-9.8277,1501.5089],[26.2665,-9.842,1483.9358],[26.2701,-9.8574,1530.48],[26.2699,-9.8668,1569.6609],[26.2756,-9.8779,1458.011],[26.2827,-9.8841,1400.4176],[26.2953,-9.885,1269.9624],[26.299,-9.8844,1291.4915],[26.3035,-9.8801,1284.9333],[26.3103,-9.8602,1315.8616],[26.3168,-9.8569,1314.4075],[26.3417,-9.8565,1263.7717],[26.3602,-9.8542,1215.973],[26.3667,-9.8623,1200.0676],[26.3789,-9.8691,1198.2524],[26.3895,-9.8693,1216.8387],[26.4004,-9.8715,1132.496],[26.404,-9.874,1120.3435],[26.4155,-9.8896,1115.2628],[26.4228,-9.8966,1117.9883],[26.4258,-9.8976,1116.918],[26.4432,-9.8983,1093.5394],[26.4672,-9.8917,1064.4763],[26.4792,-9.8907,1053.1758],[26.4941,-9.8956,1049.322],[26.5141,-9.9053,1048.4359],[26.5325,-9.9072,1043.6636],[26.5462,-9.9065,1033.5002],[26.5588,-9.912,1026.2617],[26.5837,-9.9126,1013.2284],[26.5891,-9.9172,1011.0372],[26.5993,-9.9214,1006.8832],[26.6191,-9.9207,999.3622],[26.6472,-9.9112,989.4044],[26.7734,-9.9131,949.9443],[26.7798,-9.919,943.7886],[26.7823,-9.9362,945.0828],[26.7818,-9.9793,935.3041],[26.7724,-9.9898,942.3843],[26.7471,-10.0055,939.8975],[26.7557,-10.0088,944.2739],[26.7636,-10.0066,934.6547],[26.771,-10.0114,930.5066],[26.7751,-10.0173,923.1634],[26.7839,-10.0183,921.52],[26.79,-10.0237,915.2264],[26.7958,-10.0239,921.8122],[26.8025,-10.0206,922.1575],[26.8102,-10.0211,922.1235],[26.8148,-10.0195,914.6464],[26.8219,-10.0129,919.2646],[26.8311,-10.0116,923.9013],[26.8343,-10.009,921.4708],[26.8359,-10.0035,917.0771],[26.8361,-9.9872,913.958],[26.8391,-9.9851,913.2655],[26.8486,-9.9833,914.7726],[26.8552,-9.9779,910.1662],[26.8603,-9.9772,906.3182],[26.8678,-9.9798,908.5767],[26.8704,-9.9848,908.1003],[26.873,-9.9852,910.2317],[26.8789,-9.9789,907.7556],[26.8821,-9.9784,905.5665],[26.8839,-9.9855,909.1088],[26.8862,-9.9862,913.2667],[26.8887,-9.9811,909.4396],[26.8843,-9.9664,905.6211],[26.8861,-9.9621,905.9285],[26.8924,-9.967,907.062],[26.8954,-9.9649,906.7135],[26.9007,-9.965,904.6823],[26.9081,-9.9771,907.6761],[26.9088,-9.9642,901.2445],[26.9137,-9.9642,903.5909],[26.9228,-9.9686,902.2412],[26.9306,-9.9752,899.8172],[26.933,-9.965,901.1859],[26.9395,-9.9672,897.9324],[26.9413,-9.9647,898.6531],[26.9412,-9.9598,898.5419],[26.9433,-9.9596,899.3302],[26.9492,-9.954,897.4054],[26.9527,-9.9541,897.0659],[26.9563,-9.9584,895.9949],[26.9593,-9.9582,897.3839],[26.9633,-9.9505,896.3967],[26.9654,-9.9493,896.1721],[26.9715,-9.9552,895.2013],[26.9843,-9.9555,894.6563],[26.9826,-9.9509,892.2516],[26.987,-9.9483,893.4209],[26.988,-9.9409,892.9003],[26.9901,-9.9386,891.163],[27.0064,-9.9434,889.4985],[27.0084,-9.9406,891.3578],[27.0074,-9.9351,889.9907],[27.0164,-9.9191,889.3934],[27.0236,-9.9215,890.1345],[27.0263,-9.9153,889.303],[27.0339,-9.9218,888.2109],[27.0455,-9.9135,891.6209],[27.0591,-9.9132,890.4065],[27.0697,-9.916,890.5583],[27.075,-9.9217,889.4405],[27.0732,-9.9303,890.0408],[27.0657,-9.9424,891.6547],[27.0633,-9.9497,894.4707],[27.0644,-9.9688,900.3711],[27.0676,-9.9754,899.0886],[27.0761,-9.985,893.9205],[27.085,-9.9913,896.6135],[27.0985,-10.0249,897.9312],[27.0994,-10.0335,899.8566],[27.0763,-10.0685,897.7338],[27.0484,-10.0982,909.9352],[27.0426,-10.1068,915.041],[27.0269,-10.1354,911.9991],[27.019,-10.1532,909.5275],[27.0109,-10.1669,929.0822],[26.9899,-10.1949,939.8676],[26.9807,-10.2109,939.1577],[26.9799,-10.2179,936.768],[26.9822,-10.2258,931.203],[26.9884,-10.2337,925.0344],[27.015,-10.2597,914.7266],[27.0565,-10.2904,916.7051],[27.0782,-10.3021,918.5352],[27.1056,-10.3208,916.5422],[27.1305,-10.35,913.2827],[27.1595,-10.395,924.6812],[27.188,-10.4296,931.3543],[27.1879,-10.4325,930.1035],[27.1697,-10.4503,938.512],[27.1602,-10.4624,956.0518],[27.136,-10.485,1025.6353],[27.1154,-10.5118,1011.705],[27.1093,-10.5172,1008.1218],[27.1032,-10.5277,1022.5833],[27.1019,-10.5468,1113.7952],[27.0996,-10.5493,1110.7222],[27.0872,-10.5573,1138.1995],[27.0731,-10.5634,1192.8123],[27.0658,-10.5621,1222.3306],[27.0437,-10.5511,1182.6929],[27.0324,-10.5524,1179.1125],[27.029,-10.5559,1154.9353],[27.022,-10.5594,1193.7178],[26.9997,-10.5569,1180.1997],[26.9804,-10.5576,1198.4453],[26.965699999999998,-10.5646,1132.6738],[26.9563,-10.5755,1112.2568],[26.9465,-10.6069,1139.8647],[26.9389,-10.6073,1133.8335],[26.9283,-10.6013,1154.5762],[26.9205,-10.5632,1131.9099],[26.9197,-10.5495,1174.7888],[26.9235,-10.5368,1117.7238],[26.9236,-10.5304,1165.7476],[26.9178,-10.5174,1085.4984],[26.9096,-10.5107,1040.2444],[26.897,-10.5047,1152.1749],[26.8816,-10.4892,1129.2939],[26.864,-10.4838,1169.4197],[26.834,-10.4696,1294.3829],[26.8204,-10.4649,1355.2711],[26.8061,-10.464,1349.3809],[26.7838,-10.4679,1355.8811],[26.7362,-10.4699,1359.6223],[26.718,-10.4649,1347.1345],[26.706,-10.4677,1345.926],[26.6993,-10.4678,1381.7297],[26.6804,-10.4659,1445.335],[26.6644,-10.461,1385.3508],[26.6549,-10.461,1337.432],[26.6464,-10.4624,1371.5408],[26.6316,-10.4697,1484.1322],[26.6121,-10.4715,1448.2073],[26.5756,-10.4703,1398.8097],[26.5685,-10.4712,1383.136],[26.5599,-10.4753,1313.2505],[26.5362,-10.4794,1235.4327],[26.5083,-10.4741,1163.9015],[26.4956,-10.4748,1152.0095],[26.4849,-10.4797,1119.7439],[26.4538,-10.5015,1091.3629],[26.4561,-10.5013,1095.6874],[26.4639,-10.5083,1090.6833],[26.4713,-10.5091,1092.6965],[26.4751,-10.5118,1092.2664],[26.4755,-10.5205,1093.1986],[26.4854,-10.5367,1097.9165],[26.4874,-10.5448,1104.5939],[26.4975,-10.5481,1101.5032],[26.5097,-10.5617,1096.8391],[26.516,-10.5611,1105.4329],[26.5203,-10.5682,1107.0571],[26.5157,-10.5733,1102.3364],[26.5196,-10.5864,1098.407],[26.5279,-10.5936,1099.1053],[26.5399,-10.593,1099.8542],[26.5544,-10.5988,1101.3345],[26.5663,-10.6005,1100.3998],[26.5567,-10.6135,1109.3135],[26.5549,-10.628,1118.4924],[26.5434,-10.6403,1135.1843],[26.5351,-10.6467,1148.1321],[26.5279,-10.6578,1158.0797],[26.5219,-10.6611,1155.7786],[26.5173,-10.6683,1178.9479],[26.5102,-10.6744,1181.3749],[26.5105,-10.6783,1173.4319],[26.5166,-10.6863,1193.9647],[26.5753,-10.7101,1180.7854],[26.5849,-10.7185,1185.3325],[26.5997,-10.7275,1183.4891],[26.6051,-10.7334,1179.5586],[26.6062,-10.7404,1178.0499],[26.5964,-10.7606,1220.5194],[26.5952,-10.7676,1225.3462],[26.5857,-10.7833,1321.2427],[26.5685,-10.7969,1417.5646],[26.5616,-10.8119,1502.2623],[26.5603,-10.8413,1416.8844],[26.5615,-10.8576,1446.5874],[26.5629,-10.8635,1440.9015],[26.5666,-10.8689,1442.3694],[26.5659,-10.8816,1486.3667],[26.5612,-10.8825,1529.8218],[26.5564,-10.8871,1509.7487],[26.5496,-10.8984,1546.1067],[26.5411,-10.8989,1545.6569],[26.5236,-10.894,1536.2899],[26.5141,-10.8935,1545.4775],[26.4979,-10.8977,1397.9169],[26.4803,-10.9086,1425.0209],[26.4741,-10.9104,1450.2897],[26.4669,-10.9122,1470.5459],[26.4404,-10.9092,1424.071],[26.4264,-10.9182,1468.4476],[26.4189,-10.918,1479.9475],[26.4081,-10.9295,1509.9995],[26.3963,-10.9532,1542.3319],[26.3609,-11.0085,1510.8506],[26.3488,-11.0317,1551.8679],[26.3458,-11.0421,1533.954],[26.3442,-11.0575,1520.3228],[26.3559,-11.1028,1583.6001],[26.3558,-11.11,1597.3533],[26.3534,-11.1164,1594.1177],[26.356,-11.13,1629.5018],[26.3552,-11.1531,1614.2913],[26.3494,-11.1612,1599.1243],[26.3488,-11.1708,1605.2284],[26.3574,-11.2065,1559.4299],[26.3604,-11.2287,1595.6388],[26.3104,-11.2089,1599.7656],[26.3091,-11.2048,1599.1709],[26.3202,-11.1835,1594.0109],[26.3218,-11.1699,1603.3397],[26.3201,-11.155,1569.3923],[26.3164,-11.1477,1584.1599],[26.323,-11.1205,1576.4552],[26.3151,-11.1038,1551.9324],[26.3147,-11.0997,1547.23],[26.3278,-11.0757,1531.1836],[26.3313,-11.0671,1515.2712],[26.3309,-11.0612,1502.1257],[26.3278,-11.0555,1490.4333],[26.3242,-11.0525,1483.4236],[26.3108,-11.0485,1474.4733],[26.3032,-11.0392,1459.3871],[26.3,-11.0256,1471.1343],[26.2868,-10.9984,1454.6555],[26.285,-10.9964,1452.3328],[26.281,-10.9965,1453.1495],[26.2779,-10.9935,1448.4185],[26.2726,-10.9931,1448.0626],[26.2697,-10.9876,1445.5398],[26.2712,-10.9809,1449.938],[26.2654,-10.9612,1430.2393],[26.2646,-10.9518,1426.7886],[26.2585,-10.9494,1431.8665],[26.2553,-10.9515,1429.3121],[26.251,-10.9497,1433.2106],[26.2414,-10.9445,1425.54],[26.2397,-10.9388,1428.1914],[26.2343,-10.9368,1429.5397],[26.2298,-10.927,1419.9845],[26.233,-10.9246,1413.387],[26.2241,-10.9171,1417.1184],[26.2224,-10.913,1415.3821],[26.223,-10.9093,1410.2256],[26.2269,-10.9047,1416.3112],[26.2259,-10.8973,1404.3146],[26.2194,-10.8981,1422.0498],[26.2175,-10.8951,1406.9617],[26.2176,-10.888,1424.6565],[26.215,-10.8837,1402.2721],[26.2083,-10.884,1407.7925],[26.2024,-10.8802,1408.4008],[26.1952,-10.8825,1404.0469],[26.1861,-10.8813,1397.6187],[26.1806,-10.8843,1393.2271],[26.1738,-10.8819,1407.5925],[26.1666,-10.8831,1402.322],[26.16,-10.8906,1413.7531],[26.1509,-10.8951,1393.6613],[26.1515,-10.9054,1396.8887],[26.1493,-10.9133,1409.703],[26.1416,-10.926,1408.6582],[26.1235,-10.9481,1414.4517],[26.1168,-10.9541,1419.6749],[26.1063,-10.9554,1430.2776],[26.0967,-10.965,1439.3446],[26.0802,-10.9728,1459.2012],[26.0696,-10.9759,1472.3525],[26.0652,-10.9794,1470.7097],[26.0448,-10.9765,1504.3444],[25.9952,-10.964,1520.099],[25.9731,-10.9629,1501.0583],[25.9492,-10.9563,1482.1082],[25.9473,-10.9519,1479.6945],[25.9315,-10.9622,1453.9116],[25.9248,-10.9719,1466.1798],[25.877,-11.0161,1339.2933],[25.8824,-11.0188,1346.3043],[25.8827,-11.0225,1354.6827],[25.8788,-11.0301,1353.6234],[25.8782,-11.0366,1362.9292],[25.8796,-11.0395,1342.6047],[25.8666,-11.0602,1405.1265],[25.8542,-11.0747,1393.6001],[25.8494,-11.0972,1459.6567],[25.8297,-11.1116,1460.3386],[25.7935,-11.1326,1460.4089],[25.7906,-11.1607,1440.7609],[25.7905,-11.2037,1470.3706],[25.7959,-11.2168,1446.4753],[25.8094,-11.2307,1483.689],[25.8148,-11.242,1446.0515],[25.8154,-11.2609,1461.214],[25.8097,-11.2737,1439.8173],[25.803,-11.2835,1430.5659],[25.7706,-11.3114,1372.2839],[25.7566,-11.3386,1347.6968],[25.7586,-11.3673,1347.2026],[25.756,-11.3809,1334.0631],[25.7567,-11.3846,1326.6592],[25.7633,-11.3914,1329.5537],[25.758,-11.4002,1349.9043],[25.7602,-11.4032,1330.1042],[25.7711,-11.404,1324.9832],[25.7779,-11.4016,1336.9106],[25.781,-11.4066,1341.5417],[25.7815,-11.4112,1344.7006],[25.7783,-11.4202,1359.759],[25.78,-11.4216,1354.8641],[25.7773,-11.4285,1346.9482],[25.7738,-11.4306,1339.8407],[25.7736,-11.4343,1337.2361],[25.7777,-11.4457,1344.3586],[25.7748,-11.4582,1333.9441],[25.7681,-11.4661,1343.1857],[25.7606,-11.4639,1353.856],[25.7541,-11.4656,1348.4056],[25.7407,-11.4726,1357.1261],[25.7349,-11.4782,1335.9802],[25.7314,-11.4952,1345.8386],[25.7287,-11.5231,1344.6121],[25.7123,-11.5408,1346.0449],[25.7055,-11.5404,1357.3201],[25.7021,-11.5489,1356.5076],[25.695,-11.5555,1359.5081],[25.6882,-11.5537,1365.835],[25.6868,-11.5565,1349.3782],[25.6897,-11.5615,1348.6615],[25.6844,-11.5701,1350.1484],[25.6815,-11.5814,1352.3647],[25.676,-11.5902,1368.1721],[25.6824,-11.6205,1375.2091],[25.6744,-11.6323,1367.2896],[25.6566,-11.647,1379.5129],[25.6386,-11.6504,1381.9666],[25.6305,-11.6553,1389.6112],[25.6244,-11.6551,1401.8083],[25.6118,-11.6502,1415.1816],[25.6076,-11.653,1402.8612],[25.5999,-11.6731,1415.4623],[25.5781,-11.6885,1394.0623],[25.5724,-11.7021,1420.0648],[25.5599,-11.7121,1427.1794],[25.5517,-11.7272,1408.9907],[25.5448,-11.7335,1412.4355],[25.5368,-11.7345,1417.4247],[25.5317,-11.7393,1415.6471],[25.497,-11.726,1503.4713],[25.4959,-11.7384,1505.5404],[25.4987,-11.7466,1500.1333],[25.4985,-11.7519,1502.7291],[25.49,-11.7593,1510.2615],[25.4872,-11.7655,1509.5994],[25.488,-11.7719,1503.4894],[25.4946,-11.7796,1472.899],[25.5024,-11.7813,1464.1982],[25.5088,-11.7871,1499.5839],[25.5147,-11.7792,1490.9856],[25.5179,-11.7774,1480.5457],[25.5319,-11.7816,1461.0076],[25.5363,-11.7795,1465.5491],[25.5424,-11.7705,1469.5198],[25.5549,-11.7605,1476.2281],[25.5599,-11.7587,1474.5442],[25.5736,-11.7593,1459.9414],[25.5795,-11.7569,1461.3376],[25.5875,-11.7489,1450.913],[25.5892,-11.7358,1445.7214],[25.5956,-11.7319,1449.8256],[25.6069,-11.7313,1451.1466],[25.6178,-11.7276,1441.1951],[25.6254,-11.7275,1440.6453],[25.6332,-11.7307,1440.4092],[25.64,-11.7312,1447.3889],[25.6485,-11.7279,1450.6157],[25.6526,-11.7279,1451.0352],[25.66,-11.7349,1463.8699],[25.6661,-11.7476,1455.488],[25.6672,-11.7616,1452.5931],[25.6703,-11.769,1457.0211],[25.6837,-11.777,1464.0159],[25.6903,-11.7868,1452.4478],[25.6998,-11.79,1465.0618],[25.7021,-11.7926,1466.7825],[25.7029,-11.7991,1469.8071],[25.7053,-11.8034,1473.3845],[25.7142,-11.8092,1469.821],[25.7163,-11.8098,1465.4231],[25.7252,-11.807,1481.4518],[25.7352,-11.81,1475.0229],[25.7455,-11.8095,1465.1611],[25.7532,-11.815,1469.882],[25.7606,-11.8173,1464.136],[25.7666,-11.823,1454.1069],[25.7808,-11.8272,1481.9521],[25.7849,-11.8257,1486.4651],[25.789,-11.8215,1494.6272],[25.7969,-11.8207,1494.1323],[25.8071,-11.8221,1489.5569],[25.8183,-11.8273,1485.5212],[25.828,-11.8282,1484.9121],[25.8353,-11.8262,1482.2803],[25.8569,-11.8081,1472.1531],[25.867,-11.8043,1479.3635],[25.873,-11.8059,1479.6859],[25.8864,-11.8048,1500.8474],[25.8919,-11.8265,1458.735],[25.8895,-11.8464,1507.6724],[25.8909,-11.8484,1508.2773],[25.9019,-11.8504,1499.3617],[25.9075,-11.8643,1501.5052],[25.9122,-11.8699,1491.3562],[25.9254,-11.8813,1501.811],[25.9307,-11.8836,1492.9235],[25.9485,-11.8799,1492.0839],[25.9578,-11.873,1488.7855],[25.9621,-11.8738,1485.0737],[25.971,-11.878,1495.573],[25.9754,-11.885,1493.7871],[25.984,-11.889099999999999,1473.9351],[25.9901,-11.8952,1492.436],[25.9959,-11.9073,1482.8625],[25.997,-11.9162,1478.1813],[25.9952,-11.9199,1479.9175],[25.9842,-11.9259,1480.4154],[25.9844,-11.9355,1483.7068],[25.9814,-11.942,1496.0708],[25.9847,-11.9446,1508.2068],[26.0003,-11.9405,1496.4647],[26.0111,-11.9355,1490.3405],[26.0119,-11.9337,1484.5031],[26.0404,-11.9298,1479.0208],[26.0658,-11.9318,1474.98],[26.0825,-11.9351,1494.5325],[26.1244,-11.9375,1467.274],[26.1528,-11.9361,1480.2292],[26.1718,-11.9306,1485.2603],[26.2238,-11.9238,1499.7274],[26.2371,-11.9258,1498.5139],[26.2625,-11.9345,1497.2802],[26.2881,-11.9399,1511.6238],[26.3165,-11.956,1514.788],[26.3229,-11.9586,1524.5125],[26.33,-11.9586,1531.5029],[26.3795,-11.937,1528.172],[26.4141,-11.9281,1479.2623],[26.43,-11.9179,1505.6407],[26.4573,-11.9136,1531.693],[26.4733,-11.9164,1536.875],[26.4882,-11.9259,1515.0811],[26.4996,-11.9305,1518.0051],[26.5464,-11.9577,1530.6749],[26.5578,-11.9713,1478.3263],[26.5634,-11.9743,1503.3555],[26.5714,-11.9743,1482.5275],[26.5986,-11.9669,1427.1035],[26.6128,-11.9676,1442.8866],[26.6588,-11.9835,1442.8654],[26.6758,-11.9837,1419.0398],[26.6828,-11.9809,1400.0284],[26.6993,-11.9901,1452.5103],[26.7114,-12.0011,1445.4424],[26.717,-11.9998,1443.3866],[26.7273,-11.9936,1431.2238],[26.7547,-11.9685,1431.6001],[26.7655,-11.9644,1433.844],[26.7952,-11.9596,1390.7537],[26.8062,-11.9624,1381.6631],[26.8406,-11.9821,1420.1039],[26.8492,-11.9824,1408.6605],[26.8525,-11.9797,1434.4094],[26.8611,-11.9787,1451.3151],[26.877,-11.9823,1448.442],[26.8867,-11.9768,1449.2061],[26.894,-11.9584,1441.5101],[26.9017,-11.9571,1432.5699],[26.912,-11.9484,1393.7108],[26.9124,-11.9398,1398.9673],[26.9149,-11.9348,1409.677],[26.9244,-11.937,1405.1797],[26.9401,-11.9362,1404.739],[26.9461,-11.9244,1394.1075],[26.9572,-11.9174,1400.8777],[26.9617,-11.9093,1399.0576],[26.9698,-11.8768,1380.8918],[26.9834,-11.8679,1366.3792],[26.9863,-11.8566,1381.396],[26.989,-11.8532,1366.095],[26.9918,-11.8514,1370.9231],[27.0008,-11.8505,1375.2568],[27.0082,-11.8414,1379.2594],[27.0055,-11.836,1375.364],[26.9942,-11.8267,1354.9915],[26.9936,-11.8239,1352.1005],[26.9946,-11.8203,1345.8956],[26.9976,-11.817,1341.8207],[27.0044,-11.8168,1364.9296],[27.008,-11.8137,1369.9385],[27.0033,-11.8022,1366.9092],[27.0056,-11.7926,1353.0874],[27.0037,-11.7776,1345.3417],[27.0067,-11.7665,1361.6757],[27.0046,-11.7458,1371.6827],[27.0064,-11.7441,1369.1949],[27.0089,-11.7458,1369.9307],[27.0187,-11.7467,1362.5424],[27.0198,-11.7405,1371.816],[27.0247,-11.7408,1373.8247],[27.0263,-11.7354,1375.7662],[27.0318,-11.736,1377.4602],[27.0319,-11.7253,1366.9762],[27.038,-11.7174,1351.2803],[27.0462,-11.7112,1377.1194],[27.0478,-11.707,1376.9896],[27.0458,-11.6947,1373.42],[27.0411,-11.6866,1386.964],[27.0418,-11.6752,1386.4482],[27.0375,-11.6704,1380.6384],[27.0327,-11.6698,1381.0446],[27.0278,-11.6538,1380.302],[27.0231,-11.6481,1389.0573],[27.0223,-11.6445,1390.4586],[27.0298,-11.6384,1395.7092],[27.0308,-11.6334,1394.3195],[27.0213,-11.6263,1390.3759],[27.0176,-11.6211,1385.9666],[27.0165,-11.6148,1391.5415],[27.0208,-11.6091,1385.0557],[27.0295,-11.6026,1388.6012],[27.0365,-11.6012,1378.2347],[27.0403,-11.5942,1399.6068],[27.0494,-11.59,1381.7285],[27.0543,-11.5909,1382.8022],[27.0642,-11.5981,1387.0786],[27.0812,-11.606,1383.9586],[27.0942,-11.6009,1383.1813],[27.0994,-11.5944,1377.9828],[27.1138,-11.5918,1370.9159],[27.1196,-11.5877,1371.2819],[27.1229,-11.5876,1373.2134],[27.1325,-11.5932,1371.1284],[27.1426,-11.5968,1379.1157],[27.1543,-11.5971,1383.6151],[27.1592,-11.5994,1384.7495],[27.1739,-11.5846,1382.0042],[27.1836,-11.5806,1383.6937],[27.1912,-11.5814,1386.4631],[27.1945,-11.5799,1389.6562],[27.1982,-11.5752,1396.1985],[27.2024,-11.5634,1408.0649],[27.2054,-11.5601,1407.5835],[27.209,-11.566,1407.7083],[27.2147,-11.5903,1389.5002],[27.2166,-11.5932,1388.8428],[27.218,-11.6054,1386.771],[27.2222,-11.6169,1370.8918],[27.2215,-11.6261,1382.7316],[27.2283,-11.637,1383.8872],[27.2269,-11.6481,1391.7155],[27.2284,-11.6591,1392.3867],[27.2367,-11.6804,1387.1946],[27.2358,-11.6852,1386.0223],[27.2318,-11.6865,1383.1504],[27.2273,-11.6935,1373.9739],[27.233,-11.7116,1371.5846],[27.2315,-11.7174,1370.1997],[27.2241,-11.7295,1370.0717],[27.2248,-11.7318,1370.5605],[27.2206,-11.7458,1366.4431],[27.2227,-11.7507,1363.9329],[27.2275,-11.7547,1360.1581],[27.2305,-11.7623,1361.9333],[27.232,-11.784,1361.7017],[27.2339,-11.7865,1358.3115],[27.2469,-11.7931,1352.4073],[27.2524,-11.7977,1348.7255],[27.2574,-11.7995,1355.7842],[27.2628,-11.7988,1349.218],[27.2641,-11.7932,1344.736],[27.2667,-11.7931,1343.9335],[27.2923,-11.803,1329.4877],[27.2981,-11.8094,1333.698],[27.3063,-11.8153,1325.5061],[27.3273,-11.8276,1317.1796],[27.3404,-11.8277,1326.834],[27.34,-11.8376,1301.1221],[27.3527,-11.8465,1329.672],[27.3749,-11.855,1330.9927],[27.3802,-11.8656,1313.3889],[27.3969,-11.8712,1325.3782],[27.3989,-11.8753,1332.0662],[27.3988,-11.8829,1327.7266],[27.4001,-11.8853,1321.9539],[27.4074,-11.8887,1318.7506],[27.4157,-11.8888,1335.0519],[27.4212,-11.8911,1341.2681],[27.4383,-11.9098,1328.8746],[27.4566,-11.9199,1329.9795],[27.4688,-11.9306,1335.6721],[27.4768,-11.9467,1331.7751],[27.4688,-11.9695,1332.7968],[27.4663,-11.9797,1330.6216],[27.4679,-11.9888,1327.3444],[27.4617,-12.0054,1336.9038],[27.4623,-12.0219,1329.7695],[27.4636,-12.0269,1328.5178],[27.4672,-12.0316,1327.0222],[27.4677,-12.0357,1326.1588],[27.465,-12.0373,1326.0669],[27.4664,-12.0403,1330.3033],[27.4652,-12.0424,1330.9126],[27.469,-12.0448,1329.8909],[27.4685,-12.0503,1326.0369],[27.4743,-12.054,1328.9117],[27.4852,-12.0483,1341.2402],[27.496,-12.0565,1342.7345],[27.4953,-12.0705,1361.873],[27.5013,-12.074,1349.8322],[27.5023,-12.0789,1349.5892],[27.511,-12.0891,1329.8831],[27.5092,-12.0987,1336.9541],[27.5118,-12.1069,1336.9698],[27.5102,-12.1219,1330.3555],[27.5132,-12.1347,1335.6206],[27.5198,-12.1481,1336.9446],[27.5222,-12.1583,1329.0022],[27.5322,-12.1751,1335.8198],[27.5365,-12.1793,1333.4478],[27.5471,-12.1829,1331.5234],[27.5537,-12.19,1332.8225],[27.5589,-12.1989,1327.4784],[27.5618,-12.1995,1325.7302],[27.571,-12.2069,1319.9089],[27.5914,-12.2063,1326.599],[27.5986,-12.2144,1323.7848],[27.6088,-12.2163,1330.2123],[27.6162,-12.2223,1331.0483],[27.6171,-12.2336,1323.3676],[27.6143,-12.2393,1351.4496],[27.6289,-12.2561,1333.4108],[27.6226,-12.2646,1331.8853],[27.6224,-12.2682,1333.0568],[27.6283,-12.2709,1339.0173],[27.635,-12.2703,1350.1608],[27.6399,-12.2762,1367.95],[27.6509,-12.2848,1404.6289],[27.6577,-12.2853,1402.3727],[27.6591,-12.2837,1403.6421],[27.6692,-12.2872,1402.7185],[27.7249,-12.29,1431.7217],[27.7638,-12.2945,1410.5742],[27.7763,-12.2893,1366.3663],[27.8031,-12.2669,1353.563],[27.8147,-12.2612,1349.8959],[27.8249,-12.2446,1364.1782],[27.8321,-12.2424,1374.5569],[27.853,-12.2436,1377.3323],[27.8697,-12.249,1366.0479],[27.9041,-12.2525,1363.2891],[27.929,-12.2578,1362.2585],[27.9343,-12.2603,1357.6456],[27.9551,-12.2972,1333.4385],[27.9839,-12.3175,1272.5586],[28.0209,-12.3358,1316.5771],[28.0309,-12.3345,1319.7173],[28.0396,-12.3412,1318.2955],[28.0443,-12.3499,1352.4628],[28.049,-12.3692,1352.3629],[28.0556,-12.3759,1339.8184],[28.0583,-12.3956,1321.4578],[28.0546,-12.4008,1332.3561],[28.0556,-12.404,1336.4479],[28.0627,-12.407,1317.974],[28.0715,-12.4219,1265.0945],[28.0794,-12.429,1274.911],[28.0911,-12.4441,1290.5338],[28.0947,-12.443,1296.3167],[28.0973,-12.4407,1293.3959],[28.099,-12.4357,1311.4894],[28.1088,-12.4293,1304.7245],[28.1088,-12.4257,1314.0419],[28.0973,-12.4085,1309.2715],[28.0991,-12.4004,1324.3245],[28.1111,-12.3953,1328.13],[28.1158,-12.3893,1304.866],[28.1251,-12.3659,1257.7407],[28.1325,-12.3606,1250.0131],[28.1384,-12.3589,1257.2065],[28.145,-12.3615,1261.7711],[28.1291,-12.398,1296.7975],[28.1298,-12.4067,1296.0442],[28.1372,-12.41,1311.9463],[28.1469,-12.408,1315.649],[28.1545,-12.4107,1301.8577],[28.1699,-12.4214,1289.5049],[28.1793,-12.4194,1310.358],[28.1879,-12.4197,1319.2761],[28.1963,-12.4262,1305.5333],[28.2061,-12.4268,1312.2832],[28.2171,-12.4203,1329.9866],[28.2327,-12.4073,1306.1434],[28.2504,-12.4129,1308.049],[28.2717,-12.4229,1328.1698],[28.3152,-12.419,1335.4971],[28.323,-12.4242,1347.9723],[28.3282,-12.4353,1326.9274],[28.3321,-12.4541,1335.2078],[28.3354,-12.4593,1346.9067],[28.3562,-12.4717,1334.0587],[28.3697,-12.4858,1332.1689],[28.3731,-12.4963,1310.25],[28.3839,-12.5177,1304.4956],[28.3993,-12.528,1312.7891],[28.4084,-12.5304,1321.2158],[28.4295,-12.5401,1300.5161],[28.4319,-12.5433,1296.2852],[28.4333,-12.5496,1311.5175],[28.4289,-12.5637,1306.7494],[28.4292,-12.5681,1305.8486],[28.4329,-12.5746,1310.5559],[28.4415,-12.5831,1299.0325],[28.4671,-12.6005,1310.7614],[28.4843,-12.6147,1298.1624],[28.5121,-12.6451,1310.6292],[28.5145,-12.6511,1324.2708],[28.5135,-12.6548,1326.7521],[28.5075,-12.6619,1316.4019],[28.5044,-12.6683,1319.7681],[28.5064,-12.6823,1335.3708],[28.505,-12.6917,1335.4335],[28.4981,-12.7008,1298.8199],[28.4913,-12.7041,1279.119],[28.4706,-12.7065,1284.4972],[28.4659,-12.708,1301.1348],[28.4605,-12.7127,1317.3386],[28.4578,-12.7231,1339.2212],[28.4583,-12.7426,1304.4463],[28.4661,-12.7579,1299.2524],[28.4745,-12.7665,1307.156],[28.4862,-12.7856,1292.0352],[28.5119,-12.8066,1307.0229],[28.5281,-12.831,1336.236],[28.5295,-12.8374,1340.9996],[28.5279,-12.8576,1333.8729],[28.5306,-12.8691,1345.1276],[28.5433,-12.8838,1331.7185],[28.5509,-12.9039,1347.5459],[28.5562,-12.9081,1359.4243],[28.5645,-12.9095,1361.6195],[28.5732,-12.9068,1368.1196],[28.5776,-12.9037,1369.291],[28.5853,-12.8927,1354.6479],[28.5954,-12.8613,1295.1255],[28.6037,-12.8436,1288.153],[28.6227,-12.8279,1296.4053],[28.6284,-12.8262,1305.3333],[28.6402,-12.826,1297.3983],[28.6498,-12.8304,1298.6698],[28.6587,-12.8386,1296.1891],[28.6788,-12.8636,1281.5667],[28.7009,-12.8755,1290.7811],[28.7148,-12.8876,1309.168],[28.7262,-12.9054,1297.8336],[28.7324,-12.9119,1307.0608],[28.7486,-12.9443,1310.6826],[28.7772,-12.9566,1275.973],[28.7836,-12.969,1265.8617],[28.7959,-12.9855,1264.6864],[28.8112,-13.0007,1288.2107],[28.8195,-13.0168,1316.0789],[28.8241,-13.032,1337.6523],[28.823,-13.05,1356.0259],[28.8249,-13.0644,1384.8364],[28.834,-13.0786,1467.9539],[28.8333,-13.0827,1456.1016],[28.8204,-13.0903,1457.2998],[28.8205,-13.0938,1452.9238],[28.837,-13.1111,1389.3308],[28.8387,-13.116,1417.4293],[28.8397,-13.1291,1471.7042],[28.838,-13.1465,1388.54],[28.8399,-13.155,1381.3081],[28.8423,-13.1584,1494.259],[28.8503,-13.1615,1392.5566],[28.8625,-13.1613,1384.8235],[28.8691,-13.17,1364.2576],[28.8744,-13.1712,1358.8658],[28.8847,-13.1686,1359.7012],[28.8892,-13.1691,1354.7283],[28.8966,-13.1741,1338.0697],[28.9063,-13.1849,1325.9788],[28.9159,-13.2086,1321.0302],[28.9184,-13.2223,1322.9954],[28.9181,-13.2442,1318.1105],[28.9312,-13.2747,1311.6261],[28.939,-13.3052,1313.5691],[28.959,-13.3638,1376.0229],[28.9591,-13.3825,1359.4622],[28.9692,-13.3879,1376.4982],[28.9885,-13.378,1392.0059],[28.9978,-13.3795,1449.8181],[28.9978,-13.3849,1370.7795],[28.9953,-13.3888,1380.1414],[28.9828,-13.3997,1454.2877],[28.9797,-13.4071,1440.4309],[28.9852,-13.4187,1395.1039],[28.9923,-13.4253,1414.6079],[28.9959,-13.4267,1455.5759],[29.0077,-13.4257,1508.5741],[29.0191,-13.4224,1418.073],[29.0386,-13.4137,1384.5085],[29.0606,-13.3997,1386.7981],[29.086,-13.3864,1399.3696],[29.1041,-13.3788,1389.1062],[29.1203,-13.3763,1420.1304],[29.1347,-13.3807,1503.4966],[29.1419,-13.3848,1416.2032],[29.1597,-13.4066,1372.3965],[29.1665,-13.4215,1381.8579],[29.1703,-13.442,1417.1403],[29.1751,-13.4463,1431.6627],[29.1793,-13.4451,1429.0593],[29.1884,-13.4387,1417.5771],[29.2072,-13.4213,1372.4918],[29.2218,-13.4158,1387.8904],[29.2354,-13.4084,1391.2568],[29.2653,-13.3848,1381.5449],[29.2879,-13.3763,1362.0081],[29.2983,-13.3706,1359.3167],[29.3063,-13.3594,1355.517],[29.3083,-13.3517,1353.4929],[29.313,-13.3445,1359.9164],[29.3291,-13.3436,1361.5363],[29.3415,-13.3513,1364.0773],[29.3509,-13.3529,1369.8064],[29.3548,-13.3489,1366.4567],[29.358,-13.3357,1368.5945],[29.3615,-13.3308,1368.5103],[29.3657,-13.3283,1365.863],[29.386,-13.3296,1351.374],[29.4144,-13.318,1364.8823],[29.4437,-13.3108,1379.2798],[29.4808,-13.2808,1399.1967],[29.5088,-13.2461,1422.8347],[29.5259,-13.235,1448.6796],[29.5452,-13.2308,1503.9004],[29.5508,-13.227,1518.8862],[29.5594,-13.224,1546.5028],[29.5745,-13.2125,1533.084],[29.5791,-13.2116,1505.9949],[29.5925,-13.2152,1507.0367],[29.5969,-13.218,1502.1587],[29.6073,-13.2281,1491.6821],[29.6289,-13.244,1482.7281],[29.6366,-13.245,1486.2227],[29.6445,-13.2438,1471.8251],[29.662,-13.2317,1492.451],[29.6652,-13.2318,1489.0269],[29.6701,-13.2326,1494.4231],[29.6761,-13.2466,1507.9866],[29.6776,-13.2576,1492.1941],[29.6757,-13.263,1502.3684],[29.6626,-13.2808,1490.5493],[29.6536,-13.2882,1497.8035],[29.65,-13.2948,1479.2068],[29.6498,-13.3014,1473.3638],[29.656,-13.3218,1462.3632],[29.6565,-13.3284,1469.8665],[29.6456,-13.3531,1500.673],[29.6373,-13.3595,1591.1248],[29.6248,-13.3607,1661.0945],[29.6075,-13.359,1665.0634],[29.6037,-13.3611,1604.9204],[29.6036,-13.366,1599.3127],[29.6156,-13.3841,1637.2053],[29.6113,-13.4074,1558.0187],[29.6256,-13.4196,1519.3792],[29.6357,-13.4317,1514.0333],[29.6462,-13.4358,1524.6948],[29.6807,-13.431,1710.2368],[29.6869,-13.4345,1658.6664],[29.6969,-13.4444,1713.8721],[29.7074,-13.4504,1702.702],[29.7209,-13.4525,1644.3424],[29.739,-13.4501,1604.0796],[29.7592,-13.4408,1648.8372],[29.7712,-13.4326,1578.3373],[29.7765,-13.4328,1579.6147],[29.7972,-13.4415,1552.249],[29.8114,-13.445,1544.0562],[29.8257,-12.4954,1172.7881],[29.8223,-12.1467,1161.7135],[29.8135,-12.1495,1159.9858],[29.7827,-12.1463,1160.0646],[29.7709,-12.1487,1159.2408],[29.7542,-12.1615,1160.2263],[29.7486,-12.1688,1160.0419],[29.7422,-12.1815,1159.6527],[29.7403,-12.1949,1160.313],[29.7385,-12.1984,1159.896],[29.7301,-12.2025,1160.1665],[29.7253,-12.2126,1160.2344],[29.7099,-12.216,1159.8331],[29.6895,-12.2258,1159.4874],[29.6757,-12.228,1159.7593],[29.6607,-12.2272,1159.5712],[29.6503,-12.2239,1159.5271],[29.6455,-12.2169,1159.7405],[29.6385,-12.2119,1159.4148],[29.6275,-12.2159,1159.5696],[29.6234,-12.2139,1159.3099],[29.6156,-12.1989,1159.1288],[29.6106,-12.1926,1159.0193],[29.606,-12.1905,1159.4702],[29.595,-12.1925,1159.2468],[29.5911,-12.1914,1158.8086],[29.5886,-12.1848,1158.9907],[29.5853,-12.185,1159.1741],[29.5768,-12.1942,1159.52],[29.5722,-12.1961,1158.8024],[29.5623,-12.1965,1158.7593],[29.5589,-12.1993,1158.8826],[29.5525,-12.2132,1160.0968],[29.5462,-12.2193,1159.4373],[29.5188,-12.2281,1158.4414],[29.5075,-12.2335,1159.8156],[29.4995,-12.2394,1158.2412],[29.49,-12.2504,1159.3335],[29.4877,-12.2625,1160.0105],[29.4739,-12.2932,1163.0449],[29.4683,-12.3022,1159.549],[29.4674,-12.3198,1160.9524],[29.4918,-12.3824,1163.431],[29.4947,-12.3862,1161.8506],[29.5045,-12.393,1160.3308],[29.5324,-12.3881,1163.2144],[29.5362,-12.3903,1161.8579],[29.5387,-12.3974,1162.3555],[29.5406,-12.412,1159.8074],[29.5364,-12.4227,1162.3639],[29.5206,-12.435,1158.3939],[29.5108,-12.4383,1158.5503],[29.4943,-12.4514,1161.1777],[29.4793,-12.4514,1165.014],[29.4609,-12.441,1167.0457],[29.4426,-12.44,1164.8837],[29.4349,-12.4372,1162.0121],[29.418,-12.4301,1160.2148],[29.4057,-12.422,1162.171],[29.3984,-12.4139,1161.7136],[29.3849,-12.4066,1160.5779],[29.3732,-12.4083,1164.7402],[29.3553,-12.4184,1159.8713],[29.3459,-12.4193,1158.6144],[29.3409,-12.4177,1162.4589],[29.3267,-12.4068,1171.3258],[29.3161,-12.4049,1159.0026],[29.3136,-12.4027,1159.5594],[29.3152,-12.3872,1159.5209],[29.3111,-12.3828,1158.3156],[29.2817,-12.368,1153.7152],[29.2733,-12.3676,1154.9546],[29.2456,-12.3778,1148.75],[29.2365,-12.3782,1142.25],[29.2208,-12.3716,1145.2333],[29.1904,-12.371,1137.5825],[29.1649,-12.3782,1121.1371],[29.152,-12.3833,1145.1338],[29.1395,-12.3914,1158.0217],[29.1335,-12.393,1126.2778],[29.1256,-12.3776,1140.8293],[29.1203,-12.3741,1150.1226],[29.1126,-12.3741,1139.365],[29.1033,-12.3774,1093.9224],[29.088,-12.3856,1136.7644],[29.0664,-12.3835,1109.2321],[29.0509,-12.3782,1110.1169],[29.047,-12.3728,1136.8716],[29.0451,-12.3674,1139.6191],[29.0474,-12.3576,1140.5186],[29.047,-12.3499,1117.1582],[29.0309,-12.3314,1082.9341],[29.0253,-12.3209,1065.7753],[29.0222,-12.3097,1060.9401],[29.0201,-12.2905,1065.7791],[29.0151,-12.2813,1067.6449],[29.0022,-12.2705,1063.8983],[28.9901,-12.2561,1058.4996],[28.9821,-12.2398,1061.8707],[28.9724,-12.2267,1058.6436],[28.9642,-12.2094,1059.4954],[28.9559,-12.2004,1060.1395],[28.933,-12.1815,1058.7323],[28.9217,-12.1694,1068.7131],[28.9105,-12.1638,1057.993],[28.9004,-12.1619,1053.7247],[28.8825,-12.1529,1056.5182],[28.8681,-12.1373,1058.2804],[28.8475,-12.1002,1066.7511],[28.8304,-12.0856,1062.4125],[28.8139,-12.065,1064.0652],[28.7918,-12.0527,1060.8424],[28.7864,-12.0435,1080.3901],[28.7864,-12.0339,1059.2623],[28.7841,-12.0258,1054.9067],[28.7789,-12.0199,1058.4421],[28.7758,-11.9989,1065.0779],[28.7668,-11.9826,1057.9216],[28.7533,-11.9822,1054.0254],[28.7339,-11.9912,1055.0027],[28.7247,-11.9926,1054.4681],[28.7197,-11.9914,1053.7811],[28.7037,-11.983,1051.4708],[28.6858,-11.9672,1052.3959],[28.6555,-11.9503,1054.1429],[28.6476,-11.9435,1056.6013],[28.6393,-11.9347,1056.793],[28.6346,-11.9166,1062.373],[28.6278,-11.9097,1053.14],[28.6157,-11.9111,1054.4648],[28.6055,-11.9095,1050.3948],[28.5915,-11.9124,1056.5043],[28.5857,-11.912,1051.9824],[28.5655,-11.902,1048.0],[28.5486,-11.899,1048.0],[28.5232,-11.882,1051.406]]]]}
,"properties": {"GID_1": "COD.3_1","GID_0": "COD","country": "DemocraticRepublicoftheCongo","province": "Haut-Katanga","VARNAME_1": "NA","NL_NAME_1": "NA","TYPE_1": "Province","ENGTYPE_1": "Province","CC_1": "NA","HASC_1": "CD.HK","ISO_1": "CD-HK","name": "Haut-Katanga.province","area_km2": 124755.05,"hist_schema_id": "Elevation0-9000","hist_area_km2": {"600": 7.0,"625": 25.29,"650": 47.81,"675": 85.26,"700": 109.16,"725": 161.32,"750": 150.08,"775": 178.18,"800": 202.71,"825": 229.53,"850": 239.81,"875": 2775.82,"900": 2691.34,"925": 6695.19,"950": 3138.21,"975": 2931.7,"1000": 2988.79,"1025": 3076.06,"1050": 3486.7,"1075": 3930.63,"1100": 4221.91,"1125": 5428.01,"1150": 6127.16,"1175": 6823.62,"1200": 6351.4,"1225": 6196.67,"1250": 6127.48,"1275": 5432.66,"1300": 4638.03,"1325": 3768.05,"1350": 3081.78,"1375": 2887.54,"1400": 2970.57,"1425": 3331.71,"1450": 3601.65,"1475": 3290.32,"1500": 2652.2,"1525": 2164.82,"1550": 1807.12,"1575": 1630.93,"1600": 1480.33,"1625": 1465.28,"1650": 1486.69,"1675": 1431.9,"1700": 1368.3,"1725": 764.72,"1750": 329.62,"1775": 283.74,"1800": 201.38,"1825": 130.46,"1850": 78.54,"1875": 35.69,"1900": 13.56}}}