{"type":"Feature","properties":{"GID_2":"COD.5.5_1","GID_0":"COD","country":"DemocraticRepublicoftheCongo","GID_1":"COD.5_1","province":"Haut-Uele","NL_NAME_1":"NA","county":"Isiro","VARNAME_2":"NA","NL_NAME_2":"NA","TYPE_2":"Ville","ENGTYPE_2":"Town","CC_2":"NA","HASC_2":"NA","name":"Isiro.county"},
"geometry":{"type": "MultiPolygon","coordinates": [[[[27.646,2.7305,747.087],[27.67,2.7459,755.6824],[27.6778,2.7601,755.8056],[27.6775,2.7759,761.3246],[27.6717,2.7901,767.429],[27.662,2.7976,749.1614],[27.6458,2.8064,743.4791],[27.6289,2.8035,768.1379],[27.6214,2.7983,748.9915],[27.6061,2.795,750.2582],[27.6003,2.7864,753.8593],[27.5973,2.7629,751.1],[27.6038,2.7407,738.7527],[27.6186,2.732,765.2262],[27.6343,2.7278,771.5669],[27.646,2.7305,747.087]]]]}}