{"type": "Feature","bbox": [22.3946,-6.952,23.2801,-5.8269],"geometry": {"type": "MultiPolygon","coordinates": [[[[22.397,-6.031,563.7424],[22.3986,-6.0381,563.1411],[22.3953,-6.0471,565.5594],[22.4018,-6.0665,570.8824],[22.3946,-6.0804,571.8559],[22.3971,-6.1027,576.4218],[22.4019,-6.1034,577.6395],[22.4019,-6.1064,580.1742],[22.4074,-6.1122,568.75],[22.4076,-6.1152,572.7745],[22.4144,-6.1235,574.342],[22.4116,-6.1282,573.6896],[22.4167,-6.1327,574.595],[22.4239,-6.1331,579.8154],[22.4278,-6.136,577.7525],[22.4377,-6.1288,599.2021],[22.4409,-6.1277,584.819],[22.4443,-6.1288,587.4795],[22.4466,-6.1332,582.9658],[22.4452,-6.1576,580.0143],[22.4499,-6.1736,581.4373],[22.4518,-6.1776,581.6301],[22.464,-6.188,584.4541],[22.4694,-6.1974,585.6],[22.4733,-6.1991,587.8447],[22.4752,-6.2027,590.4518],[22.471,-6.2099,596.2664],[22.468,-6.2257,596.7601],[22.4691,-6.228,604.408],[22.4749,-6.2303,602.6265],[22.4721,-6.2347,608.6541],[22.4686,-6.2478,620.5564],[22.4787,-6.2524,623.5905],[22.4813,-6.2504,621.1826],[22.4844,-6.2524,619.229],[22.4818,-6.2622,621.4792],[22.4791,-6.2581,619.7783],[22.476,-6.2614,617.571],[22.4732,-6.2683,625.8296],[22.4752,-6.2713,625.9773],[22.4807,-6.2738,629.2939],[22.4819,-6.2763,621.7436],[22.477,-6.2848,627.5115],[22.4692,-6.2922,629.9779],[22.4635,-6.3004,624.7559],[22.4648,-6.3045,624.6512],[22.4625,-6.3117,628.2322],[22.4569,-6.3139,637.4001],[22.4593,-6.3204,627.9225],[22.4585,-6.3246,636.9442],[22.4468,-6.3452,653.4002],[22.4426,-6.3588,662.5638],[22.4313,-6.3647,656.0897],[22.4265,-6.3697,673.5867],[22.4191,-6.3718,665.2845],[22.4159,-6.3743,659.819],[22.4127,-6.3782,656.4359],[22.4118,-6.3844,660.5384],[22.4011,-6.3943,673.5363],[22.3986,-6.3991,655.9346],[22.4105,-6.4097,658.7045],[22.4117,-6.4125,658.2095],[22.4073,-6.4184,661.1249],[22.4137,-6.4224,669.4424],[22.4192,-6.4287,664.2905],[22.4201,-6.4394,668.1223],[22.4184,-6.4436,669.5471],[22.4238,-6.4461,668.223],[22.4258,-6.45,667.5353],[22.4228,-6.455,668.4181],[22.4219,-6.4612,679.2316],[22.4143,-6.4709,677.9925],[22.4108,-6.4803,686.4689],[22.4214,-6.4828,690.4868],[22.4235,-6.4867,685.2986],[22.428,-6.4895,698.6382],[22.434,-6.49,697.5623],[22.4377,-6.5013,683.658],[22.4314,-6.5072,695.4695],[22.4312,-6.5127,684.5],[22.4335,-6.5139,687.2451],[22.4356,-6.5208,689.5638],[22.4475,-6.5277,711.796],[22.4546,-6.5376,691.375],[22.4546,-6.5415,692.9938],[22.4635,-6.5455,709.8451],[22.4633,-6.5512,698.9053],[22.4709,-6.5554,712.5944],[22.4745,-6.5678,700.0],[22.472,-6.5809,721.9752],[22.4747,-6.585,719.8604],[22.4742,-6.5903,717.8707],[22.4765,-6.5965,739.891],[22.4742,-6.6011,742.6056],[22.4765,-6.6034,747.5897],[22.4848,-6.6053,738.9864],[22.4889,-6.6104,745.6534],[22.497,-6.612,736.5685],[22.499,-6.6148,733.5834],[22.4958,-6.6203,735.1687],[22.4994,-6.6276,737.1443],[22.4965,-6.6313,735.3435],[22.4898,-6.634,739.8779],[22.4882,-6.6372,735.1031],[22.4934,-6.6506,734.6354],[22.4879,-6.6662,736.3272],[22.4927,-6.6772,740.5865],[22.4899,-6.6901,742.7114],[22.4935,-6.6945,756.0991],[22.5044,-6.6931,773.7425],[22.5092,-6.6968,746.1349],[22.5135,-6.6966,746.6907],[22.5241,-6.6875,785.4159],[22.5278,-6.6863,787.0172],[22.5427,-6.6951,757.5524],[22.5666,-6.7319,751.7438],[22.5622,-6.7363,744.436],[22.5645,-6.7485,744.6193],[22.5591,-6.7691,747.6439],[22.5653,-6.7793,754.4683],[22.5849,-6.7818,780.7234],[22.5911,-6.7761,775.0498],[22.5984,-6.7773,780.2415],[22.6044,-6.7833,777.7664],[22.6083,-6.7904,744.0],[22.6225,-6.7939,769.3634],[22.6305,-6.7987,762.5558],[22.6441,-6.8028,762.155],[22.673,-6.8061,790.2242],[22.6795,-6.8021,789.4207],[22.6907,-6.7912,775.4206],[22.6962,-6.7915,779.5438],[22.6996,-6.7987,778.1372],[22.7056,-6.8024,780.6267],[22.7124,-6.8313,796.6832],[22.7163,-6.8376,798.0927],[22.7202,-6.8394,787.5526],[22.7234,-6.8481,797.5523],[22.7298,-6.8521,792.6552],[22.7326,-6.8587,799.2205],[22.7448,-6.8657,805.4914],[22.7553,-6.8648,798.2076],[22.7615,-6.8708,804.4423],[22.7726,-6.8715,819.0104],[22.7813,-6.8752,808.0823],[22.7992,-6.8888,824.0747],[22.8259,-6.8893,846.7972],[22.8376,-6.8969,819.9598],[22.842,-6.9059,835.7389],[22.8471,-6.9025,845.5042],[22.8581,-6.9004,871.4303],[22.8629,-6.8951,883.2683],[22.8775,-6.8903,845.7571],[22.8838,-6.8923,874.2717],[22.8875,-6.8973,895.3824],[22.8938,-6.9008,898.8556],[22.9224,-6.9021,846.7563],[22.9431,-6.8848,872.0909],[22.9485,-6.8852,867.5123],[22.9581,-6.8994,818.9282],[22.9616,-6.9087,853.4387],[22.9582,-6.929,868.0855],[22.9629,-6.9431,850.6893],[22.9775,-6.952,865.1028],[22.9823,-6.951,870.9807],[22.998,-6.921,882.7845],[23.0137,-6.9076,870.8919],[23.0261,-6.9052,859.5388],[23.0312,-6.9021,900.1247],[23.0358,-6.8911,917.8406],[23.0325,-6.8761,888.4433],[23.0339,-6.8712,865.7096],[23.0395,-6.8687,872.9949],[23.0452,-6.8685,866.5412],[23.0651,-6.877,879.1456],[23.0838,-6.8811,841.4727],[23.1259,-6.895,834.3286],[23.138,-6.9057,868.7476],[23.1395,-6.9154,880.2008],[23.1378,-6.934,852.9354],[23.1452,-6.9348,864.704],[23.1669,-6.9303,872.045],[23.1873,-6.9313,890.2022],[23.2169,-6.9439,888.6923],[23.2716,-6.9493,815.4297],[23.2801,-6.936,815.2194],[23.2758,-6.9346,815.5256],[23.2709,-6.938,816.0277],[23.2691,-6.9362,814.2498],[23.2783,-6.9226,812.7253],[23.279,-6.9201,811.6385],[23.2765,-6.9171,826.2784],[23.2772,-6.9153,832.7537],[23.2614,-6.9123,870.4039],[23.2363,-6.913,870.0914],[23.2284,-6.9183,845.5823],[23.2203,-6.9174,867.0993],[23.2061,-6.9096,886.6415],[23.1831,-6.9058,924.5221],[23.1793,-6.9027,901.7109],[23.1776,-6.8935,890.7629],[23.1743,-6.8901,876.933],[23.1678,-6.8878,854.2585],[23.1624,-6.8837,848.8607],[23.1587,-6.8788,846.5062],[23.1559,-6.8678,859.0833],[23.1488,-6.861,865.374],[23.1407,-6.8577,851.241],[23.1235,-6.8579,823.4697],[23.1035,-6.8561,863.5219],[23.094,-6.8539,883.1487],[23.0846,-6.8494,893.6136],[23.0758,-6.8418,872.6496],[23.0694,-6.8332,856.7458],[23.0637,-6.8155,848.6115],[23.0505,-6.7943,820.8972],[23.0388,-6.7836,798.1594],[23.0246,-6.776,790.0905],[23.0211,-6.7705,790.9083],[23.02,-6.7666,789.2027],[23.0299,-6.7514,786.677],[23.0334,-6.7422,789.1968],[23.0385,-6.7349,791.6141],[23.0461,-6.7282,791.4877],[23.0578,-6.7101,784.7239],[23.0613,-6.6913,790.2774],[23.074,-6.6623,776.2126],[23.0722,-6.6527,783.8716],[23.0777,-6.643,775.9582],[23.0734,-6.6354,775.7354],[23.0925,-6.6134,770.4184],[23.0932,-6.6107,770.4664],[23.0909,-6.6061,783.4478],[23.0923,-6.6003,767.0342],[23.0891,-6.5943,770.4878],[23.0914,-6.5854,758.2874],[23.09,-6.5805,762.9001],[23.1041,-6.5557,752.8459],[23.1004,-6.5507,725.9089],[23.1014,-6.5385,734.8368],[23.1129,-6.5231,735.5101],[23.1255,-6.5105,717.2911],[23.1272,-6.5038,713.6815],[23.1269,-6.4905,734.757],[23.1369,-6.4758,717.5851],[23.1399,-6.4584,716.4926],[23.1362,-6.4554,740.5659],[23.1422,-6.4446,704.5627],[23.1413,-6.4397,707.787],[23.1316,-6.431,726.5586],[23.1342,-6.4179,728.3571],[23.1358,-6.4172,728.3571],[23.1404,-6.4195,719.8263],[23.1441,-6.4165,707.5216],[23.1475,-6.4168,704.567],[23.1494,-6.4152,720.1941],[23.1487,-6.4122,714.2646],[23.1423,-6.4089,719.4666],[23.14,-6.4048,712.5183],[23.1411,-6.3997,701.5764],[23.1398,-6.3931,701.538],[23.1331,-6.3845,747.6892],[23.1372,-6.3832,741.0378],[23.14,-6.3846,719.959],[23.1416,-6.379,732.7386],[23.149,-6.3798,700.4014],[23.1499,-6.3772,701.9031],[23.1442,-6.368,708.2496],[23.1462,-6.3614,699.164],[23.1419,-6.3611,708.7216],[23.1412,-6.3593,719.4108],[23.1292,-6.353,717.5573],[23.1161,-6.3523,725.3682],[23.1072,-6.3475,742.6502],[23.0998,-6.347,738.3785],[23.0943,-6.3495,762.2576],[23.0858,-6.3565,755.8175],[23.0826,-6.3564,752.5847],[23.0772,-6.3538,766.8948],[23.0712,-6.3481,763.0794],[23.0675,-6.3317,776.5973],[23.0644,-6.2932,740.3439],[23.0538,-6.2541,713.4465],[23.0602,-6.2488,708.9121],[23.0662,-6.2299,696.6282],[23.0674,-6.2102,708.6936],[23.0722,-6.2081,695.5659],[23.0835,-6.1934,677.3109],[23.0831,-6.1906,690.2189],[23.0685,-6.1814,705.293],[23.0418,-6.1735,755.7585],[23.02,-6.172,751.5989],[23.0138,-6.1701,776.9033],[23.0086,-6.1658,707.2255],[23.0053,-6.1607,756.2245],[23.0042,-6.1528,706.5427],[23.004,-6.1266,692.0188],[23.0101,-6.1031,669.535],[22.9959,-6.0915,694.4883],[22.9718,-6.0809,754.4019],[22.9642,-6.0756,756.3809],[22.956,-6.0651,778.1355],[22.9546,-6.054,766.3656],[22.9553,-6.0441,737.7662],[22.9754,-6.0285,746.3884],[22.9763,-6.0253,744.4104],[22.974,-6.0189,725.7714],[22.9632,-6.0058,724.7521],[22.9586,-5.9917,716.1649],[22.9518,-5.9827,713.6644],[22.9486,-5.948,699.036],[22.9542,-5.9361,691.6047],[22.9659,-5.9225,714.4807],[22.9864,-5.8908,712.4165],[22.9878,-5.8865,676.7749],[22.9864,-5.8819,691.1068],[22.9782,-5.8692,664.5419],[22.9669,-5.8607,661.4823],[22.9545,-5.8468,663.0644],[22.9419,-5.8374,670.6203],[22.9219,-5.8357,652.0886],[22.9031,-5.8433,652.3897],[22.8801,-5.8393,649.5576],[22.8634,-5.8301,653.28],[22.8503,-5.8326,656.3189],[22.8429,-5.8312,675.981],[22.837,-5.8335,635.1162],[22.8262,-5.8334,635.2726],[22.7967,-5.8488,643.0255],[22.7898,-5.8501,633.1066],[22.7797,-5.8474,640.8787],[22.7623,-5.8498,618.5157],[22.7356,-5.8452,630.2386],[22.7175,-5.8369,618.2265],[22.7007,-5.8481,609.3615],[22.6947,-5.8485,606.7275],[22.6881,-5.8464,599.7131],[22.6837,-5.8496,566.7598],[22.6809,-5.8487,574.9535],[22.6784,-5.8407,571.1837],[22.6727,-5.8342,573.5433],[22.6713,-5.8301,573.6556],[22.6727,-5.8269,575.4729],[22.6603,-5.8277,616.7603],[22.6322,-5.8344,629.4981],[22.5922,-5.8473,663.9033],[22.593,-5.9505,662.2561],[22.5892,-5.9639,638.2104],[22.584,-5.9662,650.5576],[22.5764,-5.974,650.1763],[22.5742,-5.9814,635.0377],[22.5868,-5.9906,643.0684],[22.5978,-6.0091,656.3467],[22.6017,-6.0294,719.483],[22.5971,-6.041,703.8574],[22.5853,-6.0437,702.2871],[22.5768,-6.0435,690.615],[22.5755,-6.0401,684.593],[22.5658,-6.029,696.5112],[22.559,-6.0241,683.0886],[22.5515,-6.0159,658.0061],[22.5345,-6.0056,642.8696],[22.5257,-6.0024,627.2064],[22.5,-6.0122,622.9887],[22.4936,-6.012,620.0552],[22.4798,-6.0075,617.478],[22.469,-6.0015,615.6996],[22.4559,-6.0022,606.6455],[22.4531,-5.9992,628.6254],[22.4485,-5.9992,636.6022],[22.435,-6.0058,613.2374],[22.4345,-6.0106,627.55],[22.431,-6.0145,599.5384],[22.4193,-6.0189,607.1366],[22.4156,-6.026,574.6363],[22.4076,-6.0296,559.188],[22.397,-6.031,563.7424]],
[[22.8673,-6.502,850.6163],[22.8544,-6.5034,825.533],[22.8442,-6.502,808.5316],[22.8362,-6.4962,821.4777],[22.8313,-6.486,799.4993],[22.8317,-6.478,798.9154],[22.8393,-6.4602,837.4612],[22.85,-6.4549,798.0658],[22.8646,-6.4549,816.0197],[22.8789,-6.458,814.9039],[22.8846,-6.4616,822.3059],[22.8891,-6.4705,817.8102],[22.8886,-6.4838,840.2463],[22.8802,-6.4976,842.326],[22.8673,-6.502,850.6163]]]]}
,"properties": {"GID_2": "COD.7.2_1","GID_0": "COD","country": "DemocraticRepublicoftheCongo","GID_1": "COD.7_1","province": "Kasaï-Central","NL_NAME_1": "NA","county": "Dibaya","VARNAME_2": "NA","NL_NAME_2": "NA","TYPE_2": "Territoire","ENGTYPE_2": "Territory","CC_2": "NA","HASC_2": "NA","name": "Dibaya.county","area_km2": 7092.931,"hist_schema_id": "Elevation0-9000","hist_area_km2": {"550": 2.973,"575": 35.061,"600": 89.093,"625": 162.321,"650": 277.466,"675": 445.997,"700": 559.359,"725": 723.172,"750": 915.869,"775": 1067.793,"800": 966.694,"825": 812.008,"850": 562.462,"875": 343.541,"900": 111.986,"925": 16.758,"950": 0.379}}}