{"type":"Feature","properties":{"GID_2":"COD.13.7_1","GID_0":"COD","country":"DemocraticRepublicoftheCongo","GID_1":"COD.13_1","province":"Kwilu","NL_NAME_1":"NA","county":"Gungu(ville)","VARNAME_2":"NA","NL_NAME_2":"NA","TYPE_2":"Ville","ENGTYPE_2":"Town","CC_2":"NA","HASC_2":"NA","name":"Gungu(ville).county"},
"geometry":{"type": "MultiPolygon","coordinates": [[[[19.3474,-5.8151,674.3622],[19.3525,-5.8128,617.3123],[19.3569,-5.808,609.7185],[19.3591,-5.7938,749.9489],[19.3558,-5.7861,749.1704],[19.3535,-5.7834,747.2228],[19.3494,-5.782,736.5032],[19.3407,-5.7815,616.5038],[19.3256,-5.7879,667.5116],[19.3212,-5.7946,716.9665],[19.321,-5.7997,746.7416],[19.3266,-5.8099,706.5569],[19.3345,-5.8143,627.5797],[19.3474,-5.8151,674.3622]]]]}}