{"type":"Feature","properties":{"GID_2":"COD.11.15_1","GID_0":"COD","country":"DemocraticRepublicoftheCongo","GID_1":"COD.11_1","province":"Kongo-Central","NL_NAME_1":"NA","county":"Moanda(ville)","VARNAME_2":"NA","NL_NAME_2":"NA","TYPE_2":"Ville","ENGTYPE_2":"Town","CC_2":"NA","HASC_2":"NA","name":"Moanda(ville).county"},
"geometry":{"type": "MultiPolygon","coordinates": [[[[12.3862,-5.9909,0.388],[12.3958,-6.0016,0.0],[12.4,-6.0101,0.6505],[12.4041,-6.0262,0.2067],[12.4374,-6.0573,0.0],[12.4423,-6.0584,0.0],[12.4722,-6.0546,0.0],[12.4933,-6.0483,0.0],[12.4973,-6.0461,0.0],[12.4975,-6.0439,0.0],[12.502,-6.0422,0.0],[12.5155,-6.0412,0.0],[12.5046,-6.0023,2.7008],[12.493,-5.9856,5.8864],[12.4863,-5.9817,5.0632],[12.4722,-5.9782,2.5452],[12.4624,-5.9735,9.8721],[12.4533,-5.9735,29.9075],[12.4457,-5.9769,6.4567],[12.4349,-5.9776,10.9695],[12.4292,-5.9813,0.0],[12.4248,-5.9649,26.1268],[12.4026,-5.9691,3.5805],[12.3862,-5.9909,0.388]]]]}}