{"type": "Feature","bbox": [22.3476,-5.8501,23.7584,-4.1989],"geometry": {"type": "MultiPolygon","coordinates": [[[[22.6728,-5.7917,558.8004],[22.6829,-5.8046,555.5698],[22.684,-5.8087,554.0172],[22.6799,-5.8147,602.1394],[22.6782,-5.8213,572.0527],[22.6713,-5.8301,573.6556],[22.6727,-5.8342,573.5433],[22.6784,-5.8407,571.1837],[22.6809,-5.8487,574.9535],[22.6837,-5.8496,566.7598],[22.6881,-5.8464,599.7131],[22.6947,-5.8485,606.7275],[22.7007,-5.8481,609.3615],[22.7175,-5.8369,618.2265],[22.7356,-5.8452,630.2386],[22.7623,-5.8498,618.5157],[22.7797,-5.8474,640.8787],[22.7898,-5.8501,633.1066],[22.7967,-5.8488,643.0255],[22.8262,-5.8334,635.2726],[22.837,-5.8335,635.1162],[22.8429,-5.8312,675.981],[22.8503,-5.8326,656.3189],[22.8634,-5.8301,653.28],[22.8801,-5.8393,649.5576],[22.9031,-5.8433,652.3897],[22.9219,-5.8357,652.0886],[22.9419,-5.8374,670.6203],[22.9545,-5.8468,663.0644],[22.9502,-5.8412,667.9552],[22.9524,-5.8257,665.9171],[22.9664,-5.7978,732.3466],[22.9747,-5.7868,705.0933],[22.9765,-5.7821,721.0624],[22.9805,-5.7797,723.4711],[23.0729,-5.7729,627.7828],[23.0779,-5.7701,622.0037],[23.0826,-5.7601,673.4154],[23.0837,-5.7466,656.9795],[23.075,-5.7403,638.7919],[23.0746,-5.7351,628.259],[23.0786,-5.7297,618.5969],[23.1015,-5.7277,667.8664],[23.205,-5.7384,607.2722],[23.282,-5.7417,538.1854],[23.2908,-5.7403,519.7179],[23.3064,-5.731,515.8228],[23.3207,-5.7257,487.2284],[23.3317,-5.7268,482.4487],[23.3342,-5.7241,486.3743],[23.3531,-5.7252,482.7939],[23.3588,-5.723,481.6968],[23.3657,-5.7241,474.3552],[23.3815,-5.7138,493.0272],[23.3944,-5.7138,480.4013],[23.4024,-5.7078,522.911],[23.4124,-5.7063,503.5738],[23.4264,-5.6966,472.8102],[23.4222,-5.7031,476.8536],[23.4169,-5.7065,492.1375],[23.4158,-5.7097,475.7613],[23.4181,-5.7159,474.7661],[23.4102,-5.7215,469.9973],[23.4096,-5.7233,459.9488],[23.4125,-5.7249,451.3098],[23.4144,-5.7288,469.1356],[23.413,-5.7316,450.5659],[23.4075,-5.7304,474.2405],[23.4006,-5.7338,500.7209],[23.401,-5.7362,465.909],[23.3937,-5.7463,476.0276],[23.3964,-5.7513,472.2712],[23.3922,-5.7545,465.3255],[23.3918,-5.7574,457.8582],[23.3939,-5.7605,461.8699],[23.3884,-5.7683,468.7361],[23.3822,-5.7681,463.0624],[23.3815,-5.7695,463.0624],[23.3946,-5.7833,461.3426],[23.398,-5.7819,473.1779],[23.4069,-5.7725,498.838],[23.4169,-5.7662,496.856],[23.4247,-5.7474,503.5682],[23.4293,-5.7441,512.155],[23.4573,-5.7471,622.291],[23.4723,-5.7455,587.9176],[23.4785,-5.7417,568.7158],[23.4839,-5.7341,566.8884],[23.4917,-5.716,516.649],[23.4984,-5.6945,548.0984],[23.5046,-5.6838,495.5719],[23.5102,-5.6823,488.2335],[23.5196,-5.6828,557.3861],[23.5274,-5.686,545.9327],[23.5389,-5.6862,548.834],[23.5474,-5.681,551.6683],[23.552,-5.6812,560.2371],[23.5619,-5.6835,565.4489],[23.5667,-5.6883,517.0207],[23.5715,-5.6881,559.5208],[23.5768,-5.6916,573.7941],[23.5809,-5.6923,536.6832],[23.5899,-5.6879,596.5245],[23.6117,-5.6592,629.3553],[23.6304,-5.6521,671.5247],[23.638,-5.6434,690.4685],[23.6476,-5.6413,733.5112],[23.6599,-5.641,701.7533],[23.6757,-5.6286,734.5399],[23.7091,-5.6287,687.6262],[23.7457,-5.6341,585.5327],[23.7584,-5.625,507.4828],[23.7535,-5.615,505.2395],[23.7482,-5.6102,555.149],[23.7324,-5.6042,552.2013],[23.7239,-5.5777,580.8936],[23.7189,-5.5713,645.9501],[23.7177,-5.5572,629.6893],[23.7143,-5.5503,618.9814],[23.7182,-5.5416,655.757],[23.7175,-5.5338,654.6451],[23.7205,-5.5216,661.5516],[23.7149,-5.4858,695.2468],[23.7071,-5.4654,672.3987],[23.7032,-5.4379,572.8074],[23.7093,-5.3751,649.5554],[23.7046,-5.3592,653.1383],[23.6944,-5.3549,669.3082],[23.6764,-5.3524,625.2457],[23.6371,-5.3503,639.4172],[23.5466,-5.336,568.6754],[23.5219,-5.3296,590.7222],[23.5039,-5.3209,563.7059],[23.4865,-5.3095,527.5627],[23.4775,-5.3085,543.0648],[23.4516,-5.3104,531.8516],[23.4358,-5.307,470.5111],[23.4381,-5.301,453.6071],[23.4372,-5.2962,438.7458],[23.4328,-5.2992,450.9326],[23.4305,-5.2944,478.8449],[23.4317,-5.2875,481.6557],[23.4262,-5.2764,475.3236],[23.4269,-5.2716,484.4335],[23.4324,-5.2697,446.2224],[23.4317,-5.2674,448.2924],[23.4239,-5.2615,509.2989],[23.4228,-5.2578,511.9828],[23.4276,-5.2483,480.8419],[23.4274,-5.2449,500.3958],[23.4242,-5.2398,511.7634],[23.4205,-5.2396,502.1229],[23.3955,-5.2557,523.5078],[23.3872,-5.2566,499.0044],[23.3826,-5.26,501.7491],[23.3594,-5.2561,492.209],[23.3438,-5.2487,541.6279],[23.3275,-5.2496,551.11],[23.3209,-5.2477,526.3968],[23.3144,-5.2482,569.3681],[23.3057,-5.2516,583.2909],[23.2967,-5.258,562.1215],[23.2853,-5.2624,544.3601],[23.2765,-5.2633,607.5789],[23.2683,-5.269,580.8688],[23.2598,-5.2701,560.5833],[23.2529,-5.2791,554.222],[23.2469,-5.2832,547.3562],[23.2278,-5.2887,611.1465],[23.1968,-5.3006,575.6874],[23.1851,-5.3093,618.3739],[23.175,-5.3012,581.8435],[23.1504,-5.2437,558.9559],[23.1212,-5.2147,525.1958],[23.1117,-5.2089,568.3485],[23.0792,-5.1686,548.6284],[23.0422,-5.1348,574.4844],[23.0265,-5.1165,529.3575],[23.025,-5.108,555.9127],[23.0153,-5.1049,573.0227],[22.9949,-5.0923,544.9299],[22.978,-5.0752,590.2462],[22.9647,-5.0676,588.5664],[22.9606,-5.0637,581.8849],[22.9562,-5.0528,556.241],[22.9512,-5.0457,574.0302],[22.9457,-5.0429,602.5818],[22.9282,-5.0417,582.3307],[22.9138,-5.032,568.8486],[22.9051,-5.0297,588.0501],[22.9121,-5.0092,624.8945],[22.9144,-4.9824,607.5229],[22.926,-4.9635,616.9368],[22.9578,-4.9475,598.914],[22.9747,-4.9318,571.7302],[22.9702,-4.9244,565.4526],[22.9595,-4.9213,568.7537],[22.9336,-4.9233,567.7807],[22.9258,-4.9194,623.6776],[22.9241,-4.9062,586.197],[22.9423,-4.8752,605.2791],[22.9748,-4.8625,568.1963],[23.0401,-4.8415,554.8947],[23.0621,-4.8282,522.8688],[23.0767,-4.8221,543.5562],[23.0891,-4.8184,530.8869],[23.107,-4.8198,507.3931],[23.1161,-4.81,480.4897],[23.1198,-4.8003,514.7615],[23.1226,-4.799,506.5339],[23.1313,-4.7999,523.5015],[23.1359,-4.7942,515.5081],[23.1425,-4.793,481.5537],[23.1483,-4.7939,499.9161],[23.154,-4.7976,530.1041],[23.1606,-4.797,508.2905],[23.1655,-4.8,513.008],[23.1705,-4.799,519.08],[23.1809,-4.7864,499.0505],[23.1877,-4.7848,491.9701],[23.1887,-4.7682,478.1946],[23.1328,-4.6487,492.4332],[23.1009,-4.5617,511.0647],[23.097,-4.5449,504.055],[23.0886,-4.5357,508.0719],[23.0773,-4.535,514.1061],[23.0744,-4.5262,546.1255],[23.0587,-4.5198,532.3112],[23.0267,-4.5153,589.8176],[22.9904,-4.5238,577.8162],[22.9418,-4.5271,571.5927],[22.9192,-4.5264,562.7754],[22.8841,-4.5184,538.1555],[22.8778,-4.5101,497.26369999999997],[22.8721,-4.5055,482.269],[22.8694,-4.5005,497.0737],[22.8332,-4.4792,528.8395],[22.8277,-4.4732,504.4991],[22.8208,-4.4596,488.5898],[22.8186,-4.4474,501.5481],[22.8154,-4.4414,481.4093],[22.811,-4.4368,474.0097],[22.8028,-4.434,488.6054],[22.7877,-4.4131,537.5897],[22.7836,-4.4103,464.0632],[22.7728,-4.4082,533.662],[22.7556,-4.3854,487.3521],[22.7552,-4.3764,538.7848],[22.7506,-4.3713,535.709],[22.7483,-4.3626,524.0688],[22.7259,-4.3478,529.6039],[22.7204,-4.34,547.9318],[22.7149,-4.3374,522.9137],[22.7081,-4.3266,541.291],[22.7032,-4.3261,512.4655],[22.6838,-4.2998,521.4046],[22.6738,-4.2807,505.798],[22.6628,-4.2694,526.384],[22.6477,-4.2638,483.3665],[22.6374,-4.2491,496.4713],[22.6271,-4.2435,503.7412],[22.6083,-4.2428,526.8613],[22.5952,-4.2324,493.9464],[22.5867,-4.2322,492.5322],[22.5824,-4.2287,512.7128],[22.5425,-4.2159,474.2843],[22.5249,-4.1989,441.3492],[22.5212,-4.2258,456.8484],[22.5264,-4.2391,477.3464],[22.528199999999998,-4.2486,437.8001],[22.5284,-4.2631,460.234],[22.5303,-4.2684,442.6229],[22.5284,-4.2737,489.9803],[22.5318,-4.2806,486.6557],[22.5297,-4.2925,482.1595],[22.5348,-4.3052,507.0937],[22.5336,-4.3206,473.9949],[22.5278,-4.3351,519.078],[22.5358,-4.3521,510.4553],[22.5277,-4.3825,539.7914],[22.5299,-4.4103,509.0391],[22.5262,-4.4271,562.2127],[22.5287,-4.4437,568.437],[22.5117,-4.4722,605.0402],[22.4875,-4.4956,540.7663],[22.4779,-4.496,577.6076],[22.4699,-4.5001,565.7252],[22.4613,-4.5082,554.9628],[22.4567,-4.5254,555.8684],[22.453,-4.5286,554.0917],[22.4507,-4.544,553.0122],[22.4468,-4.5528,530.5593],[22.4461,-4.5631,516.2891],[22.4408,-4.5698,478.7541],[22.4421,-4.5769,502.5769],[22.4306,-4.6003,511.3611],[22.4246,-4.6169,509.5026],[22.4244,-4.6213,541.8378],[22.4345,-4.6197,485.5038],[22.4402,-4.6227,509.9418],[22.4482,-4.6211,468.4389],[22.4535,-4.6262,439.0147],[22.4659,-4.6303,449.9575],[22.4732,-4.6384,454.0995],[22.473,-4.6435,476.3212],[22.476,-4.6441,490.8376],[22.4659,-4.66,535.3424],[22.4507,-4.6939,587.9539],[22.4498,-4.7201,545.795],[22.4558,-4.7351,522.0541],[22.4335,-4.7517,577.398],[22.3991,-4.7894,539.9626],[22.35,-4.8363,534.1744],[22.3476,-4.8511,537.2891],[22.3559,-4.8729,492.4949],[22.3576,-4.8884,525.8907],[22.3654,-4.893,482.8283],[22.3748,-4.8938,495.0818],[22.3845,-4.8979,506.1165],[22.4014,-4.9086,544.2117],[22.4159,-4.9125,524.2194],[22.434,-4.9243,511.6376],[22.4541,-4.9303,540.601],[22.4615,-4.9359,547.7145],[22.4752,-4.9412,537.0994],[22.4833,-4.9405,566.5303],[22.4794,-4.9482,587.4258],[22.4664,-4.995,546.8934],[22.4573,-5.0382,558.1056],[22.4409,-5.1015,454.376],[22.4429,-5.1035,461.0052],[22.4498,-5.1007999999999996,483.1285],[22.4526,-5.1031,457.4026],[22.4553,-5.1107,458.9551],[22.4594,-5.1103,489.4665],[22.4642,-5.1158,458.5412],[22.4688,-5.1163,462.8367],[22.4713,-5.1186,462.124],[22.4778,-5.1167,475.1101],[22.4814,-5.1186,466.8907],[22.492,-5.1195,526.4919],[22.4957,-5.1223,493.8625],[22.5016,-5.138,484.0994],[22.508,-5.1428,464.1753],[22.5179,-5.1544,486.948],[22.5195,-5.1603,467.3794],[22.522,-5.1624,465.2479],[22.5298,-5.1631,504.6519],[22.5348,-5.173,476.036],[22.5502,-5.1825,505.7697],[22.5598,-5.1954,479.6974],[22.5625,-5.1963,524.001],[22.565,-5.2039,524.8386],[22.5685,-5.2044,516.8847],[22.574,-5.215,507.2413],[22.593,-5.2348,539.1732],[22.5985,-5.2369,537.1567],[22.6024,-5.2434,507.1837],[22.6033,-5.25,494.2172],[22.6065,-5.2528,507.7636],[22.6078,-5.2609,477.9693],[22.6362,-5.2906,524.4255],[22.6394,-5.2973,507.1365],[22.6493,-5.3051,539.0052],[22.6594,-5.307,547.0409],[22.6656,-5.3183,524.0522],[22.6816,-5.3257,556.2418],[22.6837,-5.334,518.1525],[22.6901,-5.3404,559.9529],[22.6944,-5.3579,511.5665],[22.701,-5.3674,510.3648],[22.7077,-5.3683,530.6985],[22.7155,-5.3805,503.3832],[22.7285,-5.3865,579.6196],[22.7313,-5.3944,549.2654],[22.7368,-5.4024,523.7994],[22.7399,-5.4271,563.1467],[22.7491,-5.4439,528.0044],[22.7518,-5.4597,523.2838],[22.7573,-5.4692,574.3599],[22.763,-5.4729,554.4725],[22.7855,-5.4771,556.5667],[22.7919,-5.4849,522.7766],[22.8016,-5.4879,553.2485],[22.8062,-5.4958,524.2021],[22.8118,-5.5222,536.2177],[22.8187,-5.5379,580.644],[22.826,-5.5618,551.132],[22.8356,-5.5802,550.0118],[22.8448,-5.5895,589.0162],[22.8466,-5.5936,568.9205],[22.848,-5.5998,582.2075],[22.8473,-5.6099,561.4242],[22.8419,-5.6336,583.8759],[22.8371,-5.6405,583.0251],[22.8295,-5.6444,603.6183],[22.8185,-5.6543,611.1758],[22.8123,-5.6644,598.0444],[22.8115,-5.6708,584.1202],[22.8168,-5.6924,586.0048],[22.817,-5.703,610.4667],[22.8236,-5.7104,598.49],[22.8239,-5.7171,607.9172],[22.8194,-5.7419,614.2224],[22.8208,-5.7499,620.3433],[22.827,-5.7587,627.9249],[22.8285,-5.7741,655.4088],[22.8038,-5.7777,644.8864],[22.7921,-5.7641,642.231],[22.779,-5.7607,658.5499],[22.7691,-5.7641,618.0396],[22.7604,-5.7631,609.1218],[22.7549,-5.7654,628.8863],[22.7468,-5.7645,636.5191],[22.7339,-5.773,604.8678],[22.7305,-5.778,630.1631],[22.7259,-5.7789,610.6993],[22.7199,-5.784,626.5162],[22.6985,-5.7828,606.7726],[22.6942,-5.7862,578.8931],[22.6891,-5.7862,588.2999],[22.6854,-5.7889,585.8728],[22.6728,-5.7917,558.8004]]]]}
,"properties": {"GID_2": "COD.7.3_1","GID_0": "COD","country": "DemocraticRepublicoftheCongo","GID_1": "COD.7_1","province": "Kasaï-Central","NL_NAME_1": "NA","county": "Dimbelenge","VARNAME_2": "NA","NL_NAME_2": "NA","TYPE_2": "Territoire","ENGTYPE_2": "Territory","CC_2": "NA","HASC_2": "NA","name": "Dimbelenge.county","area_km2": 11726.45,"hist_schema_id": "Elevation0-9000","hist_area_km2": {"425": 3.464,"450": 44.758,"475": 195.127,"500": 643.91,"525": 1556.479,"550": 2215.915,"575": 2055.044,"600": 1756.739,"625": 1366.865,"650": 1007.426,"675": 570.033,"700": 227.062,"725": 67.298,"750": 15.442,"775": 0.886}}}