{"type":"Feature","properties":{"GID_2":"COD.22.10_1","GID_0":"COD","country":"DemocraticRepublicoftheCongo","GID_1":"COD.22_1","province":"Sud-Kivu","NL_NAME_1":"NA","county":"Shabunda(ville)","VARNAME_2":"NA","NL_NAME_2":"NA","TYPE_2":"Ville","ENGTYPE_2":"Town","CC_2":"NA","HASC_2":"NA","name":"Shabunda(ville).county"},
"geometry":{"type": "MultiPolygon","coordinates": [[[[27.3702,-2.7147,593.6242],[27.3759,-2.7078,580.5037],[27.3775,-2.6885,581.6096],[27.3765,-2.6795,602.2721],[27.3718,-2.6701,634.6738],[27.3681,-2.6664,597.4856],[27.3567,-2.6623,592.5553],[27.3369,-2.667,590.8887],[27.3285,-2.6722,585.1592],[27.3228,-2.6806,571.3622],[27.3228,-2.6958,611.264],[27.3306,-2.7115,588.0754],[27.3415,-2.7178,579.7031],[27.3598,-2.7204,589.413],[27.3702,-2.7147,593.6242]]]]}}