{"type":"Feature","properties":{"GID_2":"COD.18.1_1","GID_0":"COD","country":"DemocraticRepublicoftheCongo","GID_1":"COD.18_1","province":"Mongala","NL_NAME_1":"NA","county":"Bongandanga","VARNAME_2":"NA","NL_NAME_2":"NA","TYPE_2":"Territoire","ENGTYPE_2":"Territory","CC_2":"NA","HASC_2":"NA","name":"Bongandanga.county"},
"geometry":{"type": "MultiPolygon","coordinates": [[[[20.6909,1.1824,357.2611],[20.6923,1.1797,357.8875],[20.7067,1.1796,357.7173],[20.7104,1.175,351.8938],[20.7131,1.1741,345.1521],[20.7174,1.178,359.2103],[20.7284,1.1779,359.1667],[20.7341,1.1832,356.0819],[20.7436,1.184,355.335],[20.7528,1.182,350.6606],[20.7606,1.175,357.0083],[20.7636,1.1745,356.064],[20.77,1.1698,358.2682],[20.7725,1.1703,356.7711],[20.7768,1.1744,360.2144],[20.7816,1.1743,359.4789],[20.7822,1.1703,354.7762],[20.7847,1.1701,340.2748],[20.7923,1.178,358.5834],[20.8008,1.176,358.9153],[20.8028,1.179,357.4748],[20.8054,1.1786,360.8392],[20.8058,1.1765,345.3987],[20.8038,1.1749,342.683],[20.8072,1.1717,359.2457],[20.812,1.1741,345.5241],[20.8161,1.1732,355.1887],[20.818,1.1709,355.1546],[20.8232,1.1719,353.614],[20.8268,1.1777,359.1748],[20.8309,1.1798,359.3977],[20.8344,1.1791,360.356],[20.8401,1.181,356.7761],[20.8437,1.1794,352.7565],[20.8514,1.1862,360.1529],[20.8709,1.1786,361.8862],[20.8766,1.179,359.4709],[20.8798,1.1818,350.268],[20.8816,1.1814,352.0115],[20.8869,1.1787,357.3686],[20.8872,1.175,360.4199],[20.891,1.1766,360.8947],[20.8929,1.175,359.7304],[20.896,1.178,356.811],[20.9079,1.1768,362.7688],[20.906,1.1714,358.2567],[20.91,1.1707,361.4495],[20.9148,1.1729,362.9651],[20.9202,1.1783,347.4587],[20.9253,1.179,361.0936],[20.9285,1.1767,360.3402],[20.9358,1.1756,361.6403],[20.939,1.1722,362.9147],[20.9468,1.1723,360.695],[20.949,1.1774,361.2092],[20.9527,1.1735,355.6519],[20.9568,1.1795,360.4891],[20.9668,1.1798,359.9768],[20.975,1.1836,361.6754],[20.9842,1.1839,356.7691],[20.9899,1.1816,362.9001],[20.9971,1.1879,364.0701],[20.9999,1.1875,349.1097],[21.0024,1.1923,357.5143],[21.0056,1.191,360.4043],[21.0143,1.1802,359.0988],[21.0214,1.1002,424.1424],[21.0145,1.0795,395.8466],[21.0227,1.0617,444.1764],[21.008,1.0343,433.1049],[20.9991,1.0084,421.2967],[20.998,1.0005,410.7745],[20.9981,0.981,370.6133],[20.9994,0.9752,368.4035],[21.0048,0.9636,368.1373],[21.011,0.958,387.4125],[21.021,0.9508,365.9556],[21.0454,0.9384,387.1583],[21.1137,0.9098,427.375],[21.1302,0.9174,427.9064],[21.1601,0.8961,399.9221],[21.1745,0.888,413.075],[21.2113,0.8777,414.971],[21.233,0.8586,400.562],[21.2796,0.853,405.9315],[21.2992,0.8479,410.3199],[21.3419,0.8188,405.9011],[21.3895,0.8165,430.7662],[21.4057,0.8029,403.3369],[21.4128,0.8002,411.5335],[21.4495,0.8041,389.8657],[21.4598,0.8035,423.4668],[21.4773,0.7939,434.5237],[21.5042,0.7722,400.6423],[21.5113,0.7623,416.274],[21.5312,0.7472,376.1746],[21.5373,0.7464,384.8371],[21.5639,0.7487,392.0141],[21.5764,0.7466,389.2421],[21.6059,0.7277,422.4883],[21.6339,0.7256,410.1392],[21.6486,0.757,394.5024],[21.6642,0.8196,427.6526],[21.666,0.845,425.2322],[21.6644,0.8659,418.8045],[21.6581,0.8825,425.532],[21.6598,0.8862,442.8205],[21.7094,0.9002,385.694],[21.7277,0.9027,391.8279],[21.7425,0.8985,392.2791],[21.7636,0.8888,409.2484],[21.7957,0.8581,440.7965],[21.8636,0.8651,440.3767],[21.91,0.9162,455.5345],[21.9508,0.9451,453.9835],[21.9671,0.9511,463.8786],[22.0106,0.9502,437.9733],[22.0377,0.9464,403.3057],[22.0902,0.935,446.2458],[22.1059,0.928,426.5869],[22.1022,0.957,449.2076],[22.0859,1.0123,412.2895],[22.0779,1.0338,405.7495],[22.0681,1.0467,394.3607],[22.0662,1.0556,396.3016],[22.054,1.0798,390.3635],[22.0447,1.0939,407.0763],[22.0173,1.1231,402.8744],[21.9377,1.1429,408.6063],[21.9347,1.232,382.3693],[21.9133,1.2773,379.6509],[21.9054,1.2977,443.6093],[21.8982,1.3093,431.054],[21.891,1.3181,395.243],[21.8834,1.3237,397.0132],[21.8658,1.3289,441.9068],[21.8631,1.3322,450.175],[21.861,1.3509,452.3529],[21.8621,1.3952,458.2566],[21.8664,1.4206,486.5015],[21.8696,1.5554,390.5641],[21.8757,1.7012,477.8589],[21.8906,1.7038,457.7523],[21.8937,1.7096,446.7785],[21.8981,1.7117,432.2287],[21.92,1.7146,438.2826],[21.9218,1.7164,447.7285],[21.9483,1.7223,449.705],[21.9963,1.7406,487.038],[22.0519,1.7592,457.4472],[22.0726,1.7614,443.513],[22.1274,1.7626,420.276],[22.1778,1.7619,438.6848],[22.198,1.7592,417.666],[22.2713,1.7377,457.8956],[22.2812,1.738,423.7724],[22.3027,1.7507,465.7194],[22.324,1.7574,477.2974],[22.3341,1.7527,443.1412],[22.3724,1.7107,424.6578],[22.3774,1.7234,439.959],[22.3742,1.7426,497.2808],[22.3621,1.7543,491.0587],[22.3586,1.771,480.6624],[22.3576,1.7843,458.7133],[22.3677,1.7844,468.3226],[22.3814,1.7884,453.8043],[22.3889,1.7953,462.0685],[22.3948,1.7984,463.0909],[22.4083,1.8001,470.6609],[22.414,1.8029,447.5725],[22.421,1.8091,400.7749],[22.4302,1.8283,417.8445],[22.4313,1.8341,418.3539],[22.4294,1.8554,396.435],[22.4354,1.8718,419.7522],[22.4464,1.877,412.1216],[22.4577,1.8862,386.7412],[22.4677,1.8909,389.8086],[22.4737,1.8914,385.6649],[22.4803,1.8889,385.1841],[22.4911,1.9132,386.6624],[22.4901,1.932,380.5564],[22.4852,1.9444,378.804],[22.4823,1.9678,374.6352],[22.4753,1.9821,373.9073],[22.4622,1.9953,370.9272],[22.4503,1.9961,366.6139],[22.4453,2.0,366.8946],[22.413,2.0368,372.6609],[22.3825,2.0438,363.5863],[22.3751,2.0529,358.0457],[22.368,2.0644,360.9979],[22.362,2.0988,364.6242],[22.3641,2.1554,349.9283],[22.3538,2.1604,354.4643],[22.3545,2.162,344.735],[22.3462,2.1707,354.9414],[22.3409,2.1737,348.213],[22.3286,2.1738,351.7137],[22.3253,2.1761,348.9893],[22.3258,2.1775,343.8277],[22.3066,2.1856,371.8732],[22.2514,2.1926,342.0],[22.2511,2.1942,342.0],[22.2296,2.2019,341.5],[22.2035,2.2026,341.5],[22.201,2.2046,343.471],[22.1829,2.2089,358.0165],[22.1343,2.2154,341.0],[22.1227,2.2163,341.0],[22.1067,2.2132,340.5],[22.1057,2.2148,340.5],[22.095,2.2108,344.5599],[22.0415,2.2071,356.6279],[22.0308,2.2041,340.0],[22.0244,2.2059,354.4624],[22.0059,2.2069,342.4593],[21.975,2.2036,360.7014],[21.9632,2.1987,340.0],[21.9408,2.1944,339.5],[21.9253,2.1874,339.5],[21.9066,2.1843,339.5],[21.8934,2.1861,343.9699],[21.8816,2.1838,339.0],[21.8791,2.182,339.0],[21.8659,2.1819,339.0],[21.8446,2.1778,342.1606],[21.8064,2.1805,356.8871],[21.772,2.1708,343.3328],[21.775,2.1685,338.0],[21.7741,2.1674,338.0],[21.7592,2.1665,338.0],[21.6783,2.1328,337.0],[21.6586,2.1351,342.6788],[21.644,2.1346,350.0198],[21.6116,2.1263,352.6533],[21.5942,2.1243,350.2117],[21.537,2.1243,346.6514],[21.5024,2.1111,338.2987],[21.4985,2.1074,343.7481],[21.4392,2.0915,335.0],[21.4296,2.0907,345.5246],[21.418,2.0849,335.0],[21.4082,2.0836,343.2189],[21.3811,2.0735,352.1296],[21.3517,2.0549,352.7798],[21.3354,2.041,345.2159],[21.3031,2.0213,329.75],[21.3004,2.0123,347.7923],[21.2906,2.0072,340.7156],[21.2815,1.9988,328.5],[21.2626,1.9934,345.808],[21.2347,1.9667,336.5174],[21.2048,1.9577,348.6649],[21.1911,1.955,347.9391],[21.1777,1.9547,346.4526],[21.1651,1.9493,340.6531],[21.1509,1.9492,329.0381],[21.1351,1.958,339.703],[21.1225,1.9583,344.6501],[21.1066,1.955,339.1761],[21.0702,1.9549,347.3728],[21.059,1.95,348.0098],[21.0433,1.948,347.1011],[21.0097,1.9468,348.2736],[20.995,1.9508,351.8351],[20.9859,1.9514,349.7863],[20.9753,1.9566,345.2952],[20.9586,1.956,344.1269],[20.9483,1.9607,342.1737],[20.9352,1.9641,341.2972],[20.9267,1.9698,338.4378],[20.9171,1.9715,331.0236],[20.9134,1.977,318.4782],[20.9088,1.9792,339.4178],[20.9001,1.9803,315.0],[20.8994,1.9817,315.0],[20.8921,1.9821,315.0],[20.8763,1.9794,338.4897],[20.8753,1.9815,319.0533],[20.8531,1.9962,335.134],[20.8242,2.0047,341.4708],[20.808,2.0002,335.0854],[20.7948,1.9996,333.4923],[20.75,1.9932,315.0],[20.7491,1.9907,315.0],[20.7446,1.99,315.0],[20.7308,1.971,349.0816],[20.7132,1.9704,342.3713],[20.7043,1.9661,343.3916],[20.6963,1.97,346.5614],[20.6536,1.9657,343.0177],[20.6391,1.9681,342.7885],[20.5905,1.9642,347.7463],[20.5852,1.9646,340.8729],[20.5765,1.9686,315.0],[20.5403,1.974,315.0],[20.5218,1.9732,348.4028],[20.4991,1.9801,337.0197],[20.4824,1.9788,324.7258],[20.4633,1.9731,341.7268],[20.4237,1.9504,341.9687],[20.4157,1.9494,319.1813],[20.3847,1.9374,336.75],[20.3424,1.9374,315.0],[20.3233,1.934,315.0],[20.3052,1.9364,315.0],[20.2967,1.9347,315.0],[20.2865,1.9293,327.9514],[20.2664,1.9277,324.9769],[20.2639,1.9305,315.0],[20.2533,1.9347,328.106],[20.2389,1.9367,315.0],[20.2183,1.9353,315.0],[20.1989,1.9291,315.0],[20.1742,1.9319,325.342],[20.1669,1.9286,341.0493],[20.1462,1.9254,340.6185],[20.1247,1.9196,334.5147],[20.1128,1.9202,315.0],[20.1,1.9249,315.0],[20.0665,1.9138,315.0],[20.0329,1.9328,330.8451],[20.0086,1.9413,336.6792],[19.9812,1.9433,322.4977],[19.9355,1.9348,315.0],[19.9168,1.933,315.0],[19.909,1.9306,315.0],[19.8936,1.9219,315.0],[19.8768,1.9082,315.0],[19.8556,1.8813,334.6234],[19.8246,1.8501,337.977],[19.8221,1.8432,336.5288],[19.7999,1.8308,335.7704],[19.749,1.8218,335.9307],[19.7323,1.8172,338.0212],[19.7127,1.817,339.8819],[19.7008,1.8201,339.0164],[19.682,1.8197,334.9686],[19.6339,1.8109,339.0721],[19.6008,1.8025,331.9301],[19.5972,1.8052,331.0204],[19.5686,1.8026,331.6248],[19.5155,1.7896,329.6285],[19.5082,1.7861,314.0],[19.4804,1.7782,327.8621],[19.4767,1.7791,316.0466],[19.4688,1.7726,327.2412],[19.4322,1.7538,328.663],[19.4272,1.7537,329.1605],[19.4213,1.7491,325.6095],[19.3933,1.737,330.5551],[19.3861,1.7298,336.9361],[19.3571,1.7199,313.5],[19.356,1.718,313.5],[19.3184,1.7086,334.4165],[19.3118,1.7026,327.4032],[19.3027,1.699,333.2458],[19.2937,1.6906,325.0996],[19.2826,1.6838,322.6862],[19.2674,1.6715,321.7448],[19.2624,1.6701,322.2102],[19.2304,1.6428,321.0906],[19.2241,1.6335,320.7345],[19.2246,1.6319,317.8558],[19.2154,1.6224,324.0162],[19.2085,1.5775,331.6604],[19.2125,1.5669,338.4841],[19.2119,1.5651,337.2163],[19.2163,1.5603,340.02],[19.2101,1.4592,333.0912],[19.2129,1.3498,336.4638],[19.245,1.3654,335.887],[19.2702,1.3748,336.0554],[19.297,1.3888,335.7497],[19.3659,1.4143,333.9105],[19.3772,1.4197,337.4655],[19.4042,1.4394,343.9013],[19.4366,1.4549,342.1073],[19.4467,1.4581,340.9005],[19.4952,1.4931,367.2987],[19.5126,1.5036,362.0031],[19.5249,1.5167,344.9529],[19.538,1.5272,344.875],[19.5624,1.535,349.0696],[19.5769,1.5407,379.6642],[19.5828,1.5447,390.0886],[19.6123,1.5691,394.1039],[19.6402,1.5964,370.5245],[19.6799,1.6118,358.9019],[19.7059,1.6287,399.0432],[19.7396,1.6349,389.9286],[19.7839,1.6357,426.919],[19.8795,1.6608,400.761],[19.8999,1.6679,394.2346],[19.9195,1.6784,399.2955],[19.9456,1.6994,391.6423],[19.9597,1.7085,378.4687],[19.9664,1.7102,375.0661],[20.0026,1.7119,367.8472],[20.0104,1.714,369.9873],[20.072,1.7438,392.5739],[20.0994,1.7534,362.1353],[20.1113,1.7561,380.7099],[20.1305,1.7566,393.5568],[20.1906,1.749,425.4407],[20.2021,1.7488,438.977],[20.2306,1.7528,404.6136],[20.2376,1.7525,387.9826],[20.2984,1.7317,431.6968],[20.3277,1.7304,404.1047],[20.3345,1.7256,403.7371],[20.3409,1.7185,374.9366],[20.3528,1.7022,433.5014],[20.3869,1.6746,430.0231],[20.4001,1.6668,424.0528],[20.4047,1.6662,424.5099],[20.4171,1.6689,441.8998],[20.4379,1.6783,455.4753],[20.451,1.6816,442.2133],[20.4658,1.6769,422.5114],[20.4877,1.673,410.9846],[20.508,1.674,409.5382],[20.521,1.6764,422.4102],[20.5437,1.6757,445.2385],[20.5505,1.6737,451.2325],[20.5632,1.6669,461.0135],[20.5671,1.6664,457.3737],[20.5704,1.6669,449.1282],[20.5972,1.6832,426.7672],[20.615,1.6986,412.3758],[20.6473,1.6959,400.9841],[20.6671,1.6999,435.1136],[20.6892,1.7084,434.5993],[20.6947,1.7037,416.2092],[20.6988,1.6866,382.1908],[20.6988,1.6621,416.5826],[20.6956,1.6359,414.5875],[20.6919,1.6171,397.7049],[20.6816,1.5881,378.2946],[20.6613,1.5699,371.2841],[20.6598,1.567,369.8946],[20.6571,1.5129,360.0594],[20.6605,1.4873,356.3517],[20.6492,1.4669,355.1797],[20.6428,1.4489,325.0],[20.6378,1.4282,349.9304],[20.6374,1.4169,356.3565],[20.641,1.3922,378.1982],[20.6511,1.3641,397.1852],[20.6638,1.344,411.8547],[20.6777,1.3287,413.6686],[20.6998,1.2974,386.6557],[20.7139,1.2692,398.3963],[20.7147,1.2564,394.5426],[20.7023,1.2275,369.4684],[20.7003,1.2144,368.3856],[20.6909,1.1824,357.2611]]]]}}