{"type":"Feature","properties":{"GID_2":"COD.16.2_1","GID_0":"COD","country":"DemocraticRepublicoftheCongo","GID_1":"COD.16_1","province":"Mai-Ndombe","NL_NAME_1":"NA","county":"Bolobo(ville)","VARNAME_2":"NA","NL_NAME_2":"NA","TYPE_2":"Ville","ENGTYPE_2":"Town","CC_2":"NA","HASC_2":"NA","name":"Bolobo(ville).county"},
"geometry":{"type": "MultiPolygon","coordinates": [[[[16.2891,-2.1246,283.9904],[16.242,-2.123,282.0],[16.1989,-2.2037,282.0],[16.2291,-2.2109,284.6241],[16.2413,-2.2078,338.4949],[16.2553,-2.1924,343.2],[16.275,-2.1466,302.7935],[16.2856,-2.1324,284.6869],[16.2891,-2.1246,283.9904]]]]}}