{"type":"Feature","properties":{"featurecla":"Basin","name":"CONGO BASIN","namealt":null,"region":"Africa","subregion":null,"min_label":2.0,"max_label":6.0,"scalerank":1},
"geometry":{"type": "MultiPolygon","coordinates": [[[[21.393875668353758,7.594951972221736,751.6551],[20.902964714458761,6.3513247742128129,576.9388],[18.99927819102129,6.2383486999940914,584.5245],[17.45337975352129,5.7265078796815914,626.7915],[15.694102409771261,6.15302155155662,946.338],[14.74512780039629,6.0996768249940914,1091.3071],[13.566172722271261,4.7401187195253414,724.7283],[11.983775261333705,3.3590762390565629,695.7346],[12.47291100352129,2.5247256531190772,622.1225],[13.911387566021261,2.29456207890037,640.672],[14.285411003521261,0.740912176556606,553.1838],[14.256724480083761,-1.12932708125588,537.5197],[13.969004753521261,-2.1649716125059228,615.2202],[14.343028191021261,-3.0569393859434228,640.3087],[14.918467644146261,-3.1720516906309228,677.4376],[14.860850456646233,-4.0064022765684086,440.9863],[13.652476433208761,-4.7257626281309086,342.0096],[13.514197353855963,-4.7744161770695683,440.8466],[12.79460943832251,-5.0276034706783008,194.9246],[13.06141198008379,-5.4624569640683944,265.3934],[13.286265495708761,-6.18999602656838,276.5662],[13.206919792583761,-6.3751766906309513,167.6452],[13.3057666564994,-6.7573116147227674,385.3111],[13.537364128521261,-6.71099212031838,442.3882],[14.486827019146261,-7.7754452453184371,756.3334],[14.992972274492246,-7.6850639444277817,682.971],[15.726206901958733,-7.55413176875588,1085.1562],[16.365367058208733,-7.9727108703183944,961.4157],[17.33521569102129,-9.7319882140684228,840.0349],[17.824881101923097,-10.610820657894095,1088.3994],[18.155406120708733,-11.20403411250588,1360.3964],[18.802989128521261,-11.762872003130951,1387.8579],[19.636973503521261,-11.80352141719338,1297.4663],[20.651723235372884,-11.80352141719338,1154.5002],[22.255259636333733,-11.80352141719338,1076.6743],[22.560517380526846,-11.589833595173403,1123.7382],[24.26917565195879,-10.393731378130909,1162.0483],[25.707774284771261,-8.3221981750059513,705.5264],[26.684881742893793,-6.2514464192394428,615.5292],[26.713877800396233,-6.18999602656838,599.6707],[28.651590870412718,-4.5504014763148746,1326.9956],[28.777598503521205,-4.4437802062559371,1198.9502],[28.407237175396261,-3.0150692687559228,1322.5367],[28.407237175396261,-1.531237732477166,1191.5266],[28.40735924570879,-1.52471282344338,1188.0792],[28.49764527414996,-1.1311514709804129,1005.4212],[29.624278191021205,0.583319403119063,813.6868],[30.494012136273483,1.8878817381767159,1619.1089],[31.000132683208705,2.64704010624412,1035.1938],[30.857920769146205,3.618048407025356,1229.8737],[30.340098503521205,4.4523989929628414,792.5067],[28.700083855083733,5.286810614056634,684.339],[27.088877800396261,6.9555117859315914,546.1791],[26.131846550396233,8.3091494812440914,573.5328],[25.332125159171142,8.62217400723533,653.4407],[22.974497917583733,9.5449893249940629,572.501],[21.766123894146233,8.53797028202537,680.2952],[21.393875668353758,7.594951972221736,751.6551]]],
[[[12.364321121837349,-6.0032469558187964,0.0],[12.399912956646261,-5.9783261046934228,2.9149],[12.295256146511832,-5.813081184952253,13.5286],[12.364321121837349,-6.0032469558187964,0.0]]],
[[[12.192156720797414,-5.5292038408359332,0.0],[12.21473229258379,-5.5021298156308944,0.0],[12.110780748339664,-5.2682088665880258,0.0],[12.098887566021205,-5.2723934875058944,0.0],[12.192156720797414,-5.5292038408359332,0.0]]]]}}