{"type":"Feature","properties":{"featurecla":"Plateau","name":"KATANGA PLATEAU","namealt":null,"region":"Africa","subregion":null,"min_label":4.0,"max_label":8.0,"scalerank":3},
"geometry":{"type": "Polygon","coordinates": [[[32.53676081885348,-10.908501885943394,977.7798],[32.852305534771261,-10.410088800005866,805.6287],[32.891978386333761,-9.84124114375588,1182.6766],[32.177500847271261,-9.2459042296934228,1317.1641],[31.256675022610892,-8.8340146791775283,1303.9167],[31.172129753521261,-8.79619719844338,1036.8679],[31.077351916326876,-8.7734428219551148,770.0],[30.510630730083705,-8.6373837218809371,875.696],[28.923228386333705,-6.8646786437559228,1077.741],[28.822928284056246,-4.8934116746085294,1618.7725],[28.80408776133379,-4.5231259093809371,1119.2738],[28.685326012729433,-4.6218414092094946,1347.1144],[26.76685631602129,-6.2164852843809513,586.975],[26.684881742893793,-6.2514464192394428,615.5292],[25.707774284771261,-8.3221981750059513,705.5264],[24.26917565195879,-10.393731378130909,1162.0483],[22.560517380526846,-11.589833595173403,1123.7382],[22.983286980083733,-11.746270440630951,1111.8176],[22.77161705820879,-12.817803643755937,1120.8075],[24.636973503521261,-12.473809503130923,1290.0778],[24.980845573833733,-12.870782159380894,1131.811],[24.319468620708733,-13.373467706255894,1121.6821],[24.729502800396261,-14.44500090938088,1220.2579],[24.107798698833761,-14.312676690630923,1121.0819],[23.975474480083733,-14.603814385943409,1110.6346],[24.147471550396261,-14.921319268755923,1136.3451],[24.134165886333733,-15.582696221880937,1114.1101],[23.57862389414629,-16.178033135943394,1041.5096],[23.856455925396233,-16.654229425005923,989.4813],[24.345835808208761,-17.05120208125588,1039.7373],[25.08668053477129,-16.641045831255894,999.3169],[25.933360222271205,-16.164849542193465,1027.2695],[28.18238365977129,-15.013848565630951,1134.3147],[28.616547482383993,-14.868036555613486,1062.0048],[29.915415886333705,-14.431817315630951,959.3214],[31.688120964458705,-12.248955987505951,650.7787],[32.53676081885348,-10.908501885943394,977.7798]]]}}