{"type":"Feature","properties":{"featurecla":"Range/mtn","name":"MITUMBA MTS.","namealt":null,"region":"Africa","subregion":null,"min_label":4.0,"max_label":8.0,"scalerank":3},
"geometry":{"type": "Polygon","coordinates": [[[30.414021127982124,1.1660598135483871,622.0829],[30.409312370708705,1.3151919617128409,620.0],[30.541636589458761,1.623846746869134,1493.2284],[31.017832878521261,2.0206973328065629,802.1267],[31.150157097271205,2.1265322937440492,1053.9796],[31.353037956646261,2.4705264343690492,761.2061],[31.353037956646261,2.6998355164003409,647.1924],[31.097300651958705,2.7174746765565909,916.9307],[30.876719597271205,2.2941348328065772,1863.4509],[30.638682487896205,2.0030581726503129,1733.0486],[30.494012136273483,1.8878817381767159,1619.1089],[29.624278191021205,0.583319403119063,813.6868],[28.49764527414996,-1.1311514709804129,1005.4212],[28.40735924570879,-1.52471282344338,1188.0792],[28.407237175396261,-1.531237732477166,1191.5266],[28.407237175396261,-3.0150692687559228,1322.5367],[28.777598503521205,-4.4437802062559371,1198.9502],[28.651590870412718,-4.5504014763148746,1326.9956],[28.685326012729433,-4.6218414092094946,1347.1144],[28.80408776133379,-4.5231259093809371,1119.2738],[28.822928284056246,-4.8934116746085294,1618.7725],[29.139292839458761,-5.47588469844338,1381.2524],[29.03345787852129,-4.9642880187559228,2025.3639],[29.121714714458733,-4.6909725890684371,770.0],[29.192271355083733,-4.3381893859434086,1426.1255],[29.059947136333761,-4.0206845031308944,1182.8168],[29.112925651958733,-3.747247003130866,770.0],[29.201060417583761,-3.297417901568394,778.845],[28.857188347271261,-2.4508602843809091,1461.0],[28.918833855083705,-2.0010311828184228,1461.0],[29.121714714458733,-1.4983456359434231,1845.1637],[29.359873894146261,-1.3042538390684091,1365.2681],[29.386241081646205,-1.0485165343809371,1021.3571],[29.439219597271261,-0.731011651568409,934.7746],[29.315684441021261,-0.686944268755909,941.0782],[29.421519401958705,-0.342950128130909,912.0],[29.606700066021205,-0.051873467974644,956.1596],[29.734099740408709,0.010768445400572,1074.5405],[29.834574787560172,0.060171626611933,1661.3058],[30.180064323833705,0.574347235150313,1556.2915],[30.418223503521261,1.032965399212799,641.3228],[30.414021127982124,1.1660598135483871,622.0829]]]}}