{"type": "Feature","bbox": [27.6131,-9.773,29.6686,-7.6227],"geometry": {"type": "MultiPolygon","coordinates": [[[[28.5609,-9.5525,926.1011],[28.5592,-9.543,925.2134],[28.5629,-9.5066,924.3769],[28.5621,-9.4941,924.9589],[28.5561,-9.4859,922.4464],[28.5462,-9.4808,924.9067],[28.5313,-9.4825,924.4962],[28.5268,-9.4817,924.5776],[28.5245,-9.4782,925.5645],[28.5268,-9.4666,924.7502],[28.5246,-9.4558,920.6081],[28.5123,-9.4472,922.6028],[28.5091,-9.4416,925.2229],[28.509,-9.4378,924.9645],[28.5119,-9.4302,926.617],[28.5164,-9.379,920.0],[28.5111,-9.3637,920.0],[28.5038,-9.358,920.0],[28.4835,-9.3481,920.0],[28.4516,-9.341,920.0],[28.4081,-9.3225,920.0],[28.3823,-9.2989,920.0],[28.3784,-9.2928,920.0],[28.373,-9.2728,920.0],[28.3703,-9.2476,920.0],[28.3746,-9.2389,920.0],[28.3906,-9.2257,920.0],[28.6161,-9.0821,920.0],[28.6321,-9.0705,920.0],[28.7086,-9.0051,920.0],[28.7353,-8.9752,920.0],[28.7824,-8.9297,920.0],[28.7993,-8.8987,920.0],[28.9506,-8.5104,920.0],[28.9557,-8.5041,927.5457],[28.9701,-8.4964,934.6295],[28.9816,-8.4873,959.8527],[28.9846,-8.4814,968.7783],[28.9857,-8.4689,966.669],[28.9899,-8.4618,968.0818],[29.5602,-8.3804,1102.8315],[29.5659,-8.3876,1075.9741],[29.5726,-8.3915,1057.5905],[29.5921,-8.3937,1016.2711],[29.6018,-8.4076,987.608],[29.6255,-8.4048,969.3362],[29.6284,-8.3955,966.8264],[29.6226,-8.3804,1010.065],[29.611,-8.3711,1060.7679],[29.5907,-8.3677,1123.4973],[29.575,-8.3596,1181.4951],[29.5628,-8.3451,1206.3153],[29.5564,-8.3317,1346.3003],[29.5511,-8.2945,1362.4609],[29.5389,-8.28,1440.5325],[29.5342,-8.2568,1519.021],[29.5284,-8.2376,1591.0544],[29.5191,-8.2283,1548.9854],[29.5202,-8.1871,1557.4786],[29.5265,-8.1539,1567.538],[29.5317,-8.1527,1554.4241],[29.541,-8.1719,1586.0063],[29.5433,-8.1806,1607.6099],[29.5601,-8.1817,1664.2999],[29.5792,-8.1741,1621.5597],[29.5832,-8.1683,1620.0514],[29.5727,-8.1299,1563.6978],[29.5749,-8.1192,1574.8943],[29.583,-8.1105,1584.5995],[29.5927,-8.1101,1616.5654],[29.6084,-8.1035,1609.776],[29.619,-8.103,1608.8691],[29.6294,-8.0954,1612.4614],[29.6358,-8.0948,1621.4347],[29.639,-8.0924,1627.907],[29.6456,-8.0791,1627.0479],[29.6499,-8.059,1667.6621],[29.6486,-8.0517,1645.2498],[29.6564,-8.0343,1684.7018],[29.6602,-8.0204,1700.1013],[29.6668,-8.0097,1742.6708],[29.6686,-7.9958,1725.8658],[29.663,-7.9818,1751.3749],[29.6659,-7.9707,1746.3447],[29.6624,-7.9616,1777.8429],[29.6607,-7.9467,1792.9946],[29.6567,-7.941,1819.333],[29.6627,-7.9359,1817.3508],[29.6622,-7.9325,1820.5776],[29.6602,-7.929,1815.2723],[29.6524,-7.9308,1820.04],[29.6428,-7.9375,1849.1591],[29.6358,-7.9399,1833.9053],[29.6313,-7.9387,1854.9359],[29.626,-7.9347,1896.2747],[29.624,-7.912,1805.9526],[29.5879,-7.8492,1615.6615],[29.5826,-7.8351,1581.353],[29.5763,-7.8301,1584.0151],[29.5731,-7.823,1579.8004],[29.5668,-7.8203,1579.5864],[29.5609,-7.8318,1577.9858],[29.5554,-7.8369,1579.4124],[29.5366,-7.8441,1580.7073],[29.5341,-7.851,1573.6565],[29.524,-7.8598,1574.7086],[29.5213,-7.8676,1586.988],[29.5179,-7.8711,1568.1082],[29.5037,-7.8755,1581.7367],[29.4975,-7.874,1599.3069],[29.4937,-7.8708,1606.3444],[29.4858,-7.8588,1602.2036],[29.4843,-7.8479,1631.9364],[29.4855,-7.8276,1650.0859],[29.4836,-7.8128,1667.41],[29.4813,-7.8097,1669.9969],[29.4742,-7.8073,1688.9357],[29.4537,-7.8144,1664.9382],[29.4548,-7.8079,1691.5708],[29.4635,-7.7933,1662.8567],[29.4579,-7.7865,1658.0276],[29.4529,-7.7886,1658.3455],[29.4487,-7.7881,1669.0272],[29.4432,-7.7801,1699.8496],[29.4382,-7.7632,1701.0302],[29.4377,-7.7545,1699.6172],[29.4398,-7.7501,1714.0917],[29.4434,-7.7475,1716.2579],[29.445,-7.7416,1731.4486],[29.4431,-7.7349,1718.0272],[29.4387,-7.7297,1715.7124],[29.435,-7.7292,1741.3989],[29.4298,-7.7348,1739.3562],[29.4236,-7.7366,1738.4788],[29.4196,-7.7328,1799.1283],[29.4171,-7.7325,1796.9771],[29.3593,-7.7574,1583.0259],[29.3377,-7.7506,1608.542],[29.3266,-7.7401,1590.3947],[29.3153,-7.7348,1585.0574],[29.2737,-7.7282,1451.1377],[29.263,-7.7292,1427.2095],[29.2259,-7.7615,1490.2264],[29.2067,-7.7819,1452.2368],[29.1714,-7.7708,1163.6233],[29.1609,-7.7603,1183.0056],[29.148,-7.7398,1117.0916],[29.1427,-7.7403,1100.0209],[29.133,-7.7497,1088.9844],[29.1229,-7.7491,1124.3253],[29.1225,-7.7562,1087.8129],[29.1177,-7.7555,1089.3213],[29.1139,-7.7507,1112.6711],[29.1109,-7.751,1105.72],[29.1089,-7.7576,1117.1345],[29.1046,-7.7602,1113.8118],[29.0983,-7.7586,1084.2666],[29.0967,-7.7602,1090.0714],[29.0949,-7.7681,1082.0576],[29.1058,-7.7714,1087.7589],[29.113,-7.7804,1074.6868],[29.1123,-7.7859,1084.1562],[29.1091,-7.7916,1077.7759],[29.0983,-7.7999,1078.257],[29.0958,-7.8068,1064.3625],[29.1005,-7.81,1060.7009],[29.1026,-7.8155,1063.5916],[29.1081,-7.8155,1076.5103],[29.1099,-7.8171,1066.9386],[29.1093,-7.8215,1058.426],[29.1139,-7.8221,1062.3422],[29.1148,-7.8253,1055.1541],[29.1132,-7.8283,1055.5862],[29.1169,-7.8315,1054.1458],[29.1084,-7.8366,1057.1605],[29.1064,-7.8412,1053.0459],[29.1071,-7.8449,1054.5034],[29.1112,-7.8433,1051.1351],[29.1131,-7.8462,1067.4994],[29.1092,-7.8476,1054.1934],[29.109,-7.8527,1063.7377],[29.1113,-7.8534,1056.1135],[29.1128,-7.8653,1023.1658],[29.1086,-7.8691,1040.2999],[29.0968,-7.8706,1065.0742],[29.0894,-7.869,1078.3474],[29.08,-7.8697,1133.532],[29.0702,-7.873,1177.7268],[29.0543,-7.8843,1145.6243],[29.0397,-7.8923,1211.0101],[29.0245,-7.8936,1227.3252],[29.0204,-7.8897,1243.2015],[29.0259,-7.8801,1227.0808],[29.0278,-7.8725,1201.2903],[29.0169,-7.8702,1238.0723],[28.9738,-7.8728,1218.8816],[28.9676,-7.8723,1215.3673],[28.962,-7.8698,1159.8896],[28.9443,-7.8496,1220.9915],[28.9375,-7.8463,1405.021],[28.9094,-7.8234,1160.1714],[28.9033,-7.8225,1139.4579],[28.9026,-7.8286,1149.08],[28.9082,-7.8353,1093.6819],[28.9052,-7.8398,1120.4235],[28.904,-7.8469,1107.7751],[28.8989,-7.8485,1079.3096],[28.8986,-7.8518,1122.7784],[28.8968,-7.8517,1062.4436],[28.8959,-7.8578,1125.4009],[28.8899,-7.8598,1036.1145],[28.8874,-7.8659,1001.502],[28.8894,-7.8715,1027.0719],[28.8836,-7.8758,990.1591],[28.8846,-7.8773,996.1386],[28.8828,-7.8793,983.4963],[28.8832,-7.8875,987.0197],[28.8816,-7.8932,1064.8268],[28.8783,-7.8966,995.3986],[28.8756,-7.9015,991.3768],[28.8768,-7.9034,996.1093],[28.8739,-7.9065,978.8199],[28.8753,-7.9139,1046.1843],[28.8726,-7.9183,973.7531],[28.8784,-7.9214,998.4085],[28.8739,-7.9224,973.2739],[28.8726,-7.925,979.8511],[28.8702,-7.9257,974.0812],[28.8687,-7.9236,979.1635],[28.8667,-7.9243,973.657],[28.8666,-7.9273,974.9198],[28.8704,-7.9296,994.5981],[28.87,-7.9308,994.5981],[28.8663,-7.9336,971.4082],[28.8644,-7.9306,968.6821],[28.8616,-7.9325,973.9976],[28.8611,-7.9357,986.5366],[28.8589,-7.9376,977.9689],[28.8624,-7.9416,968.301],[28.8594,-7.943,978.6357],[28.854,-7.9584,1072.6675],[28.8426,-7.9703,1218.1946],[28.83,-7.9765,1271.7948],[28.7905,-7.978,906.9494],[28.7791,-7.9757,900.5322],[28.771,-7.9702,906.4595],[28.7584,-7.9266,890.15239999999994],[28.7474,-7.9156,881.2007],[28.7263,-7.9159,827.0367],[28.7208,-7.9139,810.8376],[28.7124,-7.9081,778.8373],[28.7049,-7.8999,789.6625],[28.6909,-7.893,827.0634],[28.6788,-7.8957,794.8304],[28.671,-7.8932,761.5258],[28.6565,-7.8926,752.666],[28.6585,-7.878,782.5565],[28.6824,-7.8558,894.9176],[28.6873,-7.8456,1013.6261],[28.6855,-7.8354,1004.4783],[28.6685,-7.8282,856.4174],[28.6586,-7.8262,969.1896],[28.6487,-7.8208,805.2769],[28.651,-7.8105,814.9785],[28.6446,-7.7904,1095.0458],[28.6379,-7.7732,1101.9089],[28.6228,-7.748,1145.276],[28.623,-7.7244,1184.6853],[28.6291,-7.7066,1217.1277],[28.6328,-7.6847,1213.8116],[28.619,-7.6756,1226.2985],[28.6127,-7.6733,1223.55],[28.6099,-7.6612,1241.5532],[28.6034,-7.6529,1256.61],[28.6,-7.6514,1250.9976],[28.5958,-7.6518,1253.5018],[28.5806,-7.6421,1236.4182],[28.571,-7.6404,1206.8903],[28.5623,-7.6355,1222.5967],[28.5481,-7.6227,1129.5188],[28.5222,-7.6272,1064.1436],[28.5197,-7.6318,1088.4479],[28.5061,-7.6286,972.4449],[28.4933,-7.6369,962.2029],[28.4857,-7.6372,940.2852],[28.4806,-7.6404,948.7833],[28.4793,-7.6439,951.3746],[28.4804,-7.6475,933.8015],[28.474,-7.6547,942.787],[28.4715,-7.6556,940.8336],[28.4706,-7.6582,926.6609],[28.4757,-7.6648,921.2482],[28.4736,-7.6678,925.6555],[28.467,-7.6683,924.0929],[28.461,-7.6793,904.4641],[28.4415,-7.6881,908.0995],[28.4288,-7.6862,1144.8955],[28.4131,-7.6875,1153.7045],[28.407,-7.6942,1415.3873],[28.3972,-7.7221,1380.0662],[28.368,-7.7549,1010.6222],[28.3558,-7.7755,894.9446],[28.3606,-7.7864,1120.4501],[28.3781,-7.7882,1016.9818],[28.4047,-7.7994,1087.3113],[28.4252,-7.8106,1125.7299],[28.432,-7.8382,999.6042],[28.4709,-7.8597,1063.2611],[28.4839,-7.8645,999.9642],[28.5038,-7.8669,1062.6648],[28.5261,-7.8818,1138.3872],[28.53,-7.8915,1211.073],[28.5263,-7.9066,782.4771],[28.4798,-8.0092,1289.4025],[28.4561,-8.0268,1212.2452],[28.4397,-8.0414,1132.1385],[28.4294,-8.048,1153.6783],[28.4261,-8.1008,1249.714],[28.4308,-8.1232,1191.259],[28.438,-8.1365,1199.1147],[28.4404,-8.1535,1327.0857],[28.4324,-8.1675,1400.9536],[28.4082,-8.1833,1328.0303],[28.3918,-8.1996,1348.4581],[28.3383,-8.2451,1333.0234],[28.3128,-8.2688,1257.0443],[28.3031,-8.2803,1260.5759],[28.2722,-8.284,1283.3673],[28.2638,-8.281,1265.7783],[28.2621,-8.2537,1069.0979],[28.2319,-8.2489,1027.0718],[28.2198,-8.2544,1352.8074],[28.2033,-8.2744,1364.2046],[28.1859,-8.2788,1322.075],[28.1749,-8.2971,1310.1024],[28.1646,-8.3084,1301.101],[28.1613,-8.3167,1292.2725],[28.1317,-8.3369,1306.1348],[28.1153,-8.3381,1339.1708],[28.108,-8.3418,1359.0859],[28.0977,-8.3593,1372.2914],[28.0838,-8.3557,1426.1995],[28.0663,-8.3436,1348.2445],[28.0627,-8.3479,1328.3645],[28.0729,-8.3642,1422.9426],[28.0893,-8.4039,1356.9434],[28.0814,-8.406,1272.4009],[28.0705,-8.412,1211.3519],[28.0624,-8.4123,1190.825],[28.0554,-8.4077,1171.2695],[28.0431,-8.4065,1148.5867],[28.0301,-8.4001,1124.9185],[28.0208,-8.3858,1097.2202],[28.0058,-8.3749,1082.4524],[27.9956,-8.3721,1090.833],[27.9906,-8.3639,1062.2332],[27.9843,-8.361,1046.7002],[27.9833,-8.3689,1062.575],[27.9791,-8.377,1080.3312],[27.9708,-8.3852,1075.5038],[27.9688,-8.3891,1082.9017],[27.9697,-8.3916,1096.468],[27.9617,-8.3934,1105.1453],[27.9329,-8.4068,1131.3929],[27.9209,-8.4098,1179.1248],[27.9149,-8.4175,1197.692],[27.8758,-8.435,1333.1046],[27.848,-8.4415,1430.3583],[27.8315,-8.4521,1400.9608],[27.8244,-8.4671,1432.7329],[27.8153,-8.4777,1427.9628],[27.7972,-8.4853,1431.6459],[27.7924,-8.4916,1448.7184],[27.7882,-8.5198,1469.1635],[27.7467,-8.5326,1495.6598],[27.7352,-8.5325,1488.4922],[27.7281,-8.5373,1469.3033],[27.72,-8.5533,1514.1665],[27.7095,-8.5648,1524.5183],[27.6842,-8.5739,1507.6152],[27.6795,-8.5801,1529.8661],[27.6771,-8.5864,1531.8103],[27.6681,-8.5956,1533.4863],[27.6542,-8.6023,1501.6018],[27.6471,-8.6086,1498.9841],[27.6452,-8.6163,1480.8632],[27.6466,-8.6343,1467.6937],[27.6543,-8.6517,1443.3513],[27.6631,-8.6619,1449.4832],[27.667,-8.6724,1463.76],[27.6757,-8.681,1461.5238],[27.6795,-8.6885,1466.8873],[27.6826,-8.7182,1440.8171],[27.674,-8.7216,1475.3899],[27.6602,-8.7302,1499.3387],[27.6492,-8.7398,1477.7687],[27.633,-8.7698,1415.3744],[27.6154,-8.794,1373.9644],[27.6131,-8.8367,1335.278],[27.6298,-8.8519,1282.6544],[27.655,-8.8662,1252.2839],[27.6843,-8.8714,1247.0298],[27.7416,-8.867,1194.3469],[27.7592,-8.8691,1179.1846],[27.7745,-8.8784,1184.6429],[27.7903,-8.9048,1213.327],[27.7947,-8.9413,1273.1718],[27.7947,-8.9709,1351.9441],[27.7829,-9.0034,1380.4846],[27.7528,-9.0293,1569.2524],[27.698,-9.0512,1540.5139],[27.6713,-9.0772,1543.8555],[27.6508,-9.1081,1561.3159],[27.6376,-9.1556,1709.2957],[27.6467,-9.1712,1696.8892],[27.6758,-9.1875,1763.6],[27.6815,-9.1977,1754.6647],[27.6843,-9.2116,1741.2181],[27.6887,-9.2225,1750.6595],[27.6997,-9.2352,1715.9327],[27.7117,-9.2383,1721.976],[27.737,-9.2623,1733.2339],[27.7509,-9.2677,1746.3557],[27.7623,-9.2698,1749.382],[27.7686,-9.2858,1711.3889],[27.782,-9.3015,1745.8148],[27.7934,-9.3054,1768.4373],[27.802,-9.3109,1725.39],[27.8006,-9.3244,1730.39],[27.7849,-9.3374,1719.052],[27.7878,-9.3762,1680.4548],[27.7845,-9.3869,1675.3826],[27.7664,-9.4047,1677.0527],[27.7554,-9.4109,1684.6565],[27.7488,-9.423,1681.2823],[27.7497,-9.4337,1700.9922],[27.755,-9.441,1701.6875],[27.756,-9.4677,1683.301],[27.7274,-9.5101,1684.1804],[27.7218,-9.5624,1683.5667],[27.7219,-9.6017,1698.4741],[27.7053,-9.6501,1715.7181],[27.7177,-9.6657,1714.0677],[27.7589,-9.7581,1707.7705],[27.7806,-9.7539,1714.2937],[27.7916,-9.7278,1644.8516],[27.7909,-9.7055,1608.1639],[27.7923,-9.6916,1614.9124],[27.7998,-9.6798,1628.9519],[27.8174,-9.6675,1655.5773],[27.8258,-9.6565,1652.3066],[27.8304,-9.6542,1658.6139],[27.8397,-9.6548,1662.8873],[27.8437,-9.6365,1636.363],[27.8498,-9.6324,1660.2189],[27.8573,-9.6324,1646.4365],[27.8788,-9.6703,1644.7861],[27.9238,-9.7359,1636.9646],[27.9305,-9.735,1618.354],[27.9472,-9.7211,1605.7642],[27.9608,-9.7017,1480.5327],[27.9712,-9.6967,1395.4868],[27.9836,-9.6938,1355.2493],[28.0008,-9.6978,1151.0126],[28.0058,-9.7053,1126.6935],[28.0081,-9.7131,1127.7238],[28.0124,-9.7204,1116.3291],[28.0216,-9.7282,1107.9679],[28.0335,-9.7333,1097.8539],[28.0531,-9.7536,1080.2478],[28.0591,-9.7638,1065.9744],[28.0725,-9.773,1071.6248],[28.0834,-9.7546,1100.0804],[28.0868,-9.741,1117.0105],[28.0867,-9.7074,1065.5334],[28.0879,-9.6979,1042.5754],[28.0902,-9.6927,1050.9897],[28.0945,-9.69,1056.9696],[28.107,-9.6891,1048.1022],[28.1098,-9.6918,1056.1686],[28.1186,-9.6921,1038.5291],[28.1243,-9.697,1037.8783],[28.1325,-9.6994,1017.9359],[28.1406,-9.6992,1022.3174],[28.1497,-9.6933,1014.0878],[28.1498,-9.683,1019.4097],[28.1216,-9.6497,1125.6327],[28.1193,-9.6399,1350.8009],[28.1221,-9.6355,1366.0878],[28.145,-9.6392,1126.9618],[28.1734,-9.6415,1076.1158],[28.2278,-9.6399,977.35],[28.2683,-9.636,934.6464],[28.2643,-9.6615,937.6774],[28.2716,-9.667,937.1202],[28.284,-9.6679,936.83],[28.3014,-9.6632,935.6323],[28.339,-9.6483,931.6975],[28.3725,-9.6254,928.4373],[28.3922,-9.6256,933.1431],[28.4052,-9.6311,932.1428],[28.411,-9.6311,934.2158],[28.4256,-9.5864,933.9366],[28.4282,-9.5667,934.5218],[28.4357,-9.5411,931.4312],[28.4371,-9.525,921.6656],[28.4555,-9.5261,921.681],[28.4626,-9.524,920.0],[28.4671,-9.5248,922.2574],[28.4709,-9.5223,920.0],[28.485,-9.5223,922.2245],[28.4925,-9.5202,920.8692],[28.4965,-9.5242,924.2649],[28.5107,-9.524,921.6635],[28.5181,-9.5269,924.303],[28.5383,-9.5289,922.2911],[28.5407,-9.5314,924.4194],[28.5409,-9.5351,924.331],[28.5382,-9.5399,923.5358],[28.542,-9.5389,924.5512],[28.5425,-9.5403,924.4331],[28.539,-9.5477,924.4152],[28.5302,-9.5454,923.9479],[28.5299,-9.5491,924.4774],[28.5271,-9.55,920.7075],[28.5197,-9.5456,924.6277],[28.5147,-9.5492,924.3116],[28.5129,-9.5442,924.2804],[28.5081,-9.5526,924.2412],[28.5082,-9.5581,924.3329],[28.5147,-9.5599,924.5136],[28.5163,-9.5664,924.3224],[28.5268,-9.5682,924.4103],[28.5313,-9.5719,924.5274],[28.5315,-9.5775,925.1441],[28.5333,-9.5774,925.0121],[28.5341,-9.5794,924.4187],[28.5318,-9.5818,924.4919],[28.5289,-9.582,924.3729],[28.5241,-9.5874,925.1824],[28.5235,-9.5898,924.7645],[28.525,-9.5911,924.7645],[28.534,-9.5863,924.9116],[28.5442,-9.5864,925.0308],[28.5509,-9.5832,924.5893],[28.5515,-9.5772,924.3391],[28.5447,-9.5708,924.3038],[28.5572,-9.5627,924.6454],[28.5596,-9.5579,924.6701],[28.5575,-9.5543,924.4811],[28.5609,-9.5525,926.1011]]]]}
,"properties": {"GID_2": "COD.3.8_1","GID_0": "COD","country": "DemocraticRepublicoftheCongo","GID_1": "COD.3_1","province": "Haut-Katanga","NL_NAME_1": "NA","county": "Pweto","VARNAME_2": "NA","NL_NAME_2": "NA","TYPE_2": "Territoire","ENGTYPE_2": "Territory","CC_2": "NA","HASC_2": "NA","name": "Pweto.county","area_km2": 23977.34,"hist_schema_id": "Elevation0-9000","hist_area_km2": {"700": 4.39,"725": 73.73,"750": 72.54,"775": 97.71,"800": 123.97,"825": 130.48,"850": 139.29,"875": 200.06,"900": 239.52,"925": 2889.26,"950": 720.4,"975": 853.17,"1000": 1129.83,"1025": 1157.69,"1050": 1144.33,"1075": 1146.68,"1100": 1106.22,"1125": 912.78,"1150": 776.75,"1175": 718.78,"1200": 686.17,"1225": 653.71,"1250": 591.72,"1275": 540.19,"1300": 504.31,"1325": 484.78,"1350": 435.51,"1375": 397.49,"1400": 395.36,"1425": 391.01,"1450": 382.52,"1475": 343.81,"1500": 328.84,"1525": 377.76,"1550": 442.29,"1575": 502.49,"1600": 534.06,"1625": 566.46,"1650": 569.21,"1675": 456.71,"1700": 330.6,"1725": 157.7,"1750": 96.39,"1775": 57.24,"1800": 32.88,"1825": 36.12,"1850": 26.35,"1875": 13.48,"1900": 4.14,"1925": 0.48}}}