{"type": "Feature","bbox": [12.2015,-6.0584,16.2693,-4.2981],"geometry": {"type": "MultiPolygon","coordinates": [[[[12.502,-6.0422,0.0],[12.526,-6.0406,1.9061],[12.5389,-6.0336,0.0],[12.5579,-6.0298,0.0],[12.563,-6.0261,1.4264],[12.5791,-6.0216,0.0],[12.588,-6.0209,0.0],[12.594,-6.0147,0.0],[12.601,-6.0152,0.0],[12.6131,-6.0077,3.0334],[12.6264,-6.002,0.0],[12.6712,-6.0013,1.7103],[12.6723,-6.0029,1.7103],[12.6846,-6.0032,0.0],[12.699,-5.9976,2.3678],[12.7044,-5.9972,1.3262],[12.724,-5.9849,0.0],[12.7289,-5.9793,0.0],[12.7325,-5.9725,0.0],[12.7328,-5.9687,0.0],[12.744,-5.9622,0.0],[12.7658,-5.9624,3.3278],[12.7937,-5.9679,1.2559],[12.8043,-5.9602,0.8187],[12.8058,-5.9606,0.2395],[12.8127,-5.9556,0.481],[12.8217,-5.9529,1.0063],[12.8275,-5.949,0.0],[12.8297,-5.9446,0.0],[12.8319,-5.9435,0.0],[12.8361,-5.9324,1.9012],[12.8398,-5.9284,0.0],[12.8435,-5.9203,0.0],[12.8489,-5.9151,0.5],[12.8732,-5.909,0.5],[12.8767,-5.9109,0.7921],[12.8839,-5.9096,2.2868],[12.8914,-5.9107,1.9575],[12.907,-5.9066,1.0],[12.9104,-5.9031,1.0],[12.9157,-5.9013,1.0],[12.9244,-5.9044,1.0],[12.93,-5.9028,1.0],[12.9461,-5.9032,1.5],[12.963,-5.8992,1.5],[12.9718,-5.8934,2.8144],[12.9744,-5.895,1.5],[12.9765,-5.8943,1.5],[12.9823,-5.8872,2.3657],[12.9862,-5.8893,2.0],[12.999,-5.8774,2.0],[12.9971,-5.8703,3.681],[13.0028,-5.8667,3.2117],[13.0038,-5.8645,2.0],[12.9843,-5.8601,2.0],[12.9848,-5.8571,2.2285],[12.9957,-5.859,2.0],[13.0051,-5.8557,3.0365],[13.0301,-5.8596,2.0],[13.0385,-5.8573,2.9071],[13.0433,-5.8579,6.36],[13.0587,-5.8614,2.5],[13.0619,-5.8607,10.6376],[13.0659,-5.8634,2.5],[13.0734,-5.8644,8.2355],[13.0832,-5.862,10.1074],[13.0892,-5.864,5.8884],[13.0933,-5.8663,3.0423],[13.0983,-5.8746,2.5],[13.1036,-5.8876,15.26],[13.112,-5.8971,8.1711],[13.1176,-5.8996,3.0],[13.1337,-5.8921,4.0621],[13.1408,-5.8845,5.299],[13.1495,-5.8786,6.0174],[13.1697,-5.8722,10.6171],[13.1816,-5.87,3.0],[13.1846,-5.8708,15.7435],[13.1883,-5.866,22.5148],[13.1927,-5.8683,3.0],[13.1979,-5.8632,3.0],[13.1995,-5.8643,5.6747],[13.2128,-5.8576,44.8653],[13.2184,-5.8568,3.0],[13.2245,-5.8573,6.1884],[13.2332,-5.8609,19.5304],[13.238,-5.8612,20.1331],[13.2428,-5.8591,4.9324],[13.2467,-5.8599,3.0],[13.2545,-5.8616,3.0],[13.2591,-5.865,3.0],[13.2628,-5.8644,5.7767],[13.2757,-5.8707,12.4999],[13.2893,-5.8712,16.9293],[13.3049,-5.8834,4.4845],[13.3218,-5.8901,8.7993],[13.3232,-5.8933,3.0],[13.3245,-5.8921,35.8861],[13.3303,-5.8935,3.125],[13.349,-5.901,4.7626],[13.3604,-5.8997,8.8176],[13.3642,-5.8818,4.0],[13.3684,-5.8716,4.0],[13.3727,-5.8673,4.9025],[13.3853,-5.8644,7.513],[13.3933,-5.8675,6.3309],[13.3987,-5.8669,11.5756],[13.399,-5.8688,7.9918],[13.4042,-5.8662,40.0748],[13.4158,-5.8654,5.0],[13.4262,-5.862,5.0],[13.4303,-5.8746,12.9798],[13.4389,-5.8778,256.2979],[13.4567,-5.8748,340.107],[13.4816,-5.8739,439.1448],[13.4939,-5.8779,481.3099],[13.5162,-5.89,147.0798],[13.531,-5.8951,212.0851],[13.5424,-5.8957,186.3846],[13.5512,-5.8946,221.8115],[13.5248,-5.8756,202.4216],[13.5318,-5.8783,224.8483],[13.5485,-5.879,133.5544],[13.5591,-5.8752,133.4603],[13.573,-5.8741,189.9903],[13.5917,-5.8763,145.408],[13.8055,-5.8753,286.0019],[13.8069,-5.8794,321.987],[13.8167,-5.8789,312.2996],[13.8387,-5.8756,440.9642],[13.857,-5.8694,308.4141],[13.8928,-5.8609,296.2584],[13.9685,-5.8492,340.7382],[13.9878,-5.8429,298.9124],[14.0381,-5.8842,349.4064],[14.0618,-5.8779,320.2939],[14.0786,-5.8664,313.3102],[14.1316,-5.8641,500.7803],[14.1502,-5.8691,429.9487],[14.164,-5.8688,359.5427],[14.1773,-5.8616,433.0618],[14.1961,-5.8699,335.0056],[14.2316,-5.8892,479.5193],[14.2433,-5.8892,494.1147],[14.2952,-5.8823,596.2947],[14.366,-5.896,657.8195],[14.3976,-5.8998,623.656],[14.4053,-5.8982,601.6962],[14.4586,-5.9012,571.7971],[14.4756,-5.8997,592.0984],[14.4873,-5.8969,594.967],[14.5034,-5.8902,565.0871],[14.5091,-5.8904,559.5136],[14.5951,-5.9102,501.8315],[14.6108,-5.9097,461.4277],[14.6441,-5.8974,454.5225],[14.6557,-5.895,478.7526],[14.7003,-5.881,453.2265],[14.8045,-5.8812,466.0001],[14.9106,-5.8771,675.4923],[14.9622,-5.8734,713.2018],[15.11,-5.8731,662.7289],[15.1199,-5.8717,829.8312],[15.125,-5.873,845.3374],[15.241,-5.8734,772.5017],[15.2954,-5.8799,782.144],[15.2937,-5.8739,765.6638],[15.5259,-5.8769,835.2909],[15.6701,-5.8701,756.47],[15.7085,-5.8717,738.566],[15.7655,-5.877,699.2921],[15.7714,-5.8801,704.9474],[15.7811,-5.8785,709.3317],[15.8561,-5.8776,726.2863],[16.1413,-5.8697,547.5468],[16.1397,-5.8502,588.0791],[16.1504,-5.8188,516.9466],[16.1641,-5.8102,515.0803],[16.1935,-5.8098,551.4054],[16.1993,-5.8082,559.6445],[16.2062,-5.7948,521.7195],[16.2075,-5.7789,475.8383],[16.2109,-5.774,532.2522],[16.2109,-5.7699,558.2219],[16.2076,-5.7644,493.299],[16.2094,-5.7568,563.59],[16.2087,-5.7538,469.251],[16.2044,-5.7561,463.928],[16.2011,-5.752,474.4797],[16.2052,-5.7412,554.4453],[16.2054,-5.7329,544.1611],[16.2091,-5.7283,601.9584],[16.2051,-5.7142,529.0405],[16.2067,-5.7073,502.2581],[16.206,-5.6991,569.2026],[16.2071,-5.6949,598.2448],[16.2122,-5.6951,600.9059],[16.2135,-5.6885,563.7595],[16.2059,-5.677,489.5298],[16.2063,-5.6738,476.8989],[16.2107,-5.6737,517.0366],[16.2119,-5.6712,550.8989],[16.2102,-5.6611,512.7061],[16.2141,-5.6576,571.5065],[16.2113,-5.6523,490.0074],[16.2159,-5.6464,562.2444],[16.2154,-5.6406,537.6939],[16.2186,-5.6348,521.1044],[16.2179,-5.6325,538.7162],[16.2147,-5.6328,521.8833],[16.2131,-5.6282,509.0433],[16.2144,-5.6238,548.0262],[16.2103,-5.6183,547.6846],[16.2105,-5.6158,499.7955],[16.2162,-5.6164,521.6782],[16.2169,-5.6144,549.7049],[16.2146,-5.6112,587.6816],[16.2178,-5.6068,580.1194],[16.2125,-5.6007999999999996,509.3015],[16.2113,-5.5962,510.2943],[16.2117,-5.5836,516.7401],[16.2083,-5.5744,547.7115],[16.2121,-5.5675,582.1019],[16.2084,-5.5571,541.1062],[16.2056,-5.5394,623.3683],[16.2021,-5.5362,583.3441],[16.2014,-5.5321,573.3555],[16.2023,-5.5247,551.8578],[16.2062,-5.5187,571.7358],[16.2013,-5.4944,604.2722],[16.2016,-5.4716,602.9155],[16.2069,-5.4601,586.4999],[16.2029,-5.4412,586.8621],[16.2061,-5.4375,601.0867],[16.2093,-5.4262,603.7458],[16.2065,-5.418,618.0995],[16.2112,-5.3975,633.786],[16.2142,-5.3959,618.1625],[16.2155,-5.3839,606.2432],[16.2123,-5.3775,619.4113],[16.2143,-5.3586,613.936],[16.217,-5.3531,600.9824],[16.217,-5.3427,610.6118],[16.213,-5.3379,619.5057],[16.213,-5.3335,629.8716],[16.2171,-5.3197,619.5188],[16.218,-5.3082,611.8577],[16.2212,-5.3036,610.6094],[16.2247,-5.2769,648.9059],[16.2272,-5.272,648.7749],[16.2329,-5.244,635.7994],[16.237,-5.2375,656.2552],[16.2397,-5.2262,623.7524],[16.2458,-5.214,623.2325],[16.2487,-5.1832,629.1619],[16.2544,-5.1785,622.9861],[16.2565,-5.1746,617.2445],[16.2526,-5.173,620.0814],[16.2537,-5.1601,615.7599],[16.2518,-5.153,616.6351],[16.252,-5.1383,616.7864],[16.2457,-5.1273,626.2287],[16.2397,-5.1204,635.6172],[16.2317,-5.1165,619.9811],[16.2318,-5.1063,611.9235],[16.2355,-5.09,594.6562],[16.24,-5.0852,612.0079],[16.243,-5.0769,592.248],[16.2421,-5.0705,591.8257],[16.2457,-5.0555,620.359],[16.2502,-5.0513,626.0021],[16.2491,-5.0474,619.231],[16.2506,-5.0394,582.0099],[16.2463,-5.0336,612.9272],[16.2472,-5.0302,592.6808],[16.2577,-5.0212,583.0685],[16.2586,-5.0179,580.2986],[16.256,-5.0097,625.1147],[16.2578,-5.0032,623.7544],[16.2679,-4.9928,592.59],[16.2693,-4.9868,609.4214],[16.2681,-4.9806,621.1871],[16.2571,-4.97,586.0255],[16.1525,-4.9678,687.9568],[16.0838,-4.9634,740.4394],[16.0543,-4.9631,736.0829],[16.0389,-4.9585,635.6774],[16.0275,-4.9651,651.9156],[16.0063,-4.9716,652.2845],[15.9919,-4.955,746.2667],[15.9802,-4.9467,756.7526],[15.9647,-4.945,755.5829],[15.9556,-4.9449,704.8621],[15.9351,-4.9522,767.8412],[15.9279,-4.9588,755.2467],[15.9167,-4.9572,711.9199],[15.91,-4.9437,754.6566],[15.9037,-4.9064,739.2559],[15.8984,-4.8929,733.968],[15.8882,-4.8764,664.0895],[15.8792,-4.8666,659.1199],[15.8575,-4.8591,650.4398],[15.859,-4.8633,654.4817],[15.8645,-4.8675,655.0731],[15.8664,-4.8731,659.513],[15.8607,-4.8782,660.4205],[15.8577,-4.8778,657.4532],[15.8577,-4.8792,656.2072],[15.8554,-4.8773,657.8453],[15.8531,-4.8776,656.3171],[15.8522,-4.8796,657.9026],[15.8482,-4.8797,658.9788],[15.8475,-4.8819,658.3354],[15.8446,-4.8828,660.3905],[15.845,-4.8858,658.1747],[15.8423,-4.8892,661.5379],[15.8437,-4.8894,659.1976],[15.8424,-4.8917,665.983],[15.8446,-4.8957,659.976],[15.8431,-4.8998,666.7983],[15.8454,-4.9019,664.7745],[15.8435,-4.9024,667.3237],[15.846,-4.9077,662.2541],[15.8502,-4.911,663.1794],[15.8537,-4.9116,662.1459],[15.8569,-4.9187,665.915],[15.855,-4.9193,665.5137],[15.8554,-4.9245,665.1608],[15.8539,-4.923,665.1608],[15.8543,-4.925,667.2995],[15.8524,-4.9249,668.8894],[15.8541,-4.9264,664.2593],[15.8522,-4.9288,668.9583],[15.8549,-4.9295,664.865],[15.8556,-4.9359,664.6909],[15.8569,-4.9369,667.05],[15.8557,-4.938,669.0398],[15.8578,-4.9413,666.1868],[15.8661,-4.9477,669.342],[15.8654,-4.9527,673.9788],[15.8628,-4.9572,670.6932],[15.8596,-4.9572,671.3236],[15.859,-4.9621,667.8647],[15.8562,-4.9646,671.6467],[15.8575,-4.9651,671.6467],[15.8556,-4.9668,670.7004],[15.858,-4.9675,670.8472],[15.8557,-4.9688,671.6367],[15.855,-4.9713,673.674],[15.8571,-4.9734,677.1813],[15.8573,-4.9753,672.7106],[15.8561,-4.9754,672.7106],[15.8573,-4.9761,672.7106],[15.8561,-4.9761,672.7106],[15.8565,-4.9784,684.3693],[15.8537,-4.9799,671.287],[15.8544,-4.982,681.6141],[15.8521,-4.9828,672.1294],[15.8524,-4.9841,673.3535],[15.8504,-4.9851,672.8005],[15.8515,-4.9863,675.5624],[15.8494,-4.9882,677.2152],[15.8538,-4.992,674.8387],[15.8525,-4.9922,674.8387],[15.8535,-4.997,676.3199],[15.8523,-4.9981,678.7231],[15.8509,-4.9969,676.0869],[15.8516,-5.001,676.2266],[15.8504,-4.9999,676.2266],[15.8475,-5.0063,679.5262],[15.8421,-5.0096,677.8764],[15.8425,-5.013,676.4681],[15.8443,-5.0119,677.4034],[15.8446,-5.0141,680.9821],[15.842,-5.0143,676.4681],[15.8416,-5.0169,681.295],[15.8354,-5.0174,677.703],[15.8353,-5.0198,682.8223],[15.8339,-5.0196,682.8223],[15.8342,-5.0235,680.201],[15.8308,-5.0254,680.7239],[15.8209,-5.0243,704.2528],[15.8158,-5.0206,729.8237],[15.8049,-5.0248,703.2277],[15.7927,-5.0193,762.3881],[15.783,-5.0235,783.6586],[15.7794,-5.0235,781.5264],[15.7649,-5.0187,757.0621],[15.7544,-5.0182,727.0977],[15.7446,-4.9883,785.4139],[15.7436,-4.9696,774.1686],[15.7346,-4.9621,730.8708],[15.7179,-4.9567,540.8361],[15.6991,-4.9468,477.5617],[15.6855,-4.9372,498.8807],[15.6866,-4.9316,468.7081],[15.6849,-4.9272,405.3066],[15.6689,-4.9159,487.2296],[15.6389,-4.9037,398.1768],[15.6244,-4.8924,430.217],[15.6163,-4.8781,407.9249],[15.6138,-4.8617,412.4717],[15.62,-4.8319,438.4373],[15.6245,-4.8185,465.3102],[15.6359,-4.8104,393.3715],[15.6479,-4.8076,397.0778],[15.668,-4.8103,372.774],[15.6838,-4.8072,379.9154],[15.6988,-4.7939,387.9171],[15.7097,-4.7761,380.6318],[15.7128,-4.7635,418.6193],[15.7156,-4.7277,372.7869],[15.7202,-4.7106,389.5937],[15.7261,-4.6965,399.6554],[15.7377,-4.6794,405.7639],[15.751,-4.6475,726.7897],[15.7436,-4.6303,725.7386],[15.7326,-4.619,709.9073],[15.6984,-4.6082,632.3671],[15.6783,-4.5945,417.93],[15.6715,-4.5848,386.7711],[15.6703,-4.5717,332.3539],[15.6681,-4.573,345.7168],[15.6674,-4.5689,333.3721],[15.6632,-4.5717,331.8883],[15.6619,-4.5764,342.7589],[15.6563,-4.5739,335.826],[15.6544,-4.5765,332.2247],[15.6558,-4.5794,335.1519],[15.6521,-4.5827,345.3592],[15.6529,-4.5844,342.8227],[15.6513,-4.5861,334.9586],[15.6472,-4.6042,339.3162],[15.6346,-4.6023,345.4109],[15.596,-4.6026,466.7704],[15.5825,-4.6065,386.3036],[15.5712,-4.604,414.591],[15.5506,-4.6043,367.6124],[15.5427,-4.5958,357.4819],[15.5249,-4.5877,356.3424],[15.5171,-4.5946,354.3098],[15.5154,-4.6007,346.0717],[15.5094,-4.6039,346.9195],[15.5032,-4.6019,344.5767],[15.4859,-4.6081,356.5021],[15.4767,-4.6079,342.5035],[15.4664,-4.6,354.9579],[15.4641,-4.5935,340.107],[15.465,-4.591,341.3637],[15.462,-4.5869,329.4719],[15.4511,-4.5807,324.926],[15.4488,-4.5745,330.8409],[15.45,-4.5695,328.2012],[15.4395,-4.5541,319.26],[15.4384,-4.5462,325.3977],[15.4363,-4.5446,311.5061],[15.4291,-4.5459,309.4329],[15.4223,-4.5445,314.0524],[15.4197,-4.5467,313.5354],[15.4123,-4.5483,309.1775],[15.4061,-4.5527,302.546],[15.4072,-4.5543,308.6224],[15.4029,-4.5602,317.3811],[15.4064,-4.5644,335.5098],[15.404,-4.567,308.4005],[15.4062,-4.5737,306.3279],[15.4046,-4.5782,339.2845],[15.4074,-4.5816,320.0991],[15.4055,-4.5835,304.722],[15.4077,-4.5883,304.3043],[15.404,-4.5894,323.475],[15.4054,-4.5922,326.67],[15.4032,-4.6012,312.3625],[15.3968,-4.6052,322.2527],[15.3965,-4.6103,312.1855],[15.3923,-4.6131,316.6557],[15.3898,-4.625,317.1946],[15.3869,-4.6257,324.6307],[15.3803,-4.6326,330.4105],[15.3772,-4.6338,322.1057],[15.378,-4.6374,316.7996],[15.375,-4.6368,314.9174],[15.3731,-4.6387,315.3298],[15.3681,-4.6377,333.067],[15.3684,-4.6389,316.3443],[15.362,-4.644,317.0599],[15.3592,-4.6444,316.6014],[15.3597,-4.6423,317.0702],[15.3577,-4.6433,317.7406],[15.3578,-4.6466,316.9118],[15.3465,-4.6478,324.0923],[15.3417,-4.6462,328.7383],[15.3343,-4.6468,339.648],[15.3306,-4.6452,347.3179],[15.3289,-4.6425,339.2821],[15.3305,-4.6402,344.237],[15.3267,-4.6332,355.091],[15.3188,-4.6296,359.0809],[15.3144,-4.6246,362.439],[15.3044,-4.6242,365.5988],[15.3012,-4.6223,371.9085],[15.2919,-4.6213,376.6753],[15.2791,-4.6222,381.9782],[15.2727,-4.616,401.1526],[15.2681,-4.6151,397.5778],[15.2529,-4.6166,402.4202],[15.2456,-4.6156,384.9205],[15.2341,-4.5927,385.6286],[15.2314,-4.5919,377.9576],[15.2299,-4.5895,377.4803],[15.2162,-4.5855,372.7314],[15.2136,-4.5829,374.3115],[15.2068,-4.5665,359.2367],[15.1948,-4.5619,408.1529],[15.1748,-4.5591,469.4902],[15.1731,-4.5561,428.695],[15.1739,-4.5465,496.9496],[15.1765,-4.5408,450.8606],[15.1721,-4.5355,444.7353],[15.1724,-4.5268,394.3219],[15.1777,-4.5112,372.7166],[15.1737,-4.5032,350.9742],[15.1761,-4.4968,344.4773],[15.1758,-4.4883,340.3163],[15.1723,-4.4728,328.2363],[15.1619,-4.4562,321.6432],[15.1566,-4.4541,304.405],[15.1542,-4.451,309.5118],[15.1523,-4.4531,302.0065],[15.1496,-4.4518,290.6371],[15.1464,-4.4526,289.8271],[15.1434,-4.4509,292.5899],[15.1427,-4.4471,300.0226],[15.1408,-4.4456,281.2952],[15.1372,-4.4463,293.7795],[15.1323,-4.4441,248.3436],[15.129,-4.4453,236.0],[15.1249,-4.4549,235.0],[15.1262,-4.4579,262.3855],[15.1232,-4.4617,234.5],[15.1248,-4.4625,237.6155],[15.1168,-4.4687,233.5],[15.1141,-4.4738,233.0],[15.115,-4.4775,232.5],[15.1083,-4.4813,246.0916],[15.108,-4.4844,249.2666],[15.1047,-4.487,231.0],[15.1048,-4.495,295.821],[15.0982,-4.4968,258.7357],[15.0872,-4.5105,323.8256],[15.0757,-4.5173,327.7541],[15.0714,-4.5227,365.8943],[15.0628,-4.5293,309.7531],[15.061,-4.5331,375.6546],[15.0525,-4.54,315.8555],[15.041,-4.5452,309.6393],[15.024,-4.5639,334.9659],[14.9955,-4.6034,359.6095],[14.9131,-4.6811,348.5369],[14.9036,-4.6988,384.3466],[14.8965,-4.7209,295.7203],[14.8821,-4.7426,313.4763],[14.8756,-4.7558,322.9388],[14.8706,-4.7838,278.4568],[14.8562,-4.8034,367.2489],[14.8552,-4.8088,361.8224],[14.8497,-4.8178,328.5109],[14.8438,-4.8245,348.0085],[14.826599999999999,-4.8363,333.4695],[14.8129,-4.843,307.8531],[14.8007,-4.8429,338.2194],[14.7718,-4.8582,376.5453],[14.7616,-4.8651,325.5083],[14.7394,-4.8758,198.0],[14.7252,-4.8865,196.5],[14.6937,-4.9144,272.5959],[14.6879,-4.9176,329.1242],[14.6462,-4.9232,191.5],[14.6286,-4.9166,198.5011],[14.612,-4.9075,189.0],[14.592,-4.9034,188.0],[14.5867,-4.8997,187.5],[14.5763,-4.8834,186.5],[14.5576,-4.8654,184.75],[14.5427,-4.8622,183.5],[14.5283,-4.8625,183.0],[14.5085,-4.858,181.5],[14.497,-4.8507,181.0],[14.4899,-4.8482,210.6128],[14.4828,-4.8498,220.1117],[14.4776,-4.853,254.2912],[14.471,-4.863,218.9093],[14.4605,-4.8736,281.547],[14.45,-4.8807,238.1268],[14.4458,-4.8798,195.5844],[14.4355,-4.8858,239.4925],[14.43,-4.8964,263.3742],[14.4291,-4.8944,184.1753],[14.4162,-4.8975,172.0],[14.412,-4.8936,172.0],[14.4092,-4.8745,308.8996],[14.403,-4.8609,346.4589],[14.404,-4.8301,355.7418],[14.4011,-4.8064,361.3202],[14.4057,-4.7956,349.0498],[14.4166,-4.7831,360.892],[14.4159,-4.7785,365.0857],[14.409,-4.7705,392.6821],[14.4078,-4.7661,412.2711],[14.4097,-4.724,631.1802],[14.411,-4.7209,606.9457],[14.4083,-4.6931,576.0173],[14.406,-4.688,582.2709],[14.3869,-4.6702,556.9277],[14.3813,-4.6628,478.4011],[14.3804,-4.6496,592.4849],[14.3861,-4.6378,568.0621],[14.3811,-4.6326,585.8749],[14.378,-4.6155,547.6449],[14.3816,-4.596,540.0786],[14.3572,-4.583,556.519],[14.3524,-4.5749,560.8513],[14.3493,-4.5641,582.0531],[14.3507,-4.5561,568.0593],[14.3582,-4.5466,575.0252],[14.3589,-4.5436,558.8853],[14.3817,-4.5249,485.3836],[14.4014,-4.5149,445.1115],[14.406,-4.5169,449.9937],[14.4119,-4.5138,465.7619],[14.414,-4.5195,446.0964],[14.4213,-4.5142,444.7882],[14.4238,-4.514,445.2195],[14.4259,-4.516,446.0329],[14.4284,-4.5158,443.7703],[14.4319,-4.5202,454.0177],[14.4353,-4.4988,457.3045],[14.433,-4.4933,442.7119],[14.4385,-4.4923,452.717],[14.4426,-4.4829,448.2028],[14.4474,-4.481,442.3122],[14.46,-4.47,459.7292],[14.4661,-4.4511,435.6358],[14.4696,-4.446,435.482],[14.4805,-4.4363,434.1093],[14.4581,-4.4277,451.8716],[14.4388,-4.4126,447.1966],[14.4208,-4.3906,469.8385],[14.4171,-4.3825,468.2163],[14.3873,-4.3412,583.5555],[14.3866,-4.3373,573.6101],[14.3958,-4.3313,553.7361],[14.4031,-4.3232,533.3251],[14.4084,-4.3077,475.1094],[14.3817,-4.2981,505.0591],[14.37,-4.3018,537.8654],[14.3622,-4.3023,527.0522],[14.3617,-4.31,526.9272],[14.3583,-4.3142,539.1198],[14.34,-4.3127,577.9813],[14.3206,-4.3141,568.7367],[14.3138,-4.3174,584.5468],[14.3013,-4.3301,573.6208],[14.286,-4.3374,549.5228],[14.2517,-4.3612,583.7795],[14.1849,-4.3977,631.9301],[14.1714,-4.4009,623.2581],[14.1557,-4.4087,597.0291],[14.1441,-4.4124,607.0114],[14.1283,-4.4156,597.7692],[14.0823,-4.4146,585.6852],[14.0535,-4.4201,600.8232],[14.0205,-4.4308,623.4507],[14.0176,-4.434,614.9119],[14.001,-4.4739,644.449],[13.9691,-4.5113,626.8807],[13.9597,-4.5182,637.09],[13.9441,-4.5185,642.6736],[13.9193,-4.5096,656.9598],[13.8957,-4.5081,659.9046],[13.8835,-4.5012,684.5748],[13.8768,-4.4946,673.5231],[13.8694,-4.478,658.9495],[13.8673,-4.4672,659.0922],[13.8551,-4.4539,696.6059],[13.8528,-4.4482,704.2799],[13.8288,-4.4278,742.4517],[13.8192,-4.4225,743.7685],[13.8077,-4.4221,803.3314],[13.7816,-4.4252,773.9963],[13.7633,-4.4423,753.9276],[13.7624,-4.4448,753.0631],[13.756,-4.4457,762.115],[13.7359,-4.4578,745.7922],[13.7304,-4.4693,727.4899],[13.7305,-4.4939,733.5428],[13.7386,-4.5155,586.3308],[13.7462,-4.524,530.2416],[13.7501,-4.5321,534.397],[13.7506,-4.5382999999999996,504.7459],[13.7483,-4.5503,526.6455],[13.7502,-4.5578,493.5737],[13.7482,-4.5673,501.9583],[13.7354,-4.5931,526.4903],[13.7302,-4.6005,545.3362],[13.7163,-4.6509,312.2671],[13.7107,-4.6555,304.3963],[13.7114,-4.6691,376.3275],[13.7132,-4.6734,429.2388],[13.7233,-4.6788,327.3037],[13.7308,-4.6858,314.4442],[13.7315,-4.7033,332.2585],[13.7225,-4.7205,324.2235],[13.7169,-4.725,309.7079],[13.7099,-4.7246,306.3517],[13.689,-4.7191,310.2427],[13.6807,-4.7195,327.5753],[13.6784,-4.7269,329.1177],[13.6895,-4.7401,344.5793],[13.6923,-4.7484,346.8961],[13.6924,-4.7593,350.0608],[13.6902,-4.7683,380.559],[13.6856,-4.7686,414.3356],[13.6785,-4.764,463.7148],[13.6732,-4.7626,420.2077],[13.6634,-4.7513,364.2537],[13.6582,-4.7491,345.7039],[13.6497,-4.7406,372.7781],[13.6352,-4.7395,355.1968],[13.6307,-4.7423,388.1031],[13.6074,-4.781,459.4141],[13.6013,-4.8025,469.5427],[13.5944,-4.8138,466.4856],[13.5823,-4.8194,451.968],[13.5652,-4.8123,375.29],[13.5503,-4.8018,425.5704],[13.5433,-4.783,444.0606],[13.5401,-4.7784,481.1827],[13.5275,-4.7766,433.9109],[13.5187,-4.7835,439.9374],[13.5034,-4.7995,400.9666],[13.4983,-4.8123,443.7358],[13.5067,-4.831,445.3835],[13.5044,-4.8351,432.9881],[13.472,-4.8653,699.5897],[13.4631,-4.8694,677.5033],[13.4436,-4.868,710.2347],[13.4276,-4.8825,726.3068],[13.435,-4.892,718.3544],[13.4383,-4.9056,704.2307],[13.4365,-4.9171,700.4535],[13.4346,-4.9196,650.261],[13.431,-4.9199,714.9825],[13.4257,-4.9164,648.207],[13.4013,-4.8887,518.0914],[13.3916,-4.8799,510.3174],[13.3875,-4.8786,534.6023],[13.3792,-4.8669,478.2751],[13.3785,-4.8607,594.4001],[13.3807,-4.8512,463.405],[13.3856,-4.8493,472.4558],[13.3815,-4.8402,427.1518],[13.3826,-4.8363,464.4214],[13.3787,-4.8326,423.0711],[13.3773,-4.8234,412.5018],[13.3815,-4.8165,417.1443],[13.3785,-4.8059,404.0356],[13.3727,-4.7986,401.8772],[13.3638,-4.799,397.5875],[13.3594,-4.7974,392.9476],[13.3502,-4.7868,391.701],[13.345,-4.7852,387.4307],[13.3404,-4.7848,390.7069],[13.3323,-4.7891,388.0659],[13.3241,-4.7836,382.7742],[13.3197,-4.7829,381.6555],[13.3165,-4.7864,380.7479],[13.3133,-4.7866,381.3993],[13.3101,-4.7838,380.3679],[13.3062,-4.7843,379.1161],[13.3025,-4.7822,383.933],[13.2984,-4.7751,376.386],[13.294,-4.7746,375.246],[13.2899,-4.7705,375.11],[13.2846,-4.7714,375.3936],[13.2818,-4.7664,373.2479],[13.2731,-4.7588,370.3103],[13.269,-4.75,367.935],[13.2548,-4.7383,364.6667],[13.2536,-4.7351,367.7275],[13.2555,-4.7307,363.1772],[13.2584,-4.7286,364.8305],[13.2651,-4.7291,370.0277],[13.2646,-4.727,369.5827],[13.2564,-4.7194,364.2144],[13.2467,-4.696,362.6996],[13.2329,-4.6798,359.6707],[13.2229,-4.6764,371.4015],[13.2098,-4.669,352.8028],[13.2004,-4.6573,349.6786],[13.1923,-4.6527,354.229],[13.1882,-4.643,354.6699],[13.1825,-4.639,349.8736],[13.1565,-4.6504,361.7041],[13.1444,-4.6523,352.6213],[13.1309,-4.652,370.1526],[13.1063,-4.6473,366.6907],[13.1048,-4.6486,344.9051],[13.1057,-4.6509,344.8187],[13.1046,-4.6587,334.5521],[13.1097,-4.6686,329.1034],[13.107,-4.6806,329.4568],[13.0976,-4.6893,328.79],[13.0839,-4.6891,384.3234],[13.057,-4.6792,285.4262],[13.0514,-4.6809,341.4883],[13.035,-4.6936,324.0551],[13.0146,-4.7003,266.0533],[13.0088,-4.6997,260.6669],[12.993,-4.7034,229.2831],[12.9861,-4.7031,205.8643],[12.9554,-4.7194,233.3284],[12.9432,-4.7221,187.9821],[12.9223,-4.7325,189.8983],[12.9143,-4.7346,189.1478],[12.8984,-4.7343,176.0132],[12.892,-4.7318,176.4513],[12.8767,-4.7334,184.6378],[12.8728,-4.7384,167.454],[12.8631,-4.7391,213.8112],[12.8606,-4.7412,189.6321],[12.856,-4.7538,154.1597],[12.8395,-4.7552,168.4491],[12.8365,-4.7598,139.0697],[12.8367,-4.7647,139.3396],[12.8312,-4.7743,128.2978],[12.8175,-4.7824,149.3739],[12.8152,-4.7858,178.0829],[12.8009,-4.8192,144.6377],[12.794,-4.8265,112.251],[12.7924,-4.8321,127.41],[12.802,-4.8409,141.5716],[12.7989,-4.8466,143.1371],[12.7865,-4.855,133.9901],[12.7787,-4.8693,137.1012],[12.7707,-4.8744,93.1265],[12.7546,-4.8765,149.8398],[12.7485,-4.8825,134.7479],[12.7396,-4.8953,74.7531],[12.7284,-4.9017,261.7651],[12.7267,-4.9106,159.8002],[12.7265,-4.9322,151.356],[12.7238,-4.9431,119.7571],[12.7176,-4.9495,105.9448],[12.7114,-4.9541,60.2593],[12.6936,-4.9544,54.0571],[12.6718,-4.959,65.5826],[12.6614,-4.9569,118.1695],[12.6497,-4.9509,129.3244],[12.6396,-4.9509,34.0316],[12.6343,-4.9551,85.7743],[12.6327,-4.9615,112.1206],[12.6405,-4.9776,101.5954],[12.6405,-4.9919,123.3264],[12.6295,-5.0206,68.1789],[12.6235,-5.0236,116.506],[12.615,-5.0218,17.8882],[12.6065,-5.0268,18.6477],[12.6012,-5.0376,35.3033],[12.5956,-5.0403,30.4981],[12.5867,-5.0401,13.8437],[12.5805,-5.0475,40.9619],[12.5754,-5.0506,26.0294],[12.556,-5.0493,42.9087],[12.5523,-5.0505,39.0526],[12.5392,-5.0631,63.9163],[12.5308,-5.0671,119.984],[12.519,-5.0705,92.3373],[12.5105,-5.0702,74.8747],[12.4922,-5.0651,20.5837],[12.4793,-5.0693,6.1838],[12.469,-5.0888,7.1457],[12.4873,-5.116,15.7955],[12.494,-5.1211,47.1505],[12.5216,-5.1335,13.6393],[12.5234,-5.1324,28.7743],[12.5349,-5.1346,10.6558],[12.5375,-5.1389,7.1519],[12.5392,-5.1921,6.9324],[12.5372,-5.4612,195.6315],[12.5089,-5.4701,81.3625],[12.5092,-5.6641,156.5759],[12.5357,-5.6603,149.1014],[12.5373,-5.6842,111.244],[12.5351,-5.7339,98.5659],[12.3147,-5.7452,93.8008],[12.2811,-5.7428,26.0744],[12.2657,-5.7433,19.0279],[12.2471,-5.7488,15.3246],[12.2216,-5.7595,8.3476],[12.2015,-5.7724,4.3814],[12.2291,-5.8159,0.0],[12.265,-5.8542,0.0],[12.2683,-5.8591,4.1954],[12.268,-5.8618,0.5809],[12.2883,-5.8824,10.947],[12.2924,-5.89,8.075],[12.3147,-5.9078,13.2768],[12.337,-5.9284,0.0],[12.3422,-5.9345,11.5622],[12.345,-5.9422,0.0],[12.3587,-5.959,0.2174],[12.3595,-5.9638,0.0],[12.3632,-5.9645,1.0841],[12.382,-5.9877,1.1298],[12.3958,-6.0016,0.0],[12.4,-6.0101,0.6505],[12.4041,-6.0262,0.2067],[12.4374,-6.0573,0.0],[12.4423,-6.0584,0.0],[12.4722,-6.0546,0.0],[12.4933,-6.0483,0.0],[12.4973,-6.0461,0.0],[12.4975,-6.0439,0.0],[12.502,-6.0422,0.0]]]]}
,"properties": {"GID_1": "COD.11_1","GID_0": "COD","country": "DemocraticRepublicoftheCongo","province": "Kongo-Central","VARNAME_1": "NA","NL_NAME_1": "NA","TYPE_1": "Province","ENGTYPE_1": "Province","CC_1": "NA","HASC_1": "CD.BC","ISO_1": "NA","name": "Kongo-Central.province","area_km2": 54089.54,"hist_schema_id": "Elevation0-9000","hist_area_km2": {"0": 899.74,"25": 784.26,"50": 723.67,"75": 751.85,"100": 892.62,"125": 1019.89,"150": 1008.12,"175": 1107.46,"200": 1230.74,"225": 1322.57,"250": 1557.79,"275": 2002.08,"300": 2375.76,"325": 2311.37,"350": 2151.29,"375": 2118.56,"400": 2235.27,"425": 2259.19,"450": 2050.68,"475": 1883.63,"500": 1914.78,"525": 2160.19,"550": 2480.84,"575": 2544.91,"600": 2114.9,"625": 1726.62,"650": 1439.78,"675": 1159.26,"700": 967.0,"725": 1044.25,"750": 1214.46,"775": 1198.36,"800": 1059.09,"825": 774.32,"850": 525.62,"875": 405.92,"900": 339.61,"925": 251.38,"950": 80.62,"975": 1.12}}}