{"type":"Feature","properties":{"GID_2":"COD.7.1_1","GID_0":"COD","country":"DemocraticRepublicoftheCongo","GID_1":"COD.7_1","province":"Kasaï-Central","NL_NAME_1":"NA","county":"Demba","VARNAME_2":"NA","NL_NAME_2":"NA","TYPE_2":"Territoire","ENGTYPE_2":"Territory","CC_2":"NA","HASC_2":"NA","name":"Demba.county"},
"geometry":{"type": "MultiPolygon","coordinates": [[[[22.6728,-5.7917,558.8004],[22.6854,-5.7889,585.8728],[22.6891,-5.7862,588.2999],[22.6942,-5.7862,578.8931],[22.6985,-5.7828,606.7726],[22.7199,-5.784,626.5162],[22.7259,-5.7789,610.6993],[22.7305,-5.778,630.1631],[22.7339,-5.773,604.8678],[22.7468,-5.7645,636.5191],[22.7549,-5.7654,628.8863],[22.7604,-5.7631,609.1218],[22.7691,-5.7641,618.0396],[22.779,-5.7607,658.5499],[22.7921,-5.7641,642.231],[22.8038,-5.7777,644.8864],[22.8285,-5.7741,655.4088],[22.827,-5.7587,627.9249],[22.8208,-5.7499,620.3433],[22.8194,-5.7419,614.2224],[22.8239,-5.7171,607.9172],[22.8236,-5.7104,598.49],[22.817,-5.703,610.4667],[22.8168,-5.6924,586.0048],[22.8115,-5.6708,584.1202],[22.8123,-5.6644,598.0444],[22.8185,-5.6543,611.1758],[22.8295,-5.6444,603.6183],[22.8371,-5.6405,583.0251],[22.8419,-5.6336,583.8759],[22.8473,-5.6099,561.4242],[22.848,-5.5998,582.2075],[22.8448,-5.5895,589.0162],[22.8356,-5.5802,550.0118],[22.826,-5.5618,551.132],[22.8187,-5.5379,580.644],[22.8118,-5.5222,536.2177],[22.8062,-5.4958,524.2021],[22.8016,-5.4879,553.2485],[22.7919,-5.4849,522.7766],[22.7855,-5.4771,556.5667],[22.763,-5.4729,554.4725],[22.7573,-5.4692,574.3599],[22.7518,-5.4597,523.2838],[22.7491,-5.4439,528.0044],[22.7399,-5.4271,563.1467],[22.7368,-5.4024,523.7994],[22.7313,-5.3944,549.2654],[22.7285,-5.3865,579.6196],[22.7155,-5.3805,503.3832],[22.7077,-5.3683,530.6985],[22.701,-5.3674,510.3648],[22.6944,-5.3579,511.5665],[22.6901,-5.3404,559.9529],[22.6837,-5.334,518.1525],[22.6816,-5.3257,556.2418],[22.6656,-5.3183,524.0522],[22.6594,-5.307,547.0409],[22.6493,-5.3051,539.0052],[22.6394,-5.2973,507.1365],[22.6362,-5.2906,524.4255],[22.6078,-5.2609,477.9693],[22.6065,-5.2528,507.7636],[22.6033,-5.25,494.2172],[22.6024,-5.2434,507.1837],[22.5985,-5.2369,537.1567],[22.593,-5.2348,539.1732],[22.574,-5.215,507.2413],[22.5685,-5.2044,516.8847],[22.565,-5.2039,524.8386],[22.5625,-5.1963,524.001],[22.5598,-5.1954,479.6974],[22.5502,-5.1825,505.7697],[22.5348,-5.173,476.036],[22.5298,-5.1631,504.6519],[22.522,-5.1624,465.2479],[22.5195,-5.1603,467.3794],[22.5179,-5.1544,486.948],[22.508,-5.1428,464.1753],[22.5016,-5.138,484.0994],[22.4957,-5.1223,493.8625],[22.492,-5.1195,526.4919],[22.4814,-5.1186,466.8907],[22.4778,-5.1167,475.1101],[22.4713,-5.1186,462.124],[22.4688,-5.1163,462.8367],[22.4642,-5.1158,458.5412],[22.4594,-5.1103,489.4665],[22.4553,-5.1107,458.9551],[22.4526,-5.1031,457.4026],[22.4498,-5.1007999999999996,483.1285],[22.4429,-5.1035,461.0052],[22.4409,-5.1015,454.376],[22.4573,-5.0382,558.1056],[22.4664,-4.995,546.8934],[22.4794,-4.9482,587.4258],[22.4833,-4.9405,566.5303],[22.4752,-4.9412,537.0994],[22.4615,-4.9359,547.7145],[22.4541,-4.9303,540.601],[22.434,-4.9243,511.6376],[22.4159,-4.9125,524.2194],[22.4014,-4.9086,544.2117],[22.3845,-4.8979,506.1165],[22.3748,-4.8938,495.0818],[22.3654,-4.893,482.8283],[22.3576,-4.8884,525.8907],[22.3559,-4.8729,492.4949],[22.3495,-4.8575,492.8738],[22.3477,-4.8449,561.2119],[22.35,-4.8363,534.1744],[22.3991,-4.7894,539.9626],[22.4335,-4.7517,577.398],[22.4558,-4.7351,522.0541],[22.4498,-4.7201,545.795],[22.4507,-4.6939,587.9539],[22.4659,-4.66,535.3424],[22.476,-4.6441,490.8376],[22.473,-4.6435,476.3212],[22.4732,-4.6384,454.0995],[22.4659,-4.6303,449.9575],[22.4535,-4.6262,439.0147],[22.4482,-4.6211,468.4389],[22.4402,-4.6227,509.9418],[22.4345,-4.6197,485.5038],[22.4244,-4.6213,541.8378],[22.4138,-4.6196,496.2768],[22.4118,-4.6212,502.5802],[22.3982,-4.6233,442.7245],[22.3952,-4.6255,469.0078],[22.3885,-4.638,499.4096],[22.3851,-4.6402,493.5153],[22.3697,-4.6434,432.3324],[22.3651,-4.6423,490.5401],[22.3629,-4.6374,439.1629],[22.3601,-4.6379,499.3542],[22.3555,-4.6337,490.5211],[22.3505,-4.6339,485.8464],[22.344,-4.6378,505.6095],[22.339,-4.6353,504.0305],[22.3287,-4.6392,512.2457],[22.3225,-4.6348,505.2606],[22.3188,-4.6341,513.696],[22.3044,-4.6356,518.5391],[22.2991,-4.6308,444.5255],[22.286,-4.6264,505.3973],[22.2831,-4.6311,466.5179],[22.2789,-4.6488,492.0472],[22.2701,-4.661,466.7713],[22.2563,-4.6684,513.5425],[22.2541,-4.6721,558.8093],[22.2534,-4.684,511.6671],[22.2503,-4.6991,467.3075],[22.2481,-4.7031,460.3697],[22.237,-4.7109,506.5361],[22.2303,-4.712,450.3622],[22.2178,-4.7183,491.6636],[22.2043,-4.7186,449.4721],[22.2019,-4.7218,433.3141],[22.2039,-4.732,472.7722],[22.2098,-4.7331,487.4799],[22.2126,-4.7354,431.9275],[22.218,-4.7504,487.4749],[22.2256,-4.7507,430.064],[22.2265,-4.7564,427.1612],[22.2249,-4.7601,435.2506],[22.2283,-4.7645,433.2855],[22.223,-4.7698,422.1948],[22.2233,-4.7825,425.2249],[22.2062,-4.787,490.0204],[22.2014,-4.7906,471.9521],[22.1917,-4.8023,496.1007],[22.1832,-4.8074,446.5236],[22.1772,-4.8186,500.2678],[22.1717,-4.8227,486.7836],[22.1552,-4.8273,490.5918],[22.1501,-4.8312,463.9536],[22.143,-4.8286,490.9575],[22.1352,-4.8298,517.6854],[22.1265,-4.8359,509.2997],[22.1214,-4.8375,476.4124],[22.1161,-4.8414,508.3451],[22.1111,-4.8513,510.0169],[22.097,-4.8637,530.6607],[22.0894,-4.8733,501.225],[22.0855,-4.8742,540.2397],[22.0793,-4.8832,573.1179],[22.0849,-4.9015,575.7906],[22.0969,-4.908,590.1819],[22.1022,-4.9129,580.0612],[22.1052,-4.9186,558.8802],[22.1006,-4.9454,589.2482],[22.1037,-4.9635,601.6904],[22.1179,-4.971,575.0833],[22.1273,-4.9786,596.246],[22.1245,-4.9896,573.9493],[22.1141,-5.0022,502.6757],[22.1177,-5.0098,496.2113],[22.1182,-5.0202,506.4934],[22.1152,-5.0257,527.1365],[22.1057,-5.0351,535.8341],[22.1027,-5.0425,491.1047],[22.0988,-5.0673,482.3976],[22.0916,-5.0903,491.9622],[22.0731,-5.1148,476.3888],[22.0467,-5.1279,454.2133],[22.0368,-5.135,454.3315],[22.0347,-5.1382,462.4554],[22.033,-5.1062,463.8208],[22.028199999999998,-5.0873,502.6562],[22.02,-5.07,516.3295],[22.0042,-5.0669,469.8329],[21.9996,-5.0676,469.2213],[21.9867,-5.0743,502.462],[21.9677,-5.0792,498.9234],[21.9396,-5.0809,584.8251],[21.9318,-5.0786,586.0445],[21.9085,-5.0698,518.5978],[21.8726,-5.0526,557.7075],[21.8685,-5.048,538.6174],[21.8682,-5.0424,550.088],[21.8717,-5.0385,543.0255],[21.8825,-5.0344,494.2657],[21.8854,-5.0297,492.8313],[21.8851,-5.0223,571.163],[21.8798,-5.0177,593.7347],[21.8609,-5.0181,601.2707],[21.8518,-5.0153,594.5875],[21.8478,-5.016,583.6099],[21.8389,-5.0243,552.7582],[21.8239,-5.0256,547.5254],[21.82,-5.0341,541.3615],[21.8147,-5.0378,548.3817],[21.8117,-5.0435,493.9709],[21.811,-5.0562,479.8559],[21.8082,-5.0624,480.9681],[21.8093,-5.0716,491.1619],[21.802,-5.0835,506.0568],[21.7879,-5.084,539.3188],[21.7797,-5.0819,540.0741],[21.7585,-5.0744,536.7769],[21.753,-5.07,559.8665],[21.7079,-5.0554,511.0104],[21.7026,-5.054,512.8369],[21.6898,-5.0548,449.9103],[21.6875,-5.0688,439.611],[21.6931,-5.0967,433.5842],[21.6921,-5.1183,429.2567],[21.6898,-5.1296,427.4401],[21.6755,-5.1519,427.5035],[21.662,-5.1891,432.7722],[21.6625,-5.1934,418.2678],[21.6565,-5.2114,446.8182],[21.6376,-5.2327,441.7651],[21.6356,-5.2561,437.3846],[21.6393,-5.2697,412.1515],[21.638,-5.2957,479.4248],[21.6348,-5.3038,435.6039],[21.6244,-5.3108,485.4357],[21.6242,-5.3161,451.9768],[21.6285,-5.3173,419.3698],[21.6416,-5.3256,394.5],[21.6483,-5.3275,406.8477],[21.653199999999998,-5.3239,416.1437],[21.6593,-5.3248,401.0501],[21.6641,-5.3303,415.1476],[21.6636,-5.3407,424.7597],[21.667,-5.3579,425.6565],[21.6564,-5.3719,495.881],[21.6536,-5.3797,440.6531],[21.654,-5.386,489.0897],[21.6588,-5.3928,396.8318],[21.667,-5.3977,400.968],[21.676,-5.3982,453.8468],[21.6829,-5.3953,502.153],[21.6864,-5.3957,518.0342],[21.6903,-5.4146,429.5623],[21.6932,-5.4171,420.6966],[21.7049,-5.4204,440.7471],[21.712,-5.4308,400.7376],[21.7152,-5.4324,399.942],[21.7262,-5.4322,406.8792],[21.7319,-5.4375,399.5322],[21.748,-5.439,441.6668],[21.7544,-5.442,402.6138],[21.759,-5.4473,398.8646],[21.7587,-5.4581,442.5621],[21.7608,-5.4648,405.1761],[21.7666,-5.4682,408.8905],[21.7799,-5.4658,454.5101],[21.7941,-5.4654,440.9799],[21.7987,-5.4633,485.5948],[21.8047,-5.4518,465.04],[21.8207,-5.4519,423.4389],[21.8242,-5.4489,429.5307],[21.8244,-5.4395,400.6567],[21.8199,-5.4313,427.4805],[21.822,-5.4261,488.0207],[21.8296,-5.4199,510.2134],[21.8468,-5.4152,485.187],[21.8461,-5.4198,399.5073],[21.8525,-5.4329,419.1953],[21.8603,-5.4394,419.6444],[21.8616,-5.4444,423.9381],[21.8703,-5.4583,468.9727],[21.8742,-5.4712,448.7755],[21.8786,-5.4777,470.7159],[21.8932,-5.4917,485.2635],[21.9044,-5.498,537.2126],[21.9168,-5.515,505.0103],[21.9257,-5.5206,527.3829],[21.9323,-5.5381,531.6599],[21.9396,-5.5521,543.8677],[21.9403,-5.565,525.4457],[21.9441,-5.5717,521.4498],[21.951,-5.5738,589.0618],[21.9545,-5.5766,567.4869],[21.9611,-5.5883,567.0142],[21.9705,-5.5955,592.7271],[21.9743,-5.6042,533.0076],[21.9771,-5.6206,591.3688],[21.9754,-5.638,589.9526],[21.9675,-5.6569,611.5398],[21.962,-5.6778,614.4862],[21.9603,-5.6936,595.0018],[21.9522,-5.7194,626.5308],[21.9422,-5.7442,632.8684],[21.9365,-5.7517,607.3489],[21.9558,-5.7376,616.1771],[21.962,-5.736,645.7449],[21.9974,-5.7389,607.0117],[22.0127,-5.7444,603.5871],[22.0222,-5.7457,604.9464],[22.0277,-5.7434,579.9265],[22.0385,-5.7322,611.1179],[22.046,-5.7272,580.5118],[22.0947,-5.7093,515.423],[22.1077,-5.7086,479.5321],[22.1211,-5.703,466.3132],[22.1182,-5.7229,470.4394],[22.1201,-5.7271,465.8997],[22.1286,-5.7292,471.1408],[22.1367,-5.741,470.4307],[22.1365,-5.7517,473.3606],[22.1443,-5.7541,502.4216],[22.1472,-5.7571,488.0532],[22.1479,-5.7594,467.717],[22.1454,-5.7608,485.8967],[22.1492,-5.7651,474.9656],[22.15,-5.7706,499.4145],[22.1679,-5.7771,519.1272],[22.1714,-5.7854,478.375],[22.1709,-5.7914,481.5219],[22.1727,-5.7939,480.2224],[22.1775,-5.7942,489.5982],[22.1794,-5.7967,498.0142],[22.1878,-5.7972,503.7688],[22.1878,-5.8006,485.1122],[22.2035,-5.8127,509.737],[22.2054,-5.8182,485.616],[22.2041,-5.8223,485.9803],[22.205,-5.8248,483.7119],[22.214,-5.8272,497.0593],[22.2199,-5.824,503.2644],[22.2227,-5.8247,504.8304],[22.2227,-5.8336,489.7912],[22.2201,-5.8421,492.6338],[22.2215,-5.849,490.2679],[22.2256,-5.853,494.6729],[22.2341,-5.8505,500.0535],[22.2465,-5.8539,497.6468],[22.2543,-5.8398,556.2748],[22.2619,-5.8364,580.9087],[22.3162,-5.8324,589.7863],[22.34,-5.8282,553.7989],[22.3594,-5.8186,537.3428],[22.3664,-5.8109,554.4686],[22.3753,-5.8049,600.6105],[22.3884,-5.8084,597.539],[22.3952,-5.8087,582.5314],[22.402,-5.8068,563.6129],[22.4196,-5.7907,626.3522],[22.4245,-5.7776,588.4227],[22.4276,-5.7732,620.4749],[22.4318,-5.7714,605.6823],[22.4361,-5.7718,606.452],[22.4398,-5.7765,597.8117],[22.4405,-5.7839,576.0491],[22.4447,-5.7897,591.0425],[22.47,-5.7911,603.9171],[22.4737,-5.7893,597.4943],[22.4759,-5.7858,586.9875],[22.4764,-5.7809,633.3771],[22.4789,-5.7779,616.6332],[22.482,-5.7778,590.0686],[22.4855,-5.7823,623.7906],[22.4894,-5.7967,605.7037],[22.4922,-5.8209,566.7595],[22.4974,-5.825,573.1346],[22.5067,-5.8258,600.9454],[22.5322,-5.8252,610.8965],[22.5664,-5.8185,590.988],[22.5815,-5.8031,603.4598],[22.6115,-5.7789,606.9787],[22.6165,-5.7715,583.5085],[22.6175,-5.7641,621.895],[22.6267,-5.7497,603.8353],[22.6368,-5.7481,574.147],[22.6728,-5.7917,558.8004]]]]}}