{"type": "Feature","bbox": [23.7382,2.6809,23.8592,2.7973],"geometry": {"type": "MultiPolygon","coordinates": [[[[23.8592,2.7361,412.4228],[23.8577,2.7568,405.7391],[23.8452,2.7818,380.2492],[23.8262,2.7951,392.6221],[23.8079,2.7973,389.0908],[23.7866,2.7951,386.1821],[23.7749,2.787,385.8077],[23.7551,2.7782,389.6465],[23.7412,2.7634,385.6984],[23.7382,2.745,382.2768],[23.7412,2.7334,379.8869],[23.7451,2.7355,383.4411],[23.749,2.7351,371.565],[23.7752,2.7237,385.1619],[23.7921,2.7265,384.6373],[23.7999,2.7153,380.694],[23.8052,2.7135,383.8901],[23.8087,2.7075,393.8727],[23.8124,2.696,389.2888],[23.8143,2.681,397.8488],[23.8181,2.6809,437.259],[23.8408,2.6949,434.5918],[23.8562,2.7126,396.8466],[23.8592,2.7361,412.4228]]]]}
,"properties": {"GID_2": "COD.1.2_1","GID_0": "COD","country": "DemocraticRepublicoftheCongo","GID_1": "COD.1_1","province": "Bas-Uele","NL_NAME_1": "NA","county": "Aketi(ville)","VARNAME_2": "NA","NL_NAME_2": "NA","TYPE_2": "Ville","ENGTYPE_2": "Town","CC_2": "NA","HASC_2": "NA","name": "Aketi(ville).county","area_km2": 106.75741,"hist_schema_id": "Elevation0-9000","hist_area_km2": {"375": 47.79812,"400": 51.69502,"425": 5.10403,"450": 2.11788,"475": 0.04236}}}