{"type": "Feature","bbox": [27.9612,2.0893,28.0721,2.2068],"geometry": {"type": "MultiPolygon","coordinates": [[[[28.067,2.1639,816.1371],[28.064,2.1764,808.0035],[28.0572,2.1888,799.8999],[28.0367,2.203,809.8073],[28.0184,2.2068,821.1675],[28.0013,2.2068,811.7814],[27.9821,2.2033,802.9665],[27.9812,2.1978,803.2595],[27.9832,2.187,800.0643],[27.9649,2.1852,799.7546],[27.9612,2.1729,799.6572],[27.9612,2.1553,798.8947],[27.9638,2.1373,772.5093],[27.9719,2.1172,795.7266],[27.9834,2.1021,787.4935],[27.9983,2.0931,802.149],[28.0141,2.0893,789.4165],[28.0261,2.0897,804.7886],[28.0457,2.0979,802.658],[28.0512,2.1052,812.0992],[28.0661,2.1172,799.6889],[28.0685,2.1222,816.562],[28.0676,2.1495,797.2313],[28.0721,2.1488,810.1971],[28.067,2.1639,816.1371]]]]}
,"properties": {"GID_2": "COD.5.9_1","GID_0": "COD","country": "DemocraticRepublicoftheCongo","GID_1": "COD.5_1","province": "Haut-Uele","NL_NAME_1": "NA","county": "Wamba(ville)","VARNAME_2": "NA","NL_NAME_2": "NA","TYPE_2": "Ville","ENGTYPE_2": "Town","CC_2": "NA","HASC_2": "NA","name": "Wamba(ville).county","area_km2": 125.15332,"hist_schema_id": "Elevation0-9000","hist_area_km2": {"775": 34.53563,"800": 74.11309,"825": 15.69949,"850": 0.65679,"875": 0.14831}}}