{"type":"Feature","properties":{"GID_2":"COD.11.16_1","GID_0":"COD","country":"DemocraticRepublicoftheCongo","GID_1":"COD.11_1","province":"Kongo-Central","NL_NAME_1":"NA","county":"Seke-Banza","VARNAME_2":"NA","NL_NAME_2":"NA","TYPE_2":"Territoire","ENGTYPE_2":"Territory","CC_2":"NA","HASC_2":"NA","name":"Seke-Banza.county"},
"geometry":{"type": "MultiPolygon","coordinates": [[[[13.4262,-5.862,5.0],[13.4329,-5.857,27.0684],[13.4322,-5.8293,47.5575],[13.4355,-5.8269,15.7357],[13.4329,-5.8069,271.4414],[13.4364,-5.7945,354.1263],[13.4498,-5.7894,173.5144],[13.465,-5.7881,264.5425],[13.4709,-5.8046,60.5199],[13.483,-5.8097,15.4327],[13.484,-5.8084,23.4996],[13.4941,-5.8098,269.9272],[13.4978,-5.8064,137.9025],[13.5003,-5.7962,18.9729],[13.5028,-5.796,9.5],[13.5079,-5.7999,60.3273],[13.512,-5.7969,18.3404],[13.5166,-5.7997,69.9352],[13.5191,-5.7983,69.0364],[13.521,-5.7912,268.7634],[13.5194,-5.7879,99.1218],[13.5198,-5.7836,50.5823],[13.5219,-5.7776,106.163],[13.5191,-5.7735,22.8527],[13.5207,-5.7709,13.6252],[13.5249,-5.7702,22.341],[13.538,-5.7504,63.1772],[13.5393,-5.7431,106.4327],[13.5437,-5.7399,104.1391],[13.5467,-5.732,68.6465],[13.5522,-5.7256,181.372],[13.5517,-5.7222,20.0],[13.5584,-5.7224,322.6278],[13.5602,-5.7155,24.125],[13.5673,-5.7221,26.25],[13.5749,-5.7219,40.3944],[13.5784,-5.7192,36.9338],[13.5827,-5.7192,49.8327],[13.585,-5.7175,49.4425],[13.5963,-5.6966,94.9648],[13.5928,-5.6748,126.7237],[13.5992,-5.643,118.9474],[13.5934,-5.6269,57.4732],[13.5941,-5.6184,39.0],[13.5983,-5.6156,39.0],[13.5996,-5.611,130.253],[13.5969,-5.6048,78.0298],[13.596,-5.5924,40.0],[13.5976,-5.5864,66.295],[13.5962,-5.5823,96.9677],[13.587,-5.5777,65.482],[13.5812,-5.571,170.0646],[13.5773,-5.5694,189.4601],[13.5688,-5.5581,168.4255],[13.5672,-5.5522,65.1452],[13.5693,-5.5485,45.1833],[13.5748,-5.5508,49.117],[13.5909,-5.5517,77.7497],[13.5932,-5.5466,217.3891],[13.5951,-5.5328,61.2437],[13.6117,-5.5289,87.1255],[13.6127,-5.5317,66.25],[13.6161,-5.5328,87.6996],[13.6315,-5.5324,71.5],[13.6365,-5.5358,79.6674],[13.6455,-5.5376,81.4034],[13.6536,-5.5432,104.8385],[13.6581,-5.5434,116.5997],[13.665,-5.5369,110.3166],[13.6641,-5.5291,131.51],[13.6593,-5.522,135.2159],[13.6427,-5.508,121.2179],[13.6342,-5.4873,212.1335],[13.6211,-5.4693,178.2048],[13.5864,-5.436,198.682],[13.5806,-5.4351,147.9361],[13.5763,-5.4252,228.4565],[13.5678,-5.4185,228.7966],[13.5653,-5.4107,275.7451],[13.5526,-5.4006,243.9604],[13.5473,-5.39,146.8666],[13.5524,-5.3665,265.5216],[13.5579,-5.3594,235.7869],[13.5661,-5.3553,143.875],[13.5726,-5.3564,161.6952],[13.5758,-5.3541,144.0],[13.5804,-5.3543,205.8992],[13.584,-5.3437,187.1772],[13.5957,-5.3237,147.899],[13.6095,-5.3251,147.0],[13.6194,-5.332,147.0],[13.6233,-5.3315,154.9409],[13.6272,-5.3336,161.453],[13.6309,-5.3198,166.6969],[13.6304,-5.315,156.4852],[13.6327,-5.3111,207.1991],[13.6304,-5.306,233.392],[13.6327,-5.3023,260.9012],[13.6373,-5.3028,191.4675],[13.6384,-5.3016,206.5051],[13.6361,-5.2936,210.788],[13.6446,-5.2867,187.3887],[13.6381,-5.2874,172.3009],[13.6336,-5.2844,151.0],[13.62,-5.2646,213.6717],[13.6225,-5.2572,206.0565],[13.6218,-5.2545,245.5515],[13.6154,-5.2522,220.9987],[13.612,-5.2533,228.5663],[13.609,-5.249,228.4808],[13.6026,-5.249,221.815],[13.5998,-5.2444,239.5744],[13.5892,-5.2359,302.2399],[13.5929,-5.2271,252.3036],[13.586,-5.2264,273.4428],[13.5846,-5.2322,241.0208],[13.5807,-5.2345,356.7545],[13.566,-5.2271,328.2184],[13.5656,-5.2251,281.386],[13.5681,-5.2209,276.0707],[13.5725,-5.2184,288.6754],[13.5715,-5.2163,287.1276],[13.5669,-5.2122,289.1418],[13.5607,-5.2103,278.9053],[13.5502,-5.1915,299.405],[13.5408,-5.1901,363.6959],[13.5389,-5.1841,281.2943],[13.5394,-5.1791,295.7036],[13.5345,-5.1728,312.3719],[13.5382,-5.1689,315.4422],[13.5322,-5.163,339.5997],[13.5348,-5.1574,294.5526],[13.5332,-5.1489,341.8981],[13.5267,-5.1475,406.1099],[13.5286,-5.1429,413.3361],[13.5251,-5.1349,340.6249],[13.5242,-5.1278,393.7693],[13.5207,-5.1266,392.4499],[13.5196,-5.122,435.6099],[13.5155,-5.119,442.8811],[13.5072,-5.099,495.6102],[13.5012,-5.0939,545.8773],[13.4968,-5.0795,487.0021],[13.5039,-5.0725,603.9636],[13.5016,-5.0659,562.5235],[13.5055,-5.0624,468.6505],[13.5071,-5.0578,521.4233],[13.5039,-5.0567,473.1386],[13.501,-5.0587,507.4962],[13.4991,-5.0581,545.9375],[13.4805,-5.0357,551.6968],[13.4752,-5.0321,560.4305],[13.4713,-5.0318,530.4249],[13.4647,-5.0357,546.1416],[13.4605,-5.0314,545.2104],[13.4509,-5.0275,576.2813],[13.4495,-5.0217,586.6837],[13.4435,-5.0134,656.981],[13.4433,-5.0075,632.0535],[13.4461,-5.0026,693.8987],[13.4442,-4.9987,715.6147],[13.4387,-4.9946,737.1339],[13.4403,-4.9904,673.7649],[13.4362,-4.9801,585.0117],[13.4281,-4.9752,709.2139],[13.4231,-4.9764,677.9355],[13.419,-4.9713,730.4957],[13.4155,-4.9709,721.2762],[13.4095,-4.9654,629.9359],[13.4075,-4.9596,667.5767],[13.4013,-4.9594,608.0527],[13.3974,-4.9555,627.4034],[13.396,-4.9506,640.6499],[13.3886,-4.9465,614.3579],[13.3857,-4.9394,593.6279],[13.379,-4.9329,597.077],[13.376,-4.9258,583.5162],[13.3636,-4.9251,656.3092],[13.3563,-4.9184,660.7296],[13.3436,-4.914,687.1519],[13.3128,-4.9203,623.6943],[13.299,-4.9223,540.969],[13.2868,-4.922,575.955],[13.2681,-4.9262,692.5598],[13.2519,-4.9361,398.98],[13.2178,-4.9613,493.3182],[13.2024,-4.9649,756.7177],[13.1797,-4.9595,706.8856],[13.1683,-4.9552,675.9493],[13.1529,-4.954,397.2733],[13.1407,-4.9552,341.191],[13.1098,-4.9655,365.0081],[13.0977,-4.9787,327.3281],[13.092,-4.9888,329.0514],[13.0985,-4.9945,330.4528],[13.1058,-4.9939,362.3765],[13.1091,-4.998,416.9462],[13.1091,-5.0067,378.7654],[13.1115,-5.0171,390.6313],[13.118,-5.0189,446.0814],[13.1213,-5.0237,506.6748],[13.114,-5.0306,411.0463],[13.1132,-5.0393,371.1273],[13.1213,-5.0562,470.5699],[13.1473,-5.0886,314.1842],[13.1506,-5.1014,341.8182],[13.1474,-5.1188,407.0785],[13.1414,-5.1388,310.8182],[13.1401,-5.1511,307.4031],[13.1458,-5.1623,247.9142],[13.1458,-5.1718,287.3688],[13.1499,-5.1838,437.0298],[13.1548,-5.1911,470.8579],[13.1597,-5.1873,465.8839],[13.1637,-5.1779,317.0429],[13.1645,-5.1707,266.8296],[13.1734,-5.171,303.9317],[13.1799,-5.1743,355.5493],[13.1881,-5.1857,391.6556],[13.184,-5.1951,378.5759],[13.1702,-5.2089,544.0283],[13.1695,-5.2232,495.443],[13.1719,-5.2415,406.9261],[13.1744,-5.2463,430.465],[13.1914,-5.2603,465.9346],[13.1971,-5.2675,488.1158],[13.198,-5.2945,281.6704],[13.1964,-5.3016,243.6641],[13.1761,-5.324,337.2115],[13.1777,-5.3328,330.6791],[13.1875,-5.3354,312.2792],[13.2013,-5.3358,261.8872],[13.211,-5.3448,255.9374],[13.2111,-5.3583,369.6486],[13.2078,-5.3661,493.9641],[13.1997,-5.3722,505.2464],[13.194,-5.3824,348.4176],[13.1981,-5.4039,351.7209],[13.199,-5.4174,310.4434],[13.2014,-5.4317,296.4705],[13.2055,-5.4437,331.2782],[13.212,-5.4565,463.9347],[13.2274,-5.4744,553.3564],[13.2323,-5.4832,480.5873],[13.2275,-5.4942,565.9208],[13.2096,-5.5199,358.7854],[13.204,-5.5308,334.3616],[13.2048,-5.5364,388.2643],[13.2081,-5.5412,412.9182],[13.2186,-5.5732,336.6645],[13.2049,-5.6061,263.3016],[13.2049,-5.6124,282.0637],[13.2374,-5.6133,260.9883],[13.2837,-5.609,366.5667],[13.2845,-5.6162,429.1288],[13.278,-5.658,389.1415],[13.2821,-5.6644,326.6073],[13.291,-5.6591,317.1148],[13.2999,-5.638,319.1414],[13.3105,-5.6288,375.2362],[13.3202,-5.629,368.4026],[13.356,-5.6347,318.5],[13.3625,-5.6405,259.5844],[13.3837,-5.6981,319.6432],[13.3837,-5.7068,376.0361],[13.3772,-5.7145,419.6283],[13.3764,-5.7256,330.0094],[13.3878,-5.7394,349.0981],[13.3976,-5.7737,253.9003],[13.3968,-5.784,204.4329],[13.3895,-5.7972,254.4364],[13.3903,-5.821,157.0054],[13.3717,-5.849,24.3424],[13.375,-5.8666,4.5],[13.3853,-5.8644,7.513],[13.3933,-5.8675,6.3309],[13.3987,-5.8669,11.5756],[13.399,-5.8688,7.9918],[13.4042,-5.8662,40.0748],[13.4158,-5.8654,5.0],[13.4262,-5.862,5.0]]]]}}