{"type": "Feature","bbox": [20.3554,3.5834,21.965,4.677],"geometry": {"type": "MultiPolygon","coordinates": [[[[21.3152,4.3095,379.0],[21.3001,4.3205,379.0],[21.2891,4.3345,378.5],[21.2822,4.3379,378.5],[21.279,4.338,381.8998],[21.2696,4.3328,391.0582],[21.257,4.332,399.7991],[21.251,4.329,379.092],[21.2419,4.3115,377.5],[21.2369,4.2954,381.4629],[21.2247,4.2884,377.5],[21.2211,4.2652,447.7164],[21.2171,4.2565,436.5082],[21.2111,4.251,424.5487],[21.2068,4.2491,416.0518],[21.1951,4.2498,426.7312],[21.1835,4.2527,487.8273],[21.1756,4.2581,430.856],[21.1717,4.2692,416.4582],[21.169,4.2937,384.5898],[21.1706,4.3071,376.5],[21.152,4.321,377.1049],[21.1189,4.3361,387.1082],[21.114,4.343,376.0],[21.1011,4.3704,391.3224],[21.075,4.392,375.5],[21.0566,4.3988,384.8583],[21.0603,4.3782,395.104],[21.0563,4.3685,411.1969],[21.0595,4.3485,401.8228],[21.0538,4.3413,398.3218],[21.0564,4.3349,400.7316],[21.0556,4.3153,402.7067],[21.057,4.3107,398.8108],[21.0647,4.3009,403.0703],[21.0691,4.2979,405.6649],[21.0689,4.2875,418.837],[21.0741,4.2777,414.8309],[21.0741,4.2708,426.0649],[21.0787,4.2662,438.5887],[21.0785,4.2602,435.9759],[21.0473,4.2206,450.2762],[21.0423,4.2076,464.4186],[21.0361,4.1998,564.6377],[20.9816,4.1512,447.9555],[20.9774,4.1496,469.4616],[20.9944,4.1835,408.2649],[20.9894,4.1793,429.0073],[20.9807,4.1786,422.0344],[20.9773,4.1762,428.2657],[20.9751,4.1679,420.0279],[20.9717,4.1652,421.1584],[20.9623,4.1623,426.804],[20.9588,4.1627,430.8027],[20.9549,4.1668,426.5058],[20.9526,4.1657,424.5789],[20.9504,4.1569,442.2124],[20.9539,4.1454,451.676],[20.9545,4.1374,447.1813],[20.9404,4.1268,451.823],[20.9371,4.1259,457.711],[20.9213,4.1108,502.0637],[20.9125,4.1059,493.1705],[20.9059,4.0994,490.4629],[20.9,4.104,452.886],[20.8919,4.0892,476.7246],[20.8837,4.0826,466.8646],[20.8794,4.0764,441.0266],[20.8646,4.0625,412.1633],[20.8607,4.0624,417.7505],[20.8572,4.0649,413.3156],[20.8204,4.0655,451.162],[20.8113,4.0676,433.4212],[20.8029,4.0725,435.5428],[20.7936,4.083,410.5339],[20.7919,4.0936,412.9894],[20.788,4.0981,403.443],[20.7888,4.1032,397.3831],[20.786,4.1154,403.5535],[20.79,4.1253,397.9336],[20.7893,4.1299,399.0356],[20.7833,4.1338,397.0453],[20.7789,4.1413,402.6306],[20.7726,4.1443,406.668],[20.7666,4.1557,395.5827],[20.7672,4.161,393.8551],[20.7628,4.1888,390.5702],[20.7645,4.2105,392.4731],[20.7631,4.216,392.1927],[20.7515,4.2281,388.539],[20.7519,4.2343,394.373],[20.7479,4.2407,395.0845],[20.7401,4.2676,385.5506],[20.7392,4.2726,388.8477],[20.7418,4.2833,386.8809],[20.7404,4.2895,393.5996],[20.7364,4.2963,387.5715],[20.7141,4.3042,395.0371],[20.7102,4.3078,392.4107],[20.6985,4.3252,391.8633],[20.704,4.3335,389.9749],[20.7035,4.3386,396.0235],[20.7002,4.3436,387.1363],[20.6922,4.3454,400.3107],[20.6756,4.357,386.4485],[20.6657,4.3604,388.0275],[20.6541,4.369,389.9492],[20.6459,4.3692,379.555],[20.6355,4.3721,379.5443],[20.6257,4.3876,377.7776],[20.624,4.402,375.3831],[20.6127,4.4016,375.5472],[20.6062,4.4034,375.2732],[20.5897,4.4112,372.5],[20.5552,4.4377,372.0],[20.5393,4.4397,372.0],[20.5329,4.4425,393.4147],[20.5087,4.4762,371.875],[20.5006,4.4805,371.5],[20.4896,4.4807,371.5],[20.4779,4.4855,371.5],[20.462,4.5029,373.2299],[20.4534,4.525,373.0925],[20.4503,4.545,373.6963],[20.4498,4.5641,371.0],[20.461,4.599,370.5],[20.461,4.606,378.6675],[20.453,4.627,370.0],[20.447,4.634,370.0],[20.4303,4.6475,369.625],[20.405,4.677,369.5],[20.3839,4.6434,384.1895],[20.382,4.6268,380.5665],[20.3789,4.6187,390.161],[20.3832,4.5966,390.4138],[20.3836,4.5856,391.77],[20.378,4.5641,409.4783],[20.3852,4.5499,414.9495],[20.3855,4.5287,393.3405],[20.3824,4.4695,391.2011],[20.3732,4.4476,389.582],[20.3768,4.4258,397.3593],[20.3713,4.3845,403.4388],[20.3678,4.3362,393.7103],[20.3622,4.3109,401.2604],[20.3603,4.2908,403.2826],[20.3622,4.2505,394.6808],[20.3615,4.1504,550.3862],[20.3596,4.1254,534.2826],[20.3599,4.1033,491.6636],[20.3554,4.0888,452.9779],[20.3601,4.0671,446.8275],[20.3615,3.9655,408.3599],[20.3742,3.9539,404.4688],[20.3816,3.9512,404.4522],[20.3904,3.9397,415.3878],[20.3996,3.9332,402.828],[20.4179,3.9161,401.2326],[20.4269,3.9125,398.7381],[20.4449,3.8988,389.6422],[20.4731,3.8735,387.5986],[20.4933,3.8645,383.651],[20.5013,3.8641,386.2337],[20.5115,3.8543,388.0337],[20.5191,3.8512,391.5347],[20.5424,3.8334,375.5531],[20.5626,3.8334,374.6639],[20.5773,3.8299,379.8429],[20.6017,3.8154,385.4578],[20.6114,3.8037,381.2151],[20.626,3.7923,378.261],[20.6423,3.7847,383.1932],[20.6492,3.7797,386.0868],[20.656,3.7671,387.6674],[20.662,3.7623,412.5207],[20.6727,3.7472,413.2863],[20.6739,3.7391,398.9142],[20.6813,3.733,422.8286],[20.6867,3.7211,397.8632],[20.6908,3.7158,381.0673],[20.6996,3.712,386.8213],[20.7237,3.7076,381.84],[20.7241,3.7053,369.6932],[20.7201,3.6967,367.8341],[20.723,3.677,378.5381],[20.7188,3.6661,377.1027],[20.7276,3.6558,371.5003],[20.7359,3.649,370.1588],[20.7614,3.6366,369.6181],[20.7677,3.6311,383.2411],[20.7751,3.6213,388.5401],[20.7796,3.607,367.0252],[20.7872,3.6021,365.8808],[20.7943,3.5934,370.9872],[20.8075,3.5845,374.9517],[20.8114,3.5834,378.3626],[20.8212,3.5851,388.272],[20.8207,3.592,374.8629],[20.83,3.602,363.2176],[20.83,3.6052,362.8502],[20.8221,3.6104,362.7994],[20.8217,3.613,365.7125],[20.8355,3.6267,365.7007],[20.8368,3.6356,368.374],[20.8393,3.6384,378.6176],[20.8498,3.6401,362.2476],[20.8655,3.6506,375.2787],[20.8673,3.6589,366.1239],[20.8666,3.6654,371.3112],[20.8619,3.6713,370.2244],[20.8653,3.6739,369.7946],[20.8722,3.671,378.2645],[20.8768,3.6777,376.7458],[20.8816,3.6775,380.9868],[20.8875,3.6821,370.6691],[20.8927,3.6826,373.8639],[20.8964,3.6859,379.2567],[20.9029,3.6995,374.394],[20.9073,3.718,375.0416],[20.9146,3.7243,380.5355],[20.9242,3.7271,383.2665],[20.9262,3.7327,390.7042],[20.9248,3.7398,391.2534],[20.9327,3.7548,381.6093],[20.9427,3.7644,377.3535],[20.9465,3.7655,391.4053],[20.9592,3.7636,387.3222],[20.9626,3.7673,381.7676],[20.9652,3.7758,393.6956],[20.968,3.7788,400.9524],[20.9741,3.7794,381.8719],[20.9805,3.7891,393.5522],[20.9873,3.7894,397.4939],[20.9929,3.7862,399.4519],[20.9981,3.7906,397.5917],[21.0024,3.7911,405.1763],[21.0089,3.7861,394.9566],[21.0176,3.7855,415.5343],[21.0192,3.788,419.5631],[21.0215,3.7883,424.0137],[21.0134,3.7963,395.1508],[21.0131,3.799,396.7989],[21.0172,3.8051,423.4844],[21.0187,3.8138,397.493],[21.0247,3.8157,417.8789],[21.0279,3.819,415.0374],[21.0345,3.8202,455.0967],[21.0374,3.8237,435.0753],[21.0365,3.8262,440.7196],[21.0317,3.8294,426.834],[21.036,3.8345,485.8427],[21.0364,3.8421,418.1509],[21.0384,3.8465,413.572],[21.0425,3.8497,437.3139],[21.0494,3.8507,408.3217],[21.0596,3.8623,431.2572],[21.0669,3.8596,407.7689],[21.0799,3.8659,406.8513],[21.0914,3.8679,409.7203],[21.0984,3.8769,422.8246],[21.1007,3.8776,455.9657],[21.1019,3.8716,413.1303],[21.1145,3.8662,411.0755],[21.1349,3.8639,437.3607],[21.1491,3.8658,441.6083],[21.159,3.8604,426.7357],[21.1647,3.8664,460.7826],[21.1713,3.8706,461.0329],[21.2153,3.8719,414.3046],[21.2194,3.875,422.0981],[21.2462,3.8789,409.5912],[21.2635,3.8686,407.2672],[21.2697,3.8627,411.6579],[21.2801,3.8575,411.1382],[21.2928,3.8454,415.622],[21.3036,3.8388,417.1698],[21.3093,3.8382,423.0968],[21.3282,3.8229,415.7401],[21.3329,3.8174,417.2218],[21.3617,3.8187,479.5222],[21.4036,3.8259,517.2395],[21.4744,3.8513,467.0565],[21.4741,3.8571,483.6119],[21.4759,3.8621,477.6581],[21.4839,3.8735,487.623],[21.4909,3.8795,489.63869999999997],[21.495,3.8878,477.6802],[21.4979,3.8899,478.6961],[21.5079,3.935,532.9738],[21.5147,3.9573,509.0909],[21.5206,3.9739,513.6999],[21.5263,3.9772,505.9486],[21.538,3.9764,503.9323],[21.568,3.9802,500.0002],[21.6229,3.9788,493.2565],[21.6799,3.9932,457.3421],[21.6875,3.9927,483.397],[21.7283,3.9832,480.1923],[21.7574,3.9794,470.2602],[21.767,3.974,479.9779],[21.7915,3.9747,456.2262],[21.8069,3.9716,442.3334],[21.8222,3.9706,453.9538],[21.8443,3.9759,463.6135],[21.8714,3.985,473.7786],[21.9106,4.0481,445.8933],[21.9273,4.0817,453.9735],[21.9459,4.1308,451.6906],[21.9583,4.1798,417.0906],[21.9589,4.19,423.2633],[21.9646,4.2125,420.0045],[21.965,4.2251,415.4858],[21.9547,4.224,389.1656],[21.9354,4.2327,419.511],[21.912,4.234,418.7872],[21.875,4.241,387.9913],[21.8592,4.24,403.2491],[21.8489,4.2451,400.6765],[21.8301,4.2588,389.211],[21.8168,4.2618,403.6976],[21.8046,4.27,388.4506],[21.794,4.2711,387.0276],[21.7718,4.2701,412.2219],[21.761,4.2772,390.7335],[21.752,4.2931,385.5],[21.7444,4.2997,385.5],[21.7345,4.3039,391.8831],[21.7211,4.303,414.0522],[21.704,4.2975,384.5],[21.6924,4.2998,409.3851],[21.683,4.2956,387.2569],[21.6768,4.2956,384.5],[21.6644,4.3068,384.0],[21.66,4.309,384.0],[21.651,4.309,398.8445],[21.642,4.303,393.4423],[21.624,4.285,388.1302],[21.5968,4.2723,383.7592],[21.5769,4.2541,382.5],[21.5648,4.2473,383.0483],[21.5519,4.2471,382.5],[21.495,4.258,381.5],[21.4686,4.2689,381.0],[21.46,4.269,381.0],[21.451,4.265,381.0],[21.4278,4.2607,380.5],[21.3991,4.2725,385.202],[21.3773,4.2775,380.0],[21.3514,4.2896,379.5],[21.3344,4.2939,379.5],[21.3241,4.3006,379.0],[21.3152,4.3095,379.0]]]]}
,"properties": {"GID_2": "COD.20.4_1","GID_0": "COD","country": "DemocraticRepublicoftheCongo","GID_1": "COD.20_1","province": "Nord-Ubangi","NL_NAME_1": "NA","county": "Mobayi-Mbongo","VARNAME_2": "NA","NL_NAME_2": "NA","TYPE_2": "Territoire","ENGTYPE_2": "Territory","CC_2": "NA","HASC_2": "NA","name": "Mobayi-Mbongo.county","area_km2": 8558.469,"hist_schema_id": "Elevation0-9000","hist_area_km2": {"350": 1.1,"375": 849.316,"400": 2489.36,"425": 1441.378,"450": 892.591,"475": 645.566,"500": 559.45,"525": 490.199,"550": 518.935,"575": 479.352,"600": 187.816,"625": 3.405}}}