{"type": "Feature","bbox": [20.834,-6.1417,21.9773,-5.0433],"geometry": {"type": "MultiPolygon","coordinates": [[[[21.6242,-5.3161,451.9768],[21.6124,-5.3281,412.7147],[21.6081,-5.3308,417.9341],[21.6023,-5.3312,423.9163],[21.5945,-5.3275,397.4169],[21.5824,-5.316,433.7778],[21.579,-5.3153,441.9884],[21.5714,-5.324,464.7682],[21.5647,-5.3398,411.6599],[21.5612,-5.3435,447.0381],[21.5495,-5.3437,401.4704],[21.5422,-5.3402,398.3058],[21.5378,-5.3273,396.2363],[21.5349,-5.3236,404.4009],[21.5165,-5.3106,465.4977],[21.5136,-5.3104,445.2801],[21.5066,-5.3177,400.6105],[21.492,-5.3149,395.2266],[21.4846,-5.3112,487.0179],[21.4752,-5.316,395.3167],[21.4695,-5.3167,396.0011],[21.463,-5.3139,387.75],[21.4576,-5.3088,410.7901],[21.4523,-5.309,481.7323],[21.4492,-5.3242,387.0],[21.4455,-5.3306,396.0576],[21.44,-5.331,391.5269],[21.4423,-5.3431,466.4044],[21.4393,-5.3561,465.1063],[21.4317,-5.3634,475.8255],[21.4226,-5.3659,491.4109],[21.4116,-5.3648,415.0983],[21.3991,-5.3575,416.2481],[21.389,-5.3403,390.448],[21.3835,-5.3377,394.9258],[21.3778,-5.3379,463.0322],[21.3676,-5.3424,389.8772],[21.3585,-5.3343,384.4031],[21.348,-5.321,386.5063],[21.3379,-5.3122,395.849],[21.3308,-5.3085,383.9879],[21.323,-5.3071,383.7655],[21.3182,-5.3039,430.692],[21.3139,-5.2944,388.2007],[21.307,-5.2898,409.1139],[21.3002,-5.2709,426.4174],[21.2869,-5.2782,385.3115],[21.283,-5.2773,387.5802],[21.2795,-5.274,399.0652],[21.2747,-5.265,399.6655],[21.2764,-5.2584,444.5425],[21.2626,-5.2625,400.8715],[21.2555,-5.2534,400.8418],[21.2535,-5.2438,383.267],[21.2503,-5.2387,396.1216],[21.2464,-5.2373,383.018],[21.2374,-5.238,385.8518],[21.234,-5.2345,402.1956],[21.2306,-5.2237,395.9584],[21.2246,-5.2193,459.6613],[21.2192,-5.194,393.0046],[21.2138,-5.1861,396.6727],[21.212,-5.1797,391.4936],[21.2064,-5.1787,379.5],[21.1973,-5.1807,379.9368],[21.1936,-5.1793,401.1728],[21.1851,-5.1692,411.1175],[21.1838,-5.1637,396.1456],[21.1845,-5.1524,382.7734],[21.1818,-5.1464,385.9108],[21.179,-5.1448,377.5],[21.1632,-5.144,379.3692],[21.1548,-5.1329,376.5],[21.1479,-5.1308,395.1277],[21.1426,-5.12,396.3243],[21.1356,-5.1126,394.7134],[21.1283,-5.0891,419.7739],[21.1302,-5.0817,394.9907],[21.1295,-5.0744,389.9501],[21.1245,-5.0619,390.6649],[21.1243,-5.0541,387.6686],[21.122,-5.0502,385.0632],[21.1115,-5.0433,374.0],[21.1046,-5.0501,374.5],[21.1032,-5.0577,373.627],[21.0997,-5.0621,375.0],[21.0904,-5.0977,376.5],[21.0902,-5.1021,377.0],[21.0954,-5.1127,417.3526],[21.0965,-5.1203,377.0],[21.0962,-5.1414,377.0],[21.0895,-5.1596,377.5],[21.0899,-5.1639,377.5],[21.0944,-5.1741,377.5],[21.0931,-5.1775,377.5],[21.0886,-5.1812,444.7093],[21.0882,-5.1849,378.0],[21.084,-5.1908,378.0],[21.0817,-5.215,379.5],[21.0727,-5.2287,380.5],[21.0719,-5.2324,380.5],[21.0797,-5.2416,399.6878],[21.0831,-5.2555,382.0],[21.0874,-5.2656,382.5],[21.0866,-5.2932,383.5],[21.0815,-5.3008,383.5],[21.0686,-5.3101,392.9246],[21.0691,-5.3152,384.0],[21.05,-5.3165,385.2246],[21.0461,-5.3181,391.3346],[21.0433,-5.3351,384.5],[21.0375,-5.3411,386.9013],[21.0263,-5.3442,395.7233],[21.0104,-5.3524,393.2047],[20.9993,-5.3639,389.8813],[20.9887,-5.3857,395.3463],[20.9827,-5.3937,431.0468],[20.9801,-5.4013,388.0482],[20.9824,-5.4087,394.0424],[20.981,-5.4485,462.4396],[20.9651,-5.4638,429.2886],[20.9491,-5.4692,496.4091],[20.9421,-5.4816,394.773],[20.9391,-5.4786,450.9525],[20.9377,-5.486,397.3033],[20.9297,-5.4896,463.6068],[20.9198,-5.4988,516.5967],[20.9107,-5.5125,401.0076],[20.9082,-5.5185,393.2034],[20.9125,-5.5337,391.5],[20.9102,-5.5434,392.0],[20.9176,-5.5629,469.53],[20.9208,-5.5807,454.4854],[20.9173,-5.5924,404.4398],[20.906,-5.5962,442.6653],[20.9026,-5.5992,396.375],[20.8927,-5.5973,401.4709],[20.8885,-5.5982,408.5345],[20.8792,-5.5922,466.4091],[20.8737,-5.5917,398.0],[20.8723,-5.5965,433.1126],[20.8621,-5.6034,453.2102],[20.857,-5.6222,425.7637],[20.8576,-5.6303,478.4695],[20.8617,-5.6404,452.7291],[20.8619,-5.6469,478.4862],[20.8647,-5.6512,451.038],[20.8651,-5.6574,475.4169],[20.8685,-5.6653,438.4101],[20.8671,-5.6736,430.2153],[20.8643,-5.6804,415.8976],[20.8581,-5.6859,404.3581],[20.8375,-5.7132,434.1861],[20.834,-5.7341,483.5351],[20.8429,-5.7367,487.6335],[20.8537,-5.7443,469.5043],[20.8597,-5.7437,471.0645],[20.8725,-5.7594,453.7596],[20.877,-5.769,452.398],[20.8935,-5.7763,509.6884],[20.894,-5.7818,443.462],[20.8983,-5.788,462.4172],[20.8976,-5.7935,448.5684],[20.8989,-5.799,476.7301],[20.9019,-5.8023,522.2098],[20.9111,-5.8053,468.5375],[20.9152,-5.8127,482.1479],[20.9257,-5.8162,523.0531],[20.9503,-5.8193,507.14],[20.9645,-5.8281,483.5327],[20.9681,-5.8433,527.8462],[20.9706,-5.8458,511.6088],[20.9747,-5.8597,468.8225],[20.9814,-5.865,491.1677],[20.976,-5.8728,483.118],[20.984,-5.8868,496.2596],[20.9856,-5.8935,469.9821],[20.9938,-5.9018,471.8251],[21.006,-5.9079,500.1026],[21.0165,-5.9166,483.444],[21.0223,-5.9194,513.3495],[21.0277,-5.9273,478.9142],[21.0328,-5.931,481.1639],[21.0403,-5.9443,498.5529],[21.0568,-5.9614,487.2653],[21.0767,-5.9703,539.7849],[21.0955,-5.9894,510.1028],[21.1033,-5.9945,548.1221],[21.1173,-5.9964,572.9449],[21.1269,-6.0018,555.0947],[21.1338,-6.0087,518.7762],[21.1385,-6.0232,569.6768],[21.1456,-6.0301,557.9844],[21.1465,-6.0389,582.1693],[21.1497,-6.0474,555.2157],[21.1552,-6.0545,555.5114],[21.1602,-6.0587,559.1487],[21.1653,-6.0599,557.0129],[21.174,-6.0739,553.9139],[21.1799,-6.076,623.9377],[21.1843,-6.0825,576.5664],[21.1882,-6.0832,565.1351],[21.1923,-6.0899,585.0383],[21.1957,-6.0904,586.1066],[21.1989,-6.0968,610.3603],[21.2051,-6.0982,612.5246],[21.2095,-6.1051,609.1956],[21.2131,-6.1075,583.7518],[21.2212,-6.1084,608.5411],[21.2296,-6.1137,596.4373],[21.234,-6.1137,628.9545],[21.2536,-6.1028,658.545],[21.2614,-6.1021,657.7574],[21.2711,-6.0923,662.0015],[21.2752,-6.09,653.0161],[21.2915,-6.0935,714.9874],[21.2975,-6.0977,687.172],[21.3147,-6.1017,635.4144],[21.3319,-6.1135,627.8465],[21.3372,-6.1144,649.4913],[21.3445,-6.1121,646.197],[21.3542,-6.1131,634.0067],[21.3871,-6.0902,651.6484],[21.3908,-6.0893,654.3468],[21.4025,-6.0956,605.2979],[21.4145,-6.0975,625.4608],[21.4241,-6.1012,602.2734],[21.4301,-6.1093,621.934],[21.4389,-6.1166,656.1793],[21.4562,-6.1275,673.3289],[21.525,-6.139,680.6959],[21.5441,-6.1394,650.0367],[21.5635,-6.1372,621.8308],[21.5712,-6.1414,629.0294],[21.5843,-6.1417,594.4211],[21.5883,-6.1389,586.4294],[21.5828,-6.1143,557.7855],[21.5787,-6.1055,594.1],[21.5866,-6.0885,544.5201],[21.5848,-6.086,557.5809],[21.58,-6.0862,593.2747],[21.579,-6.0843,586.316],[21.5843,-6.0786,553.3247],[21.5821,-6.0738,572.1516],[21.5832,-6.0678,571.3545],[21.5776,-6.0489,584.6235],[21.5787,-6.043,556.2807],[21.5732,-6.0333,543.4456],[21.5814,-6.0004,543.8155],[21.5826,-5.9777,550.5734],[21.5865,-5.9745,577.6768],[21.59,-5.965,544.0602],[21.5965,-5.9589,580.2498],[21.6016,-5.9467,574.3706],[21.6115,-5.941,545.9343],[21.6138,-5.9339,538.6156],[21.6172,-5.9339,568.0687],[21.6214,-5.9378,521.3643],[21.629,-5.9362,561.6622],[21.632,-5.9337,581.6583],[21.6375,-5.9234,572.5964],[21.6483,-5.9156,558.5045],[21.6578,-5.9,556.6368],[21.6638,-5.8947,587.3793],[21.665,-5.8763,605.6719],[21.6668,-5.8731,614.8334],[21.6755,-5.8672,618.8624],[21.6795,-5.8608,630.6349],[21.6903,-5.8215,602.7906],[21.6976,-5.8036,651.4633],[21.7139,-5.7963,594.7673],[21.7188,-5.7891,580.2417],[21.7371,-5.7739,576.8334],[21.7434,-5.7699,587.0539],[21.7504,-5.7697,550.8549],[21.751,-5.7771,573.5237],[21.7549,-5.7796,574.1033],[21.7517,-5.7916,605.6148],[21.7562,-5.8029,556.9692],[21.7638,-5.8091,558.4447],[21.7732,-5.8133,589.2892],[21.7792,-5.814,603.1754],[21.7812,-5.8161,581.2848],[21.7835,-5.8239,631.1191],[21.7869,-5.8264,605.5826],[21.7903,-5.8363,652.296],[21.8126,-5.8507,598.111],[21.8222,-5.8636,630.0895],[21.841,-5.8644,708.311],[21.8704,-5.8613,661.7405],[21.8782,-5.8589,622.6475],[21.8769,-5.853,643.3875],[21.8783,-5.8431,630.2974],[21.8751,-5.8293,641.5948],[21.8784,-5.8148,658.6303],[21.8809,-5.8134,657.6074],[21.8858,-5.8045,650.77],[21.8959,-5.7928,627.1707],[21.9074,-5.7756,611.4043],[21.9233,-5.7607,625.5907],[21.9365,-5.7517,607.3489],[21.9422,-5.7442,632.8684],[21.9522,-5.7194,626.5308],[21.9603,-5.6936,595.0018],[21.962,-5.6778,614.4862],[21.9675,-5.6569,611.5398],[21.9754,-5.638,589.9526],[21.9773,-5.6284,581.6059],[21.9743,-5.6042,533.0076],[21.9705,-5.5955,592.7271],[21.9611,-5.5883,567.0142],[21.9545,-5.5766,567.4869],[21.951,-5.5738,589.0618],[21.9441,-5.5717,521.4498],[21.9403,-5.565,525.4457],[21.9396,-5.5521,543.8677],[21.9323,-5.5381,531.6599],[21.9257,-5.5206,527.3829],[21.9168,-5.515,505.0103],[21.9044,-5.498,537.2126],[21.8932,-5.4917,485.2635],[21.8786,-5.4777,470.7159],[21.8742,-5.4712,448.7755],[21.8703,-5.4583,468.9727],[21.8616,-5.4444,423.9381],[21.8603,-5.4394,419.6444],[21.8525,-5.4329,419.1953],[21.8461,-5.4198,399.5073],[21.8468,-5.4152,485.187],[21.8296,-5.4199,510.2134],[21.822,-5.4261,488.0207],[21.8199,-5.4313,427.4805],[21.8244,-5.4395,400.6567],[21.8242,-5.4489,429.5307],[21.8207,-5.4519,423.4389],[21.8047,-5.4518,465.04],[21.7987,-5.4633,485.5948],[21.7941,-5.4654,440.9799],[21.7799,-5.4658,454.5101],[21.7666,-5.4682,408.8905],[21.7608,-5.4648,405.1761],[21.7587,-5.4581,442.5621],[21.759,-5.4473,398.8646],[21.7544,-5.442,402.6138],[21.748,-5.439,441.6668],[21.7319,-5.4375,399.5322],[21.7262,-5.4322,406.8792],[21.7152,-5.4324,399.942],[21.712,-5.4308,400.7376],[21.7049,-5.4204,440.7471],[21.6932,-5.4171,420.6966],[21.6903,-5.4146,429.5623],[21.6864,-5.3957,518.0342],[21.6829,-5.3953,502.153],[21.676,-5.3982,453.8468],[21.667,-5.3977,400.968],[21.6588,-5.3928,396.8318],[21.654,-5.386,489.0897],[21.6536,-5.3797,440.6531],[21.6564,-5.3719,495.881],[21.667,-5.3579,425.6565],[21.6636,-5.3407,424.7597],[21.6641,-5.3303,415.1476],[21.6593,-5.3248,401.0501],[21.653199999999998,-5.3239,416.1437],[21.6483,-5.3275,406.8477],[21.6416,-5.3256,394.5],[21.6285,-5.3173,419.3698],[21.6242,-5.3161,451.9768]]]]}
,"properties": {"GID_2": "COD.9.5_1","GID_0": "COD","country": "DemocraticRepublicoftheCongo","GID_1": "COD.9_1","province": "Kasaï","NL_NAME_1": "NA","county": "Luebo","VARNAME_2": "NA","NL_NAME_2": "NA","TYPE_2": "Territoire","ENGTYPE_2": "Territory","CC_2": "NA","HASC_2": "NA","name": "Luebo.county","area_km2": 8185.666,"hist_schema_id": "Elevation0-9000","hist_area_km2": {"375": 28.017,"400": 91.218,"425": 126.846,"450": 186.214,"475": 297.224,"500": 499.62,"525": 818.843,"550": 1140.821,"575": 1387.239,"600": 1405.341,"625": 1079.617,"650": 649.275,"675": 315.372,"700": 115.688,"725": 37.772,"750": 6.475,"775": 0.084}}}