{"type":"Feature","properties":{"GID_2":"COD.9.4_1","GID_0":"COD","country":"DemocraticRepublicoftheCongo","GID_1":"COD.9_1","province":"Kasaï","NL_NAME_1":"NA","county":"Kamonia","VARNAME_2":"NA","NL_NAME_2":"NA","TYPE_2":"Territoire","ENGTYPE_2":"Territory","CC_2":"NA","HASC_2":"NA","name":"Kamonia.county"},
"geometry":{"type": "MultiPolygon","coordinates": [[[[21.3116,-7.2787,675.9027],[21.4026,-7.2799,715.1054],[21.4871,-7.2872,819.2627],[21.6349,-7.279,834.2267],[21.7797,-7.2747,715.9413],[21.7875,-7.2611,694.7139],[21.7869,-7.2579,693.5482],[21.7832,-7.2538,692.2252],[21.7786,-7.2522,697.294],[21.7754,-7.2453,694.0092],[21.7611,-7.2457,697.5109],[21.7572,-7.244,723.9709],[21.7501,-7.2355,703.3434],[21.7483,-7.2295,693.3018],[21.7449,-7.2254,691.1105],[21.7345,-7.2194,722.5829],[21.7203,-7.1989,694.6321],[21.7148,-7.1979,703.2491],[21.7137,-7.1963,717.7986],[21.713,-7.1931,699.8405],[21.7148,-7.1885,695.3681],[21.7133,-7.1745,688.6254],[21.7076,-7.1642,693.3752],[21.7037,-7.1529,691.6906],[21.7017,-7.1356,685.5881],[21.6998,-7.1338,682.7095],[21.6955,-7.1342,690.4964],[21.6883,-7.1377,688.0219],[21.6842,-7.1347,692.87],[21.6807,-7.1351,697.1917],[21.672,-7.1234,692.0802],[21.6635,-7.1174,690.0916],[21.6618,-7.1105,700.8578],[21.6629,-7.1058,684.3442],[21.6617,-7.0907,682.9052],[21.6583,-7.0774,685.3544],[21.6536,-7.0697,705.4844],[21.6311,-7.0566,673.761],[21.6265,-7.0515,668.3896],[21.6214,-7.0517,648.0007],[21.6152,-7.0565,668.1833],[21.61,-7.0462,655.9186],[21.6072,-7.0438,651.4318],[21.6017,-7.0422,692.3719],[21.5982,-7.0383,663.7371],[21.5895,-7.0357,670.7136],[21.5905,-7.0289,668.8191],[21.5707,-7.0138,621.856],[21.5641,-7.0051,620.9073],[21.5542,-6.9986,640.8196],[21.5508,-6.9857,640.4349],[21.5471,-6.98,613.8252],[21.5439,-6.9774,604.625],[21.5414,-6.9779,614.1405],[21.5371,-6.9719,621.7864],[21.5332,-6.9645,621.8336],[21.532,-6.9565,609.7335],[21.5211,-6.942,623.0777],[21.5199,-6.9376,605.0138],[21.5117,-6.9302,607.0833],[21.5071,-6.9201,612.2103],[21.4959,-6.9106,609.2045],[21.4876,-6.8979,594.2092],[21.4826,-6.8972,605.7479],[21.4727,-6.8914,598.2611],[21.4562,-6.8868,586.8063],[21.4502,-6.8831,582.6685],[21.444,-6.8709,579.97],[21.4381,-6.8663,581.6925],[21.4369,-6.8623,577.0],[21.431,-6.8628,585.3483],[21.4275,-6.8609,579.5142],[21.4186,-6.8517,580.2761],[21.417,-6.8494,575.5273],[21.4161,-6.839,573.2452],[21.4048,-6.8406,579.9073],[21.4018,-6.839,584.6954],[21.4005,-6.8358,575.6591],[21.403,-6.8261,564.9568],[21.4104,-6.8195,604.5081],[21.4157,-6.8184,605.3623],[21.4217,-6.8103,636.3821],[21.4256,-6.809,617.916],[21.4431,-6.8109,640.8951],[21.4491,-6.8047,621.917],[21.459,-6.8075,638.1853],[21.464,-6.8064,662.3937],[21.4675,-6.8029,663.9579],[21.4724,-6.791,661.2233],[21.4802,-6.7867,675.261],[21.4853,-6.7807,670.6025],[21.5222,-6.7634,719.3954],[21.5399,-6.7591,711.5014],[21.5463,-6.7596,705.9896],[21.5516,-6.7543,732.9162],[21.5608,-6.753,718.1776],[21.5744,-6.7581,712.6129],[21.5819,-6.765,724.7066],[21.5989,-6.7584,724.5705],[21.6032,-6.7535,723.6611],[21.6055,-6.7465,752.1779],[21.6041,-6.7383,736.0316],[21.5993,-6.7323,699.4752],[21.5879,-6.7243,675.3331],[21.5821,-6.7168,718.5046],[21.5831,-6.7126,707.9758],[21.5877,-6.7108,698.5217],[21.5928,-6.7112,750.9736],[21.6178,-6.7284,689.8965],[21.62,-6.7264,684.5231],[21.6217,-6.7168,686.5721],[21.6205,-6.71,717.9515],[21.6141,-6.7,693.3508],[21.611,-6.69,671.6678],[21.6108,-6.684,673.7474],[21.6126,-6.6801,665.1852],[21.6168,-6.6781,682.4557],[21.6274,-6.679,703.2117],[21.6458,-6.6757,684.5683],[21.6684,-6.6631,775.3207],[21.7042,-6.6654,700.5727],[21.7109,-6.6611,684.6867],[21.7125,-6.6577,699.3632],[21.7074,-6.6552,683.7838],[21.7045,-6.6497,688.3464],[21.7008,-6.6483,682.1392],[21.6916,-6.6333,687.7063],[21.6797,-6.63,686.9484],[21.6724,-6.6236,687.1104],[21.6531,-6.6164,678.4838],[21.6457,-6.6094,658.1427],[21.6425,-6.6016,665.4604],[21.6393,-6.5988,663.1277],[21.6347,-6.5981,649.6555],[21.6279,-6.5891,657.7953],[21.6242,-6.5742,646.002],[21.6201,-6.5675,650.7015],[21.6132,-6.5615,659.8483],[21.6137,-6.5571,627.6008],[21.61,-6.5544,609.8161],[21.611,-6.5502,609.1807],[21.6083,-6.5394,606.9543],[21.6039,-6.5427,627.7556],[21.6032,-6.5465,638.5649],[21.599,-6.5509,638.1482],[21.5851,-6.5615,639.7814],[21.5718,-6.5756,678.7443],[21.5557,-6.5795,714.5403],[21.5485,-6.5766,700.0927],[21.5479,-6.5708,670.7499],[21.5519,-6.5652,670.0471],[21.5529,-6.5586,650.5198],[21.5525,-6.5488,650.1089],[21.5553,-6.5435,654.3757],[21.5672,-6.5324,633.5613],[21.5687,-6.5267,675.7208],[21.5669,-6.518,679.0168],[21.5456,-6.5105,718.2894],[21.5411,-6.5044,716.4297],[21.5399,-6.4858,693.8651],[21.5434,-6.4803,706.3357],[21.5531,-6.4764,699.9276],[21.5617,-6.4751,673.7567],[21.5833,-6.476,691.4476],[21.6055,-6.4723,600.3633],[21.5996,-6.461,613.3117],[21.601,-6.4557,601.6874],[21.5998,-6.4497,606.9278],[21.6035,-6.4436,597.9125],[21.6033,-6.4367,597.6256],[21.6075,-6.4259,592.7671],[21.6064,-6.4213,593.1544],[21.6115,-6.4139,595.1431],[21.6108,-6.4098,602.1732],[21.6135,-6.4059,600.9221],[21.6117,-6.3946,608.4757],[21.6161,-6.391,591.6595],[21.615,-6.3889,600.3062],[21.6194,-6.3735,626.1097],[21.6211,-6.3567,607.5845],[21.6172,-6.3434,593.3915],[21.6184,-6.3395,594.449],[21.6166,-6.3248,599.9683],[21.6141,-6.3215,596.2823],[21.6129,-6.3139,589.1047],[21.6079,-6.31,595.7218],[21.6088,-6.3068,584.726],[21.6031,-6.3003,612.3138],[21.6036,-6.2898,614.4612],[21.5993,-6.2842,610.0443],[21.5993,-6.2799,615.1417],[21.6034,-6.27,613.4745],[21.6014,-6.2658,577.912],[21.5952,-6.2621,579.3735],[21.5961,-6.2571,614.078],[21.5941,-6.2541,596.1177],[21.5895,-6.252,598.3507],[21.5884,-6.2474,586.0404],[21.5926,-6.2249,592.4293],[21.597,-6.2141,582.135],[21.5943,-6.204,604.3809],[21.5899,-6.2,565.0251],[21.589,-6.1966,616.9271],[21.5915,-6.1918,641.0428],[21.5957,-6.1897,591.0351],[21.5966,-6.1867,583.2557],[21.5904,-6.1771,579.7676],[21.5883,-6.1389,586.4294],[21.5843,-6.1417,594.4211],[21.5792,-6.1417,632.7189],[21.5712,-6.1414,629.0294],[21.5635,-6.1372,621.8308],[21.5441,-6.1394,650.0367],[21.525,-6.139,680.6959],[21.4562,-6.1275,673.3289],[21.4389,-6.1166,656.1793],[21.4301,-6.1093,621.934],[21.4241,-6.1012,602.2734],[21.4145,-6.0975,625.4608],[21.4025,-6.0956,605.2979],[21.3908,-6.0893,654.3468],[21.3871,-6.0902,651.6484],[21.3542,-6.1131,634.0067],[21.3445,-6.1121,646.197],[21.3372,-6.1144,649.4913],[21.3319,-6.1135,627.8465],[21.3147,-6.1017,635.4144],[21.2975,-6.0977,687.172],[21.2915,-6.0935,714.9874],[21.2752,-6.09,653.0161],[21.2711,-6.0923,662.0015],[21.2614,-6.1021,657.7574],[21.2536,-6.1028,658.545],[21.234,-6.1137,628.9545],[21.2296,-6.1137,596.4373],[21.2212,-6.1084,608.5411],[21.2131,-6.1075,583.7518],[21.2095,-6.1051,609.1956],[21.2051,-6.0982,612.5246],[21.1989,-6.0968,610.3603],[21.1957,-6.0904,586.1066],[21.1923,-6.0899,585.0383],[21.1882,-6.0832,565.1351],[21.1843,-6.0825,576.5664],[21.1799,-6.076,623.9377],[21.174,-6.0739,553.9139],[21.1653,-6.0599,557.0129],[21.1602,-6.0587,559.1487],[21.1552,-6.0545,555.5114],[21.1497,-6.0474,555.2157],[21.1465,-6.0389,582.1693],[21.1456,-6.0301,557.9844],[21.1385,-6.0232,569.6768],[21.1338,-6.0087,518.7762],[21.1269,-6.0018,555.0947],[21.1173,-5.9964,572.9449],[21.1033,-5.9945,548.1221],[21.0955,-5.9894,510.1028],[21.0767,-5.9703,539.7849],[21.0568,-5.9614,487.2653],[21.0403,-5.9443,498.5529],[21.0328,-5.931,481.1639],[21.0277,-5.9273,478.9142],[21.0223,-5.9194,513.3495],[21.0165,-5.9166,483.444],[21.006,-5.9079,500.1026],[20.9938,-5.9018,471.8251],[20.9856,-5.8935,469.9821],[20.984,-5.8868,496.2596],[20.976,-5.8728,483.118],[20.9814,-5.865,491.1677],[20.9747,-5.8597,468.8225],[20.9706,-5.8458,511.6088],[20.9681,-5.8433,527.8462],[20.9645,-5.8281,483.5327],[20.9503,-5.8193,507.14],[20.9257,-5.8162,523.0531],[20.9152,-5.8127,482.1479],[20.9111,-5.8053,468.5375],[20.9019,-5.8023,522.2098],[20.8989,-5.799,476.7301],[20.8976,-5.7935,448.5684],[20.8983,-5.788,462.4172],[20.894,-5.7818,443.462],[20.8935,-5.7763,509.6884],[20.877,-5.769,452.398],[20.8725,-5.7594,453.7596],[20.8597,-5.7437,471.0645],[20.8537,-5.7443,469.5043],[20.8429,-5.7367,487.6335],[20.834,-5.7341,483.5351],[20.8204,-5.7522,466.0825],[20.8141,-5.7531,425.2245],[20.8061,-5.7602,444.5806],[20.7987,-5.7595,410.5648],[20.7863,-5.7642,422.3861],[20.7801,-5.7638,470.9521],[20.7751,-5.7566,412.6786],[20.7694,-5.7517,424.7938],[20.7643,-5.7522,438.8424],[20.7585,-5.7574,410.0],[20.7495,-5.7813,411.5],[20.7453,-5.7845,444.5827],[20.7255,-5.7911,458.1036],[20.7175,-5.7973,473.6468],[20.7117,-5.8046,413.5],[20.7072,-5.8253,414.5],[20.6927,-5.8411,416.7114],[20.6825,-5.8484,418.8964],[20.6747,-5.8499,431.2987],[20.668,-5.8628,417.375],[20.6643,-5.8667,431.7023],[20.6618,-5.8664,435.3298],[20.6531,-5.8595,452.81],[20.6478,-5.8604,445.3624],[20.6443,-5.8668,429.6118],[20.6484,-5.8779,453.2773],[20.6449,-5.8859,419.5],[20.6276,-5.8885,441.1199],[20.6263,-5.8916,442.5838],[20.633,-5.8916,437.5459],[20.6333,-5.8935,428.3857],[20.6196,-5.8984,435.6845],[20.6068,-5.8862,479.6013],[20.5926,-5.8806,512.4286],[20.5853,-5.8734,525.5103],[20.5656,-5.8627,464.734],[20.5548,-5.8604,538.9437],[20.5484,-5.856,555.5521],[20.5433,-5.855,534.7079],[20.5399,-5.8417,516.6188],[20.5176,-5.8478,505.372],[20.4863,-5.8596,542.9321],[20.4645,-5.8611,543.2875],[20.4179,-5.8877,555.358],[20.4113,-5.8909,584.8943],[20.4009,-5.8931,555.8668],[20.3958,-5.8979,563.4645],[20.3843,-5.9016,611.9144],[20.3547,-5.9044,564.3043],[20.328,-5.8938,705.2286],[20.3156,-5.8947,639.3384],[20.3105,-5.8895,598.9594],[20.3101,-5.8638,597.3908],[20.2534,-5.8093,566.819],[20.2456,-5.8056,533.1564],[20.2375,-5.8053,547.2101],[20.1741,-5.8067,553.8517],[20.1667,-5.804,557.8923],[20.1571,-5.7957,543.4146],[20.1408,-5.7906,503.3253],[20.1241,-5.7875,458.5261],[20.1149,-5.7973,465.98],[20.1107,-5.815,437.5],[20.1124,-5.8336,438.5],[20.1092,-5.8373,443.7351],[20.0972,-5.84,525.9705],[20.0915,-5.8484,442.214],[20.085,-5.8502,453.1462],[20.079,-5.8541,486.6223],[20.0657,-5.8575,506.6772],[20.0558,-5.8565,482.5628],[20.0514,-5.859,526.9756],[20.0496,-5.8631,450.7928],[20.05,-5.8677,443.5],[20.0414,-5.8868,456.0599],[20.0343,-5.8936,504.1973],[20.0369,-5.9072,498.6125],[20.0335,-5.9127,446.0],[20.0265,-5.9182,525.6151],[20.0281,-5.9251,447.0],[20.0228,-5.9393,447.75],[20.0204,-5.9428,456.8428],[20.0128,-5.9434,489.0768],[20.0082,-5.9461,552.126],[20.0075,-5.9528,527.619],[20.004,-5.962,455.9246],[20.0,-5.9666,451.0],[19.9934,-5.9656,487.6034],[19.9865,-5.9718,515.0025],[19.9764,-5.9706,567.3086],[19.9739,-5.9726,555.4051],[19.9688,-5.9726,573.6555],[19.9604,-5.9884,523.8021],[19.9531,-5.9962,491.097],[19.9384,-5.9915,579.0375],[19.9303,-5.991,574.6107],[19.9188,-5.9971,553.2654],[19.9087,-5.9976,506.677],[19.9004,-6.0101,571.0216],[19.8857,-5.9958,595.9193],[19.8839,-5.9972,601.4084],[19.8854,-6.0078,595.1095],[19.884,-6.0114,574.8649],[19.8688,-6.0242,472.5186],[19.855,-6.0329,567.9028],[19.841,-6.033,575.3728],[19.8354,-6.0346,554.1876],[19.8324,-6.0376,545.5705],[19.8294,-6.0461,486.613],[19.8183,-6.0557,536.4785],[19.8151,-6.0565,514.0766],[19.81,-6.0659,558.9417],[19.8044,-6.0717,523.7992],[19.7902,-6.075,572.0482],[19.7843,-6.0851,582.3743],[19.7735,-6.0883,568.1132],[19.7634,-6.0995,571.0225],[19.7493,-6.1001,608.9485],[19.745,-6.1028,533.3269],[19.74,-6.1209,473.0],[19.7382,-6.1227,475.0369],[19.7283,-6.1234,506.4197],[19.7253,-6.1254,523.6164],[19.7197,-6.1406,519.0172],[19.7167,-6.1424,475.625],[19.7089,-6.1426,508.1285],[19.7061,-6.1449,510.3615],[19.6954,-6.1618,478.0],[19.6936,-6.1696,532.6447],[19.6974,-6.1802,540.8867],[19.6955,-6.1876,553.201],[19.69,-6.1951,480.5],[19.6864,-6.2126,523.4567],[19.6801,-6.2245,497.4148],[19.682,-6.2279,483.0],[19.687,-6.2291,547.5323],[19.689,-6.2333,553.0491],[19.6959,-6.2398,577.7223],[19.6955,-6.2495,549.9552],[19.697,-6.2554,492.0434],[19.6887,-6.2684,488.6396],[19.6879,-6.2733,526.0246],[19.6895,-6.2779,491.2254],[19.6977,-6.2855,556.9352],[19.6956,-6.2954,489.6693],[19.6873,-6.2956,496.856],[19.6859,-6.2995,542.6929],[19.6884,-6.3087,489.9662],[19.6842,-6.3172,499.7711],[19.6865,-6.3204,496.1151],[19.6906,-6.3218,550.5345],[19.6947,-6.3273,520.3597],[19.6873,-6.339,501.9711],[19.6896,-6.3434,527.6541],[19.6958,-6.3462,554.8218],[19.6969,-6.3487,541.861],[19.697,-6.3683,494.3899],[19.7011,-6.3821,512.8609],[19.7045,-6.3867,536.5649],[19.7035,-6.3911,495.875],[19.7067,-6.3959,502.5353],[19.7069,-6.4047,499.7288],[19.7096,-6.4097,533.6339],[19.7131,-6.4114,570.2062],[19.714,-6.4153,517.818],[19.7185,-6.4192,506.0697],[19.7203,-6.4257,508.132],[19.7185,-6.4351,498.9106],[19.7159,-6.4385,502.8706],[19.706,-6.4414,508.7284],[19.7048,-6.4472,502.4477],[19.7137,-6.4546,505.3159],[19.7152,-6.4767,551.1754],[19.7085,-6.484,504.6958],[19.7085,-6.4872,522.101],[19.7147,-6.4937,543.4102],[19.7165,-6.4978,558.6727],[19.7048,-6.4971,524.6133],[19.7038,-6.5,549.7255],[19.7086,-6.507,504.8687],[19.71,-6.5123,538.5954],[19.7081,-6.5164,588.5889],[19.7014,-6.5182,514.8927],[19.7016,-6.5216,524.075],[19.7073,-6.5313,591.774],[19.702,-6.5384,532.6946],[19.7024,-6.5476,524.3578],[19.7047,-6.552,508.7657],[19.7102,-6.5534,556.0717],[19.712,-6.5571,572.9742],[19.7088,-6.5608,565.0593],[19.7078,-6.5734,577.1356],[19.7096,-6.5808,528.5853],[19.7139,-6.5849,512.6612],[19.7162,-6.5937,535.1166],[19.7198,-6.5983,517.2751],[19.7223,-6.6066,561.6509],[19.7257,-6.6119,556.9156],[19.7342,-6.6152,523.0875],[19.736,-6.6216,523.625],[19.7403,-6.6271,518.3934],[19.7546,-6.6295,584.1142],[19.7566,-6.6385,589.396],[19.7598,-6.6406,583.8501],[19.7628,-6.6491,602.0683],[19.7696,-6.6561,549.6732],[19.7723,-6.6655,521.5124],[19.7774,-6.6651,592.78],[19.7796,-6.6699,583.2515],[19.787,-6.6743,584.1202],[19.7851,-6.6805,542.7488],[19.786,-6.6819,533.0129],[19.7957,-6.6859,595.6824],[19.8053,-6.6965,594.5233],[19.8119,-6.6992,618.2239],[19.8119,-6.7073,572.0466],[19.8176,-6.7069,586.7919],[19.8183,-6.711,609.201],[19.8155,-6.7168,608.9383],[19.818,-6.7198,596.2136],[19.8231,-6.7203,607.595],[19.8247,-6.7223,590.4182],[19.8267,-6.7345,613.3304],[19.8347,-6.7332,619.3632],[19.8365,-6.7369,576.6893],[19.8351,-6.7419,571.732],[19.8463,-6.756,635.4532],[19.8433,-6.7604,600.6426],[19.8458,-6.7627,618.8027],[19.8532,-6.7639,603.6115],[19.8559,-6.7717,603.4772],[19.8579,-6.7736,622.6904],[19.866,-6.7754,640.6566],[19.8763,-6.7877,596.9793],[19.8758,-6.7946,629.1745],[19.8774,-6.7969,637.1956],[19.8873,-6.7965,647.7795],[19.8881,-6.8013,595.7384],[19.887,-6.8043,561.1571],[19.89,-6.8062,606.6459],[19.8908,-6.8156,582.0562],[19.9003,-6.8172,661.8303],[19.903,-6.8212,641.6205],[19.9011,-6.8294,554.3573],[19.9075,-6.8426,575.2507],[19.9176,-6.8475,570.7101],[19.9306,-6.8581,619.6869],[19.931,-6.8634,558.1208],[19.9361,-6.8726,559.4002],[19.9376,-6.8933,587.1489],[19.9463,-6.8927,570.1064],[19.9446,-6.8998,609.2531],[19.9462,-6.903,574.9611],[19.9522,-6.906,572.4691],[19.9506,-6.9115,576.8663],[19.9537,-6.9246,582.0255],[19.9507,-6.9272,605.7516],[19.9493,-6.9334,582.0568],[19.9518,-6.9373,580.8401],[19.9596,-6.9389,580.3966],[19.9591,-6.9562,605.9104],[19.9641,-6.964,601.9683],[19.9622,-6.9686,635.2794],[19.9656,-6.9778,625.3926],[19.97,-6.982,593.8815],[19.9644,-6.9835,651.7333],[19.9628,-6.9856,660.3473],[19.9688,-6.9918,618.594],[19.9572,-6.9968,646.4882],[19.9558,-6.9994,635.1744],[20.1237,-6.998,754.5386],[20.2847,-6.9991,713.8462],[20.3017,-6.998,617.1783],[20.3037,-6.9952,633.2595],[20.3037,-6.989,617.2207],[20.3016,-6.9811,667.2843],[20.3089,-6.9718,665.0251],[20.312,-6.9545,640.8402],[20.3112,-6.9487,617.154],[20.3142,-6.9385,608.446],[20.3155,-6.9382,613.2379],[20.3152,-6.928,611.0195],[20.3505,-6.9262,734.6086],[20.4292,-6.9294,770.3879],[20.4782,-6.9275,693.7261],[20.4885,-6.9313,668.6747],[20.4954,-6.9315,666.934],[20.5039,-6.9272,674.0145],[20.5221,-6.9241,648.9509],[20.5343,-6.9198,653.4108],[20.5465,-6.9189,655.6863],[20.6104,-6.9265,640.7017],[20.6213,-6.9317,576.8205],[20.6199,-6.9754,569.4812],[20.6123,-6.9842,599.2554],[20.6099,-6.9901,576.5829],[20.5955,-6.9978,654.7733],[20.5895,-7.006,619.1659],[20.5801,-7.0356,619.8781],[20.5754,-7.0599,673.7849],[20.5753,-7.0696,664.8179],[20.5673,-7.0888,652.6382],[20.5567,-7.1028,638.4805],[20.5516,-7.1126,686.2288],[20.5446,-7.141,608.6981],[20.5451,-7.1606,622.8358],[20.5425,-7.1919,674.8229],[20.544,-7.2066,673.6854],[20.5388,-7.2286,681.0161],[20.5388,-7.2346,703.8248],[20.5417,-7.2449,676.5173],[20.5435,-7.2815,665.7069],[20.815,-7.2804,659.7104],[20.8217,-7.2933,664.0683],[21.2052,-7.2842,735.4536],[21.2038,-7.2788,715.7955],[21.3116,-7.2787,675.9027]],
[[20.8281,-6.4564,470.6298],[20.7959,-6.4539,531.6774],[20.7806,-6.4472,472.2138],[20.7684,-6.4314,548.5335],[20.7668,-6.4141,533.8406],[20.7745,-6.3987,471.1332],[20.7822,-6.389,440.3298],[20.8123,-6.3722,566.6402],[20.825,-6.3701,551.4301],[20.8388,-6.3722,574.3652],[20.8521,-6.3793,596.3728],[20.8608,-6.386,633.364],[20.8664,-6.4033,607.9442],[20.8674,-6.4141,587.2908],[20.8649,-6.436,572.494],[20.8603,-6.4452,546.061],[20.8531,-6.4513,540.4692],[20.8434,-6.4544,467.1673],[20.8281,-6.4564,470.6298]]]]}}