{"type": "Feature","bbox": [29.1889,0.0606,29.3653,0.2147],"geometry": {"type": "MultiPolygon","coordinates": [[[[29.1889,0.1685,1736.7988],[29.2035,0.1586,1820.3074],[29.2051,0.1448,1821.9819],[29.2113,0.1183,1726.3254],[29.2289,0.1067,1814.7993],[29.2347,0.0997,1513.0568],[29.238,0.091,1651.475],[29.2425,0.0901,1653.7617],[29.248,0.0853,1680.3518],[29.2546,0.0851,1725.7517],[29.2621,0.0965,1664.333],[29.2637,0.1039,1705.2278],[29.2674,0.1071,1704.4441],[29.2715,0.108,1741.2701],[29.2786,0.0972,1706.4004],[29.2925,0.0836,1712.8799],[29.294,0.0797,1752.1123],[29.2924,0.0726,1745.049],[29.2949,0.0659,1744.964],[29.3029,0.0606,1742.0818],[29.3611,0.0674,1958.3186],[29.3523,0.0983,1841.5972],[29.3611,0.1013,1844.0394],[29.3653,0.1104,1838.296],[29.3587,0.1293,1795.3201],[29.3528,0.1411,1805.8091],[29.3487,0.1652,1763.2847],[29.3419,0.1776,1741.1338],[29.3316,0.1916,1764.9948],[29.3135,0.2001,1692.4226],[29.3029,0.2006,1802.4448],[29.2838,0.1939,1871.8876],[29.2738,0.2055,1941.8254],[29.2699,0.2125,1951.8994],[29.2604,0.2147,1842.1238],[29.2487,0.2134,1754.0994],[29.2307,0.2085,1672.92],[29.2261,0.1851,1887.5444],[29.2195,0.1763,1913.3724],[29.2125,0.1756,1825.6997],[29.1964,0.1789,1716.4213],[29.1889,0.1685,1736.7988]]]]}
,"properties": {"GID_2": "COD.19.2_1","GID_0": "COD","country": "DemocraticRepublicoftheCongo","GID_1": "COD.19_1","province": "Nord-Kivu","NL_NAME_1": "NA","county": "Butembo","VARNAME_2": "NA","NL_NAME_2": "NA","TYPE_2": "Ville","ENGTYPE_2": "Town","CC_2": "NA","HASC_2": "NA","name": "Butembo.county","area_km2": 208.8623,"hist_schema_id": "Elevation0-9000","hist_area_km2": {"1475": 0.1696,"1500": 0.2544,"1525": 0.318,"1550": 0.3816,"1575": 0.4664,"1600": 0.424,"1625": 0.7633,"1650": 1.2509,"1675": 3.7952,"1700": 12.3608,"1725": 27.0963,"1750": 33.3722,"1775": 28.6441,"1800": 19.2939,"1825": 16.8981,"1850": 15.6896,"1875": 13.2725,"1900": 11.9368,"1925": 8.7353,"1950": 5.7246,"1975": 4.3676,"2000": 2.7563,"2025": 0.8693,"2050": 0.0212}}}