{"type":"Feature","properties":{"GID_2":"COD.3.3_1","GID_0":"COD","country":"DemocraticRepublicoftheCongo","GID_1":"COD.3_1","province":"Haut-Katanga","NL_NAME_1":"NA","county":"Kipushi","VARNAME_2":"NA","NL_NAME_2":"NA","TYPE_2":"Territoire","ENGTYPE_2":"Territory","CC_2":"NA","HASC_2":"NA","name":"Kipushi.county"},
"geometry":{"type": "MultiPolygon","coordinates": [[[[27.2629,-11.7985,1349.218],[27.2626,-11.7988,1349.218],[27.2628,-11.7988,1349.218],[27.2629,-11.7985,1349.218]]],
[[[27.2055,-11.5502,1404.6562],[27.2058,-11.5603,1407.5835],[27.209,-11.566,1407.7083],[27.2147,-11.5903,1389.5002],[27.2166,-11.5932,1388.8428],[27.218,-11.6054,1386.771],[27.2222,-11.6169,1370.8918],[27.2215,-11.6261,1382.7316],[27.2283,-11.637,1383.8872],[27.2269,-11.6481,1391.7155],[27.2284,-11.6591,1392.3867],[27.2367,-11.6804,1387.1946],[27.2358,-11.6852,1386.0223],[27.2318,-11.6865,1383.1504],[27.2273,-11.6935,1373.9739],[27.233,-11.7116,1371.5846],[27.2325,-11.7155,1371.0098],[27.2272,-11.7235,1368.3491],[27.2274,-11.7339,1367.2982],[27.2443,-11.7333,1344.2555],[27.2507,-11.7362,1318.7335],[27.2618,-11.746,1304.0325],[27.27,-11.7575,1319.5657],[27.2747,-11.7719,1309.9526],[27.2706,-11.7892,1337.5579],[27.2679,-11.7936,1343.9335],[27.2923,-11.803,1329.4877],[27.2981,-11.8094,1333.698],[27.3063,-11.8153,1325.5061],[27.3273,-11.8276,1317.1796],[27.3404,-11.8277,1326.834],[27.34,-11.8376,1301.1221],[27.3527,-11.8465,1329.672],[27.3749,-11.855,1330.9927],[27.3802,-11.8656,1313.3889],[27.3969,-11.8712,1325.3782],[27.3989,-11.8753,1332.0662],[27.3988,-11.8829,1327.7266],[27.4001,-11.8853,1321.9539],[27.4074,-11.8887,1318.7506],[27.4157,-11.8888,1335.0519],[27.4212,-11.8911,1341.2681],[27.4383,-11.9098,1328.8746],[27.4566,-11.9199,1329.9795],[27.4688,-11.9306,1335.6721],[27.4768,-11.9467,1331.7751],[27.4688,-11.9695,1332.7968],[27.4663,-11.9797,1330.6216],[27.4679,-11.9888,1327.3444],[27.4617,-12.0054,1336.9038],[27.4623,-12.0219,1329.7695],[27.4636,-12.0269,1328.5178],[27.4672,-12.0316,1327.0222],[27.4677,-12.0357,1326.1588],[27.465,-12.0373,1326.0669],[27.4664,-12.0403,1330.3033],[27.4652,-12.0424,1330.9126],[27.469,-12.0448,1329.8909],[27.4681,-12.0491,1327.0389],[27.472,-12.0535,1329.3652],[27.4752,-12.0537,1328.9117],[27.4839,-12.0481,1339.4766],[27.496,-12.0565,1342.7345],[27.4953,-12.0705,1361.873],[27.5013,-12.074,1349.8322],[27.5023,-12.0789,1349.5892],[27.511,-12.0891,1329.8831],[27.5092,-12.0987,1336.9541],[27.5118,-12.1069,1336.9698],[27.5102,-12.1219,1330.3555],[27.5132,-12.1347,1335.6206],[27.5198,-12.1481,1336.9446],[27.5237,-12.1614,1330.2504],[27.5348,-12.1778,1334.9139],[27.5471,-12.1829,1331.5234],[27.5537,-12.19,1332.8225],[27.5589,-12.1989,1327.4784],[27.5618,-12.1995,1325.7302],[27.5679,-12.205,1322.3472],[27.5732,-12.2074,1320.6724],[27.5898,-12.2057,1327.6006],[27.5986,-12.2144,1323.7848],[27.6064,-12.2155,1328.3691],[27.6129,-12.2185,1331.1226],[27.6162,-12.2223,1331.0483],[27.6171,-12.2269,1326.9984],[27.6171,-12.2336,1323.3676],[27.6143,-12.2393,1351.4496],[27.6289,-12.2561,1333.4108],[27.6226,-12.2646,1331.8853],[27.6224,-12.2682,1333.0568],[27.6283,-12.2709,1339.0173],[27.635,-12.2703,1350.1608],[27.6399,-12.2762,1367.95],[27.6509,-12.2848,1404.6289],[27.6577,-12.2853,1402.3727],[27.6591,-12.2837,1403.6421],[27.6625,-12.2855,1403.8362],[27.673,-12.283,1408.4146],[27.6714,-12.2724,1352.7444],[27.6722,-12.2625,1313.2168],[27.6761,-12.2585,1306.3889],[27.684,-12.2554,1302.3217],[27.7072,-12.2341,1272.1901],[27.7094,-12.2257,1287.8228],[27.7218,-12.2142,1271.6338],[27.7236,-12.2094,1257.3906],[27.7137,-12.1944,1251.4178],[27.7103,-12.1869,1265.9346],[27.7106,-12.1795,1260.7358],[27.7063,-12.1717,1242.6733],[27.6982,-12.1654,1237.0354],[27.6895,-12.1513,1230.6938],[27.6862,-12.1346,1226.496],[27.6872,-12.13,1227.4138],[27.6971,-12.1201,1220.4261],[27.7092,-12.1142,1217.2609],[27.711,-12.1114,1224.8645],[27.7142,-12.0842,1210.1851],[27.7227,-12.061,1206.0317],[27.7287,-12.0607,1212.1028],[27.737,-12.0654,1208.0848],[27.7433,-12.0662,1205.1948],[27.7479,-12.0599,1198.0142],[27.7546,-12.0586,1199.4441],[27.7601,-12.0521,1188.8378],[27.7578,-12.0415,1183.1943],[27.753,-12.0352,1186.6865],[27.7476,-12.0316,1182.9829],[27.757,-12.0238,1171.0205],[27.7583,-12.0187,1180.4036],[27.7573,-12.0123,1186.6671],[27.7597,-12.0033,1166.4226],[27.771,-11.9967,1175.9648],[27.7788,-11.9878,1163.1792],[27.7871,-11.9819,1147.8081],[27.7923,-11.962,1151.8322],[27.7957,-11.9589,1140.6304],[27.8086,-11.9566,1147.5836],[27.8097,-11.9532,1150.4315],[27.7986,-11.9363,1140.2386],[27.7681,-11.9072,1138.3733],[27.7718,-11.9023,1150.1143],[27.7727,-11.8892,1134.9849],[27.7814,-11.8805,1133.8235],[27.7801,-11.872,1134.8965],[27.783,-11.8651,1132.2111],[27.789,-11.8606,1132.2375],[27.7964,-11.8593,1130.6021],[27.7993,-11.8533,1134.4362],[27.8026,-11.8518,1135.196],[27.808,-11.8522,1133.4729],[27.8104,-11.8568,1131.5276],[27.8146,-11.8578,1131.8147],[27.8277,-11.8555,1129.2054],[27.8306,-11.8529,1131.2408],[27.8355,-11.8372,1133.8387],[27.841,-11.8325,1134.1797],[27.8708,-11.8158,1129.853],[27.8733,-11.8121,1130.3264],[27.8725,-11.8084,1129.9756],[27.8671,-11.8056,1131.7543],[27.8634,-11.7964,1129.1677],[27.8606,-11.7937,1127.335],[27.8623,-11.7882,1134.4451],[27.8676,-11.7825,1131.8826],[27.8821,-11.774,1136.6143],[27.8898,-11.7743,1130.9922],[27.8899,-11.778,1130.4661],[27.8872,-11.7801,1132.7533],[27.8933,-11.7825,1133.4016],[27.9016,-11.7925,1129.6976],[27.9056,-11.794,1131.3586],[27.9178,-11.7936,1132.6183],[27.9365,-11.8079,1132.5557],[27.9419,-11.8083,1133.5011],[27.9474,-11.8047,1134.7963],[27.9499,-11.7992,1126.7223],[27.954,-11.797,1138.0758],[27.9572,-11.8052,1128.2179],[27.9596,-11.807,1131.3713],[27.9661,-11.8065,1126.7733],[27.9748,-11.7957,1126.1028],[27.9804,-11.7942,1122.5497],[27.9895,-11.7851,1127.3679],[27.9944,-11.7843,1133.4512],[27.9952,-11.7866,1127.7494],[27.9927,-11.7915,1127.6035],[27.9935,-11.7963,1128.076],[27.9992,-11.8012,1125.0253],[28.0135,-11.7911,1126.0499],[28.015,-11.7639,1126.1361],[28.024,-11.758,1119.5402],[28.0263,-11.7545,1130.2708],[28.0429,-11.7497,1120.7235],[28.0832,-11.7503,1162.038],[28.0991,-11.752,1155.7844],[28.1125,-11.7567,1154.0875],[28.1329,-11.7566,1156.9799],[28.1458,-11.7633,1183.0435],[28.1691,-11.7708,1179.6943],[28.1839,-11.771,1167.9956],[28.1925,-11.7678,1171.2576],[28.1927,-11.7533,1157.9753],[28.2024,-11.7493,1162.1919],[28.3173,-11.7429,1099.7942],[28.3292,-11.7543,1092.2229],[28.3596,-11.8106,1128.3374],[28.3758,-11.8556,1135.6243],[28.4196,-11.9356,1100.7345],[28.428,-11.9602,1111.1779],[28.436,-11.9649,1120.1602],[28.4699,-11.9663,1105.7368],[28.4847,-11.9613,1078.9154],[28.483,-11.9563,1079.1814],[28.4883,-11.9452,1076.8678],[28.4896,-11.9394,1075.1383],[28.4883,-11.9323,1073.136],[28.4927,-11.9218,1074.6787],[28.4905,-11.9175,1072.5239],[28.4764,-11.9118,1069.9065],[28.4774,-11.9049,1065.8008],[28.4741,-11.893,1065.3405],[28.4772,-11.8849,1058.5544],[28.4814,-11.8848,1055.4576],[28.4885,-11.8876,1067.7814],[28.5097,-11.8835,1056.2046],[28.5056,-11.8811,1048.4608],[28.5044,-11.873,1053.8015],[28.5057,-11.8534,1061.1248],[28.4973,-11.8371,1056.8271],[28.4934,-11.8334,1054.8893],[28.4804,-11.8326,1047.4609],[28.4742,-11.8392,1057.3218],[28.4675,-11.8413,1059.3331],[28.4629,-11.8401,1053.6727],[28.4569,-11.8298,1058.7629],[28.4508,-11.825,1053.9243],[28.4479,-11.8196,1051.0151],[28.4483,-11.8138,1060.9495],[28.4533,-11.7978,1067.0],[28.464,-11.7827,1062.0344],[28.465,-11.7773,1058.3323],[28.4596,-11.7604,1061.1395],[28.4404,-11.7354,1046.542],[28.4298,-11.7281,1049.2897],[28.4295,-11.7237,1054.9321],[28.4421,-11.7156,1085.0294],[28.4462,-11.7113,1084.0986],[28.4487,-11.7035,1069.6804],[28.445,-11.6973,1085.4694],[28.4331,-11.6883,1059.5039],[28.4289,-11.6829,1073.8047],[28.4287,-11.6775,1071.1991],[28.4404,-11.6568,1058.8137],[28.4398,-11.6496,1055.8088],[28.4335,-11.6372,1049.8914],[28.4294,-11.6323,1053.3738],[28.4164,-11.6243,1042.5],[28.4071,-11.6141,1054.4108],[28.3935,-11.5933,1053.3455],[28.3916,-11.5797,1050.2002],[28.3939,-11.5514,1070.6638],[28.4039,-11.5036,1062.5686],[28.4046,-11.4853,1078.1116],[28.4077,-11.4759,1065.2241],[28.4262,-11.4584,1050.8866],[28.4285,-11.454,1055.4353],[28.4315,-11.4357,1074.5869],[28.44,-11.4198,1056.5062],[28.4358,-11.3963,1049.4846],[28.4369,-11.3907,1059.6028],[28.4402,-11.3861,1059.2283],[28.4511,-11.3825,1052.7357],[28.46,-11.3761,1053.1353],[28.464,-11.3682,1062.1068],[28.465,-11.3579,1063.9169],[28.4638,-11.3484,1048.5251],[28.4579,-11.3361,1038.2736],[28.456,-11.3258,1054.9082],[28.4575,-11.3135,1038.3833],[28.4615,-11.3035,1038.5439],[28.4665,-11.2975,1040.0232],[28.4784,-11.2915,1063.0892],[28.4804,-11.2871,1051.2299],[28.4798,-11.2752,1043.0083],[28.4825,-11.2656,1039.6398],[28.4907,-11.2544,1047.8544],[28.494,-11.246,1039.845],[28.4952,-11.2364,1036.9117],[28.4907,-11.2277,1032.8799],[28.489,-11.2191,1030.314],[28.4896,-11.2087,1028.0447],[28.5042,-11.1728,1046.4304],[28.505,-11.1556,1036.9895],[28.5007,-11.1408,1021.2892],[28.4936,-11.1332,1021.4043],[28.4846,-11.1174,1028.0513],[28.4827,-11.1112,1030.5134],[28.4836,-11.1045,1034.0447],[28.498,-11.0859,1038.5302],[28.5002,-11.0801,1045.0677],[28.5023,-11.0532,1017.6145],[28.5138,-11.0324,1021.0198],[28.518,-11.0188,1020.0304],[28.513,-10.999,1013.0],[28.5121,-10.9853,1013.0],[28.5146,-10.979,1016.0836],[28.5461,-10.9486,1021.9651],[28.5489,-10.9337,1015.3079],[28.5495,-10.9106,1013.2869],[28.5461,-10.8708,1017.0605],[28.5499,-10.8539,1009.0],[28.5551,-10.8459,1015.1218],[28.5609,-10.8313,1020.7869],[28.5801,-10.815,1013.9786],[28.5825,-10.7998,1008.0],[28.5859,-10.7934,1020.324],[28.6061,-10.7755,1021.2144],[28.6121,-10.7395,1016.7236],[28.6165,-10.732,1019.779],[28.6223,-10.7271,1019.2999],[28.6307,-10.7245,1019.525],[28.6515,-10.722,1008.063],[28.6582,-10.7191,1014.8228],[28.642,-10.7156,1017.0888],[28.6304,-10.7153,1004.7906],[28.6183,-10.7185,1011.5597],[28.6101,-10.7258,1007.084],[28.6063,-10.7373,1005.5],[28.6076,-10.7585,1006.75],[28.6035,-10.7677,1007.0],[28.5983,-10.7754,1007.5],[28.5823,-10.7924,1008.0],[28.5767,-10.807,1027.3613],[28.5608,-10.821,1008.0],[28.5535,-10.8324,1008.125],[28.5471,-10.8521,1009.0],[28.5445,-10.8666,1009.5],[28.5452,-10.8995,1011.5],[28.5407,-10.9472,1013.0],[28.5236,-10.9637,1021.4197],[28.516,-10.9583,1018.4607],[28.5014,-10.9609,1027.1681],[28.4975,-10.9647,1029.0013],[28.4964,-10.976,1027.0952],[28.4945,-10.9783,1028.9822],[28.4894,-10.9778,1027.4515],[28.4866,-10.9866,1026.2219],[28.4838,-10.9873,1027.6942],[28.4803,-10.9858,1029.4446],[28.4793,-10.984,1028.7262],[28.4808,-10.9775,1033.3206],[28.4769,-10.9787,1031.1207],[28.4689,-10.9994,1029.0696],[28.4653,-11.0036,1031.3981],[28.457,-11.0065,1038.0598],[28.4515,-11.0119,1034.4454],[28.4505,-11.0209,1039.7222],[28.4485,-11.0242,1038.3837],[28.4445,-11.0247,1033.1686],[28.4417,-11.022,1037.7864],[28.4384,-11.0214,1035.1614],[28.4334,-11.0268,1033.7898],[28.4271,-11.0258,1034.7795],[28.4217,-11.0217,1041.0013],[28.4164,-11.0133,1045.5491],[28.4053,-11.0198,1036.5483],[28.3997,-11.0206,1037.9875],[28.3931,-11.0166,1040.6255],[28.3906,-11.0187,1041.0552],[28.3885,-11.0286,1047.5189],[28.3867,-11.0303,1045.5706],[28.3813,-11.0292,1041.7218],[28.3782,-11.0258,1050.1987],[28.3749,-11.0264,1049.1482],[28.3635,-11.0367,1048.6663],[28.3582,-11.0366,1053.9941],[28.3541,-11.0332,1044.2468],[28.3502,-11.0338,1045.8531],[28.3457,-11.0401,1054.5635],[28.3592,-11.0485,1064.4845],[28.3694,-11.0572,1078.7639],[28.3962,-11.0673,1059.9246],[28.3997,-11.0842,1077.167],[28.3643,-11.1446,1106.7808],[28.345,-11.162,1123.1477],[28.3136,-11.1945,1144.1199],[28.2982,-11.2349,1158.0966],[28.2906,-11.2609,1153.5067],[28.2808,-11.2639,1157.6182],[28.2537,-11.2661,1171.4581],[28.2426,-11.275,1177.8462],[28.2262,-11.2927,1138.9303],[28.177,-11.3681,1111.1316],[28.1656,-11.3718,1102.6536],[28.1539,-11.3619,1114.8561],[28.1464,-11.3532,1117.8323],[28.1369,-11.324,1131.7244],[28.1261,-11.3121,1133.5437],[28.1193,-11.2716,1147.7246],[28.1217,-11.2505,1160.8506],[28.1145,-11.245,1161.3184],[28.0642,-11.237,1188.5078],[28.0217,-11.2232,1178.5928],[28.0155,-11.2265,1173.6661],[28.0119,-11.2346,1166.4205],[28.009,-11.2956,1126.0717],[27.9916,-11.2985,1142.0663],[27.9857,-11.2922,1148.4463],[27.974,-11.2908,1139.6168],[27.9645,-11.2827,1140.3228],[27.9542,-11.2813,1130.6865],[27.9483,-11.2761,1141.723],[27.9418,-11.2668,1138.9741],[27.9233,-11.2621,1138.1287],[27.9083,-11.2833,1140.4065],[27.9017,-11.2896,1141.7744],[27.8959,-11.2899,1140.6704],[27.8765,-11.2742,1149.0969],[27.8712,-11.2653,1165.0208],[27.8641,-11.2627,1173.3541],[27.8588,-11.2665,1157.7432],[27.853,-11.2657,1156.3987],[27.8377,-11.2586,1158.8293],[27.8305,-11.2583,1160.4954],[27.8219,-11.2619,1167.5378],[27.8158,-11.2733,1184.6566],[27.8122,-11.2761,1184.0175],[27.7928,-11.2774,1173.2625],[27.783,-11.2854,1187.3938],[27.769,-11.2863,1182.0906],[27.7536,-11.2958,1201.1901],[27.7417,-11.2995,1196.9823],[27.7311,-11.3052,1203.9326],[27.7253,-11.3062,1200.3289],[27.7194,-11.3038,1198.2462],[27.7154,-11.2999,1197.8575],[27.7077,-11.2856,1212.49],[27.704,-11.2751,1216.1072],[27.6997,-11.2715,1216.5413],[27.6927,-11.2707,1209.5299],[27.6862,-11.2731,1212.3364],[27.6789,-11.27,1207.4847],[27.6636,-11.2707,1213.3884],[27.6539,-11.2633,1226.7407],[27.6319,-11.2621,1236.2633],[27.626,-11.2541,1245.0125],[27.5969,-11.26,1247.4858],[27.5791,-11.2555,1252.6343],[27.5648,-11.2509,1265.6031],[27.5505,-11.2415,1275.3298],[27.541,-11.2274,1293.2523],[27.5309,-11.2455,1285.6805],[27.5225,-11.2501,1309.7871],[27.512,-11.2511,1329.3079],[27.4844,-11.2444,1346.0328],[27.4535,-11.2587,1339.3727],[27.4224,-11.2829,1346.8187],[27.392,-11.2879,1325.598],[27.3773,-11.2972,1332.9552],[27.3344,-11.3486,1362.4512],[27.3178,-11.379,1405.3892],[27.3051,-11.3939,1412.6729],[27.3007,-11.4119,1379.4327],[27.2896,-11.4201,1398.4611],[27.2608,-11.4298,1427.7886],[27.2437,-11.4576,1452.5106],[27.2367,-11.4746,1413.6809],[27.235,-11.4864,1412.17],[27.2186,-11.5065,1421.1812],[27.2118,-11.5106,1394.7142],[27.2049,-11.5193,1402.825],[27.2055,-11.5502,1404.6562]],
[[27.5273,-11.5342,1259.4771],[27.5347,-11.5196,1247.9307],[27.5437,-11.5125,1227.1893],[27.5441,-11.4955,1216.9711],[27.5591,-11.4816,1236.4689],[27.5772,-11.4929,1238.2983],[27.5691,-11.5117,1271.7966],[27.6361,-11.5238,1220.0262],[27.608,-11.5794,1275.8881],[27.5937,-11.6236,1265.2122],[27.5922,-11.6424,1285.5939],[27.6139,-11.6433,1232.3838],[27.628,-11.6415,1238.6969],[27.6032,-11.6791,1275.8064],[27.558,-11.6838,1238.2799],[27.5473,-11.7176,1198.6013],[27.5579,-11.7326,1199.9714],[27.5629,-11.743,1195.6561],[27.5466,-11.7815,1226.4183],[27.5215,-11.8068,1263.0188],[27.5076,-11.8181,1272.3336],[27.4974,-11.8303,1274.9304],[27.4625,-11.8303,1275.1521],[27.4454,-11.8237,1265.7899],[27.4354,-11.7965,1288.7184],[27.3968,-11.7984,1274.4019],[27.3898,-11.7815,1253.033],[27.3821,-11.7711,1257.9067],[27.3426,-11.7786,1262.0424],[27.327,-11.7505,1254.6962],[27.3117,-11.6903,1321.2969],[27.3,-11.6659,1313.9949],[27.3004,-11.6405,1298.5828],[27.3338,-11.6076,1293.6844],[27.3701,-11.5775,1258.8622],[27.3967,-11.5869,1253.2319],[27.4082,-11.5935,1252.1147],[27.4173,-11.5757,1255.9756],[27.4186,-11.5456,1299.0959],[27.4269,-11.5315,1352.2975],[27.4465,-11.5211,1332.4733],[27.4906,-11.5377,1280.1101],[27.4984,-11.5347,1275.2975],[27.504,-11.5349,1270.6987],[27.5171,-11.5395,1256.2014],[27.5273,-11.5342,1259.4771]]]]}}