{"type": "Feature","bbox": [16.1783,-3.179,16.7137,-2.1246],"geometry": {"type": "MultiPolygon","coordinates": [[[[16.1989,-2.2037,282.0],[16.1915,-2.225,282.0],[16.1897,-2.2729,281.5],[16.1852,-2.3199,281.0],[16.1843,-2.3829,280.5],[16.1891,-2.4238,280.0],[16.2092,-2.5166,279.0],[16.2349,-2.6032,277.5],[16.2374,-2.6248,277.0],[16.2357,-2.6565,276.5],[16.2329,-2.6688,276.25],[16.2277,-2.6828,276.0],[16.2067,-2.7264,276.0],[16.2027,-2.7463,276.0],[16.2055,-2.7837,276.0],[16.2044,-2.7929,276.0],[16.2004,-2.8105,276.0],[16.1851,-2.8527,275.5],[16.1802,-2.875,275.0],[16.179,-2.928,274.0],[16.1824,-2.9571,274.0],[16.1905,-2.9773,274.0],[16.1945,-2.9999,274.0],[16.1953,-3.016,274.0],[16.1824,-3.0696,273.5],[16.1783,-3.1021,273.5],[16.1803,-3.1375,273.25],[16.191,-3.179,273.0],[16.2094,-3.1626,277.0424],[16.2206,-3.1482,273.5],[16.2246,-3.1298,274.0],[16.2338,-3.119,278.599],[16.2578,-3.115,274.5],[16.2859,-3.104,291.9919],[16.3035,-3.1003,291.7881],[16.3284,-3.0859,299.3462],[16.3353,-3.0841,330.8891],[16.3648,-3.0856,276.0],[16.3735,-3.0816,276.0],[16.3952,-3.0666,276.5],[16.419,-3.0658,283.787],[16.4298,-3.0757,282.9385],[16.441,-3.0765,294.3347],[16.4495,-3.0825,296.8495],[16.4562,-3.0827,285.0353],[16.4664,-3.0675,277.5],[16.4767,-3.0559,277.75],[16.4835,-3.0531,278.0],[16.4934,-3.0519,278.0],[16.5117,-3.0578,278.0],[16.525,-3.055,278.5],[16.5426,-3.0591,278.5],[16.5589,-3.0576,280.1602],[16.5808,-3.038,279.0],[16.5934,-3.0377,279.5],[16.6142,-3.0321,280.7079],[16.6243,-3.0291,280.2891],[16.6366,-3.0226,280.0],[16.6608,-3.0197,282.8699],[16.684,-3.0217,280.5],[16.6947,-3.0251,280.5],[16.7078,-3.0228,281.0],[16.7137,-3.0186,283.9002],[16.7091,-3.0112,291.097],[16.7063,-3.003,300.0281],[16.7073,-2.9751,301.9526],[16.711,-2.9668,299.4923],[16.7116,-2.9595,307.7185],[16.7069,-2.9314,312.0629],[16.6968,-2.9176,309.4615],[16.6922,-2.9066,326.3059],[16.6648,-2.8835,321.9327],[16.6579,-2.8764,313.0729],[16.6501,-2.8633,323.4076],[16.6472,-2.8449,316.4769],[16.6317,-2.8068,342.6958],[16.6236,-2.7755,369.487],[16.6084,-2.7533,396.5878],[16.598,-2.7464,368.1833],[16.595,-2.7428,358.0419],[16.5932,-2.737,364.3122],[16.5922,-2.7168,407.7155],[16.5814,-2.7085,414.9503],[16.5695,-2.7056,404.5537],[16.5401,-2.6891,418.6332],[16.527,-2.6729,433.2275],[16.5134,-2.6591,440.8299],[16.4978,-2.6543,464.2337],[16.4955,-2.6511,486.4733],[16.4964,-2.6458,458.9431],[16.5074,-2.6325,439.6574],[16.5122,-2.632,434.1795],[16.5197,-2.6255,434.9816],[16.5302,-2.6229,420.3679],[16.5368,-2.6171,427.4158],[16.5379,-2.6135,419.05],[16.5368,-2.6068,435.0984],[16.5516,-2.5881,411.4237],[16.554,-2.5794,403.692],[16.5534,-2.5673,428.8752],[16.5261,-2.5316,432.8451],[16.5195,-2.5099,421.8619],[16.5229,-2.4858,421.7274],[16.5341,-2.4645,437.1898],[16.5362,-2.455,436.4495],[16.5349,-2.4429,435.1059],[16.5316,-2.4276,416.8829],[16.5263,-2.4219,435.4047],[16.513,-2.4207,420.9456],[16.4749,-2.4403,447.0215],[16.4598,-2.4442,441.879],[16.4556,-2.4431,456.1822],[16.4401,-2.4123,356.091],[16.4393,-2.4059,371.8429],[16.4441,-2.3854,366.458],[16.4456,-2.3702,357.8871],[16.4569,-2.3465,331.463],[16.4622,-2.3389,339.156],[16.464,-2.3303,345.5773],[16.4584,-2.3184,341.7921],[16.4472,-2.3088,348.0508],[16.4435,-2.3005,355.7729],[16.4406,-2.2817,345.4284],[16.4433,-2.2651,328.0448],[16.4405,-2.2584,319.4843],[16.4343,-2.2502,325.3167],[16.4322,-2.241,322.3035],[16.434,-2.2201,318.2989],[16.4314,-2.2051,309.6818],[16.4137,-2.1748,294.5543],[16.4127,-2.1583,292.6768],[16.4106,-2.1537,297.9878],[16.4035,-2.1507,293.3736],[16.4003,-2.1452,294.5559],[16.3714,-2.1366,292.6565],[16.3575,-2.1378,288.9436],[16.3468,-2.1367,291.1845],[16.3309,-2.1287,285.3756],[16.3021,-2.1302,285.0539],[16.292,-2.1247,283.6544],[16.2891,-2.1246,283.9904],[16.2856,-2.1324,284.6869],[16.275,-2.1466,302.7935],[16.2553,-2.1924,343.2],[16.2413,-2.2078,338.4949],[16.2291,-2.2109,284.6241],[16.1989,-2.2037,282.0]]]]}
,"properties": {"GID_2": "COD.16.1_1","GID_0": "COD","country": "DemocraticRepublicoftheCongo","GID_1": "COD.16_1","province": "Mai-Ndombe","NL_NAME_1": "NA","county": "Bolobo","VARNAME_2": "NA","NL_NAME_2": "NA","TYPE_2": "Territoire","ENGTYPE_2": "Territory","CC_2": "NA","HASC_2": "NA","name": "Bolobo.county","area_km2": 4052.26,"hist_schema_id": "Elevation0-9000","hist_area_km2": {"275": 281.121,"300": 303.754,"325": 436.1,"350": 351.947,"375": 208.083,"400": 224.755,"425": 436.193,"450": 632.676,"475": 737.852,"500": 332.08,"525": 90.842,"550": 16.707,"575": 0.148}}}