{"type":"Feature","properties":{"GID_2":"COD.8.1_1","GID_0":"COD","country":"DemocraticRepublicoftheCongo","GID_1":"COD.8_1","province":"Kasaï-Oriental","NL_NAME_1":"NA","county":"Kabeya-Kamwanga","VARNAME_2":"NA","NL_NAME_2":"NA","TYPE_2":"Territoire","ENGTYPE_2":"Territory","CC_2":"NA","HASC_2":"NA","name":"Kabeya-Kamwanga.county"},
"geometry":{"type": "MultiPolygon","coordinates": [[[[23.1412,-6.3593,719.4108],[23.1444,-6.3549,723.6762],[23.1437,-6.3515,723.8619],[23.1463,-6.3473,707.9163],[23.1463,-6.34,710.6484],[23.1511,-6.3361,714.4659],[23.1557,-6.3352,704.9947],[23.1585,-6.3322,697.2874],[23.1527,-6.3239,696.3135],[23.1509,-6.3138,702.297],[23.1528,-6.3057,693.5507],[23.1516,-6.3002,700.1658],[23.1588,-6.2848,699.5763],[23.1572,-6.2798,696.9536],[23.1586,-6.2726,716.1171],[23.1622,-6.268,697.1578],[23.162,-6.2644,711.437],[23.1692,-6.2515,686.248],[23.168,-6.2501,686.6682],[23.1637,-6.2503,691.2603],[23.1616,-6.248,691.5359],[23.1607,-6.2395,684.4818],[23.1653,-6.2343,655.4865],[23.1678,-6.2221,690.6656],[23.1722,-6.2157,639.0848],[23.1747,-6.215,631.2629],[23.1791,-6.2168,628.2719],[23.1842,-6.2159,642.029],[23.1895,-6.2109,649.0024],[23.1908,-6.204,650.1712],[23.1892,-6.1975,593.5837],[23.1858,-6.1922,601.2611],[23.1858,-6.1872,598.2393],[23.1904,-6.1738,586.5782],[23.1957,-6.1757,574.2378],[23.2033,-6.1697,586.7811],[23.2019,-6.1686,575.3049],[23.1953,-6.1704,605.4955],[23.1937,-6.1688,615.7023],[23.1987,-6.1647,573.5195],[23.1957,-6.1624,590.0358],[23.2038,-6.1564,568.6524],[23.2031,-6.1543,589.3671],[23.199,-6.155,598.047],[23.1971,-6.1527,598.8079],[23.2022,-6.1483,585.673],[23.2022,-6.1435,589.4973],[23.2096,-6.1286,580.7506],[23.2153,-6.1245,594.5432],[23.2174,-6.1192,566.536],[23.214,-6.1164,566.0767],[23.2128,-6.11,558.5656],[23.2059,-6.11,589.1521],[23.2052,-6.1088,577.9658],[23.2078,-6.1044,558.9096],[23.2032,-6.0998,561.5177],[23.205,-6.0982,559.3176],[23.2105,-6.0987,559.8245],[23.2121,-6.0966,561.225],[23.2117,-6.0939,568.3596],[23.2041,-6.0918,600.8228],[23.2039,-6.0899,606.1309],[23.2108,-6.0888,560.7062],[23.2122,-6.087,554.184],[23.211,-6.0844,557.6123],[23.2041,-6.084,580.4214],[23.2032,-6.0826,596.3144],[23.2129,-6.0805,566.6764],[23.2108,-6.0771,556.8521],[23.2124,-6.0739,564.6697],[23.2165,-6.0741,558.6185],[23.2184,-6.0808,564.4565],[23.2221,-6.0824,554.5862],[23.225,-6.087,556.9346],[23.2271,-6.0852,560.3756],[23.2255,-6.081,594.9709],[23.2262,-6.078,583.8758],[23.2287,-6.0762,560.4332],[23.2315,-6.0767,552.7146],[23.2326,-6.0785,556.2419],[23.2317,-6.0819,563.5018],[23.2349,-6.087,569.3583],[23.2321,-6.0948,562.3839],[23.2338,-6.0951,557.2698],[23.2416,-6.0852,554.1149],[23.2388,-6.0838,572.1116],[23.2379,-6.0813,563.2379],[23.2506,-6.0735,556.8965],[23.2414,-6.0723,558.3824],[23.2405,-6.0705,565.1006],[23.2455,-6.0666,570.4337],[23.2469,-6.0634,560.2184],[23.246,-6.0599,549.5417],[23.2407,-6.0603,563.3766],[23.2384,-6.0583,577.3318],[23.2437,-6.0555,557.8528],[23.2549,-6.0565,573.0798],[23.2563,-6.053,592.1004],[23.2612,-6.0484,547.3404],[23.2506,-6.0445,573.021],[23.2492,-6.0408,567.7523],[23.2504,-6.0339,539.7919],[23.2605,-6.0287,581.4716],[23.2669,-6.0284,527.8588],[23.2778,-6.0158,552.2174],[23.2863,-6.0085,508.8682],[23.2858,-6.0062,491.6208],[23.2826,-6.0052,523.4081],[23.2801,-6.0013,547.497],[23.2856,-5.9931,494.0211],[23.2803,-5.9889,570.0018],[23.2909,-5.9784,483.2052],[23.2948,-5.9827,489.4629],[23.3017,-5.9837,507.7487],[23.304,-5.9883,538.7332],[23.3086,-5.9915,509.4774],[23.3166,-6.0028,517.6242],[23.3221,-6.0053,529.5195],[23.3297,-6.0044,542.3865],[23.3352,-6.0102,536.5356],[23.3382,-6.0109,534.4474],[23.3423,-6.0205,575.7898],[23.3421,-6.0299,557.6856],[23.346,-6.0327,550.4627],[23.3501,-6.0447,586.716],[23.3572,-6.0557,583.7597],[23.3551,-6.0645,610.9408],[23.3567,-6.0725,602.8389],[23.3641,-6.0775,580.9293],[23.3726,-6.0757,599.4211],[23.3814,-6.0793,605.5015],[23.4014,-6.0826,685.814],[23.4085,-6.0858,699.4957],[23.4322,-6.108,761.5739],[23.4398,-6.108,730.7388],[23.4399,-6.0973,710.8682],[23.4426,-6.0869,695.7466],[23.4587,-6.0734,669.969],[23.4778,-6.061,675.2627],[23.4811,-6.0557,634.2829],[23.4811,-6.0481,624.1722],[23.4783,-6.0435,601.1494],[23.4714,-6.0377,620.3093],[23.4705,-6.0313,586.8184],[23.4678,-6.0267,584.8474],[23.4618,-6.0267,579.4521],[23.4593,-6.0239,566.1022],[23.456,-6.0235,575.4995],[23.4517,-6.0175,557.6052],[23.4381,-6.0152,586.391],[23.4365,-6.0133,570.2655],[23.4368,-6.0073,548.9816],[23.4317,-6.0064,573.9857],[23.4338,-6.0025,544.4391],[23.4306,-5.9974,546.6947],[23.4241,-5.9949,563.4879],[23.4212,-5.9905,541.2794],[23.4131,-5.9868,547.8376],[23.4081,-5.9779,554.513],[23.4053,-5.9638,539.2426],[23.4058,-5.9556,536.799],[23.4083,-5.951,540.3606],[23.415,-5.948,540.8627],[23.4152,-5.945,544.5988],[23.4095,-5.933,541.6162],[23.4091,-5.9284,530.6366],[23.4134,-5.9229,509.3504],[23.4185,-5.9052,528.729],[23.4158,-5.8944,501.1325],[23.4098,-5.8948,537.3014],[23.4087,-5.8868,509.3358],[23.4121,-5.8643,517.4658],[23.4096,-5.8475,538.9792],[23.406,-5.8357,507.1623],[23.4009,-5.8376,525.9178],[23.4018,-5.8295,510.6455],[23.3991,-5.8265,545.3016],[23.3986,-5.8217,546.173],[23.4007,-5.8141,542.9684],[23.4138,-5.804,503.7675],[23.4106,-5.7983,500.532],[23.4129,-5.7895,488.7932],[23.4102,-5.7854,488.9415],[23.4026,-5.7861,473.1268],[23.398,-5.7819,473.1779],[23.3946,-5.7833,461.3426],[23.3815,-5.7695,463.0624],[23.3822,-5.7681,463.0624],[23.3884,-5.7683,468.7361],[23.3939,-5.7605,461.8699],[23.3918,-5.7574,457.8582],[23.3922,-5.7545,465.3255],[23.3964,-5.7513,472.2712],[23.3937,-5.7463,476.0276],[23.401,-5.7362,465.909],[23.4006,-5.7338,500.7209],[23.4075,-5.7304,474.2405],[23.413,-5.7316,450.5659],[23.4144,-5.7288,469.1356],[23.4125,-5.7249,451.3098],[23.4096,-5.7233,459.9488],[23.4102,-5.7215,469.9973],[23.4181,-5.7159,474.7661],[23.4158,-5.7097,475.7613],[23.4169,-5.7065,492.1375],[23.4222,-5.7031,476.8536],[23.4264,-5.6966,472.8102],[23.4124,-5.7063,503.5738],[23.4024,-5.7078,522.911],[23.3944,-5.7138,480.4013],[23.3815,-5.7138,493.0272],[23.3657,-5.7241,474.3552],[23.3588,-5.723,481.6968],[23.3531,-5.7252,482.7939],[23.3342,-5.7241,486.3743],[23.3317,-5.7268,482.4487],[23.3207,-5.7257,487.2284],[23.3064,-5.731,515.8228],[23.2908,-5.7403,519.7179],[23.282,-5.7417,538.1854],[23.205,-5.7384,607.2722],[23.1015,-5.7277,667.8664],[23.0786,-5.7297,618.5969],[23.0746,-5.7351,628.259],[23.075,-5.7403,638.7919],[23.0837,-5.7466,656.9795],[23.0837,-5.7502,661.2236],[23.0826,-5.7601,673.4154],[23.0779,-5.7701,622.0037],[23.0729,-5.7729,627.7828],[23.065,-5.7743,668.4001],[23.0347,-5.7747,688.2944],[23.0069,-5.7784,658.2018],[22.9805,-5.7797,723.4711],[22.9765,-5.7821,721.0624],[22.9553,-5.8187,682.6254],[22.9509,-5.8311,662.0179],[22.9502,-5.8412,667.9552],[22.9669,-5.8607,661.4823],[22.9782,-5.8692,664.5419],[22.9864,-5.8819,691.1068],[22.9878,-5.8865,676.7749],[22.9864,-5.8908,712.4165],[22.9659,-5.9225,714.4807],[22.9542,-5.9361,691.6047],[22.9486,-5.948,699.036],[22.9518,-5.9827,713.6644],[22.9586,-5.9917,716.1649],[22.9632,-6.0058,724.7521],[22.974,-6.0189,725.7714],[22.9763,-6.0253,744.4104],[22.9754,-6.0285,746.3884],[22.9553,-6.0441,737.7662],[22.9546,-6.054,766.3656],[22.956,-6.0651,778.1355],[22.9642,-6.0756,756.3809],[22.9718,-6.0809,754.4019],[22.9959,-6.0915,694.4883],[23.0101,-6.1031,669.535],[23.004,-6.1266,692.0188],[23.0042,-6.1528,706.5427],[23.0053,-6.1607,756.2245],[23.0086,-6.1658,707.2255],[23.0138,-6.1701,776.9033],[23.02,-6.172,751.5989],[23.0418,-6.1735,755.7585],[23.0685,-6.1814,705.293],[23.0831,-6.1906,690.2189],[23.0835,-6.1934,677.3109],[23.0722,-6.2081,695.5659],[23.0674,-6.2102,708.6936],[23.0662,-6.2299,696.6282],[23.0602,-6.2488,708.9121],[23.0538,-6.2541,713.4465],[23.0644,-6.2932,740.3439],[23.0675,-6.3317,776.5973],[23.0712,-6.3481,763.0794],[23.0772,-6.3538,766.8948],[23.0826,-6.3564,752.5847],[23.0858,-6.3565,755.8175],[23.0943,-6.3495,762.2576],[23.0998,-6.347,738.3785],[23.1072,-6.3475,742.6502],[23.1161,-6.3523,725.3682],[23.1292,-6.353,717.5573],[23.1412,-6.3593,719.4108]]]]}}