{"type":"Feature","properties":{"GID_2":"COD.2.5_1","GID_0":"COD","country":"DemocraticRepublicoftheCongo","GID_1":"COD.2_1","province":"Équateur","NL_NAME_1":"NA","county":"Bomongo","VARNAME_2":"NA","NL_NAME_2":"NA","TYPE_2":"Territoire","ENGTYPE_2":"Territory","CC_2":"NA","HASC_2":"NA","name":"Bomongo.county"},
"geometry":{"type": "MultiPolygon","coordinates": [[[[18.1014,-0.1866,318.9142],[18.1104,-0.1756,321.5626],[18.1181,-0.1601,301.9248],[18.1194,-0.1484,302.5728],[18.1304,-0.1307,302.7719],[18.1443,-0.1184,311.2075],[18.1499,-0.1106,312.5826],[18.1529,-0.105,320.7386],[18.1575,-0.0823,317.3939],[18.1625,-0.0685,311.1599],[18.1788,-0.0523,314.461],[18.1796,-0.0443,303.7631],[18.183,-0.0378,298.0],[18.1892,-0.0334,316.1497],[18.1968,-0.0239,298.0],[18.2039,-0.0214,317.9296],[18.22,-0.0089,309.7354],[18.2209,-0.0061,309.4885],[18.2163,0.0,314.4903],[18.2208,0.0,311.5824],[18.2284,0.0121,310.8336],[18.2352,0.0188,310.6818],[18.2367,0.0248,313.1294],[18.236,0.0305,316.6387],[18.2386,0.0347,323.5805],[18.2484,0.0412,321.2333],[18.2691,0.0617,308.2061],[18.2741,0.0636,305.7293],[18.2837,0.0637,305.9172],[18.2891,0.0693,303.8092],[18.2893,0.0877,301.0221],[18.2854,0.0931,304.0715],[18.2818,0.103,311.1681],[18.2834,0.1069,300.7753],[18.2863,0.1074,303.5101],[18.284,0.114,305.1879],[18.2827,0.1455,317.1514],[18.2923,0.2012,319.6196],[18.2983,0.2102,318.4369],[18.3009,0.2277,318.092],[18.3051,0.237,308.3898],[18.3029,0.2516,315.7775],[18.3047,0.2677,313.2233],[18.3136,0.291,300.0],[18.3235,0.3378,305.3176],[18.3183,0.3522,300.0],[18.3177,0.3619,310.7078],[18.3203,0.3791,309.8824],[18.3223,0.3837,312.4468],[18.3279,0.3893,312.4583],[18.3312,0.3969,300.5],[18.3318,0.4071,300.5],[18.3417,0.4154,320.819],[18.3453,0.4244,311.7276],[18.3527,0.4314,315.4814],[18.3551,0.4443,314.5181],[18.3616,0.4538,314.235],[18.3629,0.4603,317.5859],[18.3621,0.4674,320.6902],[18.3562,0.4823,328.6812],[18.3564,0.4869,320.8654],[18.3595,0.4947,320.9777],[18.358,0.503,304.5813],[18.3596,0.5078,302.3521],[18.3558,0.516,301.0],[18.3571,0.5236,301.0],[18.3561,0.5296,301.0],[18.359,0.5581,301.5],[18.3653,0.5858,302.5],[18.3657,0.6262,309.582],[18.3697,0.6348,303.5],[18.3694,0.6426,304.0],[18.3668,0.6467,306.0547],[18.3566,0.6406,303.75],[18.332,0.618,331.2265],[18.3243,0.6149,327.7393],[18.2938,0.5886,325.7155],[18.2795,0.5804,326.4722],[18.171,0.4894,321.4341],[18.1728,0.6656,321.3867],[18.2488,0.8104,330.1908],[18.2866,0.8888,329.7744],[18.3821,1.0535,328.8313],[18.451,1.1639,329.1333],[18.5324,1.286,333.7354],[18.6084,1.4048,336.4842],[18.6313,1.4444,333.7843],[18.686,1.5012,332.8291],[18.768,1.5615,340.0405],[18.8464,1.613,339.3054],[19.1144,1.7811,340.5414],[19.255,1.8867,342.8382],[19.3374,1.958,341.8094],[19.4498,2.0394,345.7154],[19.3144,2.0776,344.8071],[19.1255,2.1264,331.2203],[19.1107,2.12,332.8151],[19.0945,2.1157,328.577],[19.0734,2.1012,327.0294],[19.0647,2.0997,332.2569],[19.0609,2.0962,332.9642],[19.0573,2.0888,330.2041],[19.0491,2.0834,330.773],[19.0419,2.0743,333.8394],[19.0371,2.0741,330.4554],[19.0308,2.0662,332.9887],[19.0283,2.0588,340.5608],[19.0222,2.0527,334.9516],[19.0115,2.0519,326.6823],[19.0045,2.0482,331.3821],[18.9937,2.0478,330.9691],[18.9888,2.0418,329.8906],[18.9911,2.0363,328.3417],[18.9893,2.034,326.9105],[18.9713,2.0268,317.8714],[18.9643,2.0215,316.6208],[18.9582,2.0138,318.6126],[18.9502,2.014,317.3525],[18.9468,2.01,318.3716],[18.9411,2.0099,316.9783],[18.9392,2.012,317.3214],[18.9186,2.0,317.0463],[18.903,2.0033,316.6075],[18.8973,1.9989,317.0845],[18.8971,1.9965,317.0188],[18.8946,1.9944,318.4475],[18.8869,1.9944,316.8584],[18.8803,1.9899,318.8951],[18.8718,1.9896,316.8829],[18.8664,1.9829,333.3489],[18.8609,1.9821,326.0276],[18.8568,1.9837,327.6094],[18.8539,1.9818,326.2898],[18.8523,1.9774,330.4824],[18.8491,1.9767,325.4995],[18.8468,1.9796,317.0428],[18.8429,1.9768,317.035],[18.8335,1.977,320.5109],[18.8313,1.9744,325.1628],[18.8246,1.9771,316.4749],[18.8215,1.972,325.2373],[18.818,1.977,317.59],[18.8148,1.9772,316.5037],[18.8104,1.9813,316.6874],[18.8059,1.9796,316.5365],[18.8001,1.9819,316.0443],[18.7976,1.9784,316.6576],[18.7824,1.9732,322.4201],[18.7803,1.9747,318.8244],[18.7784,1.9802,316.4454],[18.7723,1.9728,323.3341],[18.7627,1.9722,316.9637],[18.7573,1.9664,321.0683],[18.7554,1.9558,322.6038],[18.7531,1.9526,323.2859],[18.735,1.9367,316.4903],[18.7252,1.9143,328.6087],[18.7197,1.9124,329.1006],[18.7132,1.9047,328.1513],[18.7087,1.9028,329.804],[18.7031,1.9069,321.5315],[18.699,1.9069,321.8625],[18.6952,1.9045,319.619],[18.6894,1.9063,315.9333],[18.6865,1.9023,315.6655],[18.6727,1.9095,315.72],[18.6676,1.9178,315.6353],[18.6639,1.9207,316.3456],[18.6497,1.9235,326.6247],[18.6457,1.9315,325.4527],[18.6425,1.934,328.4302],[18.6342,1.9351,326.1918],[18.6291,1.9387,328.4341],[18.623,1.9396,329.0463],[18.6144,1.9487,329.1185],[18.6043,1.9495,326.828],[18.6018,1.9522,333.3457],[18.6028,1.9586,325.4122],[18.6012,1.9653,332.748],[18.5935,1.976,331.1742],[18.5907,1.977,333.7937],[18.5139,1.9754,337.0717],[18.4092,1.9776,328.9438],[18.319,1.9807,336.1194],[18.2941,1.983,340.869],[18.0977,1.988,331.3825],[18.0864,1.9841,314.0],[18.0925,1.9621,317.3244],[18.0915,1.9515,313.5],[18.0807,1.9314,319.6099],[18.0775,1.9213,313.5],[18.0749,1.9019,313.0],[18.0675,1.8805,313.0],[18.0677,1.8582,317.4409],[18.06,1.8491,325.8595],[18.0582,1.821,317.756],[18.0583,1.8038,312.5],[18.0644,1.7836,312.0],[18.0659,1.7629,313.3848],[18.0833,1.7039,311.5],[18.088,1.678,311.5],[18.0872,1.6651,311.5],[18.0784,1.6542,311.0],[18.076,1.6335,311.0],[18.0794,1.6174,311.5125],[18.072,1.59,310.5],[18.0716,1.5578,310.5],[18.0665,1.5398,310.25],[18.068,1.5214,310.0],[18.0664,1.514,324.9366],[18.0596,1.5032,310.0],[18.0381,1.477,317.3072],[18.019,1.444,312.959],[18.013,1.429,313.0495],[18.0076,1.4064,309.0],[18.0,1.393,309.0],[17.9868,1.3603,308.5],[17.976,1.338,310.1141],[17.9706,1.309,335.4761],[17.9578,1.2665,331.5077],[17.9549,1.2512,324.9554],[17.9549,1.2316,312.6873],[17.945,1.1875,305.5],[17.9418,1.1645,305.0],[17.9286,1.1351,304.5],[17.9152,1.1149,304.0],[17.8831,1.0841,303.0],[17.864,1.052,326.3751],[17.8611,1.0446,304.7295],[17.8595,1.0299,312.9236],[17.8536,1.023,322.5674],[17.8501,1.0124,301.5],[17.8532,0.9974,301.5],[17.8522,0.9775,301.0],[17.8451,0.9363,327.1008],[17.845,0.919,307.987],[17.8612,0.8711,300.0],[17.8795,0.8457,300.0],[17.8832,0.8382,314.1443],[17.8862,0.8268,323.0494],[17.887,0.8031,330.7996],[17.8953,0.7751,326.5172],[17.885,0.739,327.5016],[17.891,0.707,299.0],[17.885,0.6915,303.5751],[17.8807,0.685,303.6093],[17.88,0.675,313.6216],[17.874,0.66,298.5],[17.873,0.612,298.5],[17.876,0.594,298.0],[17.886,0.572,298.0],[17.905,0.549,298.0],[17.9443,0.5121,297.5],[17.9551,0.4899,297.5],[17.9599,0.4662,297.0],[17.9626,0.4085,297.0],[17.9603,0.3995,297.0],[17.96,0.389,297.0],[17.954,0.3653,296.5],[17.9421,0.3424,317.3128],[17.926,0.3225,296.5],[17.923,0.316,313.2633],[17.8946,0.2884,296.5],[17.855,0.26,298.0497],[17.845,0.249,296.0],[17.843,0.244,297.5654],[17.821,0.216,296.0],[17.813,0.196,296.0],[17.8,0.173,295.5],[17.787,0.143,320.2931],[17.7752,0.1076,295.5],[17.7683,0.0798,295.5],[17.764,0.041,295.0],[17.758,0.018,295.0],[17.771,0.0,310.5328],[17.747,-0.054,295.0],[17.725,-0.095,295.0],[17.714,-0.128,309.2703],[17.712,-0.157,320.5345],[17.716,-0.199,318.0326],[17.714,-0.2169,316.8276],[17.7153,-0.2328,320.16],[17.722,-0.2753,317.4295],[17.7346,-0.3073,299.6634],[17.7386,-0.3265,302.0544],[17.7418,-0.381,300.7991],[17.7404,-0.3977,301.0364],[17.7282,-0.4422,307.067],[17.7187,-0.5031,294.0],[17.7097,-0.5406,294.0],[17.7031,-0.5591,294.0],[17.7264,-0.5636,294.7739],[17.7791,-0.5555,298.1793],[17.8083,-0.5234,297.2348],[17.819,-0.5153,307.3792],[17.8322,-0.4785,299.8058],[17.8499,-0.4568,306.7428],[17.8821,-0.4254,309.1223],[17.8937,-0.4191,310.9786],[17.9148,-0.3958,300.1566],[17.9303,-0.3826,316.5823],[17.9559,-0.3544,320.6718],[17.9766,-0.3392,305.3045],[17.9825,-0.332,305.213],[17.9919,-0.3092,305.663],[17.9969,-0.3011,311.2631],[18.0382,-0.2639,318.1179],[18.0561,-0.2521,313.4205],[18.0652,-0.242,314.7162],[18.0828,-0.2159,314.261],[18.0945,-0.1919,312.7939],[18.1014,-0.1866,318.9142]]]]}}