{"type": "Feature","bbox": [16.4779,-4.5665,18.8649,-3.2936],"geometry": {"type": "MultiPolygon","coordinates": [[[[16.4942,-4.4835,337.5],[16.5149,-4.486,403.0718],[16.5433,-4.5129,590.4952],[16.5877,-4.5474,622.469],[16.5989,-4.5545,612.0279],[16.6073,-4.5559,613.449],[16.6098,-4.5534,615.0023],[16.6119,-4.5337,699.3185],[16.6104,-4.4724,611.9066],[16.6063,-4.4117,658.9664],[16.6103,-4.3847,583.4188],[16.6166,-4.3729,525.2302],[16.6209,-4.3704,538.4009],[16.6284,-4.3695,542.6944],[16.636,-4.3623,431.7392],[16.6474,-4.3606,509.0129],[16.6541,-4.3581,438.6485],[16.6584,-4.3535,414.5667],[16.663,-4.3532,531.1144],[16.6659,-4.3504,524.217],[16.6687,-4.3417,392.4332],[16.6798,-4.3292,362.4259],[16.6897,-4.3299,361.3541],[16.6954,-4.3284,359.6669],[16.7027,-4.3224,420.9513],[16.7081,-4.3339,466.2763],[16.7132,-4.3521,389.0302],[16.7198,-4.3482,422.5806],[16.7241,-4.3422,425.0808],[16.7289,-4.3303,503.3943],[16.7313,-4.3284,636.7658],[16.7371,-4.3284,651.4554],[16.7419,-4.3337,610.1783],[16.7447,-4.3449,605.8482],[16.745,-4.3766,403.4935],[16.7469,-4.3819,470.1265],[16.7537,-4.3823,629.9688],[16.7606,-4.3785,670.1555],[16.7704,-4.3663,662.1101],[16.775,-4.3578,667.2695],[16.782,-4.3535,636.1191],[16.7859,-4.3528,636.0145],[16.7958,-4.3556,561.0243],[16.8031,-4.3623,557.4326],[16.8073,-4.3595,546.6799],[16.819,-4.359,603.7583],[16.826,-4.3543,561.7576],[16.8398,-4.3543,578.3068],[16.8489,-4.3469,466.1177],[16.8519,-4.3363,526.288],[16.8518,-4.3144,448.1493],[16.8563,-4.2944,569.7789],[16.8629,-4.2973,581.6597],[16.8924,-4.3312,546.8476],[16.9111,-4.3479,468.3417],[16.9197,-4.3611,437.9692],[16.9252,-4.3743,405.6591],[16.9282,-4.388,458.756],[16.9357,-4.4011,418.9677],[16.9386,-4.4037,375.6525],[16.9458,-4.4037,415.2646],[16.9628,-4.398,372.7809],[16.9672,-4.3984,373.786],[16.9701,-4.401,396.6253],[16.973,-4.4096,386.8722],[16.9734,-4.4291,454.8182],[16.9603,-4.4469,523.1572],[16.9405,-4.4619,504.1049],[16.9393,-4.4662,519.6963],[16.9406,-4.481,530.5477],[16.9463,-4.4951,529.7272],[16.9509,-4.501,475.1877],[16.9596,-4.5055,474.3534],[16.9841,-4.5034,402.6291],[16.9951,-4.4974,455.6078],[17.0122,-4.4789,485.3007],[17.0243,-4.4791,433.4494],[17.0319,-4.4834,419.2162],[17.0361,-4.4839,387.7491],[17.0543,-4.5045,381.7267],[17.0582,-4.5125,397.7811],[17.0675,-4.5249,358.7182],[17.0753,-4.5325,374.3831],[17.0948,-4.54,363.9845],[17.1068,-4.55,355.4148],[17.1192,-4.5518,346.3467],[17.1253,-4.5569,363.56],[17.1406,-4.565,356.0688],[17.1536,-4.5665,450.6024],[17.1675,-4.5608,497.6703],[17.1736,-4.5554,488.8896],[17.1779,-4.5488,473.1089],[17.1813,-4.5422,410.6211],[17.1907,-4.5115,399.8255],[17.1951,-4.4817,391.1816],[17.2019,-4.4568,508.9337],[17.2133,-4.4337,453.5466],[17.2265,-4.4167,463.6057],[17.2434,-4.3995,501.924],[17.259,-4.3881,462.7291],[17.2847,-4.3881,370.143],[17.3007,-4.3855,399.7142],[17.32,-4.3785,508.9912],[17.3406,-4.3685,475.0426],[17.3615,-4.3548,503.5742],[17.3902,-4.3319,513.2183],[17.4237,-4.3014,469.01],[17.4284,-4.2987,446.1869],[17.4575,-4.2921,462.4711],[17.494,-4.2552,417.625],[17.5074,-4.2434,444.1154],[17.5179,-4.2378,404.5604],[17.5527,-4.2414,453.4625],[17.6007,-4.2362,446.0469],[17.6122,-4.2331,422.7114],[17.624,-4.2432,453.2539],[17.6254,-4.2469,454.6335],[17.6245,-4.257,458.3411],[17.6298,-4.2634,448.1626],[17.6365,-4.2772,465.9142],[17.6384,-4.2894,439.0613],[17.6341,-4.2945,481.896],[17.6326,-4.3094,502.7164],[17.6261,-4.326,468.6191],[17.6262,-4.3299,473.7564],[17.6277,-4.334,450.3412],[17.6328,-4.3391,416.2169],[17.6382,-4.3413,442.0519],[17.652,-4.341,448.5868],[17.6809,-4.3342,437.5491],[17.7215,-4.3203,456.2311],[17.7608,-4.2992,365.0949],[17.7875,-4.2782,404.9996],[17.7939,-4.2751,411.451],[17.8065,-4.283,386.2662],[17.82,-4.2989,388.7993],[17.8251,-4.3096,360.6425],[17.8257,-4.3169,336.1389],[17.8289,-4.3173,333.8041],[17.8345,-4.3223,396.6002],[17.8443,-4.3234,372.3776],[17.8537,-4.3188,411.2183],[17.8569,-4.3114,405.7647],[17.8644,-4.3042,399.9705],[17.8667,-4.2971,384.9156],[17.8634,-4.2863,378.6717],[17.8654,-4.2803,385.0277],[17.8688,-4.2777,376.2242],[17.875,-4.277,399.8109],[17.8776,-4.2786,418.3516],[17.8785,-4.2846,422.777],[17.8804,-4.2869,409.8849],[17.8833,-4.2859,422.3743],[17.8867,-4.2735,389.4218],[17.8919,-4.2636,350.7544],[17.8978,-4.258,356.9009],[17.9011,-4.2642,346.6528],[17.9055,-4.2651,405.3426],[17.9102,-4.2591,392.9905],[17.9127,-4.2467,371.9482],[17.9165,-4.2423,369.4876],[17.936,-4.229,368.3467],[17.9469,-4.2239,338.5396],[17.9605,-4.2234,344.1559],[17.9671,-4.2203,362.9111],[17.9659,-4.2146,342.8055],[17.9604,-4.207,362.6016],[17.9619,-4.2036,360.7879],[17.9654,-4.2012,346.0176],[17.9791,-4.2,383.4176],[17.9851,-4.1968,364.5964],[17.9802,-4.1878,376.7032],[17.9827,-4.18,380.1538],[17.9792,-4.171,351.1468],[17.9773,-4.1627,374.3353],[17.978,-4.1595,359.7922],[17.9807,-4.1565,372.257],[17.9933,-4.1539,374.9436],[18.0088,-4.1483,339.6265],[18.0145,-4.1433,335.9199],[18.0164,-4.1391,347.7118],[18.0251,-4.1392,354.3296],[18.0361,-4.147,374.2171],[18.0513,-4.1616,344.0959],[18.0624,-4.1648,352.0492],[18.0709,-4.1707,352.0331],[18.0755,-4.1718,349.7578],[18.0793,-4.1679,346.5464],[18.0932,-4.1761,395.2869],[18.1005,-4.1837,354.2476],[18.1159,-4.19,374.9493],[18.1238,-4.1975,399.0694],[18.133,-4.201,381.7054],[18.1443,-4.2016,412.9304],[18.1475,-4.2003,420.3421],[18.1582,-4.1731,412.2943],[18.1717,-4.1549,440.8924],[18.1795,-4.1509,422.6074],[18.1904,-4.153,419.2775],[18.2223,-4.1699,393.3925],[18.2312,-4.1714,442.7216],[18.2336,-4.1678,438.5008],[18.2348,-4.1137,408.6114],[18.2369,-4.1081,406.093],[18.2516,-4.0933,377.7195],[18.2541,-4.0811,342.3603],[18.2614,-4.063,340.5729],[18.2707,-4.0589,336.89],[18.2747,-4.0525,336.0878],[18.28,-4.0261,347.3675],[18.2866,-4.0047,353.2163],[18.2922,-3.9914,386.208],[18.2986,-3.9863,402.7109],[18.324,-3.9855,377.2225],[18.3331,-3.9868,357.3189],[18.3518,-3.9939,396.405],[18.3704,-4.0057,384.0511],[18.4175,-4.0265,363.6435],[18.4412,-4.039,412.4319],[18.4553,-4.0425,375.3279],[18.4647,-4.0427,387.7455],[18.474,-4.0422,384.6692],[18.4779,-4.0382,383.7818],[18.4851,-4.0243,396.9555],[18.4895,-4.0213,397.4584],[18.5242,-4.0231,401.9403],[18.5359,-4.0217,400.1542],[18.5378,-4.0191,418.8862],[18.5407,-3.9875,443.2415],[18.5447,-3.9788,470.7941],[18.5484,-3.9792,476.0964],[18.5583,-3.9973,442.5213],[18.5742,-4.0138,452.1033],[18.5995,-4.0338,418.9701],[18.6119,-4.0417,460.37],[18.6217,-4.0436,460.8599],[18.633,-4.0491,409.8588],[18.6497,-4.0497,412.8733],[18.6572,-4.0455,399.3579],[18.6729,-4.0233,408.277],[18.6769,-4.0093,391.2663],[18.6808,-4.0049,394.0354],[18.686,-4.0021,404.0437],[18.7115,-4.0014,396.2799],[18.7197,-3.9938,405.2454],[18.7249,-3.9836,406.1637],[18.7316,-3.9615,420.3768],[18.7386,-3.9446,423.0936],[18.7339,-3.932,407.6209],[18.7352,-3.9267,375.3014],[18.7409,-3.9202,371.2935],[18.7459,-3.9103,380.3463],[18.7493,-3.9075,380.792],[18.7592,-3.9042,382.9138],[18.7692,-3.8938,376.5894],[18.7871,-3.8638,399.1498],[18.8054,-3.8376,363.5912],[18.8116,-3.8318,358.8109],[18.8283,-3.8257,353.9204],[18.8387,-3.8156,368.7259],[18.8501,-3.7975,345.7994],[18.8594,-3.7906,343.037],[18.8649,-3.7608,341.1993],[18.8649,-3.7542,338.209],[18.8616,-3.7447,332.5454],[18.8605,-3.7211,330.3024],[18.8627,-3.7024,322.3112],[18.8594,-3.6911,319.5],[18.86,-3.6803,322.1545],[18.8581,-3.6652,329.8361],[18.8612,-3.6598,319.5],[18.8474,-3.6516,321.918],[18.833,-3.6508,329.7435],[18.8284,-3.6483,333.1616],[18.816,-3.6475,331.6752],[18.8054,-3.6439,319.786],[18.7994,-3.64,318.0],[18.7926,-3.6407,318.0],[18.7868,-3.6383,318.0],[18.7836,-3.6387,318.0],[18.7709,-3.6255,322.2561],[18.7659,-3.6239,320.0053],[18.745,-3.624,317.0],[18.7368,-3.6216,318.4277],[18.7262,-3.6149,317.0],[18.7211,-3.6159,316.5],[18.7152,-3.6233,316.5],[18.7118,-3.6236,316.5],[18.6842,-3.6116,317.1734],[18.6741,-3.6089,316.8824],[18.6663,-3.5995,316.7532],[18.658,-3.5952,316.6783],[18.6465,-3.5962,315.5],[18.6422,-3.598,315.5],[18.63,-3.5875,315.0],[18.6185,-3.5867,315.8056],[18.6155,-3.5807,330.9781],[18.604,-3.5709,322.1131],[18.5872,-3.5673,316.0771],[18.5813,-3.5685,315.8003],[18.5653,-3.5833,314.9731],[18.5525,-3.5834,313.5],[18.5499,-3.5764,314.7425],[18.5473,-3.5774,314.9259],[18.542,-3.5854,313.5],[18.5344,-3.5863,313.5],[18.5245,-3.5797,314.4607],[18.511,-3.5777,313.0],[18.502,-3.5736,313.0],[18.4874,-3.5744,312.5],[18.4814,-3.5779,312.5],[18.469,-3.5718,314.1698],[18.4628,-3.5709,312.7458],[18.4541,-3.5641,312.0],[18.4479,-3.5636,313.1399],[18.4413,-3.5683,313.1041],[18.4378,-3.5665,313.5359],[18.4378,-3.5593,313.4377],[18.4251,-3.5523,313.0333],[18.4129,-3.5397,313.6363],[18.4033,-3.5368,312.4464],[18.4019,-3.5382,312.5442],[18.4038,-3.5448,312.5667],[18.3958,-3.5465,311.6129],[18.3925,-3.5433,312.2713],[18.3955,-3.5419,312.0006],[18.3982,-3.5382,312.2969],[18.3978,-3.5366,312.1292],[18.3909,-3.5391,312.605],[18.3631,-3.5306,311.4786],[18.3569,-3.5223,310.0],[18.3552,-3.5164,311.6832],[18.347,-3.5141,309.5],[18.3419,-3.499,313.206],[18.3218,-3.489,318.167],[18.3122,-3.4858,312.2643],[18.3097,-3.4833,314.4661],[18.3055,-3.4736,318.3278],[18.3011,-3.4698,316.3107],[18.294,-3.4682,308.5],[18.2816,-3.4586,308.8752],[18.2731,-3.4573,314.1291],[18.2755,-3.4457,319.3699],[18.2683,-3.4283,315.4165],[18.2628,-3.4242,309.5962],[18.2527,-3.4206,308.2498],[18.2488,-3.4153,308.1836],[18.2462,-3.4038,309.9516],[18.2416,-3.3995,309.2469],[18.2269,-3.4032,308.808],[18.2143,-3.4042,308.9312],[18.2086,-3.4027,306.8239],[18.202,-3.4057,308.7839],[18.194,-3.414,306.9875],[18.1867,-3.4178,306.0],[18.1789,-3.4185,308.5078],[18.1737,-3.4218,308.4328],[18.1712,-3.4257,308.2277],[18.1692,-3.4356,305.5],[18.1662,-3.4411,305.5],[18.1566,-3.4472,305.5],[18.1511,-3.446,306.6973],[18.1382,-3.4351,307.8342],[18.1092,-3.4021,312.0839],[18.0941,-3.4047,304.0],[18.0851,-3.4032,303.5],[18.0681,-3.3849,311.2491],[18.0435,-3.3774,303.0],[18.0341,-3.3782,302.5],[18.0131,-3.387,302.0],[18.0,-3.3853,311.2084],[17.9918,-3.3823,302.0],[17.9678,-3.3905,307.2004],[17.9575,-3.4,301.5],[17.9525,-3.4026,301.5],[17.938,-3.4029,304.7332],[17.9282,-3.4101,301.5],[17.9205,-3.4104,301.5],[17.9154,-3.4125,301.5],[17.9058,-3.4111,310.8349],[17.9026,-3.4125,313.3401],[17.8785,-3.4136,304.2645],[17.8699,-3.4164,301.0],[17.8601,-3.4227,301.0],[17.8495,-3.4253,301.0],[17.8447,-3.4246,301.0],[17.8325,-3.4182,311.5025],[17.8265,-3.4095,305.4572],[17.8228,-3.3918,311.8049],[17.8193,-3.387,321.6035],[17.7991,-3.3818,302.8237],[17.7584,-3.363,302.4196],[17.755,-3.3602,300.923],[17.7511,-3.3533,301.3697],[17.7396,-3.3458,304.8956],[17.7193,-3.3229,299.5649],[17.711,-3.3193,306.7022],[17.7046,-3.3189,306.4888],[17.6993,-3.3205,303.7068],[17.6927,-3.3274,306.2024],[17.6859,-3.3318,306.3523],[17.6797,-3.3316,298.0],[17.6611,-3.3133,303.6085],[17.6569,-3.312,303.2164],[17.6468,-3.3136,302.0618],[17.6333,-3.3008,300.6929],[17.6275,-3.2988,299.6215],[17.6147,-3.2993,300.8488],[17.6028,-3.3051,301.6097],[17.5854,-3.3055,300.5573],[17.5733,-3.3028,304.367],[17.5572,-3.2936,306.6766],[17.5629,-3.3101,300.1504],[17.5489,-3.3302,311.7595],[17.5129,-3.3384,322.6187],[17.499,-3.36,325.7038],[17.5149,-3.39,313.7039],[17.5108,-3.3928,319.9879],[17.5083,-3.4078,309.8212],[17.4947,-3.4208,308.1934],[17.484,-3.4369,302.207],[17.4647,-3.4368,304.1056],[17.4609,-3.4398,316.6002],[17.451,-3.4334,298.6396],[17.4425,-3.4318,297.8455],[17.4367,-3.427,300.9404],[17.4354,-3.4275,299.0172],[17.4333,-3.422,302.2546],[17.4318,-3.4043,297.8781],[17.4237,-3.3933,298.0965],[17.4099,-3.3839,298.4976],[17.404,-3.3853,297.0],[17.3957,-3.3842,302.1429],[17.3886,-3.3808,298.9934],[17.3785,-3.3719,298.2541],[17.358,-3.3589,296.0],[17.3592,-3.3635,296.0],[17.3531,-3.3863,296.5],[17.3484,-3.3911,296.5],[17.3344,-3.391,297.5342],[17.3303,-3.3961,298.1911],[17.3265,-3.4175,297.5],[17.3202,-3.4329,298.0],[17.3085,-3.4431,298.0],[17.3015,-3.4467,298.5],[17.2863,-3.4583,298.5],[17.2801,-3.4716,299.0],[17.2744,-3.4787,299.0],[17.2733,-3.4895,299.5],[17.2786,-3.5061,310.6819],[17.2799,-3.53,301.1411],[17.2822,-3.5355,300.833],[17.2868,-3.5396,301.7723],[17.2908,-3.547,301.9995],[17.2913,-3.553,301.0],[17.2865,-3.5705,301.9833],[17.2868,-3.5744,303.7079],[17.2958,-3.5872,302.7075],[17.305,-3.5945,302.9937],[17.3148,-3.6272,304.8528],[17.3183,-3.6315,304.1545],[17.3288,-3.6379,303.7485],[17.3326,-3.6494,312.9838],[17.3321,-3.6533,313.0404],[17.3292,-3.6586,304.5495],[17.3138,-3.6615,304.5085],[17.3079,-3.6638,304.9878],[17.3036,-3.6677,305.1633],[17.3036,-3.6755,304.9677],[17.3069,-3.6903,305.3719],[17.3058,-3.6958,305.5187],[17.3019,-3.7025,305.6333],[17.2978,-3.7062,305.7997],[17.2841,-3.7125,306.374],[17.2782,-3.7185,306.6528],[17.2673,-3.7399,307.0295],[17.2592,-3.7678,308.0829],[17.2409,-3.7856,308.397],[17.2357,-3.7972,308.0],[17.2344,-3.8124,324.344],[17.2363,-3.8216,328.6767],[17.2337,-3.8259,322.8741],[17.2192,-3.8403,310.1079],[17.2174,-3.8458,311.7824],[17.2191,-3.87,309.9994],[17.2174,-3.8909,312.5338],[17.207,-3.9126,316.757],[17.1992,-3.9205,321.4728],[17.192,-3.9366,335.7324],[17.1881,-3.9401,320.1188],[17.1743,-3.941,339.2173],[17.17,-3.9441,342.3382],[17.1548,-3.9655,383.4399],[17.1381,-3.981,359.4558],[17.1341,-3.9995,419.369],[17.1268,-4.011,407.3552],[17.1083,-4.0254,401.9738],[17.0991,-4.0282,428.2703],[17.081,-4.0234,350.1072],[17.0596,-4.0072,344.581],[17.0438,-4.0038,392.1251],[17.0327,-3.996,399.3794],[17.0224,-3.9841,333.2504],[17.0148,-3.9818,363.4397],[16.9902,-3.9815,390.0709],[16.9841,-3.9857,382.6322],[16.9737,-3.9804,352.7187],[16.9369,-3.9857,338.7976],[16.9325,-3.9868,363.2644],[16.9154,-4.0035,395.8566],[16.9104,-4.0215,379.9076],[16.8783,-4.057,453.7067],[16.8728,-4.0617,465.8759],[16.8634,-4.0651,458.7588],[16.8547,-4.0737,385.5106],[16.8273,-4.0945,478.1783],[16.8218,-4.0971,435.71],[16.8173,-4.0969,425.7275],[16.7954,-4.0841,329.4],[16.7847,-4.0841,430.1832],[16.773,-4.0872,493.8574],[16.7611,-4.0962,491.3289],[16.7474,-4.1016,417.5311],[16.7305,-4.1173,502.2251],[16.7153,-4.1192,407.7689],[16.7105,-4.1229,397.353],[16.7026,-4.1399,422.1738],[16.6971,-4.1476,469.9767],[16.693,-4.1503,416.2097],[16.6884,-4.1511,442.1091],[16.6808,-4.1481,411.8373],[16.6749,-4.1428,351.6673],[16.6623,-4.1431,372.1901],[16.634,-4.1333,333.5236],[16.6177,-4.1366,393.9969],[16.6127,-4.1343,369.7083],[16.6086,-4.1348,386.0264],[16.5965,-4.1422,369.8327],[16.5857,-4.143,357.8962],[16.5786,-4.1481,425.3515],[16.5665,-4.153,409.7722],[16.5534,-4.1606,351.7707],[16.547,-4.1673,418.2084],[16.5128,-4.1779,341.6909],[16.502,-4.1838,339.722],[16.4962,-4.1847,330.0],[16.4945,-4.1928,330.0],[16.4978,-4.2014,344.3323],[16.4975,-4.2048,334.6649],[16.4935,-4.2056,365.7025],[16.4922,-4.2074,337.1765],[16.4891,-4.214,344.0473],[16.4855,-4.2174,349.9637],[16.4823,-4.2262,364.7791],[16.4779,-4.2304,331.0],[16.4779,-4.2333,332.9748],[16.4841,-4.2389,350.2339],[16.4885,-4.2379,331.5],[16.4932,-4.2396,352.3577],[16.4936,-4.2422,382.8012],[16.4897,-4.2509,406.9868],[16.49,-4.2592,342.3569],[16.4942,-4.2642,332.0],[16.5045,-4.2693,332.5],[16.5061,-4.2787,371.5394],[16.51,-4.2847,408.4995],[16.5217,-4.3121,336.4343],[16.5221,-4.3238,348.8832],[16.5173,-4.3285,342.8705],[16.5164,-4.3333,377.2487],[16.5269,-4.3509,339.1614],[16.5324,-4.3568,355.3797],[16.5325,-4.3613,338.3804],[16.5315,-4.3666,334.5],[16.527,-4.3749,340.1846],[16.5201,-4.3802,397.7348],[16.5165,-4.3877,341.8663],[16.5109,-4.3885,335.5],[16.5091,-4.3907,348.7563],[16.5083,-4.394,338.4946],[16.515,-4.4061,335.5],[16.5152,-4.41,337.9247],[16.5112,-4.4121,341.8976],[16.5057,-4.412,347.0089],[16.5033,-4.4166,336.0],[16.4978,-4.4215,352.1442],[16.4964,-4.4344,340.788],[16.4914,-4.4437,346.1489],[16.498,-4.4556,336.5],[16.4969,-4.4677,341.2723],[16.4987,-4.4738,340.739],[16.4942,-4.4835,337.5]]]]}
,"properties": {"GID_2": "COD.13.1_1","GID_0": "COD","country": "DemocraticRepublicoftheCongo","GID_1": "COD.13_1","province": "Kwilu","NL_NAME_1": "NA","county": "Bagata","VARNAME_2": "NA","NL_NAME_2": "NA","TYPE_2": "Territoire","ENGTYPE_2": "Territory","CC_2": "NA","HASC_2": "NA","name": "Bagata.county","area_km2": 17315.25,"hist_schema_id": "Elevation0-9000","hist_area_km2": {"300": 572.81,"325": 3601.0,"350": 3956.6,"375": 3004.96,"400": 2025.88,"425": 1310.8,"450": 862.69,"475": 592.95,"500": 387.55,"525": 244.25,"550": 178.43,"575": 135.63,"600": 94.04,"625": 129.01,"650": 147.48,"675": 62.99,"700": 8.14}}}