{"type": "Feature","bbox": [17.878,-4.7874,17.9047,-4.762],"geometry": {"type": "MultiPolygon","coordinates": [[[[17.8947,-4.7874,403.8108],[17.9006,-4.7844,404.2361],[17.9021,-4.7814,387.9814],[17.9047,-4.7676,371.8355],[17.8978,-4.7624,431.6865],[17.8893,-4.762,394.7008],[17.886,-4.763,391.876],[17.8793,-4.7697,425.0815],[17.878,-4.7737,445.3899],[17.8787,-4.7804,411.186],[17.881,-4.7836,449.0622],[17.8873,-4.7864,384.2657],[17.8947,-4.7874,403.8108]]]]}
,"properties": {"GID_2": "COD.13.13_1","GID_0": "COD","country": "DemocraticRepublicoftheCongo","GID_1": "COD.13_1","province": "Kwilu","NL_NAME_1": "NA","county": "Masi-Manimba(ville)","VARNAME_2": "NA","NL_NAME_2": "NA","TYPE_2": "Ville","ENGTYPE_2": "Town","CC_2": "NA","HASC_2": "NA","name": "Masi-Manimba(ville).county","area_km2": 6.380848,"hist_schema_id": "Elevation0-9000","hist_area_km2": {"375": 1.119812,"400": 1.373359,"425": 1.669167,"450": 1.225463,"475": 0.697246,"500": 0.295801}}}