{"type":"Feature","properties":{"GID_2":"COD.21.1_1","GID_0":"COD","country":"DemocraticRepublicoftheCongo","GID_1":"COD.21_1","province":"Sankuru","NL_NAME_1":"NA","county":"Bena-Dibele","VARNAME_2":"NA","NL_NAME_2":"NA","TYPE_2":"Ville","ENGTYPE_2":"Town","CC_2":"NA","HASC_2":"NA","name":"Bena-Dibele.county"},
"geometry":{"type": "MultiPolygon","coordinates": [[[[22.9249,-4.2494,503.1698],[22.9339,-4.2424,467.3219],[22.9369,-4.2333,492.4232],[22.9379,-4.2252,481.4875],[22.9359,-4.2152,497.3285],[22.9319,-4.2091,512.2074],[22.9239,-4.2041,482.3171],[22.9108,-4.199,470.043],[22.9008,-4.199,532.8385],[22.8907,-4.2031,493.6614],[22.8847,-4.2152,534.8412],[22.8767,-4.2232,516.0122],[22.8817,-4.2363,527.2984],[22.8977,-4.2515,496.587],[22.9138,-4.2545,478.968],[22.9249,-4.2494,503.1698]]]]}}