{"type":"Feature","properties":{"GID_2":"COD.24.6_1","GID_0":"COD","country":"DemocraticRepublicoftheCongo","GID_1":"COD.24_1","province":"Tanganyika","NL_NAME_1":"NA","county":"Kongolo(ville)","VARNAME_2":"NA","NL_NAME_2":"NA","TYPE_2":"Ville","ENGTYPE_2":"Town","CC_2":"NA","HASC_2":"NA","name":"Kongolo(ville).county"},
"geometry":{"type": "MultiPolygon","coordinates": [[[[27.003,-5.4002,553.0009],[27.0086,-5.3655,557.6245],[27.0036,-5.3491,561.9818],[26.9942,-5.3527,604.1579],[26.9909,-5.3579,600.2272],[26.9852,-5.361,610.7027],[26.9766,-5.3688,595.23],[26.9747,-5.3837,599.8209],[26.9791,-5.4004,571.2775],[26.9842,-5.4076,572.0524],[26.9982,-5.4149,557.7661],[27.003,-5.4002,553.0009]]]]}}