{"type":"Feature","properties":{"featurecla":"River","scalerank":8,"rivernum":814,"dissolve":"814River","name":"Lua1","name_alt":null,"note":null,"min_zoom":7.0,"strokeweig":0.2,"name_en":"Lua","min_label":8.0},
"geometry":{"type": "LineString","coordinates": [[19.80859375,4.08283112186912,386.0066],[19.705957031250023,4.06329987186912,379.6747],[19.685693359375023,4.06476471561912,373.1437],[19.645898437500023,4.07233307499412,362.4669],[19.625390625000023,4.0733584656191084,372.6887],[19.549072265625,4.05939362186912,372.0529],[19.543212890625,4.05646393436912,367.2993],[19.540283203125,4.05170319218162,376.2326],[19.536523437500023,4.0481143249941169,370.3773],[19.528466796875023,4.04901764530662,372.7202],[19.516259765625023,4.0538272156191084,378.7427],[19.5107421875,4.05414459843162,391.4212],[19.50390625,4.05170319218162,375.1831],[19.488427734375023,4.03693268436912,371.3425],[19.4755859375,4.01422760624412,388.6315],[19.449609375000023,3.9504580749941169,390.0805],[19.443994140625023,3.94269440311912,353.3803],[19.43505859375,3.9411807312441169,370.287],[19.422119140625,3.94159577030662,369.8771],[19.41943359375,3.9350772156191169,357.9681],[19.420654296875,3.925165106244108,366.1638],[19.419824218750023,3.91535065311912,355.4127],[19.41015625,3.8911319031191169,350.7237],[19.405908203125023,3.8842959656191169,352.2627],[19.395654296875023,3.8750186218691169,359.3613],[19.375732421875,3.86774323124412,350.4909],[19.36572265625,3.8623233093691169,349.3403],[19.351220703125023,3.84223053593162,357.8877],[19.349853515625,3.82037994999412,351.4491],[19.351953125000023,3.79682037968162,346.4477],[19.348046875000023,3.77142975468162,344.9528],[19.332910156250023,3.7512393249941169,376.277],[19.315185546875,3.74848053593162,348.4515],[19.297509765625023,3.75018952030662,347.5528],[19.281884765625023,3.743036199994108,361.0007],[19.273095703125023,3.737176824994108,356.8739],[19.264404296875,3.7341494812441169,349.4701],[19.258691406250023,3.72894928593162,355.2137],[19.259033203125,3.71649811405662,348.0311],[19.260498046875,3.70538971561912,348.6403],[19.259667968750023,3.695672918744108,341.8536],[19.253662109375,3.67584869999412,341.8448],[19.2490234375,3.6660342468691169,353.8513],[19.243066406250023,3.657098699994108,342.8905],[19.238671875000023,3.64752838749412,341.0268],[19.238183593750023,3.635858465619108,346.2284],[19.24365234375,3.6286807312441169,342.4655],[19.264892578125,3.62384674686912,353.365],[19.272705078125,3.61957428593162,357.6866],[19.281494140625,3.595819403119108,352.9046],[19.276513671875023,3.573602606244108,345.575],[19.250634765625023,3.53534577030662,343.1182],[19.246826171875,3.52387116093162,357.5731],[19.249755859375,3.50177643436912,345.2001],[19.242919921875,3.48737213749412,350.1332],[19.233544921875023,3.4763369812441169,343.8036],[19.225488281250023,3.47077057499412,347.5603],[19.216210937500023,3.46954987186912,342.4773],[19.202783203125023,3.4716983093691169,340.1163],[19.195458984375023,3.46942780155662,356.1654],[19.190576171875023,3.46137116093162,341.4931],[19.183984375000023,3.4414248718691169,342.0293],[19.180322265625023,3.439569403119108,347.6349],[19.16748046875,3.4392276062441169,340.4284],[19.163476562500023,3.43634674686912,339.3136],[19.163818359375,3.42792389530662,352.9128],[19.174072265625,3.413202215619108,338.8028],[19.174707031250023,3.40729401249412,340.9017],[19.166894531250023,3.40070221561912,355.2072],[19.144775390625,3.394159246869108,360.5055],[19.134521484375,3.389520574994108,357.3349],[19.124902343750023,3.38031647343162,361.2176],[19.108154296875,3.36041901249412,365.7236],[19.078369140625,3.343866278119108,351.0548],[19.0791015625,3.338251043744108,361.4388],[19.086328125000023,3.33124420780662,361.3264],[19.088037109375023,3.31806061405662,346.9444],[19.083740234375,3.30731842655662,345.134],[19.072412109375023,3.288202215619108,363.9158],[19.068359375,3.27826569218162,362.9647],[19.066796875000023,3.26837799686912,362.0649],[19.066650390625,3.257928778119108,335.3643],[19.0693359375,3.237176824994108,335.0903],[19.07373046875,3.22626373905662,363.0563],[19.07861328125,3.22235748905662,341.7442],[19.080957031250023,3.21710846561912,342.8112],[19.078369140625,3.20233795780662,355.3641],[19.07470703125,3.19354889530662,356.3124],[19.0693359375,3.18671295780662,363.7924],[19.062402343750023,3.181268621869108,344.0001],[19.054345703125023,3.1765322937441169,335.0608],[19.049218750000023,3.1753115906191169,351.1096],[19.036523437500023,3.17487213749412,335.7943],[19.03271484375,3.1736026062441169,341.7914],[19.027978515625023,3.16632721561912,338.5586],[19.0283203125,3.1613955749941169,343.1626],[19.02978515625,3.15656159061912,339.1655],[19.028222656250023,3.150018621869108,336.2111],[19.01513671875,3.128534246869108,337.288],[19.002343750000023,3.11737702030662,354.7075],[18.9853515625,3.1120791687441169,340.2996],[18.908105468750023,3.09906647343162,354.6322]]}}