{"type":"Feature","properties":{"featurecla":"River","scalerank":8,"rivernum":814,"dissolve":"814River","name":"Lua","name_alt":null,"note":null,"min_zoom":7.0,"strokeweig":0.15,"name_en":"Lua","min_label":8.0},
"geometry":{"type": "LineString","coordinates": [[20.192529296875023,4.01068756718162,376.6104],[20.171142578125,4.01801178593162,388.2837],[20.152734375000023,4.0272158874941084,382.0313],[20.142333984375,4.0359072937441169,380.0699],[20.134179687500023,4.04474518436912,377.2093],[20.124902343750023,4.05145905155662,374.0006],[20.110742187500023,4.05365631718162,371.8845],[20.100341796875,4.0505557312441169,371.103],[20.08837890625,4.03900787968162,383.5874],[20.077783203125023,4.0367373718691084,378.856],[20.064111328125023,4.04071686405662,376.9056],[20.036865234375,4.05768463749412,384.015],[20.023095703125023,4.06281159061912,379.0925],[19.933349609375,4.06293366093162,386.8459],[19.832421875000023,4.08246491093162,378.9027],[19.80859375,4.08283112186912,386.0066]]}}