{"type":"Feature","properties":{"featurecla":"River","scalerank":8,"rivernum":930,"dissolve":"930River","name":"Mongala1","name_alt":null,"note":null,"min_zoom":7.0,"strokeweig":0.25,"name_en":"Mongala","min_label":8.0},
"geometry":{"type": "LineString","coordinates": [[20.411035156250023,2.42865631718162,330.5],[20.376708984375,2.4287295593691169,341.9791],[20.287841796875,2.41388580936912,351.4102],[20.283105468750023,2.41425202030662,347.7543],[20.27294921875,2.418573309369108,343.8363],[20.267968750000023,2.41974518436912,331.8694],[20.26171875,2.41828034061912,329.5],[20.25830078125,2.4143252624941169,353.7293],[20.255761718750023,2.4101748718691169,351.0085],[20.252587890625023,2.4077334656191169,335.6747],[20.226318359375,2.40009186405662,350.616],[20.160302734375023,2.36078522343162,338.3855],[20.115234375,2.3474307312441169,352.9359],[20.1,2.33808014530662,350.1544],[20.096923828125,2.29181549686912,349.957],[20.074951171875,2.2751651062441169,350.092],[20.048486328125023,2.26178619999412,352.7573],[20.03271484375,2.2448916687441169,344.4403],[20.026513671875023,2.22028229374412,344.2385],[20.020751953125,2.20575592655662,327.8837],[20.010009765625,2.19525787968162,339.3858],[19.988525390625,2.1831240906191169,327.5791],[19.9560546875,2.15204498905662,338.956],[19.933837890625,2.07001373905662,337.5227],[19.900781250000023,2.0136904968691169,345.1192],[19.88720703125,1.9763369812441169,343.0398],[19.875390625000023,1.958368231244108,338.9636],[19.826904296875,1.90680573124412,338.6106],[19.804443359375,1.87567780155662,334.8063],[19.790673828125023,1.84137604374412,314.5]]}}