{"type":"Feature","properties":{"featurecla":"River","scalerank":8,"rivernum":813,"dissolve":"813River","name":"Ebola1","name_alt":null,"note":null,"min_zoom":7.0,"strokeweig":0.2,"name_en":"Ebola","min_label":8.0},
"geometry":{"type": "LineString","coordinates": [[22.241455078125,3.67511627811912,398.9049],[22.126367187500023,3.716180731244108,410.3266],[22.095605468750023,3.719842840619108,402.4963],[22.061181640625023,3.71674225468162,401.0817],[22.035546875000023,3.70551178593162,403.9138],[21.975,3.649042059369108,409.7179],[21.913232421875023,3.63593170780662,421.0012],[21.902734375000023,3.6259951843691169,398.5008],[21.89794921875,3.61530182499412,404.3257],[21.889550781250023,3.6098819031191169,413.4198],[21.879150390625,3.606073309369108,398.0433],[21.868798828125023,3.60065338749412,399.3541],[21.821191406250023,3.56683991093162,401.5521],[21.818359375,3.562372137494108,396.0044],[21.817773437500023,3.55182526249412,410.5522],[21.814843750000023,3.54706452030662,394.5289],[21.808349609375,3.544794012494108,397.1815],[21.794921875,3.54840729374412,401.653],[21.788964843750023,3.54804108280662,406.2288],[21.727783203125,3.5083194031191169,401.9897],[21.710107421875023,3.50092194218162,394.3901],[21.698388671875023,3.5002627624941169,393.0113],[21.67578125,3.5029483093691169,394.9343],[21.666748046875,3.50275299686912,392.407],[21.654687500000023,3.49872467655662,391.47],[21.620361328125,3.48090241093162,391.2578],[21.608642578125,3.480585028119108,406.4908],[21.588037109375023,3.4907412781191169,404.6046],[21.574365234375023,3.49042389530662,386.2502],[21.422998046875023,3.46076080936912,446.8942],[21.195068359375,3.4528994812441169,395.063],[21.180078125000023,3.44916412968162,407.6613],[21.167871093750023,3.4441104187441169,389.2838],[21.156494140625,3.4370303406191169,391.6895],[21.14453125,3.4275088562441169,379.475],[21.116943359375,3.398309637494108,379.3744],[21.1103515625,3.39313385624412,377.8994],[21.0673828125,3.37799713749412,376.9395],[20.985986328125023,3.3322940124941169,372.0104],[20.963037109375023,3.32587311405662,373.3209],[20.9404296875,3.3278994812441169,366.5961],[20.914697265625023,3.3332705749941169,359.1716],[20.890039062500023,3.33124420780662,354.1102],[20.8662109375,3.32245514530662,353.9916]]}}