{"type":"Feature","properties":{"featurecla":"River","scalerank":6,"rivernum":296,"dissolve":"296River","name":"Tshuapa2","name_alt":null,"note":null,"min_zoom":5.0,"strokeweig":0.25,"name_en":"Tshuapa","min_label":6.0},
"geometry":{"type": "LineString","coordinates": [[22.0009765625,-0.558623956255886,361.1083],[21.959619140625023,-0.551788018755886,359.6798],[21.928613281250023,-0.551788018755886,362.7615],[21.923242187500023,-0.55071380000588,362.5286],[21.91943359375,-0.548858331255886,363.8176],[21.911865234375,-0.54192473750588,354.7176],[21.90576171875,-0.53777434688088,363.4058],[21.902978515625023,-0.539580987505886,362.0601],[21.901123046875,-0.543487237505886,361.665],[21.89794921875,-0.54558684688088,361.43],[21.890869140625,-0.54387786250588,363.6017],[21.872460937500023,-0.535186456255886,364.2536],[21.867822265625023,-0.532061456255889,362.1447],[21.864501953125,-0.523760675005889,339.7436],[21.867431640625,-0.50823333125588,353.9818],[21.864160156250023,-0.50090911250588,359.8326],[21.839111328125,-0.47966887813088,352.8582],[21.832421875000023,-0.46990325313088,361.6176],[21.815820312500023,-0.48796965938088,358.1898],[21.811914062500023,-0.49041106563088,357.9829],[21.802978515625,-0.49138762813088,361.0801],[21.799560546875,-0.48992278438088,360.8108],[21.795800781250023,-0.48699309688088,358.6229],[21.785302734375023,-0.482940362505886,361.1999],[21.783447265625,-0.48162200313088,359.5374],[21.764794921875023,-0.474444268755889,358.5215],[21.76416015625,-0.47673919063088,359.3722],[21.75732421875,-0.472979425005889,333.5],[21.751611328125023,-0.471026300005889,333.5],[21.75048828125,-0.466827081255886,359.4794],[21.757958984375023,-0.456377862505889,356.9785],[21.755126953125,-0.450713800005886,360.2944],[21.750732421875,-0.443877862505886,353.5801],[21.745361328125,-0.43816497188088,362.8797],[21.739892578125023,-0.43572356563088,357.9125],[21.732177734375,-0.437823175005889,354.6915],[21.73046875,-0.44207122188088,354.203],[21.73095703125,-0.44670989375588,352.7467],[21.727929687500023,-0.45232512813088,347.6469],[21.728417968750023,-0.457061456255886,347.1136],[21.726953125000023,-0.461748956255889,355.924],[21.719482421875,-0.46379973750588,356.1325],[21.712548828125023,-0.462237237505889,356.6681],[21.708740234375,-0.45818450313088,355.0569],[21.708740234375,-0.452471612505889,356.8378],[21.712890625,-0.44573333125588,359.834],[21.710205078125,-0.434112237505886,355.5155],[21.686279296875,-0.426788018755886,350.1615],[21.65771484375,-0.42131926875588,355.5746],[21.640625,-0.415362237505889,355.508],[21.640625,-0.422198175005889,355.603],[21.624755859375,-0.414873956255889,360.9039],[21.611718750000023,-0.405791925005886,355.3212],[21.602929687500023,-0.39373137813088,353.2356],[21.599609375,-0.377471612505886,357.8091],[21.594628906250023,-0.36419036250588,359.7812],[21.58251953125,-0.371123956255886,358.5003],[21.55810546875,-0.394854425005889,352.9177],[21.54443359375,-0.389483331255889,351.229],[21.515625,-0.391143487505886,356.5457],[21.51025390625,-0.38420989375588,329.0],[21.50732421875,-0.36565520625588,348.377],[21.49951171875,-0.362823175005886,349.0023],[21.488525390625,-0.366241143755886,339.303],[21.47607421875,-0.36687590938088,334.9664],[21.47021484375,-0.362627862505889,350.11],[21.466064453125,-0.35564544063088,351.1008],[21.463525390625023,-0.349151300005886,350.7121],[21.463134765625,-0.346514581255889,351.2462],[21.453857421875,-0.34612395625588,350.2058],[21.447412109375023,-0.348955987505889,349.4535],[21.442773437500023,-0.35222747188088,340.8333],[21.43896484375,-0.35393645625588,342.574],[21.426171875000023,-0.351885675005889,351.9711],[21.416259765625,-0.346709893755886,347.9372],[21.401025390625023,-0.332061456255886,346.7513],[21.391845703125,-0.339190362505889,350.7659],[21.383691406250023,-0.343096612505889,346.2704],[21.375634765625023,-0.343291925005886,354.9667],[21.366943359375,-0.339678643755889,354.9576],[21.361328125,-0.33098723750588,352.6648],[21.352197265625023,-0.29485442500588,349.2998],[21.35205078125,-0.29290130000588,351.9827],[21.347412109375,-0.292022393755886,354.2351],[21.310449218750023,-0.291045831255886,351.3588],[21.300537109375,-0.29338958125588,350.1007],[21.291162109375023,-0.298663018755889,353.1646],[21.280908203125023,-0.29680755000588,349.9638],[21.272216796875,-0.297393487505886,349.827],[21.2626953125,-0.296905206255886,349.9315],[21.250244140625,-0.29119231563088,349.2584],[21.249755859375,-0.29802825313088,352.2037],[21.247802734375,-0.302764581255886,352.2422],[21.245361328125,-0.30706145625588,352.2562],[21.243408203125,-0.312334893755889,326.0],[21.2392578125,-0.30828215938088,349.4047],[21.2294921875,-0.30315520625588,336.8677],[21.222900390625,-0.298663018755889,352.7026],[21.213769531250023,-0.30535247188088,350.8488],[21.202294921875023,-0.305205987505886,325.5],[21.190820312500023,-0.29998137813088,352.9909],[21.181298828125023,-0.29119231563088,349.8402],[21.16845703125,-0.30486419063088,353.6929],[21.15478515625,-0.303057550005889,325.0],[21.142480468750023,-0.29192473750588,340.9843],[21.133544921875,-0.278155206255889,345.2525],[21.122949218750023,-0.286163018755886,346.1563],[21.113525390625,-0.287627862505886,342.6573],[21.105371093750023,-0.28264739375588,348.0609],[21.099365234375,-0.271319268755889,349.3248],[21.085839843750023,-0.278350518755886,343.8719],[21.079980468750023,-0.27483489375588,349.2782],[21.077050781250023,-0.266143487505886,352.7419],[21.072167968750023,-0.257647393755889,351.3649],[21.057519531250023,-0.24700286250588,349.5847],[21.050537109375,-0.24016692500588,348.0886],[21.044677734375,-0.23040130000588,348.3018],[21.036376953125,-0.23626067500588,347.3383],[21.03173828125,-0.245928643755889,348.1352],[21.024316406250023,-0.271319268755889,348.1334],[21.013427734375,-0.26287200313088,348.5921],[20.989501953125,-0.23040130000588,324.8075],[20.9658203125,-0.21404387813088,346.5526],[20.961181640625,-0.204424737505889,348.2875],[20.969140625000023,-0.188799737505889,348.6386],[20.965722656250023,-0.186846612505889,349.3787],[20.964501953125023,-0.18694426875588,349.4118],[20.964013671875023,-0.186358331255889,349.4118],[20.962304687500023,-0.18254973750588,349.2603],[20.948144531250023,-0.19133880000588,349.2238],[20.936279296875,-0.19255950313088,348.9198],[20.911035156250023,-0.188799737505889,345.9865],[20.903564453125,-0.192217706255889,346.135],[20.897119140625023,-0.19866301875588,346.5972],[20.888330078125023,-0.20183684688088,347.0928],[20.87353515625,-0.195635675005889,341.4871],[20.87353515625,-0.209307550005889,344.0964],[20.867333984375023,-0.21648528438088,345.3856],[20.857324218750023,-0.21672942500588,336.0862],[20.84619140625,-0.209307550005889,343.5515],[20.842041015625,-0.200225518755886,341.569],[20.844628906250023,-0.18059661250588,339.276],[20.839257812500023,-0.168291925005889,339.5645],[20.83154296875,-0.179717706255886,345.1588],[20.824365234375023,-0.193389581255886,346.6661],[20.814208984375,-0.201202081255886,348.7702],[20.797753906250023,-0.195635675005889,349.3343],[20.80029296875,-0.20110442500588,348.8621],[20.800927734375023,-0.203643487505886,349.2598],[20.801904296875023,-0.205596612505886,348.7264],[20.80517578125,-0.209307550005889,348.9243],[20.80517578125,-0.21672942500588,348.2079],[20.76904296875,-0.22869231563088,344.9711],[20.760498046875,-0.23040130000588,346.4237],[20.7490234375,-0.236651300005889,346.7473],[20.751220703125,-0.25139739375588,345.6476],[20.75625,-0.268389581255889,344.6356],[20.753662109375,-0.281573175005889,343.6948]]}}