{"type":"Feature","properties":{"featurecla":"River","scalerank":8,"rivernum":930,"dissolve":"930River","name":"Mongala","name_alt":null,"note":null,"min_zoom":7.0,"strokeweig":0.2,"name_en":"Mongala","min_label":8.0},
"geometry":{"type": "LineString","coordinates": [[20.8662109375,3.32245514530662,353.9916],[20.82568359375,3.29682037968162,356.3668],[20.82080078125,3.29218170780662,364.9847],[20.81884765625,3.28571198124412,354.4627],[20.8203125,3.27912018436912,351.8995],[20.822900390625023,3.27338287968162,348.8291],[20.822998046875,3.2693057312441169,354.1616],[20.815673828125,3.26044342655662,350.9825],[20.745361328125,3.2109561218691169,365.9474],[20.727783203125,3.190301824994108,359.3434],[20.716455078125023,3.16498444218162,342.5],[20.713623046875,3.14606354374412,361.8142],[20.712646484375,3.107782293744108,351.5131],[20.709863281250023,3.08856842655662,357.7235],[20.7060546875,3.07721588749412,341.5],[20.703271484375023,3.071649481244108,352.0491],[20.702050781250023,3.065057684369108,366.3997],[20.7119140625,2.9756045593691169,340.5],[20.742089843750023,2.87042877811912,359.0797],[20.748437500000023,2.85809967655662,353.2925],[20.755029296875023,2.84894440311912,346.4724],[20.769433593750023,2.83295319218162,361.3299],[20.773339843750023,2.8318057312441169,364.4662],[20.784814453125023,2.83344147343162,369.4011],[20.789453125000023,2.83075592655662,361.5902],[20.790185546875023,2.8257022156191169,354.2717],[20.787988281250023,2.8108096374941169,349.6454],[20.789794921875,2.77814362186912,361.296],[20.791894531250023,2.76898834843162,361.3836],[20.817529296875023,2.72394440311912,364.9044],[20.88720703125,2.63226959843162,363.5643],[20.9013671875,2.5837588562441169,341.4778],[20.897119140625023,2.562860418744108,347.2184],[20.886865234375023,2.53974030155662,355.4857],[20.872949218750023,2.51862213749412,342.6239],[20.858642578125,2.50360748905662,358.5358],[20.846826171875023,2.4966006531191169,347.9499],[20.822998046875,2.48627350468162,354.4088],[20.811279296875,2.4770694031191169,350.957],[20.802734375,2.46674225468162,351.3712],[20.796875,2.4575381531191169,359.7786],[20.789941406250023,2.44891998905662,345.0436],[20.778564453125,2.44025299686912,345.7969],[20.756494140625023,2.4299502624941169,335.8246],[20.741455078125,2.42902252811912,358.9039],[20.706201171875023,2.43622467655662,356.7549],[20.698876953125023,2.434930731244108,336.1223],[20.677636718750023,2.42841217655662,356.5373],[20.66748046875,2.42706940311912,351.3828],[20.661865234375,2.43353912968162,337.7609],[20.656982421875,2.43805573124412,355.3537],[20.650634765625,2.440301824994108,346.1167],[20.642578125,2.4397158874941169,340.2249],[20.591699218750023,2.42182037968162,353.6683],[20.525390625,2.407098699994108,341.2256],[20.500732421875,2.4084658874941169,342.6562],[20.492919921875,2.41315338749412,354.0963],[20.485595703125,2.42023346561912,347.893],[20.4765625,2.42719147343162,338.125],[20.463623046875,2.431512762494108,355.0491],[20.453515625000023,2.43170807499412,338.0803],[20.434472656250023,2.428583074994108,352.3873],[20.411035156250023,2.42865631718162,330.5]]}}