{"type":"Feature","properties":{"featurecla":"River","scalerank":2,"rivernum":45,"dissolve":"45River","name":"Congo3","name_alt":null,"note":null,"min_zoom":2.1,"strokeweig":1.0,"name_en":"Congo","min_label":3.1},
"geometry":{"type": "LineString","coordinates": [[19.142822265625,1.573602606244108,313.0],[19.123291015625,1.5630069031191169,313.0],[19.006738281250023,1.467157293744108,313.0],[19.002343750000023,1.4614444031191169,315.386],[18.996337890625,1.449090887494108,326.5869],[18.992431640625,1.44342682499412,323.7562],[18.987939453125023,1.43988678593162,327.5618],[18.9716796875,1.4336123718691169,321.3239],[18.959375,1.4255557312441169,316.7278],[18.909814453125023,1.3757510437441169,321.345],[18.83837890625,1.334588934369108,308.0],[18.832666015625023,1.32965729374412,308.0],[18.823144531250023,1.317987371869108,308.0],[18.81787109375,1.31317780155662,308.0],[18.77783203125,1.291131903119108,307.5],[18.775781250000023,1.2878604187441169,320.5454],[18.774169921875,1.281610418744108,321.8865],[18.77294921875,1.27826569218162,324.2084],[18.764404296875,1.268670965619108,323.1855],[18.731591796875023,1.24970123905662,326.4589],[18.716943359375023,1.2373233093691169,322.5031],[18.6396484375,1.14850494999412,323.2418],[18.627685546875,1.13959381718162,312.4083],[18.587646484375,1.11871979374412,315.3977],[18.571191406250023,1.1064639343691169,307.125],[18.5283203125,1.05890534061912,307.0],[18.48193359375,1.02033112186912,307.791],[18.467675781250023,1.005243231244108,307.0],[18.466699218750023,0.99371979374412,313.8803],[18.463281250000023,0.986102606244117,307.0],[18.450927734375,0.97174713749412,312.7548],[18.445556640625,0.963153387494117,306.5],[18.432519531250023,0.935321356244117,310.5405],[18.423095703125,0.922967840619108,306.0],[18.400634765625,0.901385809369117,307.0962],[18.390869140625,0.889422918744117,316.7126],[18.38125,0.872577215619117,315.4214],[18.34912109375,0.76850006718162,305.0],[18.329492187500023,0.619012762494108,328.6065],[18.31787109375,0.59076569218162,329.591],[18.310205078125023,0.551044012494117,312.4598],[18.305419921875,0.49237702030662,314.1553],[18.286523437500023,0.43866608280662,307.237],[18.282470703125,0.420184637494117,310.6979],[18.277587890625,0.35907623905662,311.2928],[18.26416015625,0.29730866093162,312.875],[18.2568359375,0.216424871869108,310.3967],[18.252197265625,0.197137762494108,309.1237],[18.243896484375,0.174823309369117,306.5602],[18.19921875,0.09979889530662,307.932]]}}