{"type":"Feature","properties":{"featurecla":"River","scalerank":6,"rivernum":365,"dissolve":"365River","name":"Ruki","name_alt":null,"note":null,"min_zoom":5.0,"strokeweig":0.3,"name_en":"Ruki","min_label":6.0},
"geometry":{"type": "LineString","coordinates": [[18.951171875,-0.21917083125588,320.2654],[18.933837890625,-0.211748956255889,319.0569],[18.909912109375,-0.209307550005889,320.2939],[18.880859375,-0.19915130000588,317.0081],[18.854150390625023,-0.17473723750588,313.2887],[18.810302734375,-0.12053801875588,326.6925],[18.7900390625,-0.105840753130892,318.511],[18.755029296875023,-0.088506768755892,309.4099],[18.718652343750023,-0.080205987505892,321.2945],[18.693603515625,-0.09319426875588,325.2221],[18.679833984375023,-0.08342864375588,319.549],[18.665283203125,-0.08098723750588,311.3255],[18.649804687500023,-0.08123137813088,308.7722],[18.6328125,-0.07952239375588,311.1365],[18.599511718750023,-0.066924737505886,305.8227],[18.581201171875023,-0.065264581255889,324.0733],[18.554101562500023,-0.056963800005889,319.5712],[18.523339843750023,-0.040899346880892,317.276],[18.494873046875,-0.03020598750588,320.6414],[18.474511718750023,-0.03789641719338,311.623],[18.462890625,-0.021368096880892,322.9901],[18.445458984375023,-0.009893487505892,315.7872],[18.424951171875023,-0.00457122188088,315.6155],[18.404052734375,-0.00664641719338,320.1906],[18.400048828125023,-0.008770440630883,317.8524],[18.397216796875,-0.011455987505883,321.5449],[18.39404296875,-0.013799737505892,314.0771],[18.388916015625,-0.01458098750588,312.943],[18.381005859375023,-0.012188409380883,309.0598],[18.375,-0.00652434688088,316.7817],[18.370751953125023,0.000848699994108,305.7318],[18.358642578125,0.035174871869117,300.7695],[18.336669921875,0.06378815311912,310.1923],[18.330078125,0.06940338749412,306.2328],[18.313134765625023,0.08014557499412,304.389],[18.29736328125,0.086444403119117,304.0023],[18.280908203125023,0.08893463749412,299.5305],[18.229248046875,0.08563873905662,298.5],[18.213037109375023,0.08161041874412,318.626],[18.1943359375,0.06940338749412,310.5565]]}}