{"type":"Feature","properties":{"featurecla":"River","scalerank":6,"rivernum":357,"dissolve":"357River","name":"Busira","name_alt":null,"note":null,"min_zoom":5.0,"strokeweig":0.25,"name_en":"Busira","min_label":6.0},
"geometry":{"type": "LineString","coordinates": [[20.753662109375,-0.281573175005889,343.6948],[20.740966796875,-0.28875090938088,345.5363],[20.7265625,-0.291045831255886,345.6034],[20.6953125,-0.29119231563088,344.4162],[20.672265625000023,-0.295245050005889,344.8344],[20.664941406250023,-0.291827081255889,344.4159],[20.6611328125,-0.278155206255889,345.5326],[20.646142578125023,-0.28533294063088,340.0337],[20.633203125000023,-0.282061456255889,339.9435],[20.621337890625,-0.27507903438088,346.0561],[20.609277343750023,-0.271319268755889,344.5333],[20.596826171875023,-0.27532317500588,345.349],[20.581298828125,-0.29363372188088,342.7271],[20.56494140625,-0.298663018755889,336.9964],[20.554833984375023,-0.295245050005889,335.1946],[20.524316406250023,-0.279131768755889,336.8292],[20.517822265625,-0.274737237505889,337.1456],[20.514550781250023,-0.263702081255886,341.9453],[20.506103515625,-0.25359465938088,340.1613],[20.49462890625,-0.24627044063088,340.9932],[20.482421875,-0.24407317500588,342.9163],[20.47265625,-0.248858331255889,336.126],[20.463037109375023,-0.26726653438088,336.011],[20.45166015625,-0.271319268755889,335.1568],[20.436914062500023,-0.267901300005889,335.6302],[20.410400390625,-0.252959893755886,339.7254],[20.3935546875,-0.25017669063088,336.9697],[20.342431640625023,-0.257647393755889,329.1902],[20.336328125000023,-0.252959893755886,329.3991],[20.318603515625,-0.223467706255889,341.3678],[20.310937500000023,-0.230498956255886,336.7889],[20.296533203125023,-0.252764581255889,338.7234],[20.290673828125023,-0.257647393755889,337.685],[20.279052734375,-0.25383880000588,314.5],[20.26513671875,-0.23479583125588,340.9049],[20.25341796875,-0.23040130000588,333.343],[20.247314453125,-0.235674737505889,330.7249],[20.24072265625,-0.258623956255889,330.2898],[20.23291015625,-0.26384856563088,329.3641],[20.2216796875,-0.260577081255889,329.4362],[20.218408203125023,-0.25237395625588,330.1272],[20.218164062500023,-0.241534112505889,333.1773],[20.215576171875,-0.23040130000588,330.5961],[20.209228515625,-0.221709893755886,331.149],[20.19287109375,-0.20403411250588,331.971],[20.188232421875,-0.195635675005889,334.5571],[20.188232421875,-0.182452081255889,361.1025],[20.193115234375,-0.171905206255886,352.9593],[20.198974609375,-0.16204192500588,358.0635],[20.201904296875,-0.151202081255889,347.7295],[20.197167968750023,-0.126299737505889,354.1254],[20.18408203125,-0.117217706255886,357.0886],[20.090576171875,-0.123663018755892,366.0364],[20.068017578125023,-0.13030364375588,360.3095],[20.068115234375,-0.144073175005886,349.8153],[20.083251953125,-0.15569426875588,346.6261],[20.089501953125023,-0.164385675005889,353.5588],[20.082177734375023,-0.168291925005889,348.4274],[20.07275390625,-0.167803643755889,346.0635],[20.06689453125,-0.165850518755889,346.5561],[20.002685546875,-0.121563409380883,352.9623],[19.995849609375,-0.110235284380892,333.0674],[19.986328125,-0.09905364375588,328.3219],[19.96484375,-0.099346612505883,334.4458],[19.927490234375,-0.106817315630892,332.2474],[19.907373046875023,-0.09050872188088,345.1611],[19.891748046875023,-0.083721612505883,341.1233],[19.8759765625,-0.089483331255892,339.5979],[19.833740234375,-0.121954034380892,340.2063],[19.824462890625,-0.13420989375588,342.0031],[19.832177734375023,-0.145342706255889,334.5247],[19.81201171875,-0.16008880000588,326.3682],[19.78125,-0.168975518755886,329.17],[19.7568359375,-0.16204192500588,330.8352],[19.7451171875,-0.166827081255889,325.7592],[19.738525390625,-0.159502862505889,326.2364],[19.734277343750023,-0.147979425005886,327.3244],[19.72900390625,-0.14031340938088,328.2446],[19.720947265625,-0.13958098750588,329.947],[19.708251953125,-0.14739348750588,329.0993],[19.701562500000023,-0.147784112505889,329.0227],[19.694726562500023,-0.14373137813088,328.1286],[19.681396484375,-0.13176848750588,327.0581],[19.67431640625,-0.12737395625588,328.2881],[19.6728515625,-0.154327081255886,325.2778],[19.662353515625,-0.156084893755889,323.1703],[19.646728515625,-0.14666106563088,322.9885],[19.6298828125,-0.14031340938088,333.1595],[19.58544921875,-0.146026300005886,328.5765],[19.56494140625,-0.14495208125588,329.6628],[19.543359375000023,-0.13420989375588,333.056],[19.535058593750023,-0.12444426875588,333.7293],[19.518212890625023,-0.099151300005886,331.16],[19.50927734375,-0.09319426875588,333.1313],[19.499755859375,-0.095928643755883,338.3738],[19.488427734375023,-0.10369231563088,332.0172],[19.47900390625,-0.112188409380892,334.1269],[19.475,-0.11712005000588,333.4622],[19.470117187500023,-0.12053801875588,332.9204],[19.458740234375,-0.116534112505889,333.1356],[19.446435546875023,-0.110088800005883,327.6384],[19.437744140625,-0.106817315630892,328.2009],[19.336083984375023,-0.12322356563088,333.7616],[19.305908203125,-0.139483331255889,340.3234],[19.242919921875,-0.154620050005889,329.5013],[19.1728515625,-0.159698175005886,348.067],[19.156884765625023,-0.16521575313088,336.8421],[19.149560546875023,-0.16790130000588,347.2906],[19.115625,-0.175127862505889,330.1465],[19.110253906250023,-0.181182550005886,325.0381],[19.114990234375,-0.194659112505889,330.6868],[19.126220703125,-0.21672942500588,327.2846],[19.115869140625023,-0.22356536250588,334.1273],[19.099755859375023,-0.21795012813088,328.8572],[19.084130859375023,-0.20818450313088,322.1135],[19.06787109375,-0.20305755000588,326.5283],[19.05859375,-0.213702081255889,328.3606],[19.062744140625,-0.260577081255889,324.1125],[19.047021484375023,-0.271319268755889,323.446],[19.025048828125023,-0.270342706255889,320.217],[19.01123046875,-0.26677825313088,322.3533],[18.999902343750023,-0.259307550005886,319.3268],[18.951171875,-0.21917083125588,320.2654]]}}