{"type":"Feature","properties":{"GID_2":"COD.21.2_1","GID_0":"COD","country":"DemocraticRepublicoftheCongo","GID_1":"COD.21_1","province":"Sankuru","NL_NAME_1":"NA","county":"Katako-Kombe","VARNAME_2":"NA","NL_NAME_2":"NA","TYPE_2":"Territoire","ENGTYPE_2":"Territory","CC_2":"NA","HASC_2":"NA","name":"Katako-Kombe.county"},
"geometry":{"type": "MultiPolygon","coordinates": [[[[24.6943,-2.3625,492.7051],[24.6515,-2.3843,489.8172],[24.4706,-2.4398,490.174],[24.3935,-2.4557,519.4717],[24.364,-2.4583,544.2864],[24.3366,-2.4916,510.0318],[24.3254,-2.501,538.3657],[24.3176,-2.5107,527.85],[24.3048,-2.519,565.3793],[24.294,-2.5312,580.3074],[24.2842,-2.536,533.3469],[24.2741,-2.5443,558.568],[24.2416,-2.5613,520.1465],[24.2357,-2.5665,549.459],[24.2224,-2.5709,548.3091],[24.2075,-2.5852,570.3911],[24.1617,-2.5992,510.8078],[24.1494,-2.6065,528.6245],[24.1274,-2.6247,574.2661],[24.0956,-2.6453,520.6051],[24.0798,-2.6529,507.0616],[24.0629,-2.6577,558.6089],[24.0526,-2.6633,530.0624],[24.0182,-2.6713,569.9108],[23.9882,-2.6906,553.6936],[23.9509,-2.7257,504.3245],[23.9436,-2.7299,497.2542],[23.9356,-2.7312,524.6703],[23.9141,-2.731,497.0058],[23.9067,-2.734,520.1086],[23.8925,-2.7346,558.918],[23.8265,-2.7218,498.0416],[23.8008,-2.7141,485.9336],[23.7628,-2.6986,471.2338],[23.755,-2.6933,482.9121],[23.7486,-2.6848,473.2147],[23.7422,-2.6813,470.1608],[23.7324,-2.6802,470.2116],[23.7127,-2.6668,502.91609999999997],[23.6887,-2.6638,467.8149],[23.6825,-2.6654,487.766],[23.6729,-2.6711,458.4051],[23.6553,-2.6706,451.2524],[23.6342,-2.6651,440.0416],[23.6207,-2.6658,435.1375],[23.6033,-2.6708,456.4136],[23.5558,-2.6671,490.6883],[23.5699,-2.6921,454.4044],[23.5928,-2.7179,507.0952],[23.5939,-2.7246,521.5968],[23.5989,-2.7345,496.7435],[23.5911,-2.7467,522.2112],[23.5656,-2.777,512.521],[23.554,-2.7936,467.451],[23.5479,-2.8097,482.2929],[23.5478,-2.8199,537.9991],[23.5258,-2.9185,505.2059],[23.5234,-2.937,523.0206],[23.5251,-2.9557,500.4639],[23.533,-2.9706,543.71],[23.5445,-2.9841,491.7064],[23.5905,-3.0307,529.3761],[23.6255,-3.0608,521.5484],[23.6797,-3.1114,569.755],[23.7034,-3.1378,563.3309],[23.798,-3.2346,587.2596],[23.8616,-3.2954,566.3686],[23.8816,-3.3125,517.0231],[23.92,-3.3552,602.943],[23.9253,-3.3665,532.3988],[23.9287,-3.3796,592.1761],[23.9385,-3.3974,542.1507],[23.9683,-3.4907,554.8538],[23.9805,-3.5059,565.9783],[23.9807,-3.5144,540.9382],[23.9728,-3.5213,580.1212],[23.9635,-3.5247,562.2656],[23.9343,-3.527,603.6246],[23.9214,-3.533,591.8821],[23.9346,-3.5699,518.825],[23.944,-3.6081,513.9597],[23.9702,-3.6406,484.7875],[23.9711,-3.6762,506.876],[23.9697,-3.6968,496.3644],[23.9549,-3.7015,510.3824],[23.9508,-3.7109,514.4744],[23.941,-3.7197,490.0534],[23.9406,-3.727,515.8986],[23.9446,-3.7383,500.5568],[23.9524,-3.7519,562.6278],[23.9579,-3.7717,531.8109],[23.9518,-3.7991,502.3971],[23.9385,-3.8171,482.6239],[23.9318,-3.8228,479.4617],[23.9283,-3.8332,496.117],[23.9286,-3.8423,530.942],[23.9349,-3.8717,519.6173],[23.9343,-3.8959,517.0609],[23.9303,-3.9118,569.6373],[23.7654,-4.1628,537.249],[23.7539,-4.1736,555.1754],[23.7437,-4.1903,536.3391],[23.7336,-4.2128,538.5125],[23.7402,-4.2135,522.7276],[23.7478,-4.2172,510.3881],[23.7528,-4.2234,545.5056],[23.7574,-4.2225,508.6157],[23.7618,-4.2248,508.1228],[23.7673,-4.2232,522.223],[23.7797,-4.2273,492.4362],[23.7842,-4.2317,513.254],[23.7941,-4.2283,481.8128],[23.8005,-4.2329,491.5495],[23.8072,-4.232,509.2829],[23.8124,-4.2359,521.6837],[23.8202,-4.2345,477.4344],[23.8211,-4.2393,536.8585],[23.8232,-4.2409,531.3403],[23.8432,-4.244,526.2349],[23.8585,-4.2559,534.0302],[23.8658,-4.2569,529.101],[23.8697,-4.2603,525.9164],[23.8762,-4.2615,522.6445],[23.8814,-4.2606,530.6779],[23.8858,-4.2622,505.6042],[23.8956,-4.2592,554.3906],[23.9011,-4.2643,558.5276],[23.9083,-4.265,506.2236],[23.9131,-4.2675,505.0295],[23.9248,-4.2659,529.8312],[23.936,-4.2726,493.0988],[23.9479,-4.2742,493.9274],[23.9578,-4.2839,512.3458],[23.9674,-4.2832,513.2192],[23.9715,-4.2867,488.5253],[23.9786,-4.2855,520.3405],[23.9844,-4.2922,532.3489],[23.9894,-4.291,516.8356],[23.9944,-4.295,539.7598],[24.0069,-4.2812,576.8721],[24.0219,-4.2601,547.3958],[24.0495,-4.2167,624.0174],[24.1224,-4.1221,560.674],[24.1471,-4.1387,579.7655],[24.1521,-4.1361,548.0087],[24.1575,-4.128,561.0287],[24.1739,-4.0893,585.7017],[24.2011,-4.0556,622.3412],[24.204,-4.0229,604.103],[24.2094,-4.0136,600.2414],[24.2149,-4.0098,552.494],[24.223,-4.0094,588.5664],[24.2437,-4.0183,595.4932],[24.2504,-4.0243,592.6315],[24.2619,-4.014,569.1649],[24.2655,-4.0126,551.0188],[24.2704,-3.9951,557.3807],[24.2763,-3.9852,552.9082],[24.288,-3.9714,591.9313],[24.2924,-3.9691,584.7515],[24.305,-3.9708,575.9075],[24.3153,-3.9671,550.1936],[24.3277,-3.9694,592.6204],[24.3375,-3.9747,554.0985],[24.3609,-3.977,564.7533],[24.3705,-3.9823,537.1084],[24.3852,-3.9828,562.4846],[24.3985,-3.9894,545.6819],[24.4115,-3.9899,549.9891],[24.4246,-3.9954,547.3826],[24.4209,-4.0062,521.0994],[24.4152,-4.0529,545.6515],[24.4007,-4.1193,570.8806],[24.3977,-4.1497,595.9769],[24.4018,-4.1882,589.2504],[24.4064,-4.1959,632.2787],[24.504,-4.191,524.8529],[24.5202,-4.1922,566.4692],[24.5259,-4.1944,560.0212],[24.5306,-4.2081,551.6442],[24.535,-4.2115,547.9839],[24.5482,-4.2153,564.5013],[24.5555,-4.2697,547.6355],[24.5647,-4.373,647.2079],[24.5673,-4.3807,606.3091],[24.5767,-4.3804,591.9916],[24.6137,-4.3687,570.2018],[24.6522,-4.363,601.3575],[24.6694,-4.3527,570.0996],[24.6744,-4.3537,564.5671],[24.6771,-4.3639,598.4269],[24.6817,-4.3715,579.0082],[24.6931,-4.3796,563.9598],[24.7039,-4.3844,551.0075],[24.7227,-4.3772,536.2107],[24.7268,-4.377,530.1882],[24.7289,-4.3715,540.04],[24.7349,-4.3664,529.6676],[24.747,-4.3623,522.9582],[24.7566,-4.3487,543.0417],[24.7759,-4.333,530.3884],[24.7855,-4.3169,523.8024],[24.7903,-4.3135,515.0685],[24.7928,-4.3089,517.6121],[24.7984,-4.3066,514.9802],[24.8029,-4.3013,512.4732],[24.8059,-4.3001,509.8021],[24.8089,-4.2902,517.3954],[24.8176,-4.2868,506.995],[24.8201,-4.2827,512.7184],[24.8332,-4.2739,516.7943],[24.8518,-4.2688,511.6689],[24.8605,-4.2631,511.4612],[24.8676,-4.2638,516.6662],[24.8722,-4.2615,517.2812],[24.8887,-4.2612,509.1515],[24.8949,-4.2592,518.2996],[24.8983,-4.261,504.1682],[24.916,-4.255,502.0085],[24.9251,-4.2557,515.5846],[24.9311,-4.2541,527.1051],[24.9581,-4.2559,496.5037],[24.9882,-4.2444,496.7985],[24.9948,-4.2444,494.6584],[25.0,-4.241,501.3819],[25.0079,-4.2412,486.3101],[25.0015,-4.2308,508.6231],[25.0053,-4.2226,500.5095],[24.9989,-4.2134,507.5721],[25.0014,-4.2092,486.5792],[25.0069,-4.2051,500.4074],[25.0097,-4.1975,494.2075],[25.0021,-4.183,485.8924],[25.0131,-4.1765,480.8236],[25.0159,-4.1724,483.2894],[25.0131,-4.169,479.5061],[24.989,-4.16,507.3872],[24.9863,-4.1572,507.041],[24.984,-4.1492,512.0128],[24.9849,-4.1455,515.2263],[24.9954,-4.1381,484.1203],[25.0,-4.1324,483.03],[25.0016,-4.1252,488.8589],[25.0007,-4.119,497.308],[24.9979,-4.1149,483.4542],[24.9924,-4.111,496.4177],[24.9768,-4.1084,513.9707],[24.9729,-4.1015,504.1145],[24.9839,-4.0707,487.8635],[24.9839,-4.065,528.8043],[24.9796,-4.0558,486.999],[24.9816,-4.0507,481.4454],[24.98,-4.0479,485.144],[24.9713,-4.0461,485.9757],[24.9651,-4.0346,483.8954],[24.9624,-4.033,484.1444],[24.952,-4.0321,481.0496],[24.9493,-4.03,475.294],[24.9468,-4.0302,502.1028],[24.9454,-4.0323,490.0979],[24.9397,-4.0445,477.4072],[24.9328,-4.0447,489.8611],[24.9268,-4.047,515.3378],[24.9239,-4.0468,503.9257],[24.9209,-4.044,514.64],[24.9163,-4.0229,476.6767],[24.9083,-4.0201,481.5352],[24.905,-4.0137,479.5291],[24.8975,-4.0121,518.7576],[24.8956,-4.0091,517.8928],[24.8954,-4.0022,529.8345],[24.8995,-3.986,484.6437],[24.9059,-3.9798,472.4233],[24.9062,-3.9769,477.9214],[24.9009,-3.9699,479.1661],[24.889,-3.9683,488.636],[24.8874,-3.9667,486.4661],[24.8881,-3.9596,487.2209],[24.8715,-3.9439,473.6258],[24.858,-3.9449,467.827],[24.8539,-3.9396,495.8121],[24.853,-3.9347,477.3593],[24.8585,-3.9177,476.718],[24.8543,-3.9067,471.989],[24.8511,-3.9051,469.5673],[24.8477,-3.9078,484.542],[24.8436,-3.9186,482.0382],[24.8367,-3.9196,482.1896],[24.8303,-3.9166,476.2233],[24.8239,-3.9094,470.442],[24.8177,-3.8899,482.1491],[24.8133,-3.8839,472.41],[24.803,-3.8763,471.6263],[24.8009,-3.8694,474.0224],[24.803,-3.8604,469.9027],[24.8078,-3.8574,471.2314],[24.8121,-3.8579,464.5],[24.8204,-3.8625,472.2253],[24.8222,-3.859,468.5795],[24.8197,-3.8542,476.0205],[24.7961,-3.8446,471.585],[24.7821,-3.8432,464.5],[24.767,-3.8381,468.0742],[24.7663,-3.8356,468.4131],[24.7794,-3.8337,472.7334],[24.7814,-3.8305,468.232],[24.7794,-3.8273,469.4778],[24.7734,-3.8252,468.128],[24.7645,-3.8271,466.5926],[24.7613,-3.8257,468.259],[24.7649,-3.8183,464.7288],[24.764,-3.8146,466.5602],[24.7615,-3.8146,467.3734],[24.759,-3.8174,470.2092],[24.7555,-3.8183,468.1377],[24.7484,-3.8096,473.5686],[24.7431,-3.8107,470.6501],[24.7413,-3.8057,472.0319],[24.7422,-3.7997,467.5371],[24.7337,-3.7907,467.4565],[24.7305,-3.7808,482.1499],[24.7316,-3.7747,500.4753],[24.7381,-3.7758,469.4933],[24.7406,-3.7815,471.9038],[24.7427,-3.7822,474.4081],[24.7473,-3.776,477.04],[24.753,-3.7594,473.4064],[24.7621,-3.755,469.6181],[24.7651,-3.7468,466.8455],[24.7635,-3.7447,466.7106],[24.7527,-3.7435,464.1698],[24.7516,-3.741,473.844],[24.7546,-3.7362,474.4236],[24.758,-3.7343,468.0924],[24.7612,-3.7343,467.4171],[24.7663,-3.7373,467.0327],[24.7676,-3.7233,474.0737],[24.7761,-3.7152,465.9529],[24.778199999999998,-3.7081,471.9903],[24.7814,-3.707,469.7107],[24.7972,-3.7109,474.6971],[24.7976,-3.6991,470.71],[24.8011,-3.6904,468.0657],[24.7951,-3.6789,464.2309],[24.7974,-3.6761,465.8443],[24.8059,-3.6722,470.0275],[24.8075,-3.6665,471.2264],[24.804,-3.6589,468.8343],[24.7995,-3.6577,465.3596],[24.7889,-3.66,464.9038],[24.7857,-3.6561,468.553],[24.7862,-3.6515,464.9469],[24.7958,-3.648,463.6615],[24.7978,-3.6444,465.1889],[24.7967,-3.6399,464.6035],[24.7882,-3.6365,466.1147],[24.788,-3.6324,462.9092],[24.7917,-3.6273,463.1488],[24.7811,-3.6283,463.5041],[24.7788,-3.6243,473.1544],[24.7807,-3.6204,463.396],[24.7859,-3.6184,466.8803],[24.7882,-3.6138,462.9951],[24.7882,-3.6105,463.0219],[24.7827,-3.6025,462.3905],[24.7838,-3.5942,464.2387],[24.7733,-3.5949,460.5],[24.7692,-3.594,478.5842],[24.7669,-3.5912,465.9995],[24.7703,-3.5875,460.5],[24.7772,-3.5845,465.0412],[24.7777,-3.5797,462.5545],[24.7757,-3.5756,464.1649],[24.7694,-3.5682,463.3138],[24.7715,-3.5654,465.6004],[24.7772,-3.5643,463.7372],[24.7786,-3.5613,459.5],[24.7733,-3.548,479.0345],[24.774,-3.5457,471.2339],[24.777,-3.5454,469.6708],[24.7831,-3.5496,474.6962],[24.7877,-3.5491,471.8658],[24.7912,-3.5523,460.731],[24.793,-3.5477,467.739],[24.7921,-3.5427,483.9409],[24.7939,-3.5397,479.9514],[24.8058,-3.5369,481.4551],[24.8076,-3.5328,489.481],[24.8001,-3.5187,491.1656],[24.7985,-3.5042,467.2692],[24.7891,-3.4941,464.5707],[24.7799,-3.4902,483.4471],[24.7751,-3.4856,488.7023],[24.7726,-3.4822,486.2982],[24.7744,-3.4757,470.7578],[24.7982,-3.455,483.8384],[24.8023,-3.4543,487.6991],[24.8163,-3.4591,465.687],[24.8248,-3.4589,498.8391],[24.8307,-3.4541,507.2482],[24.834,-3.4444,506.633],[24.8339,-3.4281,484.1261],[24.8371,-3.4255,493.6043],[24.8507,-3.4239,499.9254],[24.8552,-3.4198,487.3732],[24.86,-3.4083,480.5926],[24.8648,-3.3837,476.8006],[24.8676,-3.3777,482.5124],[24.8717,-3.3749,475.1211],[24.8997,-3.3738,472.204],[24.9031,-3.3712,472.5364],[24.9065,-3.3636,472.1067],[24.9063,-3.3459,476.409],[24.9101,-3.3314,463.2691],[24.9079,-3.3172,472.8295],[24.9097,-3.3107,463.3106],[24.9179,-3.3004,467.4954],[24.9156,-3.296,465.3295],[24.9017,-3.2955,468.0936],[24.8978,-3.293,467.3849],[24.8966,-3.2898,475.6962],[24.8982,-3.282,475.294],[24.9019,-3.2741,483.0678],[24.9122,-3.2652,460.0069],[24.925,-3.2629,475.5974],[24.941,-3.2645,482.1099],[24.9491,-3.2693,473.7493],[24.9562,-3.2698,466.0505],[24.9603,-3.2679,469.7601],[24.9635,-3.2617,481.3749],[24.9632,-3.2569,473.2539],[24.9575,-3.2401,478.7639],[24.9587,-3.2339,479.366],[24.9674,-3.2235,462.6404],[24.9699,-3.2178,464.2998],[24.9644,-3.2014,476.1309],[24.9662,-3.1954,470.1013],[24.9696,-3.1934,465.726],[24.99,-3.1927,476.2365],[24.9948,-3.1892,464.2075],[24.9971,-3.1851,464.5082],[24.9989,-3.1738,472.8986],[24.9982,-3.1632,467.57],[25.0,-3.1529,475.7739],[25.0071,-3.1462,483.8831],[25.0202,-3.1427,468.1463],[25.0232,-3.1386,462.1129],[25.0236,-3.134,457.1265],[25.009,-3.1236,458.0566],[25.0076,-3.1207,477.8156],[25.0085,-3.1165,472.0601],[25.0183,-3.1057,479.4648],[25.0208,-3.0926,455.511],[25.0192,-3.0887,459.2071],[25.0147,-3.085,454.0],[25.0046,-3.0813,468.0815],[25.0017,-3.078,457.735],[25.0012,-3.0742,454.0],[25.0089,-3.0636,461.7961],[25.0137,-3.0634,458.1363],[25.0183,-3.0657,454.0],[25.0309,-3.0776,467.2484],[25.0343,-3.0781,461.2212],[25.0364,-3.0744,472.1013],[25.0368,-3.0659,463.1772],[25.0272,-3.05,472.0077],[25.0277,-3.047,477.1745],[25.0318,-3.0417,461.705],[25.0313,-3.0401,461.7281],[25.019,-3.0378,470.9834],[25.0117,-3.0337,463.1429],[25.0079,-3.0298,472.6601],[25.0074,-3.0243,466.1804],[25.0091,-3.0212,460.6338],[25.0167,-3.0155,472.3819],[25.0231,-2.9992,469.0086],[25.0247,-2.9849,452.5],[25.0329,-2.9739,471.0125],[25.0432,-2.9515,473.5721],[25.0505,-2.9294,490.0677],[25.0649,-2.9034,483.985],[25.0688,-2.8777,478.8599],[25.0724,-2.8675,479.0502],[25.0866,-2.8416,473.2608],[25.0884,-2.8307,478.7904],[25.0944,-2.8231,450.9543],[25.1026,-2.8167,451.9511],[25.1049,-2.8109,475.0164],[25.1081,-2.7872,454.2325],[25.1124,-2.7744,470.7222],[25.1101,-2.7615,458.1266],[25.097,-2.7428,461.9237],[25.0954,-2.7309,464.5426],[25.0867,-2.7024,465.4052],[25.0869,-2.6971,481.9173],[25.0823,-2.6805,476.5846],[25.0835,-2.6686,460.8322],[25.0814,-2.6573,472.3681],[25.0828,-2.6458,477.7224],[25.0773,-2.6311,482.8079],[25.0743,-2.6007,465.1367],[25.0588,-2.6024,467.8766],[25.047,-2.595,467.0609],[25.036,-2.5836,464.2466],[25.0068,-2.5622,442.5322],[25.0017,-2.5453,459.9027],[25.0039,-2.5308,470.0718],[25.0344,-2.5095,465.7792],[25.0467,-2.4963,448.8219],[25.0378,-2.4917,465.7516],[25.018,-2.4928,464.4384],[25.0027,-2.4862,442.6515],[24.9995,-2.4723,463.704],[25.0049,-2.4643,471.0622],[25.0329,-2.4444,439.0],[25.0493,-2.4247,469.7382],[25.0483,-2.4119,464.8679],[25.0263,-2.4135,466.6948],[24.9891,-2.4208,463.6997],[24.979,-2.4163,463.8589],[24.9607,-2.3989,482.0244],[24.9315,-2.3979,478.6584],[24.9315,-2.3742,479.9568],[24.926,-2.3724,480.9192],[24.8685,-2.3695,496.1324],[24.7846,-2.3692,488.2499],[24.7199,-2.3653,514.7762],[24.7062,-2.3689,504.0192],[24.6943,-2.3625,492.7051]]]]}}