{"type": "Feature","bbox": [15.137,-5.0254,16.5324,-3.9276],"geometry": {"type": "MultiPolygon","coordinates": [[[[16.2571,-4.97,586.0255],[16.2599,-4.9684,575.0431],[16.2606,-4.9651,576.6794],[16.2626,-4.9651,574.5588],[16.2637,-4.9633,574.793],[16.2629,-4.9613,575.143],[16.2653,-4.9608,574.6157],[16.2661,-4.9587,580.4456],[16.2637,-4.9522,573.953],[16.2654,-4.9484,572.7347],[16.2639,-4.9431,574.4965],[16.2662,-4.9399,580.7773],[16.2652,-4.9388,579.3506],[16.2686,-4.9279,576.976],[16.2675,-4.9271,576.976],[16.2679,-4.9225,581.3678],[16.2654,-4.9214,573.9474],[16.2652,-4.9152,573.0656],[16.2631,-4.9141,581.9337],[16.263,-4.9074,578.032],[16.2658,-4.9067,581.6818],[16.2663,-4.9002,573.3439],[16.2681,-4.8998,583.0244],[16.2673,-4.8988,570.4568],[16.2693,-4.8974,573.9993],[16.2677,-4.8964,573.9993],[16.2692,-4.8955,576.751],[16.2661,-4.8931,573.9329],[16.2659,-4.891,575.8345],[16.2674,-4.8909,575.8345],[16.2649,-4.8892,575.1136],[16.2659,-4.8842,577.2178],[16.267,-4.8845,577.2178],[16.2655,-4.8811,578.5474],[16.2665,-4.8804,578.5474],[16.2611,-4.8745,576.4564],[16.2574,-4.8674,580.7932],[16.2586,-4.8589,575.4618],[16.2532,-4.8557,572.4572],[16.248,-4.8557,562.9592],[16.2453,-4.8531,563.2625],[16.2402,-4.8533,571.0245],[16.2433,-4.8407,573.8282],[16.2402,-4.8351,558.0746],[16.2434,-4.8336,564.2186],[16.2411,-4.831,558.5089],[16.2432,-4.8264,558.7083],[16.2454,-4.8246,557.7673],[16.2521,-4.8235,564.4085],[16.2519,-4.8187,560.4136],[16.2487,-4.8162,561.3722],[16.2522,-4.8111,554.6888],[16.2523,-4.8085,552.9932],[16.2502,-4.8075,554.2068],[16.2517,-4.8041,559.4623],[16.2502,-4.8058,556.2208],[16.2488,-4.8052,554.7796],[16.2516,-4.7979,557.8137],[16.2502,-4.7917,552.8848],[16.2525,-4.7856,553.9879],[16.2595,-4.7787,555.1694],[16.2557,-4.7718,554.7125],[16.2617,-4.767,553.0548],[16.2608,-4.7629,553.6365],[16.2622,-4.7626,553.7172],[16.2614,-4.7604,556.5789],[16.2627,-4.76,556.5789],[16.2625,-4.7541,559.4983],[16.2641,-4.7514,556.5457],[16.2625,-4.7478,550.7589],[16.2836,-4.7371,689.5874],[16.2909,-4.7284,709.1837],[16.3124,-4.6775,711.6105],[16.3229,-4.6575,689.3241],[16.3486,-4.5998,678.5425],[16.3653,-4.5674,701.2317],[16.3716,-4.5576,686.3289],[16.383,-4.545,686.5487],[16.3949,-4.5215,689.0286],[16.3971,-4.5051,666.4142],[16.3971,-4.4891,661.4978],[16.4018,-4.4815,664.2556],[16.4041,-4.4686,587.3845],[16.4061,-4.4652,637.6517],[16.4157,-4.4573,679.6676],[16.4196,-4.4566,683.6353],[16.4417,-4.4754,642.8304],[16.4532,-4.4783,620.2573],[16.4642,-4.4836,497.5405],[16.4753,-4.4849,538.957],[16.4787,-4.4828,482.2269],[16.4942,-4.4835,337.5],[16.4987,-4.4738,340.739],[16.4969,-4.4677,341.2723],[16.498,-4.4556,336.5],[16.4914,-4.4437,346.1489],[16.4964,-4.4344,340.788],[16.4978,-4.4215,352.1442],[16.5033,-4.4166,336.0],[16.5057,-4.412,347.0089],[16.5112,-4.4121,341.8976],[16.5152,-4.41,337.9247],[16.515,-4.4061,335.5],[16.5083,-4.394,338.4946],[16.5091,-4.3907,348.7563],[16.5109,-4.3885,335.5],[16.5165,-4.3877,341.8663],[16.5201,-4.3802,397.7348],[16.527,-4.3749,340.1846],[16.5315,-4.3666,334.5],[16.5324,-4.3568,355.3797],[16.5269,-4.3509,339.1614],[16.5164,-4.3333,377.2487],[16.5173,-4.3285,342.8705],[16.5221,-4.3238,348.8832],[16.5217,-4.3121,336.4343],[16.51,-4.2847,408.4995],[16.5061,-4.2787,371.5394],[16.5045,-4.2693,332.5],[16.4942,-4.2642,332.0],[16.49,-4.2592,342.3569],[16.4897,-4.2509,406.9868],[16.4936,-4.2422,382.8012],[16.4932,-4.2396,352.3577],[16.4885,-4.2379,331.5],[16.4841,-4.2389,350.2339],[16.4787,-4.2348,345.5246],[16.4779,-4.2304,331.0],[16.4823,-4.2262,364.7791],[16.4834,-4.2229,415.0928],[16.4707,-4.2189,551.3397],[16.4637,-4.2035,548.7546],[16.4559,-4.1957,545.9471],[16.455,-4.1911,506.8031],[16.4568,-4.1858,536.2719],[16.4609,-4.1831,548.2495],[16.4673,-4.184,553.1806],[16.471,-4.1796,561.4147],[16.4716,-4.1766,575.4729],[16.4693,-4.1736,578.4575],[16.454,-4.1716,551.0419],[16.4507,-4.1626,576.1315],[16.442,-4.1567,557.3829],[16.4351,-4.1567,545.2079],[16.4298,-4.1528,544.7628],[16.427,-4.145,546.7229],[16.4139,-4.1336,566.0388],[16.3816,-4.1117,581.1353],[16.3131,-4.0709,604.5834],[16.1852,-4.0007,613.5236],[16.0758,-3.9479,636.2448],[16.0559,-3.9423,597.8938],[16.0475,-3.9433,607.0242],[16.0429,-3.9485,583.6755],[16.0344,-3.9637,512.9471],[16.0251,-3.9684,566.842],[16.0105,-3.9714,417.0835],[16.0095,-3.9696,350.9986],[16.0029,-3.968,295.978],[16.0025,-3.965,294.4407],[15.9992,-3.9639,296.8635],[15.999,-3.9584,299.1909],[15.9964,-3.9564,295.8993],[15.9907,-3.956,300.8736],[15.9856,-3.9517,304.4916],[15.9818,-3.9519,295.7001],[15.98,-3.9488,292.905],[15.972,-3.9459,288.7692],[15.9639,-3.9381,290.823],[15.9579,-3.937,306.9321],[15.9535,-3.9321,290.7446],[15.9452,-3.9276,287.4221],[15.9386,-3.9324,294.3564],[15.939,-3.9351,287.4519],[15.9339,-3.9413,297.4996],[15.9277,-3.9419,297.1335],[15.9233,-3.9497,293.3152],[15.9198,-3.9498,283.4362],[15.9186,-3.9531,284.4355],[15.9152,-3.9541,278.2705],[15.9107,-3.9496,280.3057],[15.9021,-3.9486,272.5],[15.8929,-3.9585,289.0561],[15.8806,-3.9645,272.5],[15.878,-3.9653,293.8595],[15.8748,-3.9633,280.0068],[15.8693,-3.9665,312.708],[15.8592,-3.967,274.2132],[15.8316,-3.9783,275.2162],[15.8009,-3.9818,272.5],[15.7702,-3.9882,272.364],[15.7138,-3.9941,272.0],[15.6791,-4.0037,273.9442],[15.6699,-4.0091,275.6629],[15.6603,-4.0096,276.1177],[15.6449,-4.0137,275.4831],[15.6137,-4.0255,278.8249],[15.5947,-4.0304,281.0533],[15.5898,-4.0346,272.7189],[15.5564,-4.0482,283.7721],[15.5339,-4.0736,287.6034],[15.5144,-4.1066,270.5],[15.5065,-4.1264,269.0],[15.5,-4.1492,268.0],[15.5005,-4.161,268.0],[15.5054,-4.1782,268.0],[15.5057,-4.1909,268.0],[15.5039,-4.201,271.1926],[15.4994,-4.2123,268.0],[15.4765,-4.2522,268.0],[15.4638,-4.2696,271.1745],[15.4489,-4.2802,270.8924],[15.4286,-4.2914,268.0],[15.4153,-4.2965,268.0],[15.3972,-4.2998,268.9876],[15.3719,-4.2894,269.8055],[15.3132,-4.2789,268.0],[15.3022,-4.2817,268.0],[15.2939,-4.2863,268.0],[15.2758,-4.303,286.5741],[15.2652,-4.3165,259.125],[15.2545,-4.3218,257.75],[15.2288,-4.3272,262.5389],[15.2076,-4.3381,262.4086],[15.1943,-4.3476,287.382],[15.1814,-4.3785,282.018],[15.1793,-4.3902,264.0539],[15.1746,-4.394,243.7205],[15.174,-4.397,259.4919],[15.1687,-4.3986,265.5635],[15.161,-4.4065,256.4139],[15.1622,-4.4106,253.0448],[15.1475,-4.4268,343.0342],[15.137,-4.4462,267.5138],[15.1408,-4.4456,281.2952],[15.1427,-4.4471,300.0226],[15.1434,-4.4509,292.5899],[15.1464,-4.4526,289.8271],[15.1496,-4.4518,290.6371],[15.1523,-4.4531,302.0065],[15.1542,-4.451,309.5118],[15.1566,-4.4541,304.405],[15.1619,-4.4562,321.6432],[15.1733,-4.4755,334.9996],[15.1761,-4.4968,344.4773],[15.1737,-4.5032,350.9742],[15.1777,-4.5112,372.7166],[15.1724,-4.5268,394.3219],[15.1721,-4.5355,444.7353],[15.1765,-4.5408,450.8606],[15.1739,-4.5465,496.9496],[15.1731,-4.5561,428.695],[15.1748,-4.5591,469.4902],[15.1948,-4.5619,408.1529],[15.2068,-4.5665,359.2367],[15.2136,-4.5829,374.3115],[15.2162,-4.5855,372.7314],[15.2299,-4.5895,377.4803],[15.2314,-4.5919,377.9576],[15.2341,-4.5927,385.6286],[15.2456,-4.6156,384.9205],[15.2529,-4.6166,402.4202],[15.2681,-4.6151,397.5778],[15.2727,-4.616,401.1526],[15.2791,-4.6222,381.9782],[15.2919,-4.6213,376.6753],[15.3012,-4.6223,371.9085],[15.3044,-4.6242,365.5988],[15.3144,-4.6246,362.439],[15.3188,-4.6296,359.0809],[15.3267,-4.6332,355.091],[15.3305,-4.6402,344.237],[15.3289,-4.6425,339.2821],[15.3306,-4.6452,347.3179],[15.3343,-4.6468,339.648],[15.3417,-4.6462,328.7383],[15.3465,-4.6478,324.0923],[15.3578,-4.6466,316.9118],[15.3577,-4.6433,317.7406],[15.3597,-4.6423,317.0702],[15.3592,-4.6444,316.6014],[15.362,-4.644,317.0599],[15.3684,-4.6389,316.3443],[15.3681,-4.6377,333.067],[15.3731,-4.6387,315.3298],[15.375,-4.6368,314.9174],[15.378,-4.6374,316.7996],[15.3772,-4.6338,322.1057],[15.3803,-4.6326,330.4105],[15.3869,-4.6257,324.6307],[15.3898,-4.625,317.1946],[15.3923,-4.6131,316.6557],[15.3965,-4.6103,312.1855],[15.3968,-4.6052,322.2527],[15.4032,-4.6012,312.3625],[15.4054,-4.5922,326.67],[15.404,-4.5894,323.475],[15.4077,-4.5883,304.3043],[15.4055,-4.5835,304.722],[15.4074,-4.5816,320.0991],[15.4046,-4.5782,339.2845],[15.4062,-4.5737,306.3279],[15.404,-4.567,308.4005],[15.4064,-4.5644,335.5098],[15.4029,-4.5602,317.3811],[15.4072,-4.5543,308.6224],[15.4061,-4.5527,302.546],[15.4123,-4.5483,309.1775],[15.4197,-4.5467,313.5354],[15.4223,-4.5445,314.0524],[15.4291,-4.5459,309.4329],[15.4363,-4.5446,311.5061],[15.4384,-4.5462,325.3977],[15.4395,-4.5541,319.26],[15.45,-4.5695,328.2012],[15.4488,-4.5745,330.8409],[15.4511,-4.5807,324.926],[15.462,-4.5869,329.4719],[15.465,-4.591,341.3637],[15.4641,-4.5935,340.107],[15.4664,-4.6,354.9579],[15.4767,-4.6079,342.5035],[15.4859,-4.6081,356.5021],[15.5032,-4.6019,344.5767],[15.5094,-4.6039,346.9195],[15.5154,-4.6007,346.0717],[15.5171,-4.5946,354.3098],[15.5249,-4.5877,356.3424],[15.5427,-4.5958,357.4819],[15.5506,-4.6043,367.6124],[15.5712,-4.604,414.591],[15.5825,-4.6065,386.3036],[15.596,-4.6026,466.7704],[15.6346,-4.6023,345.4109],[15.6472,-4.6042,339.3162],[15.6513,-4.5861,334.9586],[15.6529,-4.5844,342.8227],[15.6521,-4.5827,345.3592],[15.6558,-4.5794,335.1519],[15.6544,-4.5765,332.2247],[15.6563,-4.5739,335.826],[15.6619,-4.5764,342.7589],[15.6632,-4.5717,331.8883],[15.6674,-4.5689,333.3721],[15.6681,-4.573,345.7168],[15.6703,-4.5717,332.3539],[15.6715,-4.5848,386.7711],[15.6783,-4.5945,417.93],[15.6984,-4.6082,632.3671],[15.7326,-4.619,709.9073],[15.7436,-4.6303,725.7386],[15.751,-4.6475,726.7897],[15.7377,-4.6794,405.7639],[15.7261,-4.6965,399.6554],[15.7202,-4.7106,389.5937],[15.7156,-4.7277,372.7869],[15.7128,-4.7635,418.6193],[15.7097,-4.7761,380.6318],[15.6988,-4.7939,387.9171],[15.6838,-4.8072,379.9154],[15.668,-4.8103,372.774],[15.6479,-4.8076,397.0778],[15.6359,-4.8104,393.3715],[15.6245,-4.8185,465.3102],[15.62,-4.8319,438.4373],[15.6138,-4.8617,412.4717],[15.6163,-4.8781,407.9249],[15.6244,-4.8924,430.217],[15.6389,-4.9037,398.1768],[15.6689,-4.9159,487.2296],[15.6849,-4.9272,405.3066],[15.6866,-4.9316,468.7081],[15.6855,-4.9372,498.8807],[15.6991,-4.9468,477.5617],[15.7179,-4.9567,540.8361],[15.7346,-4.9621,730.8708],[15.7436,-4.9696,774.1686],[15.7446,-4.9883,785.4139],[15.7544,-5.0182,727.0977],[15.7649,-5.0187,757.0621],[15.7794,-5.0235,781.5264],[15.783,-5.0235,783.6586],[15.7927,-5.0193,762.3881],[15.8049,-5.0248,703.2277],[15.8158,-5.0206,729.8237],[15.8209,-5.0243,704.2528],[15.8308,-5.0254,680.7239],[15.8342,-5.0235,680.201],[15.8339,-5.0196,682.8223],[15.8353,-5.0198,682.8223],[15.8354,-5.0174,677.703],[15.8416,-5.0169,681.295],[15.842,-5.0143,676.4681],[15.8446,-5.0141,680.9821],[15.8443,-5.0119,677.4034],[15.8425,-5.013,676.4681],[15.8421,-5.0096,677.8764],[15.8475,-5.0063,679.5262],[15.8504,-4.9999,676.2266],[15.8516,-5.001,676.2266],[15.8509,-4.9969,676.0869],[15.8523,-4.9981,678.7231],[15.8535,-4.997,676.3199],[15.8525,-4.9922,674.8387],[15.8538,-4.992,674.8387],[15.8494,-4.9882,677.2152],[15.8515,-4.9863,675.5624],[15.8504,-4.9851,672.8005],[15.8524,-4.9841,673.3535],[15.8521,-4.9828,672.1294],[15.8544,-4.982,681.6141],[15.8537,-4.9799,671.287],[15.8565,-4.9784,684.3693],[15.8561,-4.9761,672.7106],[15.8573,-4.9761,672.7106],[15.8561,-4.9754,672.7106],[15.8573,-4.9753,672.7106],[15.8571,-4.9734,677.1813],[15.855,-4.9713,673.674],[15.8557,-4.9688,671.6367],[15.858,-4.9675,670.8472],[15.8556,-4.9668,670.7004],[15.8575,-4.9651,671.6467],[15.8562,-4.9646,671.6467],[15.859,-4.9621,667.8647],[15.8596,-4.9572,671.3236],[15.8628,-4.9572,670.6932],[15.8654,-4.9527,673.9788],[15.8661,-4.9477,669.342],[15.8578,-4.9413,666.1868],[15.8557,-4.938,669.0398],[15.8569,-4.9369,667.05],[15.8556,-4.9359,664.6909],[15.8549,-4.9295,664.865],[15.8522,-4.9288,668.9583],[15.8541,-4.9264,664.2593],[15.8524,-4.9249,668.8894],[15.8543,-4.925,667.2995],[15.8539,-4.923,665.1608],[15.8554,-4.9245,665.1608],[15.855,-4.9193,665.5137],[15.8569,-4.9187,665.915],[15.8537,-4.9116,662.1459],[15.8502,-4.911,663.1794],[15.846,-4.9077,662.2541],[15.8435,-4.9024,667.3237],[15.8454,-4.9019,664.7745],[15.8431,-4.8998,666.7983],[15.8446,-4.8957,659.976],[15.8424,-4.8917,665.983],[15.8437,-4.8894,659.1976],[15.8423,-4.8892,661.5379],[15.845,-4.8858,658.1747],[15.8446,-4.8828,660.3905],[15.8475,-4.8819,658.3354],[15.8482,-4.8797,658.9788],[15.8522,-4.8796,657.9026],[15.8531,-4.8776,656.3171],[15.8554,-4.8773,657.8453],[15.8577,-4.8792,656.2072],[15.8577,-4.8778,657.4532],[15.8607,-4.8782,660.4205],[15.8664,-4.8731,659.513],[15.8645,-4.8675,655.0731],[15.859,-4.8633,654.4817],[15.8575,-4.8591,650.4398],[15.8792,-4.8666,659.1199],[15.8882,-4.8764,664.0895],[15.8984,-4.8929,733.968],[15.9037,-4.9064,739.2559],[15.91,-4.9437,754.6566],[15.9167,-4.9572,711.9199],[15.9279,-4.9588,755.2467],[15.9351,-4.9522,767.8412],[15.9556,-4.9449,704.8621],[15.9647,-4.945,755.5829],[15.9802,-4.9467,756.7526],[15.9919,-4.955,746.2667],[16.0063,-4.9716,652.2845],[16.0275,-4.9651,651.9156],[16.0389,-4.9585,635.6774],[16.0543,-4.9631,736.0829],[16.0838,-4.9634,740.4394],[16.1525,-4.9678,687.9568],[16.2571,-4.97,586.0255]]]]}
,"properties": {"GID_2": "COD.10.1_1","GID_0": "COD","country": "DemocraticRepublicoftheCongo","GID_1": "COD.10_1","province": "Kinshasa","NL_NAME_1": "NA","county": "Kinshasa","VARNAME_2": "NA","NL_NAME_2": "NA","TYPE_2": "Territoire","ENGTYPE_2": "Territory","CC_2": "NA","HASC_2": "NA","name": "Kinshasa.county","area_km2": 10843.293,"hist_schema_id": "Elevation0-9000","hist_area_km2": {"225": 0.127,"250": 3.425,"275": 421.296,"300": 250.0,"325": 320.901,"350": 371.442,"375": 371.891,"400": 331.088,"425": 268.862,"450": 221.452,"475": 192.387,"500": 173.792,"525": 195.3,"550": 399.461,"575": 458.531,"600": 665.005,"625": 1071.726,"650": 1428.111,"675": 1758.069,"700": 1090.172,"725": 562.73,"750": 234.338,"775": 53.187}}}