{"type": "Feature","bbox": [25.4783,-9.7226,26.8325,-7.9436],"geometry": {"type": "MultiPolygon","coordinates": [[[[26.7531,-8.6695,587.4772],[26.7481,-8.6578,607.5687],[26.756,-8.646,619.4911],[26.7541,-8.6398,595.6941],[26.7554,-8.6375,601.3687],[26.7662,-8.6341,582.2213],[26.7707,-8.6396,606.7939],[26.7734,-8.6395,608.7961],[26.7764,-8.6374,604.2861],[26.7773,-8.6319,590.4149],[26.7739,-8.6235,577.4161],[26.7732,-8.606,576.9442],[26.7664,-8.5999,585.6414],[26.7594,-8.597,583.2013],[26.7573,-8.5932,579.7745],[26.7618,-8.5867,576.1053],[26.755,-8.5799,582.1667],[26.7536,-8.562,575.138],[26.7621,-8.5439,616.3981],[26.7634,-8.5377,611.3447],[26.759,-8.5254,574.7382],[26.7404,-8.5011,570.0166],[26.7208,-8.4874,573.5432],[26.7136,-8.4783,571.8196],[26.7087,-8.4774,571.0763],[26.7017,-8.4709,568.8845],[26.6909,-8.4717,568.5809],[26.6842,-8.4764,570.0319],[26.6665,-8.4771,568.4486],[26.6543,-8.4835,570.1881],[26.6502,-8.4838,569.389],[26.6393,-8.48,568.4694],[26.6231,-8.4787,567.9998],[26.6181,-8.4847,567.6743],[26.6089,-8.4853,568.35],[26.5991,-8.493,567.5811],[26.5947,-8.4926,567.1323],[26.5883,-8.4964,567.6967],[26.5698,-8.4941,567.791],[26.5647,-8.4905,567.5674],[26.5623,-8.4866,567.4803],[26.5731,-8.4535,566.5711],[26.5884,-8.4354,563.316],[26.6295,-8.38,564.9966],[26.6222,-8.3472,564.4809],[26.6433,-8.3138,563.1793],[26.6649,-8.3049,564.6715],[26.671,-8.2989,564.1656],[26.6609,-8.2752,563.0],[26.6672,-8.27,564.3328],[26.6821,-8.2694,564.3303],[26.6979,-8.2473,563.8189],[26.7233,-8.2354,563.6763],[26.7469,-8.208,563.9745],[26.7573,-8.2067,564.3951],[26.7953,-8.2165,562.9437],[26.8131,-8.2052,562.6771],[26.8228,-8.1816,562.6689],[26.8288,-8.1716,561.8112],[26.8325,-8.1578,561.7936],[26.8269,-8.1636,561.9739],[26.8232,-8.1628,561.719],[26.8221,-8.1554,561.4553],[26.8128,-8.1473,561.4304],[26.8075,-8.1315,561.5599],[26.8023,-8.1238,561.5854],[26.8004,-8.117,561.6032],[26.8014,-8.1101,561.5814],[26.8044,-8.1082,560.7807],[26.8029,-8.1008,561.2286],[26.7974,-8.0985,562.0213],[26.7765,-8.0967,562.4192],[26.7448,-8.1182,560.5],[26.7331,-8.1312,562.8707],[26.7079,-8.1451,562.6339],[26.6976,-8.1494,563.2539],[26.6846,-8.1519,563.2471],[26.6326,-8.1221,567.3563],[26.6194,-8.1086,569.9326],[26.6064,-8.0992,571.2613],[26.5652,-8.0926,571.9418],[26.5527,-8.1006,582.1722],[26.5379,-8.0987,570.6653],[26.5314,-8.0951,572.5925],[26.5189,-8.0946,577.8574],[26.5145,-8.0917,572.8579],[26.5097,-8.0823,598.7367],[26.4983,-8.0333,696.1016],[26.4836,-8.0174,743.4517],[26.4689,-8.0068,792.8177],[26.4518,-7.9997,775.1992],[26.4377,-7.9984,727.2755],[26.4143,-8.0049,700.7825],[26.4101,-8.0045,690.2154],[26.3932,-8.0105,671.8795],[26.3925,-7.9931,706.3444],[26.3968,-7.9862,696.5687],[26.4042,-7.9809,698.4872],[26.4162,-7.964,745.1905],[26.4152,-7.9533,777.157],[26.413,-7.9471,772.3485],[26.4059,-7.9438,736.7564],[26.4006,-7.9454,742.3893],[26.3907,-7.9436,719.0175],[26.3769,-7.9549,696.6554],[26.3665,-7.9588,672.6796],[26.3417,-7.9839,638.1449],[26.3374,-8.0,625.8562],[26.3323,-8.0092,619.8208],[26.3286,-7.9942,650.6029],[26.3233,-7.9897,643.1157],[26.3194,-7.9887,627.0266],[26.3127,-7.9923,641.1095],[26.2993,-8.0038,665.9787],[26.2779,-8.0168,714.5536],[26.2777,-8.0256,710.3835],[26.2857,-8.0344,717.9781],[26.2884,-8.0551,711.6613],[26.2772,-8.0796,694.5305],[26.276,-8.092,697.0363],[26.3037,-8.1428,602.3452],[26.2905,-8.1376,602.914],[26.2869,-8.1393,607.0188],[26.2851,-8.1423,597.686],[26.2923,-8.1498,601.3979],[26.2942,-8.1539,603.9626],[26.2903,-8.1556,599.1505],[26.2813,-8.1545,601.3163],[26.2685,-8.148,602.6199],[26.2617,-8.152,603.2629],[26.2539,-8.1537,636.0498],[26.2499,-8.1529,602.6232],[26.2485,-8.1515,603.6566],[26.248,-8.1439,602.307],[26.2425,-8.1447,617.0667],[26.2303,-8.1334,603.6785],[26.2091,-8.1343,605.7548],[26.2036,-8.1321,607.8621],[26.1978,-8.1329,630.2059],[26.193,-8.1302,614.7482],[26.1764,-8.1306,612.381],[26.1722,-8.1277,607.33],[26.1731,-8.1242,607.5798],[26.1779,-8.1233,608.0716],[26.1793,-8.1214,609.5235],[26.1801,-8.1145,610.4863],[26.177,-8.1104,609.1566],[26.1753,-8.1008,611.252],[26.171,-8.1031,613.1371],[26.1669,-8.1112,610.9597],[26.1547,-8.1107,622.9023],[26.1516,-8.1055,611.9041],[26.147,-8.1023,614.5767],[26.1464,-8.1071,612.8726],[26.1506,-8.1151,615.5644],[26.1493,-8.1197,615.5492],[26.151,-8.1273,626.1642],[26.1381,-8.1272,613.2682],[26.1337,-8.1231,617.3217],[26.1275,-8.1255,614.4837],[26.1256,-8.1232,613.8455],[26.1278,-8.117,616.4017],[26.1269,-8.1133,615.7476],[26.128,-8.1097,613.6707],[26.1252,-8.1065,615.3187],[26.1206,-8.1068,622.4381],[26.1189,-8.118,625.7574],[26.1168,-8.1192,628.4962],[26.1119,-8.1172,615.28],[26.1155,-8.0912,616.9691],[26.112,-8.0864,624.2233],[26.1002,-8.0854,624.5403],[26.0945,-8.0894,623.6741],[26.0865,-8.0895,619.3054],[26.0841,-8.0859,619.5408],[26.0829,-8.0785,620.3438],[26.0796,-8.0735,624.1049],[26.0747,-8.072,628.0591],[26.0561,-8.0573,620.8839],[26.045,-8.0554,623.6295],[26.0252,-8.0342,626.0603],[26.019,-8.0341,627.8143],[26.0116,-8.0372,627.0523],[26.0077,-8.0354,624.2349],[26.0076,-8.029,625.2277],[26.0014,-8.0316,625.6997],[25.9857,-8.0434,627.683],[25.9811,-8.0444,628.3822],[25.9702,-8.0406,633.5254],[25.965699999999998,-8.0285,628.7258],[25.9611,-8.0256,627.818],[25.9499,-8.0338,636.5725],[25.945,-8.0334,629.3923],[25.9436,-8.0249,636.7993],[25.9396,-8.0192,639.7614],[25.9343,-8.0193,631.4205],[25.9304,-8.0221,630.889],[25.9326,-8.0351,640.5338],[25.9255,-8.0343,632.1752],[25.917,-8.0422,635.0329],[25.9166,-8.0468,635.1417],[25.9199,-8.053,634.7177],[25.9156,-8.0578,633.9337],[25.911,-8.0574,643.7204],[25.9074,-8.0623,636.4029],[25.8984,-8.0594,641.0987],[25.8943,-8.067,651.4698],[25.8883,-8.0689,636.9398],[25.8827,-8.0789,654.0426],[25.8707,-8.0762,638.7259],[25.8622,-8.0789,640.7024],[25.8621,-8.0899,692.5088],[25.8541,-8.0994,644.6681],[25.8497,-8.1176,646.8062],[25.8526,-8.1258,647.6619],[25.8513,-8.1306,656.5749],[25.8541,-8.1359,647.6106],[25.8643,-8.139,664.5801],[25.8794,-8.1478,647.6158],[25.8825,-8.1613,659.4054],[25.8803,-8.1673,662.7057],[25.8745,-8.1644,650.8495],[25.8725,-8.1687,653.2695],[25.873,-8.1722,653.2866],[25.8751,-8.1742,652.5568],[25.8748,-8.1901,653.5104],[25.8709,-8.1915,663.1083],[25.8679,-8.1888,657.0386],[25.8654,-8.1911,664.6531],[25.8634,-8.2003,678.6821],[25.8579,-8.2061,659.26],[25.8553,-8.2201,675.3571],[25.853,-8.2206,669.4736],[25.8495,-8.2184,676.1674],[25.8466,-8.2209,678.7817],[25.8481,-8.2292,661.4395],[25.8436,-8.2407,662.4503],[25.846,-8.2462,680.0157],[25.848,-8.2446,679.6844],[25.8523,-8.2344,662.7031],[25.8534,-8.2493,667.5142],[25.856,-8.2596,678.4481],[25.8529,-8.2658,678.4574],[25.8511,-8.2748,688.4454],[25.8482,-8.2778,682.3972],[25.8411,-8.2804,680.3458],[25.8313,-8.292,677.3241],[25.8269,-8.2925,674.58],[25.8212,-8.299,685.0713],[25.8164,-8.3005,677.832],[25.8109,-8.3074,675.7217],[25.8013,-8.3075,685.3776],[25.7891,-8.3123,687.9853],[25.777,-8.3209,680.0322],[25.7668,-8.3212,683.9944],[25.7622,-8.3243,685.7479],[25.7436,-8.3268,691.7148],[25.7372,-8.3298,689.6398],[25.7329,-8.3388,705.6849],[25.7214,-8.3449,711.73],[25.7106,-8.3448,712.9785],[25.7037,-8.347,716.132],[25.6813,-8.3458,711.2308],[25.6758,-8.3484,714.4051],[25.6738,-8.3549,712.6218],[25.677,-8.3686,725.4201],[25.675,-8.3776,730.9691],[25.6767,-8.384,728.2825],[25.6897,-8.3969,729.613],[25.6952,-8.4093,743.6226],[25.6948,-8.4187,746.9254],[25.6967,-8.4233,767.415],[25.703,-8.4269,749.9085],[25.7139,-8.4534,749.3543],[25.7134,-8.4718,748.7853],[25.7164,-8.4949,751.3485],[25.7098,-8.52,807.7549],[25.7048,-8.5297,822.8568],[25.7068,-8.5435,834.6887],[25.6962,-8.5588,831.4841],[25.6847,-8.5823,836.3696],[25.6758,-8.5939,847.813],[25.6731,-8.5997,832.8384],[25.6734,-8.6086,833.5739],[25.6695,-8.6123,839.5582],[25.6696,-8.6181,844.0046],[25.6628,-8.628,835.1705],[25.6605,-8.6283,828.6019],[25.6565,-8.6242,832.3517],[25.6519,-8.6272,832.8074],[25.6436,-8.6241,831.2072],[25.6207,-8.6269,833.0853],[25.6156,-8.6239,847.2978],[25.6126,-8.6251,831.2664],[25.6072,-8.6312,846.3353],[25.5996,-8.6349,864.6314],[25.5842,-8.6369,858.0821],[25.5639,-8.644,862.7208],[25.5601,-8.6556,871.0313],[25.5624,-8.6742,893.8672],[25.5676,-8.6856,897.5549],[25.5786,-8.6979,915.7227],[25.5772,-8.7123,915.9365],[25.5749,-8.7188,919.3995],[25.5719,-8.7212,916.5881],[25.5142,-8.7213,935.689],[25.4818,-8.7186,881.2996],[25.4783,-8.7345,890.9227],[25.4816,-8.7439,901.8254],[25.4796,-8.7496,900.8738],[25.4871,-8.7626,911.3401],[25.4953,-8.769,932.535],[25.4922,-8.7837,942.1672],[25.4794,-8.7953,944.5806],[25.4785,-8.7979,946.4449],[25.4823,-8.8043,967.5261],[25.4788,-8.8084,959.9548],[25.4794,-8.8142,966.514],[25.4824,-8.8192,982.1031],[25.4887,-8.8214,982.144],[25.4957,-8.8285,1003.9199],[25.5019,-8.8289,1043.1796],[25.517,-8.8518,1050.1379],[25.5187,-8.8778,984.7812],[25.523,-8.8792,971.1387],[25.5344,-8.9109,928.0016],[25.5359,-8.9208,926.2803],[25.5348,-8.9328,909.8785],[25.5387,-8.9461,904.4896],[25.5395,-8.956,886.0442],[25.5373,-8.9654,871.806],[25.5465,-8.9773,838.2253],[25.5513,-8.9781,831.8025],[25.5554,-8.9912,817.3607],[25.5589,-8.9923,824.6871],[25.5613,-9.0038,768.0217],[25.5685,-9.0104,724.8319],[25.5681,-9.0168,722.0307],[25.5727,-9.0308,705.2783],[25.5741,-9.051,698.6379],[25.5718,-9.0558,733.0048],[25.5659,-9.0621,693.5988],[25.5643,-9.0699,691.3649],[25.5688,-9.0777,749.3597],[25.567,-9.0818,696.5163],[25.5752,-9.0896,687.9424],[25.583,-9.0918,679.1498],[25.5868,-9.0945,673.4352],[25.5959,-9.1077,663.1311],[25.6015,-9.1077,661.2785],[25.605,-9.1097,678.3118],[25.6065,-9.1207,656.7047],[25.6102,-9.126,680.2397],[25.617,-9.1296,707.5042],[25.6191,-9.1339,726.4474],[25.618,-9.1406,677.1406],[25.6209,-9.1516,635.4637],[25.6279,-9.1572,635.5663],[25.6317,-9.1641,627.7045],[25.6464,-9.1759,637.4007],[25.658,-9.1788,733.834],[25.659,-9.1815,736.4512],[25.6565,-9.1887,656.8215],[25.6579,-9.1935,695.1669],[25.6547,-9.1986,724.0393],[25.6485,-9.2018,661.5312],[25.6383,-9.2008,628.7256],[25.6361,-9.2024,632.2679],[25.6377,-9.2077,639.41],[25.6354,-9.2098,634.679],[25.6278,-9.2067,647.5897],[25.6269,-9.2094,641.8768],[25.6325,-9.2174,627.2729],[25.6247,-9.2264,665.9106],[25.6211,-9.2269,637.069],[25.6134,-9.2247,631.8083],[25.609,-9.2273,641.7861],[25.6023,-9.2281,647.7124],[25.5981,-9.2254,632.8768],[25.5906,-9.2096,670.7904],[25.585,-9.2076,627.7271],[25.5791,-9.2012,631.0126],[25.5769,-9.2042,630.5708],[25.5781,-9.2166,658.5673],[25.5727,-9.224,645.6815],[25.5748,-9.2302,638.8972],[25.5744,-9.2343,678.6605],[25.5721,-9.2373,716.4228],[25.5608,-9.2409,645.2155],[25.5488,-9.2638,661.1049],[25.5373,-9.291,639.0801],[25.542,-9.2967,644.3182],[25.5468,-9.2934,648.3485],[25.5511,-9.2867,639.4161],[25.5551,-9.2872,660.7147],[25.5561,-9.292,658.5382],[25.5525,-9.3017,645.539],[25.5584,-9.3131,677.2904],[25.5565,-9.3156,669.2979],[25.548,-9.3146,650.9318],[25.5459,-9.3167,669.9869],[25.5442,-9.3284,691.2529],[25.541,-9.3333,656.959],[25.5436,-9.3411,643.9319],[25.5499,-9.3419,644.3514],[25.5529,-9.3439,643.9293],[25.5539,-9.3488,646.5467],[25.5486,-9.3548,682.5873],[25.544,-9.3567,668.2559],[25.5339,-9.3678,666.2201],[25.5304,-9.3796,681.8857],[25.5278,-9.3817,685.2981],[25.5232,-9.3819,675.309],[25.5205,-9.385,665.9059],[25.5201,-9.3891,647.8909],[25.5315,-9.3968,689.1796],[25.5338,-9.4016,686.6862],[25.533,-9.4062,681.5043],[25.5349,-9.4115,676.8696],[25.5312,-9.415,672.4671],[25.5263,-9.412,693.7392],[25.5222,-9.4125,698.6358],[25.5194,-9.4155,702.1236],[25.5181,-9.4229,695.695],[25.5191,-9.4305,711.6769],[25.5173,-9.4342,703.8984],[25.5079,-9.4425,699.7443],[25.5063,-9.4472,690.356],[25.5148,-9.4618,670.3875],[25.516,-9.4671,689.3275],[25.5144,-9.4719,699.4163],[25.5032,-9.4807,695.4789],[25.5016,-9.4872,690.7029],[25.5116,-9.4885,704.9689],[25.5104,-9.5055,711.9249],[25.5304,-9.509,716.3914],[25.5377,-9.5052,716.6962],[25.5493,-9.5069,717.3944],[25.5591,-9.511,732.629],[25.5681,-9.5102,752.6051],[25.5786,-9.5165,734.2255],[25.5902,-9.5171,729.493],[25.6002,-9.513,752.686],[25.6191,-9.497,778.0602],[25.6264,-9.4934,777.2832],[25.6407,-9.4897,796.3702],[25.6451,-9.493,795.7978],[25.6547,-9.519,803.2369],[25.6719,-9.536,799.703],[25.684,-9.5516,780.5804],[25.6944,-9.5601,767.9398],[25.7001,-9.5669,759.1199],[25.7096,-9.5718,764.8127],[25.7231,-9.5838,803.498],[25.7431,-9.5981,847.9542],[25.7963,-9.6218,849.0884],[25.811,-9.6253,877.0901],[25.8245,-9.6331,862.1357],[25.8366,-9.6507,875.4373],[25.845,-9.6575,859.2607],[25.8765,-9.6751,846.9811],[25.8799,-9.6799,822.7347],[25.9148,-9.6991,1158.1703],[25.9264,-9.701,992.561],[25.9445,-9.7013,1016.8847],[25.9591,-9.7,1002.4835],[26.0078,-9.6845,1106.3954],[26.0229,-9.6825,1008.8875],[26.0335,-9.6766,1002.5493],[26.0355,-9.6779,1042.3615],[26.0355,-9.6821,1036.4968],[26.0311,-9.706,1169.927],[26.0313,-9.7135,1104.7637],[26.0326,-9.7197,1087.5911],[26.0377,-9.7226,1122.6167],[26.0462,-9.7222,1144.3258],[26.1041,-9.7113,1246.2434],[26.1081,-9.7116,1257.3837],[26.1159,-9.7188,1256.1553],[26.123,-9.7207,1341.3832],[26.1289,-9.7197,1392.854],[26.134,-9.7168,1354.4419],[26.1413,-9.7089,1387.3025],[26.1457,-9.7073,1413.9171],[26.1485,-9.7066,1409.4116],[26.1546,-9.7092,1399.8896],[26.1648,-9.7102,1390.0875],[26.1727,-9.7085,1494.3296],[26.1885,-9.7003,1588.7797],[26.1923,-9.7003,1576.2122],[26.1967,-9.7026,1565.394],[26.2017,-9.7058,1579.9247],[26.2051,-9.7107,1555.0087],[26.2126,-9.7123,1523.4575],[26.2201,-9.7107,1532.7499],[26.2324,-9.7006,1541.1597],[26.2429,-9.6858,1546.6897],[26.2498,-9.6792,1571.5182],[26.2603,-9.6733,1583.8601],[26.2687,-9.6746,1595.6647],[26.28,-9.6697,1561.6138],[26.3083,-9.6514,1649.9395],[26.3326,-9.6412,1640.681],[26.3283,-9.6267,1629.095],[26.3215,-9.6192,1615.3579],[26.3362,-9.5931,1615.9709],[26.3666,-9.5653,1620.8372],[26.3703,-9.5641,1624.4579],[26.3852,-9.551,1601.6842],[26.3956,-9.5346,1592.6733],[26.4006,-9.5306,1596.0261],[26.4063,-9.522,1566.7036],[26.423,-9.5089,1561.8093],[26.4275,-9.5003,1565.7064],[26.4319,-9.4964,1563.8876],[26.437,-9.4945,1562.1641],[26.4473,-9.4858,1571.6339],[26.4519,-9.4724,1558.1138],[26.4585,-9.4632,1561.1658],[26.4623,-9.4537,1538.2943],[26.4695,-9.4529,1531.2253],[26.48,-9.4406,1540.5824],[26.476,-9.436,1510.6685],[26.4823,-9.4263,1526.8109],[26.4774,-9.4043,1468.3778],[26.4733,-9.3954,1458.118],[26.4655,-9.3861,1438.8513],[26.4651,-9.3732,1379.9258],[26.4683,-9.3679,1294.8171],[26.4731,-9.3646,1329.3672],[26.4744,-9.3561,1289.9927],[26.4774,-9.354,1306.1527],[26.4784,-9.3459,1275.6593],[26.4852,-9.3329,1225.0402],[26.484,-9.3288,1203.4073],[26.4903,-9.3225,1218.9492],[26.4987,-9.2951,1287.6202],[26.4963,-9.2845,1132.834],[26.5013,-9.2789,1213.2893],[26.5022,-9.264,1141.14],[26.4995,-9.2638,1110.1267],[26.498,-9.2597,1094.1163],[26.4941,-9.2583,1123.4065],[26.4933,-9.2524,1137.8896],[26.4883,-9.2453,1055.7322],[26.4851,-9.2447,1049.1968],[26.4827,-9.2406,1051.1992],[26.4771,-9.2397,1043.8164],[26.4695,-9.2359,1012.6447],[26.4777,-9.2308,1025.1631],[26.4758,-9.2285,1011.1081],[26.4707,-9.2274,1010.4669],[26.4663,-9.2224,988.0286],[26.4646,-9.2174,983.3537],[26.4692,-9.2155,999.7938],[26.4734,-9.2053,966.197],[26.4787,-9.202,972.6721],[26.4823,-9.1932,978.564],[26.4826,-9.184,953.4969],[26.4932,-9.1775,973.3701],[26.4954,-9.174,962.8533],[26.4979,-9.1563,935.174],[26.5011,-9.1521,937.4001],[26.5129,-9.1519,950.3956],[26.5254,-9.1481,962.9035],[26.5269,-9.1405,960.1044],[26.5362,-9.1339,1025.0895],[26.5401,-9.1258,1019.3375],[26.5447,-9.1234,965.8913],[26.5482,-9.1135,986.5809],[26.5474,-9.1069,945.2486],[26.562,-9.089,933.0906],[26.5675,-9.0857,937.7526],[26.5728,-9.0858,911.5385],[26.5856,-9.0748,944.4653],[26.589,-9.0684,952.8771],[26.5973,-9.0678,895.4714],[26.6029,-9.0702,942.8257],[26.6077,-9.0704,1028.1],[26.6104,-9.0639,979.6185],[26.6162,-9.0641,999.9839],[26.6226,-9.058,1027.8936],[26.625,-9.0492,968.4552],[26.6295,-9.0455,942.115],[26.6327,-9.0395,916.1547],[26.6414,-9.0318,922.5309],[26.6469,-9.0305,835.644],[26.6534,-9.0201,799.2671],[26.6601,-9.0145,785.6547],[26.6709,-9.0104,664.9255],[26.6734,-9.007,682.9494],[26.6748,-8.9957,659.0314],[26.6775,-8.9931,659.725],[26.6788,-8.9841,643.4249],[26.6772,-8.9715,646.2408],[26.6732,-8.9647,655.9225],[26.6774,-8.952,654.7175],[26.6801,-8.8991,640.9536],[26.6916,-8.8665,631.2867],[26.7068,-8.8599,623.3621],[26.7209,-8.8445,646.8759],[26.7318,-8.8372,660.6846],[26.7325,-8.8329,668.6731],[26.7293,-8.8235,643.8181],[26.7306,-8.815,650.0441],[26.7289,-8.8097,625.259],[26.7136,-8.7918,623.7393],[26.7155,-8.7768,610.7476],[26.7111,-8.7627,613.5942],[26.7179,-8.7531,607.6551],[26.7197,-8.7527,617.7042],[26.7199,-8.7467,609.7795],[26.715,-8.7428,610.8302],[26.7216,-8.7365,634.1592],[26.721,-8.7274,622.1842],[26.7225,-8.72,607.256],[26.7187,-8.7129,598.7065],[26.7143,-8.6951,608.1328],[26.716,-8.6902,609.8006],[26.7192,-8.6872,599.9432],[26.7275,-8.6839,615.4192],[26.7306,-8.6799,607.3072],[26.7321,-8.6714,597.3853],[26.7512,-8.6775,598.3134],[26.7553,-8.6887,604.9521],[26.7574,-8.6908,615.8488],[26.7604,-8.691,599.4644],[26.7704,-8.6825,595.3818],[26.7646,-8.6806,614.6122],[26.7606,-8.674,597.7668],[26.7531,-8.6695,587.4772]]]]}
,"properties": {"GID_2": "COD.4.1_1","GID_0": "COD","country": "DemocraticRepublicoftheCongo","GID_1": "COD.4_1","province": "Haut-Lomami","NL_NAME_1": "NA","county": "Bukama","VARNAME_2": "NA","NL_NAME_2": "NA","TYPE_2": "Territoire","ENGTYPE_2": "Territory","CC_2": "NA","HASC_2": "NA","name": "Bukama.county","area_km2": 19020.15,"hist_schema_id": "Elevation0-9000","hist_area_km2": {"550": 486.04,"575": 4807.92,"600": 1092.74,"625": 966.36,"650": 1045.46,"675": 1251.28,"700": 1208.72,"725": 846.3,"750": 709.3,"775": 703.16,"800": 630.23,"825": 529.05,"850": 408.43,"875": 375.26,"900": 390.58,"925": 531.64,"950": 451.61,"975": 398.47,"1000": 317.45,"1025": 244.17,"1050": 181.33,"1075": 136.67,"1100": 111.43,"1125": 77.3,"1150": 68.6,"1175": 65.35,"1200": 56.43,"1225": 51.78,"1250": 46.84,"1275": 41.64,"1300": 35.76,"1325": 37.27,"1350": 43.34,"1375": 50.07,"1400": 55.36,"1425": 53.94,"1450": 46.09,"1475": 44.07,"1500": 45.05,"1525": 48.54,"1550": 54.08,"1575": 56.85,"1600": 71.49,"1625": 96.61,"1650": 44.79,"1675": 5.31}}}