{"type":"Feature","properties":{"GID_2":"COD.8.7_1","GID_0":"COD","country":"DemocraticRepublicoftheCongo","GID_1":"COD.8_1","province":"Kasaï-Oriental","NL_NAME_1":"NA","county":"Miabi(ville)","VARNAME_2":"NA","NL_NAME_2":"NA","TYPE_2":"Ville","ENGTYPE_2":"Town","CC_2":"NA","HASC_2":"NA","name":"Miabi(ville).county"},
"geometry":{"type": "MultiPolygon","coordinates": [[[[23.385,-6.1851,669.9952],[23.3764,-6.1893,637.3645],[23.3727,-6.1933,661.4728],[23.3691,-6.2079,666.5378],[23.3758,-6.2185,711.6628],[23.3886,-6.2209,724.7767],[23.3952,-6.2198,776.731],[23.3911,-6.2049,752.4703],[23.3853,-6.1914,740.7477],[23.385,-6.1851,669.9952]]]]}}