{"type":"Feature","properties":{"GID_1":"COD.5_1","GID_0":"COD","country":"DemocraticRepublicoftheCongo","province":"Haut-Uele","VARNAME_1":"NA","NL_NAME_1":"NA","TYPE_1":"Province","ENGTYPE_1":"Province","CC_1":"NA","HASC_1":"CD.HU","ISO_1":"NA","name":"Haut-Uele.province"},
"geometry":{"type": "MultiPolygon","coordinates": [[[[28.3139,2.3361,805.4893],[28.3221,2.3352,796.9161],[28.3491,2.3212,797.8337],[28.3789,2.2964,841.6946],[28.3996,2.2516,852.4357],[28.41,2.2519,864.4522],[28.4254,2.2607,842.1147],[28.4404,2.266,841.4324],[28.4606,2.2776,832.6957],[28.5806,2.334,814.561],[28.5879,2.3264,832.7787],[28.5902,2.3126,814.2978],[28.5966,2.3008,814.6727],[28.6012,2.2965,822.808],[28.6014,2.2884,827.3251],[28.6046,2.2847,815.9014],[28.6094,2.2691,825.6292],[28.6142,2.2698,824.496],[28.6197,2.2647,828.8828],[28.6251,2.2656,828.9024],[28.6281,2.2628,834.163],[28.6361,2.2414,853.9544],[28.6395,2.2405,851.6827],[28.6464,2.2435,875.3593],[28.6528,2.2391,887.257],[28.6713,2.2322,896.0017],[28.6812,2.2315,915.124],[28.6901,2.226,917.2314],[28.6956,2.2248,896.0009],[28.6972,2.2186,921.0795],[28.7143,2.211,907.972],[28.7187,2.2041,914.9843],[28.7284,2.2057,936.8472],[28.7388,2.205,931.0337],[28.7512,2.1971,921.5748],[28.7648,2.1818,936.4199],[28.7749,2.1946,928.8294],[28.7765,2.2011,923.819],[28.7726,2.2062,915.0685],[28.7797,2.217,889.2161],[28.7774,2.2206,895.658],[28.777,2.2266,880.5298],[28.7699,2.2324,881.7714],[28.7592,2.2623,859.4013],[28.753,2.2676,876.4733],[28.7507,2.2814,863.2078],[28.7477,2.2835,864.0663],[28.7413,2.2839,853.6764],[28.7379,2.2943,856.4935],[28.7231,2.3072,845.5051],[28.7192,2.3155,858.4396],[28.713,2.3219,843.4385],[28.7093,2.3307,844.4733],[28.7094,2.3362,835.1514],[28.7153,2.3337,841.6555],[28.7233,2.3254,839.7584],[28.7359,2.3196,845.9064],[28.7457,2.3129,845.3951],[28.753,2.3037,842.5203],[28.7654,2.309,863.9879],[28.7745,2.3023,870.8842],[28.7818,2.3019,882.7556],[28.799,2.3075,902.0755],[28.8073,2.3053,927.2908],[28.819,2.2996,883.7707],[28.8419,2.2959,873.4083],[28.8571,2.2902,903.1877],[28.9223,2.2806,958.6339],[28.9688,2.2705,960.812],[28.9776,2.2856,932.9651],[28.9769,2.2911,955.8552],[28.9799,2.2941,958.565],[28.9881,2.324,957.7344],[28.9939,2.336,900.6302],[29.0005,2.3436,906.4126],[28.9971,2.3479,908.2484],[29.0005,2.3571,883.7697],[28.9982,2.365,903.994],[28.9875,2.3728,895.3236],[28.9864,2.3891,898.103],[28.9781,2.3972,903.5396],[28.9722,2.4138,856.9679],[28.9688,2.4168,889.1421],[28.9674,2.4232,850.0005],[28.9697,2.4292,851.7757],[28.9745,2.4239,844.9424],[28.9825,2.4204,866.0857],[28.9903,2.4066,870.0231],[28.9987,2.4078,878.6822],[29.0052,2.4137,869.2507],[29.0118,2.4146,875.7526],[29.0157,2.4192,877.0219],[29.0191,2.4188,874.7382],[29.0232,2.4096,875.7376],[29.0278,2.4063,898.6741],[29.0317,2.3948,888.6516],[29.0425,2.4005,908.6399],[29.0439,2.4041,894.511],[29.0399,2.4218,908.4283],[29.053,2.427,950.9963],[29.0658,2.4359,915.9659],[29.0721,2.4372,963.2004],[29.0824,2.4294,936.7487],[29.0955,2.4258,966.9075],[29.0867,2.4436,966.8942],[29.0938,2.452,980.0279],[29.1104,2.4456,978.6589],[29.1195,2.4547,965.8254],[29.1272,2.4568,959.5473],[29.1348,2.4547,977.2717],[29.1479,2.4447,959.7464],[29.1663,2.412,991.8878],[29.1752,2.4013,949.9059],[29.1908,2.4367,958.394],[29.1993,2.4444,955.7368],[29.2043,2.4557,969.9646],[29.2053,2.4869,946.2098],[29.203,2.5295,927.154],[29.2086,2.5379,925.4205],[29.2292,2.5437,943.4252],[29.2354,2.5242,931.7539],[29.2559,2.4924,978.968],[29.263,2.473,943.4598],[29.2687,2.4661,963.1459],[29.2724,2.4436,977.558],[29.284,2.4419,975.2106],[29.2984,2.4343,964.0472],[29.3016,2.4244,985.0213],[29.3103,2.418,982.9219],[29.3151,2.418,992.6984],[29.3178,2.4198,993.4255],[29.3236,2.418,1004.3419],[29.3279,2.4138,1008.303],[29.3336,2.414,1009.618],[29.3435,2.4172,1012.474],[29.3485,2.4154,994.7416],[29.3679,2.4177,981.1642],[29.383,2.4209,986.7143],[29.3892,2.425,988.0046],[29.4103,2.4236,991.3546],[29.4167,2.427,1002.995],[29.4215,2.4353,998.1042],[29.4261,2.4364,987.7211],[29.4316,2.4337,1059.7698],[29.4439,2.4362,1000.6495],[29.4529,2.4524,1068.8317],[29.4794,2.4601,1087.6018],[29.4778,2.4654,1113.9341],[29.4792,2.4674,1085.8828],[29.4938,2.472,1084.6359],[29.5071,2.4796,1037.9856],[29.5279,2.4828,1086.814],[29.549,2.4929,1052.6885],[29.5639,2.4921,1086.3051],[29.571,2.4951,1084.6174],[29.5744,2.4949,1069.5332],[29.5815,2.4889,1142.2795],[29.5872,2.4882,1168.8414],[29.6007,2.4884,1105.2448],[29.6137,2.4934,1066.7859],[29.6215,2.4937,1100.2822],[29.6316,2.4913,1112.2596],[29.6338,2.4735,1170.0428],[29.6399,2.46,1159.6176],[29.65,2.4253,1184.3625],[29.6482,2.42,1180.2483],[29.6474,2.394,1134.7537],[29.6424,2.3843,1147.0598],[29.6392,2.3735,1138.6201],[29.6394,2.3638,1137.3807],[29.6476,2.3331,1142.7767],[29.6412,2.3246,1105.4258],[29.6432,2.3147,1133.7341],[29.6604,2.3018,1116.6042],[29.6651,2.2862,1132.724],[29.6595,2.2799,1141.311],[29.6455,2.2707,1117.0264],[29.6254,2.2793,1160.1993],[29.6074,2.2837,1083.2563],[29.6059,2.2759,1113.4838],[29.6212,2.2141,1131.5363],[29.6101,2.2106,1086.262],[29.61,2.2007,1084.5244],[29.6133,2.1894,1125.1864],[29.623,2.1872,1134.4895],[29.656,2.1894,1112.4144],[29.6633,2.1942,1106.0559],[29.6706,2.1931,1105.6387],[29.6745,2.1949,1103.0278],[29.6807,2.1921,1095.2708],[29.6903,2.1976,1104.4224],[29.6956,2.1948,1093.5206],[29.7027,2.1951,1100.578],[29.717,2.1895,1062.7002],[29.7346,2.1731,1059.6187],[29.7413,2.1715,1046.1545],[29.7477,2.1678,1047.4015],[29.765,2.1526,1044.3608],[29.7716,2.1445,1056.0366],[29.7755,2.1312,1057.9657],[29.7837,2.1252,1074.505],[29.7864,2.1146,1063.0592],[29.7949,2.1026,1039.3612],[29.8013,2.0992,1049.4788],[29.8088,2.0916,1058.5332],[29.8204,2.0858,1048.0938],[29.8337,2.083,1031.2178],[29.8399,2.0782,1036.6036],[29.8481,2.0786,1091.6575],[29.8527,2.0767,1065.3586],[29.8687,2.0804,1027.5732],[29.8787,2.0735,1028.3925],[29.8821,2.0684,1043.5861],[29.886,2.0672,1036.3806],[29.8951,2.0557,1023.6197],[29.8972,2.0562,1022.7661],[29.8977,2.0661,1061.3757],[29.9018,2.073,1108.8059],[29.8968,2.0888,1056.33],[29.8991,2.096,1059.3174],[29.9037,2.0994,1040.0652],[29.9035,2.1095,1033.0643],[29.8991,2.1123,1050.1003],[29.8905,2.1105,1035.176],[29.8838,2.1149,1051.5145],[29.8797,2.1209,1050.5317],[29.877,2.1218,1024.6001],[29.8713,2.1197,1068.2285],[29.8699,2.123,1052.0776],[29.8729,2.1391,1052.8257],[29.869,2.1467,1027.6833],[29.8656,2.1494,1039.9741],[29.8615,2.1499,1035.3972],[29.8514,2.1483,1113.5061],[29.8706,2.1837,1071.6659],[29.8734,2.1759,1034.0308],[29.875,2.1756,1034.0308],[29.8792,2.186,1046.1969],[29.884,2.1844,1064.0254],[29.8897,2.1866,1054.5056],[29.8984,2.1859,1050.4215],[29.9039,2.1885,1061.2579],[29.9105,2.1848,1046.6407],[29.9144,2.1866,1047.9299],[29.9165,2.19,1055.4568],[29.9158,2.1967,1073.7781],[29.9174,2.2055,1056.25],[29.9215,2.2121,1057.2284],[29.9204,2.2174,1044.5266],[29.9213,2.2222,1055.6085],[29.9248,2.2266,1055.4301],[29.9257,2.2379,1062.3966],[29.9298,2.2498,1078.0715],[29.9367,2.2517,1067.3595],[29.945,2.2606,1089.2092],[29.9468,2.2675,1076.4702],[29.9509,2.2698,1092.679],[29.9571,2.2574,1062.5259],[29.9639,2.2486,1074.3486],[29.9644,2.2456,1066.6145],[29.9666,2.2447,1071.3923],[29.9696,2.2468,1102.8287],[29.9694,2.2507,1101.5492],[29.9712,2.2514,1081.3679],[29.9751,2.247,1080.885],[29.9824,2.2488,1107.056],[29.9886,2.2654,1085.0333],[29.9875,2.2713,1103.7469],[29.9893,2.2734,1111.9626],[29.9948,2.2748,1110.7915],[29.9978,2.2794,1108.0125],[30.0,2.2749,1081.7793],[30.0138,2.2768,1100.452],[30.0273,2.283,1118.6663],[30.0304,2.3046,1121.0123],[30.0333,2.3136,1110.0968],[30.043,2.3287,1175.2617],[30.0536,2.3658,1150.0406],[30.0572,2.3689,1149.5315],[30.0609,2.3685,1155.1677],[30.0666,2.3625,1159.4437],[30.0722,2.3603,1183.0493],[30.0792,2.3608,1211.0829],[30.0982,2.3673,1190.7157],[30.1067,2.366,1169.071],[30.1146,2.3714,1173.2148],[30.1215,2.3721,1186.3213],[30.1256,2.3699,1191.9297],[30.127,2.3981,1220.8164],[30.1315,2.4321,1220.6865],[30.1355,2.4831,1227.0657],[30.144,2.5028,1195.4746],[30.1454,2.5072,1163.9891],[30.1444,2.5115,1165.6105],[30.1497,2.5127,1189.6663],[30.1548,2.5211,1168.8177],[30.1648,2.5306,1187.985],[30.1765,2.5467,1198.1118],[30.1871,2.5558,1192.3312],[30.1942,2.5728,1259.2427],[30.1847,2.5843,1289.046],[30.2083,2.593,1260.3099],[30.2133,2.6045,1258.8467],[30.2086,2.6693,1191.8572],[30.1964,2.7006,1130.6863],[30.1853,2.7099,1130.8762],[30.1793,2.7371,1075.084],[30.1856,2.7681,1038.8091],[30.177,2.7825,1019.9335],[30.1609,2.7892,1014.6078],[30.1486,2.8024,1019.1996],[30.1518,2.8127,1006.6002],[30.1605,2.8177,1012.9174],[30.1803,2.82,1032.6411],[30.205,2.8163,1027.2556],[30.2137,2.8245,1011.4557],[30.2088,2.8447,1025.3411],[30.2107,2.8769,994.353],[30.2012,2.8855,1000.5002],[30.1986,2.8855,990.9113],[30.1964,2.8831,998.8335],[30.1942,2.8714,989.3508],[30.1892,2.8716,993.6722],[30.1662,2.8782,982.2026],[30.1554,2.8781,974.9937],[30.1433,2.875,986.6899],[30.1286,2.8794,970.97],[30.1211,2.8791,969.7612],[30.1147,2.8746,976.1576],[30.1119,2.882,987.1576],[30.1132,2.8923,981.6408],[30.1169,2.8981,981.2752],[30.1299,2.9063,990.1205],[30.146,2.9073,983.5033],[30.167,2.903,1004.4084],[30.1887,2.9046,1021.0306],[30.2063,2.9228,1026.5754],[30.1751,2.9471,984.5022],[30.1719,2.9641,981.3253],[30.1622,2.9886,966.3916],[30.1612,2.9991,962.3428],[30.1593,3.0026,966.4153],[30.1515,3.0052,962.7744],[30.145,3.0112,952.489],[30.1396,3.0254,942.1067],[30.1702,3.0537,970.0901],[30.2341,3.0881,961.7361],[30.2497,3.1073,1013.9916],[30.2609,3.1258,1008.6277],[30.2802,3.152,1019.1261],[30.292,3.1641,989.1639],[30.3337,3.1976,1061.0912],[30.3517,3.218,1078.2731],[30.3591,3.2295,996.5011],[30.3561,3.2346,997.6479],[30.3534,3.2484,989.2816],[30.3429,3.2678,963.5591],[30.3424,3.2749,966.5197],[30.3459,3.2846,962.3999],[30.3465,3.292,953.4448],[30.3427,3.3021,958.0069],[30.337,3.3048,952.5814],[30.3421,3.3166,964.5645],[30.3505,3.3226,980.1246],[30.3547,3.3231,981.5611],[30.3681,3.3571,989.7033],[30.3692,3.381,994.7516],[30.3668,3.4075,995.9234],[30.3779,3.4011,998.3132],[30.3963,3.3958,1059.9294],[30.4009,3.3924,1075.6544],[30.4063,3.3978,1073.5647],[30.4117,3.4091,1059.5005],[30.4172,3.4126,1058.158],[30.4217,3.4212,1060.8896],[30.4231,3.4327,1057.9414],[30.41,3.4398,1065.8882],[30.4023,3.4464,1056.4327],[30.3949,3.4569,1051.8519],[30.3743,3.5016,1025.4407],[30.376,3.5065,1034.2347],[30.3757,3.5141,1059.0148],[30.3705,3.5336,1033.4611],[30.3722,3.5403,1042.3169],[30.3761,3.5456,1058.6676],[30.3832,3.5487,1064.97],[30.3912,3.5495,1081.0099],[30.4015,3.5463,1093.7109],[30.4084,3.5462,1098.1904],[30.418,3.5514,1113.7891],[30.4314,3.5621,1115.127],[30.4511,3.5612,1136.2177],[30.4557,3.5591,1134.0134],[30.4927,3.579,1137.9539],[30.541,3.5949,1153.4913],[30.5587,3.596,1199.8766],[30.5569,3.5988,1189.7668],[30.5563,3.6064,1204.8199],[30.5675,3.6242,1194.921],[30.5749,3.6412,1193.8322],[30.5768,3.6569,1187.0454],[30.5818,3.6673,1152.8741],[30.5849,3.6802,1148.8291],[30.5715,3.765,1131.1042],[30.5557,3.8274,1067.0232],[30.5261,3.8486,1060.9265],[30.4989,3.8413,1024.2689],[30.4716,3.8269,1005.4073],[30.453,3.8311,1007.4338],[30.4456,3.8384,974.1492],[30.4303,3.871,979.4556],[30.4155,3.8706,987.6702],[30.4038,3.8662,998.5463],[30.379,3.8952,953.142],[30.3519,3.9125,973.1055],[30.3358,3.9192,950.2296],[30.3209,3.9315,933.9194],[30.2993,3.931,1036.1578],[30.2848,3.9501,945.2369],[30.2736,3.9564,942.6463],[30.264,3.9563,931.5669],[30.2452,3.945,916.2362],[30.2226,3.9374,936.5043],[30.2091,3.9495,938.1155],[30.2045,3.9555,937.9808],[30.2015,3.9674,927.9415],[30.1975,3.9714,941.7725],[30.1909,4.0155,896.3961],[30.1733,4.0304,879.4565],[30.1739,4.0431,887.5789],[30.171,4.0453,877.5511],[30.1667,4.0457,874.9673],[30.1586,4.055,895.5304],[30.1574,4.0707,885.7191],[30.1588,4.0801,879.0586],[30.1577,4.0927,881.2825],[30.1557,4.097,892.0711],[30.1481,4.1035,893.6127],[30.1315,4.111,896.2496],[30.1085,4.1178,894.3656],[30.0924,4.1278,879.394],[30.0572,4.1394,871.2336],[30.0387,4.1571,873.0187],[30.0299,4.1925,877.1896],[30.0267,4.1968,888.9484],[30.0,4.2157,873.6846],[29.9873,4.2266,874.6263],[29.9754,4.2308,874.2561],[29.9566,4.2321,883.9392],[29.9479,4.2347,894.928],[29.9441,4.2416,896.0978],[29.9503,4.2528,900.9689],[29.9515,4.26,893.798],[29.9636,4.2774,891.9675],[29.9611,4.2896,898.0387],[29.9502,4.306,896.0157],[29.9418,4.3148,894.3884],[29.9023,4.3436,881.999],[29.8932,4.3462,875.8733],[29.8856,4.344,874.4205],[29.8768,4.339,876.0996],[29.8599,4.3398,867.0402],[29.8505,4.3373,873.7731],[29.8397,4.3367,884.2617],[29.8312,4.3427,868.7662],[29.8228,4.3541,861.4537],[29.8162,4.3582,876.2684],[29.8066,4.3615,872.2017],[29.7984,4.3683,890.1252],[29.7953,4.3816,868.9752],[29.7986,4.3952,888.4139],[29.7954,4.4072,871.7079],[29.7957,4.4144,885.0817],[29.7985,4.424,888.7251],[29.7956,4.4371,886.4165],[29.7989,4.4458,881.1122],[29.8004,4.4654,892.9075],[29.8032,4.4688,892.3741],[29.806,4.4828,900.0696],[29.8058,4.4911,902.5815],[29.7942,4.5039,906.2032],[29.7931,4.5089,910.4528],[29.7971,4.5177,904.634],[29.8084,4.5256,929.5555],[29.8208,4.5373,929.8008],[29.8248,4.549,944.3761],[29.8203,4.5587,948.8291],[29.8075,4.5629,962.2396],[29.7912,4.5617,962.8101],[29.7841,4.5633,940.8652],[29.7757,4.5754,956.4712],[29.7684,4.5828,963.576],[29.7626,4.5833,963.6361],[29.75,4.5732,949.1393],[29.7449,4.5707,955.0272],[29.7392,4.5708,944.2853],[29.7332,4.5745,946.6735],[29.7157,4.6013,918.712],[29.7135,4.6087,906.8228],[29.708,4.6163,914.5907],[29.6998,4.6205,930.3564],[29.6927,4.621,918.2023],[29.6803,4.6248,922.1063],[29.6726,4.6317,947.6401],[29.6602,4.6348,944.228],[29.6479,4.6469,933.9991],[29.6401,4.6494,904.8987],[29.6325,4.6495,909.3299],[29.6232,4.6528,903.9465],[29.6147,4.6609,916.2932],[29.611,4.6609,903.9318],[29.6016,4.6511,904.931],[29.5954,4.6481,909.3896],[29.5901,4.6488,885.257],[29.5837,4.6562,893.7964],[29.5737,4.6623,895.0764],[29.5686,4.6625,908.0388],[29.559,4.6589,906.6323],[29.556,4.6596,896.8365],[29.5533,4.6661,902.7472],[29.5494,4.6664,928.1647],[29.5309,4.6531,921.0007],[29.5245,4.6545,893.2863],[29.5209,4.6665,988.7053],[29.5026,4.6853,883.6428],[29.4945,4.6849,897.8455],[29.4845,4.6714,898.7278],[29.4755,4.6674,884.1205],[29.4685,4.6385,871.1584],[29.4752,4.6079,869.011],[29.4716,4.6013,838.4641],[29.4717,4.5956,841.7316],[29.4691,4.5966,839.4416],[29.4401,4.5484,839.8354],[29.4408,4.5416,844.6703],[29.4379,4.5239,815.39],[29.4087,4.4833,810.2804],[29.3993,4.476,806.36],[29.3873,4.4708,821.346],[29.375,4.469,821.439],[29.3685,4.4621,792.481],[29.3478,4.4369,796.8553],[29.3425,4.411,783.5995],[29.3383,4.4013,775.0919],[29.3214,4.3846,801.5248],[29.3154,4.3812,798.9612],[29.306,4.3783,800.213],[29.2957,4.379,786.2146],[29.2911,4.3841,794.6971],[29.2863,4.3867,802.3094],[29.2776,4.386,804.2518],[29.2679,4.3908,811.8848],[29.2568,4.3775,814.1819],[29.2538,4.3648,820.8505],[29.2146,4.3526,777.8211],[29.199,4.3562,800.8755],[29.1805,4.3711,784.8822],[29.1506,4.4017,796.6461],[29.1392,4.4275,782.3829],[29.1249,4.4304,797.7858],[29.0953,4.4267,795.6299],[29.092,4.4281,794.1328],[29.0885,4.4309,797.2262],[29.0938,4.4495,778.8566],[29.0884,4.4549,773.207],[29.0795,4.4549,796.6027],[29.0688,4.4572,784.9689],[29.061,4.4608,785.8008],[29.0544,4.465,780.2045],[29.0347,4.4889,780.8324],[29.0281,4.4907,787.452],[29.0002,4.481,793.5562],[28.9958,4.4819,832.4982],[28.9887,4.4782,794.5951],[28.9754,4.4752,786.7572],[28.947,4.4789,781.2196],[28.9323,4.4736,781.9294],[28.9249,4.473,777.3766],[28.9123,4.4774,801.4569],[28.9027,4.471,775.0192],[28.8953,4.4738,794.0602],[28.8825,4.4827,773.7424],[28.8688,4.4878,788.5031],[28.866,4.4867,793.4801],[28.8573,4.4768,774.0151],[28.8451,4.4734,784.673],[28.83,4.4737,794.5116],[28.8219,4.4779,788.235],[28.8064,4.4904,792.1635],[28.8035,4.4967,787.3936],[28.8095,4.5086,792.7733],[28.8055,4.5317,761.8542],[28.7977,4.5386,755.5222],[28.7866,4.5582,750.6008],[28.7781,4.558,756.9333],[28.7682,4.551,739.2884],[28.7673,4.5482,750.9581],[28.7599,4.5432,751.4182],[28.7576,4.5393,749.7046],[28.7516,4.537,753.2511],[28.7213,4.5362,765.7993],[28.7166,4.534,758.1224],[28.7043,4.4998,749.8045],[28.7026,4.4718,739.7616],[28.6902,4.451,745.3094],[28.6792,4.4369,755.0966],[28.6654,4.4286,756.4001],[28.6622,4.4196,743.9921],[28.6365,4.4147,748.6793],[28.6264,4.4111,752.2755],[28.6223,4.4122,754.3763],[28.6179,4.4164,760.0647],[28.6055,4.4132,750.0743],[28.6021,4.4144,759.9578],[28.5959,4.4102,754.8854],[28.5922,4.4039,745.1838],[28.5895,4.3875,759.9791],[28.5823,4.3782,756.1694],[28.54,4.3753,771.2824],[28.5239,4.3716,774.0558],[28.5117,4.3613,772.9227],[28.4949,4.3219,767.5715],[28.4881,4.3114,769.8538],[28.4804,4.3032,767.082],[28.4649,4.2986,780.3902],[28.4536,4.2878,780.3629],[28.4379,4.2838,768.9179],[28.4145,4.2828,774.8965],[28.3854,4.2995,754.3589],[28.3676,4.3165,748.0421],[28.3661,4.3244,745.0605],[28.3634,4.3286,734.1786],[28.3535,4.3377,731.9386],[28.3379,4.3388,725.8042],[28.3315,4.336,719.2308],[28.3214,4.3365,721.8928],[28.3166,4.3323,718.4036],[28.2893,4.3328,714.8639],[28.2726,4.3275,718.989],[28.2652,4.3289,708.7046],[28.2554,4.328,710.3759],[28.2386,4.3296,711.374],[28.2313,4.334,709.5961],[28.2189,4.3374,710.027],[28.2001,4.3462,705.1487],[28.1834,4.3674,706.0746],[28.1753,4.3753,698.7795],[28.1675,4.3797,708.3651],[28.1366,4.3895,719.8354],[28.132,4.3939,726.6679],[28.1309,4.4003,715.8594],[28.1397,4.413,731.208],[28.1427,4.4208,721.1403],[28.1425,4.4256,724.9056],[28.14,4.4305,723.7238],[28.1322,4.436,731.4235],[28.1221,4.4315,740.9806],[28.118,4.4326,742.6256],[28.1107,4.4404,719.0748],[28.1027,4.4369,726.3369],[28.0857,4.435,714.0946],[28.0768,4.438,712.8744],[28.0666,4.4479,711.106],[28.0389,4.467,705.0082],[28.0339,4.4769,709.2413],[28.0324,4.4854,712.9536],[28.0272,4.5282,720.8589],[28.0283,4.5347,719.0326],[28.0263,4.5381,727.7617],[28.0146,4.5462,732.0544],[28.0084,4.5478,729.0229],[27.9935,4.5466,735.6873],[27.988,4.5489,730.4074],[27.9809,4.5445,731.4436],[27.9641,4.548,738.1107],[27.9535,4.5516,750.188],[27.9442,4.557,737.6229],[27.9334,4.5516,729.0775],[27.9302,4.544,732.452],[27.9267,4.5437,733.0265],[27.9194,4.5477,726.8617],[27.8683,4.5479,715.3934],[27.8628,4.55,716.7134],[27.8545,4.5576,709.7902],[27.844,4.5731,715.7803],[27.8331,4.5748,715.9813],[27.8322,4.5849,713.8617],[27.8173,4.5872,716.8027],[27.8141,4.5909,720.769],[27.8109,4.5999,728.6408],[27.8063,4.6009,730.0671],[27.7934,4.5931,730.1642],[27.7838,4.5971,728.1508],[27.7809,4.6012,733.8029],[27.782,4.6086,737.8706],[27.7871,4.6166,751.6226],[27.786,4.6286,732.7312],[27.776,4.6528,736.1188],[27.7749,4.6611,747.6899],[27.7769,4.6662,753.9563],[27.791,4.685,729.0462],[27.791,4.6934,717.4654],[27.7892,4.709,718.3085],[27.789,4.7541,724.9437],[27.7818,4.7697,729.6041],[27.7752,4.7757,732.4077],[27.7717,4.7756,730.1202],[27.766,4.7854,724.079],[27.7587,4.7907,728.757],[27.7426,4.791,726.8298],[27.7282,4.7856,739.022],[27.7137,4.7859,749.0527],[27.7054,4.795,735.8834],[27.7004,4.8227,731.4546],[27.7023,4.8279,732.1263],[27.6945,4.8529,709.3741],[27.6902,4.8612,705.4675],[27.684,4.8684,715.1878],[27.6575,4.8913,712.4052],[27.6446,4.8934,728.7748],[27.6015,4.8933,722.6577],[27.5941,4.8924,706.7269],[27.5803,4.8854,712.9429],[27.568,4.8951,689.7499],[27.5584,4.9105,665.9584],[27.5504,4.9152,707.9534],[27.5387,4.9189,694.6866],[27.5328,4.9261,685.659],[27.5257,4.942,690.5547],[27.526,4.9588,693.8243],[27.5192,4.9747,683.9009],[27.5146,4.9775,673.938],[27.5013,4.981,684.0208],[27.4972,4.9849,680.571],[27.4913,4.9948,690.4202],[27.4842,5.0006,693.4252],[27.4702,5.0082,698.2908],[27.4634,5.0162,700.7064],[27.4521,5.0152,709.5239],[27.4447,5.0175,727.0763],[27.4411,5.022,728.9901],[27.4422,5.0377,712.4325],[27.4465,5.0476,706.6061],[27.4463,5.0529,704.5439],[27.4426,5.0635,719.0465],[27.4382,5.0708,699.1511],[27.4316,5.0777,700.4582],[27.4146,5.0878,692.8165],[27.3941,5.0961,693.9188],[27.3735,5.1002,692.0377],[27.340699999999998,5.1108,682.6118],[27.3331,5.1147,681.7286],[27.3243,5.123,680.2758],[27.3181,5.1264,681.1356],[27.3062,5.1285,676.1035],[27.2906,5.1351,663.5333],[27.2575,5.1431,674.3635],[27.2318,5.1523,664.8907],[27.196,5.1721,658.5815],[27.1817,5.1849,655.0206],[27.1574,5.1996,644.8619],[27.1429,5.2042,644.4448],[27.1122,5.2067,648.0616],[27.0787,5.2041,637.7749],[27.0667,5.2009,640.8857],[27.0509,5.1933,641.0663],[27.0291,5.187,638.9854],[27.0188,5.181,639.7428],[27.0012,5.167,642.5484],[26.9702,5.1522,667.447],[26.9774,5.1427,659.9125],[26.9817,5.1319,675.3541],[26.9883,5.1219,659.5726],[26.9875,5.0955,678.663],[26.9807,5.0921,696.2009],[26.965,5.0927,679.1825],[26.9444,5.0876,662.1355],[26.9364,5.0815,678.1732],[26.9365,5.0579,652.5808],[26.9413,5.0485,632.2244],[26.9409,5.0437,629.171],[26.9314,5.034,659.3256],[26.9289,5.0249,649.6925],[26.9293,5.0108,630.24],[26.9443,5.0023,642.2432],[26.947,4.9973,650.1804],[26.9562,4.9943,634.2552],[26.9661,4.9948,658.8042],[26.9653,4.9887,638.1303],[26.9504,4.9757999999999996,687.9688],[26.9575,4.9651,690.2126],[26.9823,4.9376,683.4138],[26.9869,4.9207,673.4387],[26.9888,4.8848,686.5886],[26.9988,4.8642,680.7076],[27.0136,4.8527,686.6049],[27.0391,4.8452,703.3207],[27.0468,4.8384,661.2396],[27.0464,4.8179,672.2989],[27.0354,4.7972,654.4578],[27.0304,4.7972,649.1596],[27.0107,4.787,636.7288],[27.0024,4.7865,643.8614],[26.9971,4.7891,657.808],[26.9838,4.7884,642.0375],[26.9774,4.7849,636.2603],[26.9889,4.7522,659.8797],[27.0062,4.7352,658.9878],[27.0172,4.718,659.0558],[27.0275,4.6973,672.2297],[27.0278,4.6931,662.7902],[27.025,4.6876,669.6454],[27.0138,4.6763,676.2221],[27.0026,4.6682,672.9692],[26.9941,4.6516,675.958],[26.9811,4.6415,714.3762],[26.9767,4.636,724.7177],[26.9814,4.6245,764.6782],[26.9811,4.6042,706.9271],[26.9763,4.5975,682.7123],[26.9704,4.5927,660.7444],[26.9683,4.5849,680.2706],[26.972,4.5757,667.9753],[26.9793,4.569,658.7848],[26.9805,4.5621,665.0863],[26.9727,4.5531,673.4855],[26.97,4.5476,669.1327],[26.9698,4.5377,651.4797],[26.9599,4.51,633.0035],[26.9696,4.5066,629.4872],[26.9808,4.5098,628.5483],[26.9888,4.5066,626.742],[26.995,4.5071,637.5278],[27.006,4.5113,650.0718],[27.0168,4.511,646.0503],[27.0308,4.5019,630.6829],[27.0338,4.5049,638.0491],[27.0375,4.5049,640.711],[27.0402,4.5074,646.9144],[27.0719,4.4879,637.0096],[27.0779,4.4819,643.4205],[27.09,4.4828,659.7449],[27.112,4.4741,652.0472],[27.1327,4.4716,655.847],[27.1375,4.4686,652.6229],[27.1453,4.467,653.854],[27.1552,4.4553,664.3259],[27.1643,4.4514,661.5645],[27.1719,4.4516,663.0306],[27.1811,4.4491,659.8425],[27.1884,4.4445,665.1475],[27.1944,4.4441,671.6301],[27.2102,4.4519,678.5754],[27.2173,4.4584,686.7607],[27.2556,4.4616,698.2057],[27.2728,4.4706,712.4776],[27.281,4.4709,709.199],[27.2922,4.4647,724.7626],[27.2947,4.4595,721.628],[27.2943,4.4551,712.2855],[27.2918,4.4513,710.1498],[27.2669,4.4178,712.7092],[27.2647,4.4058,695.8818],[27.2655,4.3664,717.2016],[27.2465,4.331,698.592],[27.2409,4.3117,706.8727],[27.2395,4.2619,695.5062],[27.2405,4.2248,700.8265],[27.2323,4.2248,700.7748],[27.2279,4.2218,702.2988],[27.2261,4.2148,694.4846],[27.2291,4.2024,691.1321],[27.2145,4.1518,679.1935],[27.2152,4.1449,670.4396],[27.2136,4.1347,681.8862],[27.2008,4.1216,670.9962],[27.1983,4.1057,667.1871],[27.1912,4.079,666.5593],[27.1976,4.059,659.0602],[27.2009,4.0544,656.9797],[27.2084,4.0514,661.1812],[27.218,4.0507,666.9526],[27.221,4.0475,661.5382],[27.2236,4.0364,663.7144],[27.2201,4.0298,663.4022],[27.222,4.0224,665.6562],[27.2245,4.0217,670.4034],[27.2293,4.0109,655.2463],[27.2275,4.0003,660.3015],[27.2241,3.9957,667.2806],[27.2236,3.9872,678.217],[27.2271,3.9679,674.2243],[27.2326,3.957,654.7294],[27.2507,3.9451,652.7231],[27.256,3.937,655.1744],[27.2562,3.9228,647.8005],[27.2583,3.9143,646.4721],[27.265,3.9078,649.8867],[27.2707,3.8986,657.6315],[27.2774,3.8793,663.2511],[27.2597,3.8733,652.8356],[27.2565,3.8701,668.3846],[27.2545,3.8567,664.8723],[27.2763,3.8517,652.3881],[27.288,3.8441,648.6241],[27.2953,3.8349,644.0],[27.3033,3.8209,656.0917],[27.3102,3.814,652.2379],[27.3173,3.8004,650.7654],[27.3226,3.7946,650.6943],[27.329,3.7813,652.0496],[27.3343,3.7553,663.6622],[27.3366,3.7551,666.9677],[27.3385,3.7399,678.5539],[27.3424,3.7316,681.764],[27.3329,3.7129,699.299],[27.3339,3.6966,695.6313],[27.3216,3.6547,699.1133],[27.3274,3.646,719.0635],[27.3312,3.643,712.8311],[27.3463,3.6409,719.136],[27.3625,3.6301,704.8619],[27.3673,3.6233,705.9719],[27.3692,3.5763,716.9327],[27.374,3.5485,743.9618],[27.3674,3.539,735.6237],[27.3371,3.505,734.225],[27.3191,3.4785,724.2674],[27.3135,3.4575,730.6266],[27.2983,3.451,725.6465],[27.2945,3.4271,705.4795],[27.2803,3.413,699.8715],[27.2851,3.4005,703.2363],[27.2861,3.3727,696.6547],[27.2729,3.3317,697.9899],[27.2539,3.3205,664.747],[27.2435,3.2967,678.1691],[27.2464,3.2775,680.3515],[27.2587,3.2773,679.5181],[27.2739,3.2828,678.6586],[27.2834,3.2788,682.2661],[27.2882,3.2711,668.1231],[27.3003,3.2272,676.0834],[27.3093,3.2256,680.7655],[27.3134,3.2341,696.1537],[27.318,3.2387,693.9744],[27.3269,3.2401,707.3312],[27.3294,3.2369,692.1219],[27.3287,3.2312,697.2974],[27.3303,3.2243,707.0537],[27.3329,3.2217,704.4138],[27.3409,3.2293,707.0419],[27.3525,3.2298,706.7191],[27.3583,3.2349,689.3221],[27.361,3.2459,726.9587],[27.3647,3.2494,718.5887],[27.3727,3.2519,690.8014],[27.3773,3.2471,699.2623],[27.3816,3.2489,694.558],[27.3915,3.2459,679.7893],[27.3935,3.2494,692.0002],[27.3921,3.2538,681.5973],[27.3846,3.2584,678.0311],[27.383,3.2618,677.7817],[27.3839,3.2644,680.3102],[27.3953,3.2713,694.0612],[27.4038,3.274,701.7682],[27.4054,3.2701,709.8163],[27.4033,3.2623,701.0149],[27.404,3.2575,710.6127],[27.4114,3.2513,710.5325],[27.421,3.2529,726.1381],[27.4249,3.2575,704.8486],[27.4253,3.2642,711.0089],[27.4212,3.28,707.7968],[27.4219,3.2828,707.6616],[27.4255,3.2842,703.2784],[27.4372,3.2819,697.0112],[27.4436,3.2849,706.9498],[27.4571,3.2865,692.1284],[27.4601,3.2886,694.701],[27.4622,3.295,683.5768],[27.4612,3.2994,683.3519],[27.456,3.3033,680.5266],[27.4624,3.3066,672.0993],[27.467,3.3059,675.3909],[27.4709,3.3015,688.7639],[27.4732,3.2967,689.1216],[27.4716,3.2849,687.9001],[27.4732,3.2801,718.1617],[27.4764,3.278,697.8864],[27.48,3.2783,691.1132],[27.4832,3.2833,674.9152],[27.4871,3.2829,670.8554],[27.4899,3.2803,684.5034],[27.491,3.29,700.1935],[27.494,3.2928,695.7423],[27.4997,3.293,700.6967],[27.5059,3.299,688.7828],[27.5178,3.299,692.5868],[27.5235,3.296,678.5092],[27.5263,3.2891,699.8419],[27.5288,3.2873,700.7412],[27.5377,3.2894,709.8046],[27.5451,3.2965,694.3463],[27.5487,3.2958,713.4305],[27.551,3.2896,728.0367],[27.5531,3.2891,728.0181],[27.5586,3.2967,698.2222],[27.5643,3.2912,727.5812],[27.5808,3.2938,700.4565],[27.5881,3.303,703.9276],[27.5904,3.3159,681.3622],[27.5924,3.3177,661.4714],[27.5989,3.3099,681.546],[27.6089,3.3041,686.0331],[27.6119,3.3039,686.7103],[27.6163,3.312,661.0607],[27.6245,3.3127,660.0626],[27.627,3.3115,675.9385],[27.6295,3.3067,694.8048],[27.6362,3.3048,711.0355],[27.6453,3.2986,718.6151],[27.6577,3.3028,705.0115],[27.6619,3.2925,705.3111],[27.6655,3.2769,723.5677],[27.6551,3.2474,734.9058],[27.6609,3.186,720.879],[27.6562,3.1707,749.5738],[27.6486,3.1564,744.2784],[27.6467,3.1421,732.4735],[27.6601,3.1026,749.0173],[27.6478,3.0779,751.9805],[27.663,3.0738,747.0305],[27.6924,3.0829,728.001],[27.7057,3.0798,740.5087],[27.7048,3.0722,738.9703],[27.6906,3.0561,744.6673],[27.6735,3.0132,746.3123],[27.5785,2.9849,717.9363],[27.5682,2.9922,723.6401],[27.5574,2.9927,713.6179],[27.5458,2.9897,702.577],[27.5467,2.9837,715.8112],[27.5531,2.9722,720.1934],[27.5536,2.9655,712.7612],[27.552,2.9584,711.2787],[27.5882,2.9418,721.7197],[27.6381,2.9276,734.0974],[27.6609,2.9128,734.032],[27.6609,2.8956,721.0034],[27.6558,2.8798,727.3962],[27.6444,2.8675,743.5084],[27.6373,2.8638,725.659],[27.6232,2.8625,722.2193],[27.6107,2.8647,719.0923],[27.6026,2.8596,720.196],[27.6036,2.8409,722.5089],[27.6079,2.826,741.3412],[27.6046,2.8188,760.8882],[27.5946,2.8195,751.0988],[27.5666,2.8309,736.6393],[27.5367,2.8506,746.3735],[27.5286,2.8474,762.5497],[27.5225,2.8417,733.6921],[27.5187,2.8308,727.4197],[27.5182,2.8164,739.244],[27.5073,2.817,732.8578],[27.4997,2.8152,744.1564],[27.4997,2.8076,742.3288],[27.505,2.8017,732.5667],[27.5064,2.7907,719.6901],[27.504,2.7888,733.0188],[27.4879,2.7891,763.8043],[27.4751,2.7826,730.4279],[27.4609,2.7612,741.494],[27.44,2.7683,722.7079],[27.4244,2.759,750.5396],[27.3949,2.7498,710.5456],[27.384,2.7366,706.6469],[27.3731,2.7363,703.2677],[27.3442,2.7492,700.8725],[27.3274,2.7538,687.1392],[27.3201,2.7596,691.1986],[27.3045,2.7766,687.3285],[27.286,2.7878,699.3213],[27.272,2.8078,695.9806],[27.2695,2.815,680.1866],[27.2612,2.8202,695.9088],[27.2525,2.8377,691.5091],[27.2468,2.8439,677.786],[27.2323,2.8517,676.0892],[27.2232,2.854,671.7814],[27.2177,2.8593,668.6646],[27.1966,2.8717,666.4698],[27.1856,2.871,670.8446],[27.1827,2.8738,670.5239],[27.1813,2.883,671.3945],[27.1765,2.8869,671.6166],[27.1733,2.8848,667.2299],[27.1694,2.8848,663.8763],[27.1634,2.8958,699.0725],[27.1542,2.8988,659.5443],[27.1423,2.9066,663.5515],[27.1396,2.9103,668.1221],[27.1346,2.9029,673.0535],[27.1323,2.8958,670.3942],[27.1277,2.8806,670.4093],[27.1264,2.8638,680.6888],[27.1227,2.8558,677.8279],[27.1275,2.847,728.142],[27.1248,2.8284,714.4283],[27.1209,2.8198,708.2537],[27.1187,2.8093,723.1306],[27.1118,2.7952,704.7684],[27.0977,2.7731,735.5496],[27.0887,2.7666,747.7256],[27.0721,2.7466,738.5229],[27.0452,2.7224,703.0529],[27.0376,2.7216,710.5709],[27.0105,2.7259,742.1113],[27.0001,2.7217,743.9048],[26.9992,2.7136,725.2646],[27.0039,2.703,717.3652],[26.9948,2.6961,707.2103],[26.987,2.7044,722.7572],[26.9785,2.7039,737.6545],[26.9756,2.7014,734.1254],[26.9708,2.6896,718.4741],[26.958,2.679,720.0754],[26.9566,2.6728,720.6201],[26.9635,2.6546,698.8676],[26.9624,2.6514,721.7449],[26.9555,2.6477,728.5292],[26.9454,2.6465,715.7518],[26.9411,2.6431,713.4127],[26.9363,2.6426,726.5668],[26.9333,2.6405,701.3201],[26.9318,2.6272,679.356],[26.935,2.6189,675.6381],[26.9313,2.612,680.4977],[26.9192,2.6021,661.7163],[26.9101,2.5887,659.9542],[26.9097,2.571,667.2751],[26.9033,2.55,649.7723],[26.8932,2.5348,644.1789],[26.9015,2.5365,667.5455],[26.9157,2.5294,661.7228],[26.9196,2.5289,649.9332],[26.9289,2.5305,672.7155],[26.9381,2.5374,665.1883],[26.942,2.5379,667.4645],[26.9495,2.5368,696.5516],[26.9561,2.5386,682.6595],[26.9731,2.535,721.7047],[26.9804,2.5368,712.5501],[26.985,2.5329,699.6342],[26.9898,2.5322,697.4741],[26.9953,2.5343,702.8356],[27.0019,2.5336,715.9318],[27.0138,2.5353,715.2472],[27.0181,2.5373,724.5424],[27.0257,2.5564,729.5732],[27.0332,2.5657,701.4042],[27.0426,2.5624,699.4316],[27.0556,2.562,716.6768],[27.0957,2.5664,711.1577],[27.1018,2.5651,733.1645],[27.1101,2.5701,718.6967],[27.113,2.5685,722.579],[27.13,2.5688,731.0522],[27.1355,2.5755,740.3054],[27.1442,2.5631,767.6523],[27.149,2.5439,742.6897],[27.1484,2.4844,719.1351],[27.1525,2.4779,720.7054],[27.1603,2.4545,717.5372],[27.167,2.4407,716.5743],[27.1643,2.414,701.0825],[27.1608,2.4142,700.4889],[27.1601,2.4172,710.7496],[27.1576,2.419,717.9399],[27.1514,2.4188,699.7148],[27.1451,2.4116,739.7985],[27.1371,2.4068,719.3843],[27.1451,2.4052,713.0907],[27.1519,2.3944,721.0968],[27.1531,2.3898,722.2267],[27.1666,2.3751,725.6002],[27.1883,2.3601,721.5779],[27.1911,2.3519,737.8846],[27.1885,2.328,721.9117],[27.1779,2.29,685.8405],[27.1713,2.2909,682.6198],[27.1637,2.2867,683.0955],[27.1336,2.2241,692.5659],[27.1286,2.2225,679.1066],[27.1261,2.2197,694.6726],[27.1261,2.2034,681.6655],[27.1213,2.1976,676.8696],[27.1216,2.1852,672.2847],[27.114,2.1654,688.7261],[27.1115,2.1638,672.0756],[27.1095,2.1661,663.5145],[27.1065,2.1649,660.7989],[27.1042,2.1589,657.4695],[27.1024,2.1578,653.1964],[27.0949,2.1592,648.2916],[27.0917,2.1504,669.2205],[27.0871,2.1465,551.7087],[27.085,2.1364,539.2305],[27.083,2.1348,555.0674],[27.0759,2.1373,546.8611],[27.072,2.1361,510.8734],[27.0558,2.1221,522.371],[27.0538,2.1158,504.8304],[27.0549,2.0961,541.5297],[27.0536,2.0823,527.5636],[27.0554,2.0714,528.416],[27.0586,2.0678,522.5935],[27.0593,2.0625,516.5632],[27.0561,2.053,493.1921],[27.0568,2.0471,527.3522],[27.0518,2.0316,496.3802],[27.0523,2.0234,521.9642],[27.0457,2.0169,510.3716],[27.0432,2.0109,503.6259],[27.0418,1.9838,498.0237],[27.0361,1.9748,513.394],[27.0354,1.9677,505.1275],[27.0403,1.9589,508.2314],[27.0451,1.9552,506.2982],[27.044,1.9412,513.036],[27.0479,1.924,511.0213],[27.0536,1.9214,508.8609],[27.0604,1.9148,511.5881],[27.0746,1.9084,528.8738],[27.0929,1.9114,530.3819],[27.1064,1.9158,531.3796],[27.111,1.9153,529.2523],[27.1368,1.9043,545.2153],[27.143,1.896,532.6679],[27.1492,1.8965,538.6158],[27.1528,1.902,538.5872],[27.17,1.9057,538.113],[27.1796,1.903,539.8073],[27.1871,1.9062,552.9182],[27.1926,1.9124,546.1143],[27.2102,1.9113,554.1945],[27.2129,1.9212,562.7548],[27.2159,1.923,560.1654],[27.2195,1.9295,573.545],[27.2188,1.9334,577.0524],[27.2248,1.9396,585.8086],[27.2252,1.9447,603.8618],[27.2225,1.9532,612.7116],[27.2247,1.9584,616.5394],[27.2284,1.9596,629.6594],[27.2426,1.9583,633.7311],[27.2462,1.9617,641.1193],[27.2426,1.9682,641.1047],[27.2439,1.9721,648.2114],[27.2485,1.976,654.6329],[27.2469,1.9806,660.673],[27.24,1.9856,672.6211],[27.2348,2.0033,656.0782],[27.2288,2.0056,669.8138],[27.227,2.0089,684.5066],[27.2288,2.0238,664.3356],[27.2311,2.0259,671.4847],[27.2441,2.0289,678.5828],[27.2473,2.0319,687.1628],[27.2537,2.0406,706.0756],[27.2537,2.048,707.3027],[27.2667,2.0472,700.0327],[27.2864,2.0284,725.9291],[27.2941,2.0238,763.4269],[27.3138,2.0365,778.9568],[27.327,2.029,747.5681],[27.3285,2.0148,762.2297],[27.3572,1.9955,777.999],[27.3587,1.9781,760.9926],[27.3562,1.9729,790.2106],[27.357,1.9625,772.4186],[27.3786,1.9465,773.7246],[27.3819,1.9381,757.4769],[27.3821,1.9271,739.0593],[27.392,1.9103,791.8942],[27.4071,1.8929,714.5457],[27.4098,1.8852,684.754],[27.4016,1.8735,759.9853],[27.3951,1.8722,860.1985],[27.3835,1.8715,842.7992],[27.3738,1.874,913.9479],[27.3499,1.876,711.6393],[27.3657,1.8588,830.1987],[27.3652,1.8556,874.0956],[27.3588,1.8526,809.7379],[27.354,1.8466,619.0385],[27.3527,1.8404,586.1884],[27.3554,1.8277,569.8483],[27.3596,1.8199,562.0022],[27.3602,1.8112,557.8098],[27.3699,1.8031,557.1018],[27.3683,1.7988,558.5332],[27.3719,1.7902,547.7061],[27.3687,1.7829,550.0871],[27.3667,1.7847,547.6117],[27.3621,1.7794,540.8747],[27.3589,1.778,542.7882],[27.3457,1.7783,548.2574],[27.3399,1.7734,539.9],[27.3345,1.7631,523.8517],[27.3244,1.7566,540.2261],[27.3176,1.7453,522.2573],[27.3167,1.7403,510.4603],[27.3132,1.74,559.1113],[27.3062,1.7283,525.9799],[27.3062,1.7246,524.9238],[27.3091,1.7219,523.8876],[27.3085,1.7113,520.1854],[27.3051,1.7025,505.6819],[27.3009,1.7032,521.2422],[27.2984,1.7018,522.5739],[27.2973,1.6988,526.8528],[27.2984,1.6949,517.6327],[27.2962,1.6903,519.7],[27.2982,1.6864,522.5243],[27.2882,1.6765,507.1917],[27.2868,1.6722,514.1833],[27.2875,1.6643,504.6143],[27.2841,1.6535,528.5688],[27.2839,1.6464,525.2835],[27.2811,1.6402,516.5959],[27.2853,1.6326,522.1991],[27.2768,1.6238,529.3053],[27.2622,1.6227,535.1836],[27.2526,1.6252,572.2212],[27.2473,1.6289,557.0482],[27.2469,1.6369,571.5778],[27.2448,1.6401,567.1416],[27.2402,1.6385,548.4935],[27.2348,1.6279,546.3177],[27.227,1.6238,540.6765],[27.2238,1.6231,544.9648],[27.2174,1.6302,538.2949],[27.2144,1.6311,538.2311],[27.2133,1.6302,538.7224],[27.2158,1.6148,532.0663],[27.2135,1.6118,533.6544],[27.2067,1.6113,530.9747],[27.1947,1.6034,533.6605],[27.2268,1.5955,526.6077],[27.2414,1.5898,533.2522],[27.2771,1.5868,526.5587],[27.2949,1.5779,540.1824],[27.31,1.577,542.8544],[27.3182,1.58,536.2913],[27.3226,1.5864,540.3414],[27.3292,1.5885,538.1105],[27.3445,1.5896,543.1726],[27.3513,1.5924,540.7841],[27.366,1.5874,549.1584],[27.3703,1.5832,543.8026],[27.3699,1.5722,537.7347],[27.371,1.5685,540.6666],[27.3756,1.5651,548.5789],[27.3845,1.5669,550.5518],[27.3982,1.5642,547.1592],[27.4195,1.5738,553.0576],[27.4325,1.5716,550.3149],[27.443,1.5621,551.2161],[27.447,1.5546,544.4669],[27.4736,1.5607,550.887],[27.4887,1.5679,550.1851],[27.5047,1.5702,548.4328],[27.5125,1.5652,560.9352],[27.5246,1.5645,561.7133],[27.5317,1.5624,552.6727],[27.5424,1.5558,566.6194],[27.5515,1.5546,551.1838],[27.5742,1.5388,563.1005],[27.5808,1.5298,573.557],[27.5872,1.5126,564.4284],[27.5864,1.4982,558.7748],[27.581,1.475,595.9395],[27.5839,1.4619,629.1019],[27.6078,1.4536,569.3255],[27.6183,1.4534,563.6131],[27.6358,1.4754,568.3649],[27.6505,1.4779,572.0583],[27.6634,1.4744,581.2249],[27.6739,1.464,598.5699],[27.6915,1.4581,595.5938],[27.7158,1.4535,582.4769],[27.7506,1.4496,602.2661],[27.7735,1.4432,582.7205],[27.7735,1.4467,611.6546],[27.768,1.4598,601.2682],[27.7506,1.4644,595.0302],[27.7495,1.469,583.0811],[27.7508,1.4736,596.1246],[27.7566,1.478,600.2757],[27.7753,1.4833,617.288],[27.7913,1.4842,634.5233],[27.7968,1.4899,621.6877],[27.799,1.4948,627.184],[27.7997,1.5021,636.3967],[27.8036,1.5044,630.9274],[27.8112,1.5249,696.8914],[27.8066,1.5445,689.6201],[27.7612,1.6077,620.5551],[27.7562,1.612,641.7448],[27.7399,1.6048,629.3838],[27.7156,1.609,699.7362],[27.7073,1.5942,722.8167],[27.7014,1.5915,703.3149],[27.6938,1.5945,703.29],[27.6771,1.591,694.05],[27.6658,1.5908,697.3659],[27.6562,1.5849,723.2205],[27.6457,1.573,684.4456],[27.6415,1.5716,641.3334],[27.6369,1.5834,644.5093],[27.6431,1.6545,629.8058],[27.5961,1.7056,622.2628],[27.56,1.7574,612.3137],[27.5533,1.7734,596.4781],[27.5558,1.7994,648.7678],[27.5667,1.828,716.1572],[27.5784,1.8446,711.4835],[27.585,1.8473,729.7557],[27.606,1.832,713.9042],[27.6278,1.8214,709.986],[27.6504,1.8144,700.1751],[27.6823,1.8083,693.345],[27.694,1.8155,669.1642],[27.7165,1.8458,647.2224],[27.7391,1.8575,694.6329],[27.75,1.8564,732.7027],[27.7634,1.8525,745.386],[27.7827,1.8288,742.4957],[27.8472,1.8277,800.1546],[27.8674,1.792,795.1014],[27.8783,1.7787,735.9928],[27.8858,1.7786,744.4449],[27.9009,1.7942,709.2268],[27.9101,1.7763,729.6771],[27.9202,1.7612,706.6553],[27.9382,1.7211,690.1052],[27.9425,1.7205,662.717],[27.9461,1.7262,759.5729],[27.9399,1.7324,659.2121],[27.9413,1.7384,698.5297],[27.9397,1.7439,729.8394],[27.9413,1.7485,753.0631],[27.9627,1.7558,678.7421],[27.9817,1.7557,709.3082],[28.0069,1.7513,720.9028],[28.0211,1.7469,715.1505],[28.1124,1.7141,799.6477],[28.1539,1.7017,783.099],[28.1803,1.6901,776.0594],[28.2092,1.683,768.467],[28.2121,1.6844,758.858],[28.2155,1.6899,763.1567],[28.1995,1.7102,785.1987],[28.1907,1.7378,782.6015],[28.1919,1.7764,827.3962],[28.1881,1.7849,813.1644],[28.1906,1.796,806.9036],[28.2312,1.8283,781.6205],[28.2517,1.8414,850.6242],[28.2889,1.8543,823.8282],[28.2986,1.8741,896.5747],[28.3087,2.088,887.8067],[28.3074,2.1066,887.803],[28.3098,2.1337,866.777],[28.3168,2.3144,823.0096],[28.3139,2.3361,805.4893]]]]}}