{"type": "Feature","bbox": [30.935,2.2796,31.0777,2.4075],"geometry": {"type": "MultiPolygon","coordinates": [[[[31.0777,2.2987,1519.3339],[31.0753,2.299,1523.351],[31.0752,2.3022,1531.6082],[31.0693,2.3056,1518.1953],[31.0734,2.3067,1526.7804],[31.0759,2.3041,1529.3158],[31.0759,2.317,1469.1073],[31.0689,2.343,1434.2754],[31.0635,2.3532,1402.7201],[31.0277,2.3807,1388.5438],[31.0285,2.3832,1394.9998],[31.0268,2.3842,1398.9615],[31.0263,2.3873,1422.2642],[31.0255,2.3849,1411.49],[31.0236,2.3848,1411.49],[31.0229,2.3865,1412.616],[31.0212,2.385,1408.4028],[31.0207,2.3881,1424.7711],[31.0118,2.3905,1421.2175],[31.0104,2.3984,1430.6902],[31.0077,2.4011,1436.9329],[31.0027,2.3988,1432.9512],[30.9935,2.4056,1455.0883],[30.9838,2.4059,1473.1492],[30.9805,2.4075,1492.1794],[30.9686,2.4029,1514.1353],[30.9651,2.4034,1543.7249],[30.9596,2.3974,1593.436],[30.9566,2.3997,1658.8157],[30.9577,2.4039,1563.1073],[30.948,2.398,1599.8129],[30.944,2.393,1575.7878],[30.938,2.375,1625.2791],[30.941,2.353,1782.13],[30.937,2.34,1816.735],[30.935,2.338,1807.4016],[30.9392,2.323,1878.3591],[30.9523,2.3047,1806.0978],[30.9678,2.2938,1663.2441],[30.9805,2.2865,1657.9448],[30.999,2.2805,1626.1689],[31.014,2.2796,1616.5432],[31.0272,2.2837,1566.3407],[31.0689,2.2906,1532.8683],[31.0777,2.2987,1519.3339]]]]}
,"properties": {"GID_2": "COD.6.9_1","GID_0": "COD","country": "DemocraticRepublicoftheCongo","GID_1": "COD.6_1","province": "Ituri","NL_NAME_1": "NA","county": "Mahagi(ville)","VARNAME_2": "NA","NL_NAME_2": "NA","TYPE_2": "Ville","ENGTYPE_2": "Town","CC_2": "NA","HASC_2": "NA","name": "Mahagi(ville).county","area_km2": 160.494,"hist_schema_id": "Elevation0-9000","hist_area_km2": {"1350": 0.5932,"1375": 1.5041,"1400": 3.3259,"1425": 9.6176,"1450": 14.3629,"1475": 14.4265,"1500": 13.1767,"1525": 12.287,"1550": 11.2914,"1575": 15.0411,"1600": 16.3758,"1625": 12.9439,"1650": 10.8254,"1675": 6.652,"1700": 3.8768,"1725": 3.1353,"1750": 3.2836,"1775": 2.6481,"1800": 1.949,"1825": 1.1228,"1850": 0.9109,"1875": 0.8686,"1900": 0.2754}}}