{"type":"Feature","properties":{"GID_2":"COD.22.8_1","GID_0":"COD","country":"DemocraticRepublicoftheCongo","GID_1":"COD.22_1","province":"Sud-Kivu","NL_NAME_1":"NA","county":"Mwenga","VARNAME_2":"NA","NL_NAME_2":"NA","TYPE_2":"Territoire","ENGTYPE_2":"Territory","CC_2":"NA","HASC_2":"NA","name":"Mwenga.county"},
"geometry":{"type": "MultiPolygon","coordinates": [[[[28.8281,-3.5973,2131.1265],[28.8293,-3.5924,2146.8086],[28.828,-3.5909,2132.6611],[28.831,-3.5832,2148.0359],[28.8296,-3.5808,2227.1387],[28.8329,-3.5714,2182.1111],[28.8307,-3.5621,2172.2256],[28.8357,-3.5546,2196.5186],[28.8401,-3.5522,2175.6177],[28.8422,-3.5473,2183.4673],[28.8429,-3.5375,2188.0132],[28.8411,-3.5346,2196.752],[28.8433,-3.5329,2266.6851],[28.8416,-3.529,2232.4507],[28.8425,-3.525,2275.0188],[28.8408,-3.5236,2250.085],[28.8444,-3.5156,2245.3926],[28.8442,-3.5118,2246.4082],[28.8422,-3.509,2252.7219],[28.8449,-3.5042,2257.1445],[28.8441,-3.4611,2384.6902],[28.8424,-3.45,2469.0244],[28.862,-3.4344,2698.4055],[28.8744,-3.4206,2711.1235],[28.8878,-3.3998,2651.5168],[28.885,-3.387,2693.5],[28.8723,-3.3687,2620.2166],[28.8709,-3.3632,2679.158],[28.8799,-3.3357,2463.3765],[28.8869,-3.3237,2653.9578],[28.8922,-3.3189,2760.9504],[28.8818,-3.3008,2728.4875],[28.8714,-3.2875,2770.085],[28.8583,-3.2815,2564.2939],[28.8544,-3.2783,2434.1594],[28.8498,-3.2703,2385.5803],[28.8447,-3.2699,2297.6689],[28.8307,-3.2596,2582.5161],[28.8256,-3.2513,2848.2437],[28.8207,-3.2299,2927.7424],[28.8127,-3.2095,2989.918],[28.8056,-3.2042,2863.1709],[28.7903,-3.1977,2941.0764],[28.7874,-3.1794,3016.3223],[28.7891,-3.1555,2995.7603],[28.7823,-3.1411,2991.4932],[28.7841,-3.1226,3239.8789],[28.7915,-3.1127,3037.0767],[28.7913,-3.0958,2953.0515],[28.7942,-3.0866,3011.4768],[28.8048,-3.0796,2753.248],[28.8139,-3.0686,2778.043],[28.8194,-3.051,2789.2954],[28.8199,-3.0324,2839.2175],[28.8087,-3.0087,2959.3569],[28.8044,-2.9879,3030.2729],[28.8085,-2.978,3029.8975],[28.8111,-2.9623,3073.9927],[28.7978,-2.9389,2999.1255],[28.7995,-2.8824,3043.7275],[28.793,-2.8721,2849.9111],[28.7728,-2.8574,2124.3159],[28.7705,-2.8371,1830.467],[28.7629,-2.8183,2129.6064],[28.7532,-2.8055,2116.0068],[28.7434,-2.7983,2274.4385],[28.7316,-2.798,2066.0667],[28.7108,-2.8087,1882.0958],[28.7118,-2.8032,1948.8438],[28.7096,-2.8033,1877.3158],[28.7075,-2.8012,1766.1296],[28.702,-2.8033,1705.0471],[28.6991,-2.8007,1574.9973],[28.6935,-2.7997,1542.9445],[28.6926,-2.7971,1539.0209],[28.6939,-2.7967,1539.0209],[28.6939,-2.794,1540.0864],[28.6911,-2.789,1548.4744],[28.693,-2.7865,1589.5957],[28.6867,-2.7847,1511.1667],[28.6878,-2.7831,1506.7795],[28.6836,-2.781,1531.3136],[28.686,-2.7804,1538.2279],[28.6853,-2.778,1487.9895],[28.681,-2.7768,1470.3079],[28.6767,-2.7857,1458.8459],[28.6783,-2.792,1432.8507],[28.6796,-2.7919,1432.8507],[28.6782,-2.7962,1447.5864],[28.6728,-2.7998,1451.6051],[28.6693,-2.7981,1408.9373],[28.663,-2.8031,1460.1545],[28.6644,-2.8093,1385.5338],[28.6625,-2.8099,1379.1353],[28.6636,-2.8117,1473.6265],[28.6584,-2.8188,1277.6492],[28.6587,-2.8218,1204.8574],[28.6547,-2.829,1167.8202],[28.6571,-2.8352,1170.0208],[28.6533,-2.8418,1168.7196],[28.6494,-2.8424,1109.8812],[28.6471,-2.8456,1109.8202],[28.6446,-2.8453,1153.6494],[28.6438,-2.8432,1103.8519],[28.6412,-2.8449,1200.4969],[28.6387,-2.844,1097.1899],[28.639,-2.8416,1150.1324],[28.6342,-2.8397,1090.6968],[28.6287,-2.8341,1044.8953],[28.6275,-2.8303,1039.5052],[28.6256,-2.8353,1040.2314],[28.6231,-2.8355,1024.3466],[28.617,-2.841,1024.9736],[28.6184,-2.843,1041.5613],[28.6175,-2.8443,1016.9364],[28.61,-2.842,1017.5983],[28.6073,-2.8382,1011.07],[28.6033,-2.8399,1003.2037],[28.6033,-2.8449,1028.9518],[28.5997,-2.8443,1017.8613],[28.5939,-2.8469,989.8151],[28.5932,-2.8498,980.1118],[28.591,-2.8503,977.3268],[28.5915,-2.8523,1005.8891],[28.5873,-2.8541,985.5317],[28.5841,-2.8589,947.1721],[28.5806,-2.8606,954.1051],[28.5789,-2.8592,948.1597],[28.5646,-2.8669,1131.441],[28.5597,-2.8649,1038.6692],[28.5574,-2.8613,955.9559],[28.561,-2.8607,1032.7689],[28.5618,-2.858,944.4409],[28.5637,-2.8576,937.1987],[28.5603,-2.8533,970.455],[28.5612,-2.8513,986.3834],[28.5593,-2.8519,934.3347],[28.5586,-2.8501,930.9976],[28.5616,-2.8467,960.9211],[28.5608,-2.8456,943.3323],[28.5633,-2.8419,942.1125],[28.5622,-2.8399,937.2433],[28.5584,-2.8387,926.4086],[28.5552,-2.8339,926.2519],[28.5507,-2.8311,929.1636],[28.5488,-2.8316,925.6054],[28.5487,-2.8345,919.5409],[28.5467,-2.8361,913.6656],[28.5448,-2.8352,922.3755],[28.5415,-2.8273,934.0359],[28.5384,-2.8241,911.9833],[28.5391,-2.8202,895.1876],[28.5379,-2.8195,911.694],[28.5361,-2.8198,884.5641],[28.5359,-2.8232,980.3537],[28.529,-2.8212,900.5323],[28.5275,-2.8275,877.8032],[28.5235,-2.8323,880.4677],[28.5218,-2.8323,881.652],[28.5224,-2.8337,877.6287],[28.5191,-2.8399,891.3214],[28.5168,-2.8389,877.0201],[28.5137,-2.8417,894.6204],[28.5097,-2.8394,874.1221],[28.51,-2.8372,877.4254],[28.5079,-2.8378,874.9197],[28.5081,-2.8348,878.4957],[28.5028,-2.8339,889.8216],[28.4994,-2.8283,893.4193],[28.4973,-2.829,894.8121],[28.4967,-2.8262,924.4366],[28.4906,-2.826,895.1794],[28.4844,-2.821,941.9004],[28.483,-2.8169,908.2322],[28.477,-2.8095,880.7139],[28.4804,-2.8037,885.7294],[28.4785,-2.8011,891.8334],[28.4761,-2.8034,874.6138],[28.4686,-2.7999,889.4854],[28.4637,-2.8077,869.1548],[28.4643,-2.8097,888.0913],[28.462,-2.8084,864.6721],[28.4617,-2.8099,867.0541],[28.4587,-2.8103,867.3098],[28.4571,-2.8068,864.4695],[28.4551,-2.8069,900.6694],[28.453,-2.813,866.8572],[28.4543,-2.8143,864.2267],[28.452,-2.8166,891.3551],[28.4502,-2.816,864.3599],[28.4506,-2.8188,864.8613],[28.4491,-2.8175,865.0515],[28.4477,-2.819,864.4711],[28.4465,-2.8161,908.265],[28.4474,-2.8099,866.4338],[28.4507,-2.8086,869.5784],[28.4503,-2.8062,881.8624],[28.4493,-2.8054,868.1282],[28.4466,-2.8085,867.4833],[28.4411,-2.8078,866.498],[28.4395,-2.8049,866.9919],[28.4319,-2.8057,864.1145],[28.4351,-2.7971,868.6204],[28.4398,-2.7947,873.6293],[28.4351,-2.7958,867.3154],[28.4313,-2.7943,868.7158],[28.4283,-2.7883,898.2833],[28.4217,-2.7881,875.7349],[28.4182,-2.7837,882.1121],[28.4097,-2.7824,856.1655],[28.4075,-2.7851,895.4471],[28.4047,-2.7833,866.4608],[28.4015,-2.7881,856.665],[28.4013,-2.7915,876.8207],[28.397,-2.7912,856.0483],[28.3944,-2.789,872.54],[28.393,-2.793,877.5117],[28.3901,-2.7941,872.3303],[28.3869,-2.7917,856.9704],[28.3824,-2.7922,865.5751],[28.3771,-2.7999,860.5226],[28.3756,-2.8086,859.5605],[28.3767,-2.8163,905.7981],[28.3643,-2.8256,846.5006],[28.3635,-2.8298,851.6198],[28.3596,-2.8342,854.0676],[28.3506,-2.8359,854.8119],[28.348,-2.8387,847.0194],[28.3437,-2.8355,849.2651],[28.3407,-2.8294,891.3589],[28.3379,-2.8318,873.9283],[28.3316,-2.8278,859.8258],[28.3292,-2.8298,867.8968],[28.3183,-2.8277,868.1016],[28.3073,-2.8342,862.5374],[28.2994,-2.8423,871.9277],[28.2904,-2.8462,840.2106],[28.2859,-2.8454,844.5234],[28.2809,-2.8489,879.8927],[28.2734,-2.8503,859.7151],[28.261,-2.8427,876.6717],[28.2534,-2.8405,886.4803],[28.252,-2.8373,833.7384],[28.2468,-2.8366,860.588],[28.2446,-2.8331,853.1984],[28.2417,-2.8317,863.4944],[28.2364,-2.8323,838.9409],[28.2312,-2.8369,855.8405],[28.2293,-2.8363,855.8405],[28.2271,-2.8378,854.8542],[28.2238,-2.8359,846.2327],[28.2234,-2.8391,829.3022],[28.2206,-2.8396,819.7589],[28.2147,-2.8454,868.2308],[28.2077,-2.856,884.8665],[28.2069,-2.8646,834.748],[28.2084,-2.869,900.194],[28.2069,-2.8733,852.45],[28.1948,-2.8793,803.3773],[28.1902,-2.8858,818.8628],[28.1847,-2.8895,825.7479],[28.1835,-2.8925,842.9629],[28.175,-2.8978,821.2941],[28.1706,-2.9032,827.2236],[28.1686,-2.9035,839.7068],[28.169,-2.9009,797.9572],[28.1669,-2.9,791.2959],[28.1528,-2.9051,788.728],[28.148,-2.905,844.8342],[28.1445,-2.903,839.932],[28.1389,-2.9025,793.8642],[28.1311,-2.8974,788.1817],[28.1308,-2.8945,801.8979],[28.1199,-2.893,848.0251],[28.1153,-2.8897,782.578],[28.1097,-2.8903,830.5978],[28.1029,-2.8869,786.989],[28.0963,-2.8872,754.9519],[28.0915,-2.885,798.3924],[28.0694,-2.8811,838.6125],[28.0458,-2.8838,1007.1074],[28.0408,-2.8953,982.0568],[28.0386,-2.9159,1111.0851],[28.0283,-2.9317,1053.4457],[28.0294,-2.9467,1027.5454],[28.0143,-2.9475,1068.1881],[27.9945,-2.9715,1158.7229],[27.9883,-2.9879,1055.7405],[27.9736,-2.9862,1074.0876],[27.9666,-2.9953,1080.2639],[27.9589,-2.9918,1003.2521],[27.9513,-2.9662,944.9243],[27.9469,-2.9616,811.2877],[27.924,-2.9637,766.7839],[27.8917,-2.964,684.5639],[27.877,-2.9664,694.8265],[27.8733,-2.9719,678.9401],[27.8757,-2.9833,719.9239],[27.8821,-2.9916,728.4322],[27.8808,-3.0057,826.4126],[27.8839,-3.0268,894.4639],[27.8821,-3.0429,1029.6766],[27.8759,-3.0588,1004.582],[27.8672,-3.0735,996.704],[27.8219,-3.1243,1064.8248],[27.8155,-3.1368,894.8674],[27.8159,-3.1516,891.7516],[27.8106,-3.1713,1010.6076],[27.8111,-3.177,922.9537],[27.8166,-3.1925,842.804],[27.8093,-3.2124,930.0413],[27.8004,-3.2226,996.2878],[27.7763,-3.2926,993.6343],[27.7605,-3.3033,1127.2722],[27.7315,-3.3101,1137.819],[27.7294,-3.3206,1019.7157],[27.7407,-3.3302,1056.9957],[27.7426,-3.3448,1048.7456],[27.7421,-3.3601,1034.2218],[27.7342,-3.3728,870.7519],[27.7352,-3.4063,808.2351],[27.7293,-3.4263,938.8797],[27.7137,-3.4388,980.8416],[27.7038,-3.4575,879.9648],[27.6975,-3.4734,1024.1997],[27.697,-3.4928,704.4897],[27.701,-3.505,640.4735],[27.7099,-3.5125,613.0883],[27.7222,-3.5144,600.1013],[27.7269,-3.5124,592.8737],[27.7275,-3.5166,594.236],[27.7328,-3.5181,612.9528],[27.7352,-3.5169,594.5457],[27.7366,-3.5126,590.7474],[27.7397,-3.5122,591.4745],[27.7448,-3.516,594.5002],[27.7408,-3.5192,602.5909],[27.7413,-3.5217,609.5392],[27.7464,-3.5217,594.4959],[27.7512,-3.5265,607.097],[27.7552,-3.5261,603.446],[27.7547,-3.5232,599.9481],[27.7509,-3.5223,590.2108],[27.7494,-3.5188,592.7117],[27.7542,-3.5162,604.3284],[27.7537,-3.5108,609.4472],[27.7549,-3.51,594.7029],[27.7584,-3.5114,603.4512],[27.7626,-3.5104,591.8087],[27.7661,-3.5122,596.481],[27.7708,-3.5062,594.4974],[27.7747,-3.5047,592.558],[27.7739,-3.5106,594.5936],[27.7762,-3.5135,600.1973],[27.7814,-3.5145,598.0384],[27.7829,-3.5098,595.6835],[27.7885,-3.5098,599.3987],[27.7931,-3.5038,598.5717],[27.8032,-3.5088,608.6583],[27.8128,-3.5069,605.86],[27.8144,-3.4999,594.1014],[27.8145,-3.5047,595.7432],[27.8162,-3.5061,601.2422],[27.8206,-3.5031,604.1346],[27.8257,-3.5024,596.1466],[27.8297,-3.4987,595.1797],[27.8377,-3.4995,598.8632],[27.84,-3.4967,595.3267],[27.8461,-3.4958,596.6766],[27.8455,-3.4941,597.2432],[27.840699999999998,-3.4926,600.3389],[27.8404,-3.4868,596.3224],[27.8456,-3.4915,605.1011],[27.8474,-3.4844,595.4031],[27.8538,-3.4904,608.9308],[27.8565,-3.4911,600.2742],[27.8598,-3.489,610.7541],[27.8572,-3.4856,597.0519],[27.8589,-3.4826,597.5339],[27.8649,-3.4853,608.2864],[27.8699,-3.4846,625.2084],[27.8709,-3.4827,595.0],[27.8692,-3.4766,605.1407],[27.8711,-3.4745,597.7352],[27.8751,-3.474,602.6045],[27.8828,-3.4768,608.1655],[27.8836,-3.4656,598.2292],[27.8854,-3.4633,599.5651],[27.8878,-3.4692,600.1102],[27.8912,-3.4721,615.4772],[27.8984,-3.4724,608.4133],[27.9048,-3.4686,613.8188],[27.9016,-3.465,599.4619],[27.8968,-3.4676,598.5441],[27.8955,-3.4645,599.4807],[27.8959,-3.4631,603.001],[27.9005,-3.4634,601.139],[27.9002,-3.4602,601.3124],[27.8967,-3.4561,600.5421],[27.9019,-3.4554,600.4497],[27.9011,-3.4496,600.6928],[27.9035,-3.4474,600.6627],[27.9053,-3.4482,601.6974],[27.9074,-3.4535,604.9684],[27.9142,-3.458,611.655],[27.9208,-3.4547,623.9756],[27.9226,-3.4493,617.4442],[27.9272,-3.4451,604.417],[27.9295,-3.4454,628.3777],[27.936,-3.4408,617.7782],[27.9533,-3.4461,634.6486],[27.9587,-3.4448,625.3832],[27.9575,-3.4495,621.8705],[27.9599,-3.4508,611.8523],[27.9625,-3.4491,608.9247],[27.9646,-3.4437,615.1027],[27.9751,-3.4407,654.6191],[27.9818,-3.4303,620.1132],[27.9869,-3.4321,632.0054],[27.9888,-3.4361,631.8162],[27.9879,-3.4418,651.6795],[27.9903,-3.4462,653.91],[27.9946,-3.4489,676.7909],[27.9995,-3.4472,717.7974],[27.9996,-3.4498,694.8392],[28.0015,-3.4501,705.5248],[28.0001,-3.4543,665.6919],[28.0022,-3.4603,648.3931],[27.9984,-3.4613,696.2225],[27.9999,-3.4684,658.4852],[27.9974,-3.4699,670.64],[27.9993,-3.4746,666.816],[28.0021,-3.4765,674.177],[28.0014,-3.4781,680.1359],[28.0038,-3.4789,673.9833],[28.0031,-3.4814,703.0369],[28.0059,-3.4828,675.8958],[28.0061,-3.4858,719.2884],[28.0122,-3.4878,703.0922],[28.0143,-3.4924,741.2865],[28.0162,-3.4925,694.5307],[28.0179,-3.49,703.4891],[28.0172,-3.4955,734.6723],[28.0214,-3.4914,718.2209],[28.0231,-3.4919,718.2209],[28.0227,-3.4945,727.8215],[28.0253,-3.4955,734.0294],[28.0253,-3.4992,811.8771],[28.0292,-3.504,723.7245],[28.026,-3.5042,720.325],[28.0271,-3.5073,725.3032],[28.0258,-3.5092,728.544],[28.0184,-3.512,725.5096],[28.0159,-3.5154,743.9189],[28.0128,-3.5247,845.8574],[28.0148,-3.5286,797.2634],[28.0049,-3.533,804.765],[28.0094,-3.5407,832.9621],[28.0075,-3.5467,854.8548],[28.0088,-3.5458,825.4337],[28.0096,-3.5469,856.9856],[28.0092,-3.554,876.0625],[28.0127,-3.556,858.5316],[28.0153,-3.5542,861.5126],[28.0175,-3.5549,907.9543],[28.0139,-3.5591,904.4984],[28.0158,-3.5601,891.7426],[28.0155,-3.5628,900.0982],[28.0231,-3.5619,901.5607],[28.0233,-3.5648,976.3381],[28.0253,-3.5656,944.4012],[28.0232,-3.5676,960.5267],[28.0237,-3.5693,929.7537],[28.0284,-3.5695,929.3782],[28.031,-3.5724,929.6914],[28.0351,-3.5723,922.7139],[28.036,-3.5757,932.8438],[28.0394,-3.5765,947.0856],[28.0384,-3.5814,955.9195],[28.0392,-3.582,955.9195],[28.041,-3.5789,952.2809],[28.0434,-3.5801,937.4435],[28.044,-3.5825,926.5083],[28.048,-3.5822,923.7551],[28.0505,-3.5865,929.3268],[28.0494,-3.5891,924.1135],[28.0462,-3.5881,916.845],[28.0472,-3.5902,921.7654],[28.0446,-3.5978,923.583],[28.0467,-3.5964,919.1064],[28.0474,-3.5981,925.111],[28.0439,-3.5999,932.5739],[28.0384,-3.6101,924.6041],[28.0361,-3.61,924.8391],[28.0378,-3.6141,943.8143],[28.032,-3.6144,945.5737],[28.0308,-3.6161,940.0001],[28.0271,-3.6155,937.8816],[28.0269,-3.6204,941.8022],[28.0251,-3.6208,975.5092],[28.0274,-3.6215,947.6685],[28.0295,-3.6258,958.9961],[28.0336,-3.6286,984.5292],[28.0322,-3.6307,977.8845],[28.0358,-3.6322,1000.1964],[28.0384,-3.6364,1014.7892],[28.0407,-3.6364,993.042],[28.0462,-3.6431,1026.6365],[28.0493,-3.6438,1022.7686],[28.0516,-3.6421,1060.4558],[28.0585,-3.6459,1137.8914],[28.0582,-3.6515,1219.5884],[28.0602,-3.6528,1169.0094],[28.0583,-3.6543,1241.333],[28.0581,-3.6585,1235.5857],[28.0625,-3.6583,1164.5757],[28.0622,-3.6611,1171.0024],[28.0644,-3.6616,1173.1079],[28.0653,-3.6643,1176.4019],[28.064,-3.6687,1189.7019],[28.0698,-3.6703,1178.2986],[28.0697,-3.6722,1177.3154],[28.0742,-3.6753,1186.5662],[28.0735,-3.6764,1199.6045],[28.0751,-3.6778,1195.2635],[28.0817,-3.6771,1214.228],[28.0826,-3.6793,1216.603],[28.0789,-3.6859,1228.906],[28.0826,-3.6863,1175.875],[28.0845,-3.6904,1196.6263],[28.0817,-3.6932,1187.9877],[28.0821,-3.6957,1195.5779],[28.0786,-3.6956,1275.7395],[28.0739,-3.7,1240.4532],[28.0785,-3.7034,1250.6228],[28.0787,-3.706,1244.621],[28.0845,-3.7063,1187.8641],[28.0867,-3.7082,1186.6245],[28.0864,-3.7104,1186.5664],[28.0846,-3.7111,1177.9717],[28.0855,-3.7144,1190.0352],[28.0839,-3.7148,1187.9114],[28.0835,-3.7171,1194.2316],[28.0911,-3.7201,1312.1193],[28.0944,-3.7192,1253.5071],[28.095,-3.7219,1278.6559],[28.0967,-3.7211,1247.3688],[28.0978,-3.7238,1234.048],[28.1052,-3.7273,1259.6084],[28.1142,-3.7262,1273.8503],[28.1171,-3.7269,1243.521],[28.1179,-3.7288,1253.2385],[28.1215,-3.7275,1239.4651],[28.125,-3.7288,1236.8425],[28.1257,-3.7314,1232.006],[28.1309,-3.7327,1251.0428],[28.1326,-3.7371,1244.6914],[28.1393,-3.7368,1245.0027],[28.1485,-3.7424,1247.1272],[28.1493,-3.748,1254.7764],[28.1518,-3.7483,1255.9594],[28.1561,-3.7527,1250.1831],[28.1568,-3.7593,1262.5612],[28.1534,-3.7622,1288.2825],[28.1547,-3.7674,1274.4498],[28.1521,-3.7731,1276.8821],[28.1568,-3.7834,1307.0692],[28.1663,-3.791,1335.3401],[28.1644,-3.7954,1290.8213],[28.1658,-3.7978,1282.0599],[28.1686,-3.7968,1292.0054],[28.174,-3.8001,1307.1816],[28.1782,-3.8,1293.5203],[28.1805,-3.8025,1289.0042],[28.1784,-3.8037,1287.0214],[28.1797,-3.8045,1287.0214],[28.1798,-3.8103,1313.1947],[28.1842,-3.8171,1343.3855],[28.1939,-3.8162,1319.6584],[28.1946,-3.8207,1313.6516],[28.2002,-3.822,1354.2119],[28.2013,-3.8201,1337.3372],[28.2026,-3.8215,1338.8479],[28.2037,-3.8296,1364.9326],[28.2016,-3.8333,1340.6276],[28.2029,-3.8354,1354.5886],[28.2051,-3.8346,1379.2156],[28.2061,-3.8321,1376.7131],[28.2135,-3.8352,1421.131],[28.2195,-3.8325,1419.1997],[28.2228,-3.8326,1410.4087],[28.2265,-3.83,1442.3768],[28.2342,-3.8346,1522.2297],[28.2482,-3.8309,1548.6921],[28.2556,-3.8331,1568.8976],[28.2608,-3.8329,1550.53],[28.267,-3.8294,1534.7864],[28.2747,-3.8213,1558.6135],[28.2814,-3.8204,1597.3544],[28.288,-3.8219,1675.7314],[28.2928,-3.8194,1663.9208],[28.2995,-3.8184,1697.8004],[28.3068,-3.8228,1687.6758],[28.3144,-3.823,1705.0699],[28.322,-3.8285,1683.8124],[28.3328,-3.8282,1694.7535],[28.3353,-3.8388,1666.7346],[28.3399,-3.8468,1762.1171],[28.3503,-3.8539,1737.2314],[28.3939,-3.8578,1763.2708],[28.3957,-3.8558,1724.615],[28.403,-3.8537,1778.9232],[28.4314,-3.8532,1830.8273],[28.4376,-3.8522,1862.801],[28.4446,-3.8363,1738.5642],[28.4461,-3.8089,1808.5005],[28.4511,-3.7965,1830.1843],[28.4547,-3.7958,1824.4816],[28.4596,-3.8032,1774.2151],[28.4643,-3.8256,1650.3301],[28.466,-3.8623,1572.1818],[28.4692,-3.8798,1386.8186],[28.4756,-3.8839,1433.0619],[28.478,-3.9022,1457.6858],[28.4808,-3.9084,1485.7424],[28.5156,-3.8892,1694.2344],[28.5214,-3.8733,1761.0907],[28.5216,-3.8519,1835.5732],[28.5429,-3.8461,1789.8955],[28.5593,-3.8356,1715.0613],[28.5622,-3.8273,1720.5691],[28.5663,-3.831,1838.637],[28.5685,-3.8525,2052.2668],[28.5746,-3.8623,1848.2981],[28.5761,-3.8753,1829.3435],[28.5818,-3.8819,1846.6725],[28.5865,-3.8846,1723.5375],[28.5924,-3.8809,1725.7412],[28.5983,-3.8709,1847.9469],[28.6082,-3.8672,1939.3824],[28.618,-3.8607,1967.5631],[28.625,-3.848,1989.7872],[28.6372,-3.8436,1976.99],[28.6426,-3.8387,2005.1176],[28.6478,-3.8235,2086.9094],[28.6647,-3.8055,2124.1611],[28.6724,-3.7937,2168.936],[28.6747,-3.785,2199.6284],[28.6799,-3.782,2194.4658],[28.6843,-3.7764,2171.6665],[28.6985,-3.77,2172.9404],[28.7071,-3.769,2179.4758],[28.7161,-3.7725,2144.3406],[28.7098,-3.7852,2167.3389],[28.7024,-3.7931,2170.6611],[28.7122,-3.8471,2255.4207],[28.7272,-3.8588,2129.4609],[28.7316,-3.8654,2103.5088],[28.7312,-3.8755,2168.3418],[28.7196,-3.8985,1918.7604],[28.7142,-3.9044,1932.0465],[28.7123,-3.9183,1930.682],[28.715,-3.9231,1953.6263],[28.713,-3.93,1930.6155],[28.7137,-3.9362,1930.4253],[28.7331,-3.9646,1956.3965],[28.7338,-3.9676,1992.7858],[28.7307,-3.9826,1949.9437],[28.7278,-3.9888,1919.3855],[28.733,-3.9978,1892.0846],[28.7462,-3.9905,1952.1664],[28.7572,-3.9868,1973.4878],[28.7634,-3.9813,1938.1199],[28.7643,-3.9725,1917.615],[28.7709,-3.9622,1938.3921],[28.777,-3.9619,1961.6696],[28.7789,-3.9741,2087.5547],[28.7834,-3.9811,2092.5371],[28.8086,-3.9931,2191.2493],[28.8139,-3.9864,2173.1467],[28.8202,-3.9697,2321.4043],[28.8292,-3.9135,2275.8237],[28.8363,-3.8863,2439.5061],[28.8543,-3.8343,2507.7227],[28.8544,-3.821,2463.7087],[28.848,-3.8103,2568.5181],[28.8439,-3.8074,2468.3015],[28.8362,-3.8088,2413.1516],[28.8345,-3.8172,2461.022],[28.8275,-3.8186,2360.9985],[28.7871,-3.7738,2175.1045],[28.7526,-3.745,2183.1724],[28.742,-3.7386,2160.3674],[28.732,-3.7146,2237.8433],[28.725,-3.6932,2248.0933],[28.7098,-3.6776,2131.95],[28.6976,-3.6621,2057.3049],[28.7101,-3.6412,2249.7771],[28.7071,-3.628,2187.429],[28.7171,-3.6136,2072.4233],[28.7504,-3.635,2151.915],[28.7665,-3.6483,2166.73],[28.7711,-3.6506,2253.0776],[28.7837,-3.6519,2283.1372],[28.7828,-3.6393,2280.447],[28.785,-3.6284,2284.6514],[28.7891,-3.6164,2087.6753],[28.796,-3.6068,2052.1919],[28.7998,-3.6099,2067.8755],[28.8068,-3.6035,2054.9448],[28.8115,-3.6026,2085.2341],[28.8111,-3.6044,2084.0347],[28.8154,-3.6042,2072.0347],[28.8196,-3.6075,2073.8687],[28.8207,-3.6032,2085.4849],[28.8281,-3.5973,2131.1265]],
[[28.2025,-3.0777,937.6669],[28.194,-3.0797,820.4167],[28.1847,-3.0769,959.9474],[28.1778,-3.0721,1013.6871],[28.1742,-3.0614,1128.668],[28.1775,-3.0517,1152.6871],[28.1864,-3.0452,1062.7361],[28.1946,-3.0439,978.0924],[28.2039,-3.0455,1002.8442],[28.209,-3.0517,928.9673],[28.2093,-3.0604,854.587],[28.2067,-3.072,843.3124],[28.2025,-3.0777,937.6669]]]]}}