{"type":"Feature","properties":{"GID_2":"COD.22.7_1","GID_0":"COD","country":"DemocraticRepublicoftheCongo","GID_1":"COD.22_1","province":"Sud-Kivu","NL_NAME_1":"NA","county":"Kamituga","VARNAME_2":"NA","NL_NAME_2":"NA","TYPE_2":"Ville","ENGTYPE_2":"Town","CC_2":"NA","HASC_2":"NA","name":"Kamituga.county"},
"geometry":{"type": "MultiPolygon","coordinates": [[[[28.2025,-3.0777,937.6669],[28.2067,-3.072,843.3124],[28.2093,-3.0604,854.587],[28.209,-3.0517,928.9673],[28.2039,-3.0455,1002.8442],[28.1946,-3.0439,978.0924],[28.1864,-3.0452,1062.7361],[28.1775,-3.0517,1152.6871],[28.1742,-3.0614,1128.668],[28.1778,-3.0721,1013.6871],[28.1847,-3.0769,959.9474],[28.194,-3.0797,820.4167],[28.2025,-3.0777,937.6669]]]]}}