{"type": "Feature","bbox": [12.2015,-6.0416,13.3976,-5.4543],"geometry": {"type": "MultiPolygon","coordinates": [[[[12.208,-5.7683,2.6499],[12.2015,-5.7724,4.3814],[12.2291,-5.8159,0.0],[12.265,-5.8542,0.0],[12.2683,-5.8591,4.1954],[12.268,-5.8618,0.5809],[12.2883,-5.8824,10.947],[12.2924,-5.89,8.075],[12.3147,-5.9078,13.2768],[12.337,-5.9284,0.0],[12.3422,-5.9345,11.5622],[12.345,-5.9422,0.0],[12.3587,-5.959,0.2174],[12.3595,-5.9638,0.0],[12.3632,-5.9645,1.0841],[12.382,-5.9877,1.1298],[12.3862,-5.9909,0.388],[12.4026,-5.9691,3.5805],[12.4248,-5.9649,26.1268],[12.4292,-5.9813,0.0],[12.4349,-5.9776,10.9695],[12.4457,-5.9769,6.4567],[12.4533,-5.9735,29.9075],[12.4624,-5.9735,9.8721],[12.4722,-5.9782,2.5452],[12.4863,-5.9817,5.0632],[12.493,-5.9856,5.8864],[12.5046,-6.0023,2.7008],[12.5155,-6.0412,0.0],[12.5206,-6.0416,0.0],[12.526,-6.0406,1.9061],[12.5389,-6.0336,0.0],[12.5579,-6.0298,0.0],[12.563,-6.0261,1.4264],[12.5899,-6.0202,0.541],[12.5911,-6.0165,0.0],[12.594,-6.0147,0.0],[12.601,-6.0152,0.0],[12.6131,-6.0077,3.0334],[12.6264,-6.002,0.0],[12.6712,-6.0013,1.7103],[12.6723,-6.0029,1.7103],[12.6846,-6.0032,0.0],[12.699,-5.9976,2.3678],[12.7044,-5.9972,1.3262],[12.724,-5.9849,0.0],[12.7289,-5.9793,0.0],[12.7325,-5.9725,0.0],[12.7328,-5.9687,0.0],[12.744,-5.9622,0.0],[12.7658,-5.9624,3.3278],[12.7937,-5.9679,1.2559],[12.8043,-5.9602,0.8187],[12.8058,-5.9606,0.2395],[12.8127,-5.9556,0.481],[12.8217,-5.9529,1.0063],[12.8275,-5.949,0.0],[12.8297,-5.9446,0.0],[12.8319,-5.9435,0.0],[12.8361,-5.9324,1.9012],[12.8398,-5.9284,0.0],[12.8435,-5.9203,0.0],[12.8489,-5.9151,0.5],[12.8545,-5.9129,0.5],[12.8671,-5.9114,0.5],[12.8732,-5.909,0.5],[12.8767,-5.9109,0.7921],[12.8839,-5.9096,2.2868],[12.8914,-5.9107,1.9575],[12.907,-5.9066,1.0],[12.9104,-5.9031,1.0],[12.9157,-5.9013,1.0],[12.9244,-5.9044,1.0],[12.93,-5.9028,1.0],[12.9461,-5.9032,1.5],[12.963,-5.8992,1.5],[12.9718,-5.8934,2.8144],[12.9744,-5.895,1.5],[12.9765,-5.8943,1.5],[12.9823,-5.8872,2.3657],[12.9862,-5.8893,2.0],[12.9882,-5.8882,2.0],[12.999,-5.8774,2.0],[12.9971,-5.8703,3.681],[13.0028,-5.8667,3.2117],[13.0038,-5.8645,2.0],[12.9843,-5.8601,2.0],[12.9879,-5.8369,36.9376],[13.0,-5.8,87.8619],[12.9979,-5.7673,50.6312],[13.0332,-5.7635,53.6392],[13.1091,-5.7596,179.3239],[13.1144,-5.7709,191.3845],[13.1072,-5.7964,150.1581],[13.1044,-5.8289,135.6619],[13.1105,-5.86,20.8445],[13.1097,-5.8769,4.5369],[13.1061,-5.8762,6.4904],[13.1006,-5.8786,2.5],[13.1036,-5.8876,15.26],[13.112,-5.8971,8.1711],[13.1176,-5.8996,3.0],[13.1337,-5.8921,4.0621],[13.1408,-5.8845,5.299],[13.1495,-5.8786,6.0174],[13.1697,-5.8722,10.6171],[13.1816,-5.87,3.0],[13.1846,-5.8708,15.7435],[13.1883,-5.866,22.5148],[13.1927,-5.8683,3.0],[13.1979,-5.8632,3.0],[13.1995,-5.8643,5.6747],[13.2128,-5.8576,44.8653],[13.2184,-5.8568,3.0],[13.2245,-5.8573,6.1884],[13.2332,-5.8609,19.5304],[13.238,-5.8612,20.1331],[13.2428,-5.8591,4.9324],[13.2467,-5.8599,3.0],[13.2545,-5.8616,3.0],[13.2591,-5.865,3.0],[13.2628,-5.8644,5.7767],[13.2757,-5.8707,12.4999],[13.2893,-5.8712,16.9293],[13.3049,-5.8834,4.4845],[13.3218,-5.8901,8.7993],[13.3232,-5.8933,3.0],[13.3245,-5.8921,35.8861],[13.3303,-5.8935,3.125],[13.349,-5.901,4.7626],[13.3591,-5.9007,47.4397],[13.3684,-5.8716,4.0],[13.375,-5.8666,4.5],[13.3717,-5.849,24.3424],[13.3903,-5.821,157.0054],[13.3895,-5.7972,254.4364],[13.3968,-5.784,204.4329],[13.3976,-5.7737,253.9003],[13.3878,-5.7394,349.0981],[13.3764,-5.7256,330.0094],[13.3772,-5.7145,419.6283],[13.3837,-5.7068,376.0361],[13.3837,-5.6981,319.6432],[13.3625,-5.6405,259.5844],[13.356,-5.6347,318.5],[13.3202,-5.629,368.4026],[13.3105,-5.6288,375.2362],[13.2999,-5.638,319.1414],[13.291,-5.6591,317.1148],[13.2821,-5.6644,326.6073],[13.278,-5.658,389.1415],[13.2845,-5.6162,429.1288],[13.2837,-5.609,366.5667],[13.2374,-5.6133,260.9883],[13.2049,-5.6124,282.0637],[13.2069,-5.6268,215.6461],[13.203,-5.6329,253.4841],[13.1754,-5.6494,220.6628],[13.162,-5.6546,194.8073],[13.1536,-5.6551,239.7071],[13.1496,-5.6539,214.7466],[13.1456,-5.6467,207.5896],[13.145,-5.6384,227.4171],[13.1416,-5.6351,219.878],[13.1232,-5.6362,200.4421],[13.1148,-5.6338,286.4175],[13.1029,-5.6345,183.454],[13.0771,-5.6395,203.8678],[13.0662,-5.6386,169.29],[13.0597,-5.6336,148.7459],[13.0492,-5.6204,220.022],[13.0452,-5.6128,180.0514],[13.0452,-5.6049,180.1138],[13.0427,-5.6026,194.5237],[13.0367,-5.6029,160.6993],[13.0066,-5.6171,226.19],[12.9912,-5.6209,143.5332],[12.9705,-5.6306,112.885],[12.9571,-5.6324,124.3867],[12.9541,-5.6237,89.0318],[12.9528,-5.5858,116.0668],[12.9507,-5.5721,121.8412],[12.9506,-5.5539,153.3563],[12.9555,-5.5423,203.8594],[12.9559,-5.5284,158.8603],[12.9538,-5.5226,177.4616],[12.9449,-5.5148,171.4831],[12.9125,-5.5009,154.9676],[12.9035,-5.4901,74.3519],[12.8925,-5.4706,181.4274],[12.8854,-5.4543,123.5101],[12.8835,-5.4677,169.3182],[12.8791,-5.4763,129.6895],[12.8747,-5.484,113.118],[12.8619,-5.499,102.462],[12.857,-5.4998,99.0957],[12.852,-5.4932,90.6853],[12.8479,-5.4831,115.7552],[12.8405,-5.4757,152.5933],[12.833,-5.4707,160.2326],[12.826,-5.4701,158.6022],[12.8241,-5.4717,133.2782],[12.8267,-5.4888,131.2729],[12.8332,-5.5037,124.0176],[12.8333,-5.5156,100.3181],[12.8304,-5.5241,95.4288],[12.823,-5.5349,74.8586],[12.7789,-5.5326,170.293],[12.7685,-5.5283,171.6746],[12.7545,-5.5158,218.9334],[12.751,-5.5146,207.3466],[12.7398,-5.5414,172.6395],[12.73,-5.5528,150.5668],[12.7186,-5.5619,100.7722],[12.7128,-5.5726,140.8525],[12.7149,-5.5877,124.8859],[12.7265,-5.626,84.1313],[12.7296,-5.641,81.8386],[12.7253,-5.6551,52.2498],[12.7174,-5.6595,81.2295],[12.6694,-5.6703,150.6047],[12.6377,-5.6737,67.1803],[12.6233,-5.6716,106.7066],[12.6117,-5.6535,183.288],[12.6058,-5.6504,201.6977],[12.5889,-5.646,143.0446],[12.5819,-5.6469,161.9987],[12.575,-5.6513,153.3542],[12.5562,-5.6573,137.6988],[12.5357,-5.6603,149.1014],[12.5373,-5.6842,111.244],[12.5351,-5.7339,98.5659],[12.3147,-5.7452,93.8008],[12.2811,-5.7428,26.0744],[12.2657,-5.7433,19.0279],[12.2471,-5.7488,15.3246],[12.2216,-5.7595,8.3476],[12.208,-5.7683,2.6499]]]]}
,"properties": {"GID_2": "COD.11.14_1","GID_0": "COD","country": "DemocraticRepublicoftheCongo","GID_1": "COD.11_1","province": "Kongo-Central","NL_NAME_1": "NA","county": "Moanda","VARNAME_2": "NA","NL_NAME_2": "NA","TYPE_2": "Territoire","ENGTYPE_2": "Territory","CC_2": "NA","HASC_2": "NA","name": "Moanda.county","area_km2": 3936.965,"hist_schema_id": "Elevation0-9000","hist_area_km2": {"0": 755.614,"25": 502.782,"50": 390.228,"75": 373.101,"100": 433.216,"125": 444.128,"150": 228.936,"175": 164.174,"200": 137.909,"225": 116.306,"250": 94.155,"275": 75.633,"300": 71.52,"325": 67.301,"350": 38.419,"375": 20.929,"400": 10.507,"425": 5.781,"450": 2.954,"475": 1.751,"500": 1.034,"525": 0.549,"550": 0.042}}}