{"type":"Feature","properties":{"GID_2":"COD.2.7_1","GID_0":"COD","country":"DemocraticRepublicoftheCongo","GID_1":"COD.2_1","province":"Équateur","NL_NAME_1":"NA","county":"Lukolela","VARNAME_2":"NA","NL_NAME_2":"NA","TYPE_2":"Territoire","ENGTYPE_2":"Territory","CC_2":"NA","HASC_2":"NA","name":"Lukolela.county"},
"geometry":{"type": "MultiPolygon","coordinates": [[[[17.7791,-0.5555,298.1793],[17.7264,-0.5636,294.7739],[17.7031,-0.5591,294.0],[17.7001,-0.5676,294.0],[17.6836,-0.5953,302.3061],[17.6549,-0.6251,294.0],[17.638,-0.6563,294.0],[17.6096,-0.6935,294.0],[17.5745,-0.732,300.9709],[17.5603,-0.7521,299.4833],[17.5435,-0.7701,294.8981],[17.5341,-0.7877,293.5],[17.4938,-0.8351,293.5],[17.4925,-0.839,298.8605],[17.4871,-0.8427,296.6558],[17.469,-0.861,293.5],[17.468,-0.864,294.1211],[17.457,-0.876,294.3372],[17.429,-0.903,293.5],[17.3931,-0.9369,293.5],[17.3851,-0.9424,293.0],[17.3412,-0.9905,292.0],[17.3301,-0.9993,294.9199],[17.3178,-1.0058,295.3187],[17.2955,-1.0143,294.6528],[17.2548,-1.0408,292.7399],[17.2468,-1.0437,291.5],[17.237,-1.047,291.5],[17.216,-1.049,291.5],[17.209,-1.047,291.0],[17.1827,-1.0482,291.0],[17.164,-1.052,291.0],[17.13,-1.064,290.5],[17.111,-1.074,290.0],[17.088,-1.089,290.0],[17.0667,-1.107,289.5],[17.0562,-1.1119,292.2762],[17.0412,-1.1231,289.5],[17.0234,-1.1313,289.5935],[16.9904,-1.143,289.0],[16.9768,-1.1514,290.4251],[16.9302,-1.186,289.0],[16.897,-1.214,293.0747],[16.882,-1.231,295.0627],[16.846,-1.264,288.5],[16.816,-1.301,291.1197],[16.7917,-1.339,288.0],[16.7613,-1.3989,288.2321],[16.7415,-1.433,287.0],[16.7262,-1.4697,289.7625],[16.656,-1.6137,287.4827],[16.589,-1.7452,287.9489],[16.552,-1.804,283.0],[16.538,-1.829,284.0193],[16.5042,-1.874,283.0],[16.5603,-1.8628,283.0],[16.559,-1.8819,283.0],[16.5627,-1.8897,307.3191],[16.5682,-1.8957,295.2501],[16.5701,-1.9046,297.8328],[16.5797,-1.9198,291.7256],[16.5798,-1.9368,299.1461],[16.5835,-1.9467,291.8417],[16.5925,-1.963,300.6044],[16.6118,-1.9893,292.7155],[16.6237,-1.9966,297.0192],[16.6342,-1.9982,296.332],[16.945,-2.0013,378.4979],[16.9427,-1.8661,351.7736],[16.9121,-1.8558,318.1984],[16.8879,-1.8575,331.7991],[16.879,-1.8557,312.781],[16.8668,-1.8493,304.7882],[16.8517,-1.8453,299.6495],[16.8469,-1.846,299.6146],[16.8379,-1.8306,295.0328],[16.8279,-1.8216,293.2935],[16.8227,-1.8215,301.7659],[16.8154,-1.8255,302.398],[16.8048,-1.8354,291.9524],[16.7992,-1.8371,303.6008],[16.7941,-1.8363,304.2968],[16.7903,-1.8304,302.0335],[16.7888,-1.8211,292.1127],[16.7901,-1.8023,289.7716],[16.7951,-1.7917,300.9889],[16.8112,-1.7686,305.4476],[16.8145,-1.7657,305.0822],[16.8189,-1.765,305.7584],[16.8365,-1.7802,302.8088],[16.8463,-1.7819,305.18],[16.8582,-1.7817,301.9751],[16.8721,-1.7774,296.5505],[16.9048,-1.7608,300.701],[16.9214,-1.7569,303.5132],[16.9406,-1.7593,306.7462],[16.9709,-1.7663,321.706],[16.9938,-1.7696,325.0138],[17.0027,-1.7726,328.0829],[17.0117,-1.7816,329.6048],[17.0169,-1.7905,336.2334],[17.0265,-1.7943,331.2841],[17.0487,-1.7945,344.0399],[17.0546,-1.7968,339.535],[17.0635,-1.8043,356.9854],[17.0702,-1.8029,345.6718],[17.0877,-1.7824,400.4183],[17.0943,-1.7781,373.4208],[17.1009,-1.7782,393.8867],[17.1076,-1.7864,401.4947],[17.1136,-1.7864,414.4747],[17.4808,-1.5047,367.7958],[17.5064,-1.4798,331.7031],[17.4998,-1.4416,340.6703],[17.4995,-1.4266,351.5415],[17.5017,-1.4045,352.1349],[17.5171,-1.3654,346.554],[17.5224,-1.358,334.3306],[17.5251,-1.3509,329.2451],[17.5385,-1.3395,327.6171],[17.5437,-1.3296,329.7332],[17.5458,-1.3041,323.9431],[17.5442,-1.2977,321.0107],[17.5455,-1.2857,328.285],[17.5438,-1.2724,343.572],[17.557,-1.2225,318.6631],[17.5723,-1.1969,326.9329],[17.6524,-1.1346,314.3284],[17.6767,-1.1131,322.7148],[17.7016,-1.0861,317.1106],[17.7105,-1.0693,328.6271],[17.7164,-1.0488,326.2395],[17.7306,-0.9477,336.252],[17.7764,-0.7049,318.1673],[17.7856,-0.6655,316.8376],[17.7854,-0.6591,305.3711],[17.7901,-0.6448,310.7842],[17.8079,-0.6084,304.833],[17.8103,-0.5923,301.7296],[17.8087,-0.5882,306.3564],[17.8043,-0.5864,299.9477],[17.8009,-0.5901,299.3476],[17.7971,-0.6011,307.5193],[17.7887,-0.6065,309.1313],[17.7739,-0.6068,308.9846],[17.7639,-0.6137,309.6613],[17.7481,-0.6154,309.4286],[17.7417,-0.6187,305.4537],[17.7346,-0.6162,295.0263],[17.7323,-0.6129,294.0],[17.73,-0.6059,298.8896],[17.7298,-0.5967,294.0],[17.732,-0.5905,294.0],[17.7484,-0.5836,298.3196],[17.7791,-0.5555,298.1793]]]]}}