{"type": "Feature","bbox": [20.6253,-4.1581,22.2213,-2.3096],"geometry": {"type": "MultiPolygon","coordinates": [[[[21.9682,-3.9751,393.1449],[21.9683,-3.9694,378.8823],[21.9761,-3.9519,410.8158],[21.9876,-3.9395,452.0024],[21.9955,-3.9195,453.9813],[22.009,-3.9097,438.8598],[22.0122,-3.9025,460.6199],[22.0201,-3.8924,488.9844],[22.0292,-3.8885,529.7711],[22.0375,-3.8889,486.2931],[22.0581,-3.884,486.5756],[22.0683,-3.8779,537.9565],[22.1529,-3.8094,580.8408],[22.1562,-3.8039,630.7001],[22.1561,-3.7964,623.984],[22.1321,-3.7787,578.7878],[22.1329,-3.7717,602.9207],[22.1422,-3.7616,570.0966],[22.1375,-3.7431,596.3721],[22.1388,-3.7311,601.2241],[22.1331,-3.7101,524.1732],[22.1348,-3.6853,478.7485],[22.1401,-3.6545,447.7284],[22.1377,-3.6144,431.0655],[22.1366,-3.605,405.4293],[22.1287,-3.578,426.5366],[22.1225,-3.5703,425.6101],[22.1182,-3.5715,419.6174],[22.1144,-3.5748,442.0329],[22.1076,-3.5727,461.0774],[22.0863,-3.5823,398.0402],[22.062,-3.584,421.8275],[22.0595,-3.5808,435.0805],[22.0416,-3.5692,448.9108],[22.0288,-3.5759,486.76],[22.0146,-3.5724,456.3174],[22.0043,-3.5779,442.8132],[21.9965,-3.5769,441.8996],[21.9891,-3.5801,412.6543],[21.9733,-3.5918,487.6603],[21.971,-3.6019,412.0073],[21.9586,-3.6015,475.4303],[21.9573,-3.592,475.5116],[21.9447,-3.5847,466.972],[21.9396,-3.5746,495.3972],[21.9383,-3.5686,491.3075],[21.9415,-3.5537,468.0489],[21.9417,-3.5419,428.5143],[21.9383,-3.5222,469.2304],[21.9294,-3.5042,473.9292],[21.9303,-3.4886,469.6238],[21.9412,-3.4417,420.6327],[21.9699,-3.4247,431.8171],[21.9772,-3.4178,436.0402],[21.9894,-3.4011,441.5631],[21.9957,-3.3806,452.1251],[21.9963,-3.3021,556.9186],[21.9982,-3.2961,535.2463],[22.0064,-3.2884,524.3895],[22.0354,-3.2704,508.5913],[22.0558,-3.2531,502.9382],[22.0866,-3.2225,452.7295],[22.0957,-3.2094,457.959],[22.1082,-3.1736,479.4984],[22.114,-3.1218,490.1513],[22.1147,-3.1088,483.482],[22.112,-3.1008,489.6432],[22.1013,-3.0829,500.0272],[22.1083,-3.0638,549.145],[22.128,-3.0429,584.8536],[22.1492,-3.024,523.4325],[22.1599,-3.0168,550.0648],[22.1642,-3.0118,569.2939],[22.1699,-3.0011,499.3367],[22.1812,-2.9568,540.5641],[22.1885,-2.9507,546.8562],[22.2148,-2.9378,523.7664],[22.2213,-2.9288,500.166],[22.2154,-2.9249,525.9359],[22.2065,-2.929,501.7654],[22.1818,-2.9312,542.5682],[22.1669,-2.9226,545.3341],[22.1516,-2.9042,507.4745],[22.1429,-2.8966,569.6841],[22.1341,-2.877,564.3721],[22.1238,-2.8625,459.015],[22.1092,-2.83,469.5953],[22.1026,-2.8189,453.2868],[22.0853,-2.8044,457.8151],[22.0823,-2.7984,446.1665],[22.0787,-2.7786,445.1103],[22.0559,-2.7539,434.092],[22.0502,-2.7509,426.8186],[22.0329,-2.7297,423.5524],[22.0217,-2.7066,474.5639],[22.0135,-2.6852,512.4185],[22.0147,-2.6744,469.6257],[21.9944,-2.6513,439.2519],[21.9743,-2.6418,463.1733],[21.9485,-2.6125,508.9583],[21.9367,-2.606,479.9814],[21.9257,-2.5966,466.7156],[21.9191,-2.5859,513.8759],[21.9035,-2.5841,495.7634],[21.8988,-2.582,482.1953],[21.8933,-2.5769,467.6934],[21.8709,-2.5706,464.0543],[21.8512,-2.5586,423.4185],[21.8451,-2.5454,509.3981],[21.831,-2.5304,440.8152],[21.8129,-2.5248,439.7024],[21.7761,-2.5063,520.4095],[21.7688,-2.498,528.7978],[21.7554,-2.4913,481.3529],[21.7314,-2.4834,489.8591],[21.6964,-2.4756,448.3862],[21.6811,-2.4689,476.8745],[21.6731,-2.4629,475.7803],[21.6644,-2.4514,479.2638],[21.653,-2.4426,487.5612],[21.6464,-2.4313,519.5306],[21.6341,-2.4312,466.7354],[21.608,-2.4213,461.37],[21.5952,-2.4194,447.0369],[21.5729,-2.4016,551.2363],[21.5665,-2.3834,466.8531],[21.5615,-2.3788,436.8789],[21.5558,-2.376,445.7212],[21.5368,-2.3738,443.7193],[21.5142,-2.3576,474.4353],[21.4955,-2.35,434.7966],[21.4857,-2.3476,464.3046],[21.4658,-2.3384,405.7723],[21.4553,-2.3293,410.0852],[21.4345,-2.3205,438.6047],[21.4165,-2.3163,463.4724],[21.4101,-2.3096,462.686],[21.4078,-2.3402,469.7198],[21.4127,-2.4459,416.7005],[21.4433,-2.4977,416.0336],[21.4277,-2.4889,423.1526],[21.4207,-2.4819,434.1208],[21.3914,-2.4731,436.6098],[21.371,-2.4776,443.8676],[21.3538,-2.4844,385.8581],[21.3227,-2.4801,400.2003],[21.312,-2.4812,393.4252],[21.3038,-2.4842,381.2537],[21.2746,-2.5041,403.5406],[21.2666,-2.5061,397.8082],[21.251,-2.5054,387.4995],[21.2446,-2.5028,397.8005],[21.2023,-2.5128,457.4041],[21.1748,-2.5142,495.3086],[21.1515,-2.5072,425.8812],[21.1383,-2.4978,440.0916],[21.1326,-2.4961,437.3248],[21.122,-2.4965,419.94],[21.0941,-2.5056,425.0161],[21.0845,-2.5046,417.7444],[21.068,-2.4942,424.2471],[21.0543,-2.4937,424.8242],[21.0387,-2.4985,441.5532],[21.0163,-2.4944,429.7685],[20.9621,-2.4898,420.1686],[20.9574,-2.515,466.7469],[20.9574,-2.5344,521.135],[20.9499,-2.5581,443.4919],[20.9232,-2.6065,451.4002],[20.8933,-2.6466,452.9275],[20.8746,-2.6771,404.0578],[20.8645,-2.7023,432.2341],[20.8654,-2.7486,451.0603],[20.8282,-2.7776,393.463],[20.817,-2.7897,431.0797],[20.8068,-2.8039,398.574],[20.8004,-2.8218,419.5064],[20.7758,-2.8729,394.6783],[20.7539,-2.9244,424.8692],[20.7266,-2.998,442.0692],[20.6902,-3.1069,453.0706],[20.6842,-3.1366,465.3437],[20.6757,-3.1439,405.1162],[20.672,-3.1508,402.0609],[20.6673,-3.1691,405.8774],[20.6654,-3.1848,452.8196],[20.6582,-3.2094,398.7072],[20.6558,-3.2261,423.4143],[20.6569,-3.2324,402.2413],[20.6585,-3.2331,411.7859],[20.6578,-3.236,410.9632],[20.6388,-3.2937,359.2553],[20.6275,-3.3164,397.1984],[20.6253,-3.3269,386.9284],[20.6288,-3.4083,346.3146],[20.6256,-3.4262,347.5429],[20.631,-3.487,375.7648],[20.6306,-3.5613,421.9574],[20.6408,-3.7267,527.4325],[20.6442,-3.85,519.1017],[20.6467,-3.8915,418.3439],[20.6435,-3.9711,414.7156],[20.6534,-3.9995,425.9012],[20.6617,-4.0583,482.2697],[20.6602,-4.0796,443.481],[20.6621,-4.1034,402.8542],[20.6599,-4.1307,366.3864],[20.6564,-4.1478,364.029],[20.6512,-4.1552,369.5872],[20.6635,-4.1581,353.5],[20.691,-4.1502,354.0],[20.7,-4.1458,354.0],[20.7185,-4.1432,367.7789],[20.7286,-4.146,354.5],[20.7348,-4.1442,354.5],[20.7421,-4.1449,419.1282],[20.7541,-4.1413,439.8148],[20.7746,-4.1237,388.1046],[20.8001,-4.1109,371.6933],[20.8143,-4.107,356.0],[20.8457,-4.1079,361.1603],[20.8599,-4.1206,357.0],[20.8658,-4.1238,398.1181],[20.8876,-4.1256,386.2838],[20.9096,-4.1151,428.0681],[20.9151,-4.1156,446.9579],[20.919,-4.1188,463.6877],[20.9215,-4.1186,437.7714],[20.9266,-4.1156,440.0495],[20.9292,-4.1037,421.3289],[20.9412,-4.075,404.9326],[20.9483,-4.0706,409.002],[20.9612,-4.0677,400.912],[20.969,-4.0611,388.06],[20.9768,-4.0579,390.5491],[20.9892,-4.0467,385.9731],[20.9964,-4.0435,371.5237],[21.0086,-4.0295,370.6319],[21.0226,-4.0226,397.83],[21.0345,-4.0119,390.3266],[21.069,-3.9909,365.3848],[21.0807,-3.9909,366.3082],[21.0873,-3.9946,374.2866],[21.0953,-3.9947,383.3371],[21.1008,-3.9975,366.0159],[21.1084,-3.9984,369.2565],[21.116,-3.9964,370.3018],[21.1343,-3.9896,376.4794],[21.1585,-3.969,382.0469],[21.1656,-3.9667,377.1069],[21.2023,-3.9666,411.5942],[21.2169,-3.9747,368.6221],[21.2302,-3.9787,361.0],[21.262,-3.994,382.8209],[21.2771,-3.9973,380.7856],[21.2966,-3.9979,378.1374],[21.3133,-4.009,372.0691],[21.3428,-4.0167,390.4588],[21.3763,-4.0132,367.1446],[21.3795,-4.0164,367.4329],[21.3831,-4.0286,374.7719],[21.389,-4.0348,364.5],[21.414,-4.0485,385.1873],[21.422,-4.0552,385.4209],[21.4279,-4.066,391.043],[21.4327,-4.0702,382.9803],[21.4478,-4.0758,393.1356],[21.4634,-4.0752,387.0943],[21.4802,-4.0658,378.463],[21.4893,-4.0645,375.1316],[21.5152,-4.0655,382.2363],[21.5231,-4.0616,368.3984],[21.5286,-4.0561,372.9424],[21.5329,-4.0552,372.1539],[21.5421,-4.0555,374.3327],[21.5467,-4.0573,381.1828],[21.5528,-4.0629,371.3495],[21.5563,-4.0622,372.9267],[21.5572,-4.0546,368.0],[21.56,-4.05,370.1087],[21.5805,-4.0314,380.4807],[21.5867,-4.0315,404.7615],[21.5892,-4.0349,372.6478],[21.5903,-4.0414,387.9566],[21.5893,-4.0525,370.3786],[21.5928,-4.0542,369.0],[21.5971,-4.0504,369.0],[21.6063,-4.0493,374.2169],[21.6139,-4.044,384.8874],[21.6344,-4.0238,373.2767],[21.6417,-4.0186,370.0],[21.6564,-4.0131,371.4144],[21.6637,-4.0131,375.7967],[21.669,-4.0159,380.417],[21.6772,-4.0157,376.9237],[21.6834,-4.019,383.1491],[21.6928,-4.0199,378.3307],[21.7002,-4.0186,393.5381],[21.7256,-4.0085,382.7506],[21.7328,-4.0028,385.4564],[21.7321,-3.9968,374.6237],[21.7335,-3.9904,373.6546],[21.7434,-3.9844,385.6957],[21.7532,-3.9829,374.6453],[21.766,-3.991,380.8443],[21.7715,-3.9924,372.0],[21.7764,-3.9901,372.3483],[21.7803,-3.9758,372.0],[21.7792,-3.9675,386.1717],[21.7806,-3.9639,385.2082],[21.7881,-3.9604,377.8013],[21.8003,-3.958,375.7415],[21.8253,-3.9576,376.879],[21.831,-3.9599,373.0],[21.8344,-3.9664,378.213],[21.8284,-3.9808,377.7785],[21.8305,-3.9834,413.4645],[21.8339,-3.9831,428.8657],[21.8468,-3.9729,379.857],[21.855,-3.9726,380.4682],[21.8623,-3.9807,375.1432],[21.8715,-3.9826,379.8572],[21.8763,-3.9888,374.0],[21.8992,-3.9914,381.138],[21.9104,-3.9945,378.7519],[21.9193,-3.9989,398.3976],[21.9294,-3.9987,443.707],[21.9682,-3.9751,393.1449]]]]}
,"properties": {"GID_2": "COD.9.1_1","GID_0": "COD","country": "DemocraticRepublicoftheCongo","GID_1": "COD.9_1","province": "Kasaï","NL_NAME_1": "NA","county": "Dekese","VARNAME_2": "NA","NL_NAME_2": "NA","TYPE_2": "Territoire","ENGTYPE_2": "Territory","CC_2": "NA","HASC_2": "NA","name": "Dekese.county","area_km2": 25764.58,"hist_schema_id": "Elevation0-9000","hist_area_km2": {"325": 14.79,"350": 454.55,"375": 1742.11,"400": 3196.33,"425": 5025.95,"450": 5577.2,"475": 4134.73,"500": 2498.31,"525": 1477.05,"550": 913.82,"575": 497.27,"600": 191.04,"625": 39.61,"650": 1.82}}}