{"type":"Feature","properties":{"GID_2":"COD.24.1_1","GID_0":"COD","country":"DemocraticRepublicoftheCongo","GID_1":"COD.24_1","province":"Tanganyika","NL_NAME_1":"NA","county":"Kabalo","VARNAME_2":"NA","NL_NAME_2":"NA","TYPE_2":"Territoire","ENGTYPE_2":"Territory","CC_2":"NA","HASC_2":"NA","name":"Kabalo.county"},
"geometry":{"type": "MultiPolygon","coordinates": [[[[26.0117,-6.6828,899.5486],[26.028199999999998,-6.6771,906.1385],[26.0404,-6.675,896.521],[26.071,-6.6752,866.3263],[26.0811,-6.6712,865.2949],[26.1048,-6.6537,866.0319],[26.1142,-6.6494,852.541],[26.1284,-6.6486,849.3521],[26.136,-6.6438,850.9073],[26.1562,-6.6385,829.0284],[26.1654,-6.6387,802.1555],[26.1691,-6.6408,816.8954],[26.1769,-6.6414,762.4727],[26.182,-6.6444,724.8344],[26.1891,-6.6423,724.8075],[26.1928,-6.6403,701.5537],[26.1937,-6.6324,725.3312],[26.1967,-6.6301,714.8235],[26.205,-6.6301,685.8986],[26.2213,-6.6204,679.8109],[26.2289,-6.6216,695.6176],[26.2309,-6.619,675.5948],[26.2272,-6.6149,684.4221],[26.2279,-6.6128,692.6938],[26.2496,-6.6165,697.1871],[26.2571,-6.6158,667.9427],[26.2691,-6.6079,669.6124],[26.2875,-6.6079,696.0895],[26.296,-6.6116,672.8503],[26.3056,-6.6109,655.0332],[26.3167,-6.6076,640.8375],[26.344,-6.5908,653.1696],[26.3514,-6.5889,656.8891],[26.3766,-6.5843,660.4626],[26.4058,-6.5845,623.0239],[26.4419,-6.5819,606.7568],[26.4606,-6.5832,604.9235],[26.4741,-6.5859,609.067],[26.4935,-6.5955,600.3784],[26.5004,-6.5974,598.4515],[26.5071,-6.6052,608.9019],[26.5165,-6.6058,596.1007],[26.5239,-6.6123,600.465],[26.5253,-6.6155,595.9473],[26.5202,-6.6265,604.2869],[26.5209,-6.6304,624.9307],[26.5569,-6.6706,580.9481],[26.5604,-6.6724,579.3796],[26.5615,-6.6775,579.0521],[26.5746,-6.6793,578.9444],[26.5765,-6.674,577.5488],[26.5916,-6.665,591.2283],[26.6056,-6.6594,587.5798],[26.615,-6.6534,575.8378],[26.618,-6.6488,575.2053],[26.6203,-6.6348,576.4119],[26.6186,-6.6295,578.0153],[26.6196,-6.6265,578.4933],[26.6265,-6.6237,573.9482],[26.6342,-6.6065,582.1368],[26.6438,-6.5959,573.8991],[26.6434,-6.5869,573.5074],[26.6406,-6.584,572.4948],[26.6378,-6.5725,579.8021],[26.6507,-6.5628,569.9765],[26.6568,-6.5474,568.8412],[26.6586,-6.5375,574.3228],[26.6853,-6.5193,567.1138],[26.688,-6.5117,567.5307],[26.6985,-6.5034,569.8203],[26.7093,-6.499,573.9131],[26.7206,-6.4856,576.5732],[26.7346,-6.4773,572.3901],[26.7421,-6.4706,570.8959],[26.7472,-6.4704,570.0952],[26.7516,-6.475,571.6002],[26.7548,-6.4761,570.3935],[26.7619,-6.4641,573.5609],[26.7789,-6.4577,573.3718],[26.7817,-6.4595,566.3986],[26.7881,-6.459,564.5271],[26.7913,-6.4604,560.5513],[26.8019,-6.4498,560.3318],[26.8166,-6.4477,558.96],[26.8212,-6.4514,559.0394],[26.8255,-6.4518,558.5182],[26.8278,-6.4486,558.5909],[26.8412,-6.4474,558.3479],[26.8559,-6.4545,557.5379],[26.8644,-6.4519,557.0502],[26.8734,-6.4535,556.589],[26.8777,-6.4528,557.0903],[26.8805,-6.448,556.6364],[26.8899,-6.4429,567.3245],[26.8966,-6.4447,562.753],[26.9057,-6.4415,566.797],[26.9133,-6.4447,555.5476],[26.9179,-6.4401,558.7519],[26.9308,-6.4396,555.2757],[26.9326,-6.4359,555.2748],[26.9303,-6.4322,563.2811],[26.9333,-6.4299,564.0737],[26.9443,-6.4306,554.2567],[26.9552,-6.4351,554.4656],[26.974,-6.4344,553.827],[26.9807,-6.447,553.9421],[26.995,-6.4479,553.6678],[26.9998,-6.4518,554.1387],[26.9952,-6.4534,553.6224],[26.9885,-6.4509,554.3678],[26.9844,-6.4516,553.5641],[26.9881,-6.47,555.6315],[26.9841,-6.4925,556.2688],[26.9835,-6.5277,554.084],[26.9789,-6.5378,558.3033],[26.9712,-6.5663,557.5981],[26.9698,-6.6399,553.0],[27.0174,-6.6338,598.8898],[27.038,-6.6277,592.968],[27.1093,-6.6228,583.1992],[27.1819,-6.6227,634.3469],[27.1976,-6.6275,667.8984],[27.2145,-6.6409,671.2386],[27.2519,-6.6433,623.5377],[27.2895,-6.6347,629.4483],[27.3303,-6.6286,652.5544],[27.3704,-6.6526,658.4014],[27.4437,-6.6799,653.8009],[27.4854,-6.6923,671.0519],[27.5077,-6.7098,625.0211],[27.5161,-6.6927,651.0652],[27.5198,-6.6911,638.0404],[27.5332,-6.6543,652.4333],[27.5337,-6.6462,656.9922],[27.5449,-6.6303,661.0739],[27.5464,-6.6209,668.2704],[27.5638,-6.6195,696.858],[27.5956,-6.604,706.1891],[27.6266,-6.5668,776.1578],[27.6373,-6.5568,741.932],[27.6494,-6.5507,722.7325],[27.6672,-6.5467,749.1057],[27.7032,-6.5457,748.7452],[27.725,-6.5484,729.0345],[27.7398,-6.5548,729.9601],[27.7685,-6.5593,779.2714],[27.8036,-6.5526,798.854],[27.8317,-6.5404,720.51],[27.8493,-6.5413,742.8129],[27.8888,-6.5534,797.1074],[27.9181,-6.5558,742.1457],[27.9342,-6.5534,797.2994],[27.9496,-6.5457,746.2861],[27.9681,-6.5308,748.9916],[27.9791,-6.5174,741.2659],[27.9931,-6.5043,699.15],[28.0019,-6.5016,683.9126],[28.0217,-6.5086,711.1774],[28.0224,-6.5033,690.0103],[28.0182,-6.4909,693.3714],[28.0103,-6.4753,675.8444],[28.004,-6.4671,682.2965],[27.9918,-6.4591,659.0913],[27.9761,-6.4437,685.3925],[27.9699,-6.4405,663.0035],[27.9538,-6.4394,643.7624],[27.9485,-6.4379,645.1244],[27.9375,-6.431,640.5901],[27.9331,-6.4317,641.6734],[27.9281,-6.4377,648.7643],[27.9145,-6.4341,644.1508],[27.9106,-6.4359,673.2732],[27.9028,-6.4357,684.4625],[27.8869,-6.4397,682.5381],[27.8779,-6.4379,643.5387],[27.873,-6.4198,640.7097],[27.8712,-6.4191,638.9457],[27.8714,-6.4138,636.137],[27.8636,-6.4053,626.3359],[27.8548,-6.4033,624.0782],[27.8534,-6.4001,627.7446],[27.8541,-6.3904,630.9312],[27.8577,-6.3869,631.9697],[27.8577,-6.3805,620.2408],[27.8568,-6.3777,619.5831],[27.8533,-6.3778,624.2881],[27.8506,-6.3752,619.6968],[27.8489,-6.3644,617.5839],[27.845,-6.3569,615.8636],[27.8431,-6.3488,620.5198],[27.8426,-6.3323,618.2448],[27.838,-6.3305,616.8991],[27.8372,-6.3222,612.5144],[27.8354,-6.3187,611.9601],[27.8289,-6.3188,620.4526],[27.822,-6.313,615.356],[27.8051,-6.2839,608.8961],[27.8014,-6.2821,608.8524],[27.791,-6.2596,604.9558],[27.7919,-6.2467,604.087],[27.7889,-6.2428,602.1998],[27.7835,-6.2286,606.5923],[27.7757,-6.218,606.1125],[27.7736,-6.2061,606.1901],[27.768,-6.205,597.8103],[27.7639,-6.2022,599.3434],[27.7616,-6.1965,598.1081],[27.7546,-6.1912,602.1085],[27.7526,-6.1859,599.3598],[27.7459,-6.1811,594.8333],[27.7424,-6.1736,595.2679],[27.7428,-6.1641,593.5362],[27.7382,-6.1524,599.6271],[27.7308,-6.1451,591.2391],[27.705,-6.1305,592.2943],[27.7008,-6.1227,588.2996],[27.6909,-6.1202,587.614],[27.6886,-6.1144,592.2639],[27.664,-6.1161,607.1624],[27.6426,-6.1201,644.3964],[27.6017,-6.1128,642.1118],[27.5438,-6.1367,687.3723],[27.526,-6.1185,665.7872],[27.5084,-6.1091,638.6293],[27.4953,-6.1071,617.112],[27.4865,-6.1002,623.5785],[27.48,-6.1047,607.4658],[27.4726,-6.1225,633.0527],[27.4634,-6.1241,630.6837],[27.4583,-6.0996,600.1248],[27.4477,-6.0884,604.7332],[27.4426,-6.0757,601.1724],[27.4414,-6.0601,585.7079],[27.4379,-6.0472,577.0666],[27.4395,-6.0389,576.3181],[27.4383,-6.0346,566.3959],[27.404,-6.0296,563.3418],[27.3995,-6.0296,563.6658],[27.3926,-6.0333,563.3959],[27.3829,-6.0334,572.6185],[27.3707,-6.0233,561.7234],[27.3608,-6.0224,561.704],[27.3537,-6.0174,561.3556],[27.3374,-6.0218,572.2344],[27.3335,-6.0195,563.5595],[27.3298,-6.02,560.6339],[27.3186,-6.0242,588.6431],[27.304,-6.0152,561.9799],[27.2845,-6.0185,560.3491],[27.2806,-6.0162,559.1865],[27.2519,-6.0216,559.7632],[27.2285,-6.0191,558.8306],[27.2213,-6.0127,558.5256],[27.2121,-6.0082,558.1858],[27.1976,-6.0064,557.0562],[27.1843,-5.9958,556.0078],[27.1778,-5.9947,556.7036],[27.1716,-5.9913,556.6916],[27.1743,-5.9781,557.8231],[27.1712,-5.9724,561.0989],[27.173,-5.9351,583.1688],[27.184,-5.8934,579.5801],[27.1845,-5.8739,584.2435],[27.1698,-5.8573,576.9011],[27.1417,-5.841,564.2954],[27.15,-5.8331,565.0266],[27.1559,-5.8234,566.1294],[27.1525,-5.8139,582.4329],[27.1413,-5.8005,580.1613],[27.1193,-5.79,588.4001],[27.0917,-5.7823,586.5637],[27.0625,-5.7652,572.3822],[27.0486,-5.7539,582.0423],[27.0283,-5.747,572.6222],[26.9858,-5.7108,559.4419],[26.9712,-5.7023,560.8152],[26.9502,-5.7031,550.1268],[26.9435,-5.6998,547.2454],[26.9419,-5.6913,548.9443],[26.9356,-5.6842,547.6209],[26.9297,-5.6851,550.4066],[26.9331,-5.6773,548.3147],[26.9319,-5.6747,547.9117],[26.9228,-5.6763,548.735],[26.9226,-5.6699,548.8014],[26.9135,-5.6595,546.0],[26.9133,-5.6634,546.0],[26.9071,-5.6643,548.6709],[26.906,-5.6783,547.0293],[26.9021,-5.6868,547.8291],[26.9012,-5.696,548.0781],[26.9091,-5.7264,547.7862],[26.9096,-5.7358,548.2128],[26.908,-5.7485,547.9799],[26.9003,-5.7772,547.1938],[26.8971,-5.7825,548.2566],[26.8873,-5.7846,555.7603],[26.8762,-5.7846,556.3555],[26.8675,-5.7891,558.3168],[26.8451,-5.8069,560.2139],[26.8162,-5.8146,574.0502],[26.8022,-5.7988,588.2065],[26.8036,-5.783,589.2076],[26.8092,-5.7716,588.5388],[26.8105,-5.7513,585.9758],[26.8084,-5.7432,583.1437],[26.7944,-5.7165,581.8445],[26.7921,-5.7165,580.2398],[26.7876,-5.7225,576.8267],[26.7751,-5.7732,577.6199],[26.7676,-5.7914,571.7031],[26.7388,-5.8012,590.8384],[26.7187,-5.8109,589.2087],[26.6899,-5.8328,601.3323],[26.6595,-5.8502,613.1715],[26.6172,-5.8591,645.8983],[26.5736,-5.8599,735.4369],[26.5553,-5.8656,703.9482],[26.5189,-5.8526,651.4663],[26.5168,-5.8392,642.0851],[26.5194,-5.8291,637.6654],[26.5284,-5.819,616.5364],[26.5332,-5.806,612.5369],[26.5339,-5.795,604.3524],[26.5312,-5.785,597.2492],[26.4924,-5.7814,601.3763],[26.4717,-5.7849,603.7499],[26.4579,-5.7916,603.6528],[26.4483,-5.7907,621.2744],[26.4347,-5.794,609.6295],[26.4065,-5.794,608.6406],[26.3968,-5.7908,615.8496],[26.3665,-5.7913,613.306],[26.3509,-5.7948,615.8855],[26.3348,-5.7914,619.5134],[26.3229,-5.791,623.0881],[26.2988,-5.7979,631.9449],[26.2857,-5.7952,632.6758],[26.2707,-5.7947,636.6462],[26.2604,-5.7954,637.8809],[26.2471,-5.8001,643.8992],[26.2384,-5.7999,644.5671],[26.2255,-5.793,651.3431],[26.2103,-5.7921,670.3824],[26.2025,-5.7875,661.5087],[26.1919,-5.77,675.5552],[26.1843,-5.7618,682.1345],[26.1844,-5.7783,682.7585],[26.1894,-5.7969,677.0381],[26.2029,-5.815,679.2539],[26.2073,-5.8251,677.8094],[26.2082,-5.8379,696.2283],[26.2052,-5.8462,691.7529],[26.1868,-5.858,728.2144],[26.177,-5.8709,755.2166],[26.1732,-5.8997,767.0054],[26.1778,-5.9334,745.6579],[26.184,-5.9394,772.0723],[26.1927,-5.9366,782.0618],[26.197,-5.9411,790.2257],[26.2059,-5.9549,812.7222],[26.215,-5.9796,779.8853],[26.212,-5.9836,773.4181],[26.2029,-5.9889,762.7618],[26.1861,-5.9938,737.6767],[26.1824,-5.999,710.8854],[26.1826,-6.0148,730.5414],[26.186,-6.0157,726.7265],[26.2022,-6.0266,747.688],[26.2126,-6.0355,759.1866],[26.2226,-6.038,758.6394],[26.255,-6.0355,790.7406],[26.2344,-6.0675,777.2413],[26.205,-6.0696,733.7298],[26.1947,-6.076,735.946],[26.1876,-6.085,774.9954],[26.1873,-6.0975,798.423],[26.191,-6.1113,787.1393],[26.2178,-6.1478,834.7632],[26.2178,-6.1543,830.468],[26.2126,-6.168,789.8535],[26.2015,-6.194,831.572],[26.1902,-6.2134,813.5526],[26.1637,-6.232,808.0594],[26.1432,-6.2426,832.1937],[26.1335,-6.2596,849.5133],[26.1051,-6.3197,861.8336],[26.0635,-6.377,846.6316],[26.0597,-6.3862,849.037],[26.0555,-6.4101,850.0856],[26.0512,-6.4176,881.2219],[26.0241,-6.4336,844.8507],[26.0104,-6.4363,842.2823],[25.9956,-6.426,843.7324],[25.9879,-6.4238,853.1001],[25.984,-6.43,866.4594],[25.9811,-6.4442,877.1563],[25.985,-6.4565,880.5496],[25.9846,-6.4632,879.1176],[25.9756,-6.4643,865.1328],[25.9458,-6.4609,875.7404],[25.9437,-6.4659,877.5768],[25.9491,-6.5168,935.8822],[25.9479,-6.537,947.1688],[25.9419,-6.5449,939.196],[25.9303,-6.5548,959.0923],[25.9342,-6.5616,940.4376],[25.9373,-6.578,946.8141],[25.9344,-6.5901,967.0051],[25.9345,-6.6019,989.6395],[25.9521,-6.6034,944.1415],[25.9659,-6.6028,978.8041],[25.9837,-6.6064,951.8334],[25.991,-6.6137,951.4869],[25.9997,-6.6243,975.4409],[26.0106,-6.6459,937.5377],[26.0171,-6.6535,912.5836],[26.0117,-6.6828,899.5486]]]]}}