{"type": "Feature","bbox": [22.1028,-3.096,24.6943,-1.6975],"geometry": {"type": "MultiPolygon","coordinates": [[[[24.5984,-1.9808,611.1696],[24.5733,-1.9434,543.9327],[24.5325,-1.9124,484.5151],[24.5151,-1.904,481.64],[24.4894,-1.8187,490.3387],[24.444,-1.7153,563.1646],[24.4397,-1.7165,583.3199],[24.3705,-1.7145,482.5605],[24.2672,-1.7091,496.3532],[24.1959,-1.7167,426.5983],[24.1883,-1.7126,477.9803],[24.1701,-1.7126,494.4785],[24.1669,-1.7089,498.6711],[24.1616,-1.7089,490.8329],[24.1476,-1.7149,515.2623],[24.1332,-1.7142,559.9493],[24.125,-1.7061,576.4292],[24.1216,-1.7049,582.218],[24.1024,-1.7091,547.8444],[24.0962,-1.7047,553.3705],[24.091,-1.7052,524.0588],[24.0853,-1.7091,528.4928],[24.0576,-1.7047,494.9819],[24.0409,-1.7079,498.127],[24.0279,-1.7028,520.3506],[24.0197,-1.7046,517.7874],[24.0107,-1.7026,495.5664],[23.9991,-1.7032,519.9695],[23.9879,-1.6975,521.6137],[23.9677,-1.6983,464.1588],[23.9649,-1.7089,468.609],[23.9558,-1.7158,455.5717],[23.9547,-1.737,463.3326],[23.947,-1.739,477.2216],[23.9182,-1.7351,483.8004],[23.8743,-1.734,470.5461],[23.8112,-1.7356,446.1838],[23.7973,-1.7409,454.5898],[23.7773,-1.7598,426.9175],[23.7676,-1.7651,436.3773],[23.714,-1.7735,499.421],[23.7025,-1.7812,445.8518],[23.6939,-1.7907,422.3409],[23.6854,-1.8151,443.9102],[23.6781,-1.8217,425.3759],[23.6612,-1.8245,448.8339],[23.5791,-1.7941,515.9087],[23.5623,-1.7933,471.9031],[23.5592,-1.8011,479.6501],[23.5649,-1.8207,524.0203],[23.5761,-1.8391,487.395],[23.5841,-1.8644,472.7857],[23.5884,-1.8718,460.4873],[23.5925,-1.8846,530.6361],[23.5854,-1.9177,490.9432],[23.5879,-1.9249,486.5981],[23.5867,-1.9295,501.4297],[23.5876,-1.9343,507.8933],[23.586,-1.9373,519.7284],[23.5824,-1.9389,520.2651],[23.5821,-1.9635,528.7179],[23.5844,-1.9748,498.6794],[23.5835,-1.9835,487.1252],[23.5855,-1.9904,494.7645],[23.4597,-2.0302,457.7372],[23.4459,-2.0276,441.3295],[23.4353,-2.0107,483.881],[23.424,-1.9974,477.8157],[23.3275,-2.0293,438.8976],[23.303,-2.0739,440.7393],[23.2875,-2.0878,456.0924],[23.2804,-2.0808,466.9271],[23.2744,-2.0798,468.4584],[23.2669,-2.0715,476.644],[23.2555,-2.0625,462.0976],[23.2516,-2.0552,431.3199],[23.2413,-2.0437,458.2755],[23.2377,-2.0333,431.1862],[23.2295,-2.0227,418.3758],[23.2108,-1.9889,455.9063],[23.2014,-1.9792,457.4833],[23.1781,-1.9614,454.9023],[23.1468,-1.9448,410.8978],[23.1077,-1.9282,434.3258],[23.1029,-1.9243,444.3902],[23.0732,-1.915,437.3264],[23.0383,-1.9145,393.2358],[23.0291,-1.9119,427.2999],[23.0156,-1.9114,433.8142],[23.0067,-1.9073,417.2152],[22.99,-1.9063,392.5867],[22.9843,-1.9024,399.127],[22.9608,-1.8945,435.6629],[22.9485,-1.8851,446.2404],[22.9366,-1.883,405.3297],[22.9316,-1.8781,409.6827],[22.9247,-1.8772,430.9882],[22.9144,-1.8788,452.597],[22.9096,-1.8769,448.8455],[22.9025,-1.8795,420.4911],[22.8938,-1.8787,408.8138],[22.8874,-1.8826,434.3942],[22.878,-1.8817,428.6718],[22.8705,-1.8831,432.382],[22.8684,-1.8849,414.8661],[22.8428,-1.8759,416.1956],[22.8304,-1.8749,418.3013],[22.8291,-1.869,425.0425],[22.8306,-1.8665,430.1698],[22.8249,-1.8628,426.4304],[22.8117,-1.8645,397.2854],[22.8078,-1.8611,401.5435],[22.7955,-1.8575,419.2275],[22.7887,-1.8563,416.6113],[22.7801,-1.8601,428.1575],[22.7765,-1.8601,426.5587],[22.7703,-1.8567,413.7179],[22.7593,-1.8555,407.4507],[22.7518,-1.8424,401.3138],[22.7478,-1.8389,403.9785],[22.7388,-1.8336,410.286],[22.7227,-1.8287,401.4592],[22.716,-1.8211,422.2742],[22.7115,-1.8206,404.991],[22.7002,-1.8155,420.4828],[22.6936,-1.8094,393.4868],[22.6903,-1.8083,396.0505],[22.6747,-1.8094,398.5981],[22.6631,-1.8059,392.0649],[22.6551,-1.8097,382.7418],[22.6488,-1.8108,399.8784],[22.6444,-1.8162,406.2896],[22.6381,-1.8156,384.1596],[22.6297,-1.8012,418.6586],[22.6217,-1.8023,377.5173],[22.6188,-1.7856,413.6914],[22.6229,-1.779,414.2454],[22.6225,-1.7771,410.8065],[22.6185,-1.7754,417.9318],[22.6095,-1.7769,405.5212],[22.6074,-1.7695,414.5414],[22.5964,-1.7598,400.5177],[22.5928,-1.752,423.9026],[22.5896,-1.7508,422.0193],[22.5843,-1.7582,406.5094],[22.5775,-1.7614,404.5514],[22.5738,-1.7664,398.715],[22.5227,-1.8603,390.0912],[22.5061,-1.8985,414.8774],[22.498,-1.913,391.6627],[22.4927,-1.9168,429.3865],[22.4804,-1.9142,441.5757],[22.3988,-1.8822,418.0921],[22.2328,-1.8221,501.1432],[22.1954,-1.8109,484.6113],[22.1854,-1.8228,472.8837],[22.1815,-1.8322,461.3355],[22.1688,-1.8469,435.3855],[22.1591,-1.8501,467.4742],[22.152,-1.8599,402.4816],[22.1348,-1.8734,438.7495],[22.1336,-1.8773,449.8306],[22.1397,-1.8985,447.603],[22.1389,-1.9059,400.2082],[22.1513,-1.9352,421.8611],[22.151,-1.9646,394.6786],[22.1471,-1.9731,400.5519],[22.1445,-1.997,439.7024],[22.1463,-2.0046,433.587],[22.162,-2.0414,448.6882],[22.1599,-2.0669,468.7567],[22.1624,-2.0789,456.6951],[22.1772,-2.1095,437.114],[22.1812,-2.1254,442.6823],[22.1818,-2.1645,427.5716],[22.1857,-2.1769,414.5115],[22.1833,-2.1956,464.0598],[22.1929,-2.217,427.5268],[22.1866,-2.2338,421.8522],[22.188,-2.2476,447.5411],[22.1921,-2.2598,443.4381],[22.1914,-2.2683,471.2029],[22.1954,-2.2761,499.3302],[22.2026,-2.3258,454.8911],[22.2101,-2.3408,490.9526],[22.209,-2.3516,486.7988],[22.2126,-2.3716,476.5529],[22.213,-2.3875,462.0055],[22.2205,-2.3949,442.1324],[22.2242,-2.4024,468.7167],[22.2212,-2.4104,462.4669],[22.206,-2.4242,465.9857],[22.2008,-2.4277,476.7921],[22.1917,-2.4289,486.7582],[22.183,-2.433,465.3509],[22.1551,-2.4491,478.9125],[22.1486,-2.4487,476.1252],[22.1312,-2.4337,485.3806],[22.1147,-2.4505,540.8029],[22.1031,-2.4713,470.8641],[22.1028,-2.5073,559.1164],[22.1056,-2.5235,488.084],[22.1216,-2.5537,521.2446],[22.1626,-2.6063,499.2209],[22.2256,-2.6921,512.7416],[22.2279,-2.6999,518.015],[22.1751,-2.755,456.9954],[22.1747,-2.7651,447.1847],[22.1806,-2.7725,440.4338],[22.189,-2.7782,464.7954],[22.1975,-2.7928,475.885],[22.2103,-2.8029,524.9088],[22.2226,-2.8177,518.9692],[22.2347,-2.8212,482.6635],[22.2381,-2.8237,467.4406],[22.2463,-2.8362,489.3773],[22.2507,-2.8392,494.6494],[22.2642,-2.8406,546.7933],[22.2717,-2.8438,569.117],[22.2786,-2.8503,574.3346],[22.327,-2.8677,528.9892],[22.3401,-2.8689,503.8448],[22.352,-2.8804,584.1842],[22.3716,-2.8823,609.1517],[22.3797,-2.8793,543.8839],[22.2879,-2.975,487.2375],[22.2933,-2.9774,505.5156],[22.3203,-2.9831,534.5313],[22.3569,-2.9848,505.5284],[22.3792,-2.9832,505.478],[22.3985,-2.9775,504.0782],[22.4138,-2.9706,527.4304],[22.4266,-2.9846,512.8641],[22.4231,-2.9934,521.5987],[22.4235,-2.9989,495.7494],[22.4295,-3.0109,479.8076],[22.4269,-3.0263,465.0162],[22.4209,-3.0391,468.1094],[22.4117,-3.0778,468.4947],[22.4186,-3.0831,469.6197],[22.4366,-3.0875,465.9601],[22.4912,-3.0959,506.6064],[22.502,-3.096,487.8605],[22.5183,-3.0932,496.7441],[22.5292,-3.085,502.1489],[22.5911,-3.0246,455.8924],[22.6026,-3.0115,502.2209],[22.6101,-2.9877,570.0466],[22.6167,-2.9812,554.45],[22.6342,-2.9724,465.102],[22.6716,-2.9626,571.1133],[22.686,-2.9628,566.7095],[22.7082,-2.9702,503.0192],[22.7274,-2.9782,614.6409],[22.74,-2.9856,543.9337],[22.7538,-2.9863,544.7606],[22.7724,-2.9823,597.9541],[22.7855,-2.9768,617.3999],[22.7931,-2.9803,593.3098],[22.8093,-2.9833,502.1655],[22.8476,-2.9866,601.7849],[22.8643,-2.992,542.123],[22.8723,-2.9966,531.2883],[22.892,-2.9969,537.7911],[22.9052,-3.0,509.6197],[22.9496,-3.0041,560.8348],[22.9761,-3.0026,517.4234],[23.0122,-2.9977,537.7139],[23.0273,-2.9936,531.5371],[23.0352,-2.983,545.0729],[23.039,-2.962,543.0078],[23.04,-2.9183,549.6591],[23.0431,-2.9112,515.9722],[23.0693,-2.8735,570.6622],[23.0755,-2.8552,568.7179],[23.0746,-2.8193,550.5673],[23.1135,-2.8335,498.3691],[23.1255,-2.8354,563.8478],[23.1424,-2.8332,515.1725],[23.2137,-2.858,562.014],[23.2395,-2.8691,539.4618],[23.2694,-2.8844,598.1189],[23.2831,-2.9001,585.9283],[23.2927,-2.9026,551.1938],[23.3131,-2.9035,544.1509],[23.3263,-2.9072,545.0055],[23.3991,-2.9063,535.323],[23.4135,-2.9088,503.8765],[23.4422,-2.9229,520.5367],[23.462,-2.9267,524.9759],[23.4873,-2.9252,556.68],[23.5258,-2.9185,505.2059],[23.5478,-2.8199,537.9991],[23.5479,-2.8097,482.2929],[23.554,-2.7936,467.451],[23.5656,-2.777,512.521],[23.5911,-2.7467,522.2112],[23.5989,-2.7345,496.7435],[23.5939,-2.7246,521.5968],[23.5928,-2.7179,507.0952],[23.5699,-2.6921,454.4044],[23.5558,-2.6671,490.6883],[23.6033,-2.6708,456.4136],[23.6207,-2.6658,435.1375],[23.6342,-2.6651,440.0416],[23.6553,-2.6706,451.2524],[23.6729,-2.6711,458.4051],[23.6825,-2.6654,487.766],[23.6887,-2.6638,467.8149],[23.7127,-2.6668,502.91609999999997],[23.7324,-2.6802,470.2116],[23.7422,-2.6813,470.1608],[23.7486,-2.6848,473.2147],[23.755,-2.6933,482.9121],[23.7628,-2.6986,471.2338],[23.8008,-2.7141,485.9336],[23.8265,-2.7218,498.0416],[23.8925,-2.7346,558.918],[23.9067,-2.734,520.1086],[23.9141,-2.731,497.0058],[23.9356,-2.7312,524.6703],[23.9436,-2.7299,497.2542],[23.9509,-2.7257,504.3245],[23.9882,-2.6906,553.6936],[24.0182,-2.6713,569.9108],[24.0526,-2.6633,530.0624],[24.0629,-2.6577,558.6089],[24.0798,-2.6529,507.0616],[24.0956,-2.6453,520.6051],[24.1274,-2.6247,574.2661],[24.1494,-2.6065,528.6245],[24.1617,-2.5992,510.8078],[24.2075,-2.5852,570.3911],[24.2224,-2.5709,548.3091],[24.2357,-2.5665,549.459],[24.2416,-2.5613,520.1465],[24.2741,-2.5443,558.568],[24.2842,-2.536,533.3469],[24.294,-2.5312,580.3074],[24.3048,-2.519,565.3793],[24.3176,-2.5107,527.85],[24.3254,-2.501,538.3657],[24.3366,-2.4916,510.0318],[24.364,-2.4583,544.2864],[24.3935,-2.4557,519.4717],[24.4706,-2.4398,490.174],[24.6515,-2.3843,489.8172],[24.6943,-2.3625,492.7051],[24.6896,-2.3225,514.064],[24.6811,-2.1896,551.0165],[24.6636,-2.1395,573.0983],[24.6216,-2.0911,631.7551],[24.6087,-2.0647,577.7173],[24.5984,-1.9808,611.1696]]]]}
,"properties": {"GID_2": "COD.21.6_1","GID_0": "COD","country": "DemocraticRepublicoftheCongo","GID_1": "COD.21_1","province": "Sankuru","NL_NAME_1": "NA","county": "Lomela","VARNAME_2": "NA","NL_NAME_2": "NA","TYPE_2": "Territoire","ENGTYPE_2": "Territory","CC_2": "NA","HASC_2": "NA","name": "Lomela.county","area_km2": 28813.55,"hist_schema_id": "Elevation0-9000","hist_area_km2": {"350": 11.08,"375": 257.44,"400": 1214.39,"425": 2853.47,"450": 4670.97,"475": 5799.5,"500": 5366.8,"525": 4042.34,"550": 2487.73,"575": 1313.68,"600": 578.91,"625": 186.42,"650": 24.18,"675": 5.89,"700": 0.57}}}