{"type": "Feature","bbox": [26.2665,-10.1496,27.9908,-8.0762],"geometry": {"type": "MultiPolygon","coordinates": [[[[27.7589,-9.7581,1707.7705],[27.7177,-9.6657,1714.0677],[27.7053,-9.6501,1715.7181],[27.7219,-9.6017,1698.4741],[27.7218,-9.5624,1683.5667],[27.7274,-9.5101,1684.1804],[27.756,-9.4677,1683.301],[27.755,-9.441,1701.6875],[27.7497,-9.4337,1700.9922],[27.7488,-9.423,1681.2823],[27.7554,-9.4109,1684.6565],[27.7664,-9.4047,1677.0527],[27.7845,-9.3869,1675.3826],[27.7878,-9.3762,1680.4548],[27.7849,-9.3374,1719.052],[27.8006,-9.3244,1730.39],[27.802,-9.3109,1725.39],[27.7934,-9.3054,1768.4373],[27.782,-9.3015,1745.8148],[27.7686,-9.2858,1711.3889],[27.7623,-9.2698,1749.382],[27.7509,-9.2677,1746.3557],[27.737,-9.2623,1733.2339],[27.7117,-9.2383,1721.976],[27.6997,-9.2352,1715.9327],[27.6887,-9.2225,1750.6595],[27.6843,-9.2116,1741.2181],[27.6815,-9.1977,1754.6647],[27.6758,-9.1875,1763.6],[27.6467,-9.1712,1696.8892],[27.6376,-9.1556,1709.2957],[27.6508,-9.1081,1561.3159],[27.6713,-9.0772,1543.8555],[27.698,-9.0512,1540.5139],[27.7528,-9.0293,1569.2524],[27.7829,-9.0034,1380.4846],[27.7947,-8.9709,1351.9441],[27.7947,-8.9413,1273.1718],[27.7903,-8.9048,1213.327],[27.7745,-8.8784,1184.6429],[27.7592,-8.8691,1179.1846],[27.7416,-8.867,1194.3469],[27.6843,-8.8714,1247.0298],[27.655,-8.8662,1252.2839],[27.6298,-8.8519,1282.6544],[27.6131,-8.8367,1335.278],[27.6154,-8.794,1373.9644],[27.633,-8.7698,1415.3744],[27.6492,-8.7398,1477.7687],[27.6602,-8.7302,1499.3387],[27.674,-8.7216,1475.3899],[27.6826,-8.7182,1440.8171],[27.6795,-8.6885,1466.8873],[27.6757,-8.681,1461.5238],[27.667,-8.6724,1463.76],[27.6631,-8.6619,1449.4832],[27.6543,-8.6517,1443.3513],[27.6466,-8.6343,1467.6937],[27.6452,-8.6163,1480.8632],[27.6471,-8.6086,1498.9841],[27.6542,-8.6023,1501.6018],[27.6681,-8.5956,1533.4863],[27.6771,-8.5864,1531.8103],[27.6795,-8.5801,1529.8661],[27.6842,-8.5739,1507.6152],[27.7095,-8.5648,1524.5183],[27.72,-8.5533,1514.1665],[27.7281,-8.5373,1469.3033],[27.7352,-8.5325,1488.4922],[27.7467,-8.5326,1495.6598],[27.7882,-8.5198,1469.1635],[27.7924,-8.4916,1448.7184],[27.7972,-8.4853,1431.6459],[27.8153,-8.4777,1427.9628],[27.8244,-8.4671,1432.7329],[27.8315,-8.4521,1400.9608],[27.848,-8.4415,1430.3583],[27.8758,-8.435,1333.1046],[27.9149,-8.4175,1197.692],[27.9209,-8.4098,1179.1248],[27.9329,-8.4068,1131.3929],[27.9617,-8.3934,1105.1453],[27.9697,-8.3916,1096.468],[27.9688,-8.3891,1082.9017],[27.9708,-8.3852,1075.5038],[27.9791,-8.377,1080.3312],[27.9833,-8.3689,1062.575],[27.9843,-8.361,1046.7002],[27.9859,-8.3475,1034.6868],[27.9814,-8.3264,1006.6841],[27.9773,-8.3164,997.6484],[27.9858,-8.3038,959.3561],[27.9895,-8.2918,942.6945],[27.9887,-8.2863,939.2062],[27.9908,-8.2787,925.3163],[27.9855,-8.2687,920.8019],[27.986,-8.2584,897.6996],[27.9837,-8.2432,887.4958],[27.9881,-8.234,881.1641],[27.9859,-8.2286,884.0706],[27.981,-8.228,905.4801],[27.9719,-8.2419,972.1606],[27.9718,-8.2565,1007.7404],[27.9682,-8.2644,1045.0461],[27.9603,-8.2723,985.9614],[27.9107,-8.2626,1088.7842],[27.9047,-8.2602,1189.585],[27.9005,-8.2541,1268.0035],[27.8981,-8.2457,1137.422],[27.8903,-8.242,1077.5679],[27.889,-8.2469,1061.6823],[27.8745,-8.2511,1040.6379],[27.8515,-8.2445,1160.4878],[27.8339,-8.2463,1081.7913],[27.8325,-8.2335,1043.3591],[27.837,-8.2277,1031.3168],[27.8403,-8.2065,1004.8105],[27.840699999999998,-8.1812,953.9167],[27.8272,-8.1851,960.4995],[27.8187,-8.1977,1003.8068],[27.8073,-8.2062,1032.5781],[27.802,-8.2173,1081.5928],[27.79,-8.2285,1123.8605],[27.7846,-8.2362,1174.2997],[27.7766,-8.2639,1348.5753],[27.7737,-8.2695,1351.3599],[27.7637,-8.2792,1345.0354],[27.7516,-8.287,1416.9453],[27.7437,-8.2816,1433.2939],[27.7609,-8.241,1316.2281],[27.7579,-8.2337,1327.301],[27.7476,-8.2349,1346.5939],[27.7354,-8.2459,1363.6938],[27.7215,-8.2483,1415.3488],[27.7307,-8.2325,1375.9983],[27.752,-8.2083,1321.3257],[27.7932,-8.1755,1176.6169],[27.8193,-8.1615,1061.2786],[27.8375,-8.1445,1156.9597],[27.8222,-8.1514,1216.6139],[27.8073,-8.1515,1295.9197],[27.7891,-8.1545,1404.041],[27.7631,-8.1603,1373.7582],[27.7363,-8.1695,1379.0103],[27.6989,-8.1996,1376.1892],[27.6964,-8.1906,1373.624],[27.6969,-8.1797,1408.23],[27.7026,-8.1535,1497.884],[27.6992,-8.1497,1478.2039],[27.6819,-8.1574,1521.5652],[27.6747,-8.1484,1484.8046],[27.6814,-8.1369,1521.6803],[27.6819,-8.1302,1465.7495],[27.6732,-8.1174,1374.8447],[27.6582,-8.1051,1402.3579],[27.6501,-8.1014,1414.2157],[27.6443,-8.0957,1443.6744],[27.6413,-8.0767,1429.6897],[27.6351,-8.0762,1404.9391],[27.6183,-8.0806,1393.77],[27.6072,-8.0802,1355.1711],[27.5909,-8.0879,1317.4391],[27.5597,-8.0818,1266.115],[27.5333,-8.1,1264.0002],[27.5141,-8.1073,1296.7535],[27.5059,-8.1064,1248.8948],[27.5016,-8.0992,1246.1394],[27.4841,-8.1094,1141.7042],[27.4751,-8.1256,1072.2736],[27.4658,-8.1342,1062.113],[27.4555,-8.1369,1030.0591],[27.4318,-8.1486,1021.2861],[27.4223,-8.1499,977.1289],[27.3896,-8.1734,942.7917],[27.3781,-8.1782,857.4403],[27.366,-8.186,839.0378],[27.3416,-8.1862,813.0364],[27.3377,-8.1837,818.0077],[27.332,-8.1753,800.8049],[27.3255,-8.1724,822.9556],[27.3174,-8.1735,781.1503],[27.3106,-8.1679,775.8579],[27.3065,-8.167,775.7458],[27.2985,-8.1692,778.562],[27.2903,-8.1783,769.0428],[27.2851,-8.1818,770.4801],[27.2823,-8.1826,764.011],[27.2784,-8.1799,761.8673],[27.2652,-8.1907,754.2206],[27.2659,-8.195,758.562],[27.2641,-8.1976,763.2264],[27.2511,-8.2042,751.8614],[27.2263,-8.2072,749.0714],[27.2151,-8.2277,1101.8046],[27.195,-8.2521,1078.9978],[27.1741,-8.2714,675.6585],[27.1642,-8.2856,675.5826],[27.1663,-8.2908,687.8787],[27.1562,-8.307,722.007],[27.0562,-8.4383,1422.8228],[27.0155,-8.487,1354.9093],[27.0055,-8.5165,1502.2991],[27.0065,-8.5329,1161.5615],[27.012,-8.5379,1214.9614],[27.0502,-8.5475,1618.5599],[27.0718,-8.5414,1629.79],[27.0817,-8.5487,1651.1014],[27.0856,-8.5551,1667.4143],[27.0851,-8.5606,1680.5868],[27.0717,-8.5673,1638.5031],[27.0681,-8.5728,1617.874],[27.0525,-8.5822,1543.1638],[27.0389,-8.6091,1530.9738],[27.0322,-8.6126,1530.8723],[27.0063,-8.6387,1518.2822],[26.9763,-8.6654,1515.7939],[26.9678,-8.6699,1514.2722],[26.9583,-8.6818,1498.0001],[26.957,-8.6861,1496.0535],[26.9581,-8.6972,1511.1555],[26.9561,-8.7029,1522.2457],[26.942,-8.7155,1507.8528],[26.9231,-8.7211,1491.2737],[26.9066,-8.7384,1466.6414],[26.8946,-8.7445,1468.5363],[26.8863,-8.7541,1467.0773],[26.875,-8.7584,1459.707],[26.8634,-8.77,1477.8258],[26.8561,-8.7736,1458.5181],[26.8497,-8.7813,1463.9441],[26.8426,-8.7812,1463.6708],[26.8342,-8.7751,1473.203],[26.8317,-8.7662,1374.2207],[26.8275,-8.7653,1389.168],[26.8261,-8.7626,1409.9899],[26.8244,-8.7417,908.7326],[26.8264,-8.7336,825.5884],[26.8304,-8.729,877.262],[26.8283,-8.7242,796.4041],[26.8359,-8.7094,779.922],[26.8353,-8.6967,750.7695],[26.8308,-8.6913,736.2581],[26.8307,-8.6862,721.807],[26.823,-8.6827,709.7089],[26.818,-8.671,686.3078],[26.8109,-8.6714,685.2139],[26.7969,-8.6619,636.7144],[26.7923,-8.6645,633.8992],[26.786,-8.6632,647.9035],[26.7779,-8.6599,624.7903],[26.7765,-8.6553,614.3184],[26.7732,-8.654,620.8184],[26.7604,-8.6655,620.3036],[26.7531,-8.6695,587.4772],[26.7606,-8.674,597.7668],[26.7646,-8.6806,614.6122],[26.7704,-8.6825,595.3818],[26.7604,-8.691,599.4644],[26.7574,-8.6908,615.8488],[26.7553,-8.6887,604.9521],[26.7512,-8.6775,598.3134],[26.7321,-8.6714,597.3853],[26.7306,-8.6799,607.3072],[26.7275,-8.6839,615.4192],[26.7192,-8.6872,599.9432],[26.716,-8.6902,609.8006],[26.7143,-8.6951,608.1328],[26.7187,-8.7129,598.7065],[26.7225,-8.72,607.256],[26.721,-8.7274,622.1842],[26.7216,-8.7365,634.1592],[26.715,-8.7428,610.8302],[26.7199,-8.7467,609.7795],[26.7197,-8.7527,617.7042],[26.7179,-8.7531,607.6551],[26.7111,-8.7627,613.5942],[26.7155,-8.7768,610.7476],[26.7136,-8.7918,623.7393],[26.7289,-8.8097,625.259],[26.7306,-8.815,650.0441],[26.7293,-8.8235,643.8181],[26.7325,-8.8329,668.6731],[26.7318,-8.8372,660.6846],[26.7209,-8.8445,646.8759],[26.7068,-8.8599,623.3621],[26.6916,-8.8665,631.2867],[26.6801,-8.8991,640.9536],[26.6774,-8.952,654.7175],[26.6732,-8.9647,655.9225],[26.6772,-8.9715,646.2408],[26.6788,-8.9841,643.4249],[26.6775,-8.9931,659.725],[26.6748,-8.9957,659.0314],[26.6734,-9.007,682.9494],[26.6709,-9.0104,664.9255],[26.6601,-9.0145,785.6547],[26.6534,-9.0201,799.2671],[26.6469,-9.0305,835.644],[26.6414,-9.0318,922.5309],[26.6327,-9.0395,916.1547],[26.6295,-9.0455,942.115],[26.625,-9.0492,968.4552],[26.6226,-9.058,1027.8936],[26.6162,-9.0641,999.9839],[26.6104,-9.0639,979.6185],[26.6077,-9.0704,1028.1],[26.6029,-9.0702,942.8257],[26.5973,-9.0678,895.4714],[26.589,-9.0684,952.8771],[26.5856,-9.0748,944.4653],[26.5728,-9.0858,911.5385],[26.5675,-9.0857,937.7526],[26.562,-9.089,933.0906],[26.5474,-9.1069,945.2486],[26.5482,-9.1135,986.5809],[26.5447,-9.1234,965.8913],[26.5401,-9.1258,1019.3375],[26.5362,-9.1339,1025.0895],[26.5269,-9.1405,960.1044],[26.5254,-9.1481,962.9035],[26.5129,-9.1519,950.3956],[26.5011,-9.1521,937.4001],[26.4979,-9.1563,935.174],[26.4954,-9.174,962.8533],[26.4932,-9.1775,973.3701],[26.4826,-9.184,953.4969],[26.4823,-9.1932,978.564],[26.4787,-9.202,972.6721],[26.4734,-9.2053,966.197],[26.4692,-9.2155,999.7938],[26.4646,-9.2174,983.3537],[26.4663,-9.2224,988.0286],[26.4707,-9.2274,1010.4669],[26.4758,-9.2285,1011.1081],[26.4777,-9.2308,1025.1631],[26.4695,-9.2359,1012.6447],[26.4771,-9.2397,1043.8164],[26.4827,-9.2406,1051.1992],[26.4851,-9.2447,1049.1968],[26.4883,-9.2453,1055.7322],[26.4933,-9.2524,1137.8896],[26.4941,-9.2583,1123.4065],[26.498,-9.2597,1094.1163],[26.4995,-9.2638,1110.1267],[26.5022,-9.264,1141.14],[26.5013,-9.2789,1213.2893],[26.4963,-9.2845,1132.834],[26.4987,-9.2951,1287.6202],[26.4903,-9.3225,1218.9492],[26.484,-9.3288,1203.4073],[26.4852,-9.3329,1225.0402],[26.4784,-9.3459,1275.6593],[26.4774,-9.354,1306.1527],[26.4744,-9.3561,1289.9927],[26.4731,-9.3646,1329.3672],[26.4683,-9.3679,1294.8171],[26.4651,-9.3732,1379.9258],[26.4655,-9.3861,1438.8513],[26.4733,-9.3954,1458.118],[26.4774,-9.4043,1468.3778],[26.4823,-9.4263,1526.8109],[26.476,-9.436,1510.6685],[26.48,-9.4406,1540.5824],[26.4695,-9.4529,1531.2253],[26.4623,-9.4537,1538.2943],[26.4585,-9.4632,1561.1658],[26.4519,-9.4724,1558.1138],[26.4473,-9.4858,1571.6339],[26.437,-9.4945,1562.1641],[26.4319,-9.4964,1563.8876],[26.4275,-9.5003,1565.7064],[26.423,-9.5089,1561.8093],[26.4063,-9.522,1566.7036],[26.4006,-9.5306,1596.0261],[26.3956,-9.5346,1592.6733],[26.3852,-9.551,1601.6842],[26.3703,-9.5641,1624.4579],[26.3666,-9.5653,1620.8372],[26.3362,-9.5931,1615.9709],[26.323,-9.6146,1613.9015],[26.3215,-9.6192,1615.3579],[26.3283,-9.6267,1629.095],[26.3326,-9.6412,1640.681],[26.3428,-9.6431,1640.9481],[26.3527,-9.6483,1645.4271],[26.3523,-9.6545,1654.6083],[26.335,-9.6715,1661.1488],[26.3308,-9.6794,1657.8979],[26.3301,-9.6911,1588.1152],[26.3392,-9.7091,1401.8572],[26.3402,-9.7179,1407.0928],[26.3384,-9.7208,1407.441],[26.3212,-9.7342,1627.6849],[26.289,-9.7686,1598.9806],[26.2857,-9.7803,1601.7102],[26.2852,-9.793,1626.4805],[26.2671,-9.8221,1510.1299],[26.2665,-9.842,1483.9358],[26.2691,-9.8499,1414.8951],[26.2699,-9.8668,1569.6609],[26.2756,-9.8779,1458.011],[26.2827,-9.8841,1400.4176],[26.299,-9.8844,1291.4915],[26.3035,-9.8801,1284.9333],[26.3103,-9.8602,1315.8616],[26.3168,-9.8569,1314.4075],[26.3417,-9.8565,1263.7717],[26.3602,-9.8542,1215.973],[26.3667,-9.8623,1200.0676],[26.3789,-9.8691,1198.2524],[26.3895,-9.8693,1216.8387],[26.4004,-9.8715,1132.496],[26.404,-9.874,1120.3435],[26.412,-9.8857,1107.2115],[26.4228,-9.8966,1117.9883],[26.4301,-9.8982,1105.8464],[26.4432,-9.8983,1093.5394],[26.4672,-9.8917,1064.4763],[26.4792,-9.8907,1053.1758],[26.4941,-9.8956,1049.322],[26.5141,-9.9053,1048.4359],[26.5325,-9.9072,1043.6636],[26.5462,-9.9065,1033.5002],[26.5588,-9.912,1026.2617],[26.5837,-9.9126,1013.2284],[26.5891,-9.9172,1011.0372],[26.5993,-9.9214,1006.8832],[26.6191,-9.9207,999.3622],[26.6472,-9.9112,989.4044],[26.7734,-9.9131,949.9443],[26.7798,-9.919,943.7886],[26.7823,-9.9362,945.0828],[26.7818,-9.9793,935.3041],[26.7724,-9.9898,942.3843],[26.7471,-10.0055,939.8975],[26.7557,-10.0088,944.2739],[26.7636,-10.0066,934.6547],[26.771,-10.0114,930.5066],[26.7751,-10.0173,923.1634],[26.7839,-10.0183,921.52],[26.79,-10.0237,915.2264],[26.7958,-10.0239,921.8122],[26.8025,-10.0206,922.1575],[26.8102,-10.0211,922.1235],[26.8148,-10.0195,914.6464],[26.8219,-10.0129,919.2646],[26.8311,-10.0116,923.9013],[26.8343,-10.009,921.4708],[26.8359,-10.0035,917.0771],[26.8361,-9.9872,913.958],[26.8391,-9.9851,913.2655],[26.8486,-9.9833,914.7726],[26.8552,-9.9779,910.1662],[26.8603,-9.9772,906.3182],[26.8678,-9.9798,908.5767],[26.8704,-9.9848,908.1003],[26.873,-9.9852,910.2317],[26.8789,-9.9789,907.7556],[26.8821,-9.9784,905.5665],[26.8839,-9.9855,909.1088],[26.8862,-9.9862,913.2667],[26.8887,-9.9811,909.4396],[26.8843,-9.9664,905.6211],[26.8861,-9.9621,905.9285],[26.8924,-9.967,907.062],[26.8954,-9.9649,906.7135],[26.9007,-9.965,904.6823],[26.9081,-9.9771,907.6761],[26.9088,-9.9642,901.2445],[26.9137,-9.9642,903.5909],[26.9228,-9.9686,902.2412],[26.9306,-9.9752,899.8172],[26.933,-9.965,901.1859],[26.9395,-9.9672,897.9324],[26.9413,-9.9647,898.6531],[26.9412,-9.9598,898.5419],[26.9433,-9.9596,899.3302],[26.9492,-9.954,897.4054],[26.9527,-9.9541,897.0659],[26.9563,-9.9584,895.9949],[26.9593,-9.9582,897.3839],[26.9633,-9.9505,896.3967],[26.9654,-9.9493,896.1721],[26.9715,-9.9552,895.2013],[26.9843,-9.9555,894.6563],[26.9826,-9.9509,892.2516],[26.987,-9.9483,893.4209],[26.988,-9.9409,892.9003],[26.9901,-9.9386,891.163],[27.0064,-9.9434,889.4985],[27.0084,-9.9406,891.3578],[27.0074,-9.9351,889.9907],[27.0164,-9.9191,889.3934],[27.0236,-9.9215,890.1345],[27.0263,-9.9153,889.303],[27.0339,-9.9218,888.2109],[27.0455,-9.9135,891.6209],[27.0591,-9.9132,890.4065],[27.0697,-9.916,890.5583],[27.075,-9.9217,889.4405],[27.0732,-9.9303,890.0408],[27.0657,-9.9424,891.6547],[27.0633,-9.9497,894.4707],[27.0644,-9.9688,900.3711],[27.0676,-9.9754,899.0886],[27.0761,-9.985,893.9205],[27.085,-9.9913,896.6135],[27.0985,-10.0249,897.9312],[27.0994,-10.0335,899.8566],[27.0763,-10.0685,897.7338],[27.0484,-10.0982,909.9352],[27.0932,-10.0915,893.2761],[27.1943,-10.0652,886.0764],[27.2287,-10.0636,876.1494],[27.2564,-10.0503,875.5],[27.2926,-10.0051,875.7579],[27.3078,-9.9965,876.6429],[27.3374,-9.989,875.8284],[27.3687,-9.9964,886.4539],[27.4118,-9.9848,905.0267],[27.4481,-9.987,922.2411],[27.4641,-9.9828,937.6752],[27.4689,-9.977,947.322],[27.4791,-9.9733,1161.2085],[27.488,-9.9767,1267.984],[27.5004,-9.9872,1305.5011],[27.5116,-9.9912,1329.8628],[27.5364,-9.9926,1348.9684],[27.5484,-9.9913,1407.4584],[27.5562,-9.9933,1418.6116],[27.567,-10.0101,1411.8729],[27.5725,-10.0247,1345.8982],[27.5642,-10.0415,1420.2731],[27.554,-10.0531,1387.5862],[27.554,-10.0734,1393.8853],[27.5309,-10.0962,1425.6506],[27.5276,-10.102,1442.2524],[27.5338,-10.1127,1431.0715],[27.5615,-10.1318,1411.0054],[27.5978,-10.1496,1497.3219],[27.644,-10.104,1621.5294],[27.6607,-10.0997,1597.7699],[27.6793,-10.0975,1648.6366],[27.719,-10.0983,1683.9087],[27.7295,-10.0979,1696.172],[27.7333,-10.0955,1698.6271],[27.7413,-10.0477,1701.5852],[27.7602,-10.0195,1712.9625],[27.7622,-9.9936,1705.7944],[27.786,-9.9434,1694.7224],[27.8078,-9.8903,1709.9351],[27.8068,-9.8225,1701.2604],[27.7952,-9.7979,1704.1456],[27.7589,-9.7581,1707.7705]]]]}
,"properties": {"GID_2": "COD.3.7_1","GID_0": "COD","country": "DemocraticRepublicoftheCongo","GID_1": "COD.3_1","province": "Haut-Katanga","NL_NAME_1": "NA","county": "Mitwaba","VARNAME_2": "NA","NL_NAME_2": "NA","TYPE_2": "Territoire","ENGTYPE_2": "Territory","CC_2": "NA","HASC_2": "NA","name": "Mitwaba.county","area_km2": 24396.43,"hist_schema_id": "Elevation0-9000","hist_area_km2": {"600": 7.0,"625": 25.29,"650": 47.81,"675": 85.26,"700": 104.77,"725": 87.59,"750": 77.54,"775": 80.47,"800": 78.74,"825": 99.05,"850": 100.52,"875": 1642.42,"900": 1512.09,"925": 1212.6,"950": 907.08,"975": 718.74,"1000": 550.36,"1025": 589.26,"1050": 606.66,"1075": 596.99,"1100": 521.19,"1125": 451.79,"1150": 401.14,"1175": 410.93,"1200": 386.06,"1225": 391.5,"1250": 397.14,"1275": 441.17,"1300": 494.99,"1325": 545.26,"1350": 544.56,"1375": 594.83,"1400": 644.98,"1425": 709.78,"1450": 767.24,"1475": 822.0,"1500": 848.85,"1525": 804.34,"1550": 701.06,"1575": 616.83,"1600": 557.93,"1625": 573.19,"1650": 530.32,"1675": 493.89,"1700": 521.08,"1725": 289.35,"1750": 231.61,"1775": 226.44,"1800": 168.49,"1825": 94.35,"1850": 52.18,"1875": 22.21,"1900": 9.43}}}