{"type": "Feature","bbox": [16.2402,-5.9738,17.8257,-4.2331],"geometry": {"type": "MultiPolygon","coordinates": [[[[16.2571,-4.97,586.0255],[16.2681,-4.9806,621.1871],[16.2693,-4.9868,609.4214],[16.2679,-4.9928,592.59],[16.2578,-5.0032,623.7544],[16.256,-5.0097,625.1147],[16.2586,-5.0179,580.2986],[16.2577,-5.0212,583.0685],[16.2687,-5.028,636.5826],[16.2798,-5.0388,636.869],[16.2796,-5.0416,637.0845],[16.2861,-5.0574,663.6784],[16.2925,-5.0546,714.981],[16.2948,-5.059,681.4642],[16.2955,-5.067,630.0099],[16.2992,-5.0714,697.0337],[16.2981,-5.0753,677.1426],[16.2997,-5.0813,658.3716],[16.2968,-5.0992,605.7529],[16.2991,-5.1075,606.4198],[16.2962,-5.1211,606.6771],[16.2981,-5.1262,608.4146],[16.2962,-5.1305,607.3707],[16.2995,-5.1395,615.8045],[16.3345,-5.1006,722.083],[16.3895,-5.0343,773.8328],[16.3919,-5.0281,777.0539],[16.395,-5.0073,776.0165],[16.4031,-4.9925,753.7601],[16.4173,-4.9808,717.4125],[16.4248,-4.9588,771.019],[16.4357,-4.9374,759.7607],[16.439,-4.9213,745.129],[16.4399,-4.9072,740.8015],[16.4445,-4.8973,733.3539],[16.4877,-4.8981,522.205],[16.5059,-4.8867,428.2863],[16.5125,-4.8868,405.5836],[16.5218,-4.8917,370.7805],[16.5332,-4.8931,396.1295],[16.5425,-4.9167,493.1463],[16.5449,-4.9287,617.246],[16.5434,-4.9462,360.4245],[16.5445,-4.9494,367.9695],[16.5519,-4.9551,423.7895],[16.5535,-4.96,491.9196],[16.5403,-4.9945,356.875],[16.533,-5.0015,570.3888],[16.5262,-5.0054,572.5089],[16.5237,-5.0229,426.6348],[16.5283,-5.0321,360.2961],[16.5288,-5.0381,436.1102],[16.5272,-5.0427,528.4778],[16.5181,-5.0508,376.4871],[16.5188,-5.0609,410.5811],[16.5108,-5.0719,407.7344],[16.5125,-5.0768,386.8947],[16.5121,-5.0881,370.9439],[16.5142,-5.0931,361.0],[16.514,-5.1009,361.375],[16.5124,-5.1053,362.8582],[16.5082,-5.1076,479.713],[16.5035,-5.1159,448.8307],[16.5081,-5.1279,391.5258],[16.5071,-5.1619,404.0932],[16.4998,-5.1732,413.717],[16.4971,-5.1905,488.7203],[16.4981,-5.2123,424.4032],[16.5009,-5.2179,402.8766],[16.5019,-5.2434,624.1053],[16.5077,-5.2477,437.5475],[16.508,-5.2576,403.2617],[16.5064,-5.265,480.3199],[16.5088,-5.2855,463.512],[16.5145,-5.2912,444.035],[16.521,-5.2948,470.095],[16.5219,-5.2992,399.0944],[16.5167,-5.3112,403.5756],[16.5209,-5.3225,649.316],[16.5251,-5.3438,451.2193],[16.5376,-5.3551,497.131],[16.5396,-5.3608,498.7656],[16.5438,-5.3649,594.6943],[16.5443,-5.3702,571.0845],[16.5406,-5.3767,592.8036],[16.5418,-5.3822,677.9742],[16.5493,-5.3935,485.8133],[16.5571,-5.4129,490.0907],[16.5574,-5.4254,455.5187],[16.5617,-5.4387,489.1806],[16.5605,-5.4437,474.7147],[16.5575,-5.447,467.1738],[16.5564,-5.4583,428.6774],[16.559,-5.4672,471.8028],[16.5588,-5.4792,509.2944],[16.5641,-5.4828,482.101],[16.5671,-5.495,470.3875],[16.5646,-5.5029,385.8626],[16.5605,-5.5086,414.4541],[16.5574,-5.5335,444.1514],[16.5572,-5.548,374.5],[16.5669,-5.553,374.5],[16.572,-5.5532,380.716],[16.5777,-5.5559,460.8112],[16.5858,-5.5564,622.4246],[16.5903,-5.5522,542.1497],[16.5982,-5.5572,494.8969],[16.6046,-5.5554,522.1068],[16.6071,-5.5524,497.5887],[16.6305,-5.5502,577.5481],[16.6363,-5.5633,611.9579],[16.6395,-5.5637,649.3019],[16.6465,-5.5708,523.7787],[16.6515,-5.571,516.7047],[16.6559,-5.5685,519.7284],[16.6611,-5.5692,536.789],[16.6637,-5.5733,612.0988],[16.6713,-5.5751,717.5217],[16.6843,-5.5994,705.1096],[16.6877,-5.6024,761.4273],[16.6974,-5.6051,757.7928],[16.7001,-5.6076,783.314],[16.7039,-5.6161,799.0151],[16.7089,-5.6219,780.0059],[16.7101,-5.6283,777.7885],[16.7173,-5.6329,785.5868],[16.7226,-5.6397,790.9191],[16.732,-5.6455,766.6888],[16.7366,-5.6441,786.7431],[16.7405,-5.6459,768.793],[16.7421,-5.6486,811.155],[16.7431,-5.6675,791.9755],[16.7636,-5.6765,803.1382],[16.785,-5.6934,892.2622],[16.8006,-5.702,868.6025],[16.8055,-5.7023,890.7083],[16.8287,-5.687,797.6872],[16.8493,-5.6786,783.9601],[16.8688,-5.6678,710.3199],[16.8723,-5.6747,685.5887],[16.8705,-5.6803,703.8992],[16.8746,-5.6878,697.9467],[16.8735,-5.6922,705.7625],[16.8754,-5.7026,712.8187],[16.8878,-5.7154,708.2026],[16.8915,-5.7161,706.2136],[16.8989,-5.7215,707.8481],[16.904,-5.7227,709.0148],[16.9072,-5.7268,700.0433],[16.9118,-5.7268,704.9481],[16.9217,-5.7322,701.3472],[16.9298,-5.7437,702.7308],[16.9291,-5.7469,696.3191],[16.9257,-5.749,707.9146],[16.9264,-5.7513,711.4103],[16.9312,-5.7545,701.3184],[16.9336,-5.7761,705.2986],[16.9369,-5.7791,710.361],[16.9376,-5.7881,713.8217],[16.9432,-5.7986,733.5795],[16.9364,-5.8223,719.85],[16.9546,-5.8231,722.7251],[16.9594,-5.82,794.5165],[16.9632,-5.8111,778.2584],[16.9628,-5.77,828.8481],[16.9684,-5.7387,759.3426],[16.9657,-5.7176,738.8892],[16.9675,-5.6964,707.1825],[16.9656,-5.6888,744.4959],[16.9699,-5.6748,690.2925],[16.9703,-5.6573,692.8068],[16.9723,-5.6448,691.1852],[16.9825,-5.6335,749.0546],[16.9896,-5.6337,613.2637],[16.9913,-5.6429,733.9662],[16.9916,-5.6844,786.3052],[16.9961,-5.7105,754.6263],[17.0048,-5.7389,757.1234],[17.0055,-5.7527,787.6632],[17.0031,-5.7874,837.9257],[16.9971,-5.8268,900.264],[16.9943,-5.8652,863.3606],[16.9924,-5.8713,839.7393],[16.9906,-5.8905,782.2299],[16.9913,-5.903,836.8424],[16.9961,-5.9047,856.3254],[17.0232,-5.9041,785.0943],[17.0395,-5.902,818.397],[17.0435,-5.8986,824.9231],[17.0453,-5.8927,627.6258],[17.0469,-5.8655,648.1922],[17.0467,-5.8419,823.1383],[17.0496,-5.831,775.9695],[17.0635,-5.8225,786.9572],[17.0715,-5.8201,798.6702],[17.1001,-5.7802,482.9166],[17.1048,-5.7779,510.8835],[17.1153,-5.7783,496.0186],[17.1201,-5.7802,572.2169],[17.1248,-5.7956,462.6413],[17.1362,-5.8053,460.6348],[17.1364,-5.8145,483.181],[17.1401,-5.821,528.9182],[17.14,-5.8284,495.6799],[17.1322,-5.8305,481.7309],[17.1299,-5.8345,465.6695],[17.1313,-5.8429,461.364],[17.1364,-5.8492,436.9355],[17.137,-5.8634,453.0198],[17.1327,-5.8714,455.8923],[17.1339,-5.8758,457.8912],[17.1392,-5.8792,448.1106],[17.1402,-5.8932,465.7156],[17.1449,-5.8945,469.9219],[17.1532,-5.9046,513.4337],[17.1803,-5.9264,786.1566],[17.1846,-5.9291,634.6931],[17.1927,-5.9301,622.2487],[17.2218,-5.9252,849.8665],[17.2353,-5.9255,761.3988],[17.2484,-5.9367,793.7408],[17.2572,-5.9485,783.4237],[17.2722,-5.9638,792.692],[17.2825,-5.9713,790.6539],[17.2888,-5.9738,797.0404],[17.298,-5.9713,858.9478],[17.3353,-5.9534,739.8672],[17.3506,-5.9503,774.4205],[17.3508,-5.9462,802.7778],[17.3455,-5.9354,783.9538],[17.3463,-5.9234,778.1201],[17.3426,-5.9218,738.8535],[17.3371,-5.9133,780.1817],[17.3366,-5.9097,777.7323],[17.3398,-5.9073,788.9955],[17.3368,-5.9046,740.4471],[17.3358,-5.8906,777.4286],[17.3314,-5.8899,726.9286],[17.3243,-5.8863,713.5201],[17.3195,-5.8812,766.6517],[17.3158,-5.8808,724.0599],[17.3086,-5.8696,694.8925],[17.3134,-5.8642,754.6653],[17.3079,-5.8608,694.6129],[17.3092,-5.8581,675.4156],[17.305,-5.8512,699.1779],[17.3014,-5.8505,691.3426],[17.3018,-5.8475,697.3819],[17.296,-5.837,648.9946],[17.2948,-5.8312,697.4048],[17.2891,-5.825,658.1937],[17.2831,-5.8232,643.492],[17.278,-5.8131,670.8955],[17.2782,-5.8065,673.8924],[17.2815,-5.7959,646.1135],[17.2905,-5.7917,745.4559],[17.3152,-5.7917,734.6414],[17.3398,-5.7872,737.5757],[17.3534,-5.7815,785.0956],[17.3556,-5.7782,767.2881],[17.3562,-5.7733,778.3821],[17.3482,-5.7578,787.8629],[17.3384,-5.7443,761.4863],[17.3391,-5.7376,752.4149],[17.3424,-5.7359,785.5726],[17.3608,-5.7409,824.1316],[17.3986,-5.7625,741.1846],[17.4116,-5.7624,754.6863],[17.4317,-5.7573,755.4967],[17.4666,-5.7551,742.3264],[17.4946,-5.7498,546.3763],[17.5021,-5.7468,499.4558],[17.5291,-5.7311,511.7644],[17.5306,-5.7238,440.1274],[17.5348,-5.72,441.1422],[17.5402,-5.7078,512.7625],[17.542,-5.6993,508.0621],[17.5373,-5.6869,527.5399],[17.532,-5.686,499.1446],[17.5233,-5.6757,477.8581],[17.5161,-5.6617,486.5875],[17.521,-5.644,437.2391],[17.5207,-5.6382,466.8921],[17.5184,-5.6332,477.5437],[17.5197,-5.6192,490.8173],[17.5149,-5.6146,434.9034],[17.5217,-5.6065,445.8142],[17.5231,-5.601,497.7697],[17.5205,-5.5874,474.4472],[17.5234,-5.5773,568.9158],[17.5224,-5.5729,497.1159],[17.5243,-5.5704,460.1624],[17.5226,-5.5667,430.0919],[17.5342,-5.5457,485.5644],[17.5266,-5.5398,499.0296],[17.5201,-5.5281,485.1215],[17.5142,-5.5276,460.2376],[17.5135,-5.5253,470.1609],[17.5155,-5.5219,482.5168],[17.5141,-5.5205,503.6279],[17.5093,-5.5215,481.3596],[17.5077,-5.5141,523.01],[17.5001,-5.513,584.5905],[17.4918,-5.5084,475.6566],[17.4876,-5.5036,560.1417],[17.485,-5.4963,511.0815],[17.4852,-5.4887,524.4193],[17.4765,-5.4834,577.2029],[17.4748,-5.4717,539.6787],[17.4771,-5.4641,487.2429],[17.4793,-5.4627,473.7108],[17.4793,-5.4572,478.5891],[17.4871,-5.4489,505.7755],[17.4788,-5.4436,445.22],[17.4778,-5.4379,510.9318],[17.473,-5.4358,424.124],[17.4702,-5.4313,400.2735],[17.4713,-5.4283,461.1599],[17.4741,-5.4275,477.1687],[17.4775,-5.4144,479.1129],[17.4744,-5.4036,429.855],[17.4707,-5.4011,408.833],[17.4682,-5.3919,443.9718],[17.4752,-5.3783,485.4926],[17.469,-5.3717,427.4473],[17.4687,-5.368,455.3325],[17.4712,-5.3641,473.9234],[17.4725,-5.3473,437.8536],[17.4766,-5.3456,453.6085],[17.4764,-5.339,442.5838],[17.4793,-5.3332,422.0737],[17.4772,-5.3238,429.1949],[17.4774,-5.3121,455.292],[17.4789,-5.2957,419.368],[17.4812,-5.2932,459.8926],[17.4768,-5.2881,414.7029],[17.4811,-5.2847,444.8068],[17.4813,-5.2801,461.908],[17.4764,-5.2672,423.6325],[17.4807,-5.2573,426.7452],[17.4777,-5.2518,429.3341],[17.4802,-5.2483,436.4494],[17.4802,-5.2375,389.6756],[17.4873,-5.2379,424.1218],[17.4882,-5.2365,420.9342],[17.4822,-5.2281,448.2863],[17.4863,-5.2218,420.2354],[17.4911,-5.2183,406.9778],[17.4943,-5.2107,418.1378],[17.491,-5.2039,414.0117],[17.4921,-5.1999,414.0024],[17.4956,-5.1967,407.1139],[17.5015,-5.1951,407.3172],[17.5093,-5.1881,404.9327],[17.5103,-5.181,414.8746],[17.5141,-5.1791,408.0863],[17.517,-5.1752,387.8344],[17.5195,-5.1621,402.5895],[17.5261,-5.1528,433.0624],[17.5293,-5.1526,452.4921],[17.5327,-5.1549,405.4037],[17.5359,-5.1417,402.1212],[17.5411,-5.1389,433.0767],[17.545,-5.1258,392.5051],[17.539,-5.1247,379.753],[17.5367,-5.1213,413.2291],[17.5435,-5.1127,426.1892],[17.541,-5.1111,421.7724],[17.5378,-5.1134,402.8932],[17.535,-5.1127,398.3787],[17.5309,-5.1093,407.6445],[17.5254,-5.1082,444.4785],[17.5223,-5.102,393.487],[17.5283,-5.0955,402.3681],[17.5241,-5.0903,381.1461],[17.5149,-5.0862,381.5448],[17.5135,-5.0836,377.7716],[17.5213,-5.0751,421.1881],[17.5242,-5.0677,419.3513],[17.5292,-5.0626,394.826],[17.5297,-5.0582,404.4802],[17.5259,-5.0484,416.5275],[17.5257,-5.0445,400.6902],[17.528,-5.0399,393.9795],[17.5153,-5.0353,408.6406],[17.5093,-5.0305,375.4511],[17.5075,-5.0245,393.3755],[17.5097,-5.0179,395.5811],[17.509,-5.0153,393.6129],[17.5051,-5.0135,383.5234],[17.5046,-5.0103,371.6342],[17.5076,-5.0008,376.7624],[17.5105,-4.9967,416.4404],[17.5155,-4.9937,413.2762],[17.5164,-4.9902,389.4139],[17.5148,-4.9806,399.8806],[17.5195,-4.966,415.3342],[17.5135,-4.9479,383.7726],[17.5146,-4.9442,426.2648],[17.5191,-4.9398,407.0132],[17.5189,-4.9366,404.0585],[17.5067,-4.9369,411.5573],[17.5024,-4.9335,404.8682],[17.5009,-4.927,404.8925],[17.5043,-4.9176,382.6528],[17.5036,-4.9139,378.9434],[17.4988,-4.9098,412.6639],[17.5019,-4.8955,426.2914],[17.4998,-4.8898,397.9349],[17.5041,-4.881,392.1862],[17.5082,-4.8766,380.2736],[17.5142,-4.874,403.5104],[17.5174,-4.8653,377.4655],[17.5219,-4.8618,394.9761],[17.5235,-4.859,376.6374],[17.5214,-4.854,366.1453],[17.5235,-4.8519,364.0656],[17.5326,-4.8505,381.1968],[17.5347,-4.8475,370.6694],[17.5364,-4.827,379.0941],[17.5472,-4.8191,389.6887],[17.546,-4.8168,367.2986],[17.5414,-4.8155,366.3335],[17.5398,-4.8127,386.7169],[17.5464,-4.8009,370.7444],[17.5466,-4.7956,403.168],[17.5463,-4.7862,419.2994],[17.5417,-4.7823,373.0797],[17.5407,-4.7791,363.0866],[17.5453,-4.7694,366.8471],[17.5533,-4.7634,365.9832],[17.5541,-4.7558,362.7347],[17.5612,-4.7528,365.0373],[17.5644,-4.7495,371.7666],[17.5716,-4.7145,365.8469],[17.5766,-4.7083,388.6546],[17.5784,-4.6965,366.7806],[17.5816,-4.694,372.5558],[17.5868,-4.693,387.5145],[17.5882,-4.6898,372.4562],[17.5865,-4.6813,373.3397],[17.5923,-4.6785,353.946],[17.6003,-4.678,396.7248],[17.6021,-4.6752,387.3049],[17.6014,-4.6681,374.8616],[17.6048,-4.663,360.2619],[17.6165,-4.6648,398.2714],[17.6185,-4.6606,403.1383],[17.6164,-4.6533,370.2169],[17.6228,-4.6505,359.6121],[17.6322,-4.6383,356.8169],[17.6315,-4.633,370.9404],[17.6328,-4.6295,358.5687],[17.6376,-4.6283,373.7781],[17.6373,-4.6143,362.2912],[17.6425,-4.6058,370.2757],[17.6409,-4.6032,367.3128],[17.6356,-4.6014,356.924],[17.6346,-4.5821,366.7112],[17.6371,-4.5795,354.9028],[17.6433,-4.58,383.3055],[17.6527,-4.5687,363.4465],[17.6522,-4.5659,368.4061],[17.6464,-4.5625,355.6209],[17.6704,-4.5495,351.1842],[17.6743,-4.5513,363.7422],[17.6769,-4.557,384.7473],[17.6815,-4.5581,372.8912],[17.6881,-4.5505,360.715],[17.6867,-4.5482,360.9195],[17.6883,-4.5445,373.7833],[17.6961,-4.5371,365.5806],[17.6967,-4.5304,398.1144],[17.693,-4.5224,361.9732],[17.6859,-4.519,371.6789],[17.6895,-4.5146,355.0195],[17.6766,-4.5018,350.4814],[17.6752,-4.497,345.6506],[17.677,-4.4857,348.7358],[17.6742,-4.4825,347.3162],[17.6469,-4.4799,351.0104],[17.6525,-4.4706,366.8491],[17.6576,-4.4699,376.5309],[17.6634,-4.4752,350.7348],[17.6723,-4.4675,372.9067],[17.6631,-4.4653,341.3358],[17.6612,-4.4559,348.5811],[17.663,-4.4485,341.9091],[17.6671,-4.4462,372.131],[17.6708,-4.4533,352.4525],[17.6747,-4.4558,357.9203],[17.6797,-4.4454,352.2277],[17.6868,-4.4373,370.5052],[17.6842,-4.4293,344.1324],[17.6938,-4.4216,354.2123],[17.696,-4.4087,346.651],[17.7041,-4.416,351.9845],[17.7052,-4.4119,354.8185],[17.7042,-4.4045,386.7654],[17.7087,-4.3889,349.0274],[17.7115,-4.3884,345.9523],[17.7156,-4.3927,342.6068],[17.7205,-4.3936,359.7462],[17.7246,-4.3904,385.587],[17.728,-4.3819,348.01],[17.7307,-4.3818,345.3708],[17.7362,-4.3869,364.3617],[17.7392,-4.3875,369.4712],[17.7433,-4.3836,343.375],[17.7484,-4.3843,351.9922],[17.7701,-4.3687,366.8172],[17.773,-4.3639,341.2323],[17.7748,-4.3533,375.1563],[17.7773,-4.3494,364.2691],[17.7933,-4.3463,349.102],[17.7972,-4.344,394.672],[17.8034,-4.3363,401.542],[17.8221,-4.3268,395.669],[17.8257,-4.3169,336.1389],[17.8251,-4.3096,360.6425],[17.82,-4.2989,388.7993],[17.8109,-4.2875,427.2918],[17.8065,-4.283,386.2662],[17.7939,-4.2751,411.451],[17.7875,-4.2782,404.9996],[17.7608,-4.2992,365.0949],[17.7215,-4.3203,456.2311],[17.6809,-4.3342,437.5491],[17.652,-4.341,448.5868],[17.6382,-4.3413,442.0519],[17.6328,-4.3391,416.2169],[17.6277,-4.334,450.3412],[17.6262,-4.3299,473.7564],[17.6261,-4.326,468.6191],[17.6326,-4.3094,502.7164],[17.6341,-4.2945,481.896],[17.6384,-4.2894,439.0613],[17.6365,-4.2772,465.9142],[17.6298,-4.2634,448.1626],[17.6245,-4.257,458.3411],[17.6254,-4.2469,454.6335],[17.624,-4.2432,453.2539],[17.6122,-4.2331,422.7114],[17.6007,-4.2362,446.0469],[17.5527,-4.2414,453.4625],[17.5179,-4.2378,404.5604],[17.5074,-4.2434,444.1154],[17.494,-4.2552,417.625],[17.4575,-4.2921,462.4711],[17.4284,-4.2987,446.1869],[17.4237,-4.3014,469.01],[17.3902,-4.3319,513.2183],[17.3615,-4.3548,503.5742],[17.3406,-4.3685,475.0426],[17.32,-4.3785,508.9912],[17.3007,-4.3855,399.7142],[17.2847,-4.3881,370.143],[17.259,-4.3881,462.7291],[17.2434,-4.3995,501.924],[17.2265,-4.4167,463.6057],[17.2133,-4.4337,453.5466],[17.2019,-4.4568,508.9337],[17.1951,-4.4817,391.1816],[17.1907,-4.5115,399.8255],[17.1813,-4.5422,410.6211],[17.1779,-4.5488,473.1089],[17.1736,-4.5554,488.8896],[17.1675,-4.5608,497.6703],[17.1536,-4.5665,450.6024],[17.1406,-4.565,356.0688],[17.1253,-4.5569,363.56],[17.1192,-4.5518,346.3467],[17.1068,-4.55,355.4148],[17.0948,-4.54,363.9845],[17.0753,-4.5325,374.3831],[17.0675,-4.5249,358.7182],[17.0582,-4.5125,397.7811],[17.0543,-4.5045,381.7267],[17.0361,-4.4839,387.7491],[17.0319,-4.4834,419.2162],[17.0243,-4.4791,433.4494],[17.0122,-4.4789,485.3007],[16.9951,-4.4974,455.6078],[16.9841,-4.5034,402.6291],[16.9596,-4.5055,474.3534],[16.9509,-4.501,475.1877],[16.9463,-4.4951,529.7272],[16.9406,-4.481,530.5477],[16.9393,-4.4662,519.6963],[16.9405,-4.4619,504.1049],[16.9603,-4.4469,523.1572],[16.9734,-4.4291,454.8182],[16.973,-4.4096,386.8722],[16.9701,-4.401,396.6253],[16.9672,-4.3984,373.786],[16.9628,-4.398,372.7809],[16.9458,-4.4037,415.2646],[16.9386,-4.4037,375.6525],[16.9357,-4.4011,418.9677],[16.9282,-4.388,458.756],[16.9252,-4.3743,405.6591],[16.9174,-4.3566,398.0615],[16.9076,-4.344,414.6757],[16.8924,-4.3312,546.8476],[16.8629,-4.2973,581.6597],[16.8563,-4.2944,569.7789],[16.8518,-4.3144,448.1493],[16.8519,-4.3363,526.288],[16.8489,-4.3469,466.1177],[16.8444,-4.3517,546.0612],[16.8398,-4.3543,578.3068],[16.826,-4.3543,561.7576],[16.819,-4.359,603.7583],[16.8073,-4.3595,546.6799],[16.8031,-4.3623,557.4326],[16.7958,-4.3556,561.0243],[16.7859,-4.3528,636.0145],[16.782,-4.3535,636.1191],[16.775,-4.3578,667.2695],[16.7639,-4.3752,671.663],[16.758,-4.3806,665.077],[16.7537,-4.3823,629.9688],[16.7469,-4.3819,470.1265],[16.7454,-4.379,467.3375],[16.7438,-4.339,597.6694],[16.7419,-4.3337,610.1783],[16.7371,-4.3284,651.4554],[16.7313,-4.3284,636.7658],[16.7289,-4.3303,503.3943],[16.7241,-4.3422,425.0808],[16.7198,-4.3482,422.5806],[16.7132,-4.3521,389.0302],[16.7081,-4.3339,466.2763],[16.7027,-4.3224,420.9513],[16.6954,-4.3284,359.6669],[16.6897,-4.3299,361.3541],[16.6798,-4.3292,362.4259],[16.6687,-4.3417,392.4332],[16.6659,-4.3504,524.217],[16.663,-4.3532,531.1144],[16.6584,-4.3535,414.5667],[16.6541,-4.3581,438.6485],[16.6474,-4.3606,509.0129],[16.636,-4.3623,431.7392],[16.6284,-4.3695,542.6944],[16.6209,-4.3704,538.4009],[16.6166,-4.3729,525.2302],[16.6103,-4.3847,583.4188],[16.6063,-4.4117,658.9664],[16.6104,-4.4724,611.9066],[16.6119,-4.5337,699.3185],[16.6098,-4.5534,615.0023],[16.6073,-4.5559,613.449],[16.5989,-4.5545,612.0279],[16.5877,-4.5474,622.469],[16.5433,-4.5129,590.4952],[16.5149,-4.486,403.0718],[16.4975,-4.4837,337.5],[16.4787,-4.4828,482.2269],[16.4753,-4.4849,538.957],[16.4642,-4.4836,497.5405],[16.4532,-4.4783,620.2573],[16.4417,-4.4754,642.8304],[16.4196,-4.4566,683.6353],[16.4157,-4.4573,679.6676],[16.4061,-4.4652,637.6517],[16.4041,-4.4686,587.3845],[16.4018,-4.4815,664.2556],[16.3971,-4.4891,661.4978],[16.3971,-4.5051,666.4142],[16.3949,-4.5215,689.0286],[16.383,-4.545,686.5487],[16.3716,-4.5576,686.3289],[16.3653,-4.5674,701.2317],[16.3486,-4.5998,678.5425],[16.3229,-4.6575,689.3241],[16.3124,-4.6775,711.6105],[16.2909,-4.7284,709.1837],[16.2836,-4.7371,689.5874],[16.2625,-4.7478,550.7589],[16.2641,-4.7514,556.5457],[16.2625,-4.7541,559.4983],[16.2627,-4.76,556.5789],[16.2614,-4.7604,556.5789],[16.2622,-4.7626,553.7172],[16.2608,-4.7629,553.6365],[16.2617,-4.767,553.0548],[16.2557,-4.7718,554.7125],[16.2595,-4.7787,555.1694],[16.2525,-4.7856,553.9879],[16.2502,-4.7917,552.8848],[16.2516,-4.7979,557.8137],[16.2488,-4.8052,554.7796],[16.2502,-4.8058,556.2208],[16.2517,-4.8041,559.4623],[16.2502,-4.8075,554.2068],[16.2523,-4.8085,552.9932],[16.2522,-4.8111,554.6888],[16.2487,-4.8162,561.3722],[16.2519,-4.8187,560.4136],[16.2521,-4.8235,564.4085],[16.2454,-4.8246,557.7673],[16.2432,-4.8264,558.7083],[16.2411,-4.831,558.5089],[16.2434,-4.8336,564.2186],[16.2402,-4.8351,558.0746],[16.2433,-4.8407,573.8282],[16.2402,-4.8533,571.0245],[16.2453,-4.8531,563.2625],[16.248,-4.8557,562.9592],[16.2532,-4.8557,572.4572],[16.2586,-4.8589,575.4618],[16.2574,-4.8674,580.7932],[16.2611,-4.8745,576.4564],[16.2665,-4.8804,578.5474],[16.2655,-4.8811,578.5474],[16.267,-4.8845,577.2178],[16.2659,-4.8842,577.2178],[16.2649,-4.8892,575.1136],[16.2674,-4.8909,575.8345],[16.2659,-4.891,575.8345],[16.2661,-4.8931,573.9329],[16.2692,-4.8955,576.751],[16.2677,-4.8964,573.9993],[16.2693,-4.8974,573.9993],[16.2673,-4.8988,570.4568],[16.2681,-4.8998,583.0244],[16.2663,-4.9002,573.3439],[16.2658,-4.9067,581.6818],[16.263,-4.9074,578.032],[16.2631,-4.9141,581.9337],[16.2652,-4.9152,573.0656],[16.2654,-4.9214,573.9474],[16.2679,-4.9225,581.3678],[16.2675,-4.9271,576.976],[16.2686,-4.9279,576.976],[16.2652,-4.9388,579.3506],[16.2662,-4.9399,580.7773],[16.2639,-4.9431,574.4965],[16.2654,-4.9484,572.7347],[16.2637,-4.9522,573.953],[16.2661,-4.9587,580.4456],[16.2653,-4.9608,574.6157],[16.2629,-4.9613,575.143],[16.2637,-4.9633,574.793],[16.2626,-4.9651,574.5588],[16.2606,-4.9651,576.6794],[16.2599,-4.9684,575.0431],[16.2571,-4.97,586.0255]],
[[17.0034,-4.888,453.4117],[16.9952,-4.888,430.4842],[16.9826,-4.8849,401.3474],[16.9735,-4.8781,376.2228],[16.9799,-4.8642,384.366],[16.9796,-4.8541,390.2856],[16.9869,-4.8437,364.2027],[16.9839,-4.8355,387.6016],[16.9836,-4.829,373.6304],[16.9877,-4.8189,374.3027],[16.987,-4.8168,367.0319],[17.0072,-4.8064,436.0582],[17.0185,-4.8045,409.8439],[17.028,-4.8051,544.1561],[17.0368,-4.8089,512.0803],[17.0469,-4.8197,443.0229],[17.0513,-4.8292,529.543],[17.0532,-4.8393,423.1807],[17.0513,-4.8475,435.9626],[17.0412,-4.8684,585.7317],[17.0311,-4.8729,478.5306],[17.0236,-4.8805,444.9465],[17.0141,-4.8868,407.309],[17.0034,-4.888,453.4117]]]]}
,"properties": {"GID_2": "COD.12.6_1","GID_0": "COD","country": "DemocraticRepublicoftheCongo","GID_1": "COD.12_1","province": "Kwango","NL_NAME_1": "NA","county": "Kenge","VARNAME_2": "NA","NL_NAME_2": "NA","TYPE_2": "Territoire","ENGTYPE_2": "Territory","CC_2": "NA","HASC_2": "NA","name": "Kenge.county","area_km2": 18541.75,"hist_schema_id": "Elevation0-9000","hist_area_km2": {"325": 4.23,"350": 223.35,"375": 698.23,"400": 1143.81,"425": 1328.48,"450": 1312.52,"475": 1311.28,"500": 1212.68,"525": 1140.32,"550": 976.84,"575": 753.75,"600": 568.69,"625": 475.95,"650": 519.04,"675": 794.71,"700": 1212.63,"725": 1289.17,"750": 1142.72,"775": 971.35,"800": 779.8,"825": 456.86,"850": 165.26,"875": 49.29,"900": 10.8}}}