{"type": "Feature","bbox": [20.033,-5.9044,21.1125,-4.232],"geometry": {"type": "MultiPolygon","coordinates": [[[[20.4157,-4.2843,348.0],[20.4081,-4.2925,348.0],[20.4018,-4.2943,351.6009],[20.3988,-4.297,347.5],[20.3874,-4.2975,347.5],[20.3828,-4.2998,351.4593],[20.377,-4.3108,350.963],[20.3717,-4.3312,422.9515],[20.3652,-4.3413,423.2572],[20.3629,-4.3482,429.922],[20.3726,-4.3671,452.9413],[20.371,-4.3715,469.1274],[20.3597,-4.3848,462.7658],[20.3627,-4.3908,472.1772],[20.3615,-4.3935,468.8883],[20.3525,-4.3988,469.5805],[20.3399,-4.3982,435.2267],[20.3271,-4.3938,358.6352],[20.3134,-4.3852,345.5],[20.3081,-4.3836,376.584],[20.3022,-4.3844,411.3752],[20.2952,-4.3897,424.7726],[20.2817,-4.3906,363.1281],[20.2661,-4.399,394.1697],[20.2601,-4.3973,401.3948],[20.2542,-4.3869,344.5],[20.2503,-4.3849,344.5],[20.2341,-4.382,419.2734],[20.2307,-4.3689,344.5],[20.2342,-4.3613,353.7687],[20.2313,-4.3488,391.3793],[20.2164,-4.3387,344.0],[20.2006,-4.3349,343.5],[20.185,-4.3428,343.5],[20.1797,-4.3414,343.5],[20.1735,-4.3423,343.0],[20.1698,-4.3405,343.0],[20.1662,-4.3363,343.0],[20.1644,-4.3213,343.0],[20.1603,-4.3167,343.7073],[20.1553,-4.3139,342.5],[20.1455,-4.312,342.5],[20.1409,-4.3088,351.254],[20.1377,-4.3005,347.5842],[20.1261,-4.2925,349.0138],[20.1089,-4.2932,342.0],[20.1013,-4.292,342.3502],[20.0922,-4.2873,341.5],[20.0716,-4.291,341.5],[20.055,-4.2901,341.0],[20.038,-4.2859,341.0],[20.033,-4.2927,345.8872],[20.0336,-4.3056,359.4699],[20.0377,-4.3098,387.0356],[20.0434,-4.3114,390.9737],[20.045,-4.3149,392.6146],[20.0406,-4.3317,366.7422],[20.0435,-4.342,391.7535],[20.0437,-4.3529,372.147],[20.0473,-4.3602,408.5467],[20.0518,-4.3649,430.3988],[20.0619,-4.3698,420.0394],[20.0649,-4.3741,397.0837],[20.0669,-4.3813,443.1692],[20.0719,-4.3873,428.8152],[20.0748,-4.4021,371.3701],[20.0871,-4.4189,431.6394],[20.0932,-4.4344,371.4216],[20.0881,-4.4435,374.7022],[20.0922,-4.4558,418.01],[20.0901,-4.4654,365.0272],[20.0923,-4.471,372.2327],[20.0992,-4.476,447.9935],[20.1093,-4.4766,390.1265],[20.1145,-4.4849,372.3597],[20.1239,-4.4937,478.7996],[20.1248,-4.5001,402.0546],[20.1192,-4.5056,368.8234],[20.113,-4.5086,425.0974],[20.1111,-4.5203,373.0373],[20.1024,-4.5283,374.866],[20.0954,-4.5409,364.7854],[20.0855,-4.5415,368.8543],[20.0848,-4.5581,368.0017],[20.0813,-4.5648,360.7115],[20.0735,-4.5712,369.7775],[20.0693,-4.584,357.5],[20.0621,-4.595,367.5379],[20.0639,-4.6017,368.3113],[20.0565,-4.6182,362.0251],[20.0667,-4.6307,376.8079],[20.069,-4.6369,367.7786],[20.062,-4.6456,361.0],[20.0609,-4.6502,361.25],[20.0649,-4.662,378.3701],[20.0709,-4.6685,424.07],[20.0692,-4.6797,380.3952],[20.0667,-4.6825,366.5186],[20.0568,-4.6838,381.823],[20.0545,-4.6866,368.9077],[20.0551,-4.6909,378.9193],[20.0519,-4.7008,364.0],[20.0589,-4.7149,370.5553],[20.06,-4.7213,367.8213],[20.0566,-4.7291,372.6207],[20.0496,-4.7371,385.1514],[20.0508,-4.7404,380.7518],[20.0606,-4.7485,445.4058],[20.058,-4.7563,372.2276],[20.0558,-4.7823,389.885],[20.0691,-4.7888,411.8358],[20.0784,-4.8116,386.822],[20.0859,-4.822,404.3388],[20.0847,-4.8285,371.5],[20.0913,-4.8462,408.5134],[20.0912,-4.8522,390.949],[20.1026,-4.8711,401.1495],[20.1012,-4.8831,397.843],[20.1021,-4.8898,384.5303],[20.1079,-4.904,432.6832],[20.1101,-4.9314,383.5225],[20.1152,-4.9591,394.0905],[20.1191,-4.9655,411.9771],[20.1296,-4.9723,475.0761],[20.1314,-4.9785,379.0],[20.1432,-4.9995,437.362],[20.1441,-5.0062,380.375],[20.1399,-5.0181,381.0],[20.1398,-5.0354,382.0],[20.1465,-5.0434,382.5],[20.151,-5.0529,383.0],[20.164,-5.0578,384.0],[20.1686,-5.062,391.2467],[20.1702,-5.068,385.0],[20.1683,-5.0808,385.5],[20.1697,-5.0843,386.0],[20.1793,-5.0887,399.6229],[20.1822,-5.0931,405.2626],[20.1827,-5.0973,404.2943],[20.1785,-5.1115,388.5],[20.1796,-5.1216,393.2879],[20.1862,-5.129,393.2797],[20.1943,-5.1558,390.75],[20.1875,-5.1746,430.2726],[20.1884,-5.1771,461.4553],[20.1994,-5.1859,443.4093],[20.2003,-5.1887,455.0358],[20.1994,-5.1908,423.8875],[20.1899,-5.1939,463.0039],[20.1982,-5.2059,422.6873],[20.1965,-5.213,405.703],[20.1988,-5.219,393.5],[20.199,-5.2266,394.0],[20.1946,-5.2314,394.0],[20.1872,-5.2344,499.5511],[20.1863,-5.239,438.6466],[20.1906,-5.2448,423.002],[20.1926,-5.2533,395.0],[20.2015,-5.263,426.668],[20.2038,-5.2706,399.4814],[20.1999,-5.2782,396.0],[20.1835,-5.2891,464.8996],[20.1764,-5.2879,499.8381],[20.1729,-5.2904,402.6806],[20.1711,-5.2985,397.375],[20.1811,-5.3137,473.8916],[20.1753,-5.3215,402.2027],[20.1776,-5.3257,452.599],[20.184,-5.331,485.2864],[20.1812,-5.3312,466.6779],[20.1748,-5.3263,421.0342],[20.1672,-5.3279,399.5],[20.1573,-5.3336,400.5],[20.149,-5.3464,487.5166],[20.155,-5.3467,518.6582],[20.1575,-5.3502,486.5742],[20.1462,-5.3503,448.4758],[20.1446,-5.3531,407.9127],[20.15,-5.375,539.7036],[20.1497,-5.3791,530.3007],[20.1573,-5.3844,538.9728],[20.1481,-5.3837,486.4786],[20.1453,-5.386,475.1988],[20.1416,-5.394,471.2745],[20.1427,-5.4011,523.3912],[20.1402,-5.4131,513.0852],[20.1426,-5.4198,494.8729],[20.1452,-5.4219,490.1756],[20.1507,-5.4221,451.6661],[20.1655,-5.4127,519.1383],[20.1686,-5.4132,519.4012],[20.1673,-5.4157,510.1168],[20.162,-5.4179,502.3135],[20.1544,-5.4246,468.5378],[20.1472,-5.426,466.8572],[20.146,-5.4281,430.5512],[20.1492,-5.4458,529.1935],[20.1468,-5.463,514.5049],[20.1513,-5.4773,532.7607],[20.1553,-5.4825,553.8191],[20.1644,-5.4813,532.7753],[20.1662,-5.4827,529.68],[20.1738,-5.4821,550.2106],[20.1786,-5.4837,526.0945],[20.1765,-5.4858,527.6138],[20.1641,-5.4864,488.4777],[20.1517,-5.4845,540.0681],[20.1503,-5.487,515.5129],[20.1528,-5.4921,466.1025],[20.153199999999998,-5.5008,491.5542],[20.1564,-5.5068,539.2484],[20.1504,-5.5102,508.3427],[20.1474,-5.5148,464.0273],[20.1448,-5.5327,488.232],[20.1453,-5.5348,478.41609999999997],[20.1485,-5.5344,469.3399],[20.1536,-5.5305,514.2423],[20.1558,-5.5314,517.9307],[20.1558,-5.5369,503.0017],[20.1509,-5.5479,458.9344],[20.1566,-5.5528,509.2577],[20.1545,-5.5618,542.8279],[20.1554,-5.5643,548.5405],[20.1531,-5.5691,526.261],[20.1545,-5.5756,517.1636],[20.1634,-5.5807,535.1195],[20.1728,-5.5904,447.7258],[20.1654,-5.5998,495.9139],[20.1665,-5.6014,499.0352],[20.1734,-5.6017,535.8558],[20.1814,-5.6086,495.2455],[20.1818,-5.6139,477.0991],[20.1907,-5.6231,517.2286],[20.1898,-5.6268,509.6045],[20.1863,-5.6307,458.6105],[20.1826,-5.6422,434.3331],[20.1862,-5.6537,493.0192],[20.1841,-5.6578,501.3305],[20.1777,-5.6594,425.0],[20.1761,-5.6613,425.5],[20.1763,-5.6642,425.5],[20.1813,-5.6705,442.3699],[20.1805,-5.6817,444.2143],[20.1819,-5.6905,434.3896],[20.1803,-5.6926,467.9848],[20.1764,-5.6928,427.5],[20.1722,-5.6897,451.1835],[20.1681,-5.6906,529.9892],[20.1674,-5.6932,486.3048],[20.1717,-5.7006,433.4667],[20.1712,-5.7098,495.4045],[20.173,-5.7157,493.2164],[20.1705,-5.7189,466.867],[20.1716,-5.7217,457.3813],[20.1686,-5.7265,430.5],[20.1711,-5.7387,486.5066],[20.166,-5.7463,431.5],[20.1604,-5.7472,481.7695],[20.1558,-5.7534,455.1655],[20.1521,-5.7625,433.0],[20.1542,-5.766,433.0],[20.1493,-5.7717,439.1528],[20.1396,-5.7756,524.304],[20.1241,-5.7875,458.5261],[20.1408,-5.7906,503.3253],[20.1571,-5.7957,543.4146],[20.1667,-5.804,557.8923],[20.1741,-5.8067,553.8517],[20.2375,-5.8053,547.2101],[20.2456,-5.8056,533.1564],[20.2534,-5.8093,566.819],[20.3101,-5.8638,597.3908],[20.3105,-5.8895,598.9594],[20.3156,-5.8947,639.3384],[20.328,-5.8938,705.2286],[20.3547,-5.9044,564.3043],[20.3843,-5.9016,611.9144],[20.3958,-5.8979,563.4645],[20.4009,-5.8931,555.8668],[20.4113,-5.8909,584.8943],[20.4179,-5.8877,555.358],[20.4645,-5.8611,543.2875],[20.4863,-5.8596,542.9321],[20.5176,-5.8478,505.372],[20.5399,-5.8417,516.6188],[20.5433,-5.855,534.7079],[20.5484,-5.856,555.5521],[20.5548,-5.8604,538.9437],[20.5656,-5.8627,464.734],[20.5853,-5.8734,525.5103],[20.5926,-5.8806,512.4286],[20.6068,-5.8862,479.6013],[20.6196,-5.8984,435.6845],[20.6333,-5.8935,428.3857],[20.633,-5.8916,437.5459],[20.6263,-5.8916,442.5838],[20.6276,-5.8885,441.1199],[20.6449,-5.8859,419.5],[20.6484,-5.8779,453.2773],[20.6443,-5.8668,429.6118],[20.6478,-5.8604,445.3624],[20.6531,-5.8595,452.81],[20.6618,-5.8664,435.3298],[20.6643,-5.8667,431.7023],[20.668,-5.8628,417.375],[20.6747,-5.8499,431.2987],[20.6825,-5.8484,418.8964],[20.6927,-5.8411,416.7114],[20.7072,-5.8253,414.5],[20.7117,-5.8046,413.5],[20.7175,-5.7973,473.6468],[20.7255,-5.7911,458.1036],[20.7453,-5.7845,444.5827],[20.7495,-5.7813,411.5],[20.7585,-5.7574,410.0],[20.7643,-5.7522,438.8424],[20.7694,-5.7517,424.7938],[20.7751,-5.7566,412.6786],[20.7801,-5.7638,470.9521],[20.7863,-5.7642,422.3861],[20.7987,-5.7595,410.5648],[20.8061,-5.7602,444.5806],[20.8141,-5.7531,425.2245],[20.8204,-5.7522,466.0825],[20.834,-5.7341,483.5351],[20.8375,-5.7132,434.1861],[20.8581,-5.6859,404.3581],[20.8643,-5.6804,415.8976],[20.8671,-5.6736,430.2153],[20.8685,-5.6653,438.4101],[20.8651,-5.6574,475.4169],[20.8647,-5.6512,451.038],[20.8619,-5.6469,478.4862],[20.8617,-5.6404,452.7291],[20.8576,-5.6303,478.4695],[20.857,-5.6222,425.7637],[20.8621,-5.6034,453.2102],[20.8723,-5.5965,433.1126],[20.8737,-5.5917,398.0],[20.8792,-5.5922,466.4091],[20.8885,-5.5982,408.5345],[20.8927,-5.5973,401.4709],[20.9026,-5.5992,396.375],[20.906,-5.5962,442.6653],[20.9173,-5.5924,404.4398],[20.9208,-5.5807,454.4854],[20.9176,-5.5629,469.53],[20.9102,-5.5434,392.0],[20.9125,-5.5337,391.5],[20.9082,-5.5185,393.2034],[20.9107,-5.5125,401.0076],[20.9198,-5.4988,516.5967],[20.9297,-5.4896,463.6068],[20.9377,-5.486,397.3033],[20.9391,-5.4786,450.9525],[20.9421,-5.4816,394.773],[20.9491,-5.4692,496.4091],[20.9651,-5.4638,429.2886],[20.981,-5.4485,462.4396],[20.9824,-5.4087,394.0424],[20.9801,-5.4013,388.0482],[20.9827,-5.3937,431.0468],[20.9887,-5.3857,395.3463],[20.9993,-5.3639,389.8813],[21.0104,-5.3524,393.2047],[21.0263,-5.3442,395.7233],[21.0375,-5.3411,386.9013],[21.0433,-5.3351,384.5],[21.0461,-5.3181,391.3346],[21.05,-5.3165,385.2246],[21.0691,-5.3152,384.0],[21.0686,-5.3101,392.9246],[21.0815,-5.3008,383.5],[21.0866,-5.2932,383.5],[21.0874,-5.2656,382.5],[21.0831,-5.2555,382.0],[21.0797,-5.2416,399.6878],[21.0719,-5.2324,380.5],[21.0727,-5.2287,380.5],[21.0817,-5.215,379.5],[21.084,-5.1908,378.0],[21.0882,-5.1849,378.0],[21.0886,-5.1812,444.7093],[21.0931,-5.1775,377.5],[21.0944,-5.1741,377.5],[21.0899,-5.1639,377.5],[21.0895,-5.1596,377.5],[21.0962,-5.1414,377.0],[21.0965,-5.1203,377.0],[21.0954,-5.1127,417.3526],[21.0902,-5.1021,377.0],[21.0904,-5.0977,376.5],[21.0997,-5.0621,375.0],[21.1032,-5.0577,373.627],[21.1046,-5.0501,374.5],[21.1115,-5.0433,374.0],[21.1125,-5.0173,373.5],[21.1016,-4.9937,390.8341],[21.0874,-4.9852,372.5],[21.0826,-4.9787,372.5],[21.0815,-4.9663,376.0902],[21.0738,-4.9485,383.7066],[21.0725,-4.931,391.7592],[21.0686,-4.928,375.3461],[21.0634,-4.917,441.1504],[21.0672,-4.891,448.3839],[21.0739,-4.8726,437.3668],[21.0742,-4.8519,474.628],[21.0692,-4.8415,399.6824],[21.0702,-4.8293,463.0544],[21.0635,-4.8169,426.6613],[21.062,-4.8079,465.6844],[21.0588,-4.8008,434.1098],[21.0577,-4.7849,430.4943],[21.0543,-4.7777,518.9782],[21.0557,-4.7672,655.7531],[21.0542,-4.7593,636.2666],[21.0476,-4.7462,474.1829],[21.048,-4.7379,485.6223],[21.0515,-4.7305,422.6207],[21.0601,-4.7214,498.1641],[21.0645,-4.6986,454.6737],[21.0707,-4.6869,416.1562],[21.0705,-4.6784,380.37],[21.0621,-4.6676,383.3942],[21.059,-4.6512,436.6003],[21.0542,-4.6452,470.314],[21.0496,-4.6433,438.4268],[21.0462,-4.6321,474.413],[21.0423,-4.6272,465.4494],[21.027,-4.6198,394.244],[21.0196,-4.6202,388.3421],[21.0166,-4.6225,374.1903],[21.0084,-4.6206,370.5963],[21.0015,-4.6236,365.0],[20.9974,-4.6233,369.457],[20.991,-4.6201,368.2239],[20.985,-4.6205,369.0916],[20.9797,-4.6189,366.5159],[20.9701,-4.6223,377.8467],[20.9637,-4.6174,365.0],[20.9561,-4.6178,364.5],[20.9522,-4.6164,364.5],[20.9446,-4.6169,366.3969],[20.9382,-4.621,364.5],[20.9311,-4.6196,376.0168],[20.9108,-4.6017,384.6853],[20.8945,-4.5922,434.1959],[20.8927,-4.5897,399.7982],[20.8932,-4.5837,377.7826],[20.8911,-4.5833,405.7555],[20.8879,-4.5876,417.0534],[20.8828,-4.5869,449.2008],[20.8775,-4.5928,363.0],[20.8734,-4.594,363.0],[20.8672,-4.5912,363.0],[20.8517,-4.5729,372.3007],[20.8469,-4.5701,385.4525],[20.8446,-4.5653,455.1229],[20.84,-4.5625,475.0169],[20.8297,-4.5609,453.5741],[20.8188,-4.5544,430.1569],[20.8234,-4.541,462.0947],[20.8281,-4.5132,463.6494],[20.8261,-4.5065,394.7708],[20.8364,-4.5027,423.5362],[20.8394,-4.4935,484.7689],[20.8537,-4.486,416.7039],[20.859,-4.4784,445.4929],[20.868,-4.4752,485.0797],[20.9004,-4.4547,477.3452],[20.9039,-4.4443,448.9951],[20.9064,-4.3915,594.93],[20.9065,-4.3781,516.9305],[20.9046,-4.3698,499.4909],[20.8893,-4.3433,440.6639],[20.8802,-4.3337,460.4098],[20.8697,-4.3178,419.6842],[20.8638,-4.3125,526.9048],[20.8519,-4.3112,493.1021],[20.8364,-4.3136,511.6045],[20.8324,-4.3127,457.2647],[20.8318,-4.3069,453.7468],[20.836,-4.2938,503.2444],[20.8344,-4.2781,465.7977],[20.8314,-4.2765,433.03],[20.8197,-4.2783,442.2448],[20.8168,-4.2803,442.4652],[20.8121,-4.2886,391.6073],[20.8018,-4.2876,444.4846],[20.7982,-4.2851,409.3542],[20.7915,-4.2857,384.5115],[20.7876,-4.282,377.7791],[20.783,-4.2818,379.532],[20.7748,-4.2886,437.8243],[20.7704,-4.2875,397.459],[20.7647,-4.2833,384.2909],[20.7557,-4.283,389.2662],[20.7482,-4.2862,400.1058],[20.7427,-4.2866,382.636],[20.7383,-4.2841,381.9613],[20.7337,-4.2854,376.0098],[20.728,-4.2845,377.1906],[20.7161,-4.2782,376.603],[20.7214,-4.2406,432.3728],[20.7198,-4.2333,468.8384],[20.7143,-4.232,476.525],[20.6702,-4.234,414.4756],[20.6666,-4.2475,464.1388],[20.6541,-4.2739,367.6549],[20.6535,-4.2817,369.9631],[20.6475,-4.2992,449.8093],[20.6337,-4.3202,454.5855],[20.6122,-4.334,471.4331],[20.590699999999998,-4.336,447.3513],[20.5799,-4.3277,407.6994],[20.5759,-4.3192,355.5369],[20.5614,-4.3138,430.2441],[20.5515,-4.3126,443.8063],[20.5414,-4.3169,428.8063],[20.5364,-4.3167,425.2328],[20.5232,-4.3315,351.0],[20.5175,-4.3308,413.4179],[20.5091,-4.3255,442.0675],[20.49,-4.3229,426.2257],[20.4857,-4.321,416.4734],[20.4809,-4.312,421.412],[20.4743,-4.3076,412.4625],[20.4702,-4.3064,399.8831],[20.4603,-4.3075,395.0641],[20.4548,-4.3022,388.3778],[20.4425,-4.2982,360.0304],[20.4331,-4.297,357.8902],[20.4189,-4.2888,348.0],[20.4157,-4.2843,348.0]]]]}
,"properties": {"GID_2": "COD.9.2_1","GID_0": "COD","country": "DemocraticRepublicoftheCongo","GID_1": "COD.9_1","province": "Kasaï","NL_NAME_1": "NA","county": "Ilebo","VARNAME_2": "NA","NL_NAME_2": "NA","TYPE_2": "Territoire","ENGTYPE_2": "Territory","CC_2": "NA","HASC_2": "NA","name": "Ilebo.county","area_km2": 15969.64,"hist_schema_id": "Elevation0-9000","hist_area_km2": {"350": 136.18,"375": 308.97,"400": 481.4,"425": 970.5,"450": 1521.18,"475": 1989.0,"500": 2240.63,"525": 2229.08,"550": 1869.66,"575": 1311.32,"600": 890.25,"625": 656.36,"650": 563.93,"675": 425.01,"700": 318.03,"725": 55.29,"750": 2.85}}}