{"type": "Feature","bbox": [21.7941,-10.1037,24.5753,-8.6628],"geometry": {"type": "MultiPolygon","coordinates": [[[[22.2213,-10.0823,968.0806],[22.2616,-10.0973,990.2054],[22.2725,-10.1037,981.8931],[22.2789,-10.1028,996.2749],[22.3231,-10.0621,1004.1848],[22.3348,-10.054,1016.6215],[22.372,-10.0532,1057.0288],[22.3948,-10.0559,1041.8733],[22.47,-10.0362,1035.8772],[22.5136,-10.0291,1045.3132],[22.5334,-10.011,1028.8539],[22.5532,-9.9893,1035.2532],[22.5473,-9.9375,1037.5046],[22.5488,-9.904,1033.9192],[22.556,-9.8904,1039.2004],[22.5832,-9.8823,1042.6273],[22.5968,-9.8814,1049.3148],[22.6161,-9.869,1032.2834],[22.6288,-9.8917,1006.1245],[22.677,-9.9478,982.7534],[22.6856,-9.9526,984.6579],[22.7092,-9.9576,1015.4529],[22.7134,-9.9632,983.1511],[22.7241,-9.9714,1012.971],[22.7375,-10.0158,1027.6605],[22.7952,-10.0253,1018.474],[22.8089,-10.0316,1018.7595],[22.8216,-10.0353,1016.4952],[22.8689,-10.0354,1004.0652],[22.8862,-10.0445,993.7224],[22.9072,-10.05,1014.9781],[22.918,-10.0383,1013.9592],[22.928,-10.0437,993.274],[22.9462,-10.0483,982.0185],[23.0069,-10.0558,904.533],[23.0116,-10.0494,898.062],[23.0109,-10.042,895.5878],[23.0213,-10.0331,895.2666],[23.0206,-10.0317,895.4263],[23.0275,-10.0243,915.1128],[23.0319,-10.0144,902.2057],[23.0317,-9.994,895.2164],[23.03,-9.9862,895.1049],[23.0323,-9.9834,895.0935],[23.0333,-9.9788,894.8954],[23.0379,-9.9735,894.2301],[23.0539,-9.9854,895.7628],[23.0732,-10.0075,898.2268],[23.0943,-10.0226,900.6959],[23.0983,-10.0311,918.9526],[23.1007,-10.05,905.3336],[23.1044,-10.0575,904.2868],[23.1265,-10.0805,909.803],[23.1346,-10.0867,909.5581],[23.1474,-10.092,916.3922],[23.1657,-10.0931,915.186],[23.1766,-10.0977,913.017],[23.1896,-10.099,915.5938],[23.2119,-10.0978,923.8252],[23.2323,-10.0992,924.7593],[23.2629,-10.0963,938.0211],[23.2836,-10.0827,927.5917],[23.2912,-10.08,928.0116],[23.3058,-10.0792,929.6506],[23.3272,-10.0739,947.9225],[23.3367,-10.0697,950.2324],[23.3497,-10.0697,951.3922],[23.367,-10.0651,960.5609],[23.384,-10.0694,958.1176],[23.4165,-10.073,966.7197],[23.4314,-10.0808,977.0461],[23.4502,-10.0821,1002.5693],[23.4578,-10.0795,994.9194],[23.4634,-10.0821,990.5605],[23.4776,-10.096,1000.1029],[23.5003,-10.0919,1040.7285],[23.5237,-10.0707,1014.5699],[23.544,-9.9974,1018.2174],[23.5573,-9.9651,979.4846],[23.5753,-9.9416,962.5009],[23.593,-9.9108,932.2283],[23.6118,-9.9322,932.765],[23.6165,-9.9478,954.4848],[23.6145,-9.9839,954.5548],[23.616,-10.0,964.6561],[23.6343,-10.0066,962.4875],[23.6517,-10.0056,966.5269],[23.6803,-9.977,986.1814],[23.6864,-9.9732,1005.9174],[23.6933,-9.9734,1020.975],[23.7303,-10.0007,1072.8285],[23.7363,-10.0089,1078.4697],[23.753,-10.0488,998.3674],[23.7553,-10.0615,1027.4514],[23.7641,-10.0706,1029.5153],[23.7818,-10.0711,1070.0614],[23.7955,-10.0326,1029.8118],[23.7972,-10.0168,1014.886],[23.8076,-9.9899,1021.326],[23.8179,-9.9914,1022.4664],[23.8284,-10.0028,1030.4297],[23.8349,-10.0155,1052.864],[23.8536,-10.0192,1048.0183],[23.9385,-10.0153,1045.5415],[23.9438,-10.0008,1045.9382],[23.9427,-9.9809,1062.3965],[23.9234,-9.9527,1071.1338],[23.9169,-9.9391,1067.3142],[23.9132,-9.9264,1070.0259],[23.9112,-9.9109,1057.3306],[23.9109,-9.8719,1036.7401],[23.9709,-9.9882,1076.8397],[23.9828,-9.9919,1080.8062],[23.991,-9.9745,1052.9702],[23.9942,-9.9713,1054.0789],[23.9969,-9.9651,1062.457],[23.9967,-9.9543,1046.2057],[23.9943,-9.9501,1045.4115],[23.9897,-9.9472,1047.384],[23.9788,-9.9458,1056.9197],[23.975,-9.9413,1057.391],[23.9768,-9.9261,1046.0226],[23.9853,-9.9095,1035.9561],[23.9858,-9.9056,1035.7272],[23.9827,-9.8982,1035.6333],[23.9764,-9.8907,1034.1117],[23.9538,-9.8749,1036.5024],[23.942,-9.863,1035.6406],[23.9405,-9.8591,1027.6272],[23.9469,-9.835,1037.9906],[23.9511,-9.8299,1039.7634],[23.9573,-9.8271,1022.6891],[23.9675,-9.8277,1023.7509],[23.9884,-9.8364,1028.2494],[23.9952,-9.8377,1013.6531],[24.0079,-9.8349,1012.6085],[24.013,-9.8356,1011.316],[24.0194,-9.8178,1011.0588],[24.0288,-9.8079,1010.9408],[24.0401,-9.7851,1010.8941],[24.047,-9.7761,1010.5898],[24.0643,-9.7592,1009.7174],[24.0716,-9.747,1009.8928],[24.082,-9.7364,1009.4916],[24.1065,-9.7229,1008.512],[24.1097,-9.7185,1009.1807],[24.1136,-9.702,1007.3502],[24.1124,-9.6926,1007.2767],[24.1195,-9.6746,1007.0149],[24.1187,-9.667,1006.8364],[24.13,-9.6495,1006.2556],[24.132,-9.643,1005.9971],[24.1296,-9.6263,1005.9959],[24.1198,-9.6084,1012.2269],[24.1179,-9.5997,1023.6814],[24.1212,-9.576,1005.069],[24.131,-9.547,1004.101],[24.1514,-9.5046,1007.0575],[24.1529,-9.4848,1008.9461],[24.1566,-9.4811,1004.7839],[24.1627,-9.459,991.2307],[24.1622,-9.453,991.9628],[24.1578,-9.4422,981.5842],[24.1517,-9.4342,992.603],[24.1501,-9.4276,996.7114],[24.1461,-9.4225,981.2526],[24.1456,-9.4182,984.086],[24.1518,-9.3995,985.0717],[24.1434,-9.3897,978.7333],[24.1419,-9.3849,975.5566],[24.1447,-9.3741,974.4829],[24.1404,-9.3628,974.9094],[24.136,-9.3592,980.7636],[24.148,-9.353,1012.7322],[24.15,-9.3487,1021.9479],[24.1481,-9.3387,1029.021],[24.1512,-9.3357,1050.0052],[24.1858,-9.3037,1087.0986],[24.1953,-9.3069,1082.0562],[24.2078,-9.3152,1080.3069],[24.2115,-9.3204,1075.9193],[24.2153,-9.3212,1078.4532],[24.2181,-9.3176,1078.0885],[24.2249,-9.314,1071.1241],[24.229,-9.314,1074.7748],[24.2333,-9.3109,1072.1827],[24.2391,-9.3039,1070.5964],[24.2466,-9.289,1071.7384],[24.2514,-9.2849,1079.603],[24.2573,-9.2816,1091.8391],[24.2634,-9.2813,1086.9739],[24.2684,-9.2757,1074.9873],[24.2926,-9.2737,1076.2336],[24.3003,-9.2703,1079.0706],[24.3299,-9.2705,1080.8568],[24.3782,-9.2802,1076.431],[24.3864,-9.2851,1069.926],[24.389,-9.2883,1069.8998],[24.3969,-9.2885,1070.6652],[24.4023,-9.2967,1070.3612],[24.411,-9.3033,1078.6726],[24.4304,-9.3034,1077.6747],[24.4376,-9.301,1062.9564],[24.461,-9.2998,1060.5133],[24.5368,-9.3006,1026.9553],[24.5525,-9.2947,1063.7178],[24.5701,-9.2935,1084.1167],[24.5734,-9.2909,1076.8215],[24.5753,-9.2774,1080.8047],[24.5696,-9.2682,1072.6841],[24.5643,-9.266,1078.1659],[24.5542,-9.2566,1080.0033],[24.5404,-9.2528,1089.3984],[24.5292,-9.2544,1092.6462],[24.5195,-9.2523,1085.551],[24.5141,-9.2486,1092.26],[24.5057,-9.2469,1095.2588],[24.4967,-9.2425,1092.1925],[24.489,-9.2351,1066.3804],[24.4892,-9.219,1068.1991],[24.4824,-9.2137,1068.5479],[24.4736,-9.2034,1069.6455],[24.4666,-9.2012,1071.0596],[24.4548,-9.202,1080.275],[24.4508,-9.1912,1072.4397],[24.4452,-9.183,1072.7817],[24.4347,-9.1764,1074.8438],[24.4136,-9.1682,1079.9006],[24.3946,-9.1573,1090.3818],[24.3869,-9.1484,1079.3894],[24.3809,-9.1443,1078.9556],[24.3726,-9.1425,1078.3958],[24.3596,-9.1366,1077.0042],[24.3503,-9.1298,1077.4712],[24.3443,-9.1289,1076.8103],[24.3366,-9.1253,1075.6222],[24.3236,-9.1132,1086.9412],[24.3158,-9.0882,1081.2371],[24.3056,-9.079,1069.3359],[24.2854,-9.0674,1069.8071],[24.2742,-9.0572,1071.1838],[24.2668,-9.0453,1071.7244],[24.2515,-9.0079,1032.1736],[24.2538,-9.0008,1046.9253],[24.2505,-8.9923,1022.3535],[24.2521,-8.9849,1031.5496],[24.2497,-8.9799,1025.0754],[24.2455,-8.9762,1021.33],[24.2238,-8.9669,1030.9021],[24.2214,-8.9617,1031.8901],[24.2119,-8.9548,1011.2744],[24.193,-8.9558,997.7411],[24.1754,-8.949,1000.551],[24.1657,-8.9489,995.4768],[24.1582,-8.9448,994.1188],[24.1469,-8.9423,991.6177],[24.106,-8.9365,983.8104],[24.0979,-8.938,976.3401],[24.0962,-8.9325,982.0112],[24.0992,-8.9242,985.0564],[24.1106,-8.9131,984.83],[24.1103,-8.9093,1014.708],[24.1061,-8.9031,1010.0999],[24.0997,-8.8967,992.0141],[24.0884,-8.8913,1033.7222],[24.0739,-8.8885,1078.2632],[24.0432,-8.8585,1028.6226],[24.0139,-8.8326,1002.9704],[24.008,-8.8296,1003.1038],[24.0005,-8.822,991.6193],[23.9959,-8.8197,977.645],[23.9912,-8.8128,972.1628],[23.9829,-8.8069,961.342],[23.9801,-8.8028,961.7705],[23.9772,-8.7865,945.0227],[23.973,-8.7785,927.7471],[23.9686,-8.7771,926.2242],[23.9497,-8.7788,922.1076],[23.9428,-8.7765,926.266],[23.9354,-8.7701,919.954],[23.9333,-8.7754,916.8746],[23.9298,-8.7782,917.5366],[23.9227,-8.7782,916.5908],[23.9112,-8.7905,923.4723],[23.8987,-8.7797,963.5565],[23.8715,-8.7878,984.0703],[23.8581,-8.7869,996.426],[23.8376,-8.7848,998.713],[23.8201,-8.7793,984.4188],[23.8051,-8.7769,1019.4526],[23.7717,-8.7771,1050.5007],[23.755,-8.7686,1089.9072],[23.7484,-8.767,1109.8357],[23.729,-8.7813,1093.9714],[23.6763,-8.8614,1098.2692],[23.6543,-8.8907,1089.892],[23.6559,-8.9185,1082.6102],[23.6517,-8.956,1080.6091],[23.6542,-8.986,1096.7622],[23.6677,-9.0238,1104.2646],[23.6697,-9.0356,1108.0312],[23.6908,-9.0657,1088.9366],[23.6964,-9.0765999999999991,1093.0732],[23.7029,-9.0994,1106.8396],[23.7021,-9.1112,1063.8708],[23.6821,-9.1111,1108.333],[23.663,-9.1075,1077.7742],[23.6003,-9.1055,1093.531],[23.5884,-9.0918,1093.7086],[23.5746,-9.0718,1096.9381],[23.5601,-9.0763,1094.3485],[23.5403,-9.098,1096.5363],[23.5358,-9.1007,1096.575],[23.5216,-9.0452,1100.5833],[23.5098,-9.0398,1101.1244],[23.4543,-9.0579,1096.8467],[23.4522,-9.0657,1078.5146],[23.4471,-9.0733,1085.9926],[23.4412,-9.0784,1060.9689],[23.4241,-9.0858,1102.6292],[23.4176,-9.0913,1105.5116],[23.4118,-9.0978,1096.2487],[23.4049,-9.1102,1091.9039],[23.4029,-9.124,1090.9651],[23.4062,-9.1327,1074.4384],[23.4106,-9.1405,1085.3044],[23.4217,-9.152,1083.2356],[23.4247,-9.1602,1101.9691],[23.4195,-9.205,1096.3193],[23.4288,-9.235,1106.5336],[23.4217,-9.2514,1099.3574],[23.4291,-9.2659,1098.8718],[23.4219,-9.2741,1095.235],[23.4158,-9.3086,1096.7347],[23.4049,-9.3095,1097.2017],[23.3561,-9.333,1104.5746],[23.3406,-9.3347,1093.2281],[23.3207,-9.3411,1091.2252],[23.3114,-9.3219,1099.1857],[23.3,-9.2565,1103.9442],[23.2723,-9.2137,1099.1377],[23.2549,-9.1955,1090.1938],[23.2447,-9.1682,1098.4761],[23.256,-9.11,1112.053],[23.2694,-9.08,1109.0437],[23.2707,-9.0209,1107.7122],[23.265,-9.0018,1091.0674],[23.156,-8.9961,1097.9321],[23.1359,-8.9842,1069.6865],[23.1188,-9.0042,1058.1066],[23.117,-9.0123,1058.2216],[23.0974,-9.017,1096.9587],[23.0761,-9.0095,1066.4569],[23.0697,-9.0013,1063.2032],[23.0442,-8.9903,1038.4551],[23.0249,-8.9896,1026.3684],[23.0198,-9.0064,1044.0018],[23.028,-9.0406,1048.2999],[23.0162,-9.0418,1039.0574],[22.9908,-9.0129,1082.8029],[22.9805,-9.0079,1094.8751],[22.97,-9.0067,1092.3915],[22.9638,-9.0174,1095.2015],[22.9534,-9.021,1092.146],[22.8483,-9.0098,1067.2909],[22.8326,-9.0075,1078.8049],[22.821,-8.999,1093.9525],[22.811,-8.9754,1094.7998],[22.7146,-8.9712,1066.2805],[22.7051,-8.9733,1068.8108],[22.6913,-8.9814,982.7225],[22.6809,-8.9818,992.6024],[22.6684,-8.9798,949.9385],[22.6483,-8.9665,948.3898],[22.6318,-8.9733,958.7742],[22.6259,-8.9819,920.2305],[22.6144,-8.9883,905.8921],[22.5835,-8.9951,872.6489],[22.5825,-9.0007,865.3033],[22.5775,-9.0094,861.2393],[22.5765,-9.0195,854.5573],[22.5738,-9.0234,863.4996],[22.5731,-9.028,855.2932],[22.5655,-9.0334,857.4563],[22.5496,-9.0349,877.1664],[22.489,-9.0345,993.1656],[22.4762,-9.0302,1059.3499],[22.4538,-9.016,1088.9406],[22.41,-8.9693,1065.7981],[22.3888,-8.9517,1082.4265],[22.3631,-8.9542,1046.2271],[22.3531,-8.9521,1048.9019],[22.3409,-8.9302,955.7397],[22.33,-8.9058,972.6071],[22.3241,-8.884,965.9228],[22.3109,-8.8535,949.7034],[22.3038,-8.8446,972.3138],[22.2999,-8.8421,980.6735],[22.2915,-8.8448,1010.6768],[22.2744,-8.8589,1010.1588],[22.2747,-8.8984,993.3286],[22.2714,-8.9037,1016.7045],[22.2105,-8.8776,1070.4938],[22.1627,-8.8156,1053.1318],[22.154,-8.8049,1060.5067],[22.1476,-8.8003,1059.8296],[22.1383,-8.7994,1055.8411],[22.1244,-8.8005,1028.6874],[22.0886,-8.7824,970.182],[22.0703,-8.7364,955.0173],[22.0552,-8.6765,915.3638],[22.0488,-8.6685,875.0187],[22.0438,-8.6683,870.7922],[22.035,-8.6773,870.1716],[22.0255,-8.6837,886.8062],[22.0164,-8.6832,938.3202],[22.0079,-8.6734,946.7549],[21.9988,-8.6686,974.0149],[21.9597,-8.6628,966.2843],[21.9173,-8.6682,854.0349],[21.9074,-8.6981,900.9496],[21.9018,-8.708,904.9365],[21.8987,-8.719,865.6311],[21.8982,-8.7407,864.5376],[21.903,-8.7669,855.7518],[21.8979,-8.7788,869.9461],[21.8944,-8.8039,870.6516],[21.881,-8.8316,867.6597],[21.8832,-8.8413,872.3933],[21.8717,-8.8575,886.2877],[21.8684,-8.8682,871.2918],[21.8706,-8.8834,879.1957],[21.8589,-8.9083,877.4298],[21.8634,-8.9162,878.651],[21.8659,-8.928,893.4174],[21.8576,-8.9612,872.1361],[21.8537,-9.0064,879.135],[21.8494,-9.018,873.7841],[21.8523,-9.0342,879.7074],[21.8621,-9.0515,898.7073],[21.8581,-9.0555,902.2183],[21.8516,-9.0572,903.4373],[21.8434,-9.0681,904.4547],[21.8428,-9.0812,899.4189],[21.8437,-9.1205,904.3293],[21.849,-9.1444,893.6372],[21.8607,-9.1708,917.0848],[21.8631,-9.203,917.6111],[21.859,-9.2372,923.8671],[21.8575,-9.2425,928.3293],[21.8478,-9.2573,924.7797],[21.8388,-9.286,912.8269],[21.8285,-9.2981,917.7987],[21.8268,-9.3213,929.748],[21.8184,-9.3293,938.9256],[21.809,-9.3546,915.5666],[21.8119,-9.3639,938.7659],[21.8047,-9.3903,939.2601],[21.8027,-9.4069,958.8275],[21.7973,-9.4117,946.5053],[21.7941,-9.4209,921.994],[21.798,-9.4303,948.9205],[21.822,-9.4522,928.2748],[21.8294,-9.4571,926.741],[21.8348,-9.465,936.6969],[21.835,-9.4714,935.176],[21.8303,-9.489,933.968],[21.8354,-9.5154,933.1028],[21.8441,-9.5311,931.7711],[21.846,-9.5378,930.7094],[21.8642,-9.5545,930.3861],[21.8681,-9.5661,936.5529],[21.8677,-9.5817,932.6016],[21.8646,-9.5926,940.7139],[21.8721,-9.6057,938.9042],[21.8754,-9.615,956.4443],[21.8711,-9.623,947.0797],[21.871,-9.6262,931.7295],[21.8744,-9.6284,932.4954],[21.8802,-9.6508,934.9347],[21.8856,-9.6545,944.7702],[21.8948,-9.6568,943.4922],[21.899,-9.6605,942.2202],[21.8985,-9.6682,940.8204],[21.9171,-9.682,941.5519],[21.9342,-9.6868,942.0883],[21.9383,-9.6916,942.8882],[21.941,-9.7098,943.1169],[21.9443,-9.713,943.24],[21.9518,-9.7152,942.4445],[21.9592,-9.7259,946.0573],[21.969,-9.731,943.6949],[21.9775,-9.76,944.8088],[21.9817,-9.7639,970.0724],[21.9858,-9.7641,968.95],[21.9956,-9.7536,951.481],[22.0014,-9.753,946.0079],[22.0062,-9.7573,951.335],[22.0064,-9.7636,949.2217],[22.0022,-9.7846,945.254],[22.0038,-9.789,946.6672],[22.0077,-9.7923,946.9276],[22.0124,-9.8158,947.48],[22.0245,-9.8338,950.2591],[22.0349,-9.8371,950.92],[22.0432,-9.8353,946.821],[22.0546,-9.8524,949.164],[22.065,-9.8614,952.8029],[22.0709,-9.8719,949.8914],[22.0755,-9.8765,949.042],[22.0918,-9.8819,954.244],[22.0959,-9.8814,953.1016],[22.1112,-9.8729,950.3381],[22.117,-9.8741,952.971],[22.1239,-9.8794,951.6658],[22.1265,-9.8866,951.0607],[22.1295,-9.8893,949.7714],[22.136,-9.8907,951.9066],[22.1439,-9.8882,951.5706],[22.1511,-9.8904,951.1402],[22.1672,-9.9058,951.1252],[22.185,-9.9169,951.2471],[22.1915,-9.9285,950.5415],[22.1906,-9.9404,951.4152],[22.2013,-9.9614,954.0128],[22.202,-9.9724,952.4565],[22.2064,-9.9864,967.4396],[22.1982,-9.9989,954.4414],[22.2014,-10.0061,954.3464],[22.2099,-10.014,954.3367],[22.2175,-10.0171,970.1614],[22.2183,-10.0228,976.5803],[22.2125,-10.0365,966.5297],[22.2132,-10.0425,958.3289],[22.2245,-10.0696,965.998],[22.2213,-10.0823,968.0806]]]]}
,"properties": {"GID_2": "COD.15.7_1","GID_0": "COD","country": "DemocraticRepublicoftheCongo","GID_1": "COD.15_1","province": "Lualaba","NL_NAME_1": "NA","county": "Sandoa","VARNAME_2": "NA","NL_NAME_2": "NA","TYPE_2": "Territoire","ENGTYPE_2": "Territory","CC_2": "NA","HASC_2": "NA","name": "Sandoa.county","area_km2": 29713.49,"hist_schema_id": "Elevation0-9000","hist_area_km2": {"850": 29.08,"875": 236.01,"900": 1149.61,"925": 1805.12,"950": 2493.51,"975": 3431.26,"1000": 3418.66,"1025": 3249.02,"1050": 4092.25,"1075": 6116.88,"1100": 3638.23,"1125": 53.79}}}