{"type": "Feature","bbox": [23.3641,-6.419,23.7672,-5.6286],"geometry": {"type": "MultiPolygon","coordinates": [[[[23.398,-5.7819,473.1779],[23.4026,-5.7861,473.1268],[23.4102,-5.7854,488.9415],[23.4129,-5.7895,488.7932],[23.4106,-5.7983,500.532],[23.4138,-5.804,503.7675],[23.4007,-5.8141,542.9684],[23.3986,-5.8217,546.173],[23.3991,-5.8265,545.3016],[23.4018,-5.8295,510.6455],[23.4009,-5.8376,525.9178],[23.406,-5.8357,507.1623],[23.4096,-5.8475,538.9792],[23.4121,-5.8643,517.4658],[23.4087,-5.8868,509.3358],[23.4098,-5.8948,537.3014],[23.4158,-5.8944,501.1325],[23.4185,-5.9052,528.729],[23.4134,-5.9229,509.3504],[23.4091,-5.9284,530.6366],[23.4095,-5.933,541.6162],[23.4152,-5.945,544.5988],[23.415,-5.948,540.8627],[23.4083,-5.951,540.3606],[23.4058,-5.9556,536.799],[23.4053,-5.9638,539.2426],[23.4081,-5.9779,554.513],[23.4131,-5.9868,547.8376],[23.4212,-5.9905,541.2794],[23.4241,-5.9949,563.4879],[23.4306,-5.9974,546.6947],[23.4338,-6.0025,544.4391],[23.4317,-6.0064,573.9857],[23.4368,-6.0073,548.9816],[23.4365,-6.0133,570.2655],[23.4381,-6.0152,586.391],[23.4517,-6.0175,557.6052],[23.456,-6.0235,575.4995],[23.4593,-6.0239,566.1022],[23.4618,-6.0267,579.4521],[23.4678,-6.0267,584.8474],[23.4705,-6.0313,586.8184],[23.4714,-6.0377,620.3093],[23.4783,-6.0435,601.1494],[23.4811,-6.0481,624.1722],[23.4811,-6.0557,634.2829],[23.4778,-6.061,675.2627],[23.4587,-6.0734,669.969],[23.4426,-6.0869,695.7466],[23.4399,-6.0973,710.8682],[23.4398,-6.108,730.7388],[23.4322,-6.108,761.5739],[23.4085,-6.0858,699.4957],[23.4014,-6.0826,685.814],[23.3814,-6.0793,605.5015],[23.3726,-6.0757,599.4211],[23.3641,-6.0775,580.9293],[23.3707,-6.0797,589.1877],[23.3765,-6.0847,624.9282],[23.3797,-6.0953,631.655],[23.3819,-6.1167,653.8472],[23.3808,-6.1321,668.6643],[23.3837,-6.1494,695.8796],[23.3888,-6.1659,724.0799],[23.3848,-6.1813,656.205],[23.3853,-6.1914,740.7477],[23.3911,-6.2049,752.4703],[23.3923,-6.2126,779.9508],[23.4138,-6.2767,728.1001],[23.4216,-6.3199,628.9636],[23.424,-6.3233,613.4286],[23.4388,-6.3312,629.363],[23.4448,-6.3364,625.0278],[23.4568,-6.3509,606.911],[23.4754,-6.3663,577.5317],[23.477,-6.3723,586.3715],[23.4795,-6.373,586.4402],[23.4811,-6.3769,572.4045],[23.4871,-6.3765,581.2991],[23.4896,-6.3791,589.0449],[23.4981,-6.3806,570.9353],[23.5023,-6.3857,559.5968],[23.5088,-6.4026,552.9406],[23.5144,-6.4029,561.8317],[23.5152,-6.4042,550.4608],[23.5204,-6.4034,558.2547],[23.5245,-6.4068,546.2115],[23.5294,-6.4073,568.555],[23.531,-6.4186,553.2743],[23.5326,-6.419,547.1715],[23.5353,-6.4165,547.2594],[23.5395,-6.4066,571.0287],[23.5452,-6.4009,545.1793],[23.5404,-6.3956,539.4668],[23.54,-6.3917,547.4409],[23.5462,-6.3859,561.7823],[23.5519,-6.3728,566.9926],[23.5577,-6.371,558.0511],[23.5625,-6.3554,537.4529],[23.5678,-6.3506,539.3786],[23.5697,-6.3455,531.9647],[23.5676,-6.3414,534.5093],[23.5598,-6.3412,565.7269],[23.5593,-6.3394,564.5717],[23.5659,-6.3358,535.7657],[23.5701,-6.3266,556.0748],[23.5771,-6.3207,553.6022],[23.5764,-6.3188,556.8623],[23.569,-6.3142,527.9387],[23.5679,-6.3111,548.4992],[23.5704,-6.3062,532.1136],[23.5679,-6.289,544.8463],[23.5718,-6.2658,526.9613],[23.5762,-6.2574,529.1661],[23.5826,-6.259,525.2169],[23.5863,-6.2542,524.8038],[23.5919,-6.2522,524.6532],[23.5893,-6.247,551.999],[23.5782,-6.2478,538.3245],[23.5833,-6.2357,525.9996],[23.5838,-6.2297,525.3293],[23.5906,-6.228,527.947],[23.5937,-6.2327,525.4269],[23.5994,-6.2319,523.5579],[23.6028,-6.2214,526.3761],[23.6103,-6.2127,530.8983],[23.6137,-6.2053,533.865],[23.6151,-6.1957,525.5188],[23.6243,-6.1844,518.7013],[23.631,-6.1723,529.3865],[23.6286,-6.1717,537.8046],[23.6135,-6.1573,561.4241],[23.6041,-6.1552,556.8693],[23.574,-6.1538,605.2516],[23.5533,-6.1655,589.7289],[23.5464,-6.1652,607.0004],[23.5309,-6.1579,601.5731],[23.5385,-6.1297,718.593],[23.5388,-6.1192,726.2047],[23.5348,-6.1006,718.4615],[23.5354,-6.0805,697.543],[23.5368,-6.0645,663.7965],[23.5421,-6.0527,637.9844],[23.5472,-6.0506,637.0404],[23.5549,-6.0503,610.1221],[23.5734,-6.054,573.0118],[23.5769,-6.0593,567.3002],[23.5792,-6.0699,556.7881],[23.6058,-6.0867,552.657],[23.6148,-6.0892,541.0343],[23.6313,-6.0881,544.5978],[23.6426,-6.0835,525.5137],[23.6577,-6.0849,515.6515],[23.6637,-6.0886,510.2421],[23.6682,-6.0987,505.5923],[23.6732,-6.0966,507.3122],[23.686,-6.0969,504.6018],[23.6892,-6.0953,505.5661],[23.692,-6.0965,504.6026],[23.6931,-6.1006,518.3322],[23.6961,-6.1004,504.6199],[23.6989,-6.0953,505.9422],[23.6908,-6.0788,505.7731],[23.6984,-6.0704,501.2122],[23.7008,-6.0618,502.7706],[23.704,-6.0581,507.7635],[23.7023,-6.0486,502.2047],[23.7044,-6.0473,501.5014],[23.7096,-6.048,504.7955],[23.7114,-6.0456,501.0599],[23.7076,-6.0308,499.9264],[23.7086,-6.0291,499.9704],[23.7155,-6.0303,499.3722],[23.7217,-6.0363,501.3383],[23.726,-6.0365,493.811],[23.7299,-6.0324,490.2582],[23.7373,-6.0358,493.5478],[23.7465,-6.0311,522.3869],[23.7485,-6.0216,512.2912],[23.7443,-6.0159,485.9953],[23.743,-6.008,484.663],[23.7389,-6.0034,487.1412],[23.7364,-5.9977,488.662],[23.7369,-5.9953,498.0725],[23.7504,-5.9866,487.0039],[23.7541,-5.9797,485.0641],[23.7596,-5.9763,487.9481],[23.7621,-5.9694,535.8021],[23.7672,-5.9625,484.6915],[23.7668,-5.9584,469.1458],[23.764,-5.9551,463.2655],[23.7562,-5.9544,465.2171],[23.7507,-5.9505,486.84],[23.7486,-5.9452,488.856],[23.7493,-5.9388,505.0191],[23.7477,-5.9275,488.0627],[23.7489,-5.9227,473.7692],[23.7539,-5.9193,501.2333],[23.7571,-5.914,475.5887],[23.7505,-5.8972,467.1199],[23.7477,-5.8935,459.5],[23.7305,-5.8944,474.8432],[23.7289,-5.8916,469.7136],[23.7351,-5.8818,476.0813],[23.734,-5.8792,459.0],[23.7324,-5.8797,491.7702],[23.7202,-5.8707,459.0],[23.7138,-5.8702,464.3537],[23.7078,-5.8658,488.2689],[23.7041,-5.8564,483.2648],[23.7002,-5.8532,479.0617],[23.6924,-5.8417,484.1605],[23.6917,-5.8366,498.651],[23.6957,-5.8272,477.1257],[23.6945,-5.8081,485.5179],[23.6973,-5.8047,475.6208],[23.7037,-5.8012,572.2913],[23.7097,-5.8008,485.9572],[23.7108,-5.7985,456.5],[23.7065,-5.7929,512.4519],[23.7074,-5.7872,537.1797],[23.7161,-5.7842,594.2944],[23.7184,-5.7799,534.8838],[23.7221,-5.7801,486.0167],[23.7251,-5.7748,459.4174],[23.7244,-5.7725,454.0],[23.7191,-5.7688,462.9441],[23.7187,-5.7666,472.5842],[23.712,-5.7635,462.521],[23.7104,-5.7585,493.7036],[23.712,-5.7527,458.0071],[23.7203,-5.7504,466.9043],[23.7261,-5.7392,455.1147],[23.735,-5.7139,473.875],[23.7337,-5.7047,453.3369],[23.7378,-5.6932,536.7142],[23.7323,-5.6851,462.4074],[23.7257,-5.6812,470.284],[23.7247,-5.6757,448.0],[23.7305,-5.6628,497.0836],[23.7447,-5.6509,490.0949],[23.748,-5.6499,468.7701],[23.7509,-5.646,445.0],[23.7507,-5.6426,509.1006],[23.7457,-5.6341,585.5327],[23.7091,-5.6287,687.6262],[23.6757,-5.6286,734.5399],[23.6599,-5.641,701.7533],[23.6476,-5.6413,733.5112],[23.638,-5.6434,690.4685],[23.6304,-5.6521,671.5247],[23.6117,-5.6592,629.3553],[23.5899,-5.6879,596.5245],[23.5809,-5.6923,536.6832],[23.5768,-5.6916,573.7941],[23.5715,-5.6881,559.5208],[23.5667,-5.6883,517.0207],[23.5619,-5.6835,565.4489],[23.552,-5.6812,560.2371],[23.5474,-5.681,551.6683],[23.5389,-5.6862,548.834],[23.5274,-5.686,545.9327],[23.5196,-5.6828,557.3861],[23.5102,-5.6823,488.2335],[23.5046,-5.6838,495.5719],[23.4984,-5.6945,548.0984],[23.4917,-5.716,516.649],[23.4839,-5.7341,566.8884],[23.4785,-5.7417,568.7158],[23.4723,-5.7455,587.9176],[23.4573,-5.7471,622.291],[23.4293,-5.7441,512.155],[23.4247,-5.7474,503.5682],[23.4169,-5.7662,496.856],[23.4069,-5.7725,498.838],[23.398,-5.7819,473.1779]]]]}
,"properties": {"GID_2": "COD.8.4_1","GID_0": "COD","country": "DemocraticRepublicoftheCongo","GID_1": "COD.8_1","province": "Kasaï-Oriental","NL_NAME_1": "NA","county": "Lupatapata","VARNAME_2": "NA","NL_NAME_2": "NA","TYPE_2": "Territoire","ENGTYPE_2": "Territory","CC_2": "NA","HASC_2": "NA","name": "Lupatapata.county","area_km2": 2109.448,"hist_schema_id": "Elevation0-9000","hist_area_km2": {"450": 5.337,"475": 25.986,"500": 80.59,"525": 156.823,"550": 180.045,"575": 169.017,"600": 182.701,"625": 208.846,"650": 222.643,"675": 220.87,"700": 236.076,"725": 203.717,"750": 116.186,"775": 46.706,"800": 16.134,"825": 14.679,"850": 8.879,"875": 14.214}}}