{"type": "Feature","bbox": [18.4895,-1.4247,20.2838,-0.0125],"geometry": {"type": "MultiPolygon","coordinates": [[[[18.793,-0.822,368.414],[18.8824,-0.8153,353.9601],[18.8975,-0.8174,385.6209],[18.9278,-0.8264,355.4337],[18.9483,-0.8282,367.5804],[18.9524,-0.8263,363.9368],[19.0,-0.8195,369.8706],[19.0097,-0.8161,370.3553],[19.0363,-0.7922,339.3382],[19.0562,-0.7868,332.8653],[19.0606,-0.7836,333.2939],[19.0691,-0.7722,332.2327],[19.0786,-0.7507,332.5104],[19.0816,-0.736,342.5049],[19.0904,-0.7405,339.2679],[19.1029,-0.7561,333.1014],[19.1218,-0.7746,327.6815],[19.1399,-0.7972,328.4681],[19.1829,-0.8744,337.8406],[19.1903,-0.8927,337.2552],[19.1974,-0.9285,333.3059],[19.2016,-0.9902,347.4388],[19.2068,-1.0406,354.9889],[19.2116,-1.0484,363.9298],[19.2168,-1.0521,360.5695],[19.2718,-1.0529,345.5995],[19.281,-1.0562,350.0154],[19.2884,-1.0609,348.1058],[19.301,-1.0772,343.6652],[19.3114,-1.104,342.8277],[19.337,-1.186,342.8636],[19.3503,-1.2135,345.935],[19.3774,-1.2884,328.4109],[19.3918,-1.3441,324.433],[19.4157,-1.3941,327.6563],[19.4272,-1.4228,324.1511],[19.4334,-1.4247,327.5531],[19.4388,-1.4096,329.2922],[19.4463,-1.3977,330.8359],[19.4836,-1.3207,356.9755],[19.5043,-1.2828,350.0928],[19.5144,-1.2571,353.4493],[19.5243,-1.2452,333.9342],[19.5339,-1.2368,334.0031],[19.5388,-1.2292,344.0636],[19.5452,-1.2263,342.1297],[19.5569,-1.2098,346.0576],[19.5895,-1.1833,357.3746],[19.5987,-1.1767,347.1399],[19.6104,-1.1711,336.7981],[19.6125,-1.1596,337.9174],[19.6106,-1.1352,334.0941],[19.6153,-1.109,332.7493],[19.607,-1.0814,337.6113],[19.612,-1.0467,336.2686],[19.6072,-1.0456,337.9816],[19.6061,-1.0421,338.9759],[19.6077,-1.0368,338.3302],[19.6107,-1.0339,337.724],[19.6097,-1.0139,315.5],[19.6017,-0.978,331.931],[19.6109,-0.9755,330.2891],[19.6521,-0.978,337.5482],[19.6786,-0.9853,342.1691],[19.6886,-0.9921,341.1432],[19.6876,-1.0081,351.7507],[19.6733,-1.0359,345.418],[19.6712,-1.0499,344.0416],[19.6716,-1.0597,341.9411],[19.6787,-1.0904,346.9832],[19.6843,-1.1037,348.2008],[19.6845,-1.1095,345.7455],[19.6794,-1.1246,349.7317],[19.6798,-1.1306,350.1163],[19.6845,-1.1449,350.8344],[19.682,-1.1559,348.0388],[19.6956,-1.159,343.679],[19.7036,-1.1629,353.7688],[19.7113,-1.1705,338.2494],[19.7248,-1.1713,347.7836],[19.7612,-1.1578,338.2926],[19.8098,-1.1565,331.5331],[19.848,-1.1576,337.0062],[19.863,-1.1393,342.9031],[19.8822,-1.1307,344.4973],[19.9015,-1.1115,344.9028],[19.9093,-1.1074,373.4843],[19.9155,-1.1063,365.5512],[19.9285,-1.1075,352.4409],[19.9482,-1.098,377.582],[19.9571,-1.0971,369.4088],[19.9719,-1.0983,372.265],[19.9854,-1.0947,382.5232],[20.005,-1.0958,371.3182],[20.0126,-1.0921,351.1331],[20.0497,-1.0809,355.4106],[20.0808,-1.0666,385.1075],[20.0922,-1.0655,349.9965],[20.1186,-1.0438,348.2081],[20.1346,-1.0391,341.4609],[20.1488,-1.0327,344.8638],[20.1566,-1.0265,342.2251],[20.1619,-1.0185,348.5757],[20.1594,-1.0132,340.8398],[20.1444,-0.9987,344.0541],[20.1376,-0.9874,340.4182],[20.1349,-0.9786,339.2492],[20.135,-0.9717,339.3271],[20.1375,-0.9616,343.9278],[20.1362,-0.95009999999999994,332.3922],[20.1374,-0.9451,341.4362],[20.1539,-0.9312,341.6749],[20.1599,-0.9232,340.8769],[20.1668,-0.9032,353.89],[20.1873,-0.8808,346.9777],[20.1919,-0.8721,349.3976],[20.1924,-0.8666,350.272],[20.1904,-0.8588,357.416],[20.1945,-0.8487,364.5432],[20.1918,-0.8397,367.7076],[20.201,-0.8262,356.4571],[20.2176,-0.8109,363.927],[20.2206,-0.8059,363.9283],[20.2234,-0.7912,348.5709],[20.2254,-0.7877,350.7176],[20.244,-0.772,344.9597],[20.2544,-0.758,353.0535],[20.2648,-0.7197,343.5192],[20.2665,-0.7055,344.0601],[20.2724,-0.6938,342.1456],[20.2726,-0.6841,338.1725],[20.2752,-0.6726,343.2848],[20.277,-0.6698,341.7618],[20.2838,-0.6656,348.4835],[20.2809,-0.6603,345.1227],[20.2713,-0.6506,345.9667],[20.2601,-0.6503,344.4214],[20.2556,-0.6482,343.9234],[20.255,-0.6402,343.9149],[20.2495,-0.6353,340.7296],[20.2467,-0.6244,350.9386],[20.2399,-0.617,340.065],[20.2342,-0.614,341.9163],[20.2264,-0.6028,342.9055],[20.2246,-0.603,342.6543],[20.2209,-0.6106,342.7141],[20.2181,-0.6115,341.439],[20.2038,-0.5979,338.9977],[20.1956,-0.596,340.1439],[20.1914,-0.5934,323.0524],[20.1883,-0.5934,325.6676],[20.1837,-0.5996,321.453],[20.1805,-0.6,334.3754],[20.176,-0.5975,339.9274],[20.1737,-0.5933,337.6175],[20.1749,-0.5768,337.1926],[20.1574,-0.5611,335.5423],[20.1563,-0.5576,339.1471],[20.1639,-0.551,333.1218],[20.155,-0.5427,327.7227],[20.1535,-0.5372,337.9149],[20.1555,-0.5285,337.7297],[20.1464,-0.5263,337.5546],[20.1414,-0.5212,336.1309],[20.1298,-0.5152,336.6785],[20.1235,-0.5099,337.077],[20.1205,-0.506,335.9338],[20.1194,-0.4956,336.4743],[20.1211,-0.4883,337.9236],[20.1142,-0.4848,336.9976],[20.1095,-0.4797,333.212],[20.101,-0.4838,331.4681],[20.0974,-0.4815,330.4723],[20.0941,-0.4667,327.5455],[20.0962,-0.458,330.5928],[20.0928,-0.4452,328.2488],[20.0999,-0.4388,335.9959],[20.1054,-0.4188,338.2234],[20.1114,-0.4094,338.0237],[20.1088,-0.3924,333.6494],[20.0863,-0.3737,330.7964],[20.0715,-0.3637,331.4913],[20.0701,-0.3501,331.0993],[20.0643,-0.3426,331.7982],[20.0673,-0.3348,331.9708],[20.0548,-0.3253,330.7164],[20.0542,-0.312,330.4102],[20.0524,-0.3071,329.8992],[20.0497,-0.3067,330.0247],[20.0439,-0.3112,329.6349],[20.0408,-0.3116,329.4213],[20.0382,-0.3116,329.509],[20.0307,-0.3068,329.1595],[20.0257,-0.3068,328.7876],[20.0166,-0.3125,328.2021],[20.0109,-0.3113,328.5151],[19.9952,-0.3011,330.5771],[19.9952,-0.2967,332.8326],[19.9911,-0.2971,330.2144],[19.987,-0.2932,333.9852],[19.9784,-0.2782,327.5725],[19.9748,-0.2762,328.2189],[19.9683,-0.2841,327.3976],[19.9658,-0.283,328.4676],[19.9602,-0.2756,323.8186],[19.9435,-0.2739,329.206],[19.9393,-0.2615,320.4422],[19.9333,-0.2585,326.4835],[19.9254,-0.2577,338.1411],[19.9242,-0.2556,340.2163],[19.9254,-0.2485,329.0609],[19.9227,-0.2425,331.8029],[19.9275,-0.2361,335.7819],[19.9287,-0.229,335.1353],[19.9208,-0.2175,332.2052],[19.9181,-0.206,324.9323],[19.9118,-0.1901,334.4595],[19.9077,-0.1896,335.4995],[19.9017,-0.2029,325.6629],[19.898,-0.2057,325.213],[19.893,-0.2049,325.7727],[19.8883,-0.1885,325.5541],[19.886,-0.1855,325.3969],[19.8838,-0.186,325.4325],[19.875,-0.1991,325.0697],[19.8716,-0.2005,324.9087],[19.8638,-0.1995,325.2383],[19.8602,-0.1956,324.7524],[19.8585,-0.1804,323.538],[19.8539,-0.1774,325.3039],[19.8432,-0.1778,327.9757],[19.8318,-0.1699,330.6225],[19.823,-0.1666,330.3433],[19.7787,-0.1726,328.6405],[19.76,-0.1717,331.9552],[19.7454,-0.168,325.8054],[19.7329,-0.1558,326.5962],[19.7275,-0.1459,328.0099],[19.7241,-0.1435,329.5956],[19.7168,-0.1433,328.7479],[19.6976,-0.1482,329.5186],[19.6928,-0.1463,328.4306],[19.6878,-0.1417,327.0569],[19.6808,-0.1304,326.1468],[19.6772,-0.1311,325.4922],[19.6764,-0.1347,325.2801],[19.6825,-0.1495,325.8226],[19.6813,-0.155,326.8008],[19.673,-0.1705,324.6881],[19.6664,-0.1737,323.4391],[19.6623,-0.1737,323.3397],[19.6578,-0.1675,322.9048],[19.6509,-0.1635,322.9019],[19.6446,-0.1529,322.6024],[19.635,-0.1512,325.2487],[19.6321,-0.148,325.7435],[19.6264,-0.1468,332.2877],[19.5987,-0.1547,325.7754],[19.5935,-0.1588,317.4133],[19.5798,-0.1589,329.9466],[19.5716,-0.1561,327.3499],[19.5643,-0.1513,329.315],[19.5596,-0.1439,330.5691],[19.5475,-0.1397,332.2987],[19.5416,-0.1339,333.056],[19.5301,-0.115,332.9973],[19.5217,-0.0965,333.7438],[19.5158,-0.0938,337.8271],[19.5095,-0.0949,335.3626],[19.4973,-0.1097,333.9572],[19.4913,-0.1095,336.7044],[19.4849,-0.1147,335.4575],[19.4764,-0.1302,326.8345],[19.4736,-0.1309,326.8836],[19.465,-0.1284,323.2155],[19.4619,-0.1194,334.5896],[19.4467,-0.1032,331.0246],[19.4435,-0.1029,331.6605],[19.4345,-0.1105,327.7159],[19.4224,-0.1097,331.6513],[19.4035,-0.1128,332.5056],[19.3844,-0.1324,324.6525],[19.355,-0.1341,324.5816],[19.3454,-0.1335,334.0616],[19.3404,-0.1301,334.3691],[19.334,-0.1312,331.1959],[19.3118,-0.1411,332.8142],[19.2958,-0.1516,331.566],[19.2899,-0.1536,332.6265],[19.2707,-0.1539,331.9456],[19.2531,-0.1616,324.2569],[19.2387,-0.1636,320.3535],[19.2286,-0.1676,324.0877],[19.2192,-0.1692,346.6125],[19.2136,-0.1678,340.9472],[19.2003,-0.1714,331.738],[19.1859,-0.1729,348.1003],[19.1823,-0.1703,337.003],[19.1563,-0.1717,340.915],[19.1332,-0.1766,327.2806],[19.1277,-0.1796,328.4524],[19.1238,-0.1855,328.876],[19.1221,-0.1924,329.8263],[19.1232,-0.2011,333.1256],[19.1266,-0.2092,324.5746],[19.1373,-0.2173,330.3789],[19.1399,-0.2234,331.9432],[19.1397,-0.2295,329.3307],[19.1373,-0.2356,326.33],[19.1283,-0.2386,322.7139],[19.1221,-0.2377,316.9735],[19.1005,-0.2285,324.699],[19.0877,-0.2172,321.8998],[19.0823,-0.2148,321.3974],[19.0761,-0.215,323.1262],[19.0725,-0.2178,323.7384],[19.0655,-0.2049,328.7101],[19.0728,-0.1705,332.4118],[19.0643,-0.1689,329.3744],[18.9983,-0.1464,330.5381],[18.9624,-0.1376,330.6309],[18.9533,-0.1317,330.7119],[18.9232,-0.1199,330.1495],[18.5924,-0.0125,317.5893],[18.5919,-0.0185,317.8402],[18.589,-0.0235,319.3056],[18.5882,-0.0332,321.0677],[18.5716,-0.0434,317.0687],[18.5634,-0.0515,319.108],[18.5589,-0.0627,322.9466],[18.5579,-0.0715,306.5299],[18.5702,-0.0762,307.4066],[18.569,-0.136,321.4338],[18.564,-0.1644,302.972],[18.5695,-0.1745,309.9342],[18.5666,-0.18,312.1505],[18.5669,-0.1986,323.4295],[18.5734,-0.2404,320.9245],[18.5666,-0.2563,306.5687],[18.5622,-0.2786,320.8343],[18.5584,-0.2876,321.7244],[18.5589,-0.2949,321.7798],[18.5544,-0.3048,321.4234],[18.5372,-0.3235,322.8026],[18.5297,-0.3596,324.8435],[18.5337,-0.375,325.6151],[18.5361,-0.3931,325.3295],[18.5312,-0.4088,324.0122],[18.4923,-0.4674,325.3302],[18.4895,-0.4892,329.1801],[18.4957,-0.4963,329.8781],[18.4985,-0.5107,330.5968],[18.4976,-0.5344,326.0111],[18.499,-0.5399,322.64],[18.5107,-0.5541,334.0625],[18.5137,-0.563,339.8309],[18.5159,-0.5834,332.9904],[18.491,-0.615,330.8332],[18.554,-0.672,341.2144],[18.648,-0.729,372.387],[18.793,-0.822,368.414]]]]}
,"properties": {"GID_2": "COD.2.6_1","GID_0": "COD","country": "DemocraticRepublicoftheCongo","GID_1": "COD.2_1","province": "Équateur","NL_NAME_1": "NA","county": "Ingende","VARNAME_2": "NA","NL_NAME_2": "NA","TYPE_2": "Territoire","ENGTYPE_2": "Territory","CC_2": "NA","HASC_2": "NA","name": "Ingende.county","area_km2": 17029.29,"hist_schema_id": "Elevation0-9000","hist_area_km2": {"300": 395.48,"325": 8095.79,"350": 7481.09,"375": 1006.62,"400": 50.24}}}