{"type":"Feature","properties":{"featurecla":"River","scalerank":8,"rivernum":778,"dissolve":"778River","name":"Lukenie2","name_alt":null,"note":null,"min_zoom":7.0,"strokeweig":0.25,"name_en":"Lukenie","min_label":8.0},
"geometry":{"type": "LineString","coordinates": [[18.941650390625,-3.2141903625058892,373.6106],[18.931640625,-3.21795012813088,373.2506],[18.9228515625,-3.22258880000588,370.476],[18.916406250000023,-3.22747161250588,340.0925],[18.913330078125,-3.2319638000058859,348.7374],[18.905175781250023,-3.22527434688088,361.5306],[18.896386718750023,-3.22087981563088,349.1153],[18.886621093750023,-3.2185848937558892,364.0927],[18.875732421875,-3.21770598750588,331.7239],[18.867431640625,-3.21233489375588,331.7695],[18.861230468750023,-3.18889739375588,356.6657],[18.85498046875,-3.18352630000588,327.7342],[18.845361328125023,-3.18523528438088,317.6801],[18.826171875,-3.19133880000588,319.7883],[18.817626953125,-3.19036223750588,321.8905],[18.808740234375023,-3.18401458125588,318.8693],[18.8046875,-3.1767880187558859,333.8359],[18.801904296875023,-3.16936614375588,320.4224],[18.796630859375,-3.16253020625588,321.7002],[18.765771484375023,-3.1455380187558859,316.5627],[18.753320312500023,-3.1352841125058859,314.5674],[18.748291015625,-3.1184872375058892,320.381],[18.742431640625,-3.10637786250588,320.2372],[18.697021484375,-3.0566708312558859,313.0007],[18.681396484375,-3.0498348937558859,347.3515],[18.647705078125,-3.05364348750588,308.722],[18.6328125,-3.0464169250058859,312.0312],[18.627587890625023,-3.0337216125058859,308.307],[18.620996093750023,-3.01018645625588,313.49],[18.617919921875,-2.9876278625058892,313.6458],[18.62255859375,-2.9775692687558859,323.8974],[18.620849609375,-2.9734677062558892,328.8641],[18.604882812500023,-2.9502255187558859,315.4597],[18.594140625000023,-2.94109465938088,333.7226],[18.587646484375,-2.9383114562558892,321.7169],[18.578125,-2.9365536437558859,328.6198],[18.536279296875023,-2.94255950313088,304.3603],[18.517578125,-2.9417294250058892,301.5074],[18.52294921875,-2.9297177062558859,296.5],[18.51708984375,-2.9209286437558859,296.5],[18.509521484375,-2.91448333125588,316.0242],[18.500146484375023,-2.91082122188088,314.174],[18.48876953125,-2.90984465938088,297.4537],[18.49853515625,-2.89275481563088,305.7101],[18.503076171875023,-2.8797177062558892,305.2369],[18.496826171875,-2.86785247188088,305.9506],[18.474511718750023,-2.85466887813088,317.4286],[18.484375,-2.8528622375058892,313.3909],[18.494775390625023,-2.84929778438088,305.6878],[18.501855468750023,-2.84343840938088,322.9321],[18.50244140625,-2.83416106563088,336.1968],[18.496240234375023,-2.8289364562558892,335.3796],[18.47412109375,-2.82781340938088,312.7447],[18.447021484375,-2.8169247375058859,318.7572],[18.40234375,-2.82000090938088,303.9061],[18.37890625,-2.8142880187558892,299.4718],[18.31689453125,-2.76604583125588,306.0388],[18.2998046875,-2.7591122375058892,327.8124],[18.2900390625,-2.76213958125588,299.9999],[18.270410156250023,-2.77581145625588,309.4783],[18.2587890625,-2.7788388000058859,295.5467],[18.247705078125023,-2.7737606750058892,331.4374],[18.237060546875,-2.74822356563088,322.3307],[18.22802734375,-2.7386044250058892,297.3826],[18.191064453125023,-2.74382903438088,293.9051],[18.1689453125,-2.74431731563088,292.1559],[18.1591796875,-2.73479583125588,290.5],[18.152490234375023,-2.7285458312558859,290.5]]}}