{"type":"Feature","properties":{"featurecla":"River","scalerank":6,"rivernum":282,"dissolve":"282River","name":"Kwango3","name_alt":null,"note":null,"min_zoom":5.0,"strokeweig":0.3,"name_en":"Kwango","min_label":6.0},
"geometry":{"type": "LineString","coordinates": [[16.577050781250023,-5.8904598937558887,478.1297],[16.582763671875,-5.88030364375588,386.4728],[16.601220703125023,-5.86003997188088,393.3656],[16.600341796875,-5.8562802062558887,399.5447],[16.589990234375023,-5.85198333125588,426.8185],[16.549072265625,-5.8221005187558887,417.4879],[16.56982421875,-5.81511809688088,385.1127],[16.578515625000023,-5.80999114375588,453.1161],[16.583251953125,-5.8011044250058887,392.7235],[16.58056640625,-5.79631926875588,388.8384],[16.573486328125,-5.79070403438088,382.2173],[16.566162109375,-5.7825497375058887,395.7464],[16.562744140625,-5.7703427062558887,625.5529],[16.560546875,-5.7651669250058859,465.2041],[16.555908203125,-5.76018645625588,445.6509],[16.55126953125,-5.7534481750058859,402.6293],[16.549072265625,-5.7429989562558887,394.6015],[16.551171875000023,-5.73235442500588,388.8464],[16.560449218750023,-5.7090145812558859,401.2796],[16.562744140625,-5.6980770812558887,437.1675],[16.534814453125023,-5.3764950500058859,478.4112],[16.501123046875023,-5.26775481563088,520.6216],[16.494531250000023,-5.22503020625588,532.7768],[16.494140625,-5.18108489375588,406.5579],[16.497314453125,-5.15935637813088,691.7655],[16.50439453125,-5.1499325500058859,464.2373],[16.502099609375023,-5.13884856563088,422.0337],[16.508203125000023,-5.06804778438088,475.5079],[16.531640625000023,-5.00188567500588,574.3796],[16.534814453125023,-4.98259856563088,381.452],[16.5361328125,-4.9783505187558887,378.1928],[16.542724609375,-4.9658505187558859,388.0721],[16.549462890625023,-4.95598723750588,422.9124],[16.547753906250023,-4.95354583125588,437.4103],[16.544189453125,-4.95183684688088,362.3648],[16.542236328125,-4.9485653625058887,354.5],[16.5400390625,-4.9409481750058859,354.7659],[16.536376953125,-4.9324520812558887,357.8228],[16.53564453125,-4.92253997188088,385.3422],[16.542236328125,-4.91033294063088,489.5292],[16.53369140625,-4.8887020812558859,390.9356],[16.53466796875,-4.8642880187558859,352.2688],[16.542236328125,-4.81780364375588,367.7222],[16.539306640625,-4.78069426875588,357.4426],[16.528564453125,-4.7459286437558887,357.7175],[16.540917968750023,-4.71038176875588,349.0439],[16.542236328125,-4.70110442500588,374.2211],[16.5400390625,-4.6863583312558887,344.5],[16.53076171875,-4.6616513000058859,356.1527],[16.528564453125,-4.64959075313088,342.0],[16.530664062500023,-4.64031340938088,341.5],[16.5400390625,-4.6194638000058887,443.9918],[16.542236328125,-4.6050106750058859,537.2311],[16.525146484375,-4.5623348937558887,530.1611],[16.524658203125,-4.5547177062558859,503.9717],[16.511962890625,-4.5496395812558887,409.2489],[16.5078125,-4.53777434688088,389.9272],[16.508203125000023,-4.51311614375588,581.4608],[16.501220703125,-4.5086239562558887,413.2611],[16.49658203125,-4.50359465938088,386.1571],[16.494531250000023,-4.4964169250058887,368.369],[16.496728515625023,-4.48772551875588,354.349],[16.506005859375023,-4.47527434688088,387.1795],[16.508203125000023,-4.46843840938088,495.1102],[16.511376953125023,-4.45061614375588,511.4059],[16.51953125,-4.4287411437558859,572.947],[16.530664062500023,-4.4087216125058859,565.5587],[16.542236328125,-4.39641692500588,414.4068],[16.542236328125,-4.3901669250058859,429.3309],[16.538330078125,-4.37981536250588,507.6747],[16.544091796875023,-4.3657528625058859,446.0917],[16.5478515625,-4.3494442687558887,467.2035],[16.53466796875,-4.32293059688088,462.4105],[16.536376953125,-4.31218840938088,422.2955],[16.540185546875023,-4.30095794063088,491.8593],[16.542236328125,-4.29021575313088,597.8741],[16.5400390625,-4.2778622375058859,570.6198],[16.5029296875,-4.21990325313088,392.5582],[16.500732421875,-4.21087005000588,358.3251],[16.503320312500023,-4.20354583125588,395.3116],[16.508203125000023,-4.1985653625058887,542.5155],[16.512841796875023,-4.19207122188088,559.7126],[16.515039062500023,-4.18035247188088,329.5],[16.577050781250023,-4.1499325500058859,462.1116],[16.594628906250023,-4.14397551875588,395.6076],[16.61376953125,-4.14202239375588,411.373],[16.689697265625,-4.14251067500588,444.4655],[16.694482421875023,-4.13982512813088,434.5132],[16.71484375,-4.1221005187558859,414.6913],[16.77197265625,-4.0947567687558859,464.3875],[16.813134765625023,-4.09612395625588,409.249],[16.82861328125,-4.09441497188088,478.1783],[16.843994140625,-4.0879208312558859,460.5341],[16.872460937500023,-4.06633880000588,512.7678],[16.902246093750023,-4.0366513000058859,484.3411],[16.9125,-4.02092864375588,383.6972],[16.920068359375023,-4.00481536250588,418.6414],[16.9296875,-3.9917294250058859,392.8505],[16.947021484375,-3.98552825313088,393.9658],[16.983300781250023,-3.9856747375058892,370.4498],[17.003808593750023,-3.98894622188088,402.395],[17.0185546875,-3.99602630000588,361.8556],[17.033593750000023,-4.00725676875588,389.4626],[17.050537109375,-4.0161434875058859,370.6937],[17.067773437500023,-4.02263762813088,398.7507],[17.08349609375,-4.0263973937558859,355.1029],[17.099853515625,-4.0266903625058887,422.758],[17.117822265625023,-4.0213192687558887,401.9253],[17.132226562500023,-4.00920989375588,431.1511],[17.14306640625,-3.9751278625058859,359.2389],[17.201904296875,-3.92400481563088,329.7076],[17.21044921875,-3.91082122188088,316.9335],[17.21630859375,-3.8730770812558859,309.7299],[17.237451171875023,-3.81170012813088,317.9524],[17.2412109375,-3.79387786250588,326.3393],[17.24169921875,-3.78289153438088,308.0031],[17.244531250000023,-3.7812802062558859,307.9343],[17.257714843750023,-3.7700497375058859,308.3746],[17.26171875,-3.76580169063088,307.6235],[17.2685546875,-3.74187590938088,306.974],[17.272216796875,-3.7353817687558859,306.8703],[17.298730468750023,-3.71599700313088,306.1692],[17.30322265625,-3.7146786437558892,306.3719],[17.30419921875,-3.71209075313088,306.0385],[17.31005859375,-3.6839169250058892,304.9907],[17.333740234375,-3.6592098937558859,314.2971],[17.33740234375,-3.6528622375058859,313.7974],[17.333251953125,-3.6326473937558892,310.7098],[17.30322265625,-3.5808895812558892,318.7112],[17.291259765625,-3.54949309688088,302.0387],[17.276611328125,-3.49114348750588,309.7881],[17.276025390625023,-3.48186614375588,299.5],[17.278076171875,-3.4712216125058859,299.0],[17.282861328125023,-3.4643856750058859,299.6754],[17.2875,-3.4593075500058892,298.5],[17.28955078125,-3.45452239375588,298.5],[17.2958984375,-3.4480770812558892,300.6165],[17.31005859375,-3.4419247375058859,298.0],[17.32421875,-3.43352630000588,301.3193],[17.33056640625,-3.42009856563088,300.6276],[17.336083984375023,-3.4013973937558859,298.2327],[17.359619140625,-3.38567473750588,296.7383],[17.364648437500023,-3.36858489375588,297.6235]]}}