{"type":"Feature","properties":{"featurecla":"River","scalerank":8,"rivernum":958,"dissolve":"958River","name":"Fimi","name_alt":null,"note":null,"min_zoom":7.0,"strokeweig":0.25,"name_en":"Fimi","min_label":8.0},
"geometry":{"type": "LineString","coordinates": [[18.180322265625023,-2.71062590938088,302.4877],[18.155419921875023,-2.72625090938088,300.3156],[18.152490234375023,-2.7285458312558859,290.5],[18.13134765625,-2.7303036437558892,294.1031],[18.088134765625,-2.74065520625588,311.3671],[18.077294921875023,-2.74480559688088,308.4985],[18.035888671875,-2.7671200500058859,295.9612],[18.017724609375023,-2.7715145812558859,298.2334],[17.991943359375,-2.77263762813088,292.7996],[17.974853515625,-2.77019622188088,292.4213],[17.9580078125,-2.7654598937558892,293.4116],[17.940087890625023,-2.76238372188088,289.5],[17.727783203125,-2.7886044250058859,290.368],[17.708642578125023,-2.7837216125058859,291.2646],[17.700439453125,-2.76897551875588,291.1114],[17.689453125,-2.75823333125588,290.7749],[17.664697265625023,-2.7625302062558892,290.8875],[17.566064453125023,-2.79656340938088,288.0],[17.546289062500023,-2.81072356563088,289.3164],[17.482080078125023,-2.8211239562558892,288.0],[17.473876953125,-2.81951262813088,288.0],[17.467675781250023,-2.82048919063088,289.5215],[17.46240234375,-2.82439544063088,291.9978],[17.45849609375,-2.83635833125588,289.4449],[17.4541015625,-2.84099700313088,289.3507],[17.443505859375023,-2.8452450500058859,287.7848],[17.432861328125,-2.8474911437558892,289.2225],[17.409082031250023,-2.8484677062558892,289.2622],[17.398095703125023,-2.8515927062558859,288.2584],[17.36181640625,-2.86834075313088,290.9783],[17.350976562500023,-2.87517669063088,289.5212],[17.336083984375023,-2.8960263000058859,288.6912],[17.313378906250023,-2.9446591125058892,286.0],[17.29638671875,-2.96379973750588,286.9468],[17.261376953125023,-2.98821380000588,288.2638],[17.251708984375,-2.9917294250058859,288.2997],[17.235253906250023,-2.99309661250588,288.8329],[17.220605468750023,-2.99675872188088,287.8613],[17.208642578125023,-3.0032528625058892,287.7896],[17.2001953125,-3.0122372375058859,284.5],[17.14404296875,-2.96917083125588,287.3355],[17.128173828125,-2.96379973750588,287.8846],[17.101953125000023,-2.9707333312558859,303.31],[17.077392578125,-2.98406340938088,284.553],[17.05322265625,-2.9922177062558859,284.35],[17.028222656250023,-2.98430755000588,325.6384],[17.014794921875023,-2.99236419063088,284.8951],[16.966210937500023,-3.0086239562558892,284.0]]}}