{"type":"Feature","properties":{"featurecla":"River","scalerank":3,"rivernum":81,"dissolve":"81River","name":"Kasai5","name_alt":null,"note":null,"min_zoom":3.0,"strokeweig":0.6,"name_en":"Kasai","min_label":4.0},
"geometry":{"type": "LineString","coordinates": [[20.393701171875023,-4.2783505187558859,373.4617],[20.376611328125023,-4.29265715938088,355.5742],[20.365234375,-4.3125302062558859,348.8419],[20.35888671875,-4.3349911437558859,349.1833],[20.3564453125,-4.3657528625058859,380.4198],[20.35205078125,-4.37590911250588,403.3843],[20.342187500000023,-4.3894833312558887,413.5748],[20.336181640625,-4.39031340938088,413.9349],[20.328857421875,-4.38591887813088,346.0],[20.315185546875,-4.38274505000588,345.5],[20.293603515625023,-4.3862606750058859,414.5961],[20.27880859375,-4.3916317687558859,364.8861],[20.266015625000023,-4.39080169063088,356.635],[20.250244140625,-4.37590911250588,344.5],[20.23193359375,-4.34539153438088,405.885],[20.221435546875,-4.33294036250588,354.9649],[20.201904296875,-4.32073333125588,356.6183],[20.184472656250023,-4.32927825313088,417.7558],[20.1650390625,-4.31560637813088,362.0974],[20.133544921875,-4.2803036437558859,342.0],[20.1083984375,-4.27337005000588,371.5845],[20.056298828125023,-4.27678801875588,408.2672],[20.030517578125,-4.27288176875588,383.0736],[20.022705078125,-4.26580169063088,340.5],[20.004638671875,-4.25383880000588,340.0],[19.995849609375,-4.2461239562558859,340.0],[19.982177734375,-4.2285458312558859,339.5],[19.981103515625023,-4.22039153438088,339.5],[19.978271484375,-4.2195614562558887,339.5],[19.973876953125,-4.22063567500588,352.1751],[19.968505859375,-4.2182919250058859,339.5],[19.954833984375,-4.20720794063088,346.06],[19.838134765625,-4.1362606750058859,336.5],[19.80322265625,-4.1020809875058859,338.4427],[19.782861328125023,-4.08611419063088,337.528],[19.7568359375,-4.0810848937558859,334.5],[19.761621093750023,-4.0857723937558887,334.5],[19.7705078125,-4.10100676875588,354.6648],[19.742578125000023,-4.08391692500588,334.5],[19.724853515625,-4.07708098750588,334.0],[19.704980468750023,-4.0742489562558859,335.8529],[19.660888671875,-4.07683684688088,337.923],[19.6416015625,-4.0750302062558887,342.8909],[19.619140625,-4.06682708125588,335.1647],[19.4482421875,-3.96209075313088,328.5],[19.432373046875,-3.95452239375588,328.5],[19.417382812500023,-3.95134856563088,329.9064],[19.408349609375023,-3.94573333125588,334.494],[19.384179687500023,-3.9187802062558892,327.0],[19.37255859375,-3.90984465938088,327.0],[18.840576171875,-3.67473723750588,319.0],[18.82080078125,-3.6629208312558892,318.5],[18.800048828125,-3.6460263000058859,318.0],[18.78125,-3.63494231563088,318.0],[18.760009765625,-3.6308895812558859,317.5],[18.714111328125,-3.6292294250058892,316.5],[18.633935546875023,-3.6128231750058859,316.3142],[18.624414062500023,-3.60344817500588,315.0],[18.61572265625,-3.6013973937558892,331.9689]]}}