{"type":"Feature","properties":{"featurecla":"River","scalerank":8,"rivernum":666,"dissolve":"666River","name":"Lokoro1","name_alt":null,"note":null,"min_zoom":7.0,"strokeweig":0.15,"name_en":"Lokoro","min_label":8.0},
"geometry":{"type": "LineString","coordinates": [[21.085205078125,-2.78630950313088,466.6654],[21.065332031250023,-2.8118466125058892,471.4534],[21.032861328125023,-2.8237606750058859,431.4404],[20.86328125,-2.83416106563088,397.5276],[20.839111328125,-2.8299130187558892,378.5914],[20.777246093750023,-2.79998137813088,419.209],[20.563232421875,-2.7840145812558892,399.8659]]}}