{"type":"Feature","properties":{"featurecla":"River","scalerank":8,"rivernum":778,"dissolve":"778River","name":"Lukenie1","name_alt":null,"note":null,"min_zoom":7.0,"strokeweig":0.2,"name_en":"Lukenie","min_label":8.0},
"geometry":{"type": "LineString","coordinates": [[23.546142578125,-3.59392669063088,504.9629],[23.457421875000023,-3.50505950313088,459.4453],[23.402099609375,-3.4678036437558859,417.5125],[23.393798828125,-3.4643856750058859,427.3577],[23.347558593750023,-3.43743255000588,416.578],[23.331787109375,-3.43181731563088,421.6279],[23.291406250000023,-3.42473723750588,416.2951],[23.27490234375,-3.42376067500588,425.0706],[23.251123046875023,-3.4175106750058859,465.8366],[23.24072265625,-3.4163388000058892,461.0905],[23.2294921875,-3.41838958125588,452.1282],[23.211328125000023,-3.4277645812558859,434.4765],[23.20361328125,-3.43059661250588,422.1841],[23.181396484375,-3.43084075313088,411.4174],[23.151025390625023,-3.41936614375588,419.2057],[23.131591796875,-3.4163388000058892,430.6553],[23.091943359375023,-3.4165341125058859,447.4182],[23.076904296875,-3.4148739562558892,440.6794],[23.024072265625023,-3.4021786437558892,529.6815],[22.878076171875023,-3.39568450313088,408.9656],[22.874658203125023,-3.39275481563088,410.2813],[22.870849609375,-3.3880184875058892,424.7647],[22.862695312500023,-3.39226653438088,406.4881],[22.850341796875,-3.40325286250588,394.4374],[22.838281250000023,-3.3992489562558892,453.479],[22.825439453125,-3.39299895625588,461.1654],[22.815820312500023,-3.3935848937558859,429.8885],[22.8125,-3.41008880000588,415.5747],[22.805419921875,-3.4075497375058892,419.1906],[22.798828125,-3.40325286250588,439.6402],[22.7734375,-3.41472747188088,452.5019],[22.746337890625,-3.41668059688088,426.2294],[22.721435546875,-3.41008880000588,402.3254],[22.70263671875,-3.39592864375588,449.4123],[22.696191406250023,-3.4021786437558892,423.8649],[22.687744140625,-3.40398528438088,442.1963],[22.678125,-3.40178801875588,422.6672],[22.66845703125,-3.39592864375588,460.4015],[22.659423828125,-3.40886809688088,411.3364],[22.63916015625,-3.4192684875058892,419.4701],[22.614892578125023,-3.4267880187558859,429.1995],[22.593408203125023,-3.43059661250588,429.3495],[22.580078125,-3.43035247188088,397.593],[22.5576171875,-3.4248348937558859,395.9219],[22.545654296875,-3.42376067500588,426.3279],[22.536279296875023,-3.4265927062558892,423.0219],[22.515625,-3.4389950500058859,409.2356],[22.504638671875,-3.44426848750588,391.7752],[22.467675781250023,-3.4534481750058892,388.5515],[22.456787109375,-3.45794036250588,384.4191],[22.450830078125023,-3.46453215938088,403.6229],[22.447265625,-3.47307708125588,386.8203],[22.441552734375023,-3.4807919250058892,381.026],[22.428955078125,-3.48528411250588,389.941],[22.387109375000023,-3.46843840938088,387.9292],[22.365869140625023,-3.46599700313088,395.1737],[22.360595703125,-3.48528411250588,390.506],[22.353173828125023,-3.48528411250588,409.0333],[22.33740234375,-3.4778622375058892,433.6025],[22.324951171875,-3.4910458312558892,451.1337],[22.313867187500023,-3.5097958312558859,421.5769],[22.301904296875023,-3.5193661437558892,422.8982],[22.282958984375,-3.5164364562558892,422.0945],[22.271484375,-3.51604583125588,430.6728],[22.257568359375,-3.5193661437558892,437.5165],[22.251220703125,-3.52410247188088,499.241],[22.240234375,-3.5371395812558859,481.3815],[22.2333984375,-3.5398739562558892,423.1873],[22.228271484375,-3.53826262813088,476.7255],[22.2255859375,-3.5359677062558892,479.2949],[22.2216796875,-3.53630950313088,447.7665],[22.212890625,-3.5432919250058892,401.5637],[22.20361328125,-3.54485442500588,398.3787],[22.191064453125023,-3.54290130000588,418.7686],[22.179833984375023,-3.5428036437558892,428.2014],[22.175048828125,-3.5501278625058892,414.479],[22.168359375000023,-3.55486419063088,425.3562],[22.127197265625,-3.55974700313088,438.6719],[22.100732421875023,-3.5672177062558892,408.4001],[22.076074218750023,-3.5708309875058859,459.2087],[22.051416015625023,-3.56902434688088,454.7328],[22.024804687500023,-3.55974700313088,467.3663],[21.99755859375,-3.5740536437558892,444.7892],[21.973535156250023,-3.5911434875058892,522.4969],[21.966796875,-3.59392669063088,508.011],[21.935449218750023,-3.5808895812558892,498.3931],[21.929443359375,-3.58171965938088,477.8784],[21.922998046875023,-3.58489348750588,460.9686],[21.917724609375,-3.5833309875058892,436.4646],[21.91552734375,-3.57024505000588,482.2956],[21.906982421875,-3.5598934875058892,514.2625],[21.887451171875,-3.55291106563088,435.7203],[21.853515625,-3.5467098937558892,411.5325],[21.843164062500023,-3.54607512813088,416.722],[21.83837890625,-3.5476864562558892,436.4013],[21.833642578125023,-3.5462216125058892,443.8572],[21.82275390625,-3.5364559875058892,451.1745],[21.81494140625,-3.5346981750058859,439.7658],[21.810302734375,-3.54338958125588,457.6639],[21.809326171875,-3.55632903438088,450.1597],[21.811914062500023,-3.56658294063088,421.9857],[21.799707031250023,-3.5613583312558892,398.7232],[21.788476562500023,-3.5547177062558859,414.111],[21.780419921875023,-3.54583098750588,418.0209],[21.77783203125,-3.5330380187558892,421.0111],[21.752197265625,-3.54021575313088,416.5962],[21.735253906250023,-3.53362395625588,396.9531],[21.720703125,-3.5215145812558859,436.3796],[21.70263671875,-3.51189544063088,417.8672],[21.690332031250023,-3.5132138000058859,406.7086],[21.59375,-3.5542294250058859,489.4612],[21.540185546875023,-3.5679013000058859,441.0312],[21.526513671875023,-3.57586028438088,455.3203],[21.517724609375023,-3.58757903438088,400.2041],[21.512597656250023,-3.5771786437558859,440.0747],[21.499414062500023,-3.55877044063088,391.6295],[21.49658203125,-3.5501278625058892,409.2812],[21.496484375000023,-3.5364559875058892,394.2134],[21.49462890625,-3.52996184688088,422.7037],[21.488525390625,-3.5273739562558859,409.0931],[21.47607421875,-3.52556731563088,395.6207],[21.454248046875023,-3.5283505187558859,383.5159],[21.437158203125023,-3.5384091125058892,367.5296],[21.419091796875023,-3.5454403625058859,362.3752],[21.394189453125023,-3.5398739562558892,361.6892],[21.396484375,-3.52263762813088,367.5724],[21.389306640625023,-3.4692684875058859,387.0468],[21.383935546875023,-3.45794036250588,381.1049],[21.37890625,-3.4541317687558859,397.7906],[21.373437500000023,-3.4471005187558892,382.2079],[21.366357421875023,-3.4429013000058859,418.3913],[21.356689453125,-3.44768645625588,414.7164],[21.335693359375,-3.4712216125058859,384.2422],[21.325927734375,-3.47844817500588,391.4636],[21.322167968750023,-3.47527434688088,384.1048],[21.3203125,-3.47210051875588,392.3846],[21.318505859375023,-3.46477630000588,382.2113],[21.293847656250023,-3.4809872375058859,395.8792],[21.28271484375,-3.48430755000588,368.0717],[21.267578125,-3.48528411250588,377.1414],[21.265039062500023,-3.4897763000058859,371.8838],[21.259033203125,-3.4975888000058859,365.8391],[21.2529296875,-3.5000302062558859,362.2448],[21.250244140625,-3.4883114562558859,363.6866],[21.246240234375023,-3.48406340938088,382.6145],[21.237207031250023,-3.4910458312558892,384.0962],[21.227929687500023,-3.50261809688088,364.4967],[21.222900390625,-3.51189544063088,364.059],[21.218017578125,-3.50359465938088,362.3272],[21.216552734375,-3.4951473937558859,363.8013],[21.218408203125023,-3.48674895625588,388.0861],[21.222900390625,-3.47844817500588,374.353],[21.2158203125,-3.47478606563088,373.0273],[21.213769531250023,-3.4741513000058859,385.3279],[21.209228515625,-3.46477630000588,395.3223],[21.19189453125,-3.47649505000588,359.9853],[21.173828125,-3.47747161250588,357.6972],[21.136962890625,-3.4710263000058892,365.9284],[21.104248046875,-3.4707333312558859,344.7456],[21.099365234375,-3.4678036437558859,359.0338],[21.094482421875,-3.45671965938088,365.3384],[21.084228515625,-3.45916106563088,362.4582],[21.074609375000023,-3.46672942500588,356.4978],[21.072167968750023,-3.4710263000058892,360.8644],[21.054345703125023,-3.4695614562558892,348.8354],[21.014306640625023,-3.46013762813088,353.5197],[20.992919921875,-3.45794036250588,364.5469],[20.835595703125023,-3.4710263000058892,357.98],[20.802734375,-3.4593075500058892,370.0128],[20.797753906250023,-3.46135833125588,369.7842],[20.791748046875,-3.46819426875588,334.2692],[20.77880859375,-3.46331145625588,358.1467],[20.766845703125,-3.45501067500588,352.6262],[20.763671875,-3.45110442500588,364.7834],[20.742333984375023,-3.44646575313088,365.3418],[20.66259765625,-3.4424130187558859,351.7817],[20.6484375,-3.43718840938088,349.753],[20.619531250000023,-3.4163388000058892,352.3904],[20.58447265625,-3.39885833125588,348.8103],[20.57080078125,-3.38836028438088,350.7914],[20.55810546875,-3.36858489375588,349.7198],[20.55126953125,-3.36858489375588,329.9012],[20.551025390625,-3.3719052062558892,338.365],[20.55126953125,-3.38225676875588,344.0415],[20.544580078125023,-3.38225676875588,344.3735],[20.545556640625023,-3.36907317500588,347.9194],[20.544921875,-3.35686614375588,349.3428],[20.54052734375,-3.3471981750058859,350.9656],[20.530908203125023,-3.34124114375588,369.0442],[20.524560546875023,-3.3596981750058892,347.3325],[20.523095703125023,-3.36956145625588,344.5761],[20.5234375,-3.38225676875588,363.1013],[20.517822265625,-3.38225676875588,341.7407],[20.514062500000023,-3.3762997375058892,344.632],[20.509521484375,-3.37151458125588,346.9907],[20.49609375,-3.36174895625588,347.0016],[20.486230468750023,-3.3677059875058859,346.5771],[20.461181640625,-3.36541106563088,349.5476],[20.4482421875,-3.36858489375588,347.2863],[20.43994140625,-3.3797177062558892,350.4512],[20.437158203125023,-3.40520598750588,337.8939],[20.431298828125023,-3.41008880000588,335.0374],[20.413232421875023,-3.4060848937558892,346.5454],[20.400781250000023,-3.39885833125588,334.5278],[20.388916015625,-3.39544036250588,354.8714],[20.373193359375023,-3.40325286250588,341.4318],[20.373193359375023,-3.40715911250588,351.8336],[20.375390625000023,-3.4140927062558859,343.2437],[20.376708984375,-3.4223934875058859,350.3543],[20.373193359375023,-3.43059661250588,334.7632],[20.3671875,-3.43254973750588,352.7159],[20.349511718750023,-3.4311825500058859,347.2467],[20.342431640625023,-3.43401458125588,328.576],[20.332275390625,-3.44036223750588,350.4082],[20.298095703125,-3.4551083312558859,337.5342],[20.28759765625,-3.45794036250588,354.203],[20.272607421875023,-3.4546200500058859,393.1452],[20.263574218750023,-3.4471005187558892,346.9981],[20.25732421875,-3.4380184875058859,354.9778],[20.250244140625,-3.43059661250588,350.9448],[20.240380859375023,-3.4253231750058859,344.8555],[20.228515625,-3.42083098750588,347.7463],[20.216210937500023,-3.4175106750058859,344.262],[20.205322265625,-3.4163388000058892,340.7647],[20.200097656250023,-3.4217098937558892,344.1622],[20.2060546875,-3.43328215938088,337.1311],[20.2158203125,-3.4451473937558892,363.6321],[20.222412109375,-3.45110442500588,418.5737],[20.216064453125,-3.45525481563088,433.9844],[20.195068359375,-3.46477630000588,415.0367],[20.160400390625,-3.4051083312558892,344.4576],[20.150292968750023,-3.39592864375588,344.5672],[20.136621093750023,-3.4018856750058859,347.1933],[20.12939453125,-3.40374114375588,349.7022],[20.126123046875023,-3.39959075313088,354.7],[20.123681640625023,-3.39080169063088,334.5182],[20.117919921875,-3.38909270625588,335.1248],[20.111083984375,-3.3916317687558859,340.4997],[20.105712890625,-3.39592864375588,340.1642],[20.081787109375,-3.3465145812558892,338.416],[20.078369140625,-3.33440520625588,342.941],[20.084228515625,-3.3211239562558892,360.5078],[20.094970703125,-3.3069638000058892,349.2887],[20.100976562500023,-3.29290130000588,356.1342],[20.092041015625,-3.2798153625058859,327.6904],[20.081787109375,-3.29729583125588,352.9325],[20.064453125,-3.32000090938088,346.9624],[20.044677734375,-3.3396786437558892,351.7695],[20.008691406250023,-3.3554989562558859,394.896],[19.968408203125023,-3.39104583125588,371.6907],[19.947998046875,-3.40325286250588,378.8921],[19.92578125,-3.4057919250058859,357.3981],[19.900781250000023,-3.40203215938088,317.0],[19.884765625,-3.39104583125588,338.7589],[19.8896484375,-3.37224700313088,334.5338],[19.884765625,-3.37029387813088,337.8997],[19.84521484375,-3.38250090938088,325.0127],[19.831933593750023,-3.3896786437558859,329.5714],[19.810546875,-3.4178036437558892,343.3289],[19.796142578125,-3.4217098937558892,337.2817],[19.77392578125,-3.40667083125588,321.3683],[19.756103515625,-3.3979794250058859,322.4164],[19.737695312500023,-3.4013973937558859,335.497],[19.701562500000023,-3.4163388000058892,330.6365],[19.679589843750023,-3.4175106750058859,324.1273],[19.615966796875,-3.41008880000588,313.2316],[19.591699218750023,-3.37908294063088,332.599],[19.586669921875,-3.3808895812558859,342.3862],[19.5576171875,-3.3760067687558859,326.8566],[19.557861328125,-3.37468840938088,337.3401],[19.554443359375,-3.3719052062558892,328.5936],[19.549072265625,-3.3691708312558859,341.6932],[19.543359375000023,-3.36858489375588,335.2118],[19.538818359375,-3.3711239562558859,331.893],[19.537255859375023,-3.3758114562558892,326.488],[19.537109375,-3.38225676875588,337.6074],[19.522607421875023,-3.38274505000588,335.8728],[19.516015625000023,-3.38103606563088,327.2125],[19.495507812500023,-3.36858489375588,350.5428],[19.461083984375023,-3.35515715938088,335.454],[19.441308593750023,-3.35003020625588,349.3105],[19.423828125,-3.34807708125588,339.9226],[19.418847656250023,-3.35125090938088,330.8799],[19.4130859375,-3.35833098750588,328.1194],[19.405908203125023,-3.36541106563088,329.0156],[19.396240234375,-3.36858489375588,320.4357],[19.385400390625023,-3.3665341125058892,314.3172],[19.366357421875023,-3.3574520812558859,317.7637],[19.355224609375,-3.3554989562558859,327.0833],[19.29150390625,-3.36199309688088,327.8517],[19.26953125,-3.36174895625588,305.0],[19.248193359375023,-3.3592098937558892,314.4589],[19.233544921875023,-3.3554989562558859,313.0112],[19.149169921875,-3.31047942500588,340.9073],[19.139892578125,-3.30364348750588,367.2372],[19.122802734375,-3.26921965938088,338.7347],[19.1123046875,-3.2635067687558892,342.3583],[19.090478515625023,-3.2602841125058859,360.6955],[19.08154296875,-3.25554778438088,356.8055],[19.073632812500023,-3.2454403625058892,352.9644],[19.062255859375,-3.2244442687558892,364.9698],[19.053955078125,-3.2146786437558892,390.0984],[19.044189453125,-3.21013762813088,375.9615],[19.020263671875,-3.20867278438088,362.4425],[19.009521484375,-3.20403411250588,370.2546],[18.999755859375,-3.2197567687558859,357.5728],[18.985742187500023,-3.23308684688088,367.9915],[18.973388671875,-3.23601653438088,338.5464],[18.965722656250023,-3.2148739562558859,366.6443],[18.959716796875,-3.21209075313088,372.6723],[18.951318359375023,-3.21209075313088,346.7924],[18.941650390625,-3.2141903625058892,373.6106]]}}