{"type":"Feature","properties":{"featurecla":"River","scalerank":8,"rivernum":666,"dissolve":"666River","name":"Lokoro2","name_alt":null,"note":null,"min_zoom":7.0,"strokeweig":0.2,"name_en":"Lokoro","min_label":8.0},
"geometry":{"type": "LineString","coordinates": [[20.563232421875,-2.7840145812558892,399.8659],[20.434716796875023,-2.76531340938088,362.835],[20.368896484375,-2.7353817687558859,399.3708],[20.339013671875023,-2.72893645625588,367.226],[20.319726562500023,-2.71965911250588,371.8762],[20.263916015625,-2.71062590938088,384.2751],[20.200341796875023,-2.68670012813088,394.7967],[20.1689453125,-2.67913176875588,390.364],[20.137451171875,-2.65789153438088,391.1786],[19.927001953125,-2.5718075500058859,343.224],[19.887597656250023,-2.5628231750058892,325.8516],[19.772119140625023,-2.56170012813088,331.25],[19.73583984375,-2.55730559688088,328.6917],[19.701562500000023,-2.5462216125058892,339.3259],[19.679101562500023,-2.5589169250058892,325.6533],[19.6591796875,-2.5550106750058892,314.1001],[19.639062500000023,-2.5449520812558859,330.0819],[19.615966796875,-2.5393856750058892,309.784],[19.591943359375023,-2.53753020625588,324.7642],[19.506591796875,-2.5097958312558859,313.3278],[19.48681640625,-2.5010067687558859,332.632],[19.469140625000023,-2.48967864375588,324.9404],[19.4326171875,-2.45964934688088,322.1828],[19.36083984375,-2.4319638000058892,325.4577],[19.354248046875,-2.43132903438088,325.2443],[19.35009765625,-2.4280575500058892,326.4101],[19.3447265625,-2.41643645625588,325.059],[19.3427734375,-2.40642669063088,323.3645],[19.3447265625,-2.3711239562558859,322.9337],[19.340087890625,-2.3491513000058859,323.3078],[19.29541015625,-2.26799895625588,318.7305],[19.283349609375023,-2.2519833312558859,316.4867],[19.276513671875023,-2.2459286437558892,315.7435],[19.269775390625,-2.24114348750588,319.6532],[19.264794921875023,-2.23406340938088,318.8421],[19.261865234375023,-2.20745208125588,316.1531],[19.259179687500023,-2.2000302062558892,317.0549],[19.245996093750023,-2.18645598750588,307.6368],[19.241601562500023,-2.1829403625058892,307.7972],[19.231103515625023,-2.17693450313088,308.4508],[19.225830078125,-2.17278411250588,308.2057],[19.222802734375023,-2.1670223937558859,307.9977],[19.223876953125,-2.15471770625588,308.0343],[19.222412109375,-2.14885833125588,308.049],[19.205957031250023,-2.13274505000588,308.0546],[19.185449218750023,-2.1191708312558859,307.6808],[19.167871093750023,-2.10442473750588,312.261],[19.160302734375023,-2.0838192687558892,307.1088],[19.1572265625,-2.0630184875058859,312.3317],[19.149316406250023,-2.04607512813088,307.4946],[19.0986328125,-1.963702081255889,307.8576],[19.08837890625,-1.9570614562558859,309.4776],[19.079980468750023,-1.94939544063088,307.6915],[19.050537109375,-1.90178801875588,321.8951],[19.022851562500023,-1.8847958312558859,319.2143],[19.005761718750023,-1.87712981563088,321.8029],[18.992431640625,-1.87395598750588,317.8065],[18.965966796875023,-1.87297942500588,310.9146],[18.946191406250023,-1.8691708312558859,306.2495],[18.928125,-1.861163018755889,313.5797],[18.874414062500023,-1.82390715938088,316.1215],[18.865478515625,-1.81926848750588,316.5096],[18.851953125000023,-1.8188778625058859,313.4459],[18.841699218750023,-1.8222958312558859,309.5377],[18.832421875000023,-1.82341887813088,310.5708],[18.82080078125,-1.816241143755889,299.0827],[18.810937500000023,-1.8125302062558859,315.3038],[18.800537109375,-1.8164364562558859,301.8875],[18.789941406250023,-1.8227841125058859,308.6114],[18.779541015625,-1.82610442500588,310.4044],[18.771728515625,-1.82293059688088,316.8855],[18.714257812500023,-1.769366143755889,310.9775],[18.7041015625,-1.76531340938088,310.8134],[18.694970703125023,-1.7597958312558859,309.5571],[18.673730468750023,-1.72429778438088,305.845],[18.65087890625,-1.7124325500058859,297.6592],[18.624169921875023,-1.7085263000058859,300.2867],[18.567626953125,-1.71013762813088,314.7985],[18.532470703125,-1.72039153438088,316.4571],[18.489990234375,-1.7392880187558859,315.2399],[18.445947265625023,-1.74871184688088,305.3633],[18.411767578125023,-1.734698175005889,294.8975]]}}