{"type":"Feature","properties":{"featurecla":"River","scalerank":8,"rivernum":833,"dissolve":"833River","name":"Sankuru3","name_alt":null,"note":null,"min_zoom":7.0,"strokeweig":0.3,"name_en":"Sankuru","min_label":8.0},
"geometry":{"type": "LineString","coordinates": [[23.86767578125,-5.52044036250588,561.0403],[23.888818359375023,-5.4863583312558859,529.7428],[23.883544921875,-5.46233489375588,534.0211],[23.881738281250023,-5.4228817687558859,435.0],[23.884179687500023,-5.38591887813088,463.6954],[23.891845703125,-5.3696591125058859,517.3292],[23.903955078125023,-5.3535458312558859,479.3927],[23.910888671875,-5.3181942687558887,431.7705],[23.910058593750023,-5.2827450500058859,545.3572],[23.898681640625,-5.2666317687558859,512.7669],[23.866601562500023,-5.2422177062558859,501.3651],[23.86083984375,-5.2392880187558859,472.9893],[23.859375,-5.2295223937558859,456.5778],[23.86083984375,-5.19085051875588,512.2317],[23.857080078125023,-5.1658505187558887,426.5],[23.852783203125,-5.15056731563088,432.106],[23.84716796875,-5.1375302062558887,464.9854],[23.835693359375,-5.12444426875588,434.2016],[23.822900390625023,-5.1140927062558887,431.816],[23.815332031250023,-5.1033505187558887,428.9341],[23.819238281250023,-5.08904387813088,425.3644],[23.800927734375023,-5.08757903438088,434.2744],[23.792724609375,-5.08513762813088,462.5022],[23.78515625,-5.08098723750588,459.8434],[23.775537109375023,-5.0740536437558887,424.0],[23.771875,-5.06975676875588,428.5751],[23.771386718750023,-5.06633880000588,447.0603],[23.771484375,-5.0618466125058887,440.5512],[23.773193359375,-5.0554989562558887,425.0786],[23.7783203125,-5.0506161437558887,447.3331],[23.783349609375023,-5.0442684875058887,425.0831],[23.78515625,-5.03386809688088,428.5968],[23.781982421875,-5.0281552062558887,426.3416],[23.768798828125,-5.01531340938088,426.7218],[23.764550781250023,-5.00652434688088,425.1293],[23.757714843750023,-5.00652434688088,427.5995],[23.748681640625023,-5.01751067500588,425.9336],[23.744775390625023,-5.00603606563088,451.7635],[23.741455078125,-4.9853817687558859,419.6422],[23.73388671875,-4.96868255000588,422.2267],[23.72509765625,-4.9634091125058859,418.0],[23.707275390625,-4.9593075500058887,421.4645],[23.700097656250023,-4.95501067500588,450.236],[23.698388671875023,-4.94817473750588,425.3118],[23.710205078125,-4.9344052062558887,418.5728],[23.7099609375,-4.92400481563088,505.6483],[23.688134765625023,-4.9344052062558887,466.5007],[23.6708984375,-4.93352630000588,542.9326],[23.656396484375023,-4.92791106563088,442.6927],[23.641748046875023,-4.92400481563088,534.4228],[23.636474609375,-4.9258114562558859,500.9075],[23.633447265625023,-4.9350888000058859,423.7975],[23.628076171875023,-4.93767669063088,420.5083],[23.622705078125023,-4.9368466125058887,506.0457],[23.607568359375023,-4.9314755187558887,501.4271],[23.585839843750023,-4.93572356563088,506.3409],[23.56298828125,-4.93767669063088,478.8159],[23.542724609375,-4.94207122188088,501.2968],[23.512353515625023,-4.9612606750058887,430.2072],[23.482666015625,-4.96770598750588,476.4406],[23.46240234375,-4.9770809875058859,432.6068],[23.45361328125,-4.97918059688088,431.5604],[23.422021484375023,-4.95818450313088,471.5966],[23.402099609375,-4.9658505187558859,456.1674],[23.375390625000023,-4.9575497375058859,430.0896],[23.34716796875,-4.94451262813088,478.1631],[23.322998046875,-4.93767669063088,428.2727],[23.277978515625023,-4.84832122188088,417.933],[23.285791015625023,-4.83635833125588,497.6086],[23.283837890625023,-4.82732512813088,485.2225],[23.277490234375023,-4.81878020625588,486.1071],[23.271728515625,-4.8079403625058887,472.9302],[23.264404296875,-4.7874325500058887,419.9442],[23.264794921875023,-4.7810848937558887,406.2308],[23.270410156250023,-4.7698544250058887,447.9239],[23.271728515625,-4.76287200313088,415.4121],[23.26708984375,-4.7415341125058887,501.8766],[23.244531250000023,-4.6997372375058859,471.6203],[23.237695312500023,-4.6775692687558887,467.0395],[23.238037109375,-4.6679989562558859,461.0187],[23.24267578125,-4.64690520625588,424.3154],[23.243896484375,-4.64348723750588,511.3735],[23.239990234375,-4.6316708312558887,463.1941],[23.223388671875,-4.6050106750058859,433.2597],[23.223388671875,-4.56462981563088,455.8519],[23.2255859375,-4.55584075313088,473.5517],[23.235595703125,-4.54143645625588,469.5242],[23.237695312500023,-4.5342098937558859,495.286],[23.220458984375,-4.47039153438088,512.4462],[23.220361328125023,-4.45842864375588,466.0543],[23.196044921875,-4.3901669250058859,459.0923],[23.18017578125,-4.36296965938088,452.5112],[23.143701171875023,-4.31365325313088,454.6185],[23.12841796875,-4.2803036437558859,436.2618],[23.117578125000023,-4.26506926875588,411.8202],[23.07275390625,-4.2202450500058859,428.9319],[23.040771484375,-4.2031552062558859,413.6893],[23.018945312500023,-4.16741301875588,420.7133],[23.0048828125,-4.15618255000588,399.6806],[22.984277343750023,-4.16179778438088,402.6665],[22.959619140625023,-4.15374114375588,417.7056],[22.935937500000023,-4.13933684688088,409.071],[22.906982421875,-4.1165341125058887,464.5372],[22.898193359375,-4.1137997375058859,440.5118],[22.877685546875,-4.1152645812558859,418.0808],[22.864892578125023,-4.11321380000588,387.5],[22.845117187500023,-4.10393645625588,387.5],[22.8330078125,-4.10100676875588,461.153],[22.740625,-4.0999325500058887,414.5951],[22.5078125,-4.0342098937558859,436.0026],[22.46533203125,-4.0122372375058859,476.682],[22.456787109375,-4.00286223750588,471.4824],[22.425537109375,-3.9929989562558892,452.128],[22.422607421875,-3.98845794063088,465.4425],[22.401611328125,-3.96502044063088,485.9979],[22.393457031250023,-3.9500302062558892,424.9352],[22.388085937500023,-3.9424130187558859,445.3918],[22.381103515625,-3.9378231750058892,424.1257],[22.371728515625023,-3.93743255000588,458.2041],[22.3603515625,-3.9402645812558892,383.0],[22.350976562500023,-3.94426848750588,383.0],[22.346923828125,-3.94793059688088,394.5544],[22.338281250000023,-3.9619442687558859,399.1088],[22.31875,-3.9761044250058859,400.6857],[22.284912109375,-3.9929989562558892,387.385],[22.213769531250023,-4.0066708312558887,416.2362],[22.19384765625,-4.02605559688088,382.3063],[22.1728515625,-4.03020598750588,380.0],[22.1494140625,-4.0298153625058859,385.2399],[22.133447265625023,-4.0263973937558859,382.0599],[22.1220703125,-4.0193661437558887,384.136],[22.108789062500023,-4.00823333125588,397.1725],[22.097802734375023,-3.9951473937558859,379.3278],[22.093164062500023,-3.98211028438088,390.7456],[22.083642578125023,-3.9751278625058859,385.9549],[22.036523437500023,-3.9668270812558859,383.9925],[21.995996093750023,-3.96502044063088,377.0],[21.974267578125023,-3.9687802062558859,389.9694],[21.954736328125023,-3.9768856750058892,376.2365],[21.938867187500023,-3.9892880187558859,379.723],[21.920312500000023,-3.99529387813088,376.5988],[21.896484375,-3.9890927062558892,384.8154],[21.8603515625,-3.97185637813088,383.9358],[21.852783203125,-3.97063567500588,377.1347],[21.833740234375,-3.97087981563088,380.9029],[21.826171875,-3.97185637813088,376.6642],[21.829736328125023,-3.9604794250058859,373.0],[21.82666015625,-3.9539364562558892,378.5183],[21.818359375,-3.9510067687558892,375.1977],[21.8056640625,-3.95134856563088,373.8342],[21.79150390625,-3.95427825313088,373.0],[21.78955078125,-3.9580380187558859,379.4899],[21.79052734375,-3.96355559688088,374.7964],[21.785302734375023,-3.97185637813088,375.1994],[21.736572265625,-4.0066708312558887,371.5],[21.722558593750023,-4.01287200313088,382.9022],[21.701416015625,-4.0151669250058859,394.1725],[21.660058593750023,-4.0139950500058887,379.9301],[21.640625,-4.01970794063088,371.5002],[21.599853515625,-4.0501278625058887,369.0],[21.585205078125,-4.0552059875058859,375.2411],[21.592187500000023,-4.03264739375588,395.5011],[21.576904296875,-4.0384091125058887,378.6252],[21.55810546875,-4.0566708312558859,373.4457],[21.541015625,-4.0605770812558859,369.7457],[21.504785156250023,-4.0649716125058859,379.637],[21.485595703125,-4.0703427062558859,366.5],[21.473046875000023,-4.0776669250058859,383.7954],[21.446191406250023,-4.08220794063088,366.0],[21.414794921875,-4.0600888000058859,365.0],[21.387841796875023,-4.02898528438088,379.5174],[21.374267578125,-4.0066708312558887,399.6732],[21.355371093750023,-4.01189544063088,399.0699],[21.332421875000023,-4.01116301875588,409.9221],[21.31298828125,-4.0054013000058859,371.024],[21.304931640625,-3.99602630000588,417.9549],[21.293603515625023,-3.9951473937558859,381.7498],[21.212304687500023,-3.9721981750058859,375.2486],[21.196923828125023,-3.97039153438088,365.8651],[21.15771484375,-3.97185637813088,360.5],[21.15234375,-3.9749325500058892,360.5],[21.130126953125,-3.99602630000588,367.2404],[21.12109375,-3.9998348937558892,377.9137],[21.108642578125,-4.00042083125588,369.7732],[21.085205078125,-3.99920012813088,385.8846],[21.046533203125023,-4.0096005187558887,406.4664],[21.0048828125,-4.0351864562558859,371.9415],[20.91455078125,-4.11101653438088,446.4359],[20.899169921875,-4.11663176875588,384.4868],[20.81884765625,-4.11565520625588,376.5093],[20.800048828125,-4.11956145625588,408.1543],[20.761962890625,-4.1352841125058859,423.1004],[20.718505859375,-4.1477841125058887,354.5],[20.69873046875,-4.1499325500058859,354.0],[20.65771484375,-4.1499325500058859,363.2133],[20.644433593750023,-4.15349700313088,367.7081],[20.637841796875023,-4.16228606563088,365.7791],[20.633691406250023,-4.17327239375588,362.855],[20.627685546875,-4.1841122375058859,369.5722],[20.598876953125,-4.20818450313088,362.5147],[20.559814453125,-4.22893645625588,356.0601],[20.516845703125,-4.24431731563088,357.3454],[20.4755859375,-4.25237395625588,352.8774],[20.460351562500023,-4.2532528625058887,353.4896],[20.4482421875,-4.25920989375588,358.6509],[20.447412109375023,-4.26238372188088,357.0266],[20.446533203125,-4.2685848937558859,348.5],[20.444970703125023,-4.2754208312558859,353.9135],[20.44140625,-4.2803036437558859,353.0887],[20.434716796875023,-4.2817684875058859,356.588],[20.428369140625023,-4.27898528438088,354.9394],[20.422607421875,-4.2749325500058859,364.3661],[20.417236328125,-4.27288176875588,360.077],[20.393701171875023,-4.2783505187558859,373.4617]]}}