{"type":"Feature","properties":{"featurecla":"River","scalerank":8,"rivernum":834,"dissolve":"834River","name":"Kwilu2","name_alt":null,"note":null,"min_zoom":7.0,"strokeweig":0.3,"name_en":"Kwilu","min_label":8.0},
"geometry":{"type": "LineString","coordinates": [[19.201318359375023,-6.9251278625058887,939.1451],[19.201318359375023,-6.9251278625058887,939.1451],[19.201318359375023,-6.9251278625058887,939.1451],[19.201318359375023,-6.9251278625058887,939.1451],[19.201318359375023,-6.9251278625058887,939.1451],[19.217431640625023,-6.9165341125058859,877.4357],[19.230712890625,-6.9067684875058859,862.6552],[19.239648437500023,-6.89324309688088,820.3916],[19.247460937500023,-6.85540130000588,830.3911],[19.268945312500023,-6.81829192500588,858.3745],[19.276513671875023,-6.8015927062558887,904.0366],[19.279687500000023,-6.7796200500058887,885.7968],[19.276513671875023,-6.71624114375588,884.9101],[19.2783203125,-6.6922177062558887,881.5024],[19.283203125,-6.67327239375588,850.3369],[19.296875,-6.6377255187558859,892.1882],[19.304345703125023,-6.60295989375588,881.8788],[19.315673828125,-6.5779598937558887,722.4158],[19.3173828125,-6.57219817500588,710.5549],[19.318603515625,-6.5288388000058859,713.8862],[19.324853515625023,-6.4868466125058859,724.0028],[19.341796875,-6.4443661437558859,751.7882],[19.347412109375,-6.41961028438088,719.3336],[19.341552734375,-6.4007138000058887,681.1112],[19.331298828125,-6.3838192687558859,671.1157],[19.306396484375,-6.29461028438088,699.7117],[19.304345703125023,-6.22991301875588,798.314],[19.30908203125,-6.2168270812558859,733.9764],[19.320214843750023,-6.20452239375588,690.8162],[19.372949218750023,-6.1670223937558859,677.0438],[19.387109375000023,-6.1543270812558859,647.1591],[19.393212890625023,-6.14080169063088,765.8075],[19.404052734375,-6.0198544250058887,763.0463],[19.40185546875,-6.0010067687558859,775.4904],[19.38037109375,-5.96648528438088,758.1458],[19.338525390625023,-5.72600676875588,599.0141],[19.3447265625,-5.71843840938088,668.0735],[19.323974609375,-5.69597747188088,721.8921],[19.314599609375023,-5.6831356750058859,607.5713],[19.310546875,-5.66790130000588,603.7805],[19.3076171875,-5.64470794063088,720.7076],[19.299560546875,-5.6262997375058887,608.949],[19.2001953125,-5.48772551875588,524.6635],[19.13427734375,-5.4226864562558887,498.1802],[19.103515625,-5.4012020812558887,487.0133],[19.068359375,-5.38787200313088,553.6026],[19.023193359375,-5.38323333125588,473.3003],[18.985742187500023,-5.38420989375588,485.6254],[18.96142578125,-5.3813778625058859,394.9931],[18.9443359375,-5.3730770812558859,452.8958],[18.935302734375,-5.3538388000058887,369.9111],[18.935693359375023,-5.33123137813088,383.4677],[18.952539062500023,-5.26531340938088,435.8474],[18.954345703125,-5.2083309875058887,389.6458],[18.950439453125,-5.1904598937558859,363.7963],[18.941308593750023,-5.17742278438088,456.0336],[18.93017578125,-5.16521575313088,377.8729],[18.920166015625,-5.1499325500058859,403.1278],[18.927148437500023,-5.12932708125588,432.3953],[18.919677734375,-5.1096981750058887,394.6283],[18.904687500000023,-5.09490325313088,404.4374],[18.881005859375023,-5.0867489562558887,373.0969],[18.872216796875023,-5.0808895812558887,412.9874],[18.85498046875,-5.06487395625588,403.6837],[18.837646484375,-5.0413388000058887,344.0],[18.817626953125,-5.0263973937558859,363.2076],[18.814697265625,-5.02337005000588,406.4669],[18.812402343750023,-5.01995208125588,405.9373],[18.810937500000023,-5.01555755000588,362.6845],[18.810302734375,-5.00994231563088,344.8655],[18.807519531250023,-5.0058895812558859,386.6583],[18.80126953125,-5.00652434688088,395.9364],[18.794335937500023,-5.00798919063088,346.3354],[18.789794921875,-5.00652434688088,380.4365],[18.787744140625023,-4.99504973750588,363.6953],[18.788964843750023,-4.9814755187558859,348.0244],[18.7880859375,-4.9702450500058859,344.2162],[18.779541015625,-4.9656552062558887,344.5901],[18.7705078125,-4.9554013000058887,355.677],[18.761621093750023,-4.9319638000058887,359.4288],[18.757568359375,-4.9062802062558859,361.4037],[18.762451171875,-4.8891903625058859,410.4493],[18.746240234375023,-4.87029387813088,412.1581],[18.734130859375,-4.84856536250588,382.153],[18.734375,-4.82854583125588,340.25],[18.755615234375,-4.81414153438088,343.0682],[18.740380859375023,-4.80315520625588,344.3621],[18.739404296875023,-4.7846981750058859,360.156],[18.748291015625,-4.7425106750058887,338.0],[18.746240234375023,-4.71721770625588,352.4285],[18.740625,-4.6980770812558887,407.6248],[18.703027343750023,-4.63152434688088,398.9688],[18.6962890625,-4.61516692500588,335.0],[18.692626953125,-4.5872372375058887,337.4888],[18.689697265625,-4.5813778625058887,359.7675],[18.667626953125023,-4.56462981563088,344.5327],[18.66064453125,-4.56170012813088,370.7842],[18.654199218750023,-4.55779387813088,334.5763],[18.646484375,-4.5478817687558859,352.0231],[18.645898437500023,-4.54070403438088,357.0102],[18.650537109375023,-4.53630950313088,336.1161],[18.651269531250023,-4.5325497375058887,335.4588],[18.6396484375,-4.52678801875588,340.0823],[18.63671875,-4.52971770625588,350.2421],[18.611328125,-4.53850676875588,411.3552],[18.601806640625,-4.5403622375058887,392.4269],[18.594482421875,-4.5390927062558859,396.3725],[18.584130859375023,-4.5356747375058859,400.5122],[18.57470703125,-4.5303036437558859,416.6024],[18.566308593750023,-4.5156552062558859,389.8199],[18.55615234375,-4.5156552062558859,421.6235],[18.53662109375,-4.51995208125588,391.3026],[18.49365234375,-4.5039364562558859,368.5053],[18.46533203125,-4.47942473750588,384.4854],[18.406005859375,-4.38420989375588,390.0457],[18.402099609375,-4.3738583312558887,366.385],[18.396386718750023,-4.2939755187558859,399.9856],[18.387939453125,-4.28753020625588,414.9177],[18.37890625,-4.25896575313088,355.9125],[18.368310546875023,-4.25237395625588,381.5405],[18.350976562500023,-4.2461239562558859,395.5544],[18.345605468750023,-4.23162200313088,341.2288],[18.34912109375,-4.2156552062558887,340.8992],[18.3583984375,-4.2046200500058859,352.6335],[18.327392578125,-4.1362606750058859,345.5613],[18.309960937500023,-4.12908294063088,335.0959],[18.29931640625,-4.11174895625588,351.4315],[18.289794921875,-4.0911434875058887,339.3722],[18.27587890625,-4.0742489562558859,340.2688],[18.241601562500023,-4.0603817687558887,354.2129],[18.23486328125,-4.05315520625588,353.2325],[18.237695312500023,-4.0459286437558859,333.1183],[18.257470703125023,-4.0330380187558887,332.5703],[18.26220703125,-4.02312590938088,353.6866],[18.2568359375,-4.0149716125058887,361.2845],[18.2451171875,-4.0120419250058887,352.0775],[18.2333984375,-4.01287200313088,353.4059],[18.22802734375,-4.01628997188088,323.086],[18.222802734375023,-4.02288176875588,331.6855],[18.211328125000023,-4.0161434875058859,330.4134],[18.13525390625,-3.9344052062558892,328.0431],[18.117333984375023,-3.9233700500058859,335.3181],[18.078271484375023,-3.91130950313088,326.2131],[18.064208984375,-3.89739348750588,327.6872],[18.0615234375,-3.88762786250588,326.1212],[18.060546875,-3.86467864375588,335.7281],[18.057373046875,-3.85515715938088,338.3345],[18.048974609375023,-3.84734465938088,330.0614],[18.0302734375,-3.8442684875058859,327.627],[18.019189453125023,-3.83782317500588,327.6464],[18.00537109375,-3.8174130187558859,325.2021],[18.011865234375023,-3.80510833125588,330.5174],[18.021142578125023,-3.79290130000588,326.5198],[18.015771484375023,-3.7732723937558892,310.0],[18.000732421875,-3.75872161250588,328.9727],[17.978417968750023,-3.74529387813088,318.0296],[17.953369140625,-3.73552825313088,310.4741],[17.929931640625,-3.73162200313088,325.35],[17.924560546875,-3.7288388000058892,321.6031],[17.912353515625,-3.71550872188088,308.5],[17.905908203125023,-3.7112606750058892,327.137],[17.894433593750023,-3.7095028625058859,320.1171],[17.857568359375023,-3.7112606750058892,325.1637],[17.832763671875,-3.7044247375058892,327.6149],[17.815673828125,-3.69182708125588,318.1401],[17.81005859375,-3.6743466125058859,324.3784],[17.8203125,-3.6528622375058859,322.7159],[17.826074218750023,-3.63201262813088,338.2525],[17.812402343750023,-3.6172177062558859,305.5],[17.789794921875,-3.61248137813088,337.8581],[17.768798828125,-3.62175872188088,324.458],[17.753320312500023,-3.6087216125058892,307.0469],[17.744531250000023,-3.60320403438088,305.8347],[17.734619140625,-3.6013973937558892,317.9492],[17.69921875,-3.62004973750588,316.2061],[17.693603515625,-3.61834075313088,319.1817],[17.685693359375023,-3.6111630187558892,320.676],[17.649316406250023,-3.5874325500058859,311.1534],[17.639062500000023,-3.5740536437558892,302.5],[17.637353515625023,-3.55462005000588,312.5479],[17.63818359375,-3.5403622375058892,314.2578],[17.635156250000023,-3.5263973937558859,314.6328],[17.621337890625,-3.50847747188088,313.019],[17.6083984375,-3.5056942687558892,313.9035],[17.580810546875,-3.5293270812558859,314.2603],[17.563232421875,-3.5330380187558892,313.5818],[17.54736328125,-3.52190520625588,309.2108],[17.544335937500023,-3.50383880000588,312.0884],[17.549707031250023,-3.4678036437558859,312.5836],[17.538330078125,-3.4629208312558859,309.2226],[17.459228515625,-3.4385067687558859,316.2629],[17.453515625000023,-3.4358700500058892,307.6371],[17.447265625,-3.43059661250588,299.453],[17.4306640625,-3.40764739375588,298.5768],[17.429833984375023,-3.40325286250588,298.0983],[17.4248046875,-3.40007903438088,297.3327],[17.414306640625,-3.38543059688088,305.695],[17.409082031250023,-3.38225676875588,299.144],[17.396728515625,-3.3806942687558892,300.3454],[17.384912109375023,-3.3764950500058859,299.9967],[17.374169921875023,-3.37004973750588,297.1109],[17.364648437500023,-3.36174895625588,299.9271],[17.352783203125,-3.3393856750058859,296.3488],[17.359130859375,-3.32097747188088,294.5],[17.37158203125,-3.30144622188088,310.6253],[17.381494140625023,-3.2644833312558892,295.2349],[17.386865234375023,-3.2529598937558859,297.7099],[17.389062500000023,-3.24114348750588,294.5695],[17.382080078125,-3.2283505187558892,292.5],[17.373779296875,-3.2171200500058892,292.5],[17.368798828125023,-3.20671965938088,292.5],[17.362548828125,-3.1977841125058859,303.9734],[17.350976562500023,-3.19036223750588,300.4263]]}}