{"type":"Feature","properties":{"featurecla":"River","scalerank":3,"rivernum":81,"dissolve":"81River","name":"Kasai6","name_alt":null,"note":null,"min_zoom":3.0,"strokeweig":1.0,"name_en":"Kasai","min_label":4.0},
"geometry":{"type": "LineString","coordinates": [[18.61572265625,-3.6013973937558892,331.9689],[18.4990234375,-3.6013973937558892,314.6892],[18.474853515625,-3.5979794250058892,313.7386],[18.45849609375,-3.58928801875588,312.0],[18.43408203125,-3.56658294063088,313.2587],[18.404687500000023,-3.54705169063088,312.2826],[18.33837890625,-3.5127255187558859,309.5],[18.310693359375023,-3.4915341125058892,309.0],[18.296142578125,-3.47576262813088,308.5],[18.290185546875023,-3.4710263000058892,308.5],[18.26611328125,-3.4597958312558892,308.0],[18.2587890625,-3.45452239375588,308.0],[18.249414062500023,-3.43865325313088,307.5],[18.242333984375023,-3.42180755000588,307.0],[18.230615234375023,-3.41008880000588,307.0],[18.20703125,-3.41008880000588,307.3708],[18.194726562500023,-3.4155575500058859,306.0],[18.187744140625,-3.4226864562558892,306.0],[18.181884765625,-3.43035247188088,309.0484],[18.1728515625,-3.43743255000588,305.5],[18.1611328125,-3.44109465938088,310.1528],[18.150634765625,-3.4407528625058892,320.8844],[18.13525390625,-3.43743255000588,305.0],[18.115625,-3.4309872375058892,308.8455],[18.098291015625023,-3.4160458312558859,307.9615],[18.083251953125,-3.39983489375588,304.8848],[18.071044921875,-3.3896786437558859,303.5],[18.026611328125,-3.38030364375588,302.5],[17.985986328125023,-3.38836028438088,310.2736],[17.905908203125023,-3.4163388000058892,302.1694],[17.884033203125,-3.41863372188088,301.5],[17.8271484375,-3.4163388000058892,301.6017],[17.82080078125,-3.4121395812558859,300.5],[17.818359375,-3.40300872188088,300.5],[17.81689453125,-3.3938778625058892,300.5],[17.813378906250023,-3.3896786437558859,300.5],[17.775634765625,-3.3760067687558859,299.5],[17.743408203125,-3.3582333312558892,299.0],[17.727685546875023,-3.3470028625058892,306.3602],[17.720947265625,-3.33782317500588,303.4807],[17.718994140625,-3.33098723750588,305.9077],[17.71435546875,-3.32317473750588,298.5],[17.708642578125023,-3.31658294063088,306.5164],[17.704003906250023,-3.31389739375588,313.139],[17.697998046875,-3.31609465938088,308.4763],[17.68896484375,-3.32537200313088,302.981],[17.68310546875,-3.32756926875588,303.9747],[17.675195312500023,-3.32610442500588,297.5],[17.669921875,-3.3225888000058892,297.5],[17.665429687500023,-3.3181942687558892,297.5],[17.627587890625023,-3.2964169250058859,301.0703],[17.617919921875,-3.29338958125588,314.6997],[17.59619140625,-3.3042294250058859,305.8995],[17.582763671875,-3.3086239562558859,296.0],[17.522363281250023,-3.2593075500058859,300.1891],[17.50244140625,-3.25261809688088,297.9175],[17.458740234375,-3.24627044063088,297.0576],[17.4404296875,-3.23821380000588,302.4387],[17.435791015625,-3.23137786250588,312.839],[17.431298828125023,-3.2119442687558859,310.6584],[17.426171875000023,-3.20403411250588,311.929],[17.31005859375,-3.18352630000588,293.0834],[17.259423828125023,-3.1650692687558859,320.1506],[17.244873046875,-3.16253020625588,305.7943],[17.230224609375,-3.15813567500588,301.1889],[17.21484375,-3.1477841125058892,340.1034],[17.175195312500023,-3.11419036250588,291.5693],[17.1123046875,-3.07293059688088,313.0383],[17.064697265625,-3.05046965938088,303.3575],[17.028466796875023,-3.0410458312558859,288.4121],[16.9912109375,-3.0176083312558859,286.5898],[16.96044921875,-3.01165130000588,285.4871]]}}