{"type":"Feature","properties":{"featurecla":"Lake Centerline","scalerank":8,"rivernum":666,"dissolve":"666Lake Centerline","name":"Lokoro","name_alt":null,"note":null,"min_zoom":7.0,"strokeweig":0.2,"name_en":"Lokoro","min_label":8.0},
"geometry":{"type": "LineString","coordinates": [[18.180322265625023,-2.71062590938088,302.4877],[18.201074218750023,-2.69475676875588,293.6013],[18.226318359375,-2.6806942687558859,291.0],[18.248779296875,-2.63860442500588,291.0],[18.25439453125,-2.6172177062558859,291.0],[18.265625,-2.5459286437558859,291.0],[18.2607421875,-2.4638973937558859,291.0],[18.279687500000023,-2.42522551875588,291.0],[18.301171875000023,-2.39690520625588,291.0],[18.324609375000023,-2.3579403625058859,291.0],[18.347802734375023,-2.2988583312558859,291.0],[18.358300781250023,-2.2483700500058892,291.0],[18.359619140625,-2.1880184875058859,291.0],[18.352685546875023,-2.11077239375588,291.0],[18.322265625,-2.0550106750058892,291.0],[18.268457031250023,-2.0180966125058859,291.0],[18.238671875000023,-1.97820403438088,291.0],[18.23193359375,-1.94231536250588,291.0],[18.237548828125,-1.835772393755889,291.0],[18.25048828125,-1.787920831255889,291.0],[18.282470703125,-1.74016692500588,291.0],[18.314453125,-1.72161223750588,291.0],[18.352685546875023,-1.7178036437558859,291.0],[18.388574218750023,-1.71990325313088,291.0],[18.411767578125023,-1.734698175005889,294.8975]]}}