{"type":"Feature","properties":{"featurecla":"River","scalerank":3,"rivernum":81,"dissolve":"81River","name":"Kasai4","name_alt":null,"note":null,"min_zoom":3.0,"strokeweig":0.45,"name_en":"Kasai","min_label":4.0},
"geometry":{"type": "LineString","coordinates": [[20.897705078125,-5.59563567500588,448.8689],[20.91650390625,-5.58635833125588,403.7167],[20.917382812500023,-5.5647763000058887,441.2757],[20.907617187500023,-5.52044036250588,397.2513],[20.917724609375,-5.4995419250058859,527.2611],[20.954248046875023,-5.46550872188088,507.4106],[20.962304687500023,-5.4554013000058887,531.6766],[20.96533203125,-5.4497372375058859,529.0631],[20.972558593750023,-5.4424130187558859,505.8099],[20.9794921875,-5.4329403625058887,426.8231],[20.982666015625,-5.42083098750588,387.7724],[20.981201171875,-5.38665130000588,472.0858],[20.982666015625,-5.3764950500058859,496.4373],[20.995849609375,-5.3572567687558887,456.8788],[21.030419921875023,-5.33684661250588,482.8915],[21.037353515625,-5.3181942687558887,495.6111],[21.045654296875,-5.30608489375588,435.2343],[21.063623046875023,-5.29583098750588,531.1979],[21.080322265625,-5.28045012813088,434.6332],[21.085205078125,-5.2529598937558859,420.6991],[21.08203125,-5.24236419063088,490.8141],[21.07373046875,-5.2288388000058887,380.5],[21.072167968750023,-5.2187802062558859,482.6278],[21.074121093750023,-5.20818450313088,484.434],[21.0830078125,-5.1868466125058887,402.3721],[21.085205078125,-5.1738583312558859,424.2627],[21.085205078125,-5.08904387813088,491.1351],[21.08740234375,-5.0730770812558887,434.1],[21.09716796875,-5.0371395812558859,397.0126],[21.099365234375,-5.01677825313088,430.4973],[21.096093750000023,-4.9971005187558859,373.0],[21.088525390625023,-4.9844052062558859,372.5],[21.07958984375,-4.9731747375058859,372.5],[21.072167968750023,-4.95818450313088,372.0],[21.04248046875,-4.73333098750588,493.5918],[21.046289062500023,-4.65935637813088,453.4063],[21.045068359375023,-4.64837005000588,422.2669],[21.039306640625,-4.6391903625058859,447.5053],[21.02734375,-4.6258114562558887,374.0233],[20.965722656250023,-4.6155575500058887,365.0],[20.936181640625023,-4.61516692500588,364.5],[20.925683593750023,-4.6131161437558887,364.0],[20.914453125000023,-4.60808684688088,364.0],[20.893457031250023,-4.59368255000588,426.532],[20.879638671875,-4.5874325500058859,445.8956],[20.87353515625,-4.5916317687558887,363.0],[20.867919921875,-4.5916317687558887,363.0],[20.841064453125,-4.56975676875588,431.3186],[20.820947265625023,-4.5481747375058887,447.3552],[20.816162109375,-4.53777434688088,474.3317],[20.816064453125023,-4.5252255187558887,479.9485],[20.81884765625,-4.50628020625588,450.9853],[20.79736328125,-4.51189544063088,433.963],[20.7724609375,-4.51360442500588,423.2899],[20.748046875,-4.5100888000058887,364.6014],[20.729394531250023,-4.5000302062558859,358.0],[20.725976562500023,-4.4886044250058887,358.0],[20.7255859375,-4.47234465938088,518.9136],[20.721093750000023,-4.45794036250588,464.6502],[20.70556640625,-4.4516903625058859,459.5653],[20.696435546875023,-4.44622161250588,411.2828],[20.6806640625,-4.42229583125588,380.4522],[20.671142578125,-4.41692473750588,397.4806],[20.643798828125,-4.4160458312558859,355.5],[20.620849609375,-4.41033294063088,367.3912],[20.60498046875,-4.39519622188088,360.9904],[20.59912109375,-4.36565520625588,427.0813],[20.588623046875,-4.3382138000058887,429.1],[20.564355468750023,-4.3198544250058859,367.9332],[20.537109375,-4.3167294250058887,425.2328],[20.517822265625,-4.3349911437558859,367.9617],[20.473876953125,-4.3098934875058887,407.0797],[20.4443359375,-4.30413176875588,379.0131],[20.426904296875023,-4.2971981750058887,348.0],[20.41064453125,-4.2884091125058887,348.0],[20.393701171875023,-4.2783505187558859,373.4617]]}}