{"type":"Feature","properties":{"featurecla":"River","scalerank":3,"rivernum":81,"dissolve":"81River","name":"Kasai7","name_alt":null,"note":null,"min_zoom":3.0,"strokeweig":1.25,"name_en":"Kasai","min_label":4.0},
"geometry":{"type": "LineString","coordinates": [[16.966210937500023,-3.0086239562558892,284.0],[16.909326171875023,-3.02581145625588,295.0533],[16.886621093750023,-3.0395809875058859,283.5],[16.871240234375023,-3.0600888000058859,294.8003],[16.869042968750023,-3.07122161250588,287.3722],[16.869873046875,-3.0801083312558859,286.5541],[16.868066406250023,-3.0877255187558892,286.3274],[16.858154296875,-3.09417083125588,283.0],[16.849365234375,-3.09392669063088,286.0924],[16.84033203125,-3.0888973937558859,285.8778],[16.833251953125,-3.0823544250058892,285.4632],[16.830322265625,-3.07708098750588,285.53],[16.82080078125,-3.07122161250588,284.8404],[16.697656250000023,-3.04778411250588,281.0],[16.676025390625,-3.0464169250058859,280.5],[16.6533203125,-3.04900481563088,280.0],[16.590087890625,-3.0669247375058859,279.25],[16.570214843750023,-3.06633880000588,279.0],[16.530908203125023,-3.05584075313088,286.5063],[16.502587890625023,-3.0515927062558892,278.0],[16.495263671875023,-3.04924895625588,278.0],[16.487451171875023,-3.04973723750588,281.6181],[16.477197265625023,-3.0566708312558859,277.5],[16.464599609375,-3.0735653625058892,277.5],[16.457763671875,-3.0791317687558859,302.2491],[16.446044921875,-3.08049895625588,287.6589],[16.4375,-3.0769833312558892,287.7158],[16.424707031250023,-3.06316497188088,302.4144],[16.416015625,-3.0600888000058859,287.6058],[16.405517578125,-3.0615536437558859,294.3646],[16.396240234375,-3.0657528625058892,280.1148],[16.381591796875,-3.07708098750588,276.0],[16.366943359375,-3.08294036250588,277.7527],[16.239648437500023,-3.1082333312558892,352.0832],[16.223535156250023,-3.1184872375058892,329.781],[16.215087890625,-3.1347958312558859,310.1602],[16.207177734375023,-3.1753231750058859,286.6689],[16.19970703125,-3.19036223750588,297.6912]]}}