{"type": "Feature","bbox": [24.9808,-11.2287,27.188,-9.4872],"geometry": {"type": "MultiPolygon","coordinates": [[[[27.0731,-10.5634,1192.8123],[27.0929,-10.5541,1157.0535],[27.1019,-10.5468,1113.7952],[27.1032,-10.5277,1022.5833],[27.1093,-10.5172,1008.1218],[27.1154,-10.5118,1011.705],[27.136,-10.485,1025.6353],[27.1602,-10.4624,956.0518],[27.1697,-10.4503,938.512],[27.1855,-10.4353,932.7349],[27.1879,-10.4325,930.1035],[27.188,-10.4296,931.3543],[27.1595,-10.395,924.6812],[27.1305,-10.35,913.2827],[27.1056,-10.3208,916.5422],[27.0782,-10.3021,918.5352],[27.0565,-10.2904,916.7051],[27.015,-10.2597,914.7266],[26.9884,-10.2337,925.0344],[26.9822,-10.2258,931.203],[26.9799,-10.2179,936.768],[26.9807,-10.2109,939.1577],[26.9899,-10.1949,939.8676],[27.0109,-10.1669,929.0822],[27.019,-10.1532,909.5275],[27.0269,-10.1354,911.9991],[27.0426,-10.1068,915.041],[27.0484,-10.0982,909.9352],[27.0763,-10.0685,897.7338],[27.0994,-10.0335,899.8566],[27.0985,-10.0249,897.9312],[27.085,-9.9913,896.6135],[27.0761,-9.985,893.9205],[27.0676,-9.9754,899.0886],[27.0644,-9.9688,900.3711],[27.0633,-9.9497,894.4707],[27.0657,-9.9424,891.6547],[27.0732,-9.9303,890.0408],[27.075,-9.9217,889.4405],[27.0697,-9.916,890.5583],[27.0591,-9.9132,890.4065],[27.0455,-9.9135,891.6209],[27.0339,-9.9218,888.2109],[27.0263,-9.9153,889.303],[27.0236,-9.9215,890.1345],[27.0164,-9.9191,889.3934],[27.0074,-9.9351,889.9907],[27.0084,-9.9406,891.3578],[27.0064,-9.9434,889.4985],[26.9901,-9.9386,891.163],[26.988,-9.9409,892.9003],[26.987,-9.9483,893.4209],[26.9826,-9.9509,892.2516],[26.9843,-9.9555,894.6563],[26.9715,-9.9552,895.2013],[26.9654,-9.9493,896.1721],[26.9633,-9.9505,896.3967],[26.9593,-9.9582,897.3839],[26.9563,-9.9584,895.9949],[26.9527,-9.9541,897.0659],[26.9492,-9.954,897.4054],[26.9433,-9.9596,899.3302],[26.9412,-9.9598,898.5419],[26.9413,-9.9647,898.6531],[26.9395,-9.9672,897.9324],[26.933,-9.965,901.1859],[26.9306,-9.9752,899.8172],[26.9228,-9.9686,902.2412],[26.9137,-9.9642,903.5909],[26.9088,-9.9642,901.2445],[26.9081,-9.9771,907.6761],[26.9007,-9.965,904.6823],[26.8954,-9.9649,906.7135],[26.8924,-9.967,907.062],[26.8861,-9.9621,905.9285],[26.8843,-9.9664,905.6211],[26.8887,-9.9811,909.4396],[26.8862,-9.9862,913.2667],[26.8839,-9.9855,909.1088],[26.8821,-9.9784,905.5665],[26.8789,-9.9789,907.7556],[26.873,-9.9852,910.2317],[26.8704,-9.9848,908.1003],[26.8678,-9.9798,908.5767],[26.8603,-9.9772,906.3182],[26.8552,-9.9779,910.1662],[26.8486,-9.9833,914.7726],[26.8391,-9.9851,913.2655],[26.8361,-9.9872,913.958],[26.8359,-10.0035,917.0771],[26.8343,-10.009,921.4708],[26.8311,-10.0116,923.9013],[26.8219,-10.0129,919.2646],[26.8148,-10.0195,914.6464],[26.8102,-10.0211,922.1235],[26.8025,-10.0206,922.1575],[26.7958,-10.0239,921.8122],[26.79,-10.0237,915.2264],[26.7839,-10.0183,921.52],[26.7751,-10.0173,923.1634],[26.771,-10.0114,930.5066],[26.7636,-10.0066,934.6547],[26.7557,-10.0088,944.2739],[26.7471,-10.0055,939.8975],[26.7724,-9.9898,942.3843],[26.7818,-9.9793,935.3041],[26.7823,-9.9362,945.0828],[26.7798,-9.919,943.7886],[26.7734,-9.9131,949.9443],[26.6472,-9.9112,989.4044],[26.6191,-9.9207,999.3622],[26.5993,-9.9214,1006.8832],[26.5891,-9.9172,1011.0372],[26.5837,-9.9126,1013.2284],[26.5588,-9.912,1026.2617],[26.5462,-9.9065,1033.5002],[26.5325,-9.9072,1043.6636],[26.5141,-9.9053,1048.4359],[26.4941,-9.8956,1049.322],[26.4792,-9.8907,1053.1758],[26.4672,-9.8917,1064.4763],[26.4432,-9.8983,1093.5394],[26.4301,-9.8982,1105.8464],[26.4228,-9.8966,1117.9883],[26.412,-9.8857,1107.2115],[26.404,-9.874,1120.3435],[26.4004,-9.8715,1132.496],[26.3895,-9.8693,1216.8387],[26.3789,-9.8691,1198.2524],[26.3667,-9.8623,1200.0676],[26.3602,-9.8542,1215.973],[26.3417,-9.8565,1263.7717],[26.3168,-9.8569,1314.4075],[26.3103,-9.8602,1315.8616],[26.3035,-9.8801,1284.9333],[26.299,-9.8844,1291.4915],[26.2827,-9.8841,1400.4176],[26.2756,-9.8779,1458.011],[26.2699,-9.8668,1569.6609],[26.2691,-9.8499,1414.8951],[26.2665,-9.842,1483.9358],[26.2671,-9.8221,1510.1299],[26.2852,-9.793,1626.4805],[26.2868,-9.7744,1584.3878],[26.2921,-9.764,1633.2102],[26.3212,-9.7342,1627.6849],[26.3384,-9.7208,1407.441],[26.3402,-9.7179,1407.0928],[26.3392,-9.7091,1401.8572],[26.3301,-9.6911,1588.1152],[26.3308,-9.6794,1657.8979],[26.335,-9.6715,1661.1488],[26.3523,-9.6545,1654.6083],[26.353,-9.6509,1649.1084],[26.3507,-9.6467,1642.2725],[26.3469,-9.6464,1645.9125],[26.3428,-9.6431,1640.9481],[26.3374,-9.6415,1642.322],[26.3326,-9.6412,1640.681],[26.3148,-9.6481,1648.4521],[26.301,-9.6553,1637.9946],[26.28,-9.6697,1561.6138],[26.2687,-9.6746,1595.6647],[26.2603,-9.6733,1583.8601],[26.2498,-9.6792,1571.5182],[26.2429,-9.6858,1546.6897],[26.2324,-9.7006,1541.1597],[26.2201,-9.7107,1532.7499],[26.2126,-9.7123,1523.4575],[26.2051,-9.7107,1555.0087],[26.2017,-9.7058,1579.9247],[26.1967,-9.7026,1565.394],[26.1923,-9.7003,1576.2122],[26.1885,-9.7003,1588.7797],[26.1727,-9.7085,1494.3296],[26.1648,-9.7102,1390.0875],[26.1546,-9.7092,1399.8896],[26.1485,-9.7066,1409.4116],[26.1457,-9.7073,1413.9171],[26.1413,-9.7089,1387.3025],[26.134,-9.7168,1354.4419],[26.1289,-9.7197,1392.854],[26.123,-9.7207,1341.3832],[26.1159,-9.7188,1256.1553],[26.1081,-9.7116,1257.3837],[26.1041,-9.7113,1246.2434],[26.0462,-9.7222,1144.3258],[26.0377,-9.7226,1122.6167],[26.0326,-9.7197,1087.5911],[26.0313,-9.7135,1104.7637],[26.0311,-9.706,1169.927],[26.0355,-9.6821,1036.4968],[26.0355,-9.6779,1042.3615],[26.0335,-9.6766,1002.5493],[26.0229,-9.6825,1008.8875],[26.0078,-9.6845,1106.3954],[25.9591,-9.7,1002.4835],[25.9445,-9.7013,1016.8847],[25.9264,-9.701,992.561],[25.9148,-9.6991,1158.1703],[25.8799,-9.6799,822.7347],[25.8765,-9.6751,846.9811],[25.845,-9.6575,859.2607],[25.8366,-9.6507,875.4373],[25.8245,-9.6331,862.1357],[25.811,-9.6253,877.0901],[25.7963,-9.6218,849.0884],[25.7431,-9.5981,847.9542],[25.7231,-9.5838,803.498],[25.7096,-9.5718,764.8127],[25.7001,-9.5669,759.1199],[25.6944,-9.5601,767.9398],[25.684,-9.5516,780.5804],[25.6719,-9.536,799.703],[25.6547,-9.519,803.2369],[25.6451,-9.493,795.7978],[25.6407,-9.4897,796.3702],[25.6264,-9.4934,777.2832],[25.6191,-9.497,778.0602],[25.6002,-9.513,752.686],[25.5902,-9.5171,729.493],[25.5786,-9.5165,734.2255],[25.5681,-9.5102,752.6051],[25.5591,-9.511,732.629],[25.5493,-9.5069,717.3944],[25.5377,-9.5052,716.6962],[25.5304,-9.509,716.3914],[25.5104,-9.5055,711.9249],[25.5116,-9.4885,704.9689],[25.5016,-9.4872,690.7029],[25.498,-9.4957,700.1946],[25.5025,-9.503,693.3253],[25.5026,-9.5086,704.6839],[25.498,-9.5357,703.1836],[25.4953,-9.5424,695.8917],[25.4911,-9.5464,710.3159],[25.4903,-9.5505,715.8962],[25.4931,-9.5585,733.0354],[25.4922,-9.5629,714.1976],[25.4967,-9.5865,713.3278],[25.5025,-9.5879,699.5053],[25.5065,-9.5929,701.6055],[25.5067,-9.5959,700.9506],[25.504,-9.6019,688.773],[25.5109,-9.6158,710.95],[25.5153,-9.6204,711.7507],[25.5163,-9.6298,686.9819],[25.5213,-9.6355,704.9016],[25.5213,-9.6398,719.7822],[25.5193,-9.6424,729.481],[25.513,-9.642,713.2318],[25.4994,-9.6288,688.7166],[25.4932,-9.6275,691.3146],[25.4904,-9.628,693.9631],[25.4863,-9.6331,695.5847],[25.4865,-9.6361,695.2524],[25.4893,-9.6404,692.8582],[25.501,-9.6449,692.1573],[25.5089,-9.6538,702.5801],[25.5182,-9.6541,690.9622],[25.522,-9.6568,703.7435],[25.5243,-9.6621,710.9056],[25.524,-9.6725,704.7318],[25.5259,-9.68,718.1385],[25.523,-9.6909,694.7435],[25.524,-9.6941,696.8195],[25.5272,-9.697,704.5496],[25.5319,-9.6974,702.2657],[25.5385,-9.6916,693.7515],[25.5436,-9.6923,707.5068],[25.546,-9.6968,706.5996],[25.5435,-9.7028,715.6344],[25.5447,-9.707,713.1993],[25.5427,-9.7088,703.0258],[25.535,-9.7087,707.2139],[25.5277,-9.7044,700.0739],[25.5218,-9.7053,708.7059],[25.5192,-9.7074,715.2062],[25.5208,-9.7231,702.0244],[25.5253,-9.7297,702.866],[25.5369,-9.7378,713.9403],[25.5388,-9.741,717.0766],[25.5484,-9.7423,742.5356],[25.5463,-9.7497,735.8108],[25.5406,-9.7543,726.5235],[25.5377,-9.7622,737.0341],[25.5382,-9.7663,732.202],[25.5446,-9.7787,733.7686],[25.5416,-9.7941,723.8035],[25.5373,-9.7981,732.8329],[25.5246,-9.8003,748.9802],[25.4936,-9.8219,819.3793],[25.4883,-9.8242,842.1496],[25.4791,-9.8243,834.9171],[25.4722,-9.8217,900.1231],[25.4548,-9.8191,896.6825],[25.4507,-9.8164,889.4235],[25.4395,-9.8155,883.0477],[25.424,-9.817,879.2023],[25.4171,-9.8205,896.2833],[25.4067,-9.8227,920.0397],[25.3345,-9.8563,997.2582],[25.3111,-9.8638,1010.5677],[25.2771,-9.879,1005.9821],[25.2667,-9.8816,993.6277],[25.2512,-9.8901,962.7001],[25.2151,-9.9043,953.5256],[25.2031,-9.9074,924.0255],[25.1859,-9.9159,931.7634],[25.1775,-9.9172,928.597],[25.1643,-9.9256,927.0997],[25.1445,-9.9515,932.7182],[25.1306,-9.9739,964.3558],[25.1283,-9.9799,958.2723],[25.1069,-9.9811,989.1525],[25.0854,-9.9754,1004.5031],[25.0667,-9.9871,1035.2706],[25.0545,-9.9973,1000.418],[25.0365,-10.008,1013.6826],[25.0192,-10.0147,1011.7582],[24.9927,-10.014,1006.4626],[24.9833,-10.0164,1023.2806],[24.9808,-10.0257,1014.3156],[24.9809,-10.0327,997.3356],[24.983,-10.0382,984.0135],[25.0063,-10.0419,1000.1703],[25.017,-10.0393,976.1899],[25.0721,-10.0498,948.053],[25.062,-10.0683,985.5105],[25.0563,-10.0734,961.6522],[25.0698,-10.085,979.9895],[25.0788,-10.0997,977.534],[25.0774,-10.1043,985.6339],[25.0807,-10.1114,1008.8752],[25.0846,-10.1293,1000.1131],[25.0945,-10.148,1041.3296],[25.0958,-10.1575,1029.8197],[25.095,-10.1786,1003.4312],[25.1063,-10.1896,999.4622],[25.1149,-10.1927,1023.6631],[25.1201,-10.2005,1004.515],[25.125,-10.2032,1003.6255],[25.1338,-10.2043,1014.355],[25.1464,-10.2127,1019.2726],[25.1693,-10.232,1046.658],[25.1708,-10.2359,1053.1121],[25.1646,-10.2502,1062.9042],[25.1656,-10.2548,1072.9797],[25.1641,-10.2675,1093.8796],[25.1659,-10.2819,1105.5486],[25.1762,-10.3009,1089.975],[25.1916,-10.3026,1088.0851],[25.1988,-10.2989,1090.9961],[25.2118,-10.2992,1100.6182],[25.2236,-10.2934,1115.5238],[25.2318,-10.2938,1126.7559],[25.2519,-10.3044,1149.8831],[25.2615,-10.3157,1076.5685],[25.2876,-10.3203,985.8813],[25.2935,-10.3239,951.122],[25.2999,-10.3363,938.8624],[25.2991,-10.3449,921.6763],[25.3028,-10.3513,934.8113],[25.3071,-10.3551,984.6448],[25.3185,-10.3596,1019.3845],[25.3294,-10.3597,1041.6584],[25.334,-10.3563,1040.7822],[25.3514,-10.354,1040.8467],[25.3591,-10.3599,1044.3563],[25.3789,-10.3457,1051.0746],[25.3877,-10.3437,1058.642],[25.4013,-10.3453,1097.1066],[25.4143,-10.3442,1124.3843],[25.4156,-10.3359,1107.8984],[25.4201,-10.3276,1102.248],[25.4374,-10.312,1025.5463],[25.4558,-10.2918,1199.2795],[25.4598,-10.281,1049.9287],[25.4593,-10.2773,1023.6415],[25.4537,-10.2705,1157.0071],[25.4543,-10.2587,1022.7166],[25.451,-10.2544,1001.1262],[25.4492,-10.2448,1040.2057],[25.4446,-10.2418,978.9279],[25.4417,-10.2377,1041.0413],[25.4368,-10.2364,1190.7019],[25.4308,-10.2311,945.5576],[25.4184,-10.231,919.0571],[25.4172,-10.2258,898.2739],[25.4183,-10.2152,904.4907],[25.4166,-10.2104,903.5491],[25.4106,-10.2123,883.9193],[25.4015,-10.2073,863.2054],[25.3998,-10.2027,874.0417],[25.4004,-10.193,892.7693],[25.4099,-10.1872,923.0063],[25.4154,-10.1814,865.7569],[25.4227,-10.168,962.8351],[25.4238,-10.1629,865.4995],[25.4393,-10.1637,946.7471],[25.4449,-10.1623,966.2097],[25.4696,-10.1756,1038.1211],[25.4715,-10.1781,1125.5413],[25.4742,-10.19,1125.8367],[25.4717,-10.1958,1125.3738],[25.4732,-10.2057,1113.2072],[25.4842,-10.2159,1170.6252],[25.4924,-10.22,1273.8557],[25.5131,-10.2239,1330.563],[25.5297,-10.237,1325.505],[25.5409,-10.2401,1277.2097],[25.546,-10.2399,1223.1318],[25.5501,-10.2355,1217.525],[25.559,-10.2379,1346.5797],[25.5673,-10.2346,1269.943],[25.5801,-10.2347,1288.8618],[25.5854,-10.2296,1324.5912],[25.5893,-10.2311,1367.4946],[25.5925,-10.2226,1338.3634],[25.6007,-10.2126,1479.1769],[25.6064,-10.1978,1380.7573],[25.6171,-10.1839,1370.6184],[25.6211,-10.1831,1373.0021],[25.6278,-10.1859,1376.6255],[25.6315,-10.1813,1389.6055],[25.6394,-10.1844,1424.4099],[25.6445,-10.1816,1431.7058],[25.6548,-10.1888,1490.3395],[25.6595,-10.1941,1551.1814],[25.6612,-10.2,1551.4291],[25.6581,-10.2171,1619.5608],[25.6571,-10.2329,1654.1503],[25.6582,-10.2477,1688.4076],[25.6538,-10.2626,1690.0809],[25.6494,-10.265,1679.9634],[25.6473,-10.2694,1651.2136],[25.6674,-10.2589,1700.6655],[25.6784,-10.2572,1694.2275],[25.692,-10.2392,1679.949],[25.697,-10.2288,1656.041],[25.7007,-10.2274,1652.959],[25.7063,-10.2292,1646.2656],[25.7146,-10.2292,1652.9468],[25.7281,-10.227,1641.9314],[25.7428,-10.2238,1641.9844],[25.7612,-10.2167,1665.7183],[25.7706,-10.2177,1680.6736],[25.7792,-10.2237,1679.7981],[25.7875,-10.232,1659.5747],[25.7887,-10.2401,1669.2207],[25.8023,-10.2591,1665.1989],[25.8041,-10.2689,1658.343],[25.8022,-10.2776,1653.0907],[25.7956,-10.2879,1642.4584],[25.7912,-10.3018,1646.4266],[25.7905,-10.3151,1648.9548],[25.7932,-10.3379,1651.9529],[25.797,-10.3441,1644.5129],[25.8024,-10.3454,1638.5903],[25.8101,-10.3504,1628.0403],[25.8194,-10.3528,1634.3518],[25.8218,-10.3553,1625.1344],[25.824,-10.3622,1620.7317],[25.8333,-10.3694,1617.7866],[25.836,-10.3772,1607.7069],[25.8421,-10.3847,1599.0713],[25.8481,-10.4166,1492.1621],[25.8454,-10.4298,1430.9663],[25.8486,-10.4419,1433.0287],[25.8468,-10.4486,1409.5269],[25.8535,-10.466,1375.004],[25.8532,-10.4803,1407.2385],[25.8558,-10.5003,1343.6395],[25.8482,-10.5172,1407.8796],[25.8486,-10.5225,1375.7041],[25.8609,-10.547,1439.4027],[25.8669,-10.5776,1424.1279],[25.8776,-10.6148,1381.7639],[25.8974,-10.6445,1433.8157],[25.9118,-10.6715,1459.5131],[25.9093,-10.6849,1442.2238],[25.8888,-10.7079,1421.3738],[25.8883,-10.7135,1415.1628],[25.9036,-10.7353,1404.137],[25.9037,-10.7528,1370.9034],[25.8975,-10.7821,1345.5681],[25.9009,-10.7865,1335.5654],[25.9075,-10.7899,1347.005],[25.9163,-10.8002,1304.4321],[25.9184,-10.8162,1278.0781],[25.9244,-10.8358,1282.0614],[25.9261,-10.8532,1330.2264],[25.9328,-10.8699,1372.6903],[25.9393,-10.9055,1447.9277],[25.9407,-10.9211,1454.3673],[25.9492,-10.9563,1482.1082],[25.9731,-10.9629,1501.0583],[25.9952,-10.964,1520.099],[26.0448,-10.9765,1504.3444],[26.0652,-10.9794,1470.7097],[26.0696,-10.9759,1472.3525],[26.0802,-10.9728,1459.2012],[26.0967,-10.965,1439.3446],[26.1063,-10.9554,1430.2776],[26.1168,-10.9541,1419.6749],[26.1235,-10.9481,1414.4517],[26.1416,-10.926,1408.6582],[26.1493,-10.9133,1409.703],[26.1515,-10.9054,1396.8887],[26.1509,-10.8951,1393.6613],[26.16,-10.8906,1413.7531],[26.1666,-10.8831,1402.322],[26.1738,-10.8819,1407.5925],[26.1806,-10.8843,1393.2271],[26.1861,-10.8813,1397.6187],[26.1952,-10.8825,1404.0469],[26.2024,-10.8802,1408.4008],[26.2083,-10.884,1407.7925],[26.215,-10.8837,1402.2721],[26.2176,-10.888,1424.6565],[26.2175,-10.8951,1406.9617],[26.2194,-10.8981,1422.0498],[26.2259,-10.8973,1404.3146],[26.2269,-10.9047,1416.3112],[26.223,-10.9093,1410.2256],[26.2224,-10.913,1415.3821],[26.2241,-10.9171,1417.1184],[26.233,-10.9246,1413.387],[26.2298,-10.927,1419.9845],[26.2343,-10.9368,1429.5397],[26.2397,-10.9388,1428.1914],[26.2414,-10.9445,1425.54],[26.251,-10.9497,1433.2106],[26.2553,-10.9515,1429.3121],[26.2585,-10.9494,1431.8665],[26.2646,-10.9518,1426.7886],[26.2654,-10.9612,1430.2393],[26.2712,-10.9809,1449.938],[26.2697,-10.9876,1445.5398],[26.2726,-10.9931,1448.0626],[26.2779,-10.9935,1448.4185],[26.281,-10.9965,1453.1495],[26.285,-10.9964,1452.3328],[26.2868,-10.9984,1454.6555],[26.3,-11.0256,1471.1343],[26.3032,-11.0392,1459.3871],[26.3108,-11.0485,1474.4733],[26.3242,-11.0525,1483.4236],[26.3278,-11.0555,1490.4333],[26.3309,-11.0612,1502.1257],[26.3313,-11.0671,1515.2712],[26.3278,-11.0757,1531.1836],[26.3147,-11.0997,1547.23],[26.3151,-11.1038,1551.9324],[26.323,-11.1205,1576.4552],[26.3164,-11.1477,1584.1599],[26.3201,-11.155,1569.3923],[26.3218,-11.1699,1603.3397],[26.3202,-11.1835,1594.0109],[26.3091,-11.2048,1599.1709],[26.3104,-11.2089,1599.7656],[26.3604,-11.2287,1595.6388],[26.3574,-11.2065,1559.4299],[26.3488,-11.1708,1605.2284],[26.3494,-11.1612,1599.1243],[26.3552,-11.1531,1614.2913],[26.356,-11.13,1629.5018],[26.3534,-11.1164,1594.1177],[26.3558,-11.11,1597.3533],[26.3559,-11.1028,1583.6001],[26.3442,-11.0575,1520.3228],[26.3458,-11.0421,1533.954],[26.3488,-11.0317,1551.8679],[26.3609,-11.0085,1510.8506],[26.3963,-10.9532,1542.3319],[26.4081,-10.9295,1509.9995],[26.4189,-10.918,1479.9475],[26.4264,-10.9182,1468.4476],[26.4404,-10.9092,1424.071],[26.4669,-10.9122,1470.5459],[26.4741,-10.9104,1450.2897],[26.4803,-10.9086,1425.0209],[26.4979,-10.8977,1397.9169],[26.5141,-10.8935,1545.4775],[26.5236,-10.894,1536.2899],[26.5411,-10.8989,1545.6569],[26.5496,-10.8984,1546.1067],[26.5564,-10.8871,1509.7487],[26.5612,-10.8825,1529.8218],[26.5659,-10.8816,1486.3667],[26.5666,-10.8689,1442.3694],[26.5629,-10.8635,1440.9015],[26.5615,-10.8576,1446.5874],[26.5603,-10.8413,1416.8844],[26.5616,-10.8119,1502.2623],[26.5685,-10.7969,1417.5646],[26.5857,-10.7833,1321.2427],[26.5952,-10.7676,1225.3462],[26.5964,-10.7606,1220.5194],[26.6062,-10.7404,1178.0499],[26.6051,-10.7334,1179.5586],[26.5997,-10.7275,1183.4891],[26.5849,-10.7185,1185.3325],[26.5753,-10.7101,1180.7854],[26.5166,-10.6863,1193.9647],[26.5105,-10.6783,1173.4319],[26.5102,-10.6744,1181.3749],[26.5173,-10.6683,1178.9479],[26.5219,-10.6611,1155.7786],[26.5279,-10.6578,1158.0797],[26.5351,-10.6467,1148.1321],[26.5434,-10.6403,1135.1843],[26.5549,-10.628,1118.4924],[26.5567,-10.6135,1109.3135],[26.5663,-10.6005,1100.3998],[26.5544,-10.5988,1101.3345],[26.5399,-10.593,1099.8542],[26.5279,-10.5936,1099.1053],[26.5196,-10.5864,1098.407],[26.5157,-10.5733,1102.3364],[26.5203,-10.5682,1107.0571],[26.516,-10.5611,1105.4329],[26.5097,-10.5617,1096.8391],[26.4975,-10.5481,1101.5032],[26.4874,-10.5448,1104.5939],[26.4854,-10.5367,1097.9165],[26.4755,-10.5205,1093.1986],[26.4751,-10.5118,1092.2664],[26.4713,-10.5091,1092.6965],[26.4639,-10.5083,1090.6833],[26.4561,-10.5013,1095.6874],[26.4538,-10.5015,1091.3629],[26.4849,-10.4797,1119.7439],[26.4956,-10.4748,1152.0095],[26.5083,-10.4741,1163.9015],[26.5362,-10.4794,1235.4327],[26.5599,-10.4753,1313.2505],[26.5685,-10.4712,1383.136],[26.5756,-10.4703,1398.8097],[26.6121,-10.4715,1448.2073],[26.6316,-10.4697,1484.1322],[26.6464,-10.4624,1371.5408],[26.6549,-10.461,1337.432],[26.6644,-10.461,1385.3508],[26.6804,-10.4659,1445.335],[26.6993,-10.4678,1381.7297],[26.706,-10.4677,1345.926],[26.718,-10.4649,1347.1345],[26.7362,-10.4699,1359.6223],[26.7838,-10.4679,1355.8811],[26.8138,-10.464,1366.9565],[26.834,-10.4696,1294.3829],[26.8571,-10.481,1230.6693],[26.8816,-10.4892,1129.2939],[26.897,-10.5047,1152.1749],[26.9096,-10.5107,1040.2444],[26.9178,-10.5174,1085.4984],[26.9236,-10.5304,1165.7476],[26.9235,-10.5368,1117.7238],[26.9197,-10.5495,1174.7888],[26.9205,-10.5632,1131.9099],[26.9283,-10.6013,1154.5762],[26.9389,-10.6073,1133.8335],[26.9465,-10.6069,1139.8647],[26.9563,-10.5755,1112.2568],[26.961,-10.5688,1100.7189],[26.965699999999998,-10.5646,1132.6738],[26.9804,-10.5576,1198.4453],[26.9997,-10.5569,1180.1997],[27.022,-10.5594,1193.7178],[27.029,-10.5559,1154.9353],[27.0324,-10.5524,1179.1125],[27.0437,-10.5511,1182.6929],[27.0658,-10.5621,1222.3306],[27.0731,-10.5634,1192.8123]]]]}
,"properties": {"GID_2": "COD.15.5_1","GID_0": "COD","country": "DemocraticRepublicoftheCongo","GID_1": "COD.15_1","province": "Lualaba","NL_NAME_1": "NA","county": "Lubudi","VARNAME_2": "NA","NL_NAME_2": "NA","TYPE_2": "Territoire","ENGTYPE_2": "Territory","CC_2": "NA","HASC_2": "NA","name": "Lubudi.county","area_km2": 18423.17,"hist_schema_id": "Elevation0-9000","hist_area_km2": {"675": 0.84,"700": 22.99,"725": 72.69,"750": 196.46,"775": 224.66,"800": 257.51,"825": 269.91,"850": 262.71,"875": 264.0,"900": 497.69,"925": 698.18,"950": 795.88,"975": 911.8,"1000": 936.16,"1025": 750.8,"1050": 665.33,"1075": 643.86,"1100": 573.23,"1125": 553.56,"1150": 475.65,"1175": 418.37,"1200": 408.08,"1225": 394.33,"1250": 352.93,"1275": 412.12,"1300": 435.36,"1325": 416.16,"1350": 458.85,"1375": 498.04,"1400": 500.31,"1425": 480.14,"1450": 520.79,"1475": 513.64,"1500": 464.65,"1525": 432.1,"1550": 389.41,"1575": 427.82,"1600": 590.1,"1625": 496.46,"1650": 466.02,"1675": 181.94,"1700": 81.75,"1725": 9.91}}}