{"type": "Feature","bbox": [29.4206,-1.2223,29.484,-1.1561],"geometry": {"type": "MultiPolygon","coordinates": [[[[29.4206,-1.2081,1158.334],[29.4464,-1.2223,1217.8806],[29.4746,-1.2105,1300.7361],[29.484,-1.1845,1386.2504],[29.4723,-1.1656,1298.6587],[29.4464,-1.1561,1230.1707],[29.423,-1.1703,1125.9827],[29.4206,-1.2081,1158.334]]]]}
,"properties": {"GID_2": "COD.19.10_1","GID_0": "COD","country": "DemocraticRepublicoftheCongo","GID_1": "COD.19_1","province": "Nord-Kivu","NL_NAME_1": "NA","county": "Rutshuru(ville)","VARNAME_2": "NA","NL_NAME_2": "NA","TYPE_2": "Ville","ENGTYPE_2": "Town","CC_2": "NA","HASC_2": "NA","name": "Rutshuru(ville).county","area_km2": 37.37144,"hist_schema_id": "Elevation0-9000","hist_area_km2": {"1125": 1.33545,"1150": 3.81557,"1175": 4.4303,"1200": 6.2745,"1225": 4.72706,"1250": 5.38419,"1275": 5.04505,"1300": 3.98517,"1325": 1.18707,"1350": 1.12348,"1375": 0.06359}}}