{"type": "Feature","id": "1896","bbox": [21.89906,-7.93812,26.26944,-1.7462],"geometry": {"type": "Polygon","coordinates": [[[24.42154,-1.78676,591.8519],[24.0828,-1.7462,480.7233],[24.03996,-1.74878,483.9349],[24.012,-1.75374,521.4401],[23.99867,-1.76124,482.0344],[23.98596,-1.76496,476.7314],[23.92886,-1.76723,495.033],[23.88415,-1.76475,435.1871],[23.85031,-1.76625,483.096],[23.82767,-1.76935,450.3621],[23.81263,-1.77545,446.1232],[23.80147,-1.78361,423.3819],[23.79165,-1.79426,447.2258],[23.78576,-1.80656,459.9698],[23.78328,-1.81922,438.3912],[23.78235,-1.88355,468.4786],[23.77383,-1.89627,461.5669],[23.75832,-1.91094,488.3737],[23.71827,-1.93084,484.4818],[23.70107,-1.95073,477.8599],[23.69316,-1.96649,495.1506],[23.69393,-2.00225,510.9444],[23.69254,-2.00789,505.3031],[23.68882,-2.01517,492.5913],[23.67822,-2.01838,507.7405],[23.66613,-2.01843,505.8117],[23.59275,-2.0068,448.1568],[23.56821,-2.00536,533.2972],[23.54263,-2.00613,516.1664],[23.26331,-2.06091,417.8551],[23.25308,-2.06716,466.838],[23.24068,-2.07331,450.5108],[23.2242,-2.07827,473.1505],[23.21133,-2.07362,430.8261],[23.20079,-2.0639,469.4572],[23.16322,-2.00039,399.4572],[23.15361,-1.98711,402.6118],[23.13438,-1.965,431.1373],[23.12193,-1.95476,411.9357],[23.10953,-1.9467,398.2128],[23.09712,-1.94035,435.2654],[23.08162,-1.9359,437.847],[23.0625,-1.9327,428.1133],[23.03134,-1.93115,388.8531],[23.01289,-1.93208,388.9355],[23.00059,-1.93378,393.0921],[22.94411,-1.95786,384.8718],[22.93822,-1.95926,382.8434],[22.93403,-1.95724,379.4419],[22.90907,-1.9142,403.4282],[22.90592,-1.91048,436.9169],[22.90241,-1.90702,433.5505],[22.87057,-1.88402,432.382],[22.84763,-1.8725,423.5764],[22.83704,-1.86919,431.0623],[22.83285,-1.86676,418.472],[22.8251,-1.86097,420.2403],[22.82029,-1.85865,400.2352],[22.81518,-1.85694,412.8868],[22.8096,-1.85586,402.8534],[22.77017,-1.854,425.7881],[22.76427,-1.85291,429.8048],[22.75947,-1.85079,414.7647],[22.75528,-1.84774,423.239],[22.75172,-1.84443,423.2901],[22.7435,-1.83875,400.2109],[22.71027,-1.82387,402.6856],[22.69167,-1.81167,428.4612],[22.68268,-1.80826,384.8276],[22.67679,-1.80749,390.9004],[22.67317,-1.80749,394.9534],[22.66914,-1.80852,404.7136],[22.65891,-1.81012,397.8522],[22.64557,-1.814,384.0014],[22.64077,-1.81338,380.5196],[22.63627,-1.81059,383.3574],[22.63178,-1.80842,373.5203],[22.62428,-1.80867,382.2778],[22.60661,-1.82774,366.3009],[22.54765,-1.92474,463.0326],[22.53664,-1.93818,451.5433],[22.52594,-1.94737,432.1154],[22.50946,-1.95606,435.8196],[22.49706,-1.95885,434.9904],[22.47954,-1.95978,399.7353],[22.32776,-1.94985,433.2255],[22.28167,-1.94195,468.8044],[22.18348,-1.91234,443.7816],[22.17615,-1.91394,442.4155],[22.17211,-1.91668,442.4686],[22.16932,-1.92148,451.619],[22.16886,-1.92448,427.5574],[22.1687,-1.93079,422.5632],[22.16994,-1.94174,433.9232],[22.17387,-1.95528,414.4595],[22.20736,-2.03621,400.4268],[22.2165,-2.0762,395.0648],[22.22896,-2.18007,409.9565],[22.29164,-2.40311,417.3713],[22.29257,-2.41851,432.0561],[22.28849,-2.43561,450.5967],[22.27826,-2.45101,458.0455],[22.25407,-2.46719,456.7534],[22.23563,-2.47086,463.7124],[22.2193,-2.46801,480.3611],[22.20891,-2.46083,450.483],[22.19899,-2.45122,472.1727],[22.19201,-2.44032,454.6695],[22.18736,-2.42693,470.4153],[22.1855,-2.41158,469.9655],[22.19046,-2.33929,493.434],[22.18813,-2.32306,485.0147],[22.18302,-2.3073,446.7338],[22.17666,-2.2966,491.694],[22.16762,-2.28766,456.6747],[22.15739,-2.28348,492.6861],[22.13832,-2.28239,435.5391],[22.1239,-2.28813,482.2248],[22.11005,-2.29924,512.9935],[22.08199,-2.33882,521.5463],[22.07315,-2.34859,494.8951],[22.04597,-2.37195,480.876],[22.02334,-2.38569,525.5062],[21.9698,-2.41169,557.1096],[21.95864,-2.42207,476.6225],[21.91937,-2.47453,471.8956],[21.91487,-2.47933,493.5139],[21.89906,-2.49039,496.6802],[21.95166,-2.5355,543.2587],[21.9698,-2.56496,474.2108],[21.97848,-2.62744,468.5425],[21.98468,-2.65358,455.2897],[21.99352,-2.67989,451.1654],[22.00081,-2.6927,450.6429],[22.00985,-2.70345,467.2674],[22.03233,-2.72386,426.5795],[22.15692,-2.89207,485.1872],[22.17263,-2.91961,499.4174],[22.18426,-2.95165,522.4018],[22.19294,-2.98524,475.6489],[22.19465,-3.00163,478.8873],[22.19248,-3.01801,489.4666],[22.11269,-3.24533,467.4171],[22.06401,-3.32755,493.3734],[22.05915,-3.34129,466.6255],[22.05357,-3.38165,471.5557],[22.04969,-3.3971,464.438],[22.04365,-3.41276,450.0329],[22.0359,-3.42744,448.0123],[22.02535,-3.4416,453.2384],[21.98934,-3.47653,473.6656],[21.98189,-3.4863,456.2061],[21.97647,-3.50516,470.878],[21.97585,-3.5804,486.351],[21.97988,-3.60743,411.4585],[21.98608,-3.62846,382.7355],[21.99306,-3.63859,384.181],[22.00003,-3.64613,385.2368],[22.00706,-3.65213,406.162],[22.01698,-3.65833,449.1959],[22.02768,-3.66298,429.5852],[22.09827,-3.67941,570.4883],[22.11129,-3.68437,545.064],[22.12266,-3.69166,530.6687],[22.13289,-3.70277,503.201],[22.14809,-3.72902,609.572],[22.19744,-3.85765,581.051],[22.19992,-3.8764,503.0052],[22.19744,-3.89248,565.0994],[22.18984,-3.90286,566.8804],[22.17728,-3.90813,514.7161],[22.16467,-3.90999,531.0978],[22.15134,-3.9103,451.8911],[22.11222,-3.90658,444.9875],[22.09966,-3.90684,490.7317],[22.08742,-3.90813,495.3192],[22.07532,-3.91061,530.8055],[22.06225,-3.91495,441.2851],[22.05,-3.92069,426.7264],[22.03853,-3.92865,498.5805],[22.02969,-3.93981,449.7349],[22.02349,-3.95087,398.9658],[22.01962,-3.96276,377.0],[22.01915,-3.96679,392.847],[22.02789,-3.96642,380.4766],[22.03667,-3.96679,383.9925],[22.08385,-3.97511,385.9549],[22.09331,-3.98203,390.7456],[22.09796,-3.99505,379.3278],[22.10897,-4.00813,397.1725],[22.12235,-4.01924,384.136],[22.13367,-4.02637,382.0599],[22.14974,-4.02978,385.2399],[22.17299,-4.03009,380.0],[22.19403,-4.0259,382.3063],[22.21397,-4.00653,416.2362],[22.28508,-3.99288,383.1945],[22.29366,-3.9887,392.5212],[22.30389,-3.99521,412.1632],[22.37603,-4.07696,467.6004],[22.39804,-4.10993,436.0684],[22.4105,-4.12492,462.2093],[22.42275,-4.13696,473.0083],[22.4969,-4.19349,416.3192],[22.51571,-4.20429,508.9115],[22.56827,-4.22475,464.316],[22.62651,-4.25535,517.0167],[22.67596,-4.29266,490.3618],[22.77234,-4.39136,477.4041],[22.83843,-4.47435,533.2804],[22.85026,-4.48536,532.6126],[22.86034,-4.49146,494.4501],[22.86763,-4.4943,520.6061],[22.87848,-4.49688,549.5844],[22.90396,-4.50004,545.0115],[22.95093,-4.49983,569.6907],[23.02328,-4.51574,595.2692],[23.08891,-4.5221,524.0748],[23.10348,-4.52598,566.7461],[23.11898,-4.53388,519.7942],[23.14012,-4.55543,489.0124],[23.15019,-4.57073,515.0627],[23.15686,-4.58561,501.497],[23.17701,-4.6885,494.7153],[23.17903,-4.71243,509.2633],[23.17856,-4.72467,525.9152],[23.17686,-4.73682,512.9388],[23.17143,-4.74839,521.2401],[23.16198,-4.75986,502.1884],[23.15066,-4.76844,517.9591],[23.13888,-4.77449,509.9258],[23.00292,-4.80953,579.9091],[22.99641,-4.81263,568.7844],[22.98772,-4.81924,582.1138],[22.97951,-4.82854,571.1744],[22.96617,-4.85097,585.6352],[22.9609,-4.86213,578.6558],[22.95698,-4.87329,591.8551],[22.95465,-4.88487,606.0045],[22.9531,-4.90838,600.3561],[22.95636,-4.95463,614.6865],[22.96101,-4.97448,613.8392],[22.9671,-4.98734,613.531],[22.97346,-4.99654,580.7026],[22.97749,-5.00057,609.2911],[23.058,-5.06036,631.0256],[23.16074,-5.1524,553.65],[23.22358,-5.23239,560.7355],[23.23789,-5.24573,535.0449],[23.25153,-5.2527,580.1657],[23.26362,-5.25503,564.4736],[23.27556,-5.25513,598.6702],[23.28796,-5.25343,579.6606],[23.30197,-5.25022,562.1662],[23.39473,-5.21736,549.6514],[23.40759,-5.21565,511.9831],[23.41896,-5.21725,480.4396],[23.42889,-5.22578,499.759],[23.43679,-5.23865,434.6804],[23.44423,-5.25575,511.9864],[23.45509,-5.26753,552.1487],[23.46738,-5.27539,509.1132],[23.55766,-5.30391,595.4832],[23.64722,-5.35326,659.2175],[23.6882,-5.36908,667.1545],[23.70432,-5.37817,658.1107],[23.7254,-5.39678,670.3702],[23.73378,-5.4113,728.0844],[23.73781,-5.42566,702.1757],[23.73905,-5.60043,628.8325],[23.73517,-5.61103,539.8317],[23.72696,-5.61898,668.2704],[23.71626,-5.62162,712.9153],[23.6821,-5.61743,745.5566],[23.67016,-5.61893,731.0566],[23.65792,-5.62343,664.553],[23.61818,-5.64715,706.0709],[23.59275,-5.65878,659.9182],[23.52433,-5.68255,554.6478],[23.51265,-5.6889,488.6506],[23.50289,-5.69738,554.9802],[23.49653,-5.70456,546.4789],[23.48351,-5.72554,571.1855],[23.47421,-5.73598,607.2736],[23.4632,-5.74435,589.4549],[23.45012,-5.75143,631.4818],[23.4247,-5.76146,499.6109],[23.41152,-5.76383,507.8599],[23.39814,-5.76275,477.8398],[23.38543,-5.75221,507.9678],[23.38264,-5.74089,509.8187],[23.38434,-5.72787,484.7024],[23.38729,-5.71572,502.4565],[23.38775,-5.70575,470.9843],[23.38015,-5.70053,535.0119],[23.37008,-5.70115,540.0198],[23.35783,-5.70621,529.8871],[23.30662,-5.73272,517.9617],[23.27944,-5.74094,542.7161],[23.14399,-5.75851,689.0361],[23.04018,-5.76146,668.1252],[23.01578,-5.76564,708.5012],[23.00524,-5.76905,755.0309],[22.99842,-5.77236,728.8903],[22.99005,-5.77846,693.5303],[22.98183,-5.7875,708.6235],[22.96928,-5.81148,725.7318],[22.95605,-5.84724,660.0153],[22.95372,-5.85964,715.8673],[22.95667,-5.9848,701.8],[22.9671,-6.03395,761.6985],[22.97811,-6.0632,718.3896],[22.99098,-6.08723,702.0829],[23.00292,-6.10536,701.1484],[23.02049,-6.12495,727.1816],[23.07118,-6.16417,698.2833],[23.08534,-6.18443,701.3418],[23.08922,-6.19967,682.0547],[23.08658,-6.21394,718.4666],[23.07759,-6.2283,713.9908],[23.06545,-6.2438,695.0818],[23.0439,-6.28205,728.6984],[23.03847,-6.29719,722.5778],[23.02669,-6.38204,809.1839],[23.01878,-6.40876,785.3368],[22.99904,-6.45315,832.6128],[22.93264,-6.57205,856.8639],[22.92799,-6.58787,884.4431],[22.92628,-6.60549,874.4273],[22.92861,-6.63381,892.9236],[22.93295,-6.65158,874.0106],[22.93961,-6.66626,862.1926],[22.94922,-6.67659,835.0292],[22.96028,-6.68455,834.4545],[22.99408,-6.70238,816.2194],[23.00168,-6.7076,822.9573],[23.01067,-6.71535,804.3662],[23.02049,-6.72615,807.3674],[23.03816,-6.7522,791.0241],[23.06622,-6.80351,848.0578],[23.0748,-6.81529,856.7086],[23.08488,-6.82594,855.0095],[23.0965,-6.83493,861.2682],[23.1241,-6.8495,826.6498],[23.1626,-6.86511,897.7021],[23.175,-6.87188,883.7017],[23.19955,-6.89116,896.241],[23.22854,-6.92407,856.5747],[23.23427,-6.9326,879.6531],[23.24223,-6.9479,849.0873],[23.24409,-6.96092,840.2468],[23.24233,-6.97404,830.3134],[23.19986,-7.08546,848.3806],[23.19644,-7.09957,860.9142],[23.19505,-7.11631,863.2922],[23.19582,-7.13807,851.2451],[23.20327,-7.16287,867.7746],[23.20869,-7.19506,853.604],[23.2042,-7.24659,874.0857],[23.20528,-7.27987,866.7749],[23.21179,-7.32436,864.0939],[23.2135,-7.35345,859.7336],[23.21272,-7.3812,845.9735],[23.18761,-7.51138,881.9913],[23.1581,-7.7974,912.4236],[23.16818,-7.8205,895.4482],[23.17577,-7.84557,897.0534],[23.18404,-7.89528,892.6273],[23.18807,-7.90794,894.2384],[23.19443,-7.91941,887.2809],[23.20327,-7.92913,877.9309],[23.21381,-7.93538,914.3622],[23.22513,-7.93812,913.2498],[23.23789,-7.93569,909.3088],[23.25076,-7.92778,928.7507],[23.26548,-7.91228,939.2104],[23.27789,-7.9022,966.8012],[23.29515,-7.89786,965.1602],[23.3091,-7.90133,950.5414],[23.32197,-7.90567,940.3115],[23.3339,-7.90768,967.3145],[23.34538,-7.90706,981.2588],[23.36946,-7.90303,1002.2644],[23.38233,-7.90407,982.1454],[23.39535,-7.90732,993.5911],[23.43478,-7.92189,1026.0592],[23.44857,-7.92494,1006.6211],[23.4756,-7.92701,1026.4994],[23.49762,-7.92515,977.8328],[23.51575,-7.92019,956.1717],[23.53983,-7.90965,934.8562],[23.55301,-7.90582,908.8652],[23.56681,-7.90427,936.9901],[23.65761,-7.90913,969.846],[23.66908,-7.90799,960.3824],[23.68101,-7.90567,969.9267],[23.73347,-7.87998,962.2255],[23.74391,-7.88453,974.357],[23.76173,-7.90086,979.399],[23.77321,-7.90344,999.9088],[23.78638,-7.89978,979.1365],[23.79941,-7.89042,959.5694],[23.82442,-7.85451,992.8935],[23.840699999999998,-7.84014,929.7188],[23.85377,-7.83384,904.3211],[23.86772,-7.8296,898.6379],[23.87981,-7.82774,882.4003],[23.90415,-7.82712,880.087],[23.94684,-7.83115,846.7726],[23.9518,-7.83043,847.8948],[23.95428,-7.82764,842.2903],[23.95676,-7.81978,842.5328],[23.95723,-7.8095,845.4724],[23.95056,-7.78619,856.5232],[23.92798,-7.74743,851.5066],[23.92312,-7.73002,824.2916],[23.92622,-7.56522,821.8605],[23.93289,-7.55416,811.42],[23.9332,-7.54703,829.0057],[23.93087,-7.54042,823.7939],[23.92932,-7.53112,805.5124],[23.93185,-7.52414,823.1883],[23.93785,-7.51861,823.1212],[23.94493,-7.51349,813.3539],[23.9504,-7.50781,803.8896],[23.95738,-7.49432,803.2814],[23.96405,-7.47717,801.1505],[23.98043,-7.38818,785.1945],[23.98673,-7.38167,780.6244],[23.99386,-7.37733,779.5264],[23.99882,-7.37066,786.9118],[24.001,-7.36234,775.5049],[24.00069,-7.35671,772.2424],[23.99758,-7.35118,776.673],[23.99138,-7.34332,772.7297],[23.96921,-7.33258,760.9424],[23.95847,-7.32348,766.3171],[23.96064,-7.31263,796.7882],[23.97262,-7.29299,775.4979],[23.97562,-7.27098,751.274],[23.96808,-7.20617,742.4575],[23.9702,-7.19723,756.3801],[23.97774,-7.18509,750.6807],[24.00714,-7.1669,729.0117],[24.01185,-7.16147,731.7399],[24.01526,-7.15011,741.7909],[24.03918,-7.10313,735.8695],[24.04156,-7.10169,728.0867],[24.05019,-7.09864,700.4415],[24.05345,-7.09631,675.2993],[24.05551,-7.09156,676.137],[24.05841,-7.0791,680.8051],[24.05965,-7.07585,680.2086],[24.06673,-7.07073,673.2493],[24.07556,-7.06639,674.7703],[24.08595,-7.06334,672.7332],[24.09784,-7.06215,668.8402],[24.120729999999998,-7.05683,660.0848],[24.13634,-7.04272,652.9064],[24.14538,-7.02298,648.8232],[24.14905,-7.00071,653.9993],[24.14688,-7.00117,646.7333],[24.14223,-7.00086,637.0328],[24.13758,-6.99854,629.8546],[24.13541,-6.99327,663.7271],[24.13716,-6.98841,661.0968],[24.1413,-6.98267,641.2783],[24.14584,-6.9789,629.3499],[24.14905,-6.98025,628.6907],[24.14352,-6.97115,628.7906],[24.12559,-6.95053,630.9104],[24.12171,-6.94888,628.9948],[24.12419,-6.93741,654.7435],[24.13086,-6.93229,668.9769],[24.14068,-6.93105,660.6007],[24.15246,-6.9312,632.0688],[24.15401,-6.92717,627.1613],[24.14905,-6.89705,661.4169],[24.14517,-6.8956,713.6232],[24.13789,-6.88836,684.5512],[24.13541,-6.88041,703.6497],[24.14595,-6.87658,676.2365],[24.15757,-6.88041,691.0316],[24.17153,-6.87669,678.1926],[24.18781,-6.87762,713.5654],[24.20228,-6.88201,714.9547],[24.21328,-6.89147,728.5588],[24.22212,-6.90211,708.232],[24.22847,-6.91322,713.8245],[24.23158,-6.92454,699.4605],[24.23235,-6.93627,689.1654],[24.23049,-6.96149,647.6623],[24.23158,-6.97404,641.9028],[24.23654,-6.98428,651.8745],[24.2446,-6.99229,685.0767],[24.37002,-7.05502,714.7542],[24.41921,-7.07058,743.6702],[24.43037,-7.07228,780.3499],[24.442,-7.07244,823.056],[24.45378,-7.07027,842.3899],[24.46665,-7.06339,817.5137],[24.4788,-7.05285,795.5253],[24.49166,-7.0327,781.1587],[24.50267,-7.01104,767.5059],[24.50856,-7.00329,804.8864],[24.51864,-6.99838,759.604],[24.53104,-6.99575,742.6505],[24.58168,-6.99477,826.4806],[24.59812,-6.9881,805.5178],[24.65072,-6.94526,651.674],[24.67103,-6.93239,705.1072],[24.68855,-6.92459,693.9131],[24.71449,-6.91901,699.0307],[24.72891,-6.91415,698.63],[24.75687,-6.90035,693.0581],[24.8996,-6.79039,892.844],[24.90766,-6.78067,863.9485],[24.90998,-6.7645,899.5159],[24.90642,-6.73633,872.4911],[24.90812,-6.72212,881.7797],[24.91277,-6.709,871.1385],[24.92089,-6.69603,888.8112],[24.93143,-6.68373,871.7131],[24.94724,-6.67112,879.5188],[24.96057,-6.66538,884.5645],[24.97344,-6.66244,918.5994],[25.02202,-6.65866,935.8861],[25.06982,-6.65964,899.2003],[25.11855,-6.66492,899.4944],[25.14372,-6.67019,842.4408],[25.21787,-6.69944,899.8801],[25.2295,-6.70683,870.2756],[25.28831,-6.75804,932.7555],[25.30226,-6.76124,924.055],[25.31611,-6.76005,938.4468],[25.32913,-6.75633,922.1899],[25.42174,-6.71918,874.3392],[25.43326,-6.71142,836.0214],[25.4362,-6.7076,852.468],[25.44432,-6.69969,854.7925],[25.44644,-6.68884,852.1117],[25.46489,-6.64383,836.3495],[25.46845,-6.6291,831.3003],[25.46886,-6.61226,831.2346],[25.46731,-6.60611,831.628],[25.4729,-6.5996,867.4274],[25.48302,-6.59148,894.1024],[25.50959,-6.57836,999.9873],[25.51703,-6.57247,917.8322],[25.5192,-6.56285,1011.5193],[25.51811,-6.55242,947.447],[25.51377,-6.54229,924.4697],[25.50571,-6.5366,921.0284],[25.49873,-6.535,940.2166],[25.4669,-6.53795,888.738],[25.42473,-6.54632,853.0245],[25.41145,-6.54684,828.2505],[25.40282,-6.54761,819.033],[25.39528,-6.53691,832.7256],[25.38846,-6.53459,840.0786],[25.3822,-6.53552,833.3958],[25.37616,-6.53459,839.0916],[25.36055,-6.52513,861.7349],[25.28738,-6.44519,841.356],[25.25947,-6.40364,826.7225],[25.25709,-6.39951,815.362],[25.2604,-6.38964,843.1459],[25.26831,-6.3761,865.5802],[25.28009,-6.36085,842.8173],[25.30241,-6.34204,826.3405],[25.31936,-6.33326,816.8705],[25.33456,-6.32907,797.3586],[25.39135,-6.33222,860.0789],[25.49362,-6.35527,853.1804],[25.50152,-6.35584,841.7996],[25.51083,-6.35496,854.2047],[25.52137,-6.35212,862.6055],[25.53237,-6.34643,864.4879],[25.56808,-6.32261,938.9371],[25.58018,-6.31791,950.5417],[25.59185,-6.31455,946.9204],[25.62751,-6.31238,905.8445],[25.63898,-6.31005,845.0569],[25.65046,-6.30478,811.1279],[25.76373,-6.20298,667.9116],[25.77556,-6.19616,667.5267],[25.78781,-6.19202,646.973],[25.79959,-6.19089,641.9199],[25.81184,-6.1914,623.6876],[25.83577,-6.1959,638.3247],[25.91163,-6.22091,711.157],[25.92403,-6.22691,728.8695],[25.93493,-6.23517,750.2829],[25.94269,-6.24603,768.866],[25.94625,-6.25714,771.051],[25.94734,-6.28034,781.0],[25.95028,-6.29114,790.0997],[25.9571,-6.30018,808.9402],[25.96718,-6.30525,824.8157],[25.97834,-6.30607,798.4977],[25.98956,-6.3023,786.637],[25.99855,-6.29595,774.6281],[26.00568,-6.28918,756.2592],[26.01467,-6.279,732.4665],[26.02444,-6.26969,793.3924],[26.03591,-6.26236,805.3131],[26.0479,-6.25838,786.6025],[26.05968,-6.25667,798.0633],[26.07193,-6.25621,792.7755],[26.12453,-6.26132,852.5251],[26.1374,-6.26112,852.348],[26.14872,-6.25693,853.7986],[26.15916,-6.24861,852.1736],[26.16753,-6.2376,817.0423],[26.17404,-6.22556,779.6611],[26.17714,-6.21244,783.9905],[26.17668,-6.19848,827.191],[26.17063,-6.1805,829.5108],[26.14283,-6.12774,780.7106],[26.13833,-6.11446,817.5763],[26.13771,-6.09978,799.9827],[26.14019,-6.08536,752.395],[26.16474,-6.0419,734.082],[26.17063,-6.02831,687.6336],[26.1728,-6.01669,717.7588],[26.17172,-6.0047,724.0848],[26.16861,-5.98806,767.6871],[26.16303,-5.92661,772.7644],[26.16846,-5.79505,693.2877],[26.16288,-5.76383,709.5743],[26.15368,-5.74523,691.6425],[26.14252,-5.7336,746.1295],[26.09534,-5.69283,728.0164],[26.08588,-5.6812,748.4686],[26.07813,-5.66968,717.1013],[26.07224,-5.65841,689.8321],[26.0696,-5.65051,688.0922],[26.06774,-5.64152,690.5176],[26.0696,-5.62529,675.7402],[26.07534,-5.60581,668.7388],[26.09162,-5.57268,650.3914],[26.10593,-5.55305,654.0833],[26.13027,-5.5269,640.1448],[26.13833,-5.51594,633.6545],[26.1419,-5.50457,634.1384],[26.13988,-5.49269,625.4515],[26.13368,-5.47987,621.281],[26.09069,-5.41455,597.5936],[26.08666,-5.39833,593.4221],[26.08635,-5.37946,608.0413],[26.10066,-5.32924,624.25],[26.12391,-5.28071,610.0496],[26.19606,-5.18134,584.4541],[26.20629,-5.16242,582.7567],[26.24696,-5.04439,558.0601],[26.26944,-4.99995,556.8644],[25.10429,-4.99747,596.986],[25.07819,-4.99411,584.9138],[25.05876,-4.98812,507.6311],[25.01391,-4.89676,504.5825],[25.00781,-4.87448,502.8529],[25.00559,-4.8519,520.1683],[25.00264,-4.84678,525.4699],[24.98171,-4.83144,500.3314],[24.97608,-4.8227,505.1046],[24.9692,-4.80286,513.9512],[24.96399,-4.79356,505.5898],[24.93732,-4.77991,510.6668],[24.91944,-4.76198,503.7962],[24.91277,-4.7594,505.0997],[24.9027,-4.75098,504.7902],[24.88208,-4.69796,515.0921],[24.87898,-4.69573,517.0052],[24.86704,-4.68907,508.7037],[24.86156,-4.68369,512.4766],[24.86797,-4.67532,508.5497],[24.86477,-4.66788,502.2442],[24.8581,-4.65987,515.6025],[24.85412,-4.64954,507.9417],[24.85598,-4.63713,503.8108],[24.86611,-4.61806,508.4835],[24.87557,-4.59321,497.9981],[24.89216,-4.5746,501.6013],[24.91153,-4.56034,503.4289],[24.92678,-4.55461,499.0143],[24.92678,-4.5453,500.7125],[24.96399,-4.49254,494.8647],[25.00285,-4.45869,506.119],[25.01241,-4.44474,496.8282],[24.99535,-4.41208,499.4163],[24.98486,-4.39663,504.1124],[24.97484,-4.39012,498.548],[24.99194,-4.30692,489.7738],[24.99721,-4.29633,492.7292],[25.00398,-4.28801,489.0404],[25.00987,-4.27891,492.1122],[25.01241,-4.26599,492.1214],[25.01024,-4.25369,491.1227],[25.00037,-4.23757,503.4294],[24.99814,-4.22842,502.7104],[24.99706,-4.20662,509.8135],[24.99799,-4.19535,499.1097],[25.00186,-4.18744,480.4517],[25.0107,-4.17551,496.4225],[25.00905,-4.1676,495.0666],[25.00295,-4.16176,479.4946],[24.99535,-4.15205,486.9365],[24.9876,-4.14709,484.0859],[24.98512,-4.14243,521.8201],[24.98543,-4.13685,538.7919],[24.98776,-4.13158,528.1456],[24.99044,-4.12833,528.952],[24.99194,-4.12879,528.952],[24.99644,-4.11313,482.4614],[24.99618,-4.10461,493.6773],[24.98853,-4.10089,487.8074],[24.9798,-4.09313,478.9328],[24.97153,-4.05495,486.5831],[24.9598,-4.03298,487.1259],[24.95649,-4.02885,491.5729],[24.95034,-4.02637,473.2788],[24.94399,-4.02818,489.3459],[24.93313,-4.03867,493.0982],[24.92988,-4.04068,483.8899],[24.92254,-4.03546,496.7856],[24.89572,-4.00963,509.4797],[24.89572,-3.96834,475.4729],[24.89092,-3.96115,484.9819],[24.86156,-3.93764,477.4792],[24.85764,-3.93004,467.4629],[24.84792,-3.90286,485.7639],[24.84477,-3.90658,485.9264],[24.83748,-3.9134,479.4742],[24.83428,-3.91712,481.8548],[24.81278,-3.88689,481.4846],[24.80487,-3.87093,473.7967],[24.80012,-3.85506,469.2011],[24.80493,-3.85537,468.4675],[24.81201,-3.84803,484.7216],[24.81402,-3.83894,485.1361],[24.80353,-3.8346,476.7906],[24.78002,-3.83465,474.7394],[24.76932,-3.83274,468.2029],[24.75919,-3.82778,467.5598],[24.76477,-3.82504,467.4272],[24.76746,-3.82189,466.7941],[24.76942,-3.81822,469.0541],[24.77283,-3.81408,476.5615],[24.75377,-3.80752,476.8415],[24.74348,-3.79806,465.5],[24.73186,-3.76571,506.3188],[24.74736,-3.75662,468.2296],[24.76849,-3.7192,468.0197],[24.78338,-3.70019,465.4544],[24.79345,-3.69073,462.0],[24.79619,-3.68587,473.537],[24.79345,-3.65311,463.7461],[24.79216,-3.64794,478.3322],[24.78984,-3.64417,474.198],[24.77407,-3.5818,464.37],[24.77211,-3.55084,479.0699],[24.77252,-3.54381,467.6501],[24.77733,-3.54056,479.4804],[24.7902,-3.53978,469.454],[24.79774,-3.5358,476.9355],[24.8012,-3.52635,478.7198],[24.80167,-3.51488,490.2276],[24.80012,-3.50501,478.4561],[24.7827,-3.47488,493.7819],[24.78028,-3.45829,474.8053],[24.79702,-3.451,483.3764],[24.80927,-3.451,487.357],[24.81738,-3.45007,470.926],[24.82374,-3.44702,492.3661],[24.83087,-3.44077,478.115],[24.83366,-3.43628,485.2762],[24.83459,-3.43116,487.498],[24.83428,-3.42,474.5637],[24.83593,-3.41214,471.2405],[24.83976,-3.41126,464.8385],[24.8443,-3.4123,483.2598],[24.84792,-3.41002,485.5815],[24.86435,-3.37654,482.2424],[24.87758,-3.36563,470.482],[24.89913,-3.3616,479.4757],[24.90657,-3.35168,487.3677],[24.90254,-3.2859,475.8569],[24.9013,-3.28088,477.0682],[24.89924,-3.27629,479.2502],[24.90048,-3.27148,482.3535],[24.90936,-3.26605,467.4787],[24.92357,-3.26357,479.6335],[24.93655,-3.26487,482.3511],[24.94879,-3.26419,462.6271],[24.96089,-3.25551,488.3056],[24.96399,-3.22104,472.3954],[24.96688,-3.21365,472.4297],[24.98512,-3.19717,470.4686],[25.00745,-3.15479,468.2705],[25.01303,-3.13376,459.148],[25.009,-3.11831,466.3864],[25.00874,-3.11092,454.5],[25.01721,-3.09123,456.4471],[25.01582,-3.0873,455.2813],[25.00863,-3.08482,470.1891],[25.00078,-3.07842,457.735],[24.99789,-3.06958,472.5401],[25.00559,-3.05997,454.6047],[25.01179,-3.06183,462.1669],[25.0183,-3.06968,474.3338],[25.02543,-3.07439,454.3574],[25.03354,-3.06679,466.2355],[25.0354,-3.05506,482.3738],[25.03003,-3.04715,481.2075],[25.0229,-3.04126,479.5076],[25.01923,-3.03578,481.4637],[25.02057,-2.99899,466.6284],[25.02476,-2.97977,477.6999],[25.03354,-2.95755,484.3425],[25.06331,-2.91191,475.711],[25.07059,-2.87073,478.8652],[25.10604,-2.79073,455.6162],[25.11116,-2.77322,475.9466],[25.10992,-2.75528,470.3506],[25.09499,-2.71053,481.0373],[25.0908,-2.69017,481.3696],[25.08543,-2.62346,464.0231],[25.08031,-2.60547,470.9085],[25.07742,-2.58785,465.2834],[25.08129,-2.56651,497.7268],[25.0908,-2.53602,475.4288],[25.09855,-2.45303,468.3024],[25.09979,-2.44781,459.9054],[25.08517,-2.44729,469.8844],[24.74131,-2.4675,495.0045],[24.72472,-2.46419,511.1465],[24.70581,-2.44626,521.1792],[24.68126,-2.41081,496.8094],[24.58416,-2.23159,573.9752],[24.49368,-2.10824,524.1871],[24.47864,-2.07434,604.9261],[24.462,-2.01357,525.1434],[24.45068,-1.93869,581.8555],[24.43286,-1.81736,571.1772],[24.42154,-1.78676,591.8519]]]}
,"properties": {"ISO3166-1-Alpha-3": "COD","country": "Democratic Republic of the Congo","fill": "#F0F","name": "Kasaï-Oriental","area_km2": 169601.05,"hist_schema_id": "Elevation0-9000","hist_area_km2": {"350": 13.37,"375": 379.43,"400": 1720.43,"425": 4053.72,"450": 8051.21,"475": 14250.26,"500": 18361.65,"525": 19062.25,"550": 17278.65,"575": 13913.05,"600": 10833.74,"625": 8035.44,"650": 7616.62,"675": 7568.94,"700": 6901.06,"725": 5939.93,"750": 4707.86,"775": 3823.57,"800": 3310.4,"825": 3115.08,"850": 2852.89,"875": 2565.84,"900": 1977.64,"925": 1439.09,"950": 922.65,"975": 593.66,"1000": 212.14,"1025": 61.0,"1050": 39.48}}}