{"type":"Feature","properties":{"GID_2":"COD.25.10_1","GID_0":"COD","country":"DemocraticRepublicoftheCongo","GID_1":"COD.25_1","province":"Tshopo","NL_NAME_1":"NA","county":"Yahuma","VARNAME_2":"NA","NL_NAME_2":"NA","TYPE_2":"Territoire","ENGTYPE_2":"Territory","CC_2":"NA","HASC_2":"NA","name":"Yahuma.county"},
"geometry":{"type": "MultiPolygon","coordinates": [[[[22.3724,1.7107,424.6578],[22.3338,1.6959,427.9685],[22.3091,1.6815,451.7645],[22.2848,1.672,389.4241],[22.2767,1.6531,389.6044],[22.2684,1.6408,387.8263],[22.2648,1.6281,409.5406],[22.2672,1.6185,400.0034],[22.2654,1.6038,399.9582],[22.2621,1.5945,390.7375],[22.2619,1.5849,383.8837],[22.2536,1.571,401.48],[22.2534,1.565,397.2696],[22.2572,1.5483,378.0455],[22.2543,1.537,376.1195],[22.2473,1.5264,386.5797],[22.2513,1.5119,386.6385],[22.2597,1.5143,387.3185],[22.2634,1.5106,389.0898],[22.27,1.5111,387.528],[22.2739,1.5079,387.282],[22.2772,1.4997,390.0451],[22.2813,1.499,391.661],[22.2854,1.5025,388.1892],[22.2877,1.5018,392.2474],[22.2905,1.4954,390.2809],[22.3,1.4987,388.7196],[22.3113,1.4928,380.5165],[22.3167,1.4933,380.2761],[22.3199,1.4984,388.9611],[22.3224,1.4988,389.3579],[22.3238,1.5034,376.5344],[22.3272,1.5003,383.4732],[22.3331,1.5024,382.9969],[22.3357,1.4999,385.6911],[22.3373,1.4946,388.2085],[22.3465,1.4903,384.9688],[22.3508,1.4908,385.9539],[22.3537,1.4981,385.7324],[22.3626,1.4987,381.6754],[22.3645,1.5015,383.8129],[22.3718,1.4989,383.0834],[22.3776,1.4893,388.1441],[22.3805,1.4873,388.8161],[22.3828,1.4876,388.0038],[22.3851,1.4903,387.1006],[22.3848,1.4991,385.6115],[22.3965,1.4971,371.5006],[22.3926,1.4895,385.7574],[22.3956,1.486,384.6567],[22.4,1.4851,385.929],[22.4066,1.4877,381.1628],[22.4132,1.4839,380.5302],[22.4197,1.4756,386.8382],[22.4231,1.4749,399.3832],[22.4297,1.4819,387.3167],[22.4345,1.4748,406.6529],[22.4419,1.4758,395.3016],[22.4446,1.4726,389.2739],[22.4485,1.4756,385.3054],[22.4572,1.4738,383.7233],[22.4601,1.4768,389.0897],[22.4612,1.4824,367.3885],[22.463,1.484,378.811],[22.4651,1.4796,371.4045],[22.4631,1.4734,388.0327],[22.4691,1.4658,394.8243],[22.4739,1.4663,382.8842],[22.4757,1.4682,381.1623],[22.4768,1.4739,391.1143],[22.4794,1.4726,387.8134],[22.4803,1.4685,380.8106],[22.484,1.4666,379.983],[22.484,1.4616,385.1203],[22.4895,1.4609,382.2076],[22.4916,1.4593,387.6118],[22.4925,1.4557,390.5262],[22.4952,1.4564,381.8208],[22.4979,1.4612,381.7247],[22.5025,1.4603,385.1044],[22.5105,1.4551,380.4156],[22.5145,1.4468,386.5896],[22.5229,1.4483,384.5486],[22.5241,1.4446,384.7084],[22.5275,1.4412,383.4365],[22.5351,1.4412,389.321],[22.5399,1.4387,380.8042],[22.5413,1.436,376.2295],[22.5479,1.4347,390.451],[22.55,1.4305,391.7428],[22.5569,1.4287,391.4406],[22.5603,1.4251,389.4995],[22.5597,1.4207,393.1103],[22.5627,1.417,390.2093],[22.5616,1.4127,396.1845],[22.5627,1.4095,399.3626],[22.5721,1.4031,405.6153],[22.5779,1.3951,407.2256],[22.5861,1.3984,393.2504],[22.590699999999998,1.3963,400.3403],[22.5944,1.3927,402.4409],[22.5944,1.3885,407.1575],[22.5988,1.3853,403.5717],[22.5988,1.3789,403.0038],[22.6052,1.3746,406.0204],[22.6046,1.3709,402.2114],[22.6066,1.3674,401.6591],[22.6176,1.3648,396.2366],[22.6213,1.3698,393.3648],[22.6245,1.3671,396.3319],[22.63,1.3568,398.079],[22.6273,1.3513,408.5154],[22.6399,1.3442,396.5992],[22.6379,1.3387,392.8628],[22.6386,1.335,408.8711],[22.6469,1.3302,391.3186],[22.6483,1.3284,391.2928],[22.6467,1.3252,398.4796],[22.6476,1.3217,400.1796],[22.6552,1.316,394.0449],[22.655,1.3121,390.8733],[22.6491,1.307,392.4827],[22.6498,1.3038,394.6628],[22.6553,1.3,392.9731],[22.6537,1.2963,394.5139],[22.6544,1.2935,398.5414],[22.6586,1.2908,393.808],[22.6695,1.2888,393.1575],[22.6694,1.2803,389.6055],[22.6735,1.2764,402.1504],[22.6729,1.2711,405.6421],[22.6784,1.2691,396.5539],[22.6814,1.2652,403.8393],[22.6807,1.2613,402.6728],[22.6748,1.2513,413.7692],[22.6815,1.2461,414.8727],[22.6865,1.2443,406.1694],[22.6868,1.2424,410.8111],[22.6808,1.241,415.769],[22.6831,1.2371,414.8798],[22.6818,1.2332,412.9173],[22.6875,1.2314,412.8322],[22.6905,1.2274,400.6786],[22.6871,1.2231,396.4378],[22.6906,1.2204,410.4356],[22.7008,1.22,400.8746],[22.7027,1.2143,401.922],[22.7055,1.2125,403.5149],[22.7107,1.2122,393.5318],[22.7142,1.2086,395.0977],[22.7149,1.2038,392.3931],[22.712,1.1964,410.1285],[22.718,1.187,409.009],[22.726,1.1873,399.1159],[22.7257,1.1848,389.2861],[22.721,1.1801,401.5861],[22.7235,1.1716,395.689],[22.7272,1.1698,397.1877],[22.735,1.1731,392.3943],[22.7403,1.1626,389.531],[22.7365,1.151,416.94],[22.7365,1.1474,416.5064],[22.7413,1.143,405.385],[22.7402,1.1334,418.4365],[22.749,1.1247,400.6332],[22.7495,1.1141,402.03],[22.7592,1.0988,400.7411],[22.7681,1.0958,410.5828],[22.7743,1.0966,398.5124],[22.7787,1.0892,397.4577],[22.7748,1.0851,400.5735],[22.7824,1.0752,398.2445],[22.7836,1.0677,399.2275],[22.7884,1.0659,392.2018],[22.7889,1.0608,384.2855],[22.7836,1.0442,402.0135],[22.7852,1.0373,406.0454],[22.7928,1.0261,405.4302],[22.7976,1.0245,403.1325],[22.805,1.0062,410.4621],[22.8117,0.997,413.588],[22.8181,0.9913,408.9103],[22.8256,0.9764,408.522],[22.8233,0.9721,419.3964],[22.8238,0.9643,417.1302],[22.8259,0.9603,403.4539],[22.8223,0.9555,410.2793],[22.8226,0.9463,421.0846],[22.8203,0.9419,430.1126],[22.8231,0.9364,432.5714],[22.8227,0.9311,425.3218],[22.8204,0.9279,413.7377],[22.8246,0.9203,436.8843],[22.8239,0.9176,436.4897],[22.8264,0.9153,437.9352],[22.8319,0.9156,425.9839],[22.8328,0.913,428.6431],[22.8219,0.9017,423.8093],[22.8208,0.8946,405.0957],[22.8223,0.8822,438.0477],[22.8263,0.8747,435.1403],[22.8286,0.8743,433.9146],[22.8329,0.8616,407.4509],[22.8309,0.8519,436.6112],[22.84,0.8349,424.0592],[22.8391,0.8299,428.5076],[22.8487,0.8253,420.7256],[22.8478,0.8191,425.3343],[22.8494,0.8166,424.7849],[22.849,0.8106,428.7827],[22.8546,0.7978,408.0988],[22.8535,0.7879,432.8443],[22.8575,0.7771,407.34],[22.85,0.7642,421.6556],[22.8528,0.7587,434.5007],[22.8498,0.7546,436.5918],[22.8533,0.7481,432.877],[22.8536,0.7438,434.9971],[22.8495,0.7373,437.8923],[22.8518,0.7298,419.7369],[22.848,0.724,425.4128],[22.8453,0.7148,447.1778],[22.8478,0.712,445.7723],[22.8463,0.7076,441.7719],[22.8499,0.7054,444.6654],[22.8502,0.7031,443.9709],[22.8461,0.6989,448.7203],[22.8634,0.671,443.3837],[22.871,0.6625,415.4976],[22.8745,0.6506,440.4367],[22.8752,0.6421,442.1133],[22.8876,0.6302,428.604],[22.8963,0.6257,432.3297],[22.9035,0.6172,444.8714],[22.9102,0.6056,419.8488],[22.9161,0.6033,426.6131],[22.9246,0.593,441.3529],[22.9324,0.5912,445.1996],[22.937,0.5857,439.1043],[22.9371,0.5738,440.4456],[22.9467,0.5683,440.7652],[22.9372,0.5515,433.5513],[22.9354,0.5432,444.0876],[22.9362,0.5363,439.4204],[22.9275,0.5025,539.1578],[22.9319,0.4869,522.6225],[22.9423,0.4642,498.3329],[22.952,0.4549,472.7071],[22.9534,0.4491,460.0677],[22.9523,0.4409,471.6493],[22.9561,0.4225,517.555],[22.9522,0.4149,525.0313],[22.9527,0.4117,516.8864],[22.9585,0.4048,497.4152],[22.9698,0.3844,542.0457],[22.9694,0.3775,541.3381],[22.9712,0.3688,495.1688],[22.9679,0.3603,475.0016],[22.9629,0.358,475.1926],[22.9588,0.3534,488.3759],[22.9301,0.3442,531.1668],[22.9302,0.3369,527.8872],[22.9413,0.308,445.3509],[22.9563,0.2805,512.4437],[22.9715,0.2654,457.7405],[22.9773,0.252,439.4347],[22.9868,0.2157,519.5018],[22.996,0.2066,536.0948],[23.0057,0.191,523.3278],[23.0139,0.1819,533.8965],[23.0181,0.1794,554.5322],[23.0292,0.1788,535.8635],[23.0315,0.1772,538.9271],[23.0348,0.1733,537.7116],[23.0378,0.1639,513.7206],[23.0451,0.1573,486.979],[23.049,0.1509,443.4481],[23.0526,0.1138,454.3033],[23.0682,0.0869,433.6946],[23.0869,0.0647,428.3489],[23.0935,0.0531,428.3639],[23.1411,0.0118,420.6064],[23.1535,0.0075,439.2873],[23.1584,0.0,424.885],[23.2241,-0.0692,456.1693],[23.2294,-0.0729,464.8559],[23.2383,-0.0722,483.0343],[23.2426,-0.0741,519.6608],[23.2549,-0.0849,500.378],[23.2631,-0.0893,472.6703],[23.2804,-0.1093,490.7695],[23.2868,-0.1123,490.6877],[23.2934,-0.1208,463.1436],[23.3082,-0.1238,459.5443],[23.3214,-0.1429,479.083],[23.3458,-0.1638,468.8515],[23.3474,-0.1707,450.547],[23.3565,-0.1877,437.2839],[23.3275,-0.2186,442.7067],[23.3197,-0.2358,431.0947],[23.3053,-0.2542,422.0249],[23.2925,-0.2741,419.7274],[23.2884,-0.2785,419.9865],[23.2799,-0.2819,432.0219],[23.277,-0.2854,428.0027],[23.2756,-0.2952,425.5529],[23.1922,-0.2872,434.0161],[23.1384,-0.2895,452.7099],[23.0846,-0.2772,428.1407],[23.0579,-0.2976,423.8877],[23.0538,-0.2989,421.4276],[23.0419,-0.3095,429.7007],[23.0316,-0.3159,418.6851],[23.0248,-0.3179,412.015],[23.0102,-0.3289,417.1609],[23.0049,-0.3363,417.1271],[22.9987,-0.3406,425.862],[22.9923,-0.3505,407.4244],[22.9852,-0.3544,406.683],[22.9786,-0.3656,398.8847],[22.9665,-0.3761,400.168],[22.9436,-0.4037,408.5851],[23.0928,-0.4058,425.1292],[23.1107,-0.4072,420.2361],[23.1351,-0.4121,419.0691],[23.1266,-0.438,414.8341],[23.1289,-0.4488,417.4401],[23.1186,-0.4663,414.7902],[23.1137,-0.4881,412.7107],[23.1137,-0.4979,411.537],[23.1091,-0.5101,394.8184],[23.1075,-0.5227,414.2643],[23.099,-0.5406,422.0914],[23.0981,-0.548,406.8992],[23.1008,-0.5595,412.8125],[23.107,-0.5572,418.2481],[23.1175,-0.5444,410.3491],[23.1262,-0.5366,409.3382],[23.1591,-0.5238,411.1848],[23.1769,-0.5063,407.9482],[23.1954,-0.4972,406.0841],[23.2158,-0.4752,429.1461],[23.2448,-0.4575,397.6108],[23.2895,-0.4505,398.0248],[23.3101,-0.4391,403.7834],[23.3281,-0.4386,408.1686],[23.3384,-0.4347,415.7652],[23.3496,-0.426,404.6094],[23.356,-0.4231,404.9311],[23.3717,-0.4235,405.4698],[23.3987,-0.411,411.1497],[23.4719,-0.3998,427.9471],[23.482,-0.3996,418.0045],[23.5051,-0.3874,401.7597],[23.5352,-0.3887,418.7622],[23.5542,-0.3942,408.3022],[23.6498,-0.3925,428.7575],[23.6882,-0.3896,426.0545],[23.7082,-0.3273,444.5226],[23.7202,-0.2771,440.0735],[23.7211,-0.2658,442.6268],[23.7189,-0.2599,443.4764],[23.6754,-0.261,432.0507],[23.662,-0.2586,421.0909],[23.6778,-0.2424,431.9468],[23.7421,-0.214,412.5962],[23.7524,-0.2119,415.5676],[23.7543,-0.2014,419.0735],[23.7414,-0.1915,431.4113],[23.7277,-0.1931,416.1813],[23.7188,-0.1873,424.4179],[23.7147,-0.1873,418.4564],[23.7081,-0.1901,428.1065],[23.6788,-0.1593,442.1538],[23.673,-0.1432,438.9106],[23.6763,-0.1177,426.3346],[23.6874,-0.107,440.0987],[23.7088,-0.0974,434.3589],[23.7164,-0.0922,422.6282],[23.7257,-0.0425,425.7927],[23.7258,-0.0335,420.9041],[23.7228,-0.0226,421.3998],[23.681,-0.0282,435.8671],[23.6607,-0.0365,441.6982],[23.6239,-0.041,459.7719],[23.6001,-0.0398,447.7892],[23.5762,-0.0436,466.2849],[23.5789,-0.0409,460.6483],[23.5876,-0.0232,462.1905],[23.61,0.0,444.9059],[23.6188,0.005,431.5469],[23.6235,0.0144,449.3501],[23.6335,0.0262,432.5061],[23.6362,0.0271,438.6318],[23.643,0.0379,427.9503],[23.6494,0.041,424.5455],[23.6509,0.0465,426.0124],[23.655,0.0523,420.258],[23.6578,0.0819,419.8757],[23.6649,0.0912,442.4455],[23.6703,0.1047,426.6853],[23.7199,0.2003,441.0229],[23.7385,0.2298,445.2637],[23.7495,0.2579,436.6428],[23.7556,0.2669,454.4683],[23.7674,0.2793,454.8059],[23.7759,0.3155,424.7421],[23.7836,0.327,426.4287],[23.7891,0.3449,424.0291],[23.7851,0.3638,431.778],[23.8037,0.3879,438.4127],[23.8038,0.4001,455.3642],[23.7949,0.4108,439.767],[23.7748,0.4279,448.429],[23.7713,0.4469,452.8385],[23.7819,0.4812,456.9678],[23.7856,0.5035,443.3958],[23.7858,0.533,459.5759],[23.7966,0.6031,432.8982],[23.7927,0.6279,452.5104],[23.7816,0.6395,424.442],[23.7823,0.6452,437.4854],[23.7785,0.6599,428.1517],[23.7794,0.6682,414.9822],[23.7543,0.6623,425.2699],[23.736,0.6655,435.2899],[23.7095,0.6648,435.9036],[23.6799,0.6695,424.2874],[23.6755,0.6826,428.6544],[23.6526,0.7059,418.1335],[23.6441,0.7104,423.7712],[23.6355,0.7229,415.8481],[23.6301,0.7394,444.8162],[23.6281,0.7821,485.783],[23.6346,0.8171,461.0764],[23.645,0.8387,445.3683],[23.6622,0.8566,455.5634],[23.6836,0.8864,430.5515],[23.6893,0.9135,445.0009],[23.6905,0.9792,408.4518],[23.6937,0.9904,407.2005],[23.703,0.9724,427.5664],[23.7361,0.9548,417.3174],[23.7381,0.9645,424.4151],[23.7476,0.9755,406.6301],[23.7585,0.9949,395.7833],[23.7552,1.0078,395.2661],[23.7559,1.0138,396.1943],[23.7434,1.0302,393.2956],[23.7363,1.0472,388.9291],[23.7059,1.0905,368.2383],[23.7044,1.0781,382.3352],[23.6885,1.0589,383.9511],[23.6871,1.0538,390.6705],[23.6737,1.043,400.1682],[23.6325,1.0435,420.8297],[23.6209,1.0454,393.5956],[23.612,1.051,408.3927],[23.5945,1.0673,418.0559],[23.5887,1.0776,414.8797],[23.5824,1.0832,417.8148],[23.5677,1.0851,425.3583],[23.5551,1.0815,421.269],[23.5368,1.0795,421.2039],[23.5338,1.084,407.1386],[23.5329,1.0914,416.3109],[23.5361,1.1327,402.4437],[23.5339,1.1388,406.5121],[23.5225,1.1587,425.2385],[23.5112,1.1725,393.0201],[23.4822,1.2158,399.0414],[23.4474,1.262,392.402],[23.4035,1.3062,389.3881],[23.3539,1.334,409.363],[23.3261,1.3436,422.2611],[23.287,1.3438,426.998],[23.2569,1.327,459.2203],[23.2401,1.3134,429.0816],[23.225,1.305,422.506],[23.2156,1.3098,405.2563],[23.208,1.3199,427.4383],[23.224,1.3457,443.0806],[23.2155,1.3643,404.8841],[23.1277,1.5103,460.2178],[23.1397,1.5225,414.8722],[23.1516,1.5314,424.9521],[23.1674,1.5901,389.0862],[23.174,1.598,388.5366],[23.1841,1.6042,366.7231],[23.1753,1.6151,363.9959],[23.1693,1.6194,362.9387],[23.1677,1.6241,363.6161],[23.1638,1.6282,364.0865],[23.1613,1.6385,365.3718],[23.1548,1.653,349.5],[23.1492,1.661,349.5],[23.1339,1.6717,368.7203],[23.1294,1.683,362.8223],[23.1148,1.6921,381.1911],[23.1076,1.7107,348.0],[23.1109,1.7226,370.305],[23.1084,1.7286,363.0648],[23.096,1.7368,360.7471],[23.0884,1.7469,353.077],[23.0872,1.7538,359.2041],[23.0759,1.7703,366.6876],[23.0658,1.7815,362.5715],[23.0564,1.8086,356.66],[23.0231,1.8405,361.4967],[23.0038,1.8492,365.4179],[22.9902,1.8728,345.0],[22.9624,1.8853,345.0],[22.8945,1.9005,345.0],[22.8835,1.9013,345.0],[22.8471,1.9149,345.0],[22.8466,1.9126,345.0],[22.8324,1.9129,359.2195],[22.8267,1.9108,347.5997],[22.8166,1.9179,356.6528],[22.8086,1.9188,345.0],[22.799,1.9272,345.0],[22.79,1.9313,345.0],[22.7795,1.9404,345.0],[22.7645,1.9486,347.8387],[22.759,1.9539,352.5386],[22.7508,1.9533,358.3954],[22.7318,1.9599,363.7613],[22.724,1.9658,358.2461],[22.7138,1.9812,345.0],[22.7176,1.9823,358.8831],[22.7107,2.0007,345.0],[22.7054,2.0082,345.0],[22.6916,2.022,357.1352],[22.689,2.0321,345.0],[22.6851,2.0359,345.0],[22.6816,2.0444,346.9794],[22.6809,2.05,345.0],[22.6447,2.0861,345.0],[22.6314,2.0938,349.1982],[22.6229,2.097,350.0572],[22.6053,2.0971,362.1682],[22.5773,2.1075,344.5],[22.5192,2.1197,344.0],[22.5169,2.1229,347.5634],[22.491,2.1329,343.5],[22.439,2.1465,343.5],[22.3996,2.1541,343.0],[22.387,2.154,343.0],[22.3865,2.1572,343.0],[22.3719,2.158,352.0554],[22.3545,2.162,344.735],[22.3538,2.1604,354.4643],[22.3641,2.1554,349.9283],[22.362,2.0988,364.6242],[22.368,2.0644,360.9979],[22.3825,2.0438,363.5863],[22.413,2.0368,372.6609],[22.4453,2.0,366.8946],[22.4503,1.9961,366.6139],[22.4622,1.9953,370.9272],[22.4753,1.9821,373.9073],[22.4823,1.9678,374.6352],[22.4852,1.9444,378.804],[22.4901,1.932,380.5564],[22.4913,1.9237,378.659],[22.4911,1.9132,386.6624],[22.4803,1.8889,385.1841],[22.4737,1.8914,385.6649],[22.4677,1.8909,389.8086],[22.4577,1.8862,386.7412],[22.4464,1.877,412.1216],[22.4354,1.8718,419.7522],[22.4294,1.8554,396.435],[22.4313,1.8341,418.3539],[22.4302,1.8283,417.8445],[22.421,1.8091,400.7749],[22.414,1.8029,447.5725],[22.4083,1.8001,470.6609],[22.3948,1.7984,463.0909],[22.3889,1.7953,462.0685],[22.3814,1.7884,453.8043],[22.3677,1.7844,468.3226],[22.3576,1.7843,458.7133],[22.3586,1.771,480.6624],[22.3621,1.7543,491.0587],[22.3742,1.7426,497.2808],[22.3774,1.7234,439.959],[22.3724,1.7107,424.6578]]]]}}