{"type":"Feature","properties":{"GID_1":"COD.15_1","GID_0":"COD","country":"DemocraticRepublicoftheCongo","province":"Lualaba","VARNAME_1":"NA","NL_NAME_1":"NA","TYPE_1":"Province","ENGTYPE_1":"Province","CC_1":"NA","HASC_1":"CD.LB","ISO_1":"CD-LU","name":"Lualaba.province"},
"geometry":{"type": "MultiPolygon","coordinates": [[[[25.9248,-10.9719,1466.1798],[25.9315,-10.9622,1453.9116],[25.9473,-10.9519,1479.6945],[25.9492,-10.9563,1482.1082],[25.9731,-10.9629,1501.0583],[25.9952,-10.964,1520.099],[26.0448,-10.9765,1504.3444],[26.0652,-10.9794,1470.7097],[26.0696,-10.9759,1472.3525],[26.0802,-10.9728,1459.2012],[26.0967,-10.965,1439.3446],[26.1063,-10.9554,1430.2776],[26.1168,-10.9541,1419.6749],[26.1235,-10.9481,1414.4517],[26.1416,-10.926,1408.6582],[26.1493,-10.9133,1409.703],[26.1515,-10.9054,1396.8887],[26.1509,-10.8951,1393.6613],[26.16,-10.8906,1413.7531],[26.1666,-10.8831,1402.322],[26.1738,-10.8819,1407.5925],[26.1806,-10.8843,1393.2271],[26.1861,-10.8813,1397.6187],[26.1952,-10.8825,1404.0469],[26.2024,-10.8802,1408.4008],[26.2083,-10.884,1407.7925],[26.215,-10.8837,1402.2721],[26.2176,-10.888,1424.6565],[26.2175,-10.8951,1406.9617],[26.2194,-10.8981,1422.0498],[26.2259,-10.8973,1404.3146],[26.2269,-10.9047,1416.3112],[26.223,-10.9093,1410.2256],[26.2224,-10.913,1415.3821],[26.2241,-10.9171,1417.1184],[26.233,-10.9246,1413.387],[26.2298,-10.927,1419.9845],[26.2343,-10.9368,1429.5397],[26.2397,-10.9388,1428.1914],[26.2414,-10.9445,1425.54],[26.251,-10.9497,1433.2106],[26.2553,-10.9515,1429.3121],[26.2585,-10.9494,1431.8665],[26.2646,-10.9518,1426.7886],[26.2654,-10.9612,1430.2393],[26.2712,-10.9809,1449.938],[26.2697,-10.9876,1445.5398],[26.2726,-10.9931,1448.0626],[26.2779,-10.9935,1448.4185],[26.281,-10.9965,1453.1495],[26.285,-10.9964,1452.3328],[26.2868,-10.9984,1454.6555],[26.3,-11.0256,1471.1343],[26.3032,-11.0392,1459.3871],[26.3108,-11.0485,1474.4733],[26.3242,-11.0525,1483.4236],[26.3278,-11.0555,1490.4333],[26.3309,-11.0612,1502.1257],[26.3313,-11.0671,1515.2712],[26.3278,-11.0757,1531.1836],[26.3147,-11.0997,1547.23],[26.3151,-11.1038,1551.9324],[26.323,-11.1205,1576.4552],[26.3164,-11.1477,1584.1599],[26.3201,-11.155,1569.3923],[26.3218,-11.1699,1603.3397],[26.3202,-11.1835,1594.0109],[26.3091,-11.2048,1599.1709],[26.3104,-11.2089,1599.7656],[26.3604,-11.2287,1595.6388],[26.3574,-11.2065,1559.4299],[26.3488,-11.1708,1605.2284],[26.3494,-11.1612,1599.1243],[26.3552,-11.1531,1614.2913],[26.356,-11.13,1629.5018],[26.3534,-11.1164,1594.1177],[26.3558,-11.11,1597.3533],[26.3559,-11.1028,1583.6001],[26.3442,-11.0575,1520.3228],[26.3458,-11.0421,1533.954],[26.3488,-11.0317,1551.8679],[26.3609,-11.0085,1510.8506],[26.3963,-10.9532,1542.3319],[26.4081,-10.9295,1509.9995],[26.4189,-10.918,1479.9475],[26.4264,-10.9182,1468.4476],[26.4404,-10.9092,1424.071],[26.4669,-10.9122,1470.5459],[26.4741,-10.9104,1450.2897],[26.4803,-10.9086,1425.0209],[26.4979,-10.8977,1397.9169],[26.5141,-10.8935,1545.4775],[26.5236,-10.894,1536.2899],[26.5411,-10.8989,1545.6569],[26.5496,-10.8984,1546.1067],[26.5564,-10.8871,1509.7487],[26.5612,-10.8825,1529.8218],[26.5659,-10.8816,1486.3667],[26.5666,-10.8689,1442.3694],[26.5629,-10.8635,1440.9015],[26.5615,-10.8576,1446.5874],[26.5603,-10.8413,1416.8844],[26.5616,-10.8119,1502.2623],[26.5685,-10.7969,1417.5646],[26.5857,-10.7833,1321.2427],[26.5952,-10.7676,1225.3462],[26.5964,-10.7606,1220.5194],[26.6062,-10.7404,1178.0499],[26.6051,-10.7334,1179.5586],[26.5997,-10.7275,1183.4891],[26.5849,-10.7185,1185.3325],[26.5753,-10.7101,1180.7854],[26.5166,-10.6863,1193.9647],[26.5105,-10.6783,1173.4319],[26.5102,-10.6744,1181.3749],[26.5173,-10.6683,1178.9479],[26.5219,-10.6611,1155.7786],[26.5279,-10.6578,1158.0797],[26.5351,-10.6467,1148.1321],[26.5434,-10.6403,1135.1843],[26.5549,-10.628,1118.4924],[26.5567,-10.6135,1109.3135],[26.5663,-10.6005,1100.3998],[26.5544,-10.5988,1101.3345],[26.5399,-10.593,1099.8542],[26.5279,-10.5936,1099.1053],[26.5196,-10.5864,1098.407],[26.5157,-10.5733,1102.3364],[26.5203,-10.5682,1107.0571],[26.516,-10.5611,1105.4329],[26.5097,-10.5617,1096.8391],[26.4975,-10.5481,1101.5032],[26.4874,-10.5448,1104.5939],[26.4854,-10.5367,1097.9165],[26.4755,-10.5205,1093.1986],[26.4751,-10.5118,1092.2664],[26.4713,-10.5091,1092.6965],[26.4639,-10.5083,1090.6833],[26.4561,-10.5013,1095.6874],[26.4538,-10.5015,1091.3629],[26.4849,-10.4797,1119.7439],[26.4956,-10.4748,1152.0095],[26.5083,-10.4741,1163.9015],[26.5362,-10.4794,1235.4327],[26.5599,-10.4753,1313.2505],[26.5685,-10.4712,1383.136],[26.5756,-10.4703,1398.8097],[26.6121,-10.4715,1448.2073],[26.6316,-10.4697,1484.1322],[26.6464,-10.4624,1371.5408],[26.6549,-10.461,1337.432],[26.6644,-10.461,1385.3508],[26.6804,-10.4659,1445.335],[26.6993,-10.4678,1381.7297],[26.706,-10.4677,1345.926],[26.718,-10.4649,1347.1345],[26.7362,-10.4699,1359.6223],[26.7838,-10.4679,1355.8811],[26.8061,-10.464,1349.3809],[26.8204,-10.4649,1355.2711],[26.834,-10.4696,1294.3829],[26.864,-10.4838,1169.4197],[26.8816,-10.4892,1129.2939],[26.897,-10.5047,1152.1749],[26.9096,-10.5107,1040.2444],[26.9178,-10.5174,1085.4984],[26.9236,-10.5304,1165.7476],[26.9235,-10.5368,1117.7238],[26.9197,-10.5495,1174.7888],[26.9205,-10.5632,1131.9099],[26.9283,-10.6013,1154.5762],[26.9389,-10.6073,1133.8335],[26.9465,-10.6069,1139.8647],[26.9563,-10.5755,1112.2568],[26.965699999999998,-10.5646,1132.6738],[26.9804,-10.5576,1198.4453],[26.9997,-10.5569,1180.1997],[27.022,-10.5594,1193.7178],[27.029,-10.5559,1154.9353],[27.0324,-10.5524,1179.1125],[27.0437,-10.5511,1182.6929],[27.0658,-10.5621,1222.3306],[27.0731,-10.5634,1192.8123],[27.0872,-10.5573,1138.1995],[27.0996,-10.5493,1110.7222],[27.1019,-10.5468,1113.7952],[27.1032,-10.5277,1022.5833],[27.1093,-10.5172,1008.1218],[27.1154,-10.5118,1011.705],[27.136,-10.485,1025.6353],[27.1602,-10.4624,956.0518],[27.1697,-10.4503,938.512],[27.1879,-10.4325,930.1035],[27.188,-10.4296,931.3543],[27.1595,-10.395,924.6812],[27.1305,-10.35,913.2827],[27.1056,-10.3208,916.5422],[27.0782,-10.3021,918.5352],[27.0565,-10.2904,916.7051],[27.015,-10.2597,914.7266],[26.9884,-10.2337,925.0344],[26.9822,-10.2258,931.203],[26.9799,-10.2179,936.768],[26.9807,-10.2109,939.1577],[26.9899,-10.1949,939.8676],[27.0109,-10.1669,929.0822],[27.019,-10.1532,909.5275],[27.0269,-10.1354,911.9991],[27.0426,-10.1068,915.041],[27.0484,-10.0982,909.9352],[27.0763,-10.0685,897.7338],[27.0994,-10.0335,899.8566],[27.0985,-10.0249,897.9312],[27.085,-9.9913,896.6135],[27.0761,-9.985,893.9205],[27.0676,-9.9754,899.0886],[27.0644,-9.9688,900.3711],[27.0633,-9.9497,894.4707],[27.0657,-9.9424,891.6547],[27.0732,-9.9303,890.0408],[27.075,-9.9217,889.4405],[27.0697,-9.916,890.5583],[27.0591,-9.9132,890.4065],[27.0455,-9.9135,891.6209],[27.0339,-9.9218,888.2109],[27.0263,-9.9153,889.303],[27.0236,-9.9215,890.1345],[27.0164,-9.9191,889.3934],[27.0074,-9.9351,889.9907],[27.0084,-9.9406,891.3578],[27.0064,-9.9434,889.4985],[26.9901,-9.9386,891.163],[26.988,-9.9409,892.9003],[26.987,-9.9483,893.4209],[26.9826,-9.9509,892.2516],[26.9843,-9.9555,894.6563],[26.9715,-9.9552,895.2013],[26.9654,-9.9493,896.1721],[26.9633,-9.9505,896.3967],[26.9593,-9.9582,897.3839],[26.9563,-9.9584,895.9949],[26.9527,-9.9541,897.0659],[26.9492,-9.954,897.4054],[26.9433,-9.9596,899.3302],[26.9412,-9.9598,898.5419],[26.9413,-9.9647,898.6531],[26.9395,-9.9672,897.9324],[26.933,-9.965,901.1859],[26.9306,-9.9752,899.8172],[26.9228,-9.9686,902.2412],[26.9137,-9.9642,903.5909],[26.9088,-9.9642,901.2445],[26.9081,-9.9771,907.6761],[26.9007,-9.965,904.6823],[26.8954,-9.9649,906.7135],[26.8924,-9.967,907.062],[26.8861,-9.9621,905.9285],[26.8843,-9.9664,905.6211],[26.8887,-9.9811,909.4396],[26.8862,-9.9862,913.2667],[26.8839,-9.9855,909.1088],[26.8821,-9.9784,905.5665],[26.8789,-9.9789,907.7556],[26.873,-9.9852,910.2317],[26.8704,-9.9848,908.1003],[26.8678,-9.9798,908.5767],[26.8603,-9.9772,906.3182],[26.8552,-9.9779,910.1662],[26.8486,-9.9833,914.7726],[26.8391,-9.9851,913.2655],[26.8361,-9.9872,913.958],[26.8359,-10.0035,917.0771],[26.8343,-10.009,921.4708],[26.8311,-10.0116,923.9013],[26.8219,-10.0129,919.2646],[26.8148,-10.0195,914.6464],[26.8102,-10.0211,922.1235],[26.8025,-10.0206,922.1575],[26.7958,-10.0239,921.8122],[26.79,-10.0237,915.2264],[26.7839,-10.0183,921.52],[26.7751,-10.0173,923.1634],[26.771,-10.0114,930.5066],[26.7636,-10.0066,934.6547],[26.7557,-10.0088,944.2739],[26.7471,-10.0055,939.8975],[26.7724,-9.9898,942.3843],[26.7818,-9.9793,935.3041],[26.7823,-9.9362,945.0828],[26.7798,-9.919,943.7886],[26.7734,-9.9131,949.9443],[26.6472,-9.9112,989.4044],[26.6191,-9.9207,999.3622],[26.5993,-9.9214,1006.8832],[26.5891,-9.9172,1011.0372],[26.5837,-9.9126,1013.2284],[26.5588,-9.912,1026.2617],[26.5462,-9.9065,1033.5002],[26.5325,-9.9072,1043.6636],[26.5141,-9.9053,1048.4359],[26.4941,-9.8956,1049.322],[26.4792,-9.8907,1053.1758],[26.4672,-9.8917,1064.4763],[26.4432,-9.8983,1093.5394],[26.4301,-9.8982,1105.8464],[26.4228,-9.8966,1117.9883],[26.412,-9.8857,1107.2115],[26.404,-9.874,1120.3435],[26.4004,-9.8715,1132.496],[26.3895,-9.8693,1216.8387],[26.3789,-9.8691,1198.2524],[26.3667,-9.8623,1200.0676],[26.3602,-9.8542,1215.973],[26.3417,-9.8565,1263.7717],[26.3168,-9.8569,1314.4075],[26.3103,-9.8602,1315.8616],[26.3035,-9.8801,1284.9333],[26.299,-9.8844,1291.4915],[26.2827,-9.8841,1400.4176],[26.2756,-9.8779,1458.011],[26.2699,-9.8668,1569.6609],[26.2691,-9.8499,1414.8951],[26.2665,-9.842,1483.9358],[26.2671,-9.8221,1510.1299],[26.2852,-9.793,1626.4805],[26.2868,-9.7744,1584.3878],[26.2921,-9.764,1633.2102],[26.3212,-9.7342,1627.6849],[26.3384,-9.7208,1407.441],[26.3402,-9.7179,1407.0928],[26.3392,-9.7091,1401.8572],[26.3301,-9.6911,1588.1152],[26.33,-9.684,1645.5533],[26.3308,-9.6794,1657.8979],[26.335,-9.6715,1661.1488],[26.3523,-9.6545,1654.6083],[26.3527,-9.6483,1645.4271],[26.3507,-9.6467,1642.2725],[26.3469,-9.6464,1645.9125],[26.3428,-9.6431,1640.9481],[26.3326,-9.6412,1640.681],[26.3083,-9.6514,1649.9395],[26.28,-9.6697,1561.6138],[26.2687,-9.6746,1595.6647],[26.2603,-9.6733,1583.8601],[26.2498,-9.6792,1571.5182],[26.2429,-9.6858,1546.6897],[26.2324,-9.7006,1541.1597],[26.2201,-9.7107,1532.7499],[26.2126,-9.7123,1523.4575],[26.2051,-9.7107,1555.0087],[26.2017,-9.7058,1579.9247],[26.1967,-9.7026,1565.394],[26.1923,-9.7003,1576.2122],[26.1885,-9.7003,1588.7797],[26.1727,-9.7085,1494.3296],[26.1648,-9.7102,1390.0875],[26.1546,-9.7092,1399.8896],[26.1485,-9.7066,1409.4116],[26.1457,-9.7073,1413.9171],[26.1413,-9.7089,1387.3025],[26.134,-9.7168,1354.4419],[26.1289,-9.7197,1392.854],[26.123,-9.7207,1341.3832],[26.1159,-9.7188,1256.1553],[26.1081,-9.7116,1257.3837],[26.1041,-9.7113,1246.2434],[26.0462,-9.7222,1144.3258],[26.0377,-9.7226,1122.6167],[26.0326,-9.7197,1087.5911],[26.0313,-9.7135,1104.7637],[26.0311,-9.706,1169.927],[26.0355,-9.6821,1036.4968],[26.0355,-9.6779,1042.3615],[26.0335,-9.6766,1002.5493],[26.0229,-9.6825,1008.8875],[26.0078,-9.6845,1106.3954],[25.9591,-9.7,1002.4835],[25.9445,-9.7013,1016.8847],[25.9264,-9.701,992.561],[25.9148,-9.6991,1158.1703],[25.8799,-9.6799,822.7347],[25.8765,-9.6751,846.9811],[25.845,-9.6575,859.2607],[25.8366,-9.6507,875.4373],[25.8245,-9.6331,862.1357],[25.811,-9.6253,877.0901],[25.7963,-9.6218,849.0884],[25.7431,-9.5981,847.9542],[25.7231,-9.5838,803.498],[25.7096,-9.5718,764.8127],[25.7001,-9.5669,759.1199],[25.6944,-9.5601,767.9398],[25.684,-9.5516,780.5804],[25.6719,-9.536,799.703],[25.6547,-9.519,803.2369],[25.6451,-9.493,795.7978],[25.6407,-9.4897,796.3702],[25.6264,-9.4934,777.2832],[25.6191,-9.497,778.0602],[25.6002,-9.513,752.686],[25.5902,-9.5171,729.493],[25.5786,-9.5165,734.2255],[25.5681,-9.5102,752.6051],[25.5591,-9.511,732.629],[25.5493,-9.5069,717.3944],[25.5377,-9.5052,716.6962],[25.5304,-9.509,716.3914],[25.5104,-9.5055,711.9249],[25.5116,-9.4885,704.9689],[25.5016,-9.4872,690.7029],[25.498,-9.4957,700.1946],[25.5025,-9.503,693.3253],[25.5026,-9.5086,704.6839],[25.498,-9.5357,703.1836],[25.4953,-9.5424,695.8917],[25.4911,-9.5464,710.3159],[25.4903,-9.5505,715.8962],[25.4931,-9.5585,733.0354],[25.4922,-9.5629,714.1976],[25.4967,-9.5865,713.3278],[25.5025,-9.5879,699.5053],[25.5065,-9.5929,701.6055],[25.5067,-9.5959,700.9506],[25.504,-9.6019,688.773],[25.5109,-9.6158,710.95],[25.5153,-9.6204,711.7507],[25.5163,-9.6298,686.9819],[25.5213,-9.6355,704.9016],[25.5213,-9.6398,719.7822],[25.5193,-9.6424,729.481],[25.513,-9.642,713.2318],[25.4994,-9.6288,688.7166],[25.4932,-9.6275,691.3146],[25.4904,-9.628,693.9631],[25.4863,-9.6331,695.5847],[25.4865,-9.6361,695.2524],[25.4893,-9.6404,692.8582],[25.501,-9.6449,692.1573],[25.5089,-9.6538,702.5801],[25.5182,-9.6541,690.9622],[25.522,-9.6568,703.7435],[25.5243,-9.6621,710.9056],[25.524,-9.6725,704.7318],[25.5259,-9.68,718.1385],[25.523,-9.6909,694.7435],[25.524,-9.6941,696.8195],[25.5272,-9.697,704.5496],[25.5319,-9.6974,702.2657],[25.5385,-9.6916,693.7515],[25.5436,-9.6923,707.5068],[25.546,-9.6968,706.5996],[25.5435,-9.7028,715.6344],[25.5447,-9.707,713.1993],[25.5427,-9.7088,703.0258],[25.535,-9.7087,707.2139],[25.5277,-9.7044,700.0739],[25.5218,-9.7053,708.7059],[25.5192,-9.7074,715.2062],[25.5208,-9.7231,702.0244],[25.5253,-9.7297,702.866],[25.5369,-9.7378,713.9403],[25.5388,-9.741,717.0766],[25.5484,-9.7423,742.5356],[25.5463,-9.7497,735.8108],[25.5406,-9.7543,726.5235],[25.5377,-9.7622,737.0341],[25.5382,-9.7663,732.202],[25.5446,-9.7787,733.7686],[25.5416,-9.7941,723.8035],[25.5373,-9.7981,732.8329],[25.5246,-9.8003,748.9802],[25.4936,-9.8219,819.3793],[25.4883,-9.8242,842.1496],[25.4791,-9.8243,834.9171],[25.4722,-9.8217,900.1231],[25.4548,-9.8191,896.6825],[25.4507,-9.8164,889.4235],[25.4395,-9.8155,883.0477],[25.424,-9.817,879.2023],[25.4171,-9.8205,896.2833],[25.4067,-9.8227,920.0397],[25.3345,-9.8563,997.2582],[25.3111,-9.8638,1010.5677],[25.2865,-9.8754,1016.5597],[25.2667,-9.8816,993.6277],[25.2512,-9.8901,962.7001],[25.1693,-9.9213,931.1306],[25.1643,-9.9256,927.0997],[25.1445,-9.9515,932.7182],[25.1306,-9.9739,964.3558],[25.1283,-9.9799,958.2723],[25.1069,-9.9811,989.1525],[25.0854,-9.9754,1004.5031],[25.0667,-9.9871,1035.2706],[25.0545,-9.9973,1000.418],[25.0365,-10.008,1013.6826],[25.0246,-10.0129,1023.5568],[25.0192,-10.0147,1011.7582],[24.9927,-10.014,1006.4626],[24.9833,-10.0164,1023.2806],[24.9808,-10.0257,1014.3156],[24.9809,-10.0327,997.3356],[24.983,-10.0382,984.0135],[25.0063,-10.0419,1000.1703],[25.017,-10.0393,976.1899],[25.0721,-10.0498,948.053],[25.062,-10.0683,985.5105],[25.0563,-10.0734,961.6522],[25.0514,-10.0742,945.7127],[25.0387,-10.0805,975.3011],[25.0264,-10.0813,960.7171],[24.9961,-10.0951,998.9487],[24.9807,-10.1083,1021.3956],[24.9768,-10.1194,1014.7748],[24.943,-10.1283,1052.8258],[24.9303,-10.1299,1064.7009],[24.9244,-10.1282,1066.8083],[24.9164,-10.1213,1051.1077],[24.9039,-10.0957,1056.7264],[24.9011,-10.0825,1021.1381],[24.8882,-10.0633,968.8473],[24.8707,-10.0517,908.7992],[24.8555,-10.0387,900.9333],[24.8428,-10.0241,894.3575],[24.8352,-10.0224,892.5462],[24.8355,-10.0281,882.3866],[24.8439,-10.0361,912.2087],[24.8461,-10.0499,904.3942],[24.8454,-10.0565,917.8676],[24.8436,-10.0605,892.4431],[24.8344,-10.0642,907.7716],[24.8302,-10.0681,903.292],[24.8229,-10.0809,902.1498],[24.8145,-10.0827,931.9535],[24.7804,-10.0653,902.1581],[24.7518,-10.0599,872.075],[24.7374,-10.0426,861.3194],[24.7302,-10.0386,865.0254],[24.7281,-10.0321,858.6094],[24.7227,-10.0264,859.321],[24.7217,-10.0177,854.7977],[24.7253,-10.0048,850.7277],[24.7148,-9.9936,874.3348],[24.712,-9.9927,873.4279],[24.7077,-10.0054,888.7094],[24.7036,-10.0121,908.477],[24.6973,-10.0167,915.3625],[24.6967,-10.0216,908.1761],[24.7007,-10.0344,904.3812],[24.6955,-10.0487,916.3438],[24.6929,-10.0508,917.0975],[24.6714,-10.0567,932.0934],[24.6443,-10.0585,959.1738],[24.6248,-10.0644,969.6428],[24.6078,-10.0769,966.2745],[24.5928,-10.0949,969.4617],[24.5826,-10.0982,977.95],[24.5761,-10.098,982.4169],[24.5712,-10.0918,993.0757],[24.559,-10.0649,1067.0118],[24.5502,-10.0525,1063.4493],[24.5365,-10.0374,1003.6179],[24.508,-10.0172,1055.8689],[24.4987,-10.008,1044.718],[24.4777,-9.9953,998.013],[24.4704,-9.9831,1000.4622],[24.4663,-9.9806,1000.2903],[24.463,-9.9815,974.2962],[24.4613,-9.9897,976.7078],[24.4555,-9.9968,1004.6232],[24.4496,-10.0154,1036.3575],[24.4415,-10.0247,1054.5625],[24.4362,-10.0346,1071.6011],[24.4271,-10.0424,1077.4645],[24.4239,-10.0487,1074.7926],[24.4146,-10.0601,1079.324],[24.4116,-10.0736,1069.7834],[24.4145,-10.1084,1065.6849],[24.4062,-10.0925,1059.3748],[24.3897,-10.0779,1046.1619],[24.3882,-10.0737,1040.0115],[24.3887,-10.0551,1055.385],[24.3829,-10.0432,1013.6564],[24.3745,-10.0364,1013.6685],[24.3717,-10.0279,1006.0915],[24.3735,-10.0198,984.2842],[24.3629,-9.9962,998.0444],[24.3622,-9.987,980.6603],[24.3596,-9.9833,964.6095],[24.3564,-9.9868,966.2642],[24.351,-9.9882,979.665],[24.3302,-9.9888,993.7686],[24.3251,-9.9921,988.8561],[24.3069,-10.0172,1025.1879],[24.2963,-10.0226,1024.1335],[24.2949,-10.0258,1017.3134],[24.2975,-10.0336,1041.0663],[24.292,-10.0451,1034.131],[24.2883,-10.041,1052.9869],[24.2822,-10.0379,1062.8754],[24.2791,-10.0329,1063.7539],[24.279,-10.0289,1051.1542],[24.2667,-10.0138,1075.0989],[24.264,-10.0063,1069.9318],[24.2515,-10.0029,1031.1565],[24.2269,-9.9929,1008.7543],[24.2183,-9.9948,1039.9348],[24.2058,-10.0047,1029.3794],[24.1839,-10.0025,999.9821],[24.1758,-10.0092,993.3008],[24.1642,-10.0143,1009.3791],[24.1559,-10.0146,1000.4197],[24.1435,-10.0094,1011.0332],[24.1373,-10.009,1010.9965],[24.1334,-10.0117,1002.9307],[24.1222,-10.0124,1021.6685],[24.1036,-10.0084,1051.248],[24.095,-10.003,1074.8047],[24.0859,-9.9927,1048.4539],[24.085,-9.9564,1043.8507],[24.0869,-9.9501,1036.5798],[24.0935,-9.9437,1034.7697],[24.1058,-9.9363,1028.1003],[24.1083,-9.9291,1026.8628],[24.1053,-9.9218,1024.7246],[24.1045,-9.9142,1023.3603],[24.0873,-9.906,1022.1138],[24.0708,-9.9022,1026.1006],[24.0599,-9.8976,1017.6965],[24.0335,-9.8985,1015.6016],[24.0258,-9.8923,1014.9413],[24.0218,-9.8866,1023.0924],[24.0199,-9.8792,1026.5952],[24.0233,-9.8594,1012.6218],[24.0279,-9.847,1011.6638],[24.0276,-9.8412,1011.3594],[24.0207,-9.8401,1022.8993],[24.013,-9.8356,1011.316],[24.0194,-9.8178,1011.0588],[24.0288,-9.8079,1010.9408],[24.0401,-9.7851,1010.8941],[24.047,-9.7761,1010.5898],[24.0643,-9.7592,1009.7174],[24.0716,-9.747,1009.8928],[24.082,-9.7364,1009.4916],[24.1065,-9.7229,1008.512],[24.1097,-9.7185,1009.1807],[24.1136,-9.702,1007.3502],[24.1124,-9.6926,1007.2767],[24.1195,-9.6746,1007.0149],[24.1187,-9.667,1006.8364],[24.13,-9.6495,1006.2556],[24.132,-9.643,1005.9971],[24.1296,-9.6263,1005.9959],[24.1198,-9.6084,1012.2269],[24.1179,-9.5997,1023.6814],[24.1212,-9.576,1005.069],[24.131,-9.547,1004.101],[24.1514,-9.5046,1007.0575],[24.1529,-9.4848,1008.9461],[24.1566,-9.4811,1004.7839],[24.1627,-9.459,991.2307],[24.1622,-9.453,991.9628],[24.1578,-9.4422,981.5842],[24.1517,-9.4342,992.603],[24.1501,-9.4276,996.7114],[24.1461,-9.4225,981.2526],[24.1456,-9.4182,984.086],[24.1518,-9.3995,985.0717],[24.1434,-9.3897,978.7333],[24.1419,-9.3849,975.5566],[24.1447,-9.3741,974.4829],[24.1404,-9.3628,974.9094],[24.136,-9.3592,980.7636],[24.148,-9.353,1012.7322],[24.15,-9.3487,1021.9479],[24.1481,-9.3387,1029.021],[24.1858,-9.3037,1087.0986],[24.1953,-9.3069,1082.0562],[24.2078,-9.3152,1080.3069],[24.2115,-9.3204,1075.9193],[24.2153,-9.3212,1078.4532],[24.2181,-9.3176,1078.0885],[24.2249,-9.314,1071.1241],[24.229,-9.314,1074.7748],[24.2333,-9.3109,1072.1827],[24.2391,-9.3039,1070.5964],[24.2466,-9.289,1071.7384],[24.2514,-9.2849,1079.603],[24.2573,-9.2816,1091.8391],[24.2634,-9.2813,1086.9739],[24.2684,-9.2757,1074.9873],[24.2926,-9.2737,1076.2336],[24.3003,-9.2703,1079.0706],[24.3299,-9.2705,1080.8568],[24.3782,-9.2802,1076.431],[24.3864,-9.2851,1069.926],[24.389,-9.2883,1069.8998],[24.3969,-9.2885,1070.6652],[24.4023,-9.2967,1070.3612],[24.411,-9.3033,1078.6726],[24.4304,-9.3034,1077.6747],[24.4376,-9.301,1062.9564],[24.461,-9.2998,1060.5133],[24.5368,-9.3006,1026.9553],[24.5525,-9.2947,1063.7178],[24.5701,-9.2935,1084.1167],[24.5734,-9.2909,1076.8215],[24.5753,-9.2774,1080.8047],[24.5696,-9.2682,1072.6841],[24.5643,-9.266,1078.1659],[24.5542,-9.2566,1080.0033],[24.5404,-9.2528,1089.3984],[24.5292,-9.2544,1092.6462],[24.5195,-9.2523,1085.551],[24.5141,-9.2486,1092.26],[24.5057,-9.2469,1095.2588],[24.4967,-9.2425,1092.1925],[24.489,-9.2351,1066.3804],[24.4892,-9.219,1068.1991],[24.4824,-9.2137,1068.5479],[24.4736,-9.2034,1069.6455],[24.4666,-9.2012,1071.0596],[24.4548,-9.202,1080.275],[24.4508,-9.1912,1072.4397],[24.4452,-9.183,1072.7817],[24.4347,-9.1764,1074.8438],[24.4136,-9.1682,1079.9006],[24.3946,-9.1573,1090.3818],[24.3869,-9.1484,1079.3894],[24.3809,-9.1443,1078.9556],[24.3726,-9.1425,1078.3958],[24.3596,-9.1366,1077.0042],[24.3503,-9.1298,1077.4712],[24.3443,-9.1289,1076.8103],[24.3366,-9.1253,1075.6222],[24.3236,-9.1132,1086.9412],[24.3158,-9.0882,1081.2371],[24.3056,-9.079,1069.3359],[24.2854,-9.0674,1069.8071],[24.2742,-9.0572,1071.1838],[24.2668,-9.0453,1071.7244],[24.2515,-9.0079,1032.1736],[24.2538,-9.0008,1046.9253],[24.2505,-8.9923,1022.3535],[24.2521,-8.9849,1031.5496],[24.2497,-8.9799,1025.0754],[24.2455,-8.9762,1021.33],[24.2238,-8.9669,1030.9021],[24.2214,-8.9617,1031.8901],[24.2119,-8.9548,1011.2744],[24.193,-8.9558,997.7411],[24.1754,-8.949,1000.551],[24.1657,-8.9489,995.4768],[24.1582,-8.9448,994.1188],[24.1469,-8.9423,991.6177],[24.106,-8.9365,983.8104],[24.0979,-8.938,976.3401],[24.0962,-8.9325,982.0112],[24.0992,-8.9242,985.0564],[24.1106,-8.9131,984.83],[24.1103,-8.9093,1014.708],[24.1061,-8.9031,1010.0999],[24.0997,-8.8967,992.0141],[24.0884,-8.8913,1033.7222],[24.0739,-8.8885,1078.2632],[24.0432,-8.8585,1028.6226],[24.0139,-8.8326,1002.9704],[24.008,-8.8296,1003.1038],[24.0005,-8.822,991.6193],[23.9959,-8.8197,977.645],[23.9912,-8.8128,972.1628],[23.9829,-8.8069,961.342],[23.9801,-8.8028,961.7705],[23.9772,-8.7865,945.0227],[23.973,-8.7785,927.7471],[23.9686,-8.7771,926.2242],[23.9497,-8.7788,922.1076],[23.9428,-8.7765,926.266],[23.9354,-8.7701,919.954],[23.9333,-8.7754,916.8746],[23.9298,-8.7782,917.5366],[23.9227,-8.7782,916.5908],[23.9112,-8.7905,923.4723],[23.8987,-8.7797,963.5565],[23.8715,-8.7878,984.0703],[23.8581,-8.7869,996.426],[23.8376,-8.7848,998.713],[23.8201,-8.7793,984.4188],[23.8051,-8.7769,1019.4526],[23.7717,-8.7771,1050.5007],[23.755,-8.7686,1089.9072],[23.7484,-8.767,1109.8357],[23.729,-8.7813,1093.9714],[23.6961,-8.7046,1118.3002],[23.6909,-8.6739,1104.3611],[23.6928,-8.6297,1080.0691],[23.6868,-8.6221,1072.3964],[23.6781,-8.601,1074.9502],[23.6792,-8.5845,1074.4587],[23.6815,-8.5792,1069.0461],[23.6884,-8.572,1077.974],[23.6882,-8.5688,1081.2075],[23.6787,-8.5542,1051.7302],[23.6581,-8.5423,1055.193],[23.6511,-8.5347,1043.688],[23.6486,-8.5276,1037.1371],[23.6401,-8.4817,1037.3693],[23.6417,-8.4679,1055.9202],[23.6503,-8.4468,1085.7352],[23.6554,-8.4415,1072.0914],[23.6676,-8.4343,1020.2113],[23.6701,-8.429,1051.4692],[23.6692,-8.4267,1051.7699],[23.6751,-8.4109,1038.4047],[23.6819,-8.3672,1031.0089],[23.6896,-8.338,1037.3248],[23.6909,-8.3261,1015.24],[23.69,-8.3155,1022.362],[23.7013,-8.276,1010.6271],[23.702,-8.2615,1008.3286],[23.7006,-8.2503,1005.2341],[23.6847,-8.2008,1006.2252],[23.6844,-8.1923,1015.6089],[23.6933,-8.1686,1009.3262],[23.7008,-8.136,1004.6061],[23.6938,-8.1158,990.1257],[23.6917,-8.0993,1000.72],[23.6928,-8.0899,997.6884],[23.6891,-8.0819,993.2272],[23.6812,-8.0752,985.3644],[23.6754,-8.061,1002.9854],[23.6682,-8.0528,984.8608],[23.6678,-8.0491,992.7094],[23.6741,-8.0293,993.7156],[23.6911,-8.0,998.1157],[23.6835,-7.9923,977.5532],[23.6851,-7.9879,983.7377],[23.6826,-7.9813,990.6309],[23.6884,-7.9675,957.4611],[23.6477,-7.9689,1024.4521],[23.6256,-7.9668,993.2964],[23.5921,-7.9472,940.4568],[23.5836,-7.9365,916.4411],[23.5749,-7.9382,912.2375],[23.5735,-7.9398,912.7924],[23.5673,-7.9393,917.2433],[23.5594,-7.9453,921.9012],[23.5415,-7.948,923.6497],[23.526,-7.9673,940.5284],[23.5184,-7.9728,951.2057],[23.5085,-7.9741,962.6453],[23.4974,-7.9796,961.3616],[23.4928,-7.9789,968.7783],[23.4885,-7.9707,975.7207],[23.4818,-7.9677,990.7908],[23.4793,-7.9619,1001.1632],[23.46,-7.9588,1052.679],[23.4423,-7.944,1023.7945],[23.3993,-7.9549,1002.2234],[23.3899,-7.9551,998.2516],[23.3802,-7.9524,1003.0404],[23.3095,-7.944,1003.2442],[23.2908,-7.9577,935.9006],[23.2798,-7.9704,902.7101],[23.2678,-7.9756,891.3148],[23.2554,-7.9689,892.8192],[23.2473,-7.9682,891.2994],[23.237,-7.9611,889.4685],[23.2282,-7.9507,891.6774],[23.2241,-7.9505,888.8753],[23.2146,-7.9567,883.0526],[23.2098,-7.9573,880.933],[23.2057,-7.9537,880.6458],[23.205,-7.9493,878.241],[23.1994,-7.947,891.947],[23.1978,-7.9422,886.1776],[23.2004,-7.9374,881.8774],[23.1808,-7.9237,891.5159],[23.1767,-7.9111,882.0975],[23.1783,-7.9082,874.7752],[23.1749,-7.901,880.3412],[23.1705,-7.8749,873.1422],[23.177,-7.8705,872.4351],[23.1731,-7.8652,883.2932],[23.1747,-7.8581,889.0527],[23.1853,-7.8522,870.9877],[23.1888,-7.8418,869.4822],[23.1817,-7.8395,875.7621],[23.1814,-7.8372,882.1078],[23.1856,-7.832,869.9614],[23.1844,-7.8242,869.7653],[23.1879,-7.8122,880.7975],[23.1794,-7.8115,870.9276],[23.1762,-7.7998,873.6516],[23.176,-7.7943,873.4241],[23.1824,-7.7851,868.5477],[23.1817,-7.7817,867.7161],[23.1863,-7.7808,867.0725],[23.185,-7.7688,867.6089],[23.1705,-7.7695,888.95],[23.1668,-7.7725,897.9082],[23.1507,-7.7766,886.58989999999994],[23.1209,-7.8119,912.5941],[23.1034,-7.8265,912.9758],[23.0916,-7.8508,916.0116],[23.084,-7.8749,924.8848],[23.0703,-7.8733,946.761],[23.0453,-7.865,948.2795],[23.0004,-7.8708,993.8159],[22.9843,-7.8648,1015.697],[22.9637,-7.872,1013.5618],[22.9409,-7.8883,1008.9708],[22.9173,-7.8816,998.6652],[22.8923,-7.8634,983.8694],[22.8349,-7.8301,939.8293],[22.8172,-7.8226,930.6008],[22.7988,-7.8197,951.4564],[22.7775,-7.8214,897.7468],[22.7738,-7.8176,921.7709],[22.7664,-7.8177,872.1029],[22.7194,-7.8596,887.3768],[22.6877,-7.8822,824.832],[22.6611,-7.896,809.2541],[22.6662,-7.8802,808.7827],[22.6665,-7.8666,831.6458],[22.675,-7.8593,806.7233],[22.6771,-7.8554,807.5183],[22.6755,-7.8517,822.9811],[22.6711,-7.8508,807.4427],[22.6637,-7.8368,821.9088],[22.6569,-7.8292,806.1841],[22.6495,-7.8271,805.8466],[22.6465,-7.8234,802.9108],[22.6449,-7.8158,807.5],[22.6472,-7.8117,806.2071],[22.6449,-7.803,803.0413],[22.647,-7.7954,803.1354],[22.6427,-7.7851,804.0796],[22.651,-7.7791,800.9235],[22.6517,-7.7754,800.5092],[22.6455,-7.7646,802.3646],[22.637,-7.7605,803.874],[22.6315,-7.7531,807.7145],[22.6246,-7.7513,800.546],[22.6168,-7.7434,805.1345],[22.611,-7.7416,796.0688],[22.6108,-7.7345,800.433],[22.6094,-7.7326,798.5283],[22.6043,-7.7331,794.7336],[22.5997,-7.7363,792.947],[22.6055,-7.7375,793.4482],[22.608,-7.743,797.9612],[22.6002,-7.7446,813.2011],[22.5916,-7.7521,821.1457],[22.5817,-7.7558,815.4075],[22.5709,-7.7566,823.3093],[22.5598,-7.761,817.5756],[22.5538,-7.7653,818.1917],[22.5453,-7.7747,844.1017],[22.5427,-7.7816,841.5166],[22.5245,-7.8024,844.1535],[22.5219,-7.8201,863.2591],[22.4966,-7.8449,922.3859],[22.4854,-7.8475,947.3666],[22.4732,-7.8438,934.0738],[22.4469,-7.8304,928.468],[22.4328,-7.8215,914.0092],[22.4326,-7.8169,911.5044],[22.427,-7.8063,909.2726],[22.4213,-7.8045,925.9639],[22.4101,-7.8165,942.5098],[22.3485,-7.8513,877.3953],[22.3298,-7.8591,860.3259],[22.2911,-7.8712,903.7463],[22.2536,-7.874,886.8534],[22.1891,-7.8821,986.2466],[22.1651,-7.8814,977.4411],[22.1633,-7.8702,967.5143],[22.1605,-7.8661,967.4211],[22.152,-7.8619,968.0117],[22.1437,-7.8527,941.2466],[22.1322,-7.8285,945.1728],[22.0666,-7.7474,921.1414],[22.0526,-7.7345,903.4145],[22.0425,-7.7217,916.4977],[22.0388,-7.6968,858.799],[22.0335,-7.6826,878.8083],[22.0237,-7.675,882.7229],[22.0024,-7.6721,833.1683],[22.0024,-7.6764,837.5175],[21.9948,-7.6881,852.1555],[21.9947,-7.6916,844.3343],[21.97,-7.7033,881.4629],[21.9409,-7.684,910.1127],[21.9286,-7.6811,864.3044],[21.8734,-7.6764,785.7443],[21.8394,-7.6638,786.9337],[21.8351,-7.6591,768.2739],[21.8294,-7.6372,758.3983],[21.8238,-7.653,745.788],[21.8129,-7.6565,762.413],[21.8103,-7.6618,755.1169],[21.8123,-7.6725,748.7628],[21.811,-7.6823,767.0401],[21.7966,-7.7139,777.288],[21.7957,-7.7291,747.004],[21.792,-7.736,759.3984],[21.786,-7.7405,792.702],[21.7844,-7.7455,769.6565],[21.7858,-7.7547,773.3054],[21.7836,-7.76,761.5732],[21.768,-7.7774,767.5717],[21.7694,-7.7824,757.5284],[21.7694,-7.7956,798.645],[21.772,-7.8039,756.8901],[21.7697,-7.8095,790.5392],[21.7653,-7.8122,778.7972],[21.7639,-7.8179,781.3334],[21.7657,-7.8234,791.1254],[21.7621,-7.8454,785.8153],[21.7709,-7.8789,778.0516],[21.7707,-7.8937,777.0626],[21.7665,-7.9088,783.3944],[21.7453,-7.9295,791.0604],[21.7455,-7.9388,788.845],[21.7597,-7.9604,778.5511],[21.7597,-7.9646,779.5635],[21.7712,-8.0004,778.7388],[21.7814,-8.0118,780.7747],[21.788,-8.0311,779.7639],[21.8168,-8.0624,780.5499],[21.8271,-8.0799,781.3986],[21.8338,-8.1002,781.9154],[21.8437,-8.1142,783.9938],[21.8487,-8.1322,784.8571],[21.8549,-8.144,785.9822],[21.8662,-8.1569,785.7379],[21.8727,-8.1609,787.2147],[21.887,-8.176,788.3259],[21.8893,-8.1817,797.7567],[21.8867,-8.1881,788.8098],[21.881,-8.1928,786.415],[21.8792,-8.1976,787.2427],[21.8853,-8.2139,794.6345],[21.8865,-8.2267,789.0891],[21.8974,-8.2598,800.8727],[21.8969,-8.2895,793.5829],[21.9002,-8.2964,788.9136],[21.9149,-8.3055,788.6118],[21.9227,-8.3083,789.469],[21.93,-8.3145,788.6722],[21.9353,-8.3242,792.2083],[21.9348,-8.3355,794.0389],[21.9317,-8.3413,793.4733],[21.9209,-8.3532,794.7232],[21.925,-8.3777,805.7878],[21.9238,-8.397,791.4271],[21.9331,-8.4058,793.1241],[21.9429,-8.4265,792.9043],[21.9507,-8.4507,793.6497],[21.9511,-8.4601,798.8702],[21.9483,-8.4758,794.1639],[21.9531,-8.494,816.678],[21.9577,-8.503,805.6374],[21.9555,-8.5094,805.074],[21.945,-8.523,801.6948],[21.9424,-8.5306,799.412],[21.9469,-8.5476,806.9842],[21.9472,-8.5579,807.4423],[21.9451,-8.5653,829.6534],[21.9327,-8.5769,811.3812],[21.9307,-8.5904,816.1932],[21.924,-8.5961,814.588],[21.9226,-8.6,820.6652],[21.9334,-8.6047,825.3588],[21.936,-8.6089,828.0938],[21.9329,-8.618,853.5393],[21.9209,-8.6245,833.3369],[21.9133,-8.6367,837.0422],[21.9119,-8.6431,844.2329],[21.9173,-8.6682,854.0349],[21.9074,-8.6981,900.9496],[21.9018,-8.708,904.9365],[21.8987,-8.719,865.6311],[21.8982,-8.7407,864.5376],[21.903,-8.7669,855.7518],[21.8979,-8.7788,869.9461],[21.8944,-8.8039,870.6516],[21.881,-8.8316,867.6597],[21.8832,-8.8413,872.3933],[21.8717,-8.8575,886.2877],[21.8684,-8.8682,871.2918],[21.8706,-8.8834,879.1957],[21.8589,-8.9083,877.4298],[21.8634,-8.9162,878.651],[21.8659,-8.928,893.4174],[21.8576,-8.9612,872.1361],[21.8537,-9.0064,879.135],[21.8494,-9.018,873.7841],[21.8523,-9.0342,879.7074],[21.8621,-9.0515,898.7073],[21.8581,-9.0555,902.2183],[21.8516,-9.0572,903.4373],[21.8434,-9.0681,904.4547],[21.8428,-9.0812,899.4189],[21.8437,-9.1205,904.3293],[21.849,-9.1444,893.6372],[21.8607,-9.1708,917.0848],[21.8631,-9.203,917.6111],[21.859,-9.2372,923.8671],[21.8575,-9.2425,928.3293],[21.8478,-9.2573,924.7797],[21.8388,-9.286,912.8269],[21.8285,-9.2981,917.7987],[21.8268,-9.3213,929.748],[21.8184,-9.3293,938.9256],[21.809,-9.3546,915.5666],[21.8119,-9.3639,938.7659],[21.8047,-9.3903,939.2601],[21.8027,-9.4069,958.8275],[21.7973,-9.4117,946.5053],[21.7941,-9.4209,921.994],[21.798,-9.4303,948.9205],[21.822,-9.4522,928.2748],[21.8294,-9.4571,926.741],[21.8348,-9.465,936.6969],[21.835,-9.4714,935.176],[21.8303,-9.489,933.968],[21.8354,-9.5154,933.1028],[21.8441,-9.5311,931.7711],[21.846,-9.5378,930.7094],[21.8642,-9.5545,930.3861],[21.8681,-9.5661,936.5529],[21.8677,-9.5817,932.6016],[21.8646,-9.5926,940.7139],[21.8721,-9.6057,938.9042],[21.8754,-9.615,956.4443],[21.8711,-9.623,947.0797],[21.871,-9.6262,931.7295],[21.8744,-9.6284,932.4954],[21.8802,-9.6508,934.9347],[21.8856,-9.6545,944.7702],[21.8948,-9.6568,943.4922],[21.899,-9.6605,942.2202],[21.8985,-9.6682,940.8204],[21.9171,-9.682,941.5519],[21.9342,-9.6868,942.0883],[21.9383,-9.6916,942.8882],[21.941,-9.7098,943.1169],[21.9443,-9.713,943.24],[21.9518,-9.7152,942.4445],[21.9592,-9.7259,946.0573],[21.969,-9.731,943.6949],[21.9775,-9.76,944.8088],[21.9817,-9.7639,970.0724],[21.9858,-9.7641,968.95],[21.9956,-9.7536,951.481],[22.0014,-9.753,946.0079],[22.0062,-9.7573,951.335],[22.0064,-9.7636,949.2217],[22.0022,-9.7846,945.254],[22.0038,-9.789,946.6672],[22.0077,-9.7923,946.9276],[22.0124,-9.8158,947.48],[22.0245,-9.8338,950.2591],[22.0349,-9.8371,950.92],[22.0432,-9.8353,946.821],[22.0546,-9.8524,949.164],[22.065,-9.8614,952.8029],[22.0709,-9.8719,949.8914],[22.0755,-9.8765,949.042],[22.0918,-9.8819,954.244],[22.0959,-9.8814,953.1016],[22.1112,-9.8729,950.3381],[22.117,-9.8741,952.971],[22.1239,-9.8794,951.6658],[22.1265,-9.8866,951.0607],[22.1295,-9.8893,949.7714],[22.136,-9.8907,951.9066],[22.1439,-9.8882,951.5706],[22.1511,-9.8904,951.1402],[22.1672,-9.9058,951.1252],[22.185,-9.9169,951.2471],[22.1915,-9.9285,950.5415],[22.1906,-9.9404,951.4152],[22.2013,-9.9614,954.0128],[22.202,-9.9724,952.4565],[22.2064,-9.9864,967.4396],[22.1982,-9.9989,954.4414],[22.2014,-10.0061,954.3464],[22.2099,-10.014,954.3367],[22.2175,-10.0171,970.1614],[22.2183,-10.0228,976.5803],[22.2125,-10.0365,966.5297],[22.2132,-10.0425,958.3289],[22.2245,-10.0696,965.998],[22.2213,-10.0823,968.0806],[22.2194,-10.0816,965.6125],[22.2256,-10.1114,962.0561],[22.2248,-10.1204,964.9492],[22.2201,-10.1293,955.0],[22.2242,-10.1371,961.0823],[22.223,-10.159,964.7144],[22.2351,-10.1819,960.543],[22.2386,-10.1988,960.73],[22.236,-10.209,957.4224],[22.239,-10.215,958.2714],[22.2449,-10.2212,958.5859],[22.2448,-10.2304,962.5527],[22.2481,-10.241,958.5622],[22.2613,-10.2639,968.8116],[22.2406,-10.29,994.3668],[22.2464,-10.2998,979.5067],[22.2555,-10.3063,993.7052],[22.285,-10.307,959.9903],[22.298,-10.3154,961.5576],[22.3067,-10.3276,963.1509],[22.3125,-10.3402,968.5687],[22.3141,-10.3503,973.0748],[22.3096,-10.3507,961.4177],[22.3116,-10.3684,963.9827],[22.3281,-10.3868,965.3528],[22.3292,-10.3994,967.9173],[22.3228,-10.4202,974.2946],[22.3165,-10.4267,967.413],[22.3104,-10.4367,986.2435],[22.3092,-10.4507,993.3577],[22.2959,-10.467,975.432],[22.2927,-10.4975,994.5514],[22.2885,-10.5041,995.5594],[22.278,-10.5085,970.852],[22.278,-10.516,969.3595],[22.2884,-10.5207,972.6978],[22.3102,-10.5355,970.6143],[22.3159,-10.5421,983.1539],[22.3148,-10.5557,978.1729],[22.3183,-10.5766,996.5243],[22.3161,-10.6001,978.2769],[22.3189,-10.6557,1001.3019],[22.3141,-10.6762,985.2703],[22.3242,-10.6901,994.7505],[22.3276,-10.7038,988.1911],[22.329,-10.733,985.9033],[22.3342,-10.7426,1000.328],[22.3344,-10.7559,1020.5712],[22.3279,-10.7722,990.1645],[22.3109,-10.7829,1016.631],[22.2975,-10.7838,1001.619],[22.2827,-10.7756,1002.2817],[22.267,-10.7956,1032.0924],[22.242,-10.806,1011.2547],[22.2038,-10.8351,1039.5984],[22.192,-10.842,1028.3756],[22.181,-10.852,1013.5067],[22.176,-10.8639,1057.1814],[22.1743,-10.8747,1027.918],[22.1791,-10.8913,1035.069],[22.1818,-10.8955,1035.3284],[22.182,-10.9074,1041.9749],[22.199,-10.93,1027.7488],[22.2063,-10.9466,1050.1322],[22.208,-10.954,1049.7021],[22.207,-10.998,1039.4088],[22.21,-11.013,1043.1869],[22.2169,-11.0255,1036.4832],[22.22,-11.0354,1069.2551],[22.221,-11.047,1104.6786],[22.217,-11.073,1066.5317],[22.217,-11.088,1091.9277],[22.221,-11.104,1078.6113],[22.227,-11.117,1091.49],[22.2462,-11.1357,1052.7532],[22.2543,-11.1479,1067.4004],[22.2637,-11.1659,1077.1292],[22.2689,-11.1823,1077.1921],[22.27,-11.1951,1094.9661],[22.2589,-11.2266,1100.0189],[22.261,-11.233,1103.8411],[22.272,-11.246,1108.7032],[22.278,-11.25,1113.8464],[22.29,-11.251,1118.0112],[22.2997,-11.244,1117.6422],[22.334,-11.207,1113.0975],[22.339,-11.2,1116.6006],[22.347,-11.179,1122.9946],[22.351,-11.177,1123.8511],[22.37,-11.176,1127.3145],[22.426,-11.179,1129.1409],[22.437,-11.175,1128.0513],[22.452,-11.162,1132.71],[22.4673,-11.1433,1135.1907],[22.4872,-11.1322,1133.5035],[22.4949,-11.1205,1132.8641],[22.4973,-11.1129,1134.2865],[22.498,-11.098,1133.4039],[22.49,-11.082,1132.6024],[22.489,-11.0684,1131.7704],[22.4911,-11.0608,1131.7441],[22.4975,-11.0515,1131.2157],[22.5083,-11.0434,1136.6584],[22.5337,-11.0412,1137.6014],[22.562,-11.031,1145.052],[22.573,-11.031,1146.2542],[22.585,-11.036,1144.637],[22.61,-11.056,1139.9645],[22.6536,-11.0827,1147.1111],[22.6927,-11.0989,1148.875],[22.694,-11.101,1149.7916],[22.723,-11.11,1153.2556],[22.746,-11.114,1156.2244],[22.787,-11.113,1162.3777],[22.793,-11.111,1164.1871],[22.8009,-11.1057,1162.5641],[22.8059,-11.0931,1160.6705],[22.8123,-11.0831,1165.8623],[22.833,-11.081,1163.623],[22.841,-11.077,1168.8555],[22.8591,-11.0616,1167.3593],[22.8673,-11.0619,1168.9774],[22.8794,-11.0665,1175.6116],[22.904,-11.081,1176.3481],[22.959,-11.098,1173.4602],[22.9761,-11.1006,1173.38],[23.0022,-11.0992,1181.6379],[23.0143,-11.1001,1181.754],[23.032,-11.109,1168.7312],[23.073,-11.123,1179.4792],[23.084,-11.124,1192.0186],[23.102,-11.119,1194.4019],[23.1419,-11.0955,1203.8804],[23.1522,-11.0932,1205.8765],[23.183,-11.102,1210.5508],[23.197,-11.104,1210.1625],[23.203,-11.102,1210.5092],[23.225,-11.087,1198.5259],[23.252,-11.059,1207.8584],[23.272,-11.046,1214.2396],[23.289,-11.031,1211.0164],[23.338,-11.003,1210.8435],[23.36,-10.983,1213.222],[23.384,-10.966,1220.9268],[23.4192,-10.9445,1228.3702],[23.4355,-10.9382,1231.2593],[23.459,-10.939,1223.6973],[23.5056,-10.9463,1238.0922],[23.5404,-10.9595,1246.6021],[23.5594,-10.9734,1245.8762],[23.5762,-10.9895,1232.377],[23.585,-10.993,1244.1282],[23.6,-10.994,1250.625],[23.629,-10.991,1254.6151],[23.651,-11.003,1253.7371],[23.672,-11.008,1275.3075],[23.693,-11.0048,1271.3071],[23.7079,-11.0078,1273.6324],[23.717,-11.005,1271.6638],[23.7369,-10.9933,1275.9071],[23.7448,-10.9923,1271.4073],[23.7634,-10.9974,1271.083],[23.7808,-11.0062,1280.1023],[23.802,-11.021,1274.6334],[23.8155,-11.0279,1284.455],[23.8304,-11.03,1276.2734],[23.852,-11.0277,1299.6516],[23.863,-11.023,1296.114],[23.872,-11.017,1273.4302],[23.8854,-11.0013,1261.434],[23.8905,-10.9875,1257.8329],[23.8961,-10.9832,1252.0349],[23.917,-10.973,1251.2793],[23.945,-10.955,1261.345],[23.96,-10.938,1271.9495],[23.97,-10.921,1267.1913],[23.973,-10.905,1266.6152],[23.984,-10.8941,1262.9097],[23.9887,-10.8921,1269.6987],[23.9949,-10.8926,1269.3402],[23.9922,-10.8962,1267.8132],[24.0065,-10.8911,1279.8604],[24.0299,-10.8887,1275.0399],[24.0598,-10.8902,1289.153],[24.090699999999998,-10.8989,1301.3801],[24.0949,-10.9019,1303.6079],[24.105,-10.9036,1301.6086],[24.1159,-10.9138,1293.2189],[24.1178,-10.9211,1291.7075],[24.1173,-10.9326,1291.5056],[24.1135,-10.9516,1299.759],[24.1194,-10.9608,1301.7954],[24.1265,-10.9682,1301.3877],[24.1298,-10.9879,1301.5836],[24.128,-11.0093,1288.6732],[24.1289,-11.0142,1295.7324],[24.1362,-11.0245,1281.2632],[24.1508,-11.0295,1304.8163],[24.1753,-11.017,1314.3854],[24.1818,-11.0176,1317.1283],[24.2118,-11.0339,1329.5654],[24.2322,-11.042,1315.5184],[24.2699,-11.0414,1322.7478],[24.2931,-11.0438,1340.9193],[24.3315,-11.059,1337.5945],[24.3601,-11.0806,1354.5493],[24.3741,-11.0888,1357.7208],[24.3842,-11.1069,1368.2671],[24.3849,-11.1187,1366.7596],[24.3753,-11.1708,1371.002],[24.3766,-11.1765,1373.4814],[24.3886,-11.1979,1390.9343],[24.3919,-11.2088,1385.3353],[24.3916,-11.2207,1395.6602],[24.3943,-11.2274,1393.3027],[24.3925,-11.2428,1402.5786],[24.3831,-11.2775,1412.5608],[24.3757,-11.2882,1405.2765],[24.3705,-11.3025,1408.55],[24.3537,-11.3349,1456.4557],[24.3376,-11.3541,1476.1646],[24.3159,-11.3632,1477.478],[24.2863,-11.3684,1487.5364],[24.2783,-11.3748,1493.8474],[24.2759,-11.3782,1475.5459],[24.2749,-11.3841,1488.7234],[24.2784,-11.3907,1496.2733],[24.2816,-11.3929,1498.8514],[24.2979,-11.3992,1497.7922],[24.3097,-11.4012,1498.4796],[24.332,-11.4024,1491.3489],[24.351,-11.396,1473.0924],[24.3586,-11.3963,1486.5459],[24.3665,-11.3993,1486.5115],[24.3913,-11.4131,1483.3202],[24.4211,-11.4337,1447.0242],[24.4343,-11.4544,1433.3907],[24.4392,-11.4554,1447.1713],[24.4658,-11.4533,1443.0325],[24.4899,-11.4572,1470.765],[24.5017,-11.4572,1461.7515],[24.5381,-11.4427,1441.1477],[24.5419,-11.4399,1455.8931],[24.5584,-11.4422,1446.6462],[24.5686,-11.4414,1436.9757],[24.5793,-11.4359,1415.4938],[24.5856,-11.4246,1441.7108],[24.5884,-11.4169,1462.9553],[24.5881,-11.4118,1431.4211],[24.5906,-11.4082,1442.3149],[24.6102,-11.3988,1428.2107],[24.617,-11.3986,1427.3315],[24.632,-11.3915,1425.1401],[24.6415,-11.3822,1421.3599],[24.6451,-11.3708,1407.4393],[24.6721,-11.3444,1393.7968],[24.6975,-11.3263,1424.1216],[24.7129,-11.3239,1396.1135],[24.7273,-11.3185,1443.3059],[24.7353,-11.3066,1447.1389],[24.7466,-11.2993,1447.8053],[24.7685,-11.2956,1439.3528],[24.7945,-11.2997,1426.3348],[24.8047,-11.2979,1423.46],[24.8464,-11.2873,1404.7859],[24.8678,-11.2727,1457.9038],[24.874,-11.2659,1455.7264],[24.8818,-11.2654,1453.2582],[24.8947,-11.2689,1453.5746],[24.9143,-11.2665,1454.7925],[24.9304,-11.2588,1444.3665],[24.9493,-11.2524,1387.4443],[24.9686,-11.2531,1406.2446],[24.988,-11.2467,1413.8344],[25.0174,-11.2408,1406.7698],[25.031,-11.2414,1397.4773],[25.0711,-11.25,1417.1244],[25.0933,-11.2446,1407.5845],[25.1189,-11.2414,1429.1862],[25.1415,-11.2338,1450.0845],[25.1581,-11.2308,1442.0586],[25.1958,-11.228,1477.9092],[25.2234,-11.2222,1507.8838],[25.2331,-11.2186,1490.1514],[25.246,-11.2114,1507.899],[25.2611,-11.2003,1487.6394],[25.2832,-11.1903,1510.1973],[25.3149,-11.1883,1516.5261],[25.338,-11.1904,1506.9928],[25.3432,-11.1961,1505.4449],[25.3447,-11.2032,1495.3422],[25.3432,-11.2149,1482.7732],[25.3303,-11.2317,1496.2729],[25.3209,-11.2497,1529.8665],[25.3208,-11.2577,1535.444],[25.3238,-11.2643,1528.3384],[25.316,-11.2789,1518.1067],[25.3067,-11.2874,1493.5884],[25.297,-11.2915,1470.4355],[25.2919,-11.3063,1456.6333],[25.3038,-11.3297,1462.301],[25.3004,-11.3377,1456.426],[25.2953,-11.3418,1463.1187],[25.2803,-11.3484,1463.8101],[25.2768,-11.356,1453.684],[25.2771,-11.3681,1473.4287],[25.2878,-11.3961,1511.1331],[25.2912,-11.4012,1516.2677],[25.2982,-11.4323,1518.7672],[25.2946,-11.4484,1527.6257],[25.2958,-11.4581,1529.3099],[25.3118,-11.4885,1552.8707],[25.3116,-11.4968,1536.36],[25.306,-11.5019,1529.4009],[25.299,-11.5017,1528.5768],[25.2904,-11.507,1532.7338],[25.2873,-11.5111,1534.0686],[25.2907,-11.5216,1537.843],[25.3104,-11.5632,1544.4241],[25.3247,-11.5791,1550.0905],[25.3286,-11.6014,1514.1682],[25.3287,-11.6143,1496.2184],[25.3313,-11.6201,1503.5321],[25.3489,-11.6316,1500.2764],[25.3678,-11.6393,1479.9918],[25.3861,-11.6444,1501.5581],[25.4165,-11.6685,1491.8627],[25.4262,-11.6664,1461.7103],[25.4425,-11.6685,1489.3759],[25.4775,-11.6783,1491.0288],[25.4865,-11.6969,1509.9418],[25.4764,-11.6958,1499.1729],[25.474,-11.7103,1479.881],[25.4853,-11.717,1486.9624],[25.4956,-11.7198,1501.2313],[25.4948,-11.7239,1501.5897],[25.4968,-11.7279,1505.5044],[25.497,-11.726,1503.4713],[25.5317,-11.7393,1415.6471],[25.5368,-11.7345,1417.4247],[25.5448,-11.7335,1412.4355],[25.5517,-11.7272,1408.9907],[25.5599,-11.7121,1427.1794],[25.5724,-11.7021,1420.0648],[25.5781,-11.6885,1394.0623],[25.5999,-11.6731,1415.4623],[25.6076,-11.653,1402.8612],[25.6118,-11.6502,1415.1816],[25.6244,-11.6551,1401.8083],[25.6305,-11.6553,1389.6112],[25.6386,-11.6504,1381.9666],[25.6566,-11.647,1379.5129],[25.6744,-11.6323,1367.2896],[25.6824,-11.6205,1375.2091],[25.676,-11.5902,1368.1721],[25.6815,-11.5814,1352.3647],[25.6844,-11.5701,1350.1484],[25.6897,-11.5615,1348.6615],[25.6868,-11.5565,1349.3782],[25.6882,-11.5537,1365.835],[25.695,-11.5555,1359.5081],[25.7021,-11.5489,1356.5076],[25.7055,-11.5404,1357.3201],[25.7123,-11.5408,1346.0449],[25.7287,-11.5231,1344.6121],[25.7314,-11.4952,1345.8386],[25.7349,-11.4782,1335.9802],[25.7407,-11.4726,1357.1261],[25.7541,-11.4656,1348.4056],[25.7606,-11.4639,1353.856],[25.7681,-11.4661,1343.1857],[25.7748,-11.4582,1333.9441],[25.7777,-11.4457,1344.3586],[25.7736,-11.4343,1337.2361],[25.7738,-11.4306,1339.8407],[25.7773,-11.4285,1346.9482],[25.78,-11.4216,1354.8641],[25.7783,-11.4202,1359.759],[25.7815,-11.4112,1344.7006],[25.781,-11.4066,1341.5417],[25.7779,-11.4016,1336.9106],[25.7711,-11.404,1324.9832],[25.7602,-11.4032,1330.1042],[25.758,-11.4002,1349.9043],[25.7633,-11.3914,1329.5537],[25.7567,-11.3846,1326.6592],[25.756,-11.3809,1334.0631],[25.7586,-11.3673,1347.2026],[25.7566,-11.3386,1347.6968],[25.7706,-11.3114,1372.2839],[25.803,-11.2835,1430.5659],[25.8097,-11.2737,1439.8173],[25.8154,-11.2609,1461.214],[25.8148,-11.242,1446.0515],[25.8094,-11.2307,1483.689],[25.7959,-11.2168,1446.4753],[25.7905,-11.2037,1470.3706],[25.7906,-11.1607,1440.7609],[25.7935,-11.1326,1460.4089],[25.8297,-11.1116,1460.3386],[25.8494,-11.0972,1459.6567],[25.8542,-11.0747,1393.6001],[25.8666,-11.0602,1405.1265],[25.8796,-11.0395,1342.6047],[25.8782,-11.0366,1362.9292],[25.8788,-11.0301,1353.6234],[25.8827,-11.0225,1354.6827],[25.8824,-11.0188,1346.3043],[25.877,-11.0161,1339.2933],[25.9248,-10.9719,1466.1798]]]]}}