{"type": "Feature","bbox": [25.9303,-8.419,30.7951,-4.9995],"geometry": {"type": "MultiPolygon","coordinates": [[[[29.6262,-8.4026,969.3801],[29.6255,-8.4048,969.3362],[29.6018,-8.4076,987.608],[29.6077,-8.417,977.1045],[29.6111,-8.4187,972.823],[29.6192,-8.419,966.1495],[29.6269,-8.4165,962.4816],[29.6381,-8.4077,959.8026],[29.6445,-8.4047,952.9272],[29.6624,-8.4028,943.8504],[29.6705,-8.3999,942.9587],[29.6811,-8.3917,943.5139],[29.6923,-8.3738,945.4128],[29.6979,-8.3696,945.7537],[30.4295,-8.2733,1338.1333],[30.4358,-8.28,1331.6785],[30.4401,-8.2815,1336.8719],[30.4578,-8.2735,1225.7369],[30.4644,-8.272,1225.3448],[30.4694,-8.273,1184.151],[30.4955,-8.2916,1164.0518],[30.5019,-8.2936,1175.5453],[30.5132,-8.2859,1077.7085],[30.5258,-8.2877,1047.9681],[30.5333,-8.2803,1012.6893],[30.537,-8.279,1047.0038],[30.5439,-8.2831,1000.8735],[30.5504,-8.2921,1100.4883],[30.5571,-8.2964,1058.9656],[30.564,-8.2972,967.9613],[30.7951,-8.2768,770.0],[30.7742,-8.2244,770.0],[30.7564,-8.1847,770.0],[30.7567,-8.179,770.0],[30.7487,-8.1419,770.0],[30.7387,-8.1098,770.0],[30.733,-8.1031,770.0],[30.6852,-8.018,770.0],[30.6612,-7.9872,770.0],[30.6516,-7.9807,770.0],[30.6391,-7.9333,770.0],[30.6271,-7.897,770.0],[30.5752,-7.7509,770.0],[30.5413,-7.6675,770.0],[30.5402,-7.6614,770.0],[30.5222,-7.62,770.0],[30.423,-7.418,770.0],[30.399,-7.361,770.0],[30.375,-7.292,770.0],[30.3693,-7.2822,770.0],[30.3589,-7.2478,770.0],[30.3093,-7.1548,770.0],[30.3032,-7.1361,770.0],[30.2705,-7.075,770.0],[30.2386,-7.0218,770.0],[30.2323,-7.0163,770.0],[30.2214,-6.9952,770.0],[30.1836,-6.9402,770.0],[30.1408,-6.8899,770.0],[30.095,-6.8479,770.0],[30.0851,-6.8361,770.0],[29.906,-6.708,770.0],[29.827,-6.643,770.0],[29.792,-6.609,770.0],[29.7466,-6.5535,770.0],[29.6549,-6.413,770.0],[29.624,-6.338,770.0],[29.621,-6.323,770.0],[29.612,-6.304,770.0],[29.595,-6.252,770.0],[29.589,-6.22,770.0],[29.5793,-6.1468,770.0],[29.578,-6.1017,770.0],[29.5782,-5.9629,770.0],[29.5805,-5.9419,770.0],[29.6,-5.856,770.0],[29.607,-5.7748,770.0],[29.599,-5.664,770.0],[29.588,-5.619,770.0],[29.576,-5.556,770.0],[29.5683,-5.5364,770.0],[29.564,-5.515,770.0],[29.558,-5.502,770.0],[29.5297,-5.4151,770.0],[29.5221,-5.3992,770.0],[29.501,-5.344,770.0],[29.4953,-5.3367,770.0],[29.4673,-5.2742,770.0],[29.439,-5.203,770.0],[29.4102,-5.1235,770.0],[29.4012,-5.0916,770.0],[29.3731,-5.0169,770.0],[29.3721,-5.0079,770.0],[28.8018,-5.0103,839.496],[28.407,-5.0197,811.611],[27.6736,-5.01,723.5604],[27.6021,-5.0166,625.573],[26.9684,-4.9995,523.7717],[26.2798,-5.0011,560.1158],[26.2705,-5.0,553.8535],[26.2651,-5.0171,556.9882],[26.253,-5.0359,559.6649],[26.2019,-5.0841,575.719],[26.198,-5.0924,568.7112],[26.1912,-5.1295,582.6285],[26.1917,-5.1359,578.0894],[26.1945,-5.1409,575.983],[26.1918,-5.1658,579.3477],[26.1973,-5.1768,579.5351],[26.198,-5.1876,582.353],[26.1962,-5.1989,586.9047],[26.1912,-5.2136,595.8755],[26.1816,-5.2325,603.933],[26.1763,-5.2385,598.8712],[26.1694,-5.2413,605.6487],[26.1653,-5.2459,599.6502],[26.1547,-5.251,605.8663],[26.1458,-5.2602,607.7527],[26.1415,-5.2692,603.1368],[26.139,-5.2899,610.1756],[26.1337,-5.303,612.919],[26.1338,-5.3117,617.2058],[26.1289,-5.3173,614.2206],[26.1267,-5.3249,620.7007],[26.1164,-5.3332,624.4429],[26.1087,-5.3488,636.9745],[26.1119,-5.3762,620.6577],[26.1177,-5.4008,602.3662],[26.1228,-5.4187,618.1999],[26.1329,-5.4401,647.6703],[26.1328,-5.4551,637.3137],[26.1369,-5.5048,636.6407],[26.1505,-5.5194,641.7148],[26.1516,-5.5409,631.81],[26.1613,-5.554,639.4417],[26.1737,-5.5545,640.054],[26.1757,-5.5585,651.6642],[26.1721,-5.5685,665.9672],[26.1569,-5.5829,679.1221],[26.151,-5.599,664.5065],[26.1475,-5.6011,673.9109],[26.1244,-5.5995,661.7292],[26.1191,-5.608,654.5803],[26.1177,-5.6343,673.9045],[26.1036,-5.6598,691.954],[26.1265,-5.6919,721.0519],[26.1236,-5.7249,770.6501],[26.131,-5.7332,763.0229],[26.1537,-5.7478,698.2841],[26.1604,-5.7476,686.9635],[26.1675,-5.7535,680.6349],[26.1843,-5.7618,682.1345],[26.1844,-5.7783,682.7585],[26.1894,-5.7969,677.0381],[26.2029,-5.815,679.2539],[26.2073,-5.8251,677.8094],[26.2082,-5.8379,696.2283],[26.2052,-5.8462,691.7529],[26.1868,-5.858,728.2144],[26.177,-5.8709,755.2166],[26.1732,-5.8997,767.0054],[26.1778,-5.9334,745.6579],[26.184,-5.9394,772.0723],[26.1927,-5.9366,782.0618],[26.197,-5.9411,790.2257],[26.2059,-5.9549,812.7222],[26.215,-5.9796,779.8853],[26.212,-5.9836,773.4181],[26.2029,-5.9889,762.7618],[26.1861,-5.9938,737.6767],[26.1824,-5.999,710.8854],[26.1826,-6.0148,730.5414],[26.186,-6.0157,726.7265],[26.2022,-6.0266,747.688],[26.2126,-6.0355,759.1866],[26.2226,-6.038,758.6394],[26.255,-6.0355,790.7406],[26.2344,-6.0675,777.2413],[26.205,-6.0696,733.7298],[26.1947,-6.076,735.946],[26.1876,-6.085,774.9954],[26.1873,-6.0975,798.423],[26.191,-6.1113,787.1393],[26.2178,-6.1478,834.7632],[26.2178,-6.1543,830.468],[26.2126,-6.168,789.8535],[26.2015,-6.194,831.572],[26.1902,-6.2134,813.5526],[26.1637,-6.232,808.0594],[26.1432,-6.2426,832.1937],[26.1335,-6.2596,849.5133],[26.1051,-6.3197,861.8336],[26.0635,-6.377,846.6316],[26.0597,-6.3862,849.037],[26.0555,-6.4101,850.0856],[26.0512,-6.4176,881.2219],[26.0241,-6.4336,844.8507],[26.0104,-6.4363,842.2823],[25.9956,-6.426,843.7324],[25.9879,-6.4238,853.1001],[25.984,-6.43,866.4594],[25.9811,-6.4442,877.1563],[25.985,-6.4565,880.5496],[25.9846,-6.4632,879.1176],[25.9756,-6.4643,865.1328],[25.9458,-6.4609,875.7404],[25.9437,-6.4659,877.5768],[25.9491,-6.5168,935.8822],[25.9479,-6.537,947.1688],[25.9419,-6.5449,939.196],[25.9303,-6.5548,959.0923],[25.9342,-6.5616,940.4376],[25.9373,-6.578,946.8141],[25.9344,-6.5901,967.0051],[25.9345,-6.6019,989.6395],[25.9521,-6.6034,944.1415],[25.9659,-6.6028,978.8041],[25.9837,-6.6064,951.8334],[25.9997,-6.6243,975.4409],[26.0106,-6.6459,937.5377],[26.0171,-6.6535,912.5836],[26.0146,-6.6707,911.6859],[26.0062,-6.7021,908.9636],[26.0105,-6.7114,925.0017],[26.0317,-6.7129,961.0563],[26.0343,-6.7235,993.6028],[26.0322,-6.739,936.2872],[26.037,-6.7508,896.3108],[26.0604,-6.7595,887.3746],[26.0854,-6.7637,936.5243],[26.0908,-6.7896,898.0082],[26.1009,-6.7884,915.4958],[26.1129,-6.7932,853.4846],[26.1205,-6.7914,793.0396],[26.1258,-6.7946,771.9728],[26.1336,-6.7953,748.8834],[26.1348,-6.8138,764.0436],[26.1118,-6.8141,809.4314],[26.0949,-6.8108,833.7266],[26.0948,-6.8194,823.8376],[26.0867,-6.8359,957.736],[26.0798,-6.8425,940.591],[26.0816,-6.8543,952.1336],[26.0756,-6.863,975.2755],[26.045,-6.871,1020.5129],[26.0382,-6.8793,1016.7391],[26.0408,-6.8885,1012.6743],[26.0525,-6.9,998.1925],[26.0728,-6.9058,976.213],[26.1086,-6.9106,771.0308],[26.1134,-6.9157,754.6439],[26.1139,-6.9215,743.1865],[26.1092,-6.93,759.6914],[26.1023,-6.9353,757.515],[26.0943,-6.9474,805.8546],[26.1016,-6.96,794.3564],[26.1167,-6.9619,771.6472],[26.1503,-6.962,870.8862],[26.1763,-6.9442,882.1839],[26.2035,-6.9423,793.9227],[26.2168,-6.9429,766.0344],[26.2204,-6.9514,725.9097],[26.2207,-6.9684,769.9604],[26.2181,-6.9783,773.364],[26.2149,-6.9808,769.5352],[26.2132,-6.9865,785.0853],[26.2239,-7.0038,780.6274],[26.2261,-7.0139,757.2056],[26.2348,-7.0308,724.4129],[26.2698,-7.0439,890.863],[26.2789,-7.0432,786.3624],[26.287,-7.0366,742.6605],[26.2984,-7.013,713.7117],[26.315,-7.0212,686.727],[26.3388,-7.0437,674.8159],[26.363,-7.0503,662.7118],[26.3999,-7.0518,645.6296],[26.4134,-7.0452,628.8226],[26.4141,-7.0411,626.4103],[26.4191,-7.0369,626.832],[26.4338,-7.0387,637.7747],[26.4434,-7.0446,653.9222],[26.4857,-7.0618,659.5079],[26.4775,-7.0904,714.571],[26.4815,-7.1029,728.0106],[26.4755,-7.1171,712.9414],[26.4692,-7.1443,708.2533],[26.4572,-7.152,709.4718],[26.4072,-7.1605,650.9728],[26.3859,-7.21,649.322],[26.3855,-7.2164,654.7056],[26.3825,-7.2247,655.5259],[26.38,-7.227,659.6906],[26.3823,-7.2327,660.0923],[26.3816,-7.2375,660.1213],[26.378,-7.2431,658.179],[26.3768,-7.2619,672.5584],[26.381,-7.2624,663.3298],[26.3833,-7.2649,664.2883],[26.3828,-7.2669,667.1547],[26.3785,-7.2699,665.2009],[26.3716,-7.2835,666.3104],[26.3689,-7.295,669.2119],[26.3643,-7.301,674.8352],[26.3595,-7.3139,675.9413],[26.3526,-7.3242,678.2678],[26.3524,-7.3272,682.0884],[26.3729,-7.3743,708.9982],[26.3877,-7.37,728.986],[26.3962,-7.37,739.9667],[26.4177,-7.418,796.569],[26.424,-7.4189,816.2195],[26.4337,-7.4161,827.4563],[26.4383,-7.4076,797.803],[26.4362,-7.3988,790.9788],[26.4284,-7.3882,777.5064],[26.4219,-7.3739,758.4645],[26.4219,-7.363,731.827],[26.4277,-7.3587,746.8912],[26.4346,-7.3578,739.3109],[26.444,-7.3621,753.9911],[26.4545,-7.3724,780.7893],[26.4608,-7.3842,851.5263],[26.4714,-7.4328,907.7351],[26.4755,-7.4335,927.5515],[26.4792,-7.4298,838.7089],[26.4792,-7.4259,819.764],[26.4822,-7.4255,797.37],[26.4833,-7.4225,787.7354],[26.484,-7.4163,771.4016],[26.4909,-7.4094,753.0757],[26.4957,-7.4073,745.9598],[26.498,-7.4087,755.7393],[26.5105,-7.4084,736.9109],[26.5158,-7.4132,734.7383],[26.5211,-7.4148,736.3817],[26.525,-7.4178,733.8868],[26.5273,-7.4226,722.8983],[26.5285,-7.4437,695.0015],[26.5306,-7.4504,689.6816],[26.5345,-7.4582,684.6318],[26.5398,-7.463,691.9694],[26.5493,-7.4662,688.5966],[26.5771,-7.4689,674.9801],[26.5864,-7.4771,666.0923],[26.5873,-7.4808,656.3917],[26.6124,-7.5,658.45],[26.6214,-7.5007,651.3497],[26.6304,-7.5083,646.0824],[26.6477,-7.5089,641.5934],[26.6511,-7.511,635.5345],[26.6497,-7.5191,670.0309],[26.6511,-7.5394,655.2549],[26.6536,-7.5446,636.8398],[26.6611,-7.553,642.6953],[26.6713,-7.5472,628.1547],[26.6823,-7.549,626.266],[26.6855,-7.5463,630.5563],[26.6915,-7.5458,636.4702],[26.6991,-7.5375,638.922],[26.7011,-7.5331,625.8475],[26.6967,-7.5271,614.8777],[26.6988,-7.5228,614.0967],[26.7362,-7.5504,719.0881],[26.7449,-7.5504,656.1687],[26.7528,-7.5466,643.0485],[26.7637,-7.5353,626.8788],[26.7754,-7.5335,603.2563],[26.7848,-7.5356,596.0805],[26.803,-7.545,576.6882],[26.8083,-7.5512,575.229],[26.809,-7.5684,573.5282],[26.8111,-7.5757,581.2134],[26.8261,-7.5762,562.6927],[26.8266,-7.5807,567.0113],[26.823,-7.5883,571.7343],[26.8145,-7.5968,579.3522],[26.808,-7.626,571.364],[26.8372,-7.629,559.4542],[26.8483,-7.6285,562.335],[26.8656,-7.6312,569.3981],[26.8868,-7.6371,579.2665],[26.9061,-7.6376,587.171],[26.9248,-7.6414,617.3903],[26.9411,-7.6359,629.6273],[26.9496,-7.6349,647.4365],[26.9547,-7.6367,653.3273],[26.9556,-7.6257,647.8626],[26.9694,-7.6324,689.1901],[26.9972,-7.6367,686.2341],[27.0541,-7.6293,650.6915],[27.0879,-7.6347,653.4115],[27.14,-7.6219,633.126],[27.1908,-7.6152,679.0648],[27.215,-7.6146,700.2573],[27.2253,-7.6109,746.3962],[27.2223,-7.6067,736.6169],[27.2193,-7.5915,714.3699],[27.2255,-7.5593,676.4685],[27.2202,-7.546,668.9709],[27.219,-7.532,645.8544],[27.2252,-7.512,639.4288],[27.2277,-7.4956,640.9363],[27.2339,-7.486,633.2476],[27.2374,-7.491,630.2274],[27.2556,-7.4981,636.1802],[27.2602,-7.5064,639.249],[27.266,-7.5121,642.283],[27.2685,-7.521,643.9854],[27.2787,-7.5272,647.6965],[27.2805,-7.532,649.384],[27.2799,-7.5357,650.2035],[27.2854,-7.5414,649.4833],[27.3042,-7.5422,670.8179],[27.3194,-7.5386,705.3599],[27.3333,-7.5379,755.9064],[27.354,-7.5389,698.1027],[27.3563,-7.529,694.1559],[27.3627,-7.5187,684.6687],[27.3684,-7.5127,679.1887],[27.3811,-7.5087,668.91],[27.3889,-7.5018,666.0767],[27.3971,-7.5006,660.2242],[27.4029,-7.4967,656.2007],[27.4199,-7.4788,648.9316],[27.4291,-7.4776,639.7819],[27.4332,-7.4737,637.8363],[27.4394,-7.4725,633.3906],[27.4452,-7.4787,635.1143],[27.4443,-7.4837,641.1726],[27.4475,-7.489,637.4641],[27.4434,-7.4987,639.7961],[27.4441,-7.5046,645.4398],[27.4418,-7.5134,647.124],[27.4437,-7.5191,648.2115],[27.4428,-7.534,657.2097],[27.464,-7.5262,693.5977],[27.4978,-7.5195,659.3775],[27.5033,-7.5135,658.8113],[27.4998,-7.4849,637.5868],[27.5107,-7.4819,630.4618],[27.5289,-7.4849,649.9553],[27.553,-7.4988,699.4148],[27.5753,-7.5049,712.6754],[27.5862,-7.5127,715.1844],[27.594,-7.5206,706.6418],[27.5976,-7.5267,686.3473],[27.5975,-7.5346,670.194],[27.5861,-7.5606,655.7888],[27.5922,-7.5746,655.7175],[27.5949,-7.5771,656.3302],[27.615,-7.5837,666.3942],[27.6182,-7.5908,670.0345],[27.624,-7.5952,669.8665],[27.6278,-7.6159,676.7459],[27.6324,-7.6179,675.9209],[27.6504,-7.6406,687.3417],[27.6613,-7.6515,683.6173],[27.6667,-7.6678,690.0899],[27.6736,-7.6728,694.0344],[27.6415,-7.6911,765.3533],[27.6318,-7.7033,734.3641],[27.6268,-7.7348,775.5822],[27.6303,-7.7615,846.8529],[27.6301,-7.7858,815.7263],[27.6397,-7.8064,884.255],[27.692,-7.8658,966.0914],[27.7041,-7.8749,982.117],[27.724,-7.8785,933.675],[27.7343,-7.8779,918.0509],[27.7743,-7.8633,886.3871],[27.7895,-7.8432,877.2353],[27.8078,-7.8489,830.1989],[27.809,-7.8537,836.0359],[27.806,-7.8567,837.4586],[27.8061,-7.8643,842.862],[27.8093,-7.8668,848.5865],[27.8068,-7.8767,856.4059],[27.808,-7.8813,872.6403],[27.8481,-7.8882,884.0191],[27.8528,-7.9045,898.8062],[27.8514,-7.9093,910.0969],[27.8542,-7.9203,923.4584],[27.8453,-7.9392,956.5573],[27.8412,-7.9431,965.6356],[27.8415,-7.956,985.834],[27.8367,-7.9661,1015.405],[27.833,-7.9682,1018.4022],[27.828,-7.9856,1087.808],[27.8144,-8.0074,1155.1162],[27.8076,-8.0154,1198.2942],[27.7969,-8.0353,1270.0701],[27.7882,-8.0467,1319.1521],[27.7817,-8.0603,1358.9177],[27.7751,-8.0622,1341.6223],[27.7666,-8.0707,1340.004],[27.7449,-8.0859,1349.5021],[27.7396,-8.0954,1359.0143],[27.7375,-8.1071,1414.9607],[27.7305,-8.1174,1438.1799],[27.7253,-8.1191,1461.4418],[27.7088,-8.135,1489.184],[27.7087,-8.1471,1530.5696],[27.716,-8.1562,1504.7024],[27.7259,-8.1436,1484.2633],[27.7407,-8.1316,1398.0215],[27.7453,-8.1304,1401.9015],[27.7497,-8.131,1260.5479],[27.762,-8.1388,1189.2222],[27.7683,-8.1392,1166.1158],[27.7719,-8.1359,1157.3969],[27.8007,-8.1337,1226.7211],[27.8473,-8.1203,1009.5591],[27.8534,-8.1227,916.9126],[27.8375,-8.1445,1156.9597],[27.8193,-8.1615,1061.2786],[27.7932,-8.1755,1176.6169],[27.752,-8.2083,1321.3257],[27.7307,-8.2325,1375.9983],[27.7215,-8.2483,1415.3488],[27.7354,-8.2459,1363.6938],[27.7476,-8.2349,1346.5939],[27.7579,-8.2337,1327.301],[27.7609,-8.241,1316.2281],[27.7437,-8.2816,1433.2939],[27.7516,-8.287,1416.9453],[27.7637,-8.2792,1345.0354],[27.7737,-8.2695,1351.3599],[27.7766,-8.2639,1348.5753],[27.7846,-8.2362,1174.2997],[27.79,-8.2285,1123.8605],[27.802,-8.2173,1081.5928],[27.8073,-8.2062,1032.5781],[27.8187,-8.1977,1003.8068],[27.8272,-8.1851,960.4995],[27.840699999999998,-8.1812,953.9167],[27.8403,-8.2065,1004.8105],[27.837,-8.2277,1031.3168],[27.8325,-8.2335,1043.3591],[27.8339,-8.2463,1081.7913],[27.8515,-8.2445,1160.4878],[27.8745,-8.2511,1040.6379],[27.889,-8.2469,1061.6823],[27.8903,-8.242,1077.5679],[27.8981,-8.2457,1137.422],[27.9005,-8.2541,1268.0035],[27.9047,-8.2602,1189.585],[27.9107,-8.2626,1088.7842],[27.9603,-8.2723,985.9614],[27.9682,-8.2644,1045.0461],[27.9718,-8.2565,1007.7404],[27.9719,-8.2419,972.1606],[27.981,-8.228,905.4801],[27.9859,-8.2286,884.0706],[27.9881,-8.234,881.1641],[27.9837,-8.2432,887.4958],[27.986,-8.2584,897.6996],[27.9855,-8.2687,920.8019],[27.9908,-8.2787,925.3163],[27.9887,-8.2863,939.2062],[27.9895,-8.2918,942.6945],[27.9858,-8.3038,959.3561],[27.9773,-8.3164,997.6484],[27.9814,-8.3264,1006.6841],[27.9859,-8.3475,1034.6868],[27.9843,-8.361,1046.7002],[27.9906,-8.3639,1062.2332],[27.9956,-8.3721,1090.833],[28.0058,-8.3749,1082.4524],[28.0208,-8.3858,1097.2202],[28.0301,-8.4001,1124.9185],[28.0431,-8.4065,1148.5867],[28.0554,-8.4077,1171.2695],[28.0624,-8.4123,1190.825],[28.0705,-8.412,1211.3519],[28.0814,-8.406,1272.4009],[28.0893,-8.4039,1356.9434],[28.0729,-8.3642,1422.9426],[28.0627,-8.3479,1328.3645],[28.0663,-8.3436,1348.2445],[28.0838,-8.3557,1426.1995],[28.0977,-8.3593,1372.2914],[28.108,-8.3418,1359.0859],[28.1153,-8.3381,1339.1708],[28.1317,-8.3369,1306.1348],[28.1613,-8.3167,1292.2725],[28.1646,-8.3084,1301.101],[28.1749,-8.2971,1310.1024],[28.1859,-8.2788,1322.075],[28.2033,-8.2744,1364.2046],[28.2198,-8.2544,1352.8074],[28.2319,-8.2489,1027.0718],[28.2621,-8.2537,1069.0979],[28.2638,-8.281,1265.7783],[28.2722,-8.284,1283.3673],[28.3031,-8.2803,1260.5759],[28.3128,-8.2688,1257.0443],[28.3383,-8.2451,1333.0234],[28.3918,-8.1996,1348.4581],[28.4082,-8.1833,1328.0303],[28.4324,-8.1675,1400.9536],[28.4404,-8.1535,1327.0857],[28.438,-8.1365,1199.1147],[28.4308,-8.1232,1191.259],[28.4261,-8.1008,1249.714],[28.4294,-8.048,1153.6783],[28.4397,-8.0414,1132.1385],[28.4561,-8.0268,1212.2452],[28.4798,-8.0092,1289.4025],[28.5263,-7.9066,782.4771],[28.53,-7.8915,1211.073],[28.5261,-7.8818,1138.3872],[28.5038,-7.8669,1062.6648],[28.4839,-7.8645,999.9642],[28.4709,-7.8597,1063.2611],[28.432,-7.8382,999.6042],[28.4252,-7.8106,1125.7299],[28.4047,-7.7994,1087.3113],[28.3781,-7.7882,1016.9818],[28.3606,-7.7864,1120.4501],[28.3558,-7.7755,894.9446],[28.368,-7.7549,1010.6222],[28.3972,-7.7221,1380.0662],[28.407,-7.6942,1415.3873],[28.4131,-7.6875,1153.7045],[28.4288,-7.6862,1144.8955],[28.4415,-7.6881,908.0995],[28.461,-7.6793,904.4641],[28.467,-7.6683,924.0929],[28.4736,-7.6678,925.6555],[28.4757,-7.6648,921.2482],[28.4706,-7.6582,926.6609],[28.4715,-7.6556,940.8336],[28.474,-7.6547,942.787],[28.4804,-7.6475,933.8015],[28.4793,-7.6439,951.3746],[28.4806,-7.6404,948.7833],[28.4857,-7.6372,940.2852],[28.4933,-7.6369,962.2029],[28.5061,-7.6286,972.4449],[28.5197,-7.6318,1088.4479],[28.5222,-7.6272,1064.1436],[28.5481,-7.6227,1129.5188],[28.5623,-7.6355,1222.5967],[28.571,-7.6404,1206.8903],[28.5806,-7.6421,1236.4182],[28.5958,-7.6518,1253.5018],[28.6,-7.6514,1250.9976],[28.6034,-7.6529,1256.61],[28.6099,-7.6612,1241.5532],[28.6127,-7.6733,1223.55],[28.619,-7.6756,1226.2985],[28.6328,-7.6847,1213.8116],[28.6291,-7.7066,1217.1277],[28.623,-7.7244,1184.6853],[28.6228,-7.748,1145.276],[28.6379,-7.7732,1101.9089],[28.6446,-7.7904,1095.0458],[28.651,-7.8105,814.9785],[28.6487,-7.8208,805.2769],[28.6586,-7.8262,969.1896],[28.6685,-7.8282,856.4174],[28.6855,-7.8354,1004.4783],[28.6873,-7.8456,1013.6261],[28.6824,-7.8558,894.9176],[28.6585,-7.878,782.5565],[28.6565,-7.8926,752.666],[28.671,-7.8932,761.5258],[28.6788,-7.8957,794.8304],[28.6909,-7.893,827.0634],[28.7049,-7.8999,789.6625],[28.7124,-7.9081,778.8373],[28.7208,-7.9139,810.8376],[28.7263,-7.9159,827.0367],[28.7474,-7.9156,881.2007],[28.7584,-7.9266,890.15239999999994],[28.771,-7.9702,906.4595],[28.7791,-7.9757,900.5322],[28.7905,-7.978,906.9494],[28.83,-7.9765,1271.7948],[28.8426,-7.9703,1218.1946],[28.854,-7.9584,1072.6675],[28.8594,-7.943,978.6357],[28.8624,-7.9416,968.301],[28.8589,-7.9376,977.9689],[28.8611,-7.9357,986.5366],[28.8616,-7.9325,973.9976],[28.8644,-7.9306,968.6821],[28.8663,-7.9336,971.4082],[28.87,-7.9308,994.5981],[28.8704,-7.9296,994.5981],[28.8666,-7.9273,974.9198],[28.8667,-7.9243,973.657],[28.8687,-7.9236,979.1635],[28.8702,-7.9257,974.0812],[28.8726,-7.925,979.8511],[28.8739,-7.9224,973.2739],[28.8784,-7.9214,998.4085],[28.8726,-7.9183,973.7531],[28.8753,-7.9139,1046.1843],[28.8739,-7.9065,978.8199],[28.8768,-7.9034,996.1093],[28.8756,-7.9015,991.3768],[28.8783,-7.8966,995.3986],[28.8816,-7.8932,1064.8268],[28.8832,-7.8875,987.0197],[28.8828,-7.8793,983.4963],[28.8846,-7.8773,996.1386],[28.8836,-7.8758,990.1591],[28.8894,-7.8715,1027.0719],[28.8874,-7.8659,1001.502],[28.8899,-7.8598,1036.1145],[28.8959,-7.8578,1125.4009],[28.8968,-7.8517,1062.4436],[28.8986,-7.8518,1122.7784],[28.8989,-7.8485,1079.3096],[28.904,-7.8469,1107.7751],[28.9052,-7.8398,1120.4235],[28.9082,-7.8353,1093.6819],[28.9026,-7.8286,1149.08],[28.9033,-7.8225,1139.4579],[28.9094,-7.8234,1160.1714],[28.9375,-7.8463,1405.021],[28.9443,-7.8496,1220.9915],[28.962,-7.8698,1159.8896],[28.9676,-7.8723,1215.3673],[28.9738,-7.8728,1218.8816],[29.0169,-7.8702,1238.0723],[29.0278,-7.8725,1201.2903],[29.0259,-7.8801,1227.0808],[29.0204,-7.8897,1243.2015],[29.0245,-7.8936,1227.3252],[29.0397,-7.8923,1211.0101],[29.0543,-7.8843,1145.6243],[29.0702,-7.873,1177.7268],[29.08,-7.8697,1133.532],[29.0894,-7.869,1078.3474],[29.0968,-7.8706,1065.0742],[29.1086,-7.8691,1040.2999],[29.1128,-7.8653,1023.1658],[29.1113,-7.8534,1056.1135],[29.109,-7.8527,1063.7377],[29.1092,-7.8476,1054.1934],[29.1131,-7.8462,1067.4994],[29.1112,-7.8433,1051.1351],[29.1071,-7.8449,1054.5034],[29.1064,-7.8412,1053.0459],[29.1084,-7.8366,1057.1605],[29.1169,-7.8315,1054.1458],[29.1132,-7.8283,1055.5862],[29.1148,-7.8253,1055.1541],[29.1139,-7.8221,1062.3422],[29.1093,-7.8215,1058.426],[29.1099,-7.8171,1066.9386],[29.1081,-7.8155,1076.5103],[29.1026,-7.8155,1063.5916],[29.1005,-7.81,1060.7009],[29.0958,-7.8068,1064.3625],[29.0983,-7.7999,1078.257],[29.1091,-7.7916,1077.7759],[29.1123,-7.7859,1084.1562],[29.113,-7.7804,1074.6868],[29.1058,-7.7714,1087.7589],[29.0949,-7.7681,1082.0576],[29.0967,-7.7602,1090.0714],[29.0983,-7.7586,1084.2666],[29.1046,-7.7602,1113.8118],[29.1089,-7.7576,1117.1345],[29.1109,-7.751,1105.72],[29.1139,-7.7507,1112.6711],[29.1177,-7.7555,1089.3213],[29.1225,-7.7562,1087.8129],[29.1229,-7.7491,1124.3253],[29.133,-7.7497,1088.9844],[29.1427,-7.7403,1100.0209],[29.148,-7.7398,1117.0916],[29.1609,-7.7603,1183.0056],[29.1714,-7.7708,1163.6233],[29.2067,-7.7819,1452.2368],[29.2259,-7.7615,1490.2264],[29.263,-7.7292,1427.2095],[29.2737,-7.7282,1451.1377],[29.3153,-7.7348,1585.0574],[29.3266,-7.7401,1590.3947],[29.3377,-7.7506,1608.542],[29.3593,-7.7574,1583.0259],[29.4171,-7.7325,1796.9771],[29.4196,-7.7328,1799.1283],[29.4236,-7.7366,1738.4788],[29.4298,-7.7348,1739.3562],[29.435,-7.7292,1741.3989],[29.4387,-7.7297,1715.7124],[29.4431,-7.7349,1718.0272],[29.445,-7.7416,1731.4486],[29.4434,-7.7475,1716.2579],[29.4398,-7.7501,1714.0917],[29.4377,-7.7545,1699.6172],[29.4382,-7.7632,1701.0302],[29.4432,-7.7801,1699.8496],[29.4487,-7.7881,1669.0272],[29.4529,-7.7886,1658.3455],[29.4579,-7.7865,1658.0276],[29.4635,-7.7933,1662.8567],[29.4548,-7.8079,1691.5708],[29.4537,-7.8144,1664.9382],[29.4742,-7.8073,1688.9357],[29.4813,-7.8097,1669.9969],[29.4836,-7.8128,1667.41],[29.4855,-7.8276,1650.0859],[29.4843,-7.8479,1631.9364],[29.4858,-7.8588,1602.2036],[29.4937,-7.8708,1606.3444],[29.4975,-7.874,1599.3069],[29.5037,-7.8755,1581.7367],[29.5179,-7.8711,1568.1082],[29.5213,-7.8676,1586.988],[29.524,-7.8598,1574.7086],[29.5341,-7.851,1573.6565],[29.5366,-7.8441,1580.7073],[29.5554,-7.8369,1579.4124],[29.5609,-7.8318,1577.9858],[29.5668,-7.8203,1579.5864],[29.5731,-7.823,1579.8004],[29.5763,-7.8301,1584.0151],[29.5826,-7.8351,1581.353],[29.5879,-7.8492,1615.6615],[29.624,-7.912,1805.9526],[29.626,-7.9347,1896.2747],[29.6313,-7.9387,1854.9359],[29.6358,-7.9399,1833.9053],[29.6428,-7.9375,1849.1591],[29.6524,-7.9308,1820.04],[29.6602,-7.929,1815.2723],[29.6622,-7.9325,1820.5776],[29.6627,-7.9359,1817.3508],[29.6567,-7.941,1819.333],[29.6607,-7.9467,1792.9946],[29.6624,-7.9616,1777.8429],[29.6659,-7.9707,1746.3447],[29.663,-7.9818,1751.3749],[29.6686,-7.9958,1725.8658],[29.6668,-8.0097,1742.6708],[29.6602,-8.0204,1700.1013],[29.6564,-8.0343,1684.7018],[29.6486,-8.0517,1645.2498],[29.6499,-8.059,1667.6621],[29.6456,-8.0791,1627.0479],[29.639,-8.0924,1627.907],[29.6358,-8.0948,1621.4347],[29.6294,-8.0954,1612.4614],[29.619,-8.103,1608.8691],[29.6084,-8.1035,1609.776],[29.5927,-8.1101,1616.5654],[29.583,-8.1105,1584.5995],[29.5749,-8.1192,1574.8943],[29.5727,-8.1299,1563.6978],[29.5832,-8.1683,1620.0514],[29.5792,-8.1741,1621.5597],[29.5601,-8.1817,1664.2999],[29.5433,-8.1806,1607.6099],[29.541,-8.1719,1586.0063],[29.5317,-8.1527,1554.4241],[29.5265,-8.1539,1567.538],[29.5202,-8.1871,1557.4786],[29.5191,-8.2283,1548.9854],[29.5284,-8.2376,1591.0544],[29.5342,-8.2568,1519.021],[29.5389,-8.28,1440.5325],[29.5511,-8.2945,1362.4609],[29.5564,-8.3317,1346.3003],[29.5628,-8.3451,1206.3153],[29.575,-8.3596,1181.4951],[29.5907,-8.3677,1123.4973],[29.611,-8.3711,1060.7679],[29.6226,-8.3804,1010.065],[29.6284,-8.3955,966.8264],[29.6262,-8.4026,969.3801]]]]}
,"properties": {"GID_1": "COD.24_1","GID_0": "COD","country": "DemocraticRepublicoftheCongo","province": "Tanganyika","VARNAME_1": "NA","NL_NAME_1": "NA","TYPE_1": "Province","ENGTYPE_1": "Province","CC_1": "NA","HASC_1": "CD.TG","ISO_1": "CD-TA","name": "Tanganyika.province","area_km2": 133017.42,"hist_schema_id": "Elevation0-9000","hist_area_km2": {"500": 29.8,"525": 118.47,"550": 2227.4,"575": 6936.92,"600": 8388.25,"625": 8508.84,"650": 8248.44,"675": 7121.19,"700": 6062.03,"725": 5348.65,"750": 4622.71,"775": 15930.05,"800": 3627.03,"825": 3370.56,"850": 3152.48,"875": 2769.81,"900": 2465.03,"925": 2186.02,"950": 2049.08,"975": 1894.08,"1000": 1830.47,"1025": 1740.95,"1050": 1740.63,"1075": 1747.11,"1100": 1709.37,"1125": 1687.37,"1150": 1615.43,"1175": 1586.87,"1200": 1471.51,"1225": 1411.3,"1250": 1427.97,"1275": 1404.45,"1300": 1318.63,"1325": 1239.95,"1350": 1194.55,"1375": 1124.11,"1400": 1033.35,"1425": 939.09,"1450": 884.55,"1475": 886.0,"1500": 833.54,"1525": 746.38,"1550": 681.64,"1575": 632.74,"1600": 572.24,"1625": 520.58,"1650": 460.42,"1675": 410.75,"1700": 357.94,"1725": 326.01,"1750": 308.78,"1775": 286.0,"1800": 296.01,"1825": 320.74,"1850": 319.57,"1875": 281.71,"1900": 242.97,"1925": 221.52,"1950": 226.92,"1975": 217.8,"2000": 183.67,"2025": 162.35,"2050": 145.24,"2075": 139.24,"2100": 135.69,"2125": 125.61,"2150": 126.53,"2175": 116.88,"2200": 104.69,"2225": 87.82,"2250": 80.82,"2275": 68.38,"2300": 56.34,"2325": 42.65,"2350": 31.51,"2375": 24.55,"2400": 17.85,"2425": 12.95,"2450": 10.28,"2475": 8.53,"2500": 6.42,"2525": 5.22,"2550": 4.12,"2575": 2.7,"2600": 1.18}}}