{"type":"Feature","properties":{"GID_2":"COD.2.1_1","GID_0":"COD","country":"DemocraticRepublicoftheCongo","GID_1":"COD.2_1","province":"Équateur","NL_NAME_1":"NA","county":"Basankusu","VARNAME_2":"NA","NL_NAME_2":"NA","TYPE_2":"Territoire","ENGTYPE_2":"Territory","CC_2":"NA","HASC_2":"NA","name":"Basankusu.county"},
"geometry":{"type": "MultiPolygon","coordinates": [[[[20.6909,1.1824,357.2611],[20.7003,1.2144,368.3856],[20.7023,1.2275,369.4684],[20.7147,1.2564,394.5426],[20.7139,1.2692,398.3963],[20.6998,1.2974,386.6557],[20.6777,1.3287,413.6686],[20.6638,1.344,411.8547],[20.6511,1.3641,397.1852],[20.641,1.3922,378.1982],[20.6374,1.4169,356.3565],[20.6378,1.4282,349.9304],[20.6428,1.4489,325.0],[20.6492,1.4669,355.1797],[20.6605,1.4873,356.3517],[20.6571,1.5129,360.0594],[20.6598,1.567,369.8946],[20.6613,1.5699,371.2841],[20.6816,1.5881,378.2946],[20.6919,1.6171,397.7049],[20.6956,1.6359,414.5875],[20.6988,1.6621,416.5826],[20.6988,1.6866,382.1908],[20.6976,1.6955,404.9063],[20.6947,1.7037,416.2092],[20.6914,1.7076,432.8589],[20.6851,1.7077,436.9232],[20.6671,1.6999,435.1136],[20.6473,1.6959,400.9841],[20.615,1.6986,412.3758],[20.5972,1.6832,426.7672],[20.5704,1.6669,449.1282],[20.5671,1.6664,457.3737],[20.5632,1.6669,461.0135],[20.5505,1.6737,451.2325],[20.5437,1.6757,445.2385],[20.521,1.6764,422.4102],[20.508,1.674,409.5382],[20.4877,1.673,410.9846],[20.4658,1.6769,422.5114],[20.451,1.6816,442.2133],[20.4379,1.6783,455.4753],[20.4171,1.6689,441.8998],[20.4047,1.6662,424.5099],[20.4001,1.6668,424.0528],[20.3869,1.6746,430.0231],[20.3528,1.7022,433.5014],[20.3409,1.7185,374.9366],[20.3345,1.7256,403.7371],[20.3277,1.7304,404.1047],[20.2984,1.7317,431.6968],[20.2376,1.7525,387.9826],[20.2306,1.7528,404.6136],[20.2021,1.7488,438.977],[20.1906,1.749,425.4407],[20.1401,1.7561,399.512],[20.1209,1.7567,387.4084],[20.0994,1.7534,362.1353],[20.072,1.7438,392.5739],[20.0104,1.714,369.9873],[20.0026,1.7119,367.8472],[19.9664,1.7102,375.0661],[19.9597,1.7085,378.4687],[19.9456,1.6994,391.6423],[19.9195,1.6784,399.2955],[19.8999,1.6679,394.2346],[19.8795,1.6608,400.761],[19.7839,1.6357,426.919],[19.7396,1.6349,389.9286],[19.7059,1.6287,399.0432],[19.6799,1.6118,358.9019],[19.6402,1.5964,370.5245],[19.6123,1.5691,394.1039],[19.5769,1.5407,379.6642],[19.538,1.5272,344.875],[19.5249,1.5167,344.9529],[19.5126,1.5036,362.0031],[19.4952,1.4931,367.2987],[19.4467,1.4581,340.9005],[19.4466,1.4087,340.5943],[19.4447,1.4004,340.6421],[19.4462,1.3773,340.6432],[19.4456,1.2846,334.5811],[19.4473,1.2631,340.4195],[19.4428,1.2516,338.2324],[19.4351,1.2501,337.7023],[19.4214,1.2431,338.3771],[19.4037,1.2367,337.9857],[19.3955,1.2361,336.1609],[19.3878,1.2289,337.5739],[19.3796,1.224,338.2725],[19.3706,1.2131,335.6799],[19.3643,1.2002,337.158],[19.3567,1.1913,336.4189],[19.343,1.1854,334.4557],[19.3364,1.1858,335.6162],[19.3238,1.1908,335.9952],[19.3142,1.1909,335.4757],[19.3096,1.189,338.9096],[19.3026,1.1818,338.933],[19.2951,1.1783,331.3838],[19.2905,1.1656,336.4409],[19.2842,1.1558,332.8956],[19.2882,1.1423,339.0653],[19.2875,1.1393,341.3996],[19.2726,1.1288,328.9529],[19.2713,1.1265,328.407],[19.2829,1.1216,338.2235],[19.2867,1.1168,338.5295],[19.2915,1.1164,339.5306],[19.2839,1.1093,339.8538],[19.2831,1.1033,341.515],[19.2848,1.0984,340.8967],[19.3043,1.0843,345.1194],[19.3101,1.0762,347.3015],[19.3103,1.052,346.7246],[19.3052,1.0162,352.1479],[19.3066,0.9974,349.1377],[19.31,0.993,348.0235],[19.315,0.9906,347.6881],[19.3215,0.99,348.0817],[19.3448,0.9952,345.0618],[19.3485,0.9935,341.9487],[19.3556,0.9831,340.9476],[19.3582,0.9667,354.6142],[19.3582,0.95,352.6663],[19.3528,0.9285,347.6291],[19.3415,0.9011,366.1605],[19.3418,0.891,361.0697],[19.3472,0.9041,354.4641],[19.354,0.9101,367.4482],[19.3631,0.9139,359.9785],[19.3785,0.924,355.3177],[19.3911,0.9367,343.3548],[19.414,0.9374,339.4194],[19.4199,0.9396,341.8065],[19.4242,0.9433,343.0558],[19.426,0.9399,343.3866],[19.4223,0.9233,343.3926],[19.4174,0.9189,344.0007],[19.4146,0.8991,340.5444],[19.4181,0.8922,340.3272],[19.4166,0.8841,342.6782],[19.4346,0.8682,343.2959],[19.4536,0.8432,347.5995],[19.4578,0.8283,356.3188],[19.4664,0.8187,343.7828],[19.4737,0.7974,349.729],[19.4778,0.7758,347.8089],[19.4768,0.7641,350.7032],[19.478,0.7542,346.3945],[19.4826,0.7476,349.18],[19.488,0.7201,376.2586],[19.4896,0.6978,369.5619],[19.4939,0.6809,376.0733],[19.5012,0.6781,360.6495],[19.5191,0.6785,357.2237],[19.5477,0.6629,374.2746],[19.5592,0.6583,349.4258],[19.5775,0.6567,370.7867],[19.6009,0.6575,362.0251],[19.6039,0.6559,363.7444],[19.6049,0.6531,370.5324],[19.5969,0.6437,349.8343],[19.597,0.6357,363.3912],[19.5956,0.6335,364.1476],[19.5987,0.6105,342.127],[19.5942,0.5833,345.4855],[19.589,0.5727,365.1097],[19.5845,0.5694,345.2582],[19.5836,0.5662,345.1301],[19.5883,0.5571,347.3959],[19.5891,0.5419,360.3106],[19.5947,0.5326,359.2408],[19.595,0.5245,343.5054],[19.6018,0.5094,353.239],[19.6013,0.4929,339.2635],[19.6085,0.4794,343.9352],[19.6102,0.47,330.1292],[19.6085,0.4603,330.6815],[19.6042,0.4497,331.9845],[19.5961,0.4416,328.3381],[19.5906,0.4199,335.799],[19.5861,0.4118,335.0531],[19.5932,0.413,334.4937],[19.5987,0.4097,333.2849],[19.6033,0.4125,331.4634],[19.6113,0.4093,330.0132],[19.6188,0.4138,332.5011],[19.6243,0.4092,329.6851],[19.6382,0.4092,331.0046],[19.6428,0.4055,328.94],[19.6444,0.4058,333.6505],[19.6462,0.4115,333.6027],[19.6499,0.4088,333.5295],[19.6526,0.4116,329.2608],[19.6555,0.4119,330.4869],[19.6617,0.4071,337.4177],[19.667,0.4079,337.7766],[19.6765,0.4126,336.0771],[19.6809,0.4128,336.2293],[19.6877,0.4104,342.025],[19.6927,0.413,335.8547],[19.698,0.4125,333.46],[19.7021,0.4055,334.3223],[19.7085,0.4069,333.8719],[19.7127,0.4026,333.6827],[19.7182,0.3999,332.1525],[19.7246,0.3926,333.3527],[19.733,0.3973,331.3827],[19.7378,0.398,331.4367],[19.7427,0.3926,332.5579],[19.7507,0.392,335.1793],[19.7593,0.3969,333.2468],[19.7639,0.3909,332.7893],[19.768,0.3928,333.0216],[19.7715,0.3873,332.9672],[19.779,0.3909,336.0292],[19.7854,0.3883,334.9395],[19.7945,0.3894,335.941],[19.7977,0.386,337.5337],[19.803,0.3847,336.6183],[19.806,0.3799,337.038],[19.8106,0.3802,337.1629],[19.8177,0.3743,345.1762],[19.8184,0.3711,351.3031],[19.8374,0.3696,339.8932],[19.8411,0.3626,340.2209],[19.8493,0.3615,338.1513],[19.8509,0.3652,353.8013],[19.8565,0.3698,334.1418],[19.8638,0.369,333.665],[19.8707,0.3654,336.197],[19.8737,0.3656,335.6147],[19.8771,0.3684,337.0128],[19.8807,0.3682,337.6505],[19.8823,0.3701,337.2692],[19.8892,0.3672,336.7326],[19.893,0.3707,336.3261],[19.9113,0.369,335.7319],[19.9169,0.3601,341.8531],[19.9335,0.3614,333.8216],[19.9407,0.3523,336.5043],[19.948,0.354,324.5325],[19.9577,0.3617,336.6671],[19.9744,0.3623,332.8558],[19.9809,0.3665,327.1212],[19.9889,0.3675,337.4839],[19.9944,0.3636,339.4862],[20.0054,0.3645,339.5674],[20.0116,0.3567,343.8484],[20.0166,0.3563,342.9399],[20.0233,0.3581,342.1833],[20.0296,0.3645,338.4685],[20.0389,0.3662,337.9575],[20.0443,0.3701,340.496],[20.0518,0.3713,340.629],[20.0562,0.3684,336.3757],[20.0635,0.3678,341.3011],[20.0679,0.3632,341.059],[20.0741,0.364,339.3134],[20.074,0.3656,338.6209],[20.0827,0.3694,340.6584],[20.0902,0.3658,341.3496],[20.104,0.3634,335.6476],[20.1077,0.3595,344.0606],[20.1179,0.3601,340.1883],[20.1224,0.3642,342.9677],[20.1363,0.3683,337.4203],[20.1469,0.3636,340.9032],[20.1598,0.3665,342.0505],[20.1658,0.3642,341.925],[20.1777,0.3641,339.4195],[20.1813,0.3621,343.3623],[20.19,0.3613,343.1049],[20.2018,0.3659,339.1893],[20.2082,0.3665,339.63],[20.2117,0.3642,341.2968],[20.2196,0.3643,337.2093],[20.2278,0.3696,336.9908],[20.2367,0.3681,343.7349],[20.2457,0.3627,342.5591],[20.25,0.3671,337.7584],[20.2525,0.3674,335.6527],[20.2575,0.3635,343.53],[20.2607,0.3631,343.5527],[20.265,0.3659,344.5892],[20.2735,0.3643,345.3907],[20.278,0.3678,341.0277],[20.2837,0.3679,344.2212],[20.2903,0.3748,339.36],[20.2951,0.3751,344.3822],[20.3017,0.3965,351.808],[20.2977,0.4085,364.8691],[20.3026,0.4191,371.1157],[20.3,0.4276,367.6768],[20.3118,0.4387,377.7299],[20.3207,0.4425,368.8957],[20.3333,0.4607,351.9169],[20.3383,0.4858,361.7732],[20.3416,0.4918,361.5503],[20.3482,0.4953,379.8454],[20.3523,0.4995,380.0911],[20.3588,0.5122,382.0272],[20.3638,0.535,385.8275],[20.357,0.5524,382.7729],[20.3565,0.5673,392.9169],[20.3585,0.5743,397.9565],[20.3713,0.5927,375.0467],[20.4003,0.6277,395.6205],[20.4286,0.6674,369.4999],[20.4301,0.6734,381.6819],[20.4255,0.695,387.7971],[20.421,0.701,392.4283],[20.4201,0.7091,386.6291],[20.4099,0.7324,366.6835],[20.4056,0.7691,387.4602],[20.406,0.8328,355.8274],[20.4,0.8585,360.3605],[20.404,0.8735,358.5181],[20.4052,0.8933,359.2348],[20.4141,0.9108,364.2878],[20.4209,0.9187,353.2813],[20.4279,0.9305,344.4407],[20.4329,0.934,350.082],[20.4337,0.9402,343.6347],[20.4373,0.9441,347.9417],[20.4402,0.958,350.8643],[20.4326,0.9657,344.7566],[20.4312,1.0151,354.1207],[20.4324,1.0347,356.2135],[20.4348,1.0402,356.6188],[20.4378,1.0618,358.6639],[20.4478,1.0732,373.8088],[20.4584,1.0774,361.2674],[20.4702,1.0909,390.9337],[20.4756,1.1001,385.9884],[20.4794,1.1041,376.8065],[20.4881,1.1088,388.248],[20.5049,1.1427,396.562],[20.5559,1.2356,358.078],[20.5594,1.2285,356.857],[20.574,1.2287,357.4095],[20.575,1.2213,347.4113],[20.5795,1.2237,356.7609],[20.583,1.2202,346.5502],[20.5866,1.223,353.8288],[20.5878,1.215,345.3911],[20.5986,1.213,353.3421],[20.6011,1.2094,349.7575],[20.6073,1.2101,350.3488],[20.6137,1.2077,356.376],[20.6157,1.2091,354.1919],[20.621,1.2086,355.5116],[20.6238,1.2034,347.1918],[20.6272,1.203,346.3369],[20.6317,1.2088,355.5218],[20.6395,1.2095,354.5626],[20.6418,1.2047,356.2624],[20.6475,1.2018,338.6612],[20.6531,1.1947,349.4438],[20.6602,1.1909,357.2351],[20.6661,1.193,356.1638],[20.6801,1.1839,348.3301],[20.6909,1.1824,357.2611]],
[[19.8547,1.1798,337.8905],[19.8268,1.1731,346.9874],[19.8031,1.1778,333.2261],[19.784,1.1887,343.2323],[19.77,1.2053,344.845],[19.7628,1.2308,341.604],[19.7679,1.2511,334.8582],[19.7752,1.2687,340.5137],[19.7896,1.2854,342.7917],[19.8232,1.2989,340.4266],[19.8408,1.2947,340.2791],[19.8588,1.2864,342.4791],[19.8697,1.2781,340.0689],[19.8774,1.2661,342.5859],[19.8805,1.2495,340.7326],[19.879,1.2318,346.0859],[19.8661,1.1944,343.087],[19.8547,1.1798,337.8905]]]]}}