{"type":"Feature","properties":{"GID_2":"COD.6.8_1","GID_0":"COD","country":"DemocraticRepublicoftheCongo","GID_1":"COD.6_1","province":"Ituri","NL_NAME_1":"NA","county":"Mahagi","VARNAME_2":"NA","NL_NAME_2":"NA","TYPE_2":"Territoire","ENGTYPE_2":"Territory","CC_2":"NA","HASC_2":"NA","name":"Mahagi.county"},
"geometry":{"type": "MultiPolygon","coordinates": [[[[30.1256,2.3699,1191.9297],[30.1361,2.3695,1179.8553],[30.1439,2.3747,1183.3474],[30.1522,2.3847,1191.7303],[30.1566,2.3856,1220.5076],[30.1614,2.3841,1198.1111],[30.1659,2.3885,1230.9711],[30.1689,2.3881,1234.9153],[30.1726,2.3812,1209.3557],[30.178,2.3909,1220.7927],[30.181,2.4107,1233.9329],[30.1853,2.4163,1261.0055],[30.1894,2.4168,1287.3217],[30.1928,2.4152,1299.4497],[30.2003,2.4031,1289.3029],[30.2074,2.3998,1298.0015],[30.2221,2.3963,1306.395],[30.2349,2.3815,1308.7257],[30.2523,2.3791,1333.5432],[30.2564,2.3578,1349.1239],[30.2628,2.3401,1380.9802],[30.2711,2.3349,1379.1274],[30.2732,2.3281,1362.5364],[30.269,2.3111,1369.5992],[30.2747,2.3021,1405.6486],[30.2863,2.3041,1380.8186],[30.2968,2.3089,1349.4082],[30.3022,2.3159,1352.8103],[30.3152,2.3166,1336.0573],[30.3159,2.2968,1346.436],[30.314,2.2804,1376.6296],[30.3506,2.2708,1400.9043],[30.36,2.2738,1382.3208],[30.3867,2.2884,1362.7372],[30.3957,2.2807,1369.1483],[30.4134,2.2542,1377.7991],[30.4249,2.2419,1399.5632],[30.4314,2.2403,1400.7104],[30.4397,2.2324,1493.5919],[30.4423,2.2244,1485.4902],[30.4403,2.2188,1465.0494],[30.4344,2.2123,1530.3269],[30.4301,2.2102,1578.5767],[30.4,2.2046,1580.4752],[30.3952,2.1988,1563.718],[30.3957,2.1933,1577.6005],[30.3979,2.1839,1570.2177],[30.4041,2.1801,1610.9033],[30.4113,2.1814,1611.1841],[30.4355,2.1922,1609.1724],[30.4466,2.193,1584.0415],[30.4494,2.156,1541.7632],[30.4655,2.1526,1532.3666],[30.4749,2.1537,1560.9905],[30.4829,2.1496,1580.9329],[30.4914,2.1479,1585.0935],[30.4978,2.1486,1541.9858],[30.5062,2.1551,1580.4492],[30.5114,2.1642,1546.9871],[30.5126,2.1736,1558.2625],[30.5325,2.1916,1598.9703],[30.5397,2.1923,1625.2852],[30.5475,2.1874,1620.7134],[30.5549,2.1801,1605.0917],[30.5772,2.172,1677.8687],[30.6096,2.1545,1677.871],[30.6335,2.149,1716.5316],[30.6391,2.1432,1702.7026],[30.6475,2.1383,1685.9271],[30.6586,2.1345,1675.0343],[30.664,2.1371,1716.62],[30.6819,2.1377,1704.2744],[30.6992,2.1404,1706.406],[30.7164,2.1296,1744.8315],[30.7302,2.1316,1743.1649],[30.7379,2.1346,1753.9033],[30.7456,2.1428,1800.6603],[30.7664,2.1564,1797.9874],[30.7708,2.1565,1820.5027],[30.7803,2.155,1862.0715],[30.812,2.1455,1902.4578],[30.8221,2.14,1903.324],[30.8283,2.1304,1973.4106],[30.8334,2.1288,2006.2246],[30.8433,2.1291,2027.0851],[30.8489,2.1263,2021.978],[30.8624,2.1135,2035.8347],[30.8708,2.112,2058.1655],[30.8712,2.1194,2064.6106],[30.8749,2.1254,2062.8142],[30.8838,2.1289,2051.0791],[30.8868,2.1478,1971.3568],[30.8946,2.1502,1983.2705],[30.9018,2.1487,2043.3026],[30.9119,2.1409,1997.7162],[30.9192,2.1295,2087.8433],[30.9183,2.1194,2085.8755],[30.9074,2.074,2064.0588],[30.913,2.0656,2048.5312],[30.9327,2.0483,2088.062],[30.9508,2.0276,1790.3682],[30.9649,2.0027,943.0256],[30.9608,1.9951,956.3107],[30.9397,1.9783,931.0013],[30.9237,1.9595,872.7092],[30.9158,1.9422,833.1222],[30.9139,1.9284,820.4086],[30.9163,1.9148,763.8781],[30.921,1.9061,621.1279],[30.9289,1.8995,620.0],[30.9463,1.8782,620.0],[30.9652,1.8485,620.0],[30.9796,1.8303,620.0],[30.9939,1.8059,620.0],[30.9962,1.796,620.0],[31.006,1.7846,620.0],[31.0227,1.7747,620.0],[31.0347,1.7594,620.0],[31.0993,1.8548,620.0],[31.1062,1.8529,620.0],[31.1499,1.909,620.0],[31.1637,1.9226,620.0],[31.1996,1.9672,620.0],[31.2209,1.9999,620.0],[31.3056,2.1165,620.0],[31.3057,2.1571,620.0],[31.2484,2.1999,911.4274],[31.2031,2.2211,997.2906],[31.203,2.2945,978.1161],[31.1997,2.293,985.8174],[31.1991,2.2911,986.6523],[31.1868,2.289,1003.4396],[31.1846,2.2861,1003.634],[31.1823,2.2866,1007.9424],[31.1778,2.2841,1016.0824],[31.175,2.2854,1017.5616],[31.1722,2.2831,1022.631],[31.172,2.2811,1024.2172],[31.164,2.2782,1043.7839],[31.1619,2.2783,1045.0902],[31.1595,2.2813,1051.5647],[31.1578,2.2801,1050.1074],[31.1559,2.282,1057.0771],[31.1526,2.2804,1070.7365],[31.1494,2.2834,1085.1594],[31.1411,2.2836,1187.4548],[31.1415,2.2819,1187.8628],[31.1387,2.2808,1273.6338],[31.1369,2.2772,1242.4114],[31.1355,2.2708,1243.2104],[31.133,2.2714,1268.3523],[31.1328,2.2656,1257.5143],[31.1306,2.2647,1252.9868],[31.1249,2.2666,1318.7788],[31.118,2.2732,1352.9106],[31.1128,2.2731,1373.1963],[31.1081,2.278,1381.1492],[31.1052,2.2787,1380.8809],[31.1042,2.2828,1382.6078],[31.0919,2.293,1444.3859],[31.0824,2.2985,1514.3254],[31.0803,2.297,1508.3552],[31.0777,2.2987,1519.3339],[31.0689,2.2906,1532.8683],[31.0526,2.2869,1550.3505],[31.0272,2.2837,1566.3407],[31.014,2.2796,1616.5432],[30.999,2.2805,1626.1689],[30.9805,2.2865,1657.9448],[30.9523,2.3047,1806.0978],[30.9392,2.323,1878.3591],[30.935,2.338,1807.4016],[30.931,2.336,1822.0251],[30.881,2.346,1698.14],[30.8681,2.3698,1668.4485],[30.8649,2.3713,1657.8357],[30.865,2.3759,1664.1833],[30.8558,2.3775,1646.7278],[30.8538,2.382,1632.5148],[30.8479,2.3852,1610.1637],[30.8448,2.3938,1596.0862],[30.8457,2.3975,1613.8519],[30.841,2.4044,1585.6914],[30.8379,2.4042,1579.3927],[30.8396,2.4097,1608.3641],[30.8376,2.4151,1588.7931],[30.8325,2.4174,1568.8677],[30.8346,2.4205,1574.9923],[30.834,2.426,1550.3024],[30.803,2.43,1601.1472],[30.7901,2.4356,1587.5868],[30.7835,2.4345,1613.7589],[30.778,2.4389,1624.3738],[30.7704,2.4312,1628.3511],[30.7649,2.4315,1648.49],[30.7626,2.4287,1641.0106],[30.7552,2.4268,1674.2078],[30.7547,2.4232,1645.2209],[30.7517,2.4199,1680.2875],[30.7485,2.4413,1651.906],[30.7414,2.4489,1667.0853],[30.7401,2.4544,1671.7742],[30.7443,2.4602,1641.6766],[30.7434,2.4723,1633.5161],[30.7461,2.4814,1654.4713],[30.7464,2.4916,1649.4666],[30.7512,2.4972,1616.3882],[30.7573,2.4974,1627.8838],[30.761,2.512,1646.3181],[30.7595,2.5364,1621.0111],[30.7568,2.536,1616.2721],[30.7564,2.5385,1621.899],[30.7588,2.55,1611.0425],[30.7558,2.5572,1615.7639],[30.7576,2.5651,1609.3542],[30.7529,2.5726,1619.584],[30.754,2.5792,1622.502],[30.7501,2.5865,1617.7129],[30.7531,2.5913,1597.0776],[30.7564,2.5917,1590.7439],[30.76,2.5966,1570.554],[30.7666,2.5992,1559.5002],[30.7714,2.599,1587.571],[30.7721,2.6026,1562.491],[30.7772,2.603,1556.3047],[30.7792,2.6063,1561.3816],[30.7797,2.617,1547.5735],[30.7909,2.6352,1573.4951],[30.7874,2.637,1551.9519],[30.7867,2.6457,1529.5271],[30.7919,2.6478,1539.9296],[30.7929,2.6534,1525.58],[30.7978,2.6606,1536.9454],[30.7969,2.6628,1520.4822],[30.7989,2.6656,1520.8431],[30.7974,2.6714,1526.5004],[30.805,2.6781,1533.1964],[30.8043,2.6819,1530.215],[30.8075,2.6844,1521.8563],[30.8066,2.6897,1518.7974],[30.8107,2.6951,1523.6188],[30.8083,2.7034,1516.6056],[30.8073,2.704,1504.2798],[30.804,2.697,1498.1183],[30.8004,2.6853,1516.854],[30.7839,2.6914,1508.306],[30.7644,2.7176,1383.6451],[30.7523,2.7288,1394.5369],[30.7418,2.7268,1357.6595],[30.7329,2.7213,1465.3999],[30.7269,2.7139,1414.1558],[30.7153,2.7216,1332.5515],[30.7044,2.7354,1293.0884],[30.6931,2.7462,1271.1057],[30.6793,2.7492,1283.708],[30.6712,2.7449,1272.7325],[30.6611,2.7142,1300.4568],[30.6331,2.6776,1306.7512],[30.6196,2.6697,1308.9701],[30.6069,2.6739,1299.6234],[30.6011,2.6859,1287.1956],[30.5994,2.706,1251.4857],[30.6067,2.7119,1263.4233],[30.6172,2.7162,1235.2251],[30.6209,2.7213,1252.1526],[30.6258,2.7434,1274.4268],[30.6403,2.7443,1270.0393],[30.6432,2.7513,1267.4175],[30.6423,2.759,1248.8784],[30.6235,2.7714,1242.9292],[30.6079,2.7738,1218.8962],[30.6013,2.7716,1221.0227],[30.5817,2.7585,1196.7461],[30.5722,2.7301,1202.1702],[30.5625,2.7126,1226.9465],[30.5488,2.7103,1258.4069],[30.5354,2.7269,1302.0114],[30.5295,2.7292,1266.9734],[30.494,2.7235,1225.8738],[30.4814,2.7269,1185.8427],[30.4741,2.7346,1170.1055],[30.461,2.7713,1157.5653],[30.4515,2.7922,1094.3228],[30.4372,2.8142,1097.4702],[30.4284,2.8199,1074.7256],[30.4127,2.8222,1058.9053],[30.3984,2.8302,1061.1812],[30.3905,2.8468,1030.3899],[30.3654,2.8897,1024.3451],[30.3509,2.8915,1019.281],[30.3307,2.8871,1016.3578],[30.3224,2.8744,1010.5189],[30.3397,2.8565,1024.5898],[30.3515,2.8558,1017.0795],[30.3652,2.8599,1016.8832],[30.3673,2.8496,1019.7638],[30.3709,2.8418,1017.3319],[30.3778,2.8375,1022.2517],[30.3795,2.8315,1027.9207],[30.3866,2.8222,1025.5566],[30.3876,2.8181,1024.4148],[30.3818,2.7977,1036.3113],[30.382,2.7898,1045.6066],[30.3876,2.7788,1041.431],[30.3948,2.7703,1063.238],[30.4079,2.7606,1176.6248],[30.4112,2.7542,1074.7949],[30.4118,2.7434,1078.7621],[30.4136,2.7392,1087.3789],[30.4254,2.7245,1098.8121],[30.4276,2.7175,1099.4465],[30.43,2.6867,1112.1392],[30.438,2.6638,1115.4108],[30.435,2.6284,1146.9631],[30.4426,2.5988,1163.1116],[30.4407,2.59,1173.6499],[30.429,2.572,1201.6949],[30.4272,2.5644,1188.4631],[30.4292,2.5524,1196.9624],[30.4221,2.5275,1188.166],[30.4254,2.517,1196.2805],[30.4175,2.513,1196.5839],[30.4108,2.4965,1199.0386],[30.4072,2.4915,1207.7273],[30.4015,2.4884,1208.6816],[30.3956,2.4826,1202.4756],[30.3925,2.4727,1201.7109],[30.3949,2.4628,1231.7051],[30.4017,2.4486,1220.3436],[30.4025,2.4369,1216.7131],[30.3958,2.4175,1222.5876],[30.3886,2.4098,1233.947],[30.3873,2.3974,1229.838],[30.3846,2.3944,1267.5789],[30.3805,2.3932,1230.6586],[30.3359,2.3827,1340.6211],[30.3094,2.3806,1410.2668],[30.3084,2.3884,1458.53],[30.3181,2.4043,1399.3628],[30.3179,2.4412,1384.7386],[30.3065,2.4589,1379.5399],[30.2917,2.4685,1351.512],[30.2742,2.4657,1353.3162],[30.2662,2.4416,1350.7488],[30.2573,2.4384,1317.8478],[30.2545,2.4311,1322.0367],[30.2439,2.4365,1309.5667],[30.236,2.4429,1272.0945],[30.2139,2.4497,1214.3459],[30.2024,2.4655,1213.3311],[30.1971,2.4654,1183.5933],[30.1823,2.4593,1209.0637],[30.1779,2.4588,1195.5173],[30.1726,2.4617,1186.3701],[30.1691,2.4679,1176.4705],[30.1709,2.4755,1182.4205],[30.1688,2.4808,1200.9056],[30.1581,2.4896,1170.9857],[30.1569,2.4963,1172.7356],[30.1454,2.5072,1163.9891],[30.1355,2.4831,1227.0657],[30.1315,2.4321,1220.6865],[30.127,2.3981,1220.8164],[30.1256,2.3699,1191.9297]]]]}}