{"type":"Feature","properties":{"GID_1":"COD.18_1","GID_0":"COD","country":"DemocraticRepublicoftheCongo","province":"Mongala","VARNAME_1":"NA","NL_NAME_1":"NA","TYPE_1":"Province","ENGTYPE_1":"Province","CC_1":"NA","HASC_1":"CD.MO","ISO_1":"NA","name":"Mongala.province"},
"geometry":{"type": "MultiPolygon","coordinates": [[[[20.7023,1.2275,369.4684],[20.7003,1.2144,368.3856],[20.6909,1.1824,357.2611],[20.6923,1.1797,357.8875],[20.7067,1.1796,357.7173],[20.7104,1.175,351.8938],[20.7131,1.1741,345.1521],[20.7174,1.178,359.2103],[20.7284,1.1779,359.1667],[20.7341,1.1832,356.0819],[20.7436,1.184,355.335],[20.7528,1.182,350.6606],[20.7606,1.175,357.0083],[20.7636,1.1745,356.064],[20.77,1.1698,358.2682],[20.7725,1.1703,356.7711],[20.7768,1.1744,360.2144],[20.7816,1.1743,359.4789],[20.7822,1.1703,354.7762],[20.7847,1.1701,340.2748],[20.7923,1.178,358.5834],[20.8008,1.176,358.9153],[20.8028,1.179,357.4748],[20.8054,1.1786,360.8392],[20.8058,1.1765,345.3987],[20.8038,1.1749,342.683],[20.8072,1.1717,359.2457],[20.812,1.1741,345.5241],[20.8161,1.1732,355.1887],[20.818,1.1709,355.1546],[20.8232,1.1719,353.614],[20.8268,1.1777,359.1748],[20.8309,1.1798,359.3977],[20.8344,1.1791,360.356],[20.8401,1.181,356.7761],[20.8437,1.1794,352.7565],[20.8514,1.1862,360.1529],[20.8709,1.1786,361.8862],[20.8766,1.179,359.4709],[20.8798,1.1818,350.268],[20.8816,1.1814,352.0115],[20.8869,1.1787,357.3686],[20.8872,1.175,360.4199],[20.891,1.1766,360.8947],[20.8929,1.175,359.7304],[20.896,1.178,356.811],[20.9079,1.1768,362.7688],[20.906,1.1714,358.2567],[20.91,1.1707,361.4495],[20.9148,1.1729,362.9651],[20.9202,1.1783,347.4587],[20.9253,1.179,361.0936],[20.9285,1.1767,360.3402],[20.9358,1.1756,361.6403],[20.939,1.1722,362.9147],[20.9468,1.1723,360.695],[20.949,1.1774,361.2092],[20.9527,1.1735,355.6519],[20.9568,1.1795,360.4891],[20.9668,1.1798,359.9768],[20.975,1.1836,361.6754],[20.9842,1.1839,356.7691],[20.9899,1.1816,362.9001],[20.9971,1.1879,364.0701],[20.9999,1.1875,349.1097],[21.0024,1.1923,357.5143],[21.0056,1.191,360.4043],[21.0143,1.1802,359.0988],[21.0214,1.1002,424.1424],[21.0145,1.0795,395.8466],[21.0227,1.0617,444.1764],[21.008,1.0343,433.1049],[20.9991,1.0084,421.2967],[20.998,1.0005,410.7745],[20.9981,0.981,370.6133],[20.9994,0.9752,368.4035],[21.0048,0.9636,368.1373],[21.011,0.958,387.4125],[21.021,0.9508,365.9556],[21.0454,0.9384,387.1583],[21.1137,0.9098,427.375],[21.1302,0.9174,427.9064],[21.1601,0.8961,399.9221],[21.1745,0.888,413.075],[21.2113,0.8777,414.971],[21.233,0.8586,400.562],[21.2796,0.853,405.9315],[21.2992,0.8479,410.3199],[21.3419,0.8188,405.9011],[21.3895,0.8165,430.7662],[21.4057,0.8029,403.3369],[21.4128,0.8002,411.5335],[21.4495,0.8041,389.8657],[21.4598,0.8035,423.4668],[21.4773,0.7939,434.5237],[21.5042,0.7722,400.6423],[21.5113,0.7623,416.274],[21.5312,0.7472,376.1746],[21.5698,0.7481,400.3011],[21.5808,0.7446,399.8873],[21.6059,0.7277,422.4883],[21.6339,0.7256,410.1392],[21.6486,0.757,394.5024],[21.6642,0.8196,427.6526],[21.666,0.845,425.2322],[21.6644,0.8659,418.8045],[21.6581,0.8825,425.532],[21.6598,0.8862,442.8205],[21.7094,0.9002,385.694],[21.7277,0.9027,391.8279],[21.7425,0.8985,392.2791],[21.7636,0.8888,409.2484],[21.7957,0.8581,440.7965],[21.8636,0.8651,440.3767],[21.91,0.9162,455.5345],[21.9508,0.9451,453.9835],[21.9671,0.9511,463.8786],[22.0106,0.9502,437.9733],[22.0377,0.9464,403.3057],[22.0902,0.935,446.2458],[22.1059,0.928,426.5869],[22.1022,0.957,449.2076],[22.0859,1.0123,412.2895],[22.0779,1.0338,405.7495],[22.0681,1.0467,394.3607],[22.0662,1.0556,396.3016],[22.054,1.0798,390.3635],[22.0447,1.0939,407.0763],[22.0173,1.1231,402.8744],[21.9377,1.1429,408.6063],[21.9347,1.232,382.3693],[21.9133,1.2773,379.6509],[21.9054,1.2977,443.6093],[21.8982,1.3093,431.054],[21.891,1.3181,395.243],[21.8834,1.3237,397.0132],[21.8658,1.3289,441.9068],[21.8631,1.3322,450.175],[21.861,1.3509,452.3529],[21.8621,1.3952,458.2566],[21.8664,1.4206,486.5015],[21.8696,1.5554,390.5641],[21.8757,1.7012,477.8589],[21.8906,1.7038,457.7523],[21.8937,1.7096,446.7785],[21.8981,1.7117,432.2287],[21.92,1.7146,438.2826],[21.9218,1.7164,447.7285],[21.9483,1.7223,449.705],[21.9963,1.7406,487.038],[22.0519,1.7592,457.4472],[22.0726,1.7614,443.513],[22.1274,1.7626,420.276],[22.1778,1.7619,438.6848],[22.198,1.7592,417.666],[22.2713,1.7377,457.8956],[22.2812,1.738,423.7724],[22.3027,1.7507,465.7194],[22.324,1.7574,477.2974],[22.3341,1.7527,443.1412],[22.3724,1.7107,424.6578],[22.3774,1.7234,439.959],[22.3742,1.7426,497.2808],[22.3621,1.7543,491.0587],[22.3586,1.771,480.6624],[22.3576,1.7843,458.7133],[22.3677,1.7844,468.3226],[22.3814,1.7884,453.8043],[22.3889,1.7953,462.0685],[22.3948,1.7984,463.0909],[22.4083,1.8001,470.6609],[22.414,1.8029,447.5725],[22.421,1.8091,400.7749],[22.4302,1.8283,417.8445],[22.4313,1.8341,418.3539],[22.4294,1.8554,396.435],[22.4354,1.8718,419.7522],[22.4464,1.877,412.1216],[22.4577,1.8862,386.7412],[22.4677,1.8909,389.8086],[22.4737,1.8914,385.6649],[22.4803,1.8889,385.1841],[22.4911,1.9132,386.6624],[22.4913,1.9237,378.659],[22.4901,1.932,380.5564],[22.4852,1.9444,378.804],[22.4823,1.9678,374.6352],[22.4753,1.9821,373.9073],[22.4622,1.9953,370.9272],[22.4503,1.9961,366.6139],[22.4453,2.0,366.8946],[22.413,2.0368,372.6609],[22.3825,2.0438,363.5863],[22.368,2.0644,360.9979],[22.362,2.0988,364.6242],[22.3641,2.1554,349.9283],[22.3538,2.1604,354.4643],[22.3545,2.162,344.735],[22.3719,2.158,352.0554],[22.3865,2.1572,343.0],[22.387,2.154,343.0],[22.3996,2.1541,343.0],[22.439,2.1465,343.5],[22.491,2.1329,343.5],[22.5169,2.1229,347.5634],[22.5192,2.1197,344.0],[22.5773,2.1075,344.5],[22.6053,2.0971,362.1682],[22.6229,2.097,350.0572],[22.6447,2.0861,345.0],[22.6809,2.05,345.0],[22.6865,2.0659,356.9632],[22.6935,2.0694,362.7007],[22.7018,2.0623,345.0],[22.7132,2.0624,356.593],[22.7162,2.0606,356.7442],[22.7232,2.0507,360.5602],[22.7271,2.0491,345.0],[22.7396,2.051,368.2931],[22.7481,2.0477,358.3008],[22.755,2.0399,349.3969],[22.7642,2.0349,362.4586],[22.7801,2.0177,356.0],[22.784,2.0175,346.0],[22.7903,2.0219,351.2051],[22.8019,2.0344,346.0],[22.8088,2.0352,350.8347],[22.8267,2.0279,355.5966],[22.833,2.033,364.8674],[22.8419,2.0441,351.4094],[22.8462,2.0465,357.9056],[22.8558,2.047,347.6909],[22.8597,2.0491,348.9012],[22.8682,2.0655,347.0],[22.8735,2.0703,347.0],[22.8778,2.0713,351.4409],[22.8886,2.069,347.5],[22.8922,2.0741,348.9835],[22.8926,2.084,349.8916],[22.8903,2.0925,369.7747],[22.8946,2.1006,349.9381],[22.8977,2.1029,353.1236],[22.9051,2.1027,358.6213],[22.9119,2.0989,352.8231],[22.9186,2.0916,352.3867],[22.9239,2.0912,349.2251],[22.9289,2.096,350.3748],[22.9345,2.1071,348.0],[22.9382,2.111,360.1081],[22.9489,2.118,373.4137],[22.9486,2.123,373.7028],[22.9458,2.1263,348.5],[22.9458,2.129,352.2853],[22.9339,2.1361,362.2874],[22.9341,2.1425,367.3903],[22.9386,2.1471,352.2025],[22.9443,2.149,349.0],[22.9584,2.1602,349.0],[22.9742,2.1584,375.1988],[22.9756,2.1619,349.5],[22.9711,2.1757,352.4872],[22.9722,2.1805,357.8283],[22.9781,2.186,353.5118],[22.9848,2.187,374.1695],[22.9972,2.1756,373.6946],[23.0006,2.1738,357.456],[23.0045,2.1752,360.6937],[23.0068,2.1782,356.6737],[23.0033,2.1897,350.0],[23.0073,2.2062,358.5691],[23.0132,2.2104,363.58],[23.0166,2.2164,355.6027],[23.0209,2.219,354.4163],[23.0305,2.2188,368.9384],[23.0413,2.2125,368.7935],[23.0487,2.2116,374.4004],[23.0496,2.204,378.9432],[23.0576,2.2022,375.5796],[23.0648,2.1956,377.9564],[23.0758,2.192,379.3866],[23.0898,2.1778,381.7133],[23.098,2.1758,384.8694],[23.1049,2.1717,384.3465],[23.1105,2.1662,398.5699],[23.1149,2.1556,381.3029],[23.1238,2.1483,385.0768],[23.1308,2.1366,388.199],[23.1473,2.1284,396.4777],[23.1553,2.1191,407.473],[23.1672,2.1187,412.1171],[23.1758,2.1079,415.4185],[23.1774,2.0994,435.3152],[23.188,2.093,444.95],[23.1939,2.0928,456.6608],[23.2103,2.0861,474.1099],[23.2328,2.086,454.3511],[23.2565,2.1004,477.238],[23.2712,2.1061,473.8423],[23.3126,2.0899,459.0312],[23.3153,2.0984,457.3339],[23.3219,2.1056,456.3791],[23.3195,2.1184,432.2079],[23.3219,2.1334,419.4818],[23.3265,2.141,439.0445],[23.3144,2.1679,420.2666],[23.3155,2.1794,436.0941],[23.312,2.1948,423.656],[23.3133,2.201,408.318],[23.3197,2.2082,437.5692],[23.3209,2.2236,431.0085],[23.3142,2.2459,407.7241],[23.3134,2.259,408.7329],[23.3175,2.271,402.5743],[23.3231,2.2784,391.2966],[23.3291,2.2821,382.9808],[23.3327,2.281,381.9565],[23.3461,2.2698,384.7757],[23.3621,2.2607,386.8451],[23.3647,2.2558,384.2078],[23.3704,2.2504,382.2432],[23.3764,2.2476,388.771],[23.3892,2.2454,389.2542],[23.4096,2.2342,387.7409],[23.4133,2.2308,389.123],[23.422,2.2311,399.9722],[23.4254,2.2297,423.8665],[23.4289,2.2233,390.3465],[23.4342,2.2217,413.0152],[23.4436,2.2147,417.1148],[23.4498,2.2126,426.0043],[23.456,2.2041,402.6075],[23.4652,2.2001,398.2209],[23.4705,2.193,403.1826],[23.4849,2.185,393.0822],[23.5249,2.1836,393.8404],[23.5462,2.1932,393.291],[23.5798,2.1931,418.4608],[23.5612,2.36,554.0196],[23.5726,2.3962,518.1144],[23.5669,2.4162,521.3742],[23.5473,2.4357,526.447],[23.5429,2.4456,489.1386],[23.5364,2.4513,464.2122],[23.5204,2.4556,420.674],[23.4917,2.4745,418.6487],[23.4876,2.4758,401.648],[23.4579,2.4985,410.818],[23.4519,2.5111,401.1067],[23.4327,2.5117,397.0829],[23.4273,2.5029,397.2318],[23.4245,2.51,394.899],[23.4132,2.5265,385.2039],[23.4088,2.5302,384.5293],[23.4001,2.5336,389.8442],[23.3911,2.5295,382.0012],[23.3829,2.5438,358.8284],[23.3771,2.5431,365.379],[23.3739,2.5451,381.5578],[23.3633,2.5628,367.2322],[23.3594,2.5651,382.0625],[23.356,2.5632,383.8274],[23.3499,2.551,385.3124],[23.3479,2.5289,371.3799],[23.3386,2.5175,378.9388],[23.3384,2.5134,375.1887],[23.3442,2.5008,366.9287],[23.3427,2.4927,373.6194],[23.3381,2.4878999999999998,368.7178],[23.3345,2.4874,368.8458],[23.326,2.4873,373.8327],[23.3189,2.4926,380.0393],[23.3159,2.4919,371.8336],[23.3148,2.49,371.1282],[23.3167,2.4822,372.1688],[23.3142,2.4762,376.4519],[23.317,2.4659,370.9763],[23.3145,2.4564,369.4729],[23.3084,2.4511,379.2566],[23.2938,2.4503,380.4369],[23.2903,2.4517,382.4753],[23.2868,2.4563,380.1367],[23.282,2.468,374.2117],[23.2776,2.4679,378.5555],[23.2738,2.4649,380.2481],[23.2742,2.4702,378.2302],[23.284,2.4726,366.9405],[23.2884,2.4685,376.9496],[23.2936,2.4667,381.4024],[23.2986,2.4743,373.1034],[23.2979,2.4775,376.069],[23.2733,2.4987,375.5645],[23.2566,2.5099,397.1886],[23.2403,2.5181,384.2551],[23.2153,2.5237,390.737],[23.2141,2.5255,392.6822],[23.1974,2.5294,403.8465],[23.1804,2.5362,394.3676],[23.169,2.5377,408.2384],[23.1571,2.5425,427.2174],[23.1213,2.5618,433.5364],[23.1071,2.5631,423.4354],[23.1027,2.5605,445.3752],[23.0984,2.5531,464.1528],[23.0889,2.5597,466.7024],[23.075,2.56,470.5645],[23.0646,2.5636,483.0837],[23.0472,2.5745,432.3543],[23.0296,2.5906,450.6137],[22.8997,2.7234,497.2036],[22.887,2.7386,463.4249],[22.879,2.7574,442.2365],[22.8802,2.7644,459.7096],[22.886,2.7772,445.6651],[22.8849,2.7948,479.5671],[22.9058,2.8099,528.6163],[22.9162,2.8098,526.0332],[22.9324,2.8028,542.1284],[22.9428,2.7922,559.2368],[22.9486,2.7746,555.0564],[22.9521,2.7992,560.3452],[22.9541,2.853,483.7303],[22.9832,2.8897,437.1017],[23.0211,2.9597,519.5739],[23.0333,2.9889,542.8186],[23.0597,3.0334,496.0477],[23.0508,3.0336,507.3738],[23.0381,3.0453,515.0902],[23.028,3.0503,536.719],[23.0232,3.0679,542.9254],[23.0197,3.0714,564.0902],[23.0122,3.0708,566.8622],[23.0,3.0569,570.7388],[22.9913,3.0534,555.4311],[22.9659,3.0775,555.5134],[22.9554,3.0804,557.916],[22.9415,3.0817,565.0834],[22.9218,3.0806,571.3762],[22.9056,3.0771,564.7492],[22.8917,3.0678,565.5903],[22.8579,3.02,557.9382],[22.844,3.0166,563.4101],[22.8278,3.019,565.7947],[22.8115,3.0249,560.1243],[22.7884,3.0402,555.2125],[22.7815,3.0543,565.3309],[22.7817,3.1057,548.2895],[22.7696,3.1181,575.0411],[22.7597,3.124,579.0548],[22.7261,3.1188,548.7645],[22.715699999999998,3.1276,546.528],[22.7007,3.133,539.5245],[22.696,3.133,540.2481],[22.6706,3.1477,556.2244],[22.6596,3.1524,546.8447],[22.5953,3.1539,530.9113],[22.5843,3.1569,539.7709],[22.5774,3.161,536.4398],[22.5745,3.1692,545.5343],[22.5885,3.2025,560.4248],[22.606,3.2228,551.5711],[22.613,3.2392,555.2076],[22.6235,3.2544,546.0796],[22.6514,3.2838,539.8466],[22.6529,3.3045,518.082],[22.6486,3.3124,537.5623],[22.6402,3.3186,553.0223],[22.6286,3.3233,549.3057],[22.6159,3.3333,546.3319],[22.625,3.3149,553.8207],[22.6212,3.2959,558.5571],[22.6037,3.2685,554.3578],[22.5705,3.2035,558.556],[22.5559,3.1705,567.8437],[22.5579,3.1448,526.3021],[22.5573,3.1238,513.7582],[22.5551,3.1185,516.5762],[22.5512,3.115,514.6581],[22.5499,3.1088,526.1255],[22.5433,3.0998,505.5223],[22.533,3.0969,488.1207],[22.5214,3.0858,491.5574],[22.5142,3.0639,448.9817],[22.518,3.0503,460.4934],[22.509,3.0351,464.5168],[22.5089,3.0162,475.2691],[22.4865,2.9785,408.3204],[22.4807,2.9801,412.5356],[22.4759,2.9849,400.0126],[22.4738,2.9925,437.9014],[22.4623,2.9998,404.3303],[22.4341,3.0033,409.7502],[22.4162,3.0073,437.5007],[22.3724,3.0249,408.6437],[22.3648,3.0315,398.3366],[22.3547,3.0319,393.738],[22.3419,3.0263,394.1347],[22.3178,3.0087,406.5674],[22.3036,3.0097,392.3954],[22.2833,2.9953,392.3183],[22.2755,2.995,403.0444],[22.2664,2.9917,395.2211],[22.2595,2.9912,398.6112],[22.2522,2.9879,397.2301],[22.2385,2.9869,396.7756],[22.231,2.9813,392.4319],[22.2214,2.9776,395.5015],[22.2122,2.9777,398.116],[22.2045,2.9705,393.437],[22.1919,2.967,397.2547],[22.1858,2.9623,400.1855],[22.1599,2.961,399.0553],[22.1538,2.955,396.2445],[22.1497,2.9536,396.2992],[22.1452,2.9482,399.455],[22.1339,2.9486,395.1287],[22.1166,2.9443,390.2397],[22.1086,2.9443,392.5199],[22.0871,2.9322,407.3568],[22.0764,2.9332,392.3726],[22.0691,2.9306,388.8457],[22.0632,2.9237,405.956],[22.0602,2.9223,408.1793],[22.051,2.9229,397.0794],[22.0437,2.9203,396.5333],[22.0383,2.9159,392.9124],[22.03,2.9145,392.4082],[22.0024,2.9032,393.1782],[21.996,2.9034,403.7804],[21.9901,2.9059,392.4625],[21.9825,2.9049,388.8556],[21.9805,2.9033,391.1131],[21.9646,2.9087,394.3248],[21.9551,2.8992,400.9859],[21.9496,2.8984,404.7968],[21.9469,2.8963,401.0808],[21.9393,2.8995,391.5471],[21.9171,2.903,394.6836],[21.9011,2.8985,405.6174],[21.894,2.9015,388.9453],[21.8894,2.9014,394.8803],[21.8732,2.8958,393.1492],[21.8566,2.903,388.8609],[21.8463,2.9039,401.709],[21.8415,2.907,391.2984],[21.8273,2.9069,384.9519],[21.8186,2.9135,386.6652],[21.8103,2.9142,379.0327],[21.7947,2.9244,373.2883],[21.7846,2.9289,376.3874],[21.7814,2.9259,376.441],[21.7488,2.9307,372.542],[21.7456,2.9332,377.037],[21.7404,2.9323,372.2419],[21.7239,2.9248,378.0286],[21.7052,2.9265,374.2685],[21.6985,2.9241,378.814],[21.6903,2.9252,371.837],[21.6858,2.9192,382.8635],[21.6833,2.9182,379.0996],[21.6754,2.9218,369.2228],[21.6725,2.92,369.2077],[21.6636,2.9206,367.8654],[21.6534,2.9258,368.6332],[21.6471,2.9205,375.8294],[21.6404,2.9236,368.2953],[21.6338,2.9229,370.8948],[21.6292,2.9189,374.9235],[21.627,2.9118,385.0138],[21.6215,2.9173,366.8878],[21.6162,2.9168,369.6032],[21.6151,2.9128,390.396],[21.613,2.9131,380.7039],[21.6107,2.9176,365.9491],[21.6082,2.9181,366.7585],[21.6048,2.916,374.6093],[21.5997,2.9166,374.6538],[21.5922,2.9133,387.3101],[21.5885,2.917,381.2512],[21.5826,2.9176,378.9077],[21.5793,2.9197,379.493],[21.5738,2.9302,364.496],[21.5712,2.9295,364.9197],[21.5688,2.9247,384.4036],[21.5632,2.9283,364.2913],[21.5564,2.9243,369.2593],[21.5431,2.9302,364.0189],[21.5337,2.9258,367.0183],[21.5246,2.9278,367.8528],[21.5121,2.9382,363.4064],[21.5,2.9375,365.0203],[21.4928,2.9466,363.0289],[21.4887,2.9475,364.2873],[21.4857,2.9525,362.4146],[21.4825,2.9527,362.3363],[21.4798,2.9476,362.4233],[21.4759,2.9465,370.6763],[21.4713,2.9478,364.0545],[21.4685,2.9501,362.2299],[21.4572,2.9686,390.3626],[21.451,2.9695,375.1942],[21.4493,2.9734,382.4315],[21.4429,2.9796,385.6967],[21.4392,2.9798,377.8482],[21.4343,2.9926,380.8695],[21.4347,3.0011,421.3524],[21.4184,3.0107,433.3219],[21.4101,3.0099,416.7454],[21.4083,3.011,421.3286],[21.4066,3.0191,383.1778],[21.4016,3.0218,372.1727],[21.3938,3.019,371.0755],[21.3688,3.0264,373.7098],[21.3591,3.0364,387.3123],[21.3554,3.0431,396.084],[21.3519,3.0439,381.5437],[21.3481,3.0416,378.6227],[21.337,3.0454,358.304],[21.3352,3.0473,379.2151],[21.3335,3.0569,380.7645],[21.3298,3.0587,374.0002],[21.328,3.0559,379.4532],[21.3209,3.0568,357.7682],[21.3147,3.0639,378.7656],[21.3094,3.0643,377.5038],[21.3091,3.071,373.8945],[21.3055,3.0698,382.8701],[21.3027,3.0725,377.1796],[21.2979,3.0686,357.7744],[21.2945,3.0683,357.3384],[21.2898,3.0796,376.3299],[21.2797,3.0894,377.7332],[21.2744,3.0889,372.273],[21.2739,3.0978,375.4724],[21.2644,3.1063,369.9814],[21.2541,3.1101,374.6773],[21.2501,3.1186,390.5269],[21.2467,3.119,385.8488],[21.244,3.1128,359.3414],[21.2403,3.1169,359.3501],[21.2219,3.1213,377.9161],[21.2113,3.1305,373.791],[21.2113,3.1369,372.1521],[21.208,3.1433,369.2272],[21.2052,3.1454,370.8582],[21.1972,3.1469,368.8274],[21.1913,3.1462,361.7502],[21.1857,3.1496,367.1891],[21.1815,3.162,386.1681],[21.1703,3.1632,368.335],[21.1662,3.141,368.2355],[21.1647,3.0963,420.1078],[21.1546,3.0718,431.3126],[21.1544,3.0379,491.7804],[21.1479,2.929,452.877],[21.147,2.9232,435.5334],[21.1448,2.9224,448.5702],[21.1315,2.9313,493.8212],[21.1172,2.9453,452.2602],[21.0457,3.0065,477.2053],[21.0436,3.0139,422.2371],[21.0424,3.0448,423.2238],[21.0395,3.0568,440.0449],[21.033,3.0644,426.7614],[20.9825,3.1102,500.873],[20.9796,3.1114,507.6783],[20.9745,3.1122,522.7751],[20.9665,3.1107,512.4099],[20.9472,3.0967,510.4322],[20.9431,3.0967,517.4397],[20.9309,3.102,481.1434],[20.9248,3.1112,469.2229],[20.9075,3.126,453.6042],[20.8975,3.1489,448.4742],[20.8917,3.1551,424.5742],[20.8887,3.1631,424.8276],[20.8841,3.1674,408.9325],[20.8678,3.1726,376.5074],[20.8503,3.1805,381.5137],[20.8389,3.1951,378.1017],[20.8274,3.2042,377.113],[20.8234,3.2113,385.9275],[20.8206,3.2219,408.1954],[20.8123,3.2296,365.5671],[20.812,3.2347,366.5602],[20.806,3.2434,367.091],[20.8002,3.2475,366.3397],[20.7947,3.2474,350.4331],[20.7866,3.2393,368.9246],[20.7825,3.2303,364.8114],[20.7786,3.2284,368.9584],[20.7724,3.2348,372.4391],[20.7701,3.2343,373.9818],[20.7672,3.2257,364.9306],[20.7664,3.214,370.3501],[20.7637,3.2112,364.319],[20.7504,3.2074,369.6953],[20.7437,3.1979,367.7921],[20.7334,3.1884,366.8222],[20.7322,3.1725,364.1932],[20.7248,3.1586,363.2434],[20.7235,3.1519,365.6918],[20.7281,3.1421,358.6365],[20.7252,3.1365,348.2049],[20.7241,3.1294,353.9492],[20.7189,3.1263,357.5435],[20.7284,3.1158,345.7469],[20.7269,3.1057,350.3186],[20.7131,3.0802,351.6907],[20.7199,3.0713,367.0051],[20.7208,3.0674,365.4391],[20.7183,3.0619,365.0076],[20.7151,3.0621,368.3103],[20.7079,3.0712,359.9291],[20.7043,3.0719,356.357],[20.7027,3.0686,358.6705],[20.7215,3.0361,361.8142],[20.718,3.0248,343.2708],[20.7189,3.0228,346.0536],[20.7251,3.021,363.1596],[20.7284,3.0169,362.2335],[20.7273,3.0115,351.9597],[20.7287,3.0053,360.1988],[20.7336,2.9989,363.369],[20.7327,2.9957,363.1073],[20.7286,2.9936,368.4389],[20.7185,2.9944,363.743],[20.7181,2.9889,364.0816],[20.7227,2.9814,362.165],[20.7194,2.971,362.0573],[20.724,2.9662,367.7314],[20.7243,2.9609,362.0133],[20.7187,2.9491,347.197],[20.7148,2.9449,356.9836],[20.7233,2.9438,340.0],[20.7288,2.9404,361.0679],[20.7385,2.9391,364.6879],[20.7417,2.935,360.9299],[20.7394,2.9309,367.8826],[20.7335,2.9267,361.0725],[20.7283,2.9181,364.1477],[20.7282,2.9119,348.5706],[20.7358,2.9069,350.8165],[20.7426,2.906,366.7051],[20.7457,2.8994,364.6213],[20.7437,2.892,361.0706],[20.736,2.8864,358.3218],[20.7346,2.8827,356.8224],[20.7367,2.8781,346.5219],[20.7523,2.8776,365.7935],[20.7576,2.8749,363.9792],[20.7601,2.8705,362.4605],[20.7585,2.8698,364.9507],[20.7538,2.858,351.5401],[20.7564,2.8537,351.542],[20.764,2.851,361.4971],[20.7679,2.8469,361.9281],[20.7681,2.8446,365.0751],[20.762,2.8386,359.7233],[20.7611,2.8351,357.2264],[20.7665,2.8278,359.2263],[20.7798,2.8258,345.8925],[20.7868,2.8287,362.2205],[20.7932,2.828,349.8148],[20.7974,2.8228,348.4319],[20.7964,2.8083,366.1697],[20.8004,2.7966,367.3768],[20.7966,2.7806,366.4701],[20.7976,2.7737,365.0331],[20.8025,2.7632,347.1024],[20.8022,2.7526,343.2179],[20.8047,2.7453,363.6842],[20.8133,2.7373,364.1829],[20.8204,2.733,360.6111],[20.8244,2.7277,364.3866],[20.823,2.7238,356.2559],[20.8282,2.7096,356.9027],[20.8326,2.7029,356.4034],[20.8333,2.6977,365.9878],[20.8423,2.692,355.7361],[20.8522,2.6822,361.889],[20.8585,2.6733,358.7191],[20.8725,2.6612,362.4762],[20.8816,2.6422,366.7112],[20.8923,2.6321,363.4247],[20.8962,2.6214,362.6127],[20.9027,2.612,362.4555],[20.9071,2.6099,362.2544],[20.9092,2.6067,363.7744],[20.91,2.5946,363.8599],[20.9163,2.5778,361.4547],[20.9036,2.5604,366.0466],[20.8883,2.5311,359.9007],[20.8843,2.5269,359.3989],[20.8739,2.5054,363.7949],[20.8612,2.4947,367.4675],[20.8457,2.4943,362.8801],[20.842,2.4922,360.3143],[20.8191,2.4734,354.8623],[20.8123,2.4655,337.3683],[20.8071,2.4535,359.3143],[20.8045,2.4383,354.1687],[20.8018,2.4348,362.4765],[20.7943,2.434,357.6996],[20.7839,2.4411,349.5758],[20.7785,2.4387,357.1094],[20.7766,2.4364,362.81],[20.7788,2.427,361.1129],[20.7773,2.4189,350.2538],[20.7743,2.4159,356.6196],[20.7682,2.4161,356.156],[20.7642,2.4181,350.555],[20.7483,2.4138,338.7922],[20.7441,2.4142,350.8237],[20.7397,2.4193,357.1715],[20.7372,2.4271,356.8059],[20.7391,2.4393,359.967],[20.7352,2.4439,357.5744],[20.7288,2.4431,341.6677],[20.7229,2.4401,354.6574],[20.7132,2.4413,334.5],[20.7101,2.439,354.0814],[20.7036,2.4238,360.6408],[20.6995,2.421,359.2077],[20.6903,2.4207,335.9815],[20.676,2.4127,359.676],[20.6707,2.4138,333.5],[20.6665,2.4218,353.5274],[20.671,2.4306,355.1949],[20.6707,2.4352,357.4119],[20.6686,2.4391,359.2188],[20.6657,2.4405,355.6732],[20.6593,2.4397,332.0],[20.6513,2.4357,350.304],[20.6392,2.4363,332.0],[20.6378,2.434,354.7398],[20.6402,2.4283,353.989],[20.6377,2.4259,355.2065],[20.6235,2.4276,337.2822],[20.6062,2.4176,346.4265],[20.5966,2.4151,354.3584],[20.5882,2.4107,351.7524],[20.5802,2.4104,342.6118],[20.5716,2.4207,348.2345],[20.5668,2.4209,339.9753],[20.5671,2.4174,332.0656],[20.5625,2.4105,333.3036],[20.5555,2.4045,359.0818],[20.5537,2.4049,356.6482],[20.5465,2.4143,356.7615],[20.5426,2.4163,356.2489],[20.5353,2.4165,331.0],[20.526,2.409,342.3269],[20.5208,2.3981,342.7756],[20.5165,2.3956,340.4308],[20.5112,2.3953,336.7834],[20.5075,2.3985,347.0455],[20.5056,2.404,356.2621],[20.5106,2.4162,349.0183],[20.5096,2.4192,352.9229],[20.4993,2.423,333.0767],[20.4962,2.432,355.9445],[20.4939,2.434,343.0146],[20.4896,2.4328,335.1661],[20.4796,2.4261,348.3782],[20.4704,2.4262,343.1478],[20.4459,2.4333,352.2779],[20.4348,2.421,348.1604],[20.4279,2.4214,333.9004],[20.4068,2.4304,335.225],[20.4002,2.4306,339.2672],[20.3913,2.4225,356.4224],[20.3877,2.4215,349.5449],[20.3833,2.4235,330.0],[20.3759,2.4308,349.14],[20.3647,2.4319,339.6236],[20.3434,2.4146,354.1897],[20.337,2.4139,345.3252],[20.3145,2.4203,340.279],[20.3095,2.4175,352.8698],[20.297,2.4025,359.5566],[20.2929,2.4022,352.5397],[20.2892,2.4061,352.7587],[20.2846,2.4161,351.4309],[20.2804,2.4193,342.0571],[20.2651,2.4173,331.2602],[20.2581,2.4117,352.5453],[20.2612,2.3991,351.4725],[20.2587,2.3947,352.4559],[20.256,2.3933,351.5531],[20.2498,2.3937,354.3655],[20.2392,2.4044,342.6847],[20.2327,2.4057,329.7602],[20.2212,2.3948,350.5718],[20.1973,2.3847,346.1377],[20.1939,2.3754,352.2449],[20.1883,2.3687,354.4529],[20.1705,2.3591,351.2996],[20.1626,2.3496,353.0535],[20.1585,2.3477,339.0913],[20.1423,2.3476,340.301],[20.1325,2.3424,347.5564],[20.1082,2.3424,338.1995],[20.103,2.341,328.5],[20.0978,2.3368,350.2762],[20.0962,2.3324,345.3995],[20.0978,2.3285,348.7835],[20.1091,2.3215,348.3633],[20.1103,2.3169,349.542],[20.1065,2.3076,335.7986],[20.1128,2.2987,351.0223],[20.1101,2.295,350.991],[20.1023,2.2933,350.6627],[20.0994,2.2903,350.6075],[20.0976,2.2845,349.2],[20.1015,2.2779,348.8027],[20.1011,2.2747,347.2978],[20.0968,2.2709,350.0178],[20.0854,2.2669,350.1216],[20.0825,2.2644,349.121],[20.0728,2.2491,348.9746],[20.0689,2.2483,350.0498],[20.0609,2.2526,333.1],[20.0572,2.2528,328.4304],[20.0452,2.2453,346.6675],[20.0424,2.2419,341.1243],[20.0378,2.2246,351.8833],[20.0418,2.2142,351.1953],[20.0412,2.2103,352.9655],[20.0382,2.2071,352.061],[20.0268,2.201,352.3149],[20.0227,2.1807,351.0235],[20.0193,2.1772,350.2157],[20.015,2.1767,348.4066],[20.0048,2.1851,342.4053],[19.9955,2.182,341.5939],[19.9864,2.1769,336.2101],[19.9819,2.1715,327.8082],[19.9754,2.1567,345.3937],[19.9637,2.1539,338.9782],[19.9587,2.1511,343.3319],[19.9538,2.145,340.8544],[19.9543,2.1411,336.7753],[19.9575,2.1359,326.5],[19.9628,2.1325,332.8132],[19.9638,2.127,348.6853],[19.9622,2.1228,346.9707],[19.9556,2.1193,335.4974],[19.9513,2.1137,343.4211],[19.9426,2.0931,341.4168],[19.937,2.0857,330.8317],[19.9397,2.066,327.7054],[19.942,2.06,326.1318],[19.9396,2.0563,331.5222],[19.932,2.0558,332.528],[19.9259,2.0518,332.9992],[19.9223,2.0407,332.4149],[19.9231,2.0352,329.8708],[19.9256,2.0322,329.1178],[19.9334,2.0279,327.7],[19.9317,2.0229,325.5],[19.9294,2.0201,329.7149],[19.9189,2.0179,334.4078],[19.9191,2.0253,339.3183],[19.9077,2.015,329.5864],[19.9051,2.0069,325.4977],[19.9041,1.9922,324.25],[19.9081,1.9842,329.0789],[19.9072,1.9803,323.9905],[19.8953,1.9742,328.7263],[19.8892,1.9675,321.8914],[19.8882,1.9529,323.1379],[19.8817,1.9467,325.7877],[19.8778,1.9473,337.0248],[19.8644,1.9582,337.5897],[19.8578,1.9579,328.8608],[19.8485,1.9482,317.5],[19.8385,1.9464,322.0644],[19.831,1.9383,324.892],[19.8241,1.9185,320.0386],[19.8136,1.9002,324.6397],[19.819,1.8862,314.5],[19.8207,1.8676,337.225],[19.8246,1.8501,337.977],[19.8221,1.8432,336.5288],[19.7999,1.8308,335.7704],[19.749,1.8218,335.9307],[19.7323,1.8172,338.0212],[19.7127,1.817,339.8819],[19.7008,1.8201,339.0164],[19.682,1.8197,334.9686],[19.6339,1.8109,339.0721],[19.6008,1.8025,331.9301],[19.5972,1.8052,331.0204],[19.5686,1.8026,331.6248],[19.5155,1.7896,329.6285],[19.5082,1.7861,314.0],[19.4804,1.7782,327.8621],[19.4767,1.7791,316.0466],[19.4688,1.7726,327.2412],[19.4322,1.7538,328.663],[19.4272,1.7537,329.1605],[19.4213,1.7491,325.6095],[19.3933,1.737,330.5551],[19.3861,1.7298,336.9361],[19.3571,1.7199,313.5],[19.356,1.718,313.5],[19.3184,1.7086,334.4165],[19.3118,1.7026,327.4032],[19.3027,1.699,333.2458],[19.2937,1.6906,325.0996],[19.2826,1.6838,322.6862],[19.2674,1.6715,321.7448],[19.2624,1.6701,322.2102],[19.2304,1.6428,321.0906],[19.2241,1.6335,320.7345],[19.2246,1.6319,317.8558],[19.2154,1.6224,324.0162],[19.2085,1.5775,331.6604],[19.2125,1.5669,338.4841],[19.2119,1.5651,337.2163],[19.2163,1.5603,340.02],[19.2101,1.4592,333.0912],[19.2129,1.3498,336.4638],[19.245,1.3654,335.887],[19.2702,1.3748,336.0554],[19.297,1.3888,335.7497],[19.3659,1.4143,333.9105],[19.3772,1.4197,337.4655],[19.4042,1.4394,343.9013],[19.4366,1.4549,342.1073],[19.4467,1.4581,340.9005],[19.4952,1.4931,367.2987],[19.5126,1.5036,362.0031],[19.5249,1.5167,344.9529],[19.538,1.5272,344.875],[19.5624,1.535,349.0696],[19.5769,1.5407,379.6642],[19.5828,1.5447,390.0886],[19.6123,1.5691,394.1039],[19.6402,1.5964,370.5245],[19.6799,1.6118,358.9019],[19.7059,1.6287,399.0432],[19.7396,1.6349,389.9286],[19.7839,1.6357,426.919],[19.8795,1.6608,400.761],[19.8999,1.6679,394.2346],[19.9195,1.6784,399.2955],[19.9456,1.6994,391.6423],[19.9597,1.7085,378.4687],[19.9664,1.7102,375.0661],[20.0026,1.7119,367.8472],[20.0104,1.714,369.9873],[20.072,1.7438,392.5739],[20.0994,1.7534,362.1353],[20.1113,1.7561,380.7099],[20.1305,1.7566,393.5568],[20.1906,1.749,425.4407],[20.2021,1.7488,438.977],[20.2306,1.7528,404.6136],[20.2376,1.7525,387.9826],[20.2984,1.7317,431.6968],[20.3277,1.7304,404.1047],[20.3345,1.7256,403.7371],[20.3409,1.7185,374.9366],[20.3528,1.7022,433.5014],[20.3869,1.6746,430.0231],[20.4001,1.6668,424.0528],[20.4047,1.6662,424.5099],[20.4171,1.6689,441.8998],[20.4379,1.6783,455.4753],[20.451,1.6816,442.2133],[20.4658,1.6769,422.5114],[20.4877,1.673,410.9846],[20.508,1.674,409.5382],[20.521,1.6764,422.4102],[20.5437,1.6757,445.2385],[20.5505,1.6737,451.2325],[20.5632,1.6669,461.0135],[20.5671,1.6664,457.3737],[20.5704,1.6669,449.1282],[20.5972,1.6832,426.7672],[20.615,1.6986,412.3758],[20.6473,1.6959,400.9841],[20.6671,1.6999,435.1136],[20.6892,1.7084,434.5993],[20.6947,1.7037,416.2092],[20.6988,1.6866,382.1908],[20.6988,1.6621,416.5826],[20.6956,1.6359,414.5875],[20.6919,1.6171,397.7049],[20.6816,1.5881,378.2946],[20.6613,1.5699,371.2841],[20.6598,1.567,369.8946],[20.6571,1.5129,360.0594],[20.6605,1.4873,356.3517],[20.6492,1.4669,355.1797],[20.6428,1.4489,325.0],[20.6378,1.4282,349.9304],[20.6374,1.4169,356.3565],[20.641,1.3922,378.1982],[20.6511,1.3641,397.1852],[20.6638,1.344,411.8547],[20.6777,1.3287,413.6686],[20.6998,1.2974,386.6557],[20.7139,1.2692,398.3963],[20.7147,1.2564,394.5426],[20.7132,1.2509,388.7643],[20.7023,1.2275,369.4684]]]]}}