{"type": "Feature","bbox": [26.8106,-5.0103,29.3943,-1.584],"geometry": {"type": "MultiPolygon","coordinates": [[[[29.2036,-3.3488,771.8445],[29.2009,-3.3087,776.1216],[29.2038,-3.2972,778.8275],[29.2079,-3.2902,779.6108],[29.2346,-3.2687,777.8936],[29.2397,-3.2689,778.2041],[29.2316,-3.2591,778.8969],[29.2301,-3.2507,780.355],[29.2312,-3.2436,780.2317],[29.2258,-3.2332,781.6268],[29.2267,-3.2231,780.8983],[29.2311,-3.2201,782.9628],[29.2312,-3.2158,781.5144],[29.2345,-3.2137,782.1592],[29.2331,-3.2096,781.6883],[29.2274,-3.2036,784.8672],[29.2291,-3.2012,782.7207],[29.224,-3.2013,783.0348],[29.2223,-3.1987,782.5329],[29.225,-3.1871,783.6603],[29.2286,-3.1871,783.8929],[29.2313,-3.1844,783.845],[29.2284,-3.1819,785.9174],[29.2255,-3.1823,784.7318],[29.2243,-3.1804,785.2613],[29.2255,-3.1767,784.7303],[29.2289,-3.1744,786.1156],[29.2295,-3.1707,785.1969],[29.2329,-3.1686,786.7302],[29.2324,-3.1653,786.3862],[29.2283,-3.1626,785.8308],[29.2284,-3.1587,787.2768],[29.2315,-3.1581,787.0333],[29.2336,-3.1559,786.4418],[29.2347,-3.151,787.3751],[29.2395,-3.1487,787.2899],[29.2398,-3.1393,787.8648],[29.244,-3.1385,788.6126],[29.2436,-3.1322,787.596],[29.2452,-3.1279,789.1274],[29.2493,-3.1294,790.2118],[29.2465,-3.1234,789.4033],[29.248,-3.1223,789.6609],[29.2524,-3.1247,789.8082],[29.2546,-3.1223,792.6323],[29.2562,-3.1162,790.8329],[29.2606,-3.1149,793.3275],[29.2605,-3.1143,790.4344],[29.2564,-3.1137,791.5809],[29.2504,-3.1076,791.5683],[29.2543,-3.1015,791.405],[29.2473,-3.0976,794.3698],[29.2464,-3.0956,792.5178],[29.249,-3.0942,792.6036],[29.2536,-3.0946,792.6366],[29.2517,-3.0896,794.1544],[29.2527,-3.0881,793.9784],[29.2567,-3.088,793.1113],[29.2573,-3.0863,793.986],[29.2551,-3.0769,794.4332],[29.2569,-3.0681,794.5916],[29.2549,-3.0675,796.1185],[29.2546,-3.0648,796.0447],[29.2495,-3.0618,797.8153],[29.2521,-3.0587,795.8182],[29.2517,-3.0539,798.4088],[29.2539,-3.0524,796.906],[29.2448,-3.0439,796.5184],[29.2396,-3.0415,798.2149],[29.2392,-3.0391,799.2786],[29.2412,-3.0365,797.7449],[29.2338,-3.0357,799.7833],[29.2313,-3.0326,798.9404],[29.2355,-3.029,798.7991],[29.2359,-3.0254,798.7827],[29.2289,-3.0263,800.9427],[29.2248,-3.0206,799.3596],[29.22,-3.0231,801.8677],[29.215,-3.0217,799.8158],[29.2076,-3.0225,801.6811],[29.2051,-3.0209,800.4494],[29.2033,-3.0229,800.911],[29.1965,-3.0172,801.5086],[29.1934,-3.0087,802.3353],[29.185,-3.009,803.9641],[29.1835,-3.0037,810.4086],[29.1851,-3.0005,803.6823],[29.1773,-2.9923,805.5531],[29.1703,-2.9972,808.0692],[29.1678,-2.9964,807.2308],[29.1654,-2.9915,825.1952],[29.1676,-2.9902,807.9327],[29.1714,-2.9821,808.6852],[29.1657,-2.9711,811.6067],[29.1686,-2.968,810.4414],[29.1661,-2.9645,810.8752],[29.1677,-2.9597,819.9658],[29.1614,-2.9569,812.8572],[29.1605,-2.9531,813.6859],[29.1581,-2.9544,814.9415],[29.1549,-2.952,816.8922],[29.1551,-2.9495,816.6943],[29.1531,-2.9466,816.0032],[29.1521,-2.9468,815.7812],[29.1506,-2.9493,817.4699],[29.1426,-2.9469,860.8666],[29.1394,-2.9396,819.8351],[29.1322,-2.936,821.0135],[29.1285,-2.9301,821.0962],[29.1222,-2.9309,824.5625],[29.1099,-2.9227,831.8426],[29.1077,-2.9225,824.1079],[29.1046,-2.9253,832.0181],[29.1013,-2.924,829.1685],[29.1,-2.9207,826.9728],[29.0967,-2.9206,828.8088],[29.0894,-2.8995,830.3113],[29.09,-2.8907,831.5072],[29.0944,-2.8828,837.5396],[29.0932,-2.8761,843.1495],[29.09,-2.8708,838.825],[29.0857,-2.873,847.0035],[29.0836,-2.8696,838.1687],[29.0772,-2.8676,838.9498],[29.0752,-2.8635,840.1073],[29.0694,-2.8643,841.0376],[29.0679,-2.8604,843.3652],[29.0703,-2.8577,843.6638],[29.0657,-2.8542,853.6119],[29.0688,-2.8495,858.0099],[29.067,-2.8457,850.3132],[29.0643,-2.846,858.1394],[29.0605,-2.8425,853.3213],[29.0617,-2.8388,856.0315],[29.0601,-2.8346,861.0364],[29.0567,-2.8291,860.0216],[29.0519,-2.8264,867.6737],[29.0509,-2.8206,864.462],[29.0459,-2.8193,865.9451],[29.0392,-2.824,868.6065],[29.0279,-2.8263,872.8231],[29.0251,-2.8226,874.1388],[29.0126,-2.8208,879.3672],[29.006,-2.8166,883.353],[29.0017,-2.8102,884.7475],[29.0021,-2.8034,886.8257],[29.0005,-2.799,889.8614],[29.0007,-2.7857,897.9093],[29.0025,-2.7813,898.0447],[29.0077,-2.7792,899.9675],[29.0119,-2.7736,901.8861],[29.018,-2.7705,904.2809],[29.027,-2.7604,910.8611],[29.0325,-2.759,914.1016],[29.0382,-2.761,918.486],[29.0402,-2.7431,921.5653],[29.0362,-2.7388,925.8977],[29.0347,-2.7336,957.3153],[29.0318,-2.7328,928.8735],[29.0208,-2.7192,940.5846],[29.016,-2.7167,941.4013],[29.0039,-2.7042,952.1429],[28.9988,-2.7037,953.6751],[28.9957,-2.6994,975.6202],[28.9914,-2.6982,962.0689],[28.9886,-2.6996,1016.3779],[28.9832,-2.6939,972.3604],[28.9801,-2.6941,980.6603],[28.9754,-2.6949,983.9918],[28.9713,-2.6981,992.3253],[28.969,-2.7032,1012.5794],[28.9667,-2.7035,1010.2405],[28.9591,-2.6936,1033.057],[28.9475,-2.6908,1085.7899],[28.943,-2.6926,1109.8092],[28.9409,-2.6899,1118.623],[28.9405,-2.6845,1142.5703],[28.9375,-2.6819,1155.7294],[28.9351,-2.6809,1147.3073],[28.934,-2.6832,1151.3391],[28.9314,-2.6814,1146.4818],[28.9236,-2.6821,1166.7585],[28.9178,-2.6804,1208.7148],[28.91,-2.6684,1295.2528],[28.91,-2.665,1280.8123],[28.9071,-2.6638,1239.1807],[28.9056,-2.6649,1250.8406],[28.903,-2.6621,1293.2493],[28.8972,-2.6605,1285.7729],[28.8954,-2.6528,1318.0343],[28.904,-2.6497,1381.2402],[28.9058,-2.6451,1357.6313],[28.9038,-2.6271,1399.0022],[28.9026,-2.6239,1405.5381],[28.9004,-2.623,1396.0],[28.902,-2.6074,1409.1915],[28.8975,-2.5971,1405.2272],[28.9,-2.5849,1417.2219],[28.8952,-2.5755,1419.6198],[28.8932,-2.5606,1448.7252],[28.8908,-2.5578,1424.6824],[28.877,-2.5499,1429.7697],[28.8698,-2.5389,1445.5826],[28.8631,-2.5336,1437.7777],[28.8617,-2.5293,1445.2955],[28.8629,-2.5213,1443.0052],[28.8742,-2.5097,1448.0115],[28.8884,-2.5057,1463.6838],[28.8929,-2.4909,1485.0487],[28.8903,-2.4788,1461.0],[28.8868,-2.4724,1461.0],[28.8741,-2.4598,1461.0],[28.8669,-2.4395,1461.0],[28.8692,-2.4194,1461.0],[28.8731,-2.4098,1461.0],[28.875,-2.4087,1461.0],[28.8752,-2.4056,1461.0],[28.8824,-2.3945,1461.0],[28.8969,-2.38,1461.0],[28.9108,-2.3718,1461.0],[28.9304,-2.3718,1461.0],[28.9374,-2.3746,1461.0],[28.9496,-2.3764,1461.0],[28.9621,-2.3731,1461.0],[28.965,-2.3702,1461.0],[28.966,-2.364,1461.0],[28.9605,-2.3538,1461.0],[28.9644,-2.3499,1461.0],[28.9771,-2.3453,1461.0],[28.9809,-2.3424,1461.0],[28.9942,-2.3142,1461.0],[28.9986,-2.2975,1461.0],[29.0099,-2.2901,1461.0],[29.0825,-2.2792,1461.0],[29.0984,-2.2745,1461.0],[29.1068,-2.2679,1461.0],[29.1172,-2.2533,1461.0],[29.1631,-2.1578,1461.0],[29.174,-2.1275,1461.0],[29.1747,-2.1122,1461.0],[29.1731,-2.0799,1461.0],[29.1619,-2.0377,1461.0],[29.1414,-1.9895,1461.0],[29.1295,-1.9312,1461.0],[29.1259,-1.8896,1461.0],[29.142,-1.8438,1461.0],[29.1949,-1.7724,1461.0],[29.1905,-1.7724,1461.0],[29.2424,-1.7001,1461.8865],[29.2396,-1.7006,1465.072],[29.2352,-1.6972,1462.4751],[29.2309,-1.6962,1462.8912],[29.2298,-1.6911,1471.6409],[29.2263,-1.6879,1461.0],[29.2265,-1.6863,1461.0],[29.2216,-1.6867,1463.1514],[29.2238,-1.6836,1467.9275],[29.2219,-1.6815,1467.6718],[29.2184,-1.683,1461.0],[29.2137,-1.6818,1461.9564],[29.1946,-1.6707,1468.547],[29.1897,-1.6689,1466.6144],[29.1791,-1.6687,1462.1208],[29.169,-1.6634,1461.0],[29.1659,-1.6512,1467.0977],[29.1636,-1.65,1461.0],[29.1631,-1.6467,1461.0],[29.1651,-1.6442,1461.5992],[29.1602,-1.6401,1461.5776],[29.1584,-1.634,1467.7965],[29.1572,-1.6365,1461.0],[29.1539,-1.6359,1507.9999],[29.1486,-1.6395,1467.0986],[29.1442,-1.6389,1472.0585],[29.142,-1.6426,1485.3685],[29.1382,-1.6426,1464.5449],[29.1349,-1.6402,1467.62],[29.1337,-1.6307,1468.818],[29.1317,-1.6307,1465.2275],[29.1316,-1.6286,1484.7501],[29.1268,-1.6303,1461.0],[29.1182,-1.6282,1461.0],[29.118,-1.6299,1461.0],[29.1152,-1.6303,1461.0],[29.1124,-1.6274,1465.3005],[29.11,-1.6276,1462.3555],[29.1036,-1.6238,1463.7463],[29.0993,-1.6238,1461.0],[29.0969,-1.6199,1468.8239],[29.0928,-1.6202,1461.0],[29.0872,-1.6099,1461.0],[29.0864,-1.6005,1461.0],[29.0812,-1.5986,1463.5314],[29.0795,-1.5956,1464.5314],[29.0758,-1.5957,1461.9543],[29.067,-1.5852,1463.0397],[29.0626,-1.586,1466.2144],[29.0576,-1.584,1466.6206],[29.0551,-1.5855,1461.7275],[29.0495,-1.584,1489.9585],[29.0466,-1.5901,1461.0],[29.0406,-1.5923,1464.7764],[29.0404,-1.5957,1468.3677],[29.0367,-1.6022,1464.0424],[29.0378,-1.6078,1464.1995],[29.0329,-1.6118,1473.4043],[29.0347,-1.6173,1461.0],[29.0318,-1.6158,1465.9878],[29.031,-1.617,1483.7063],[29.0332,-1.6208,1470.6787],[29.0258,-1.6178,1506.0856],[29.0215,-1.6205,1462.3259],[29.0231,-1.6274,1492.15],[29.0265,-1.626,1461.0],[29.029,-1.6283,1485.4027],[29.033,-1.6288,1477.744],[29.0309,-1.631,1476.5852],[29.0288,-1.6389,1464.012],[29.0293,-1.6532,1464.3868],[29.0259,-1.6561,1461.887],[29.0251,-1.6603,1466.2167],[29.0179,-1.6673,1461.7904],[29.0168,-1.6699,1495.3855],[29.0189,-1.6736,1465.9104],[29.0179,-1.6759,1461.0],[29.0173,-1.6751,1461.0],[29.0117,-1.6828,1519.704],[28.9991,-1.6897,1646.291],[28.9839,-1.7098,1868.2583],[28.9795,-1.733,1775.9819],[28.9692,-1.7417,1701.8464],[28.9356,-1.7449,2233.2412],[28.917,-1.7422,2837.8733],[28.9033,-1.7331,2643.2803],[28.883,-1.7287,2350.9868],[28.8627,-1.707,2712.4548],[28.8523,-1.7236,2603.5608],[28.8359,-1.7398,2355.1633],[28.8327,-1.7447,2362.748],[28.8315,-1.753,2301.1938],[28.8253,-1.7615,2318.2449],[28.8166,-1.7675,2160.1455],[28.8052,-1.7664,2174.2634],[28.7903,-1.7704,2157.1077],[28.7645,-1.7714,1857.5093],[28.7552,-1.7795,1760.5308],[28.7495,-1.7819,1705.0115],[28.7161,-1.7802,1319.0032],[28.6993,-1.7632,1304.6278],[28.6846,-1.7419,1536.5562],[28.6677,-1.7398,1289.4259],[28.6654,-1.7429,1246.5718],[28.6659,-1.7473,1328.464],[28.6751,-1.77,1450.0211],[28.6689,-1.7939,1346.3208],[28.6957,-1.806,1582.5115],[28.6963,-1.8165,1876.8499],[28.7003,-1.8286,1721.578],[28.6777,-1.8677,1786.4827],[28.6617,-1.8777,1832.9775],[28.6474,-1.8831,1746.4355],[28.6442,-1.8854,1744.4187],[28.641,-1.8909,1767.3785],[28.6376,-1.8905,1778.7946],[28.63,-1.8836,1846.0342],[28.6172,-1.8802,1837.7559],[28.6055,-1.8807,1815.6863],[28.5911,-1.8845,1720.5988],[28.5793,-1.8907,1664.5984],[28.5668,-1.9048,1550.5465],[28.5585,-1.9046,1324.739],[28.5416,-1.8969,1173.8658],[28.5242,-1.8968,1261.889],[28.5214,-1.8942,1209.4885],[28.5143,-1.8798,1207.7053],[28.5111,-1.8768,1183.2383],[28.506,-1.8759,1151.7352],[28.4987,-1.8787,1152.0511],[28.4816,-1.8767,1052.8542],[28.4717,-1.8747,1015.8767],[28.4596,-1.8669,944.3035],[28.4497,-1.8651,817.2572],[28.4513,-1.8686,813.0493],[28.4498,-1.8805,883.6293],[28.4508,-1.8929,909.3687],[28.4334,-1.8994,892.5558],[28.4244,-1.8999,946.1281],[28.372,-1.9215,1227.7377],[28.3624,-1.9277,1225.2622],[28.3593,-1.9347,1296.7227],[28.3539,-1.9399,1246.9646],[28.3502,-1.9476,1252.9404],[28.377,-1.9609,1302.519],[28.3823,-1.9779,1277.9608],[28.3743,-1.9932,1283.791],[28.3503,-1.994,1206.3903],[28.3384,-1.9891,1318.1482],[28.3271,-1.9762,1388.687],[28.3157,-1.9787,1446.9993],[28.3042,-1.9905,1451.8636],[28.2664,-1.994,1354.5776],[28.24,-1.9905,1223.0051],[28.1717,-1.9939,1160.8414],[28.155,-2.0009,1007.075],[28.1545,-2.0099,952.0344],[28.1512,-2.02,1031.3977],[28.1516,-2.0246,1100.5066],[28.1613,-2.0352,1039.9385],[28.1671,-2.046,1121.2317],[28.1586,-2.0478,1053.2526],[28.1475,-2.0469,1135.5555],[28.0998,-2.0658,1178.588],[28.1001,-2.0474,1141.3141],[28.0949,-2.0251,1090.3444],[28.1008,-2.0083,1098.1804],[28.0871,-1.9987,1122.3],[28.0777,-1.9986,1134.3143],[28.043,-2.004,1154.2064],[28.0116,-2.0118,1151.448],[27.9979,-2.0324,1166.619],[27.9906,-2.0252,1173.6018],[27.9886,-2.0085,1164.9568],[27.9847,-2.0068,1174.7661],[27.9737,-2.0092,1164.3087],[27.962,-2.0163,1264.722],[27.9498,-2.0002,1215.9884],[27.9087,-1.9992,1233.5955],[27.885,-2.0015,1056.9869],[27.8616,-2.0133,1064.2559],[27.8384,-2.0339,1142.4019],[27.8155,-2.0329,1079.7817],[27.7846,-2.0288,1084.5872],[27.7397,-2.0006,1126.5321],[27.3809,-1.9912,861.2607],[27.3749,-1.9999,812.6152],[27.3783,-2.0062,794.6337],[27.3936,-2.0169,870.834],[27.4351,-2.0291,933.3297],[27.4564,-2.0291,989.9122],[27.4724,-2.0339,1173.6101],[27.4736,-2.041,1159.7585],[27.4678,-2.0584,1026.0798],[27.453,-2.0843,1186.7323],[27.4461,-2.1072,1266.9749],[27.4534,-2.1205,1282.22],[27.4526,-2.1305,1251.0953],[27.4238,-2.1438,1246.818],[27.4087,-2.1557,928.1658],[27.3847,-2.1671,684.9468],[27.3688,-2.1642,698.8289],[27.353,-2.1653,603.3686],[27.3192,-2.196,595.7641],[27.2946,-2.2293,600.0555],[27.288,-2.2421,600.9805],[27.2789,-2.2389,595.8716],[27.2709,-2.2384,569.9266],[27.2686,-2.2338,550.0],[27.2688,-2.2293,559.86],[27.2642,-2.2266,552.3969],[27.2601,-2.2273,555.9791],[27.2558,-2.2306,565.8929],[27.2521,-2.2411,560.1685],[27.243,-2.2487,574.2808],[27.2412,-2.2538,579.1485],[27.2412,-2.2664,566.03],[27.24,-2.2701,554.3724],[27.2375,-2.2713,581.5054],[27.2314,-2.2693,555.6953],[27.2284,-2.2635,552.3561],[27.2292,-2.2496,576.5239],[27.2273,-2.2385,563.9773],[27.2201,-2.2348,547.0],[27.2124,-2.2333,547.0],[27.2092,-2.2362,572.6022],[27.2084,-2.2408,565.6023],[27.2065,-2.2427,552.6624],[27.2032,-2.2385,549.8784],[27.2038,-2.2258,546.5],[27.2025,-2.2237,561.2127],[27.1995,-2.2245,577.64],[27.1959,-2.2327,554.7079],[27.1937,-2.2343,549.4882],[27.1883,-2.2335,551.5224],[27.1873,-2.2277,546.0],[27.1974,-2.2222,549.7887],[27.1965,-2.2186,551.8639],[27.1908,-2.2191,560.5491],[27.183,-2.2227,578.1923],[27.1804,-2.2285,558.5374],[27.1804,-2.2389,550.2302],[27.1761,-2.2416,566.0753],[27.1726,-2.2394,545.0],[27.1711,-2.2353,554.0484],[27.1719,-2.2288,554.5869],[27.1757,-2.2196,574.5969],[27.1714,-2.2165,544.5],[27.1681,-2.2182,544.9358],[27.1683,-2.2215,546.325],[27.1662,-2.2247,562.1078],[27.159,-2.2218,544.5],[27.1548,-2.2226,574.4193],[27.1528,-2.2258,570.5331],[27.1523,-2.2344,548.2042],[27.15,-2.2349,557.3795],[27.1474,-2.2307,548.2725],[27.153,-2.219,564.3098],[27.153,-2.2138,565.1974],[27.1448,-2.2119,552.9335],[27.1401,-2.2127,563.3871],[27.1231,-2.2232,545.4376],[27.1224,-2.2272,546.8751],[27.1253,-2.2348,544.9613],[27.1236,-2.2366,547.6528],[27.1168,-2.2332,545.1036],[27.1108,-2.224,551.7405],[27.1168,-2.2132,548.7585],[27.116,-2.2104,555.1571],[27.1056,-2.2085,552.0685],[27.0987,-2.2037,549.1709],[27.0922,-2.2032,542.5],[27.0879,-2.2052,542.5],[27.079,-2.2006,557.1292],[27.0752,-2.2015,546.3043],[27.0713,-2.2084,559.263],[27.0662,-2.2105,546.361],[27.0624,-2.207,547.8632],[27.0604,-2.2021,568.1133],[27.0606,-2.1892,560.9144],[27.0565,-2.1784,548.4218],[27.0503,-2.1784,550.3682],[27.0433,-2.1761,541.0],[27.038,-2.1715,541.9354],[27.0372,-2.165,541.0],[27.0351,-2.1645,554.4945],[27.0291,-2.1676,546.5261],[27.0237,-2.1645,545.5711],[27.0208,-2.1614,554.1272],[27.0198,-2.1499,548.6611],[27.015,-2.1454,540.5],[27.0115,-2.1444,551.3105],[27.01,-2.1374,543.8011],[27.0057,-2.1405,556.5896],[27.004,-2.1499,540.0],[27.001,-2.1515,557.298],[26.9983,-2.1505,565.9522],[26.9957,-2.1482,555.2884],[26.9886,-2.1319,543.3339],[26.9769,-2.1239,546.1127],[26.9748,-2.125,543.5857],[26.9744,-2.1278,542.546],[26.9777,-2.1396,568.454],[26.9843,-2.1479,545.853],[26.9842,-2.1525,550.1771],[26.9826,-2.1546,559.6099],[26.9796,-2.1547,566.4738],[26.9715,-2.1488,565.2549],[26.9688,-2.1424,539.4138],[26.969,-2.1347,537.0],[26.9662,-2.1299,549.1472],[26.9633,-2.1291,546.2108],[26.9584,-2.1381,554.756],[26.9478,-2.144,536.1188],[26.9448,-2.1509,547.8804],[26.9376,-2.1504,535.3859],[26.9366,-2.154,554.6351],[26.9346,-2.1554,549.8878],[26.9396,-2.1613,534.8031],[26.9391,-2.1644,540.2938],[26.9343,-2.1678,560.7347],[26.932,-2.1723,540.0383],[26.9338,-2.1757,546.1753],[26.9369,-2.1761,558.5051],[26.9374,-2.1823,545.3212],[26.932,-2.181,535.8992],[26.9257,-2.1736,526.625],[26.919,-2.1702,530.7211],[26.9158,-2.1607,532.8575],[26.9131,-2.1584,532.361],[26.9061,-2.1614,533.3379],[26.8965,-2.1558,533.6402],[26.8928,-2.1555,535.3242],[26.8784,-2.1569,531.0154],[26.873,-2.1613,544.648],[26.8717,-2.1588,527.6603],[26.868,-2.1589,528.5783],[26.8656,-2.165,555.6122],[26.8645,-2.1856,563.6314],[26.8581,-2.2141,571.1389],[26.8512,-2.2887,648.6768],[26.8521,-2.2958,662.3107],[26.8578,-2.3022,588.4764],[26.862,-2.3133,582.7151],[26.8614,-2.3228,575.0119],[26.8567,-2.331,554.1591],[26.854,-2.3312,546.8438],[26.8512,-2.3338,572.41],[26.848,-2.3335,552.6018],[26.8446,-2.3388,566.3103],[26.8357,-2.3352,546.4736],[26.8325,-2.3396,565.401],[26.829,-2.3393,568.732],[26.8261,-2.3347,566.6821],[26.8235,-2.3352,560.827],[26.8206,-2.3405,558.5137],[26.8106,-2.3398,549.1139],[26.814,-2.3514,683.8459],[26.8214,-2.3656,579.2842],[26.8241,-2.3783,591.902],[26.8182,-2.3958,684.0184],[26.8202,-2.4465,659.525],[26.8269,-2.4632,627.6861],[26.856,-2.4942,620.0947],[26.8706,-2.5425,567.76],[26.871,-2.5632,562.1751],[26.8657,-2.5719,560.6243],[26.8549,-2.5798,571.048],[26.8544,-2.5917,563.0877],[26.8598,-2.6021,534.6735],[26.8563,-2.6062,535.9666],[26.8642,-2.6088,523.4848],[26.8816,-2.6449,566.9943],[26.8898,-2.6544,596.2563],[26.905,-2.6647,608.2236],[26.91,-2.6782,773.6276],[26.9007,-2.6861,744.3044],[26.9057,-2.6956,638.3285],[26.9429,-2.7124,659.7887],[26.9458,-2.7397,607.6439],[26.9383,-2.7497,596.5634],[26.9371,-2.7628,595.8159],[26.9333,-2.7683,600.6802],[26.9335,-2.7724,588.5587],[26.9317,-2.7764,592.1932],[26.927,-2.7824,582.8538],[26.9198,-2.7877,589.1671],[26.9187,-2.7913,581.7208],[26.9155,-2.7941,582.3574],[26.9183,-2.7978,583.4535],[26.9151,-2.8042,574.1376],[26.9162,-2.8075,578.8954],[26.9449,-2.8201,590.8533],[26.9571,-2.8368,598.8281],[26.9617,-2.863,657.5552],[26.9758,-2.9026,614.4119],[26.9798,-2.9288,576.5747],[26.9912,-2.9421,570.1018],[26.9984,-2.9455,588.3951],[27.0014,-2.959,534.7244],[27.0159,-2.9611,524.2006],[27.0208,-2.9507,527.2532],[27.0245,-2.9492,544.729],[27.0259,-2.952,540.4601],[27.0236,-2.9597,543.977],[27.029,-2.9685,546.4211],[27.034,-2.9722,542.7256],[27.049,-2.9786,546.5561],[27.0538,-2.9827,534.3103],[27.0577,-2.9893,547.7053],[27.0578,-2.9877,540.4082],[27.0582,-3.007,559.7736],[27.0606,-3.021,560.704],[27.054,-3.0289,530.5],[27.058,-3.0413,575.7756],[27.0622,-3.0447,557.4152],[27.0671,-3.0406,538.9001],[27.0729,-3.0411,559.9725],[27.0954,-3.0657,556.3907],[27.0988,-3.0675,554.4048],[27.1137,-3.069,550.1646],[27.1181,-3.0736,550.6026],[27.1199,-3.0796,541.5852],[27.1172,-3.0845,552.9534],[27.1225,-3.0974,578.0385],[27.1211,-3.1052,553.16],[27.1228,-3.1155,580.1018],[27.112,-3.1331,544.1057],[27.1117,-3.1365,559.9429],[27.115,-3.1407,558.9616],[27.1234,-3.1411,566.004],[27.1267,-3.1447,561.8049],[27.1298,-3.1448,551.4226],[27.1317,-3.1517,546.8027],[27.1312,-3.1566,573.2905],[27.1211,-3.17,545.5153],[27.1186,-3.1786,553.7383],[27.1202,-3.1879,560.1024],[27.1225,-3.1897,581.9322],[27.1229,-3.1926,580.2651],[27.1212,-3.2015,566.1304],[27.1255,-3.2022,539.7297],[27.1279,-3.2046,550.7592],[27.1275,-3.2084,546.8126],[27.1233,-3.2131,550.3641],[27.1208,-3.2194,552.8887],[27.1209,-3.2239,545.2448],[27.1167,-3.2294,562.0676],[27.1177,-3.2339,545.5573],[27.1105,-3.2456,554.914],[27.128,-3.2609,564.0334],[27.1374,-3.2623,551.7405],[27.142,-3.2653,551.327],[27.1381,-3.2717,583.0195],[27.1346,-3.2737,579.6183],[27.1347,-3.2826,561.7277],[27.1304,-3.2894,573.1461],[27.1237,-3.2934,548.5706],[27.1205,-3.3023,562.411],[27.1131,-3.3045,563.9514],[27.1109,-3.3081,580.1738],[27.1018,-3.314,557.1865],[27.0991,-3.318,557.8473],[27.0977,-3.3248,575.7924],[27.0954,-3.3272,582.5236],[27.0946,-3.3412,549.9169],[27.105,-3.3637,575.2043],[27.101,-3.3702,556.9444],[27.0919,-3.3788,551.7318],[27.0942,-3.3869,541.8502],[27.1006,-3.3928,547.4391],[27.103,-3.3923,546.7945],[27.104,-3.389,544.8311],[27.1082,-3.3846,552.6422],[27.1117,-3.3847,569.2828],[27.1145,-3.3872,574.6034],[27.1193,-3.4096,538.0],[27.1187,-3.413,571.6456],[27.1146,-3.4164,584.5865],[27.1133,-3.4216,556.8459],[27.1154,-3.4306,546.059],[27.1205,-3.4305,542.3842],[27.1286,-3.4237,538.5],[27.1326,-3.4287,559.5],[27.1298,-3.4431,556.9937],[27.1244,-3.4471,560.9388],[27.1231,-3.4532,563.1129],[27.1191,-3.4572,542.2998],[27.1209,-3.4628,540.798],[27.1202,-3.4714,544.3069],[27.1236,-3.474,543.9901],[27.1236,-3.4797,541.9046],[27.1297,-3.4839,541.7722],[27.1289,-3.4884,539.5],[27.1336,-3.4989,552.9074],[27.1279,-3.5125,572.981],[27.129,-3.5218,570.0714],[27.1269,-3.5279,570.3227],[27.1285,-3.5319,561.5202],[27.1259,-3.5314,548.2947],[27.1223,-3.5361,563.1152],[27.1189,-3.5369,551.6156],[27.1168,-3.5397,551.3873],[27.1183,-3.5414,553.9734],[27.1183,-3.5452,555.009],[27.1203,-3.5469,566.5544],[27.1236,-3.5396,554.5795],[27.1286,-3.5409,560.1489],[27.1352,-3.5388,559.3497],[27.1334,-3.5449,551.7467],[27.135,-3.5465,563.1049],[27.1323,-3.5531,563.9723],[27.1346,-3.5594,584.3309],[27.1311,-3.5597,574.2798],[27.1258,-3.5563,569.2263],[27.1215,-3.5584,574.6752],[27.1217,-3.5617,586.6843],[27.1251,-3.5644,564.6879],[27.1272,-3.5736,566.0422],[27.1228,-3.5739,569.4157],[27.1248,-3.58,563.4182],[27.1191,-3.5801,559.1794],[27.1168,-3.5821,561.5251],[27.1149,-3.5899,565.1146],[27.1164,-3.5929,581.0701],[27.1152,-3.5944,556.3348],[27.1112,-3.5948,565.0587],[27.1106,-3.6048,566.9176],[27.1068,-3.6066,565.3352],[27.1095,-3.6136,569.4471],[27.1029,-3.6169,576.0212],[27.104,-3.6234,594.6587],[27.0993,-3.6235,568.735],[27.0994,-3.6407,572.451],[27.0987,-3.6451,579.1063],[27.0967,-3.6468,567.379],[27.1001,-3.6508,571.4911],[27.0976,-3.6591,588.8838],[27.1002,-3.6625,578.2858],[27.1001,-3.6658,578.8606],[27.0995,-3.6698,596.1948],[27.0959,-3.6741,585.7716],[27.1001,-3.6787,574.0959],[27.0965,-3.6837,589.4591],[27.0927,-3.6855,578.7894],[27.0944,-3.6901,598.8403],[27.0978,-3.688,577.6702],[27.0999,-3.6892,594.2417],[27.097,-3.6913,571.6287],[27.0981,-3.6964,597.0352],[27.0961,-3.6983,580.5964],[27.0988,-3.6999,581.5319],[27.0974,-3.7022,589.439],[27.0922,-3.7,586.9949],[27.0893,-3.7027,577.7744],[27.0885,-3.7055,578.6566],[27.0918,-3.7078,585.8908],[27.0874,-3.7105,583.3119],[27.0876,-3.7138,587.0622],[27.0926,-3.7235,588.0602],[27.0885,-3.725,592.4616],[27.0906,-3.7262,594.9911],[27.0889,-3.728,599.666],[27.0856,-3.7281,600.6932],[27.0908,-3.7327,589.522],[27.0903,-3.735,596.7377],[27.0881,-3.7356,584.0656],[27.0959,-3.7404,594.6805],[27.0995,-3.7514,589.8264],[27.0964,-3.7519,581.985],[27.0966,-3.7534,585.4845],[27.1021,-3.7524,587.5488],[27.1023,-3.7604,590.7881],[27.109,-3.7586,579.9344],[27.1064,-3.7669,589.3148],[27.1125,-3.769,586.9036],[27.1111,-3.771,592.8856],[27.1167,-3.7749,585.3379],[27.1158,-3.7784,590.8368],[27.1122,-3.7802,590.6083],[27.1134,-3.7824,596.4783],[27.1123,-3.7846,598.8653],[27.1164,-3.7855,587.9361],[27.1171,-3.7872,589.3831],[27.1194,-3.7853,581.5292],[27.1216,-3.7863,595.7475],[27.1212,-3.7893,594.1537],[27.1244,-3.7961,597.5372],[27.1288,-3.7978,595.7961],[27.1286,-3.8054,601.795],[27.1321,-3.8048,593.1708],[27.1303,-3.811,619.515],[27.1356,-3.8078,599.219],[27.1431,-3.8116,592.6888],[27.1441,-3.8127,592.6888],[27.1411,-3.8171,601.1502],[27.1412,-3.8204,597.1012],[27.1442,-3.8185,597.7139],[27.1494,-3.819,597.2742],[27.1525,-3.8212,598.5156],[27.1544,-3.8229,596.0627],[27.1597,-3.8376,593.7803],[27.1652,-3.8373,598.3179],[27.1636,-3.839,591.2734],[27.1637,-3.8424,595.6656],[27.1672,-3.8456,602.5078],[27.1635,-3.8446,593.3525],[27.1642,-3.8481,597.3657],[27.1624,-3.8486,597.9005],[27.1624,-3.8502,598.491],[27.1663,-3.8485,605.8386],[27.1669,-3.8496,602.6838],[27.1644,-3.8504,595.9651],[27.1645,-3.8518,606.879],[27.1697,-3.8578,589.7443],[27.1714,-3.8561,602.2676],[27.174,-3.8579,597.0384],[27.1772,-3.8571,597.1807],[27.1758,-3.8611,602.9072],[27.1809,-3.87,595.0383],[27.1811,-3.8736,605.7787],[27.1861,-3.8769,608.1346],[27.1873,-3.8795,601.637],[27.1859,-3.8831,589.6772],[27.1879,-3.8842,589.6772],[27.1871,-3.8866,589.6662],[27.1887,-3.8893,592.6438],[27.1912,-3.8877,588.5719],[27.1912,-3.889,593.5322],[27.1933,-3.8877,590.9208],[27.1925,-3.8892,591.4573],[27.1946,-3.8891,592.2422],[27.1949,-3.8876,589.6112],[27.1975,-3.8884,591.042],[27.201,-3.8927,591.736],[27.202,-3.8913,591.736],[27.2039,-3.8946,605.9449],[27.2056,-3.8943,591.5158],[27.2064,-3.8973,604.6814],[27.2093,-3.8964,590.5803],[27.2101,-3.8988,598.2822],[27.2117,-3.8968,591.7343],[27.2109,-3.8979,591.7343],[27.2138,-3.8999,595.8094],[27.2143,-3.8985,590.0758],[27.2175,-3.8996,601.3024],[27.2177,-3.8977,601.0345],[27.2207,-3.8987,598.4994],[27.2201,-3.897,592.5178],[27.2218,-3.8952,592.6169],[27.2218,-3.8975,597.6945],[27.2247,-3.8955,596.1558],[27.2271,-3.898,606.4263],[27.2285,-3.8955,595.6241],[27.2317,-3.8972,595.7354],[27.2323,-3.8992,600.5139],[27.2342,-3.898,593.1818],[27.2347,-3.9011,602.9691],[27.236,-3.9,594.8068],[27.2376,-3.9015,604.2338],[27.2379,-3.8995,613.6342],[27.2391,-3.9016,604.2338],[27.2444,-3.9005,599.9644],[27.2497,-3.9045,598.8451],[27.2501,-3.9026,599.1245],[27.2523,-3.9019,596.7156],[27.2534,-3.9033,600.6404],[27.2607,-3.9031,611.2508],[27.2617,-3.9009,605.6954],[27.2604,-3.8994,601.2587],[27.2623,-3.899,608.229],[27.2637,-3.9043,603.5561],[27.2668,-3.9051,600.4209],[27.2689,-3.9085,609.6083],[27.2753,-3.908,609.7136],[27.2773,-3.9121,606.0469],[27.2806,-3.9133,609.4199],[27.2777,-3.9185,606.5331],[27.2803,-3.9167,598.1593],[27.2801,-3.9187,602.2363],[27.2816,-3.9186,600.566],[27.2814,-3.9171,597.9467],[27.2842,-3.9164,602.3652],[27.2882,-3.9176,602.6229],[27.2902,-3.9202,608.1624],[27.2915,-3.9187,602.0564],[27.2918,-3.9205,604.8467],[27.2961,-3.9171,606.1091],[27.2981,-3.918,610.0482],[27.3016,-3.916,601.2627],[27.304,-3.9162,605.179],[27.3034,-3.9187,604.4507],[27.3054,-3.9168,603.6941],[27.3097,-3.918,609.3566],[27.3125,-3.9154,603.6013],[27.3157,-3.9173,606.1895],[27.3164,-3.9156,602.9433],[27.3169,-3.917,606.1895],[27.3191,-3.9167,602.2844],[27.3184,-3.9186,607.7443],[27.3209,-3.9201,605.0814],[27.3203,-3.9219,610.3278],[27.3223,-3.9229,605.975],[27.324,-3.9215,608.0412],[27.3278,-3.9254,611.4226],[27.3295,-3.9223,612.5033],[27.3304,-3.9243,607.3254],[27.3346,-3.9243,606.9605],[27.3346,-3.9271,609.8887],[27.338,-3.9248,607.0474],[27.3368,-3.9277,607.55],[27.3388,-3.9305,613.9535],[27.3466,-3.9353,612.7668],[27.3592,-3.9354,618.7376],[27.3606,-3.9341,610.1984],[27.3613,-3.9354,612.8192],[27.3627,-3.9342,612.5342],[27.3651,-3.9381,627.9977],[27.3685,-3.9389,631.8296],[27.3703,-3.9355,617.0524],[27.3758,-3.9354,620.8699],[27.3791,-3.9379,625.3118],[27.3822,-3.9353,623.6647],[27.3866,-3.9353,624.6745],[27.386,-3.9395,625.4897],[27.3904,-3.9389,621.9465],[27.3953,-3.941,629.6022],[27.3995,-3.9452,624.8276],[27.4002,-3.9498,624.3839],[27.4031,-3.9497,625.2438],[27.4126,-3.9573,630.7402],[27.4143,-3.9564,645.8237],[27.4133,-3.9604,629.4965],[27.4184,-3.9617,633.2528],[27.4169,-3.9647,628.844],[27.4244,-3.9685,629.2384],[27.4226,-3.9737,638.0803],[27.426,-3.9744,635.3735],[27.4263,-3.9765,631.468],[27.4314,-3.9814,640.5382],[27.436,-3.98,628.9871],[27.4425,-3.9834,631.5302],[27.4472,-3.9902,633.1966],[27.4459,-3.9913,637.6318],[27.4469,-3.9944,635.7798],[27.4491,-3.992,635.4564],[27.4516,-3.9966,635.7681],[27.4594,-3.9799,642.1613],[27.4638,-3.9769,650.2177],[27.4772,-3.9769,665.6206],[27.5313,-3.9934,733.7865],[27.5806,-3.9949,939.8859],[27.5973,-4.0099,858.5458],[27.6185,-4.0204,1136.6938],[27.6364,-4.0219,848.835],[27.7672,-4.004,889.924],[27.7986,-4.004,1321.1727],[27.8183,-4.019,1022.549],[27.8378,-4.0224,1128.98],[27.8271,-4.0442,795.2715],[27.8281,-4.0544,787.3142],[27.8233,-4.0587,772.2723],[27.8223,-4.0704,740.2667],[27.8336,-4.0791,753.8402],[27.8343,-4.0899,700.4431],[27.8385,-4.0923,697.7235],[27.8415,-4.0919,697.324],[27.8418,-4.0943,692.0034],[27.8472,-4.0971,699.9425],[27.8461,-4.0985,706.7994],[27.8509,-4.099,691.5068],[27.8543,-4.1016,686.7771],[27.8542,-4.1042,694.6486],[27.8586,-4.1063,693.1458],[27.8584,-4.1096,706.7053],[27.8604,-4.1116,695.2814],[27.8655,-4.1144,689.5251],[27.8742,-4.1132,690.3369],[27.8755,-4.1165,697.6592],[27.8781,-4.1151,682.8431],[27.8834,-4.1157,677.5497],[27.8876,-4.1193,671.8529],[27.8924,-4.1193,686.0599],[27.8951,-4.1257,682.4146],[27.8988,-4.1221,670.758],[27.8997,-4.1237,676.4534],[27.903199999999998,-4.1225,670.097],[27.9048,-4.1243,670.1573],[27.9106,-4.1241,665.0603],[27.9136,-4.1287,681.8134],[27.9155,-4.1251,674.9923],[27.919,-4.1245,677.5744],[27.924,-4.1256,672.069],[27.9251,-4.1274,664.9698],[27.9307,-4.1265,676.5217],[27.9337,-4.128,688.6641],[27.9366,-4.1259,672.5789],[27.9422,-4.1272,687.7369],[27.9408,-4.1258,675.4136],[27.9414,-4.1221,663.2521],[27.9435,-4.1213,666.1081],[27.9437,-4.1223,666.1081],[27.9669,-4.105,704.7537],[27.9857,-4.109,696.3254],[27.9831,-4.1114,700.9994],[28.0034,-4.1189,686.683],[28.0362,-4.1225,694.9024],[28.0336,-4.1339,650.2431],[28.0298,-4.1395,658.8965],[28.0166,-4.1458,656.9572],[28.0225,-4.1552,651.9155],[28.0244,-4.1631,651.6546],[28.0239,-4.1662,651.5719],[28.0163,-4.1712,662.2222],[28.0215,-4.175,668.9445],[28.0168,-4.1847,672.6068],[28.0178,-4.1909,657.3793],[28.0246,-4.1899,658.6113],[28.031,-4.1856,661.3903],[28.0372,-4.1903,665.147],[28.0392,-4.19,664.7507],[28.0494,-4.1806,663.4386],[28.0552,-4.1839,661.9886],[28.0611,-4.1835,660.4916],[28.0659,-4.1872,660.3239],[28.0743,-4.1895,659.5176],[28.0719,-4.1963,683.145],[28.0829,-4.1961,664.0667],[28.0936,-4.2086,660.8636],[28.1001,-4.2128,662.916],[28.104,-4.2111,668.6708],[28.1068,-4.2119,660.2317],[28.1148,-4.2195,672.6978],[28.1161,-4.2258,664.6929],[28.1179,-4.227,673.5669],[28.1214,-4.2261,668.5875],[28.1263,-4.2156,662.0544],[28.1297,-4.2164,673.006],[28.1361,-4.2238,657.8899],[28.1375,-4.2226,663.4471],[28.1457,-4.223,674.2907],[28.1512,-4.2209,670.9592],[28.158,-4.214,666.4709],[28.1605,-4.2131,665.3096],[28.16,-4.2146,670.4308],[28.1617,-4.2157,674.9457],[28.1622,-4.2134,667.3124],[28.166,-4.2119,679.7111],[28.1692,-4.2051,673.4104],[28.1697,-4.1972,674.5955],[28.1756,-4.1909,671.9407],[28.1748,-4.1856,674.412],[28.1783,-4.1855,681.8591],[28.1768,-4.1822,676.0788],[28.1742,-4.1809,676.3646],[28.1755,-4.178,674.4564],[28.1791,-4.1759,681.3481],[28.1822,-4.1686,687.9903],[28.1823,-4.1672,683.1691],[28.1796,-4.1673,681.7793],[28.179,-4.1647,684.6145],[28.1808,-4.1602,679.6942],[28.1851,-4.1573,706.5897],[28.1746,-4.1363,769.1133],[28.1812,-4.123,801.3798],[28.186,-4.1192,804.4875],[28.1982,-4.1213,896.9669],[28.2052,-4.1266,811.4088],[28.2103,-4.1366,763.8055],[28.2172,-4.1594,730.7849],[28.2247,-4.178,811.0885],[28.2427,-4.1996,880.5458],[28.3076,-4.2431,810.8165],[28.3584,-4.282,1022.082],[28.3733,-4.2731,968.7682],[28.3789,-4.2744,907.4004],[28.3935,-4.3038,780.2521],[28.3971,-4.3061,779.0209],[28.3997,-4.3171,740.7906],[28.3974,-4.3217,767.9738],[28.4,-4.327,795.8709],[28.3964,-4.3348,745.6713],[28.4036,-4.3599,713.0687],[28.4025,-4.3642,723.6155],[28.4168,-4.3751,753.6234],[28.4457,-4.3873,765.1503],[28.4808,-4.3967,1133.3656],[28.4918,-4.4085,1081.6349],[28.4939,-4.4546,801.5054],[28.5034,-4.461,824.8276],[28.513,-4.4595,827.5289],[28.5531,-4.4601,1133.1052],[28.5546,-4.4642,1152.4578],[28.5528,-4.5234,832.1447],[28.5674,-4.5406,1006.0722],[28.6073,-4.6766,757.4526],[28.6138,-4.6861,738.1517],[28.6196,-4.6913,736.066],[28.6305,-4.6983,730.1743],[28.6335,-4.6978,735.4588],[28.6349,-4.701,730.7498],[28.6461,-4.7015,732.8291],[28.6477,-4.7033,731.6094],[28.6556,-4.7033,722.4321],[28.6569,-4.7058,734.8166],[28.6593,-4.7057,742.3528],[28.6639,-4.7108,732.1385],[28.6634,-4.7145,729.0612],[28.6655,-4.7206,740.5938],[28.6694,-4.7246,743.1779],[28.6747,-4.7257,744.3922],[28.6744,-4.73,735.0692],[28.677,-4.7309,736.4922],[28.6776,-4.7359,738.3423],[28.6818,-4.7396,744.2859],[28.6838,-4.7396,741.9424],[28.6795,-4.7507,745.5567],[28.6834,-4.7535,743.6465],[28.685,-4.7522,742.5829],[28.689,-4.756,746.6987],[28.6847,-4.7685,742.7585],[28.6877,-4.774,741.8904],[28.687,-4.7773,741.4099],[28.685,-4.7781,741.8836],[28.6871,-4.7821,743.6823],[28.6899,-4.7995,752.0229],[28.6964,-4.801,749.9908],[28.6973,-4.8029,748.4248],[28.6951,-4.81,753.644],[28.6978,-4.8091,747.4037],[28.7039,-4.8108,752.1163],[28.7161,-4.82,754.0186],[28.7173,-4.825,756.9136],[28.7163,-4.8264,759.749],[28.7138,-4.826,760.1927],[28.7125,-4.8284,757.7698],[28.7117,-4.8304,758.2124],[28.7132,-4.8342,760.431],[28.7188,-4.8395,762.8098],[28.7281,-4.8449,773.885],[28.7269,-4.8482,770.181],[28.7347,-4.8489,768.2233],[28.7373,-4.853,765.7739],[28.7377,-4.8587,769.2207],[28.7411,-4.8631,769.3768],[28.7388,-4.8655,766.625],[28.7417,-4.8693,783.7247],[28.7414,-4.8726,772.55],[28.7438,-4.8733,791.7443],[28.7417,-4.8761,767.9682],[28.7458,-4.8817,793.0391],[28.7462,-4.8902,774.8671],[28.7506,-4.8979,778.8479],[28.7493,-4.8985,776.799],[28.75,-4.9009,779.6196],[28.7526,-4.9024,781.3268],[28.7522,-4.9039,778.2141],[28.7609,-4.9077,783.5723],[28.7682,-4.9142,783.1412],[28.7689,-4.9178,785.7352],[28.7555,-4.9237,788.8418],[28.7572,-4.9271,790.5118],[28.757,-4.9334,792.6345],[28.76,-4.9388,789.9044],[28.7539,-4.9429,799.7997],[28.752,-4.9425,797.3423],[28.751,-4.9452,796.3853],[28.7491,-4.9437,794.5852],[28.7489,-4.9472,794.9669],[28.7515,-4.9505,800.8987],[28.7546,-4.9609,812.2175],[28.7615,-4.9605,810.0402],[28.7645,-4.9654,809.8663],[28.7696,-4.9673,812.9604],[28.7719,-4.967,802.6052],[28.7726,-4.9651,802.5782],[28.7767,-4.966,833.2871],[28.7776,-4.9669,804.0557],[28.7758,-4.9679,804.0203],[28.775,-4.9713,820.3133],[28.7713,-4.973,814.2568],[28.7761,-4.9838,819.9263],[28.785,-4.9943,817.0154],[28.7887,-4.9912,835.3302],[28.7957,-4.9935,822.4044],[28.8014,-5.0012,835.1925],[28.8035,-5.0103,832.5951],[29.3721,-5.0079,770.0],[29.3713,-5.0009,770.0],[29.3576,-4.9563,770.0],[29.3372,-4.8536,770.0],[29.3285,-4.7741,770.0],[29.3272,-4.6989,770.0],[29.3356,-4.6514,770.0],[29.3719,-4.5677,770.0],[29.3864,-4.5407,770.0],[29.3943,-4.5054,770.0],[29.3901,-4.4327,770.0],[29.3904,-4.389,770.0],[29.3879,-4.3578,770.0],[29.3889,-4.3381,770.0],[29.3821,-4.2108,770.0],[29.3788,-4.1758,770.0],[29.3687,-4.1194,770.0],[29.3678,-4.1,770.0],[29.3613,-4.0854,770.0],[29.3478,-4.0414,770.0],[29.3439,-4.0337,770.0],[29.327,-4.012,770.0],[29.3059,-3.9895,770.0],[29.2843,-3.9733,770.0],[29.2642,-3.9426,770.0],[29.2537,-3.9181,770.0],[29.2446,-3.8753,770.0],[29.2402,-3.8432,770.0],[29.2399,-3.829,770.0],[29.2318,-3.7905,770.0],[29.2417,-3.7185,770.0],[29.2431,-3.6538,770.0],[29.2455,-3.6422,770.0],[29.2413,-3.5609,770.0],[29.2382,-3.5211,770.0],[29.2327,-3.4882,770.0],[29.2276,-3.4745,770.0],[29.2196,-3.4261,770.0],[29.2102,-3.3939,770.0],[29.2041,-3.362,770.0],[29.2036,-3.3488,771.8445]]],
[[[29.217,-3.3233,774.9601],[29.2242,-3.3245,775.0054],[29.225,-3.3174,775.2841],[29.2145,-3.3171,776.0373],[29.217,-3.3233,774.9601]]],
[[[29.2414,-3.2708,779.1592],[29.241,-3.269,778.2041],[29.2374,-3.2711,778.5055],[29.2387,-3.2773,778.729],[29.2277,-3.2842,778.4387],[29.2264,-3.2906,777.805],[29.229,-3.2907,777.8052],[29.2296,-3.2844,778.1273],[29.2405,-3.2782,780.3975],[29.2389,-3.2727,778.3134],[29.2414,-3.2708,779.1592]]]]}
,"properties": {"GID_1": "COD.22_1","GID_0": "COD","country": "DemocraticRepublicoftheCongo","province": "Sud-Kivu","VARNAME_1": "NA","NL_NAME_1": "NA","TYPE_1": "Province","ENGTYPE_1": "Province","CC_1": "NA","HASC_1": "CD.SK","ISO_1": "CD-SK","name": "Sud-Kivu.province","area_km2": 64435.4,"hist_schema_id": "Elevation0-9000","hist_area_km2": {"525": 16.24,"550": 297.29,"575": 1538.74,"600": 2456.91,"625": 2363.55,"650": 2262.37,"675": 1775.34,"700": 1480.54,"725": 1391.3,"750": 1221.24,"775": 5056.0,"800": 1280.48,"825": 1064.16,"850": 962.69,"875": 962.19,"900": 946.37,"925": 922.25,"950": 892.79,"975": 902.99,"1000": 919.28,"1025": 928.98,"1050": 920.13,"1075": 1035.43,"1100": 1012.09,"1125": 1000.27,"1150": 975.03,"1175": 996.06,"1200": 970.42,"1225": 905.06,"1250": 854.28,"1275": 837.18,"1300": 773.17,"1325": 731.07,"1350": 744.15,"1375": 728.74,"1400": 691.69,"1425": 654.13,"1450": 2028.6,"1475": 674.81,"1500": 612.12,"1525": 584.48,"1550": 588.82,"1575": 577.6,"1600": 558.66,"1625": 549.95,"1650": 529.94,"1675": 513.29,"1700": 498.4,"1725": 479.02,"1750": 472.04,"1775": 474.22,"1800": 486.18,"1825": 537.58,"1850": 537.44,"1875": 488.07,"1900": 453.61,"1925": 458.04,"1950": 449.42,"1975": 429.41,"2000": 374.63,"2025": 338.85,"2050": 319.01,"2075": 317.5,"2100": 305.64,"2125": 301.27,"2150": 302.54,"2175": 304.15,"2200": 298.13,"2225": 270.75,"2250": 275.32,"2275": 272.35,"2300": 264.66,"2325": 250.26,"2350": 242.89,"2375": 263.88,"2400": 235.42,"2425": 217.3,"2450": 200.64,"2475": 178.54,"2500": 156.25,"2525": 137.72,"2550": 123.05,"2575": 111.45,"2600": 96.8,"2625": 98.62,"2650": 125.21,"2675": 112.84,"2700": 112.54,"2725": 113.83,"2750": 112.05,"2775": 114.29,"2800": 116.56,"2825": 112.47,"2850": 111.88,"2875": 106.98,"2900": 99.76,"2925": 91.27,"2950": 80.1,"2975": 65.62,"3000": 54.32,"3025": 45.19,"3050": 34.86,"3075": 26.99,"3100": 20.91,"3125": 17.21,"3150": 13.95,"3175": 11.75,"3200": 8.68,"3225": 6.56,"3250": 4.28,"3275": 1.55,"3300": 0.78,"3325": 0.76,"3350": 0.8,"3375": 0.55,"3400": 0.51}}}