{"type":"Feature","properties":{"GID_1":"COD.2_1","GID_0":"COD","country":"DemocraticRepublicoftheCongo","province":"Équateur","VARNAME_1":"NA","NL_NAME_1":"NA","TYPE_1":"Province","ENGTYPE_1":"Province","CC_1":"NA","HASC_1":"CD.ET","ISO_1":"NA","name":"Équateur.province"},
"geometry":{"type": "MultiPolygon","coordinates": [[[[17.1136,-1.7864,414.4747],[17.4808,-1.5047,367.7958],[17.5064,-1.4798,331.7031],[17.5204,-1.4777,324.892],[17.5459,-1.4778,334.8222],[17.5543,-1.4753,320.6783],[17.5777,-1.4623,315.1546],[17.5909,-1.4576,339.3481],[17.6127,-1.4581,323.5045],[17.621,-1.4519,324.5537],[17.6328,-1.4476,325.8627],[17.7102,-1.4279,319.0515],[17.7186,-1.4229,320.2702],[17.7237,-1.4169,319.3427],[17.7321,-1.4115,319.8639],[17.8835,-1.3799,310.5075],[17.9104,-1.3763,306.3255],[18.0371,-1.2779,320.2425],[18.1202,-1.212,326.1195],[18.1275,-1.2044,335.2279],[18.1301,-1.1699,317.8328],[18.134,-1.16,316.437],[18.1309,-1.1126,339.3347],[18.1315,-1.1064,325.7026],[18.137,-1.1028,322.4621],[18.1562,-1.1036,323.7177],[18.1707,-1.1074,327.027],[18.1858,-1.1056,335.073],[18.2053,-1.1069,327.6557],[18.2453,-1.1148,326.0301],[18.2878,-1.1166,325.7464],[18.3148,-1.1197,325.7999],[18.3285,-1.123,330.6695],[18.3334,-1.126,326.5373],[18.3522,-1.1452,322.0665],[18.36,-1.1504,344.1011],[18.3749,-1.1556,333.3586],[18.3929,-1.173,336.6539],[18.406,-1.1804,337.8392],[18.4384,-1.1881,334.4058],[18.446,-1.1935,328.0558],[18.4523,-1.2061,333.707],[18.4746,-1.2315,325.0732],[18.4952,-1.2413,326.0521],[18.5134,-1.257,336.3865],[18.5223,-1.2608,319.9337],[18.5296,-1.2603,318.9172],[18.5412,-1.255,319.9839],[18.554,-1.2549,328.6306],[18.5662,-1.2603,317.8812],[18.5721,-1.2608,323.1081],[18.5844,-1.2554,314.3871],[18.5984,-1.2539,325.8941],[18.618,-1.2485,303.9332],[18.6414,-1.2364,311.2434],[18.6601,-1.234,315.0139],[18.6772,-1.2263,317.2463],[18.6973,-1.2213,320.7128],[18.7094,-1.2208,323.1634],[18.7263,-1.2229,333.0599],[18.7511,-1.2354,338.5952],[18.7611,-1.2363,326.433],[18.72,-1.183,315.861],[18.733,-1.144,320.6429],[18.745,-1.118,316.4364],[18.798,-1.144,319.1015],[18.83,-1.184,317.8888],[18.871,-1.166,318.0314],[18.869,-1.133,321.6628],[18.851,-1.078,330.9145],[18.818,-1.038,325.1541],[18.752,-1.023,330.3184],[18.743,-1.012,335.2134],[18.749,-0.935,355.8921],[18.769,-0.868,355.2867],[18.793,-0.822,368.414],[18.8824,-0.8153,353.9601],[18.8975,-0.8174,385.6209],[18.9278,-0.8264,355.4337],[18.9483,-0.8282,367.5804],[18.9524,-0.8263,363.9368],[19.0,-0.8195,369.8706],[19.0097,-0.8161,370.3553],[19.0363,-0.7922,339.3382],[19.0562,-0.7868,332.8653],[19.0606,-0.7836,333.2939],[19.0691,-0.7722,332.2327],[19.0786,-0.7507,332.5104],[19.0816,-0.736,342.5049],[19.0904,-0.7405,339.2679],[19.1029,-0.7561,333.1014],[19.1218,-0.7746,327.6815],[19.1399,-0.7972,328.4681],[19.1829,-0.8744,337.8406],[19.1903,-0.8927,337.2552],[19.1974,-0.9285,333.3059],[19.2042,-1.0212,354.6561],[19.2068,-1.0406,354.9889],[19.2116,-1.0484,363.9298],[19.2168,-1.0521,360.5695],[19.2718,-1.0529,345.5995],[19.281,-1.0562,350.0154],[19.2884,-1.0609,348.1058],[19.301,-1.0772,343.6652],[19.3114,-1.104,342.8277],[19.337,-1.186,342.8636],[19.3503,-1.2135,345.935],[19.3774,-1.2884,328.4109],[19.3918,-1.3441,324.433],[19.4157,-1.3941,327.6563],[19.4272,-1.4228,324.1511],[19.4334,-1.4247,327.5531],[19.4388,-1.4096,329.2922],[19.4463,-1.3977,330.8359],[19.4836,-1.3207,356.9755],[19.5043,-1.2828,350.0928],[19.5144,-1.2571,353.4493],[19.5243,-1.2452,333.9342],[19.5339,-1.2368,334.0031],[19.5388,-1.2292,344.0636],[19.5452,-1.2263,342.1297],[19.5569,-1.2098,346.0576],[19.5895,-1.1833,357.3746],[19.5987,-1.1767,347.1399],[19.6104,-1.1711,336.7981],[19.6125,-1.1596,337.9174],[19.6106,-1.1352,334.0941],[19.6153,-1.109,332.7493],[19.607,-1.0814,337.6113],[19.612,-1.0467,336.2686],[19.6072,-1.0456,337.9816],[19.6061,-1.0421,338.9759],[19.6077,-1.0368,338.3302],[19.6107,-1.0339,337.724],[19.6097,-1.0139,315.5],[19.6017,-0.978,331.931],[19.6109,-0.9755,330.2891],[19.6521,-0.978,337.5482],[19.6786,-0.9853,342.1691],[19.6886,-0.9921,341.1432],[19.6876,-1.0081,351.7507],[19.6733,-1.0359,345.418],[19.6712,-1.0499,344.0416],[19.6716,-1.0597,341.9411],[19.6787,-1.0904,346.9832],[19.6843,-1.1037,348.2008],[19.6845,-1.1095,345.7455],[19.6794,-1.1246,349.7317],[19.6798,-1.1306,350.1163],[19.6845,-1.1449,350.8344],[19.682,-1.1559,348.0388],[19.6956,-1.159,343.679],[19.7036,-1.1629,353.7688],[19.7113,-1.1705,338.2494],[19.7248,-1.1713,347.7836],[19.7612,-1.1578,338.2926],[19.8098,-1.1565,331.5331],[19.848,-1.1576,337.0062],[19.863,-1.1393,342.9031],[19.8822,-1.1307,344.4973],[19.9015,-1.1115,344.9028],[19.9093,-1.1074,373.4843],[19.9155,-1.1063,365.5512],[19.9285,-1.1075,352.4409],[19.9482,-1.098,377.582],[19.9571,-1.0971,369.4088],[19.9719,-1.0983,372.265],[19.9854,-1.0947,382.5232],[20.005,-1.0958,371.3182],[20.0126,-1.0921,351.1331],[20.0497,-1.0809,355.4106],[20.0808,-1.0666,385.1075],[20.0922,-1.0655,349.9965],[20.1186,-1.0438,348.2081],[20.1346,-1.0391,341.4609],[20.1488,-1.0327,344.8638],[20.1566,-1.0265,342.2251],[20.1619,-1.0185,348.5757],[20.1594,-1.0132,340.8398],[20.1444,-0.9987,344.0541],[20.1376,-0.9874,340.4182],[20.1349,-0.9786,339.2492],[20.135,-0.9717,339.3271],[20.1375,-0.9616,343.9278],[20.1362,-0.95009999999999994,332.3922],[20.1374,-0.9451,341.4362],[20.1539,-0.9312,341.6749],[20.1599,-0.9232,340.8769],[20.1668,-0.9032,353.89],[20.1873,-0.8808,346.9777],[20.1919,-0.8721,349.3976],[20.1924,-0.8666,350.272],[20.1904,-0.8588,357.416],[20.1945,-0.8487,364.5432],[20.1918,-0.8397,367.7076],[20.201,-0.8262,356.4571],[20.2176,-0.8109,363.927],[20.2206,-0.8059,363.9283],[20.2234,-0.7912,348.5709],[20.2254,-0.7877,350.7176],[20.244,-0.772,344.9597],[20.2544,-0.758,353.0535],[20.2648,-0.7197,343.5192],[20.2665,-0.7055,344.0601],[20.2724,-0.6938,342.1456],[20.2726,-0.6841,338.1725],[20.2752,-0.6726,343.2848],[20.277,-0.6698,341.7618],[20.2838,-0.6656,348.4835],[20.2809,-0.6603,345.1227],[20.2713,-0.6506,345.9667],[20.2601,-0.6503,344.4214],[20.2556,-0.6482,343.9234],[20.255,-0.6402,343.9149],[20.2495,-0.6353,340.7296],[20.2467,-0.6244,350.9386],[20.2399,-0.617,340.065],[20.2342,-0.614,341.9163],[20.2264,-0.6028,342.9055],[20.2246,-0.603,342.6543],[20.2209,-0.6106,342.7141],[20.2181,-0.6115,341.439],[20.2038,-0.5979,338.9977],[20.1956,-0.596,340.1439],[20.1914,-0.5934,323.0524],[20.1883,-0.5934,325.6676],[20.1837,-0.5996,321.453],[20.1805,-0.6,334.3754],[20.176,-0.5975,339.9274],[20.1737,-0.5933,337.6175],[20.1749,-0.5768,337.1926],[20.1574,-0.5611,335.5423],[20.1563,-0.5576,339.1471],[20.1639,-0.551,333.1218],[20.155,-0.5427,327.7227],[20.1535,-0.5372,337.9149],[20.1555,-0.5285,337.7297],[20.1464,-0.5263,337.5546],[20.1414,-0.5212,336.1309],[20.1298,-0.5152,336.6785],[20.1235,-0.5099,337.077],[20.1205,-0.506,335.9338],[20.1194,-0.4956,336.4743],[20.1211,-0.4883,337.9236],[20.1142,-0.4848,336.9976],[20.1095,-0.4797,333.212],[20.101,-0.4838,331.4681],[20.0974,-0.4815,330.4723],[20.0941,-0.4667,327.5455],[20.0962,-0.458,330.5928],[20.0928,-0.4452,328.2488],[20.0999,-0.4388,335.9959],[20.1054,-0.4188,338.2234],[20.1114,-0.4094,338.0237],[20.1088,-0.3924,333.6494],[20.0863,-0.3737,330.7964],[20.0715,-0.3637,331.4913],[20.0701,-0.3501,331.0993],[20.0643,-0.3426,331.7982],[20.0673,-0.3348,331.9708],[20.0548,-0.3253,330.7164],[20.0542,-0.312,330.4102],[20.0524,-0.3071,329.8992],[20.0497,-0.3067,330.0247],[20.0439,-0.3112,329.6349],[20.0408,-0.3116,329.4213],[20.0382,-0.3116,329.509],[20.0307,-0.3068,329.1595],[20.0257,-0.3068,328.7876],[20.0166,-0.3125,328.2021],[20.0109,-0.3113,328.5151],[19.9952,-0.3011,330.5771],[19.9952,-0.2967,332.8326],[19.9911,-0.2971,330.2144],[19.987,-0.2932,333.9852],[19.9784,-0.2782,327.5725],[19.9748,-0.2762,328.2189],[19.9683,-0.2841,327.3976],[19.9658,-0.283,328.4676],[19.9602,-0.2756,323.8186],[19.9435,-0.2739,329.206],[19.9393,-0.2615,320.4422],[19.9333,-0.2585,326.4835],[19.9254,-0.2577,338.1411],[19.9242,-0.2556,340.2163],[19.9254,-0.2485,329.0609],[19.9227,-0.2425,331.8029],[19.9275,-0.2361,335.7819],[19.9287,-0.229,335.1353],[19.9208,-0.2175,332.2052],[19.9181,-0.206,324.9323],[19.9118,-0.1901,334.4595],[19.9077,-0.1896,335.4995],[19.9017,-0.2029,325.6629],[19.898,-0.2057,325.213],[19.893,-0.2049,325.7727],[19.8883,-0.1885,325.5541],[19.886,-0.1855,325.3969],[19.8838,-0.186,325.4325],[19.875,-0.1991,325.0697],[19.8716,-0.2005,324.9087],[19.8638,-0.1995,325.2383],[19.8602,-0.1956,324.7524],[19.8585,-0.1804,323.538],[19.8539,-0.1774,325.3039],[19.8432,-0.1778,327.9757],[19.8318,-0.1699,330.6225],[19.823,-0.1666,330.3433],[19.8373,-0.1375,337.9037],[19.833,-0.1362,340.8109],[19.8282,-0.1391,335.4013],[19.8252,-0.1361,342.8214],[19.8245,-0.1311,347.7621],[19.8273,-0.1251,346.693],[19.8358,-0.1203,341.5853],[19.8497,-0.1225,337.8597],[19.864,-0.0975,340.5716],[19.8662,-0.096,340.0332],[19.8907,-0.0911,336.6632],[19.897,-0.0938,348.0873],[19.9041,-0.0932,351.1809],[19.91,-0.0967,350.7651],[19.9176,-0.0979,337.1736],[19.9182,-0.107,332.9669],[19.9227,-0.1098,331.8073],[19.9321,-0.1092,333.0811],[19.9422,-0.1019,327.0534],[19.9472,-0.1012,336.2476],[19.9545,-0.105,333.773],[19.9636,-0.1048,344.6484],[19.9697,-0.1074,343.9981],[19.9878,-0.1075,336.0748],[19.9958,-0.11,333.0674],[20.0026,-0.1167,349.7997],[20.0073,-0.1246,347.3932],[20.0113,-0.14,343.1052],[20.0145,-0.146,339.6582],[20.0202,-0.1504,341.9131],[20.025,-0.1506,341.2025],[20.0394,-0.1468,340.9852],[20.0501,-0.1496,342.5764],[20.0675,-0.1685,344.6869],[20.0746,-0.1723,342.7382],[20.0833,-0.1714,346.1343],[20.0908,-0.1677,350.5128],[20.0941,-0.1538,346.7244],[20.0904,-0.1494,344.9728],[20.085,-0.1473,348.6562],[20.0802,-0.1427,345.5729],[20.0788,-0.1459,344.0366],[20.0729,-0.1463,345.3534],[20.0706,-0.1428,346.175],[20.0702,-0.1382,353.5747],[20.0728,-0.1323,347.5908],[20.0787,-0.1273,357.5953],[20.0865,-0.1253,366.1551],[20.1173,-0.1224,373.7009],[20.1259,-0.1236,366.0936],[20.1387,-0.1182,352.3033],[20.1442,-0.118,352.5678],[20.1638,-0.1243,354.3091],[20.1734,-0.1258,360.6655],[20.1887,-0.1199,358.5351],[20.194,-0.1199,352.7894],[20.1989,-0.1227,352.8242],[20.2082,-0.1344,355.234],[20.2091,-0.1409,348.3339],[20.2068,-0.1558,346.3913],[20.1923,-0.1814,353.7561],[20.1897,-0.1913,344.2493],[20.1922,-0.2016,331.9128],[20.196,-0.2085,330.308],[20.2064,-0.2198,330.5621],[20.2135,-0.2217,335.6705],[20.2198,-0.2322,331.3276],[20.2199,-0.2396,333.1776],[20.2248,-0.2445,336.3109],[20.2229,-0.2505,333.5154],[20.2267,-0.2677,330.2999],[20.2299,-0.2712,330.3007],[20.2358,-0.2735,330.806],[20.2443,-0.2745,329.6978],[20.2505,-0.2683,329.8202],[20.2535,-0.2587,333.2672],[20.2572,-0.2527,342.3354],[20.2686,-0.2445,333.7903],[20.2727,-0.245,339.1016],[20.2882,-0.2584,343.7954],[20.2948,-0.2603,333.254],[20.3043,-0.2594,335.9443],[20.3108,-0.2546,334.9312],[20.3154,-0.2471,333.426],[20.3218,-0.2411,331.1938],[20.3259,-0.2402,330.6744],[20.3307,-0.2419,330.2589],[20.3389,-0.249,329.5256],[20.3437,-0.2424,329.6253],[20.3388,-0.2244,329.7039],[20.3355,-0.1944,353.136],[20.339,-0.1629,348.7756],[20.3469,-0.1373,354.2717],[20.3746,-0.1193,349.4371],[20.3806,-0.1122,348.9669],[20.387,-0.1079,347.0961],[20.3996,-0.1029,339.9985],[20.4135,-0.0933,340.6036],[20.4247,-0.0897,338.6954],[20.4369,-0.0778,351.3485],[20.4476,-0.0724,347.3636],[20.4556,-0.0706,343.5079],[20.4579,-0.0749,347.1887],[20.4734,-0.0711,343.6135],[20.5275,-0.0627,349.7999],[20.549,-0.0635,350.7067],[20.5543,-0.0519,350.8644],[20.5764,-0.0187,353.7394],[20.5666,-0.0041,371.4759],[20.562,-0.0016,376.2872],[20.5279,0.0038,372.1366],[20.4722,0.0063,370.6319],[20.4682,0.0092,363.7558],[20.4648,0.0143,351.6594],[20.4637,0.0302,367.1591],[20.4654,0.0351,352.1799],[20.4757,0.0456,372.0432],[20.5372,0.0853,372.6913],[20.564,0.0992,367.0334],[20.5701,0.1057,378.6544],[20.5761,0.1173,397.5278],[20.5767,0.1317,386.5687],[20.5747,0.1381,377.7478],[20.571,0.1425,383.7382],[20.5633,0.145,381.7919],[20.5483,0.1542,376.8109],[20.531,0.1559,373.8214],[20.5173,0.1606,376.5246],[20.5069,0.1665,374.0699],[20.4952,0.176,365.2023],[20.4685,0.2017,367.974],[20.4471,0.242,366.3596],[20.4306,0.2503,363.2056],[20.4265,0.2544,369.3884],[20.4225,0.2629,372.9261],[20.3985,0.2929,374.9294],[20.3919,0.2956,382.9843],[20.379,0.3054,371.9244],[20.379,0.3082,372.235],[20.3762,0.3095,352.0531],[20.3725,0.3161,371.9127],[20.3619,0.3241,379.2764],[20.3578,0.33,374.3979],[20.3535,0.3479,372.1114],[20.3399,0.3595,342.9605],[20.2951,0.3751,344.3822],[20.3017,0.3965,351.808],[20.2977,0.4085,364.8691],[20.3026,0.4191,371.1157],[20.3,0.4276,367.6768],[20.3118,0.4387,377.7299],[20.3207,0.4425,368.8957],[20.3333,0.4607,351.9169],[20.3383,0.4858,361.7732],[20.3416,0.4918,361.5503],[20.3482,0.4953,379.8454],[20.3523,0.4995,380.0911],[20.3588,0.5122,382.0272],[20.3638,0.535,385.8275],[20.357,0.5524,382.7729],[20.3565,0.5673,392.9169],[20.3585,0.5743,397.9565],[20.3713,0.5927,375.0467],[20.4003,0.6277,395.6205],[20.4271,0.6641,371.9436],[20.4301,0.6734,381.6819],[20.4255,0.695,387.7971],[20.421,0.701,392.4283],[20.4201,0.7091,386.6291],[20.4099,0.7324,366.6835],[20.4056,0.7691,387.4602],[20.406,0.8328,355.8274],[20.4,0.8585,360.3605],[20.404,0.8735,358.5181],[20.4052,0.8933,359.2348],[20.4141,0.9108,364.2878],[20.4209,0.9187,353.2813],[20.4279,0.9305,344.4407],[20.4329,0.934,350.082],[20.4337,0.9402,343.6347],[20.4373,0.9441,347.9417],[20.4402,0.958,350.8643],[20.4326,0.9657,344.7566],[20.4312,1.0151,354.1207],[20.4324,1.0347,356.2135],[20.4348,1.0402,356.6188],[20.4378,1.0618,358.6639],[20.4478,1.0732,373.8088],[20.4584,1.0774,361.2674],[20.4702,1.0909,390.9337],[20.4756,1.1001,385.9884],[20.4794,1.1041,376.8065],[20.4881,1.1088,388.248],[20.5049,1.1427,396.562],[20.5559,1.2356,358.078],[20.5594,1.2285,356.857],[20.574,1.2287,357.4095],[20.575,1.2213,347.4113],[20.5795,1.2237,356.7609],[20.583,1.2202,346.5502],[20.5866,1.223,353.8288],[20.5878,1.215,345.3911],[20.5986,1.213,353.3421],[20.6011,1.2094,349.7575],[20.6073,1.2101,350.3488],[20.6137,1.2077,356.376],[20.6157,1.2091,354.1919],[20.621,1.2086,355.5116],[20.6238,1.2034,347.1918],[20.6272,1.203,346.3369],[20.6317,1.2088,355.5218],[20.6395,1.2095,354.5626],[20.6418,1.2047,356.2624],[20.6475,1.2018,338.6612],[20.6531,1.1947,349.4438],[20.6602,1.1909,357.2351],[20.6661,1.193,356.1638],[20.6801,1.1839,348.3301],[20.6909,1.1824,357.2611],[20.7003,1.2144,368.3856],[20.7023,1.2275,369.4684],[20.7132,1.2509,388.7643],[20.7147,1.2564,394.5426],[20.7139,1.2692,398.3963],[20.7082,1.2828,373.0794],[20.6998,1.2974,386.6557],[20.6777,1.3287,413.6686],[20.6638,1.344,411.8547],[20.6511,1.3641,397.1852],[20.641,1.3922,378.1982],[20.6374,1.4169,356.3565],[20.6378,1.4282,349.9304],[20.6428,1.4489,325.0],[20.6492,1.4669,355.1797],[20.6605,1.4873,356.3517],[20.6571,1.5129,360.0594],[20.6598,1.567,369.8946],[20.6613,1.5699,371.2841],[20.6816,1.5881,378.2946],[20.6919,1.6171,397.7049],[20.6956,1.6359,414.5875],[20.6988,1.6621,416.5826],[20.6988,1.6866,382.1908],[20.6976,1.6955,404.9063],[20.6947,1.7037,416.2092],[20.6914,1.7076,432.8589],[20.6851,1.7077,436.9232],[20.6671,1.6999,435.1136],[20.6473,1.6959,400.9841],[20.615,1.6986,412.3758],[20.5972,1.6832,426.7672],[20.5704,1.6669,449.1282],[20.5671,1.6664,457.3737],[20.5632,1.6669,461.0135],[20.5505,1.6737,451.2325],[20.5437,1.6757,445.2385],[20.521,1.6764,422.4102],[20.508,1.674,409.5382],[20.4877,1.673,410.9846],[20.4658,1.6769,422.5114],[20.451,1.6816,442.2133],[20.4379,1.6783,455.4753],[20.4171,1.6689,441.8998],[20.4047,1.6662,424.5099],[20.4001,1.6668,424.0528],[20.3869,1.6746,430.0231],[20.3528,1.7022,433.5014],[20.3409,1.7185,374.9366],[20.3345,1.7256,403.7371],[20.3277,1.7304,404.1047],[20.2984,1.7317,431.6968],[20.2376,1.7525,387.9826],[20.2306,1.7528,404.6136],[20.2021,1.7488,438.977],[20.1906,1.749,425.4407],[20.1305,1.7566,393.5568],[20.1113,1.7561,380.7099],[20.0994,1.7534,362.1353],[20.072,1.7438,392.5739],[20.0104,1.714,369.9873],[20.0026,1.7119,367.8472],[19.9664,1.7102,375.0661],[19.9597,1.7085,378.4687],[19.9456,1.6994,391.6423],[19.9195,1.6784,399.2955],[19.8999,1.6679,394.2346],[19.8795,1.6608,400.761],[19.7839,1.6357,426.919],[19.7396,1.6349,389.9286],[19.7059,1.6287,399.0432],[19.6799,1.6118,358.9019],[19.6402,1.5964,370.5245],[19.6123,1.5691,394.1039],[19.5828,1.5447,390.0886],[19.5769,1.5407,379.6642],[19.5624,1.535,349.0696],[19.538,1.5272,344.875],[19.5249,1.5167,344.9529],[19.5126,1.5036,362.0031],[19.4952,1.4931,367.2987],[19.4467,1.4581,340.9005],[19.4366,1.4549,342.1073],[19.4042,1.4394,343.9013],[19.3772,1.4197,337.4655],[19.3659,1.4143,333.9105],[19.297,1.3888,335.7497],[19.2702,1.3748,336.0554],[19.245,1.3654,335.887],[19.2129,1.3498,336.4638],[19.2101,1.4592,333.0912],[19.2163,1.5603,340.02],[19.2119,1.5651,337.2163],[19.2125,1.5669,338.4841],[19.2085,1.5775,331.6604],[19.2154,1.6224,324.0162],[19.2246,1.6319,317.8558],[19.2241,1.6335,320.7345],[19.2304,1.6428,321.0906],[19.2624,1.6701,322.2102],[19.2674,1.6715,321.7448],[19.2826,1.6838,322.6862],[19.2937,1.6906,325.0996],[19.3027,1.699,333.2458],[19.3118,1.7026,327.4032],[19.3184,1.7086,334.4165],[19.356,1.718,313.5],[19.3571,1.7199,313.5],[19.3861,1.7298,336.9361],[19.3933,1.737,330.5551],[19.4213,1.7491,325.6095],[19.4272,1.7537,329.1605],[19.4322,1.7538,328.663],[19.4688,1.7726,327.2412],[19.4767,1.7791,316.0466],[19.4804,1.7782,327.8621],[19.5082,1.7861,314.0],[19.5155,1.7896,329.6285],[19.5686,1.8026,331.6248],[19.5972,1.8052,331.0204],[19.6008,1.8025,331.9301],[19.6339,1.8109,339.0721],[19.682,1.8197,334.9686],[19.7008,1.8201,339.0164],[19.7127,1.817,339.8819],[19.7323,1.8172,338.0212],[19.749,1.8218,335.9307],[19.7999,1.8308,335.7704],[19.8221,1.8432,336.5288],[19.8246,1.8501,337.977],[19.8207,1.8676,337.225],[19.819,1.8862,314.5],[19.8136,1.9002,324.6397],[19.8241,1.9185,320.0386],[19.831,1.9383,324.892],[19.8385,1.9464,322.0644],[19.8485,1.9482,317.5],[19.8578,1.9579,328.8608],[19.8644,1.9582,337.5897],[19.8778,1.9473,337.0248],[19.8817,1.9467,325.7877],[19.8882,1.9529,323.1379],[19.8892,1.9675,321.8914],[19.8953,1.9742,328.7263],[19.9072,1.9803,323.9905],[19.9081,1.9842,329.0789],[19.9041,1.9922,324.25],[19.9051,2.0069,325.4977],[19.7213,2.0037,343.06],[19.6003,2.0052,342.2619],[19.5119,2.022,341.3031],[19.3144,2.0776,344.8071],[19.1255,2.1264,331.2203],[19.1107,2.12,332.8151],[19.0945,2.1157,328.577],[19.0734,2.1012,327.0294],[19.0647,2.0997,332.2569],[19.0609,2.0962,332.9642],[19.0573,2.0888,330.2041],[19.0491,2.0834,330.773],[19.0419,2.0743,333.8394],[19.0371,2.0741,330.4554],[19.0308,2.0662,332.9887],[19.0283,2.0588,340.5608],[19.0222,2.0527,334.9516],[19.0115,2.0519,326.6823],[19.0045,2.0482,331.3821],[18.9937,2.0478,330.9691],[18.9888,2.0418,329.8906],[18.9911,2.0363,328.3417],[18.9893,2.034,326.9105],[18.9713,2.0268,317.8714],[18.9643,2.0215,316.6208],[18.9582,2.0138,318.6126],[18.9502,2.014,317.3525],[18.9468,2.01,318.3716],[18.9411,2.0099,316.9783],[18.9392,2.012,317.3214],[18.9186,2.0,317.0463],[18.903,2.0033,316.6075],[18.8973,1.9989,317.0845],[18.8971,1.9965,317.0188],[18.8946,1.9944,318.4475],[18.8869,1.9944,316.8584],[18.8803,1.9899,318.8951],[18.8718,1.9896,316.8829],[18.8664,1.9829,333.3489],[18.8609,1.9821,326.0276],[18.8568,1.9837,327.6094],[18.8539,1.9818,326.2898],[18.8523,1.9774,330.4824],[18.8491,1.9767,325.4995],[18.8468,1.9796,317.0428],[18.8429,1.9768,317.035],[18.8335,1.977,320.5109],[18.8313,1.9744,325.1628],[18.8246,1.9771,316.4749],[18.8215,1.972,325.2373],[18.818,1.977,317.59],[18.8148,1.9772,316.5037],[18.8104,1.9813,316.6874],[18.8059,1.9796,316.5365],[18.8001,1.9819,316.0443],[18.7976,1.9784,316.6576],[18.7824,1.9732,322.4201],[18.7803,1.9747,318.8244],[18.7784,1.9802,316.4454],[18.7723,1.9728,323.3341],[18.7627,1.9722,316.9637],[18.7573,1.9664,321.0683],[18.7554,1.9558,322.6038],[18.7531,1.9526,323.2859],[18.735,1.9367,316.4903],[18.7252,1.9143,328.6087],[18.7197,1.9124,329.1006],[18.7132,1.9047,328.1513],[18.7087,1.9028,329.804],[18.7031,1.9069,321.5315],[18.699,1.9069,321.8625],[18.6952,1.9045,319.619],[18.6894,1.9063,315.9333],[18.6865,1.9023,315.6655],[18.6727,1.9095,315.72],[18.6676,1.9178,315.6353],[18.6639,1.9207,316.3456],[18.6497,1.9235,326.6247],[18.6457,1.9315,325.4527],[18.6425,1.934,328.4302],[18.6342,1.9351,326.1918],[18.6291,1.9387,328.4341],[18.623,1.9396,329.0463],[18.6144,1.9487,329.1185],[18.6043,1.9495,326.828],[18.6018,1.9522,333.3457],[18.6028,1.9586,325.4122],[18.6012,1.9653,332.748],[18.5935,1.976,331.1742],[18.5907,1.977,333.7937],[18.5139,1.9754,337.0717],[18.4092,1.9776,328.9438],[18.319,1.9807,336.1194],[18.2941,1.983,340.869],[18.0977,1.988,331.3825],[18.0864,1.9841,314.0],[18.0925,1.9621,317.3244],[18.0915,1.9515,313.5],[18.0807,1.9314,319.6099],[18.0775,1.9213,313.5],[18.0749,1.9019,313.0],[18.0675,1.8805,313.0],[18.0677,1.8582,317.4409],[18.06,1.8491,325.8595],[18.0582,1.821,317.756],[18.0583,1.8038,312.5],[18.0644,1.7836,312.0],[18.0659,1.7629,313.3848],[18.0833,1.7039,311.5],[18.088,1.678,311.5],[18.0872,1.6651,311.5],[18.0784,1.6542,311.0],[18.076,1.6335,311.0],[18.0794,1.6174,311.5125],[18.072,1.59,310.5],[18.0716,1.5578,310.5],[18.0665,1.5398,310.25],[18.068,1.5214,310.0],[18.0664,1.514,324.9366],[18.0596,1.5032,310.0],[18.0381,1.477,317.3072],[18.019,1.444,312.959],[18.013,1.429,313.0495],[18.0076,1.4064,309.0],[18.0,1.393,309.0],[17.9868,1.3603,308.5],[17.976,1.338,310.1141],[17.9706,1.309,335.4761],[17.9578,1.2665,331.5077],[17.9549,1.2512,324.9554],[17.9549,1.2316,312.6873],[17.945,1.1875,305.5],[17.9418,1.1645,305.0],[17.9286,1.1351,304.5],[17.9152,1.1149,304.0],[17.8831,1.0841,303.0],[17.864,1.052,326.3751],[17.8611,1.0446,304.7295],[17.8595,1.0299,312.9236],[17.8536,1.023,322.5674],[17.8501,1.0124,301.5],[17.8532,0.9974,301.5],[17.8522,0.9775,301.0],[17.8451,0.9363,327.1008],[17.845,0.919,307.987],[17.8612,0.8711,300.0],[17.8795,0.8457,300.0],[17.8832,0.8382,314.1443],[17.8862,0.8268,323.0494],[17.887,0.8031,330.7996],[17.8953,0.7751,326.5172],[17.885,0.739,327.5016],[17.891,0.707,299.0],[17.885,0.6915,303.5751],[17.8807,0.685,303.6093],[17.88,0.675,313.6216],[17.874,0.66,298.5],[17.873,0.612,298.5],[17.876,0.594,298.0],[17.886,0.572,298.0],[17.905,0.549,298.0],[17.9443,0.5121,297.5],[17.9551,0.4899,297.5],[17.9599,0.4662,297.0],[17.9626,0.4085,297.0],[17.9603,0.3995,297.0],[17.96,0.389,297.0],[17.954,0.3653,296.5],[17.9421,0.3424,317.3128],[17.926,0.3225,296.5],[17.923,0.316,313.2633],[17.8946,0.2884,296.5],[17.855,0.26,298.0497],[17.845,0.249,296.0],[17.843,0.244,297.5654],[17.821,0.216,296.0],[17.813,0.196,296.0],[17.8,0.173,295.5],[17.787,0.143,320.2931],[17.7752,0.1076,295.5],[17.7683,0.0798,295.5],[17.764,0.041,295.0],[17.758,0.018,295.0],[17.771,0.0,310.5328],[17.747,-0.054,295.0],[17.725,-0.095,295.0],[17.714,-0.128,309.2703],[17.712,-0.157,320.5345],[17.716,-0.199,318.0326],[17.714,-0.2169,316.8276],[17.7153,-0.2328,320.16],[17.722,-0.2753,317.4295],[17.7346,-0.3073,299.6634],[17.7386,-0.3265,302.0544],[17.7418,-0.381,300.7991],[17.7404,-0.3977,301.0364],[17.7282,-0.4422,307.067],[17.7187,-0.5031,294.0],[17.7097,-0.5406,294.0],[17.7001,-0.5676,294.0],[17.6836,-0.5953,302.3061],[17.6549,-0.6251,294.0],[17.638,-0.6563,294.0],[17.6096,-0.6935,294.0],[17.5745,-0.732,300.9709],[17.5603,-0.7521,299.4833],[17.5435,-0.7701,294.8981],[17.5341,-0.7877,293.5],[17.4938,-0.8351,293.5],[17.4925,-0.839,298.8605],[17.4871,-0.8427,296.6558],[17.469,-0.861,293.5],[17.468,-0.864,294.1211],[17.457,-0.876,294.3372],[17.429,-0.903,293.5],[17.3931,-0.9369,293.5],[17.3851,-0.9424,293.0],[17.3412,-0.9905,292.0],[17.3301,-0.9993,294.9199],[17.3178,-1.0058,295.3187],[17.2955,-1.0143,294.6528],[17.2548,-1.0408,292.7399],[17.2468,-1.0437,291.5],[17.237,-1.047,291.5],[17.216,-1.049,291.5],[17.209,-1.047,291.0],[17.1827,-1.0482,291.0],[17.164,-1.052,291.0],[17.13,-1.064,290.5],[17.111,-1.074,290.0],[17.088,-1.089,290.0],[17.0667,-1.107,289.5],[17.0562,-1.1119,292.2762],[17.0412,-1.1231,289.5],[17.0234,-1.1313,289.5935],[16.9904,-1.143,289.0],[16.9768,-1.1514,290.4251],[16.9302,-1.186,289.0],[16.897,-1.214,293.0747],[16.882,-1.231,295.0627],[16.846,-1.264,288.5],[16.816,-1.301,291.1197],[16.7917,-1.339,288.0],[16.7613,-1.3989,288.2321],[16.7415,-1.433,287.0],[16.7262,-1.4697,289.7625],[16.656,-1.6137,287.4827],[16.589,-1.7452,287.9489],[16.552,-1.804,283.0],[16.538,-1.829,284.0193],[16.5042,-1.874,283.0],[16.5603,-1.8628,283.0],[16.559,-1.8819,283.0],[16.5627,-1.8897,307.3191],[16.5682,-1.8957,295.2501],[16.5701,-1.9046,297.8328],[16.5797,-1.9198,291.7256],[16.5798,-1.9368,299.1461],[16.5835,-1.9467,291.8417],[16.5925,-1.963,300.6044],[16.6118,-1.9893,292.7155],[16.6237,-1.9966,297.0192],[16.6342,-1.9982,296.332],[16.945,-2.0013,378.4979],[16.9427,-1.8661,351.7736],[16.9121,-1.8558,318.1984],[16.8879,-1.8575,331.7991],[16.879,-1.8557,312.781],[16.8668,-1.8493,304.7882],[16.8517,-1.8453,299.6495],[16.8469,-1.846,299.6146],[16.8379,-1.8306,295.0328],[16.8279,-1.8216,293.2935],[16.8227,-1.8215,301.7659],[16.8154,-1.8255,302.398],[16.8048,-1.8354,291.9524],[16.7992,-1.8371,303.6008],[16.7941,-1.8363,304.2968],[16.7903,-1.8304,302.0335],[16.7888,-1.8211,292.1127],[16.7901,-1.8023,289.7716],[16.7951,-1.7917,300.9889],[16.8112,-1.7686,305.4476],[16.8145,-1.7657,305.0822],[16.8189,-1.765,305.7584],[16.8365,-1.7802,302.8088],[16.8463,-1.7819,305.18],[16.8582,-1.7817,301.9751],[16.8721,-1.7774,296.5505],[16.9048,-1.7608,300.701],[16.9214,-1.7569,303.5132],[16.9406,-1.7593,306.7462],[16.9709,-1.7663,321.706],[16.9938,-1.7696,325.0138],[17.0027,-1.7726,328.0829],[17.0117,-1.7816,329.6048],[17.0169,-1.7905,336.2334],[17.0265,-1.7943,331.2841],[17.0487,-1.7945,344.0399],[17.0546,-1.7968,339.535],[17.0635,-1.8043,356.9854],[17.0702,-1.8029,345.6718],[17.0877,-1.7824,400.4183],[17.0943,-1.7781,373.4208],[17.1009,-1.7782,393.8867],[17.1076,-1.7864,401.4947],[17.1136,-1.7864,414.4747]]]]}}