{"type": "Feature","bbox": [26.94830394046329,-11.037069168729886,27.218824573297297,-10.783327291142399],"geometry": {"type": "Polygon","coordinates": [[[27.044266645908237,-11.037069168729886,1125.9158],[27.053097569722183,-11.035008619839971,1126.2058],[27.066638319570245,-11.025588967771768,1126.3611],[27.071348145604333,-11.023528418881853,1126.3071],[27.06869886846016,-11.015286223322164,1126.0287],[27.080767797672564,-10.968187962981091,1123.0],[27.077529792274106,-10.913141871207472,1123.0],[27.080767797672564,-10.899306757232267,1125.7283],[27.094014183393483,-10.892830746435379,1123.4923],[27.112264759275632,-10.890475833418321,1125.955],[27.129043514522152,-10.886354735638491,1126.9702],[27.136108253573298,-10.875463262934602,1125.9307],[27.141701171988814,-10.857507051179567,1123.6252],[27.153475737074075,-10.848676127365621,1127.9221],[27.165544666286479,-10.843083208950134,1125.9095],[27.171137584701967,-10.834546649263302,1123.0],[27.177024867244597,-10.820122807033869,1125.9062],[27.206755644084893,-10.820711535288126,1124.0854],[27.218824573297297,-10.81011442671138,1123.0],[27.207933100593436,-10.802460959405948,1123.0],[27.199985269160891,-10.79510185622766,1123.0],[27.190565617092659,-10.79009766606643,1124.2388],[27.177613595498883,-10.789508937812172,1131.0168],[27.183206513914371,-10.808936970202865,1126.0187],[27.172020677083367,-10.819239714652468,1126.2944],[27.136108253573298,-10.83101427973773,1131.6978],[27.129337878649267,-10.83778465466176,1125.978],[27.128454786267895,-10.843966301331534,1125.9567],[27.126688601505094,-10.848381763238507,1125.9211],[27.116385857055491,-10.851619768636937,1123.0],[27.107849297368659,-10.850147948001279,1123.0],[27.094014183393483,-10.840139567678818,1125.7595],[27.078707248782621,-10.835724105771845,1125.6354],[27.073114330367133,-10.830719915610587,1125.6724],[27.069287596714418,-10.824832633067956,1123.4277],[27.06781577607876,-10.820417171160983,1125.6144],[27.063989042426044,-10.817767894016811,1125.7371],[27.044561010035352,-10.816296073381153,1125.4789],[27.037496270984207,-10.813646796236952,1125.537],[27.025721705898917,-10.806287693058664,1125.6853],[27.001878211601252,-10.798634225753233,1125.6996],[26.993341651914449,-10.789508937812172,1125.6688],[26.98922055413459,-10.788625845430772,1125.7397],[26.98598254873616,-10.788037117176515,1125.6821],[26.982450179210588,-10.786859660667972,1125.762],[26.97921217381213,-10.783327291142399,1125.8187],[26.982155815083445,-10.80010604638889,1125.7186],[26.993341651914449,-10.807759513694322,1125.7468],[27.007471130016768,-10.81188061147418,1125.5225],[27.020717515737687,-10.817473529889668,1125.118],[27.03190335256869,-10.828070638466414,1125.1193],[27.044266645908237,-10.845732486094306,1125.6145],[27.054275026230698,-10.851619768636937,1125.5804],[27.045149738289609,-10.86280560546794,1125.6028],[27.029254075424518,-10.866632339120656,1125.4036],[26.993341651914449,-10.865160518484998,1123.0],[27.006588037635368,-10.848381763238507,1123.0],[27.002466939855537,-10.843083208950134,1123.0],[26.969498157616783,-10.844849393712906,1124.2793],[26.951836309988892,-10.851031040382679,1135.3148],[26.94830394046329,-10.866632339120656,1123.0],[26.951836309988892,-10.906077132156298,1126.2008],[26.958901049040037,-10.899306757232267,1125.8926],[26.957429228404379,-10.913141871207472,1125.9532],[26.958901049040037,-10.926388256928391,1126.21],[26.96331651094701,-10.937868457886537,1126.7844],[26.973030527142356,-10.947876838208998,1127.9207],[26.973619255396613,-10.936102273123737,1126.7585],[26.976562896667929,-10.928154441691191,1125.6239],[26.98598254873616,-10.913730599461729,1126.3313],[26.993341651914449,-10.913730599461729,1126.0374],[26.997168385567164,-10.92373897978419,1125.688],[26.996579657312907,-10.932275539471021,1126.3086],[26.993930380168706,-10.939929006776453,1126.9199],[26.993341651914449,-10.947876838208998,1126.873],[26.996285293185764,-10.953764120751629,1126.8745],[27.005410581126853,-10.96230068043846,1126.3018],[27.007176765889625,-10.968187962981091,1126.4858],[26.996579657312907,-11.001156745219845,1126.6282],[26.995990929058621,-11.020879141737652,1134.0548],[27.01012040716094,-11.029710065551598,1125.4719],[27.019834423356286,-11.030887522060141,1125.7767],[27.035435722094263,-11.036186076348514,1126.0012],[27.044266645908237,-11.037069168729886,1125.9158]]]}
,"properties": {"featurecla": "Lake","scalerank": 8,"name": "Lake Rentenue","name_abb": "L. Rentenue","name_alt": null,"note": null,"delta": null,"dam_name": null,"year": -99,"admin": null,"min_zoom": 6.0,"min_label": 7.0,"area_km2": 288.3047,"hist_schema_id": "Elevation0-9000","hist_area_km2": {"1125": 288.2839,"1150": 0.0208}}}