{"type": "Feature","bbox": [26.243596220110078,-8.7419120694842718,26.567691124082046,-8.50112221349056],"geometry": {"type": "Polygon","coordinates": [[[26.540315260258808,-8.52202206651691,565.0],[26.520004135486715,-8.51024750143165,565.0],[26.497926825951851,-8.502299669999104,567.9785],[26.479381885942558,-8.50112221349056,569.2091],[26.437876544016973,-8.5214333382626535,565.0],[26.426690707185969,-8.5237882512797114,565.0],[26.40343594114259,-8.5252600719153691,565.0],[26.390189555421642,-8.5282037131866844,565.0],[26.374293892556551,-8.53438535985643,565.0],[26.36752351763252,-8.5396839141448027,565.0],[26.34161947444494,-8.5738301528921,565.0],[26.331905458249594,-8.5773625224176726,565.0],[26.314243610621673,-8.5767737941634152,565.0],[26.328078724596878,-8.6109200329106841,565.0],[26.304235230299213,-8.6097425764021409,565.0],[26.291871936959666,-8.6103313046564267,565.0],[26.283335377272863,-8.6141580383091139,565.9186],[26.267145350280629,-8.6329973424455488,565.0],[26.259786247102312,-8.6344691630812065,565.0],[26.252427143924024,-8.6244607827587458,567.705],[26.243596220110078,-8.6500704618191833,565.0],[26.246245497254279,-8.6745026843711059,565.0],[26.255076421068225,-8.6962856297788562,565.0],[26.265967893772086,-8.713947477406748,567.0814],[26.277742458857347,-8.698934906923057,565.0],[26.280391736001548,-8.6921645319990262,565.0],[26.286573382671321,-8.6921645319990262,565.0],[26.301291589027898,-8.7160080262966915,565.0],[26.311888697604644,-8.7057052818470879,565.0],[26.326901268088335,-8.6853941570749953,565.0],[26.356043316674374,-8.6792125104052218,565.0],[26.341913838572054,-8.68833779834631,565.0],[26.331611094122451,-8.713947477406748,565.0],[26.321013985545704,-8.7207178523307789,565.0],[26.328961816978278,-8.7286656837633529,565.0],[26.341913838572054,-8.7369078793230415,565.0],[26.356632044928631,-8.7419120694842718,565.0],[26.369584066522435,-8.7407346129757286,565.0],[26.379886810972039,-8.7304318685261251,565.0],[26.380475539226296,-8.7218953088393221,565.0],[26.38341918049764,-8.7160080262966915,565.0],[26.424924522423197,-8.70835455899126,565.0],[26.465546771967354,-8.684511064693595,565.0],[26.482619891340988,-8.6792125104052218,565.0],[26.485563532612304,-8.6724421354811909,565.0],[26.51293939643557,-8.63476352720835,567.1014],[26.514411217071228,-8.6082707557664833,566.6841],[26.519415407232458,-8.58295544083316,573.8062],[26.529423787554947,-8.5644105008238682,565.0],[26.5570940155053,-8.5435106477975182,565.0],[26.567691124082046,-8.5282037131866844,567.7645],[26.55385601010687,-8.53526845223783,565.5476],[26.540315260258808,-8.52202206651691,565.0]]]}
,"properties": {"featurecla": "Lake","scalerank": 9,"name": "Lac Upemba","name_abb": "L. Upemba","name_alt": null,"note": null,"delta": null,"dam_name": null,"year": -99,"admin": null,"min_zoom": 7.0,"min_label": 8.0,"area_km2": 505.9568,"hist_schema_id": "Elevation0-9000","hist_area_km2": {"575": 505.9568}}}