{"type": "Feature","bbox": [27.447,0.5196,30.0,2.5437],"geometry": {"type": "MultiPolygon","coordinates": [[[[27.447,1.5546,544.4669],[27.4496,1.547,551.425],[27.4492,1.5352,551.516],[27.4561,1.5244,553.4406],[27.4625,1.509,548.2148],[27.4783,1.4929,549.2953],[27.4803,1.4877,569.9032],[27.4783,1.4766,564.3125],[27.484,1.4463,541.7527],[27.492,1.4364,552.5961],[27.4943,1.426,559.1144],[27.5003,1.4189,557.6238],[27.5062,1.4162,561.1846],[27.5162,1.4152,565.9494],[27.5213,1.4102,550.7153],[27.5339,1.3895,548.2635],[27.5439,1.381,547.109],[27.5572,1.3737,552.6116],[27.5688,1.3596,547.1915],[27.5711,1.3532,546.188],[27.5707,1.3433,556.2316],[27.5723,1.3399,546.7349],[27.5759,1.3392,543.532],[27.5816,1.3408,548.3488],[27.5958,1.3394,551.6207],[27.5992,1.341,553.3853],[27.6077,1.3578,544.2955],[27.6127,1.3624,564.0665],[27.6207,1.3585,546.8962],[27.6234,1.3486,559.559],[27.628,1.3431,561.1842],[27.6335,1.3411,562.7314],[27.6456,1.3411,564.004],[27.6506,1.3448,553.3457],[27.6639,1.3438,563.4813],[27.6767,1.3505,573.2771],[27.7002,1.3487,562.2709],[27.7114,1.3356,574.1108],[27.7151,1.3335,558.9973],[27.7267,1.3315,567.7888],[27.7333,1.325,545.7496],[27.74,1.322,564.0183],[27.7507,1.3204,578.8302],[27.7555,1.3133,571.7853],[27.7651,1.3078,555.743],[27.7704,1.3073,550.1969],[27.7738,1.3087,554.2269],[27.7826,1.3015,559.0309],[27.7772,1.2825,570.0353],[27.7651,1.2566,600.8639],[27.768,1.2445,603.1345],[27.7835,1.2288,575.3865],[27.7785,1.221,580.5684],[27.7555,1.2117,658.4923],[27.7564,1.1949,623.5132],[27.7709,1.1496,729.4922],[27.7394,1.1215,714.8403],[27.7378,1.1091,727.7495],[27.7408,1.0988,717.2305],[27.739,1.093,720.9634],[27.7408,1.0684,677.8328],[27.7468,1.0673,668.826],[27.7531,1.0737,703.5671],[27.757,1.0735,704.6351],[27.7694,1.0657,680.0969],[27.773,1.0583,699.7221],[27.7828,1.0652,703.1814],[27.8029,1.06,692.8921],[27.8084,1.0623,706.0499],[27.8244,1.0634,712.6073],[27.8281,1.0616,721.8394],[27.8313,1.0535,715.4593],[27.8354,1.0499,726.1086],[27.8443,1.046,729.7449],[27.8475,1.0418,758.7811],[27.853,1.0388,765.6932],[27.8607,1.0395,754.7997],[27.8609,1.043,745.8799],[27.8635,1.0457,744.6884],[27.8751,1.0508,758.4113],[27.8954,1.049,746.3114],[27.9048,1.0432,751.9371],[27.9171,1.0471,756.2405],[27.9267,1.0464,716.7164],[27.9333,1.0428,705.9122],[27.9361,1.037,748.0428],[27.9225,1.0043,770.7303],[27.8777,0.9464,689.3753],[27.8861,0.9315,713.1415],[27.8925,0.934,716.2563],[27.9071,0.9251,711.2568],[27.9124,0.9255,720.7655],[27.9167,0.9317,719.366],[27.9197,0.9327,719.6599],[27.9226,0.931,745.2723],[27.9247,0.9264,741.7925],[27.9293,0.9225,734.8456],[27.9457,0.9202,735.342],[27.9507,0.9212,746.7238],[27.9653,0.9315,801.2476],[27.9742,0.9403,771.6727],[27.982,0.9407,757.6077],[27.985,0.9386,764.7097],[27.988,0.9308,763.4106],[27.993,0.9304,736.2863],[28.0007,0.9331,733.3342],[27.9871,0.911,759.5762],[27.9545,0.8464,715.2045],[27.9362,0.7899,691.7897],[27.9387,0.7656,714.9703],[27.9462,0.7618,722.2465],[27.9437,0.7572,692.2006],[27.9345,0.7489,699.2853],[28.0109,0.6498,634.6409],[28.0179,0.6362,647.4822],[28.0227,0.6334,650.0086],[28.0275,0.633,648.716],[28.0428,0.6396,650.4906],[28.0444,0.6424,648.2026],[28.0437,0.6465,650.359],[28.0451,0.6509,646.1979],[28.0503,0.6532,651.309],[28.0618,0.6633,654.2189],[28.0681,0.6642,656.0458],[28.0695,0.6764,656.6266],[28.0739,0.6789,651.9798],[28.096,0.6734,818.6401],[28.1407,0.6828,815.4647],[28.1591,0.6852,677.9482],[28.1829,0.6845,793.7101],[28.2485,0.688,711.1615],[28.2591,0.691,705.6474],[28.27,0.6904,717.2599],[28.3143,0.697,726.7449],[28.3377,0.6978,725.481],[28.3434,0.695,745.6135],[28.3516,0.6863,741.0446],[28.358,0.687,751.488],[28.3754,0.6778,769.5531],[28.3747,0.6748,749.806],[28.377,0.6704,748.5814],[28.3781,0.6619,754.8334],[28.3847,0.664,761.8712],[28.3909,0.6635,762.7273],[28.3927,0.6578,736.713],[28.398,0.6575,752.105],[28.4028,0.6527,738.7992],[28.4101,0.6525,771.8734],[28.4183,0.6451,783.3804],[28.4233,0.6355,791.1646],[28.4343,0.635,772.5286],[28.4425,0.6284,768.6075],[28.4464,0.6297,788.4183],[28.448,0.6265,778.3879],[28.447,0.6212,793.1564],[28.4589,0.6067,789.2233],[28.4772,0.5932,800.4238],[28.4769,0.5872,809.4301],[28.4822,0.5861,809.2552],[28.4879,0.5778,794.2977],[28.4984,0.5727,802.9066],[28.505,0.5667,797.8884],[28.5,0.5596,791.8192],[28.5011,0.5555,816.2989],[28.4984,0.5518,818.6605],[28.4995,0.5484,812.9778],[28.4977,0.5447,815.3605],[28.4984,0.5419,819.6415],[28.5025,0.5396,811.4557],[28.507,0.5339,817.4933],[28.5123,0.5355,820.8163],[28.5166,0.5401,818.1516],[28.5205,0.5412,830.2681],[28.5232,0.5449,825.7401],[28.5262,0.5447,833.7257],[28.529,0.5421,839.5765],[28.5317,0.5421,831.5165],[28.5333,0.544,830.9393],[28.5404,0.5433,843.8078],[28.5438,0.5449,838.6552],[28.5547,0.5442,822.4023],[28.5557,0.5403,837.416],[28.5543,0.5325,822.3788],[28.5588,0.5288,886.93],[28.5536,0.5215,830.5607],[28.555,0.5196,834.2649],[28.5684,0.5226,866.9521],[28.5739,0.5267,935.8876],[28.578,0.5274,892.2679],[28.5919,0.5403,860.2778],[28.6049,0.5382,888.1439],[28.6084,0.5407,884.9539],[28.6109,0.5453,880.1244],[28.6157,0.5469,869.3132],[28.6273,0.5439,919.3693],[28.6317,0.5449,902.3175],[28.636,0.5481,889.7314],[28.6387,0.5543,891.0343],[28.6465,0.5586,905.6756],[28.6474,0.5644,883.6318],[28.6536,0.5724,924.5358],[28.6574,0.5724,964.8436],[28.6604,0.5814,917.6142],[28.6743,0.5716,930.1649],[28.6899,0.5707,1030.4312],[28.71,0.5715,1055.1765],[28.7205,0.5735,1047.1838],[28.7535,0.5735,1073.0494],[28.7627,0.5756,1065.2413],[28.8034,0.5765,1170.4001],[28.8135,0.5791,1031.3398],[28.8406,0.5798,1082.6597],[28.9009,0.5876,1021.3954],[28.9321,0.5821,881.3859],[28.9718,0.5629,1033.7181],[28.9914,0.5603,1021.9671],[29.0055,0.5634,983.1911],[29.017,0.5839,1018.1315],[29.0462,0.5895,926.6887],[29.0621,0.6082,844.0057],[29.0676,0.6123,829.0895],[29.0706,0.6171,834.8616],[29.0727,0.6288,848.1348],[29.0756,0.6314,846.1777],[29.085,0.6332,851.8956],[29.0989,0.6391,827.1672],[29.1017,0.6424,827.1664],[29.104,0.6536,827.7316],[29.1101,0.6502,837.701],[29.1177,0.6518,841.1465],[29.1224,0.6547,863.5685],[29.1279,0.6612,827.3702],[29.1343,0.6621,822.0358],[29.157,0.6761,810.9636],[29.1629,0.6768,811.5239],[29.1649,0.6655,808.964],[29.1624,0.6618,811.2787],[29.1651,0.6584,821.1965],[29.1734,0.6561,823.3719],[29.1752,0.6496,818.4938],[29.177,0.6482,818.1254],[29.1818,0.6549,811.5534],[29.1873,0.6455,818.0946],[29.1946,0.6445,826.3528],[29.1973,0.6406,837.8854],[29.2037,0.6386,842.1725],[29.2046,0.6335,842.377],[29.2149,0.6259,851.6],[29.2187,0.6252,856.2915],[29.2222,0.6169,862.6398],[29.2536,0.6188,892.1278],[29.2637,0.6036,924.7795],[29.2716,0.6001,940.3945],[29.2827,0.5886,947.6234],[29.286,0.587,959.2382],[29.2905,0.5867,968.687],[29.2917,0.5943,980.3923],[29.2901,0.6007,970.6425],[29.2863,0.6039,958.8459],[29.2807,0.6179,953.1702],[29.2855,0.6264,988.3854],[29.2871,0.6344,1012.5223],[29.295,0.6461,969.8605],[29.2963,0.6606,977.85],[29.3044,0.6756,942.5634],[29.3086,0.6796,937.5509],[29.3254,0.6869,910.4995],[29.3297,0.6844,909.7606],[29.3261,0.6738,909.7257],[29.3366,0.6627,918.9932],[29.3363,0.6595,926.5327],[29.3395,0.6561,926.1844],[29.3388,0.6526,924.4061],[29.3313,0.6446,934.1119],[29.332,0.6407,924.0808],[29.3283,0.6324,926.543],[29.3281,0.6283,930.2705],[29.3301,0.6253,940.722],[29.334,0.6241,927.9702],[29.3392,0.6251,935.0125],[29.3475,0.6227,939.5504],[29.3591,0.6163,944.3503],[29.3662,0.6167,942.7908],[29.3671,0.6154,946.6381],[29.3643,0.6126,957.8166],[29.365,0.611,962.9895],[29.3813,0.5963,988.176],[29.3922,0.6029,968.1248],[29.407,0.6036,988.9301],[29.4337,0.6085,1035.936],[29.4569,0.6154,1027.0475],[29.4739,0.6253,1050.6449],[29.4695,0.6487,1057.8881],[29.4319,0.6513,1039.6162],[29.4113,0.6658,1016.2752],[29.3943,0.6714,983.4933],[29.3894,0.6837,966.6198],[29.3767,0.697,946.7981],[29.3629,0.6931,931.0218],[29.3501,0.7042,936.7192],[29.347,0.7098,919.251],[29.3476,0.7134,914.1555],[29.3612,0.7236,927.6619],[29.3701,0.747,949.6128],[29.3706,0.7534,957.8672],[29.3643,0.7638,960.9171],[29.3657,0.7759,961.1475],[29.3695,0.7876,946.7435],[29.3697,0.8221,931.241],[29.3775,0.8278,920.7113],[29.3827,0.8256,919.5307],[29.3793,0.839,906.9909],[29.3715,0.8447,902.5908],[29.3697,0.8525,908.7131],[29.3718,0.8587,913.3696],[29.3676,0.8631,903.8074],[29.3697,0.8684,893.2054],[29.3683,0.8709,892.903],[29.3615,0.876,888.1825],[29.3585,0.882,872.6185],[29.3522,0.8847,869.3019],[29.3433,0.8988,860.2892],[29.3369,0.9048,852.787],[29.3296,0.9087,857.0947],[29.3214,0.9089,855.8829],[29.3136,0.9147,848.0488],[29.312,0.9216,848.2571],[29.3141,0.9285,839.8525],[29.3127,0.9326,832.3795],[29.3086,0.9358,835.86],[29.2988,0.9388,836.1628],[29.2979,0.9418,833.9139],[29.2995,0.9485,844.3705],[29.2974,0.9533,849.0438],[29.2899,0.9575,834.3376],[29.2938,0.9616,828.137],[29.297,0.9625,812.1716],[29.3103,0.9784,810.5287],[29.313,0.991,837.2096],[29.3158,0.9917,839.1625],[29.3251,0.9873,840.6857],[29.337,0.9877,839.5734],[29.3484,0.993,816.1642],[29.35,0.9951,822.4247],[29.3519,1.0116,825.7053],[29.3576,1.0162,841.8126],[29.3585,1.0305,825.5404],[29.3603,1.0362,834.669],[29.3654,1.0394,848.3992],[29.3718,1.0406,830.6174],[29.3743,1.0436,833.1768],[29.3732,1.0597,824.7859],[29.3764,1.0656,848.1874],[29.3778,1.076,852.5272],[29.3753,1.0819,838.4578],[29.3764,1.0923,857.6611],[29.3723,1.1047,834.5573],[29.3739,1.1116,830.6104],[29.3883,1.1203,830.4369],[29.3952,1.127,837.6039],[29.3991,1.1343,831.6216],[29.3975,1.141,840.1688],[29.3986,1.1458,841.6589],[29.414,1.1653,845.4739],[29.4124,1.1677,828.7611],[29.4055,1.1684,822.9414],[29.4053,1.1711,826.9356],[29.4126,1.1833,818.2225],[29.4243,1.186,829.2809],[29.4339,1.1807,819.3964],[29.4416,1.1846,829.66],[29.4439,1.1878,836.2036],[29.4339,1.1989,834.3592],[29.4359,1.2014,841.6766],[29.4412,1.2014,825.8211],[29.4451,1.1984,854.1693],[29.4494,1.1878,840.4691],[29.4604,1.1919,835.9413],[29.4643,1.1998,832.7332],[29.4739,1.2096,829.3055],[29.4723,1.2163,830.2761],[29.4732,1.2266,823.11],[29.475,1.2303,821.4094],[29.481,1.266,838.3588],[29.479,1.2742,841.532],[29.4806,1.2795,855.9011],[29.4959,1.2859,861.5439],[29.5051,1.2935,858.6556],[29.5121,1.2965,879.6573],[29.5183,1.3048,881.2388],[29.5295,1.3153,880.3317],[29.528,1.3257,921.5215],[29.5319,1.3365,938.0064],[29.5282,1.3441,883.9428],[29.5284,1.3468,878.2485],[29.5451,1.3613,916.4339],[29.56,1.3672,931.5219],[29.5846,1.368,970.1837],[29.5875,1.4074,941.5494],[29.614,1.4428,916.9161],[29.6205,1.4497,908.416],[29.633,1.457,925.91],[29.6552,1.4563,919.0801],[29.6645,1.4388,916.4497],[29.6739,1.4333,893.5624],[29.6954,1.4323,897.3828],[29.7248,1.4366,842.4788],[29.7242,1.4437,847.1553],[29.7278,1.4555,847.4751],[29.7354,1.4702,858.9038],[29.7437,1.4998,878.5027],[29.7469,1.5017,885.4375],[29.7471,1.5065,889.271],[29.7533,1.509,893.8514],[29.7547,1.5111,906.8346],[29.7538,1.518,879.6326],[29.7577,1.5246,904.9774],[29.7565,1.529,890.5082],[29.7609,1.5347,911.548],[29.7689,1.5582,921.8101],[29.7687,1.5646,910.5143],[29.7781,1.5625,904.3258],[29.782,1.5637,916.8824],[29.79,1.5747,906.8303],[29.8044,1.5848,909.7371],[29.8177,1.5912,932.6121],[29.8366,1.5866,1003.1006],[29.8508,1.5863,1033.2349],[29.8905,1.5775,901.3578],[29.902,1.5821,907.3607],[29.904,1.5922,907.1196],[29.9167,1.6184,917.3201],[29.9174,1.6232,928.8892],[29.9206,1.6276,915.9319],[29.9222,1.6349,929.9423],[29.9307,1.6496,941.9149],[29.9343,1.6528,927.0179],[29.9428,1.6533,950.8481],[29.9481,1.657,1005.5143],[29.9854,1.704,968.9631],[29.9921,1.7148,953.6929],[29.9937,1.7219,960.7867],[30.0,1.7238,966.6295],[29.9973,1.7288,942.4413],[29.9978,1.7413,945.583],[30.0,1.7451,947.8463],[30.0,1.7591,1005.7045],[29.9892,1.7606,970.7124],[29.9869,1.7714,978.9119],[29.9892,1.779,949.8387],[29.946,1.8001,1091.0784],[29.8995,1.8307,1127.5469],[29.8869,1.8375,1126.7954],[29.8387,1.8723,1190.3704],[29.7284,1.9617,1188.6984],[29.7251,1.9781,1191.2454],[29.7167,1.9857,1283.2322],[29.7083,1.997,1187.1055],[29.7179,1.9982,1249.5723],[29.722,2.0096,1161.5509],[29.7165,2.0163,1232.5654],[29.7147,2.025,1214.3788],[29.7067,2.0331,1232.4606],[29.6906,2.0764,1237.4305],[29.6822,2.0812,1246.424],[29.6718,2.0768,1225.7699],[29.6697,2.081,1241.2628],[29.6701,2.0894,1232.174],[29.6646,2.1011,1202.2734],[29.652,2.1134,1154.5745],[29.6503,2.1255,1175.0283],[29.6239,2.1558,1116.7013],[29.623,2.1872,1134.4895],[29.6133,2.1894,1125.1864],[29.61,2.2007,1084.5244],[29.6101,2.2106,1086.262],[29.6212,2.2141,1131.5363],[29.6059,2.2759,1113.4838],[29.6074,2.2837,1083.2563],[29.6254,2.2793,1160.1993],[29.6455,2.2707,1117.0264],[29.6595,2.2799,1141.311],[29.6651,2.2862,1132.724],[29.6604,2.3018,1116.6042],[29.6432,2.3147,1133.7341],[29.6412,2.3246,1105.4258],[29.6476,2.3331,1142.7767],[29.6394,2.3638,1137.3807],[29.6392,2.3735,1138.6201],[29.6424,2.3843,1147.0598],[29.6474,2.394,1134.7537],[29.6482,2.42,1180.2483],[29.65,2.4253,1184.3625],[29.6399,2.46,1159.6176],[29.6338,2.4735,1170.0428],[29.6316,2.4913,1112.2596],[29.6215,2.4937,1100.2822],[29.6137,2.4934,1066.7859],[29.6007,2.4884,1105.2448],[29.5872,2.4882,1168.8414],[29.5815,2.4889,1142.2795],[29.5744,2.4949,1069.5332],[29.571,2.4951,1084.6174],[29.5639,2.4921,1086.3051],[29.549,2.4929,1052.6885],[29.5279,2.4828,1086.814],[29.5071,2.4796,1037.9856],[29.4938,2.472,1084.6359],[29.4792,2.4674,1085.8828],[29.4778,2.4654,1113.9341],[29.4794,2.4601,1087.6018],[29.4529,2.4524,1068.8317],[29.4439,2.4362,1000.6495],[29.4316,2.4337,1059.7698],[29.4261,2.4364,987.7211],[29.4215,2.4353,998.1042],[29.4167,2.427,1002.995],[29.4103,2.4236,991.3546],[29.3892,2.425,988.0046],[29.383,2.4209,986.7143],[29.3679,2.4177,981.1642],[29.3485,2.4154,994.7416],[29.3435,2.4172,1012.474],[29.3336,2.414,1009.618],[29.3279,2.4138,1008.303],[29.3236,2.418,1004.3419],[29.3178,2.4198,993.4255],[29.3151,2.418,992.6984],[29.3103,2.418,982.9219],[29.3016,2.4244,985.0213],[29.2984,2.4343,964.0472],[29.284,2.4419,975.2106],[29.2724,2.4436,977.558],[29.2687,2.4661,963.1459],[29.263,2.473,943.4598],[29.2559,2.4924,978.968],[29.2354,2.5242,931.7539],[29.2292,2.5437,943.4252],[29.2086,2.5379,925.4205],[29.203,2.5295,927.154],[29.2053,2.4869,946.2098],[29.2043,2.4557,969.9646],[29.1993,2.4444,955.7368],[29.1908,2.4367,958.394],[29.1752,2.4013,949.9059],[29.1663,2.412,991.8878],[29.1479,2.4447,959.7464],[29.1348,2.4547,977.2717],[29.1272,2.4568,959.5473],[29.1195,2.4547,965.8254],[29.1104,2.4456,978.6589],[29.0938,2.452,980.0279],[29.0867,2.4436,966.8942],[29.0955,2.4258,966.9075],[29.0824,2.4294,936.7487],[29.0721,2.4372,963.2004],[29.0658,2.4359,915.9659],[29.053,2.427,950.9963],[29.0399,2.4218,908.4283],[29.0439,2.4041,894.511],[29.0425,2.4005,908.6399],[29.0317,2.3948,888.6516],[29.0278,2.4063,898.6741],[29.0232,2.4096,875.7376],[29.0191,2.4188,874.7382],[29.0157,2.4192,877.0219],[29.0118,2.4146,875.7526],[29.0052,2.4137,869.2507],[28.9987,2.4078,878.6822],[28.9903,2.4066,870.0231],[28.9825,2.4204,866.0857],[28.9745,2.4239,844.9424],[28.9697,2.4292,851.7757],[28.9674,2.4232,850.0005],[28.9688,2.4168,889.1421],[28.9722,2.4138,856.9679],[28.9781,2.3972,903.5396],[28.9864,2.3891,898.103],[28.9875,2.3728,895.3236],[28.9982,2.365,903.994],[29.0005,2.3571,883.7697],[28.9971,2.3479,908.2484],[29.0005,2.3436,906.4126],[28.9939,2.336,900.6302],[28.9881,2.324,957.7344],[28.9799,2.2941,958.565],[28.9769,2.2911,955.8552],[28.9776,2.2856,932.9651],[28.9688,2.2705,960.812],[28.9223,2.2806,958.6339],[28.8571,2.2902,903.1877],[28.8419,2.2959,873.4083],[28.819,2.2996,883.7707],[28.8073,2.3053,927.2908],[28.799,2.3075,902.0755],[28.7818,2.3019,882.7556],[28.7745,2.3023,870.8842],[28.7654,2.309,863.9879],[28.753,2.3037,842.5203],[28.7457,2.3129,845.3951],[28.7359,2.3196,845.9064],[28.7233,2.3254,839.7584],[28.7153,2.3337,841.6555],[28.7094,2.3362,835.1514],[28.7093,2.3307,844.4733],[28.713,2.3219,843.4385],[28.7192,2.3155,858.4396],[28.7231,2.3072,845.5051],[28.7379,2.2943,856.4935],[28.7413,2.2839,853.6764],[28.7477,2.2835,864.0663],[28.7507,2.2814,863.2078],[28.753,2.2676,876.4733],[28.7592,2.2623,859.4013],[28.7699,2.2324,881.7714],[28.777,2.2266,880.5298],[28.7774,2.2206,895.658],[28.7797,2.217,889.2161],[28.7726,2.2062,915.0685],[28.7765,2.2011,923.819],[28.7749,2.1946,928.8294],[28.7648,2.1818,936.4199],[28.7512,2.1971,921.5748],[28.7388,2.205,931.0337],[28.7284,2.2057,936.8472],[28.7187,2.2041,914.9843],[28.7143,2.211,907.972],[28.6972,2.2186,921.0795],[28.6956,2.2248,896.0009],[28.6901,2.226,917.2314],[28.6812,2.2315,915.124],[28.6713,2.2322,896.0017],[28.6528,2.2391,887.257],[28.6464,2.2435,875.3593],[28.6395,2.2405,851.6827],[28.6361,2.2414,853.9544],[28.6281,2.2628,834.163],[28.6251,2.2656,828.9024],[28.6197,2.2647,828.8828],[28.6142,2.2698,824.496],[28.6094,2.2691,825.6292],[28.6046,2.2847,815.9014],[28.6014,2.2884,827.3251],[28.6012,2.2965,822.808],[28.5966,2.3008,814.6727],[28.5902,2.3126,814.2978],[28.5879,2.3264,832.7787],[28.5806,2.334,814.561],[28.4606,2.2776,832.6957],[28.4404,2.266,841.4324],[28.4254,2.2607,842.1147],[28.41,2.2519,864.4522],[28.3996,2.2516,852.4357],[28.3789,2.2964,841.6946],[28.3491,2.3212,797.8337],[28.3221,2.3352,796.9161],[28.3139,2.3361,805.4893],[28.3168,2.3144,823.0096],[28.3098,2.1337,866.777],[28.3074,2.1066,887.803],[28.3087,2.088,887.8067],[28.2986,1.8741,896.5747],[28.2889,1.8543,823.8282],[28.2517,1.8414,850.6242],[28.2312,1.8283,781.6205],[28.1906,1.796,806.9036],[28.1881,1.7849,813.1644],[28.1919,1.7764,827.3962],[28.1907,1.7378,782.6015],[28.1995,1.7102,785.1987],[28.2155,1.6899,763.1567],[28.2121,1.6844,758.858],[28.2092,1.683,768.467],[28.1803,1.6901,776.0594],[28.1539,1.7017,783.099],[28.1124,1.7141,799.6477],[28.0211,1.7469,715.1505],[28.0069,1.7513,720.9028],[27.9817,1.7557,709.3082],[27.9627,1.7558,678.7421],[27.9413,1.7485,753.0631],[27.9397,1.7439,729.8394],[27.9413,1.7384,698.5297],[27.9399,1.7324,659.2121],[27.9461,1.7262,759.5729],[27.9425,1.7205,662.717],[27.9382,1.7211,690.1052],[27.9202,1.7612,706.6553],[27.9101,1.7763,729.6771],[27.9009,1.7942,709.2268],[27.8858,1.7786,744.4449],[27.8783,1.7787,735.9928],[27.8674,1.792,795.1014],[27.8472,1.8277,800.1546],[27.7827,1.8288,742.4957],[27.7634,1.8525,745.386],[27.75,1.8564,732.7027],[27.7391,1.8575,694.6329],[27.7165,1.8458,647.2224],[27.694,1.8155,669.1642],[27.6823,1.8083,693.345],[27.6504,1.8144,700.1751],[27.6278,1.8214,709.986],[27.606,1.832,713.9042],[27.585,1.8473,729.7557],[27.5784,1.8446,711.4835],[27.5667,1.828,716.1572],[27.5558,1.7994,648.7678],[27.5533,1.7734,596.4781],[27.56,1.7574,612.3137],[27.5961,1.7056,622.2628],[27.6431,1.6545,629.8058],[27.6369,1.5834,644.5093],[27.6415,1.5716,641.3334],[27.6457,1.573,684.4456],[27.6562,1.5849,723.2205],[27.6658,1.5908,697.3659],[27.6771,1.591,694.05],[27.6938,1.5945,703.29],[27.7014,1.5915,703.3149],[27.7073,1.5942,722.8167],[27.7156,1.609,699.7362],[27.7399,1.6048,629.3838],[27.7562,1.612,641.7448],[27.7612,1.6077,620.5551],[27.8066,1.5445,689.6201],[27.8112,1.5249,696.8914],[27.8036,1.5044,630.9274],[27.7997,1.5021,636.3967],[27.799,1.4948,627.184],[27.7968,1.4899,621.6877],[27.7913,1.4842,634.5233],[27.7753,1.4833,617.288],[27.7566,1.478,600.2757],[27.7508,1.4736,596.1246],[27.7495,1.469,583.0811],[27.7506,1.4644,595.0302],[27.768,1.4598,601.2682],[27.7735,1.4467,611.6546],[27.7735,1.4432,582.7205],[27.7506,1.4496,602.2661],[27.7158,1.4535,582.4769],[27.6915,1.4581,595.5938],[27.6739,1.464,598.5699],[27.6634,1.4744,581.2249],[27.6505,1.4779,572.0583],[27.6358,1.4754,568.3649],[27.6183,1.4534,563.6131],[27.6078,1.4536,569.3255],[27.5839,1.4619,629.1019],[27.581,1.475,595.9395],[27.5864,1.4982,558.7748],[27.5872,1.5126,564.4284],[27.5808,1.5298,573.557],[27.5742,1.5388,563.1005],[27.5515,1.5546,551.1838],[27.5424,1.5558,566.6194],[27.5317,1.5624,552.6727],[27.5246,1.5645,561.7133],[27.5125,1.5652,560.9352],[27.5047,1.5702,548.4328],[27.4887,1.5679,550.1851],[27.4736,1.5607,550.887],[27.447,1.5546,544.4669]]]]}
,"properties": {"GID_2": "COD.6.10_1","GID_0": "COD","country": "DemocraticRepublicoftheCongo","GID_1": "COD.6_1","province": "Ituri","NL_NAME_1": "NA","county": "Mambasa","VARNAME_2": "NA","NL_NAME_2": "NA","TYPE_2": "Territoire","ENGTYPE_2": "Territory","CC_2": "NA","HASC_2": "NA","name": "Mambasa.county","area_km2": 35736.82,"hist_schema_id": "Elevation0-9000","hist_area_km2": {"525": 14.56,"550": 238.75,"575": 735.02,"600": 771.03,"625": 827.04,"650": 985.46,"675": 908.7,"700": 899.84,"725": 920.54,"750": 1058.6,"775": 1610.26,"800": 2260.14,"825": 2713.33,"850": 3111.15,"875": 3076.47,"900": 3096.07,"925": 2846.67,"950": 2445.73,"975": 1911.55,"1000": 1499.11,"1025": 1280.21,"1050": 694.64,"1075": 452.68,"1100": 383.82,"1125": 345.12,"1150": 302.66,"1175": 203.26,"1200": 90.25,"1225": 31.47,"1250": 12.18,"1275": 5.13,"1300": 2.76,"1325": 1.38,"1350": 0.87,"1375": 0.32}}}