{"type": "Feature","bbox": [24.9583,-8.7723,25.0435,-8.6978],"geometry": {"type": "MultiPolygon","coordinates": [[[[25.0167,-8.6984,1117.981],[25.0033,-8.6978,1114.9485],[24.9936,-8.7021,1113.3926],[24.9808,-8.7014,1115.135],[24.9662,-8.7099,1117.6099],[24.9595,-8.7196,1119.3262],[24.9583,-8.7408,1114.7019],[24.9644,-8.7614,1124.3978],[24.9766,-8.7686,1116.9823],[25.0064,-8.7723,1065.194],[25.0234,-8.7704,1021.3854],[25.0338,-8.7656,1019.631],[25.0386,-8.7553,1085.4967],[25.0435,-8.7281,1101.9716],[25.0411,-8.7196,1105.0492],[25.0344,-8.7099,1121.6434],[25.0283,-8.7039,1123.9075],[25.0167,-8.6984,1117.981]]]]}
,"properties": {"GID_2": "COD.4.4_1","GID_0": "COD","country": "DemocraticRepublicoftheCongo","GID_1": "COD.4_1","province": "Haut-Lomami","NL_NAME_1": "NA","county": "Kamina(ville)","VARNAME_2": "NA","NL_NAME_2": "NA","TYPE_2": "Ville","ENGTYPE_2": "Town","CC_2": "NA","HASC_2": "NA","name": "Kamina(ville).county","area_km2": 63.39266,"hist_schema_id": "Elevation0-9000","hist_area_km2": {"1025": 0.79627,"1050": 2.78697,"1075": 3.22705,"1100": 13.05552,"1125": 43.52685}}}