{"type": "Feature","bbox": [29.3091042400593,-0.689581371797459,29.90165922797533,-0.069356155931018],"geometry": {"type": "Polygon","coordinates": [[[29.470415781727439,-0.61599034001452,912.0],[29.479835433795671,-0.641305654947843,916.9797],[29.55489828621424,-0.603038318420744,912.0],[29.587867068452994,-0.580372280631593,912.0],[29.611121834496373,-0.545637313630067,912.0],[29.626134404980093,-0.491179950110705,912.0],[29.634670964666924,-0.482937754551017,914.5192],[29.649094806896358,-0.477050472008386,915.5503],[29.672349572939765,-0.44731969516809,912.0],[29.685890322787827,-0.435839494209944,912.0],[29.707378904068435,-0.429069119285913,912.0],[29.727395664713384,-0.426125478014598,912.0],[29.746529332976962,-0.419943831344852,912.0],[29.782147392359889,-0.389624326250271,912.0],[29.8148218104715,-0.374317391639437,912.0],[29.830128745082334,-0.360187913537118,916.2147],[29.850145505727284,-0.328985316061164,912.0],[29.866924260973803,-0.29425034905961,912.0],[29.878993190186208,-0.25509992015111,912.0],[29.888118478127296,-0.190928540436403,927.4978],[29.900776135593958,-0.148540106129445,912.0],[29.90165922797533,-0.140297910569757,924.024],[29.889295934635811,-0.141181002951157,920.9658],[29.863686255575345,-0.147657013748045,926.8203],[29.85397223938,-0.152955568036418,924.9932],[29.845730043820311,-0.159431578833306,920.378],[29.836310391752107,-0.163552676613165,918.6095],[29.823064006031188,-0.162080855977507,917.9188],[29.815116174598643,-0.157665394070534,912.0],[29.811289440945927,-0.151778111527904,912.0],[29.80981762031027,-0.142947187713929,912.0],[29.809523256183127,-0.130878258501554,912.0],[29.804224701894753,-0.127051524848838,912.0],[29.792450136809492,-0.127345888975952,913.4889],[29.780675571724231,-0.126168432467438,912.0],[29.775377017435858,-0.117043144526349,912.0],[29.769489734893227,-0.094377106737227,919.3156],[29.754477164409508,-0.077598351490707,913.4192],[29.732399854874643,-0.069356155931018,920.0154],[29.70708453994132,-0.072594161329476,917.7733],[29.694426882474659,-0.08377999816048,940.2734],[29.685595958660684,-0.099675661025572,955.8574],[29.674704485956823,-0.114099503255034,957.9756],[29.655276453566131,-0.120575514051922,995.1972],[29.639086426573897,-0.122930427068979,979.2017],[29.531937884297975,-0.155016116926333,928.6611],[29.493376183643704,-0.181214524241057,912.0],[29.463645406803408,-0.215949491242583,1202.8362],[29.446572287429774,-0.257454833168168,1252.0361],[29.438330091870085,-0.319271299865818,912.0],[29.428616075674739,-0.335755690985195,912.0],[29.392409288037555,-0.375789212275095,912.0],[29.38446145660501,-0.397572157682845,912.0],[29.391820559783298,-0.422004380234767,912.0],[29.380045994698008,-0.429952211667313,989.0594],[29.366210880722832,-0.452618249456464,924.8498],[29.356791228654629,-0.463804086287467,923.4625],[29.34266175055231,-0.472046281847156,912.7592],[29.330592821339906,-0.475873015499872,921.1326],[29.319701348636016,-0.481760298042502,913.03],[29.3091042400593,-0.497361596780479,933.5137],[29.344427935315082,-0.514434716154113,912.0],[29.334125190865478,-0.538866938706036,917.5082],[29.311164788949213,-0.566537166656417,916.099],[29.3091042400593,-0.59273557397114,912.0],[29.3185238921275,-0.593913030479655,912.0],[29.355613772146086,-0.593324302225398,912.0],[29.370037614375548,-0.599505948895171,912.0],[29.375630532791035,-0.609808693344775,912.0],[29.377691081680979,-0.623349443192836,912.0],[29.377396717553836,-0.648076029871874,912.0],[29.373275619774006,-0.657201317812962,918.3483],[29.370331978502662,-0.667504062262566,915.5502],[29.36944888612129,-0.678395534966455,912.0],[29.370037614375548,-0.689581371797459,912.0],[29.377396717553836,-0.689581371797459,915.5186],[29.380634722952294,-0.683105361000543,915.9178],[29.391820559783298,-0.669270247025366,912.0],[29.396824749944528,-0.678101170839312,915.7644],[29.398002206453043,-0.681633540364885,912.0],[29.410954228046847,-0.667209698135451,917.4027],[29.426849890911967,-0.636595828913755,914.8064],[29.438918820124343,-0.620111437794378,916.5319],[29.437741363615828,-0.609514329217632,912.0],[29.45216520584529,-0.606865052073459,915.585],[29.470415781727439,-0.61599034001452,912.0]]]}
,"properties": {"featurecla": "Lake","scalerank": 4,"name": "Lake Edward","name_abb": "L. Edward","name_alt": null,"note": null,"delta": null,"dam_name": null,"year": -99,"admin": "admin-0","min_zoom": 4.0,"min_label": 5.0,"area_km2": 2219.886,"hist_schema_id": "Elevation0-9000","hist_area_km2": {"900": 2160.69,"925": 44.693,"950": 5.216,"975": 4.601,"1000": 1.166,"1025": 0.488,"1050": 0.318,"1075": 0.36,"1100": 0.318,"1125": 0.403,"1150": 0.488,"1175": 0.318,"1200": 0.318,"1225": 0.17,"1250": 0.064,"1275": 0.148,"1300": 0.064,"1325": 0.021,"1350": 0.042}}}