{"type":"Feature","properties":{"featurecla":"River","scalerank":6,"rivernum":223,"dissolve":"223River","name":"Semliki2","name_alt":null,"note":null,"min_zoom":5.0,"strokeweig":0.2,"name_en":"Semliki","min_label":6.0},
"geometry":{"type": "LineString","coordinates": [[29.838134765625,-1.20037200313088,1923.4781],[29.832763671875,-1.17424895625588,2054.6226],[29.81591796875,-1.14788176875588,1919.4551],[29.791406250000023,-1.128741143755889,2061.8877],[29.76328125,-1.1216122375058859,2197.5034],[29.7203125,-1.13347747188088,2023.1509],[29.646484375,-1.17522551875588,1867.4062],[29.603125,-1.17424895625588,1791.859],[29.5875,-1.16936614375588,1728.891],[29.5732421875,-1.16716887813088,1665.1539],[29.5595703125,-1.16985442500588,1775.0813],[29.545800781250023,-1.1792294250058859,1790.4032],[29.535400390625,-1.19353606563088,1865.1512],[29.525488281250006,-1.21062590938088,1788.205],[29.513671875,-1.224932550005889,1648.5906],[29.497314453125,-1.23088958125588,1539.2533],[29.484082031250011,-1.227373956255889,1378.5024],[29.416601562500006,-1.19475676875588,1122.7522],[29.411523437500023,-1.18840911250588,1122.0953],[29.417724609375,-1.172198175005889,1108.0547],[29.416406250000023,-1.1640927062558859,1111.6925],[29.412695312500006,-1.1577450500058859,1104.3713],[29.3876953125,-1.144854425005889,1085.1045],[29.370019531250023,-1.1201473937558859,1052.3331],[29.357666015625,-1.09099700313088,1022.1513],[29.3525390625,-1.067217706255889,1016.885],[29.354101562500006,-1.0522763000058859,1004.1094],[29.366796875,-1.007159112505889,982.5594],[29.372167968750006,-0.960479425005886,989.9517],[29.382910156250006,-0.914580987505886,984.7564],[29.40234375,-0.87224700313088,975.4713],[29.405517578125,-0.85540130000588,946.741],[29.405175781250023,-0.82952239375588,938.2311],[29.406347656250006,-0.82097747188088,929.1736],[29.43125,-0.729522393755886,929.8235],[29.441308593750023,-0.70745208125588,931.369],[29.453320312500011,-0.688311456255889,926.6323],[29.466210937500023,-0.676104425005889,924.8311],[29.458984375,-0.65715911250588,919.0075],[29.453857421875,-0.61565520625588,916.0804],[29.4521484375,-0.606963800005886,915.585]]}}