{"type":"Feature","properties":{"featurecla":"River","scalerank":6,"rivernum":223,"dissolve":"223River","name":"Semliki3","name_alt":null,"note":null,"min_zoom":5.0,"strokeweig":0.2,"name_en":"Semliki","min_label":6.0},
"geometry":{"type": "LineString","coordinates": [[29.59716796875,-0.13420989375588,942.8953],[29.566650390625,-0.12737395625588,938.1426],[29.570068359375,-0.109747003130892,948.6091],[29.587011718750006,-0.088018487505892,954.0258],[29.59716796875,-0.068975518755892,955.6063],[29.598730468750006,-0.058819268755883,962.7562],[29.615820312500006,-0.011700128130883,941.191],[29.63134765625,0.01666901249412,911.6895],[29.63623046875,0.036737371869108,928.7223],[29.637597656250023,0.06073639530662,961.619],[29.638671875,0.06354401249412,962.0037],[29.641357421875,0.06806061405662,957.5045],[29.643945312500023,0.07416412968162,935.7731],[29.64501953125,0.08185455936912,912.0884],[29.642822265625,0.08844635624412,922.3002],[29.633544921875,0.10187409061912,942.3433],[29.63134765625,0.10919830936912,942.6715],[29.632080078125,0.16242096561912,907.4585],[29.637939453125,0.184442449994108,923.0654],[29.65185546875,0.195428778119108,917.7765],[29.640380859375,0.203485418744108,927.5787],[29.63671875,0.21173737186912,925.2894],[29.6357421875,0.22016022343162,925.4518],[29.63134765625,0.22894928593162,929.6501],[29.621191406250006,0.23798248905662,921.5748],[29.602294921875,0.24738190311912,928.0236],[29.585546875,0.25873444218162,926.4006],[29.56787109375,0.267108465619117,913.6678],[29.559667968750006,0.27362702030662,933.425],[29.555908203125,0.28388092655662,935.024],[29.55859375,0.30841705936912,901.6776],[29.55625,0.31830475468162,920.3472],[29.517333984375,0.333026434369117,909.8375],[29.498925781250023,0.34772369999412,904.7986],[29.504492187500006,0.36920807499412,899.4984],[29.516210937500006,0.385272528119117,884.8834],[29.532128906250023,0.41547272343162,900.6517],[29.5419921875,0.42816803593162,901.8926],[29.549072265625,0.432489324994108,900.4234],[29.56796875,0.44147369999412,919.6507],[29.576074218750023,0.44867584843162,917.7603],[29.588281250000023,0.484247137494108,940.0836],[29.593505859375,0.489618231244108,1007.7256],[29.634521484375,0.497088934369117,950.4089],[29.638769531250006,0.50238678593162,834.8092],[29.637304687500006,0.51410553593162,908.8268],[29.63134765625,0.53058502811912,838.0927],[29.63671875,0.54303619999412,822.3402],[29.64306640625,0.54743073124412,807.7753],[29.650390625,0.55036041874412,773.9839],[29.65869140625,0.55853912968162,794.8923],[29.66357421875,0.56952545780662,765.8719],[29.6689453125,0.591815496869117,800.178],[29.68798828125,0.61969635624412,748.9052],[29.718359375,0.691278387494108,747.5328],[29.7236328125,0.698602606244108,765.7662],[29.7255859375,0.70587799686912,717.6334],[29.72021484375,0.715594793744117,717.308],[29.7265625,0.727557684369117,718.754],[29.734375,0.731463934369117,704.4435],[29.743896484375,0.732538153119108,702.0818],[29.7548828125,0.73602936405662,696.8953],[29.76171875,0.75031159061912,759.9556],[29.767822265625,0.75067780155662,756.8765],[29.783789062500006,0.74884674686912,777.1677],[29.7890625,0.75031159061912,736.0284],[29.797265625000023,0.76312897343162,695.2459],[29.802978515625,0.77716705936912,752.9074],[29.81015625,0.78974030155662,723.5625],[29.823144531250023,0.79816315311912,778.8891],[29.931054687500023,0.81940338749412,718.0165],[29.959716796875,0.83222077030662,687.2495],[29.995849609375,0.86005280155662,697.7269],[30.037841796875,0.87909577030662,669.4294],[30.144628906250006,0.90338776249412,653.3315],[30.154296875,0.908807684369108,649.9557],[30.165136718750006,0.921649481244117,648.6194],[30.183203125,0.955340887494117,645.1053],[30.186279296875,0.958856512494108,644.3118],[30.191015625,0.97504303593162,644.7306],[30.213623046875,0.99872467655662,641.094],[30.220458984375,1.01727936405662,639.2535],[30.215039062500011,1.05792877811912,635.3606],[30.21484375,1.077264715619108,633.6879],[30.227441406250023,1.08917877811912,632.959],[30.23095703125,1.0979190124941169,632.1843],[30.233642578125,1.10822174686912,632.413],[30.235595703125,1.12958405155662,632.7573],[30.23828125,1.136102606244108,633.212],[30.268798828125,1.16742584843162,642.6225],[30.277587890625,1.171747137494108,632.1636],[30.285839843750011,1.174432684369108,629.616],[30.295166015625,1.17279694218162,629.0464],[30.306054687500023,1.16400787968162,628.9287],[30.3232421875,1.1560244812441169,627.1978],[30.335546875,1.16901276249412,626.0326],[30.347753906250006,1.18915436405662,626.2294],[30.364355468750006,1.20221588749412,627.9579],[30.376074218750006,1.20319244999412,624.1068],[30.398681640625,1.20075104374412,623.197],[30.412207031250006,1.20221588749412,623.3007],[30.43115234375,1.20722077030662,622.5289],[30.444921875,1.2129092468691169,621.4849],[30.457763671875,1.22186920780662,620.0],[30.477783203125,1.23883698124412,620.0]]}}