{"type":"Feature","properties":{"featurecla":"Lake Centerline","scalerank":6,"rivernum":223,"dissolve":"223Lake Centerline","name":"Semliki","name_alt":null,"note":null,"min_zoom":5.0,"strokeweig":0.2,"name_en":"Semliki","min_label":6.0},
"geometry":{"type": "LineString","coordinates": [[29.4521484375,-0.606963800005886,915.585],[29.4599609375,-0.57854583125588,912.0],[29.462988281250006,-0.55803801875588,912.0],[29.469824218750006,-0.526397393755886,912.0],[29.483496093750006,-0.47332122188088,912.0],[29.511962890625,-0.392413018755889,912.0],[29.598046875000023,-0.21819426875588,912.0],[29.616308593750006,-0.176299737505886,912.0],[29.612548828125,-0.14641692500588,912.0],[29.59716796875,-0.13420989375588,942.8953]]}}