{"type":"Feature","properties":{"GID_2":"COD.22.5_1","GID_0":"COD","country":"DemocraticRepublicoftheCongo","GID_1":"COD.22_1","province":"Sud-Kivu","NL_NAME_1":"NA","county":"Kabare","VARNAME_2":"NA","NL_NAME_2":"NA","TYPE_2":"Territoire","ENGTYPE_2":"Territory","CC_2":"NA","HASC_2":"NA","name":"Kabare.county"},
"geometry":{"type": "MultiPolygon","coordinates": [[[[28.8741,-2.4598,1461.0],[28.8677,-2.4436,1461.0],[28.8669,-2.4321,1461.0],[28.8707,-2.4155,1461.0],[28.8796,-2.3984,1461.0],[28.8927,-2.3835,1461.0],[28.9108,-2.3718,1461.0],[28.9304,-2.3718,1461.0],[28.9374,-2.3746,1461.0],[28.9515,-2.3764,1461.0],[28.9608,-2.3739,1461.0],[28.965,-2.3702,1461.0],[28.966,-2.364,1461.0],[28.9605,-2.3538,1461.0],[28.9644,-2.3499,1461.0],[28.9771,-2.3453,1461.0],[28.9809,-2.3424,1461.0],[28.9942,-2.3142,1461.0],[28.9986,-2.2975,1461.0],[29.0099,-2.2901,1461.0],[29.0045,-2.2709,1461.0],[28.998,-2.2598,1461.0],[28.987,-2.2488,1461.0],[28.9739,-2.2413,1461.0],[28.9597,-2.214,1461.0],[28.946,-2.1748,1461.0],[28.9289,-2.1577,1461.0],[28.9205,-2.1591,1461.0],[28.9131,-2.1564,1476.9161],[28.906,-2.162,1474.976],[28.9026,-2.1539,1461.0],[28.9081,-2.1536,1462.9363],[28.9091,-2.1486,1463.801],[28.9009,-2.1462,1461.0],[28.8979,-2.1498,1484.3597],[28.8961,-2.1433,1465.0966],[28.8892,-2.147,1480.1908],[28.8825,-2.1437,1465.1868],[28.8802,-2.1472,1467.8629],[28.8842,-2.1491,1467.0247],[28.8842,-2.1507,1462.1141],[28.8758,-2.1536,1506.5133],[28.8729,-2.1561,1461.0],[28.8704,-2.1622,1475.3668],[28.8673,-2.1633,1498.1346],[28.8638,-2.1617,1465.5659],[28.8626,-2.1578,1463.2461],[28.8596,-2.1557,1461.9084],[28.8602,-2.1508,1461.0],[28.8568,-2.15,1474.3844],[28.8605,-2.1477,1462.0343],[28.8583,-2.1436,1467.3486],[28.8309,-2.1529,1822.5833],[28.804,-2.1414,2184.3962],[28.774,-2.1469,2335.2212],[28.7614,-2.1427,2327.1267],[28.7538,-2.1264,2333.3394],[28.743,-2.1308,2555.4268],[28.7277,-2.1552,2739.4155],[28.684,-2.2122,2451.5547],[28.6856,-2.2276,2722.8574],[28.6843,-2.2401,2887.4995],[28.6727,-2.2624,2394.3926],[28.6521,-2.2896,2306.7222],[28.6442,-2.2963,2185.5957],[28.6589,-2.3251,2181.3315],[28.6574,-2.3562,2061.1287],[28.671,-2.3752,2270.3281],[28.6648,-2.396,2308.5881],[28.6538,-2.422,2516.8989],[28.5969,-2.4718,2306.4126],[28.571,-2.485,1991.8413],[28.5688,-2.4605,2186.0396],[28.5407,-2.4664,1682.5001],[28.5288,-2.4657,1589.9946],[28.5084,-2.4559,1695.8524],[28.502,-2.4562,1719.6129],[28.469,-2.4365,1831.5581],[28.4306,-2.4326,1746.1012],[28.3966,-2.4135,1531.4427],[28.3935,-2.393,1492.6118],[28.3763,-2.3882,1285.6641],[28.3353,-2.3833,1316.6825],[28.3111,-2.3768,1236.0297],[28.2919,-2.3893,1297.4573],[28.2798,-2.4013,1376.197],[28.2681,-2.4246,1366.3596],[28.2686,-2.4391,1128.0787],[28.2746,-2.4581,1130.292],[28.2724,-2.4685,1072.4255],[28.2761,-2.4985,1068.4742],[28.2731,-2.5175,1056.2173],[28.2486,-2.5208,1059.204],[28.2371,-2.5068,1059.1085],[28.2103,-2.5122,1088.0785],[28.2075,-2.5247,1111.6685],[28.2172,-2.5335,1055.5029],[28.2476,-2.551,1301.4563],[28.2529,-2.5756,1253.6469],[28.263,-2.5801,1197.4257],[28.2565,-2.5935,1218.3817],[28.2471,-2.6022,1269.3756],[28.2354,-2.6034,1212.8274],[28.2069,-2.6388,1199.4314],[28.2057,-2.6446,1067.7461],[28.2168,-2.6434,1072.2777],[28.2207,-2.6383,1068.1064],[28.2296,-2.64,1174.8914],[28.2388,-2.6333,1109.7637],[28.2435,-2.6328,1108.377],[28.255,-2.6231,1117.3461],[28.2644,-2.6217,1107.1328],[28.2662,-2.6236,1099.0684],[28.2714,-2.6239,1096.7468],[28.2798,-2.6187,1098.5271],[28.2805,-2.614,1128.8262],[28.2853,-2.6081,1123.8435],[28.2886,-2.609,1133.2694],[28.2906,-2.607,1102.6716],[28.2913,-2.6107,1105.1814],[28.2941,-2.6113,1126.6367],[28.2964,-2.6154,1150.549],[28.3006,-2.6181,1143.9668],[28.3007,-2.62,1180.9565],[28.3053,-2.6188,1222.1667],[28.3097,-2.6247,1216.7789],[28.3138,-2.6233,1176.8894],[28.3129,-2.6307,1227.1207],[28.315,-2.6304,1191.1544],[28.3149,-2.6323,1231.7422],[28.3162,-2.6314,1229.856],[28.3157,-2.6275,1219.5879],[28.3181,-2.6245,1206.5963],[28.3296,-2.6251,1262.6104],[28.3356,-2.6308,1354.1848],[28.3411,-2.6329,1270.4204],[28.3463,-2.6403,1290.436],[28.3589,-2.6525,1285.6265],[28.3694,-2.6546,1258.9042],[28.371,-2.6657,1332.4937],[28.3749,-2.6698,1424.8923],[28.3862,-2.6768,1435.967],[28.4095,-2.6954,1571.0636],[28.4228,-2.6983,1475.3766],[28.4439,-2.6999,1501.0276],[28.4623,-2.6993,1420.8888],[28.4651,-2.6981,1403.9768],[28.4669,-2.6931,1442.4946],[28.4779,-2.6783,1474.4602],[28.4878,-2.6697,1492.2192],[28.5073,-2.6587,1551.9872],[28.5086,-2.6564,1551.4036],[28.5426,-2.6456,2074.3755],[28.5597,-2.6308,2025.3508],[28.5825,-2.5973,1893.6117],[28.5866,-2.5825,1995.7939],[28.6053,-2.5604,1980.0369],[28.6167,-2.5514,2300.2061],[28.633,-2.5465,2502.6589],[28.6907,-2.5509,2095.6104],[28.7071,-2.5493,2149.084],[28.7353,-2.5429,1949.2169],[28.7481,-2.5451,1882.3701],[28.7525,-2.5476,1897.5791],[28.7593,-2.5582,1883.0892],[28.7627,-2.561,1940.0212],[28.7848,-2.5639,2033.8247],[28.8095,-2.5704,2118.2217],[28.8223,-2.5747,2019.2076],[28.8355,-2.5821,1906.0453],[28.8393,-2.5849,1819.0339],[28.8511,-2.6085,1598.1154],[28.8542,-2.6188,1581.8385],[28.862,-2.6321,1570.431],[28.8765,-2.6448,1585.3938],[28.8954,-2.6528,1318.0343],[28.904,-2.6497,1381.2402],[28.9058,-2.6451,1357.6313],[28.9038,-2.6271,1399.0022],[28.9026,-2.6239,1405.5381],[28.9004,-2.623,1396.0],[28.902,-2.6074,1409.1915],[28.8975,-2.5971,1405.2272],[28.9,-2.5849,1417.2219],[28.8952,-2.5755,1419.6198],[28.8932,-2.5606,1448.7252],[28.8857,-2.5551,1426.5525],[28.8711,-2.5597,1629.7324],[28.8594,-2.5612,1638.6281],[28.8495,-2.555,1900.889],[28.8415,-2.5363,1848.3496],[28.836,-2.5326,1950.6023],[28.8248,-2.5338,2027.1754],[28.8207,-2.5285,2076.2271],[28.8208,-2.5245,2018.2681],[28.8177,-2.5255,2029.2405],[28.8163,-2.5221,2026.3257],[28.8127,-2.5201,2102.5398],[28.8017,-2.5201,2048.1633],[28.7952,-2.5162,1973.2522],[28.7937,-2.5109,1944.3171],[28.7941,-2.5063,1983.4874],[28.803,-2.4915,1940.6647],[28.8024,-2.4788,1834.9507],[28.8045,-2.4712,1774.1028],[28.8281,-2.4669,1550.9769],[28.832,-2.4616,1512.9897],[28.8496,-2.4559,1461.0],[28.8604,-2.4549,1461.0],[28.8678,-2.456,1461.0],[28.8741,-2.4598,1461.0]]]]}}