{"type": "Feature","bbox": [28.7941,-2.5612,28.8929,-2.4549],"geometry": {"type": "MultiPolygon","coordinates": [[[[28.8857,-2.5551,1426.5525],[28.877,-2.5499,1429.7697],[28.8698,-2.5389,1445.5826],[28.8631,-2.5336,1437.7777],[28.8618,-2.5245,1438.3087],[28.8655,-2.518,1456.8385],[28.8744,-2.5094,1482.4917],[28.8873,-2.5066,1465.9155],[28.8889,-2.5049,1463.6838],[28.8929,-2.4896,1485.0487],[28.8903,-2.4788,1461.0],[28.8868,-2.4724,1461.0],[28.8741,-2.4598,1461.0],[28.8678,-2.456,1461.0],[28.8604,-2.4549,1461.0],[28.8454,-2.4566,1461.0],[28.8387,-2.4587,1464.4756],[28.8359,-2.4613,1489.6431],[28.832,-2.4616,1512.9897],[28.8281,-2.4669,1550.9769],[28.8045,-2.4712,1774.1028],[28.8024,-2.4788,1834.9507],[28.803,-2.4915,1940.6647],[28.7941,-2.5063,1983.4874],[28.7952,-2.5162,1973.2522],[28.8017,-2.5201,2048.1633],[28.8153,-2.5212,2053.6392],[28.8177,-2.5255,2029.2405],[28.8208,-2.5245,2018.2681],[28.8207,-2.5285,2076.2271],[28.8248,-2.5338,2027.1754],[28.836,-2.5326,1950.6023],[28.8415,-2.5363,1848.3496],[28.8495,-2.555,1900.889],[28.8594,-2.5612,1638.6281],[28.8711,-2.5597,1629.7324],[28.8857,-2.5551,1426.5525]]]]}
,"properties": {"GID_2": "COD.22.2_1","GID_0": "COD","country": "DemocraticRepublicoftheCongo","GID_1": "COD.22_1","province": "Sud-Kivu","NL_NAME_1": "NA","county": "Bukavu","VARNAME_2": "NA","NL_NAME_2": "NA","TYPE_2": "Ville","ENGTYPE_2": "Town","CC_2": "NA","HASC_2": "NA","name": "Bukavu.county","area_km2": 77.16608,"hist_schema_id": "Elevation0-9000","hist_area_km2": {"1425": 0.3389,"1450": 20.92819,"1475": 3.45268,"1500": 3.66449,"1525": 3.87631,"1550": 3.74917,"1575": 2.94428,"1600": 2.88073,"1625": 2.43592,"1650": 2.43591,"1675": 2.60537,"1700": 2.39355,"1725": 2.16055,"1750": 2.18173,"1775": 2.11819,"1800": 2.18174,"1825": 1.84283,"1850": 1.92755,"1875": 2.24528,"1900": 2.30882,"1925": 1.50391,"1950": 1.60982,"1975": 1.52509,"2000": 1.31327,"2025": 1.10145,"2050": 0.78373,"2075": 0.50836,"2100": 0.12709,"2125": 0.02118}}}