{"type": "Feature","bbox": [15.9019,-4.399,21.0233,-0.736],"geometry": {"type": "MultiPolygon","coordinates": [[[[16.4688,-4.2171,551.1764],[16.4707,-4.2189,551.3397],[16.4834,-4.2229,415.0928],[16.4935,-4.2056,365.7025],[16.4975,-4.2048,334.6649],[16.4978,-4.2014,344.3323],[16.4945,-4.1928,330.0],[16.4962,-4.1847,330.0],[16.502,-4.1838,339.722],[16.5128,-4.1779,341.6909],[16.547,-4.1673,418.2084],[16.5534,-4.1606,351.7707],[16.5665,-4.153,409.7722],[16.5786,-4.1481,425.3515],[16.5857,-4.143,357.8962],[16.5965,-4.1422,369.8327],[16.6086,-4.1348,386.0264],[16.6127,-4.1343,369.7083],[16.6177,-4.1366,393.9969],[16.634,-4.1333,333.5236],[16.6623,-4.1431,372.1901],[16.6749,-4.1428,351.6673],[16.6808,-4.1481,411.8373],[16.6884,-4.1511,442.1091],[16.693,-4.1503,416.2097],[16.6971,-4.1476,469.9767],[16.7026,-4.1399,422.1738],[16.7105,-4.1229,397.353],[16.7153,-4.1192,407.7689],[16.7305,-4.1173,502.2251],[16.7474,-4.1016,417.5311],[16.7611,-4.0962,491.3289],[16.773,-4.0872,493.8574],[16.7847,-4.0841,430.1832],[16.7954,-4.0841,329.4],[16.8173,-4.0969,425.7275],[16.8218,-4.0971,435.71],[16.8273,-4.0945,478.1783],[16.8547,-4.0737,385.5106],[16.8634,-4.0651,458.7588],[16.8728,-4.0617,465.8759],[16.8783,-4.057,453.7067],[16.9104,-4.0215,379.9076],[16.9154,-4.0035,395.8566],[16.9325,-3.9868,363.2644],[16.9469,-3.9833,384.533],[16.9593,-3.9833,362.97],[16.9737,-3.9804,352.7187],[16.9841,-3.9857,382.6322],[16.9902,-3.9815,390.0709],[17.0148,-3.9818,363.4397],[17.0224,-3.9841,333.2504],[17.0327,-3.996,399.3794],[17.0438,-4.0038,392.1251],[17.0596,-4.0072,344.581],[17.081,-4.0234,350.1072],[17.0991,-4.0282,428.2703],[17.1083,-4.0254,401.9738],[17.1268,-4.011,407.3552],[17.1341,-3.9995,419.369],[17.1381,-3.981,359.4558],[17.1548,-3.9655,383.4399],[17.17,-3.9441,342.3382],[17.1743,-3.941,339.2173],[17.1881,-3.9401,320.1188],[17.192,-3.9366,335.7324],[17.1992,-3.9205,321.4728],[17.207,-3.9126,316.757],[17.2174,-3.8909,312.5338],[17.2191,-3.87,309.9994],[17.2174,-3.8458,311.7824],[17.2192,-3.8403,310.1079],[17.2337,-3.8259,322.8741],[17.2363,-3.8216,328.6767],[17.2344,-3.8124,324.344],[17.2357,-3.7972,308.0],[17.2409,-3.7856,308.397],[17.2592,-3.7678,308.0829],[17.2673,-3.7399,307.0295],[17.2782,-3.7185,306.6528],[17.2841,-3.7125,306.374],[17.2978,-3.7062,305.7997],[17.3019,-3.7025,305.6333],[17.3058,-3.6958,305.5187],[17.3069,-3.6903,305.3719],[17.3036,-3.6755,304.9677],[17.3036,-3.6677,305.1633],[17.3079,-3.6638,304.9878],[17.3138,-3.6615,304.5085],[17.3292,-3.6586,304.5495],[17.3321,-3.6533,313.0404],[17.3326,-3.6494,312.9838],[17.3288,-3.6379,303.7485],[17.3183,-3.6315,304.1545],[17.3148,-3.6272,304.8528],[17.305,-3.5945,302.9937],[17.2958,-3.5872,302.7075],[17.2868,-3.5744,303.7079],[17.2865,-3.5705,301.9833],[17.2913,-3.553,301.0],[17.2908,-3.547,301.9995],[17.2868,-3.5396,301.7723],[17.2822,-3.5355,300.833],[17.2799,-3.53,301.1411],[17.2786,-3.5061,310.6819],[17.2733,-3.4895,299.5],[17.2744,-3.4787,299.0],[17.2801,-3.4716,299.0],[17.2863,-3.4583,298.5],[17.3015,-3.4467,298.5],[17.3085,-3.4431,298.0],[17.3202,-3.4329,298.0],[17.3265,-3.4175,297.5],[17.3303,-3.3961,298.1911],[17.3344,-3.391,297.5342],[17.3484,-3.3911,296.5],[17.3531,-3.3863,296.5],[17.3559,-3.3788,296.5],[17.3592,-3.3635,296.0],[17.358,-3.3589,296.0],[17.3522,-3.3492,297.1421],[17.3386,-3.3325,295.0],[17.3391,-3.3293,295.1868],[17.3466,-3.3219,294.5],[17.3603,-3.3126,294.0],[17.366,-3.3054,294.0],[17.3809,-3.2649,295.7657],[17.3776,-3.2481,292.5],[17.3562,-3.2141,292.5],[17.3537,-3.1985,307.4682],[17.3663,-3.1978,302.4847],[17.3757,-3.1917,303.2746],[17.3975,-3.1981,298.8437],[17.4,-3.2015,295.1602],[17.4016,-3.2084,306.8192],[17.4067,-3.2123,302.071],[17.4113,-3.2136,313.61],[17.42,-3.2118,303.4559],[17.4257,-3.2124,308.4032],[17.4319,-3.2184,294.7631],[17.4315,-3.2278,303.7409],[17.4329,-3.2315,312.6406],[17.4423,-3.237,301.2552],[17.4637,-3.2456,297.7468],[17.4731,-3.2469,299.1255],[17.4848,-3.2547,300.8981],[17.4924,-3.2546,303.6822],[17.4992,-3.2507,307.6988],[17.5031,-3.2504,298.2399],[17.5272,-3.2623,315.3916],[17.5309,-3.2646,313.1395],[17.5572,-3.2936,306.6766],[17.5733,-3.3028,304.367],[17.5854,-3.3055,300.5573],[17.5971,-3.3059,302.4053],[17.6028,-3.3051,301.6097],[17.6147,-3.2993,300.8488],[17.6275,-3.2988,299.6215],[17.6333,-3.3008,300.6929],[17.6468,-3.3136,302.0618],[17.6569,-3.312,303.2164],[17.6611,-3.3133,303.6085],[17.6797,-3.3316,298.0],[17.6859,-3.3318,306.3523],[17.6927,-3.3274,306.2024],[17.6993,-3.3205,303.7068],[17.7046,-3.3189,306.4888],[17.711,-3.3193,306.7022],[17.7193,-3.3229,299.5649],[17.7396,-3.3458,304.8956],[17.7511,-3.3533,301.3697],[17.755,-3.3602,300.923],[17.7584,-3.363,302.4196],[17.7991,-3.3818,302.8237],[17.8193,-3.387,321.6035],[17.8228,-3.3918,311.8049],[17.8265,-3.4095,305.4572],[17.8325,-3.4182,311.5025],[17.8447,-3.4246,301.0],[17.8495,-3.4253,301.0],[17.8601,-3.4227,301.0],[17.8699,-3.4164,301.0],[17.8785,-3.4136,304.2645],[17.9026,-3.4125,313.3401],[17.9058,-3.4111,310.8349],[17.9154,-3.4125,301.5],[17.9205,-3.4104,301.5],[17.9282,-3.4101,301.5],[17.938,-3.4029,304.7332],[17.9525,-3.4026,301.5],[17.9575,-3.4,301.5],[17.9678,-3.3905,307.2004],[17.9918,-3.3823,302.0],[18.0,-3.3853,311.2084],[18.0131,-3.387,302.0],[18.0341,-3.3782,302.5],[18.0435,-3.3774,303.0],[18.0681,-3.3849,311.2491],[18.0851,-3.4032,303.5],[18.0941,-3.4047,304.0],[18.1092,-3.4021,312.0839],[18.1382,-3.4351,307.8342],[18.1511,-3.446,306.6973],[18.1566,-3.4472,305.5],[18.1662,-3.4411,305.5],[18.1692,-3.4356,305.5],[18.1712,-3.4257,308.2277],[18.1737,-3.4218,308.4328],[18.1789,-3.4185,308.5078],[18.1867,-3.4178,306.0],[18.194,-3.414,306.9875],[18.202,-3.4057,308.7839],[18.2086,-3.4027,306.8239],[18.2143,-3.4042,308.9312],[18.2269,-3.4032,308.808],[18.2416,-3.3995,309.2469],[18.2462,-3.4038,309.9516],[18.2488,-3.4153,308.1836],[18.2527,-3.4206,308.2498],[18.2628,-3.4242,309.5962],[18.2683,-3.4283,315.4165],[18.2755,-3.4457,319.3699],[18.2731,-3.4573,314.1291],[18.2816,-3.4586,308.8752],[18.294,-3.4682,308.5],[18.3011,-3.4698,316.3107],[18.3055,-3.4736,318.3278],[18.3097,-3.4833,314.4661],[18.3122,-3.4858,312.2643],[18.3218,-3.489,318.167],[18.3419,-3.499,313.206],[18.347,-3.5141,309.5],[18.3552,-3.5164,311.6832],[18.3569,-3.5223,310.0],[18.3631,-3.5306,311.4786],[18.3909,-3.5391,312.605],[18.3978,-3.5366,312.1292],[18.3982,-3.5382,312.2969],[18.3955,-3.5419,312.0006],[18.3925,-3.5433,312.2713],[18.3958,-3.5465,311.6129],[18.4038,-3.5448,312.5667],[18.4019,-3.5382,312.5442],[18.4033,-3.5368,312.4464],[18.4129,-3.5397,313.6363],[18.4251,-3.5523,313.0333],[18.4378,-3.5593,313.4377],[18.4378,-3.5665,313.5359],[18.4413,-3.5683,313.1041],[18.4479,-3.5636,313.1399],[18.4541,-3.5641,312.0],[18.4628,-3.5709,312.7458],[18.469,-3.5718,314.1698],[18.4814,-3.5779,312.5],[18.4874,-3.5744,312.5],[18.502,-3.5736,313.0],[18.511,-3.5777,313.0],[18.5245,-3.5797,314.4607],[18.5344,-3.5863,313.5],[18.542,-3.5854,313.5],[18.5473,-3.5774,314.9259],[18.5499,-3.5764,314.7425],[18.5525,-3.5834,313.5],[18.5653,-3.5833,314.9731],[18.5813,-3.5685,315.8003],[18.5872,-3.5673,316.0771],[18.604,-3.5709,322.1131],[18.6155,-3.5807,330.9781],[18.6185,-3.5867,315.8056],[18.63,-3.5875,315.0],[18.6422,-3.598,315.5],[18.6465,-3.5962,315.5],[18.658,-3.5952,316.6783],[18.6663,-3.5995,316.7532],[18.6741,-3.6089,316.8824],[18.6842,-3.6116,317.1734],[18.7118,-3.6236,316.5],[18.7152,-3.6233,316.5],[18.7211,-3.6159,316.5],[18.7262,-3.6149,317.0],[18.7368,-3.6216,318.4277],[18.745,-3.624,317.0],[18.7659,-3.6239,320.0053],[18.7709,-3.6255,322.2561],[18.7836,-3.6387,318.0],[18.7868,-3.6383,318.0],[18.7926,-3.6407,318.0],[18.7994,-3.64,318.0],[18.8054,-3.6439,319.786],[18.816,-3.6475,331.6752],[18.8284,-3.6483,333.1616],[18.833,-3.6508,329.7435],[18.8474,-3.6516,321.918],[18.8612,-3.6598,319.5],[18.8686,-3.6591,328.3062],[18.8839,-3.6608,337.985],[18.9074,-3.6729,343.3616],[18.9315,-3.6791,340.2292],[18.9368,-3.6851,332.2182],[18.9545,-3.6953,321.0],[18.9639,-3.6989,321.5],[18.9759,-3.6995,334.1372],[18.9883,-3.7103,321.5],[19.0,-3.7115,336.7844],[19.0191,-3.7253,342.8832],[19.0417,-3.7319,341.8792],[19.0483,-3.7368,346.6491],[19.0579,-3.7488,341.7534],[19.0654,-3.7539,321.5],[19.0835,-3.7593,322.0],[19.0951,-3.7661,322.5],[19.1047,-3.7671,322.5],[19.1313,-3.7656,324.2788],[19.1466,-3.7738,330.2561],[19.1551,-3.7757,340.3864],[19.1594,-3.7817,331.3278],[19.1786,-3.7919,324.1066],[19.202,-3.7969,326.4621],[19.2195,-3.8088,333.136],[19.23,-3.8123,325.4946],[19.2444,-3.8232,324.0],[19.2629,-3.8267,330.5591],[19.2754,-3.8346,343.4618],[19.2823,-3.8435,337.753],[19.3022,-3.8568,325.5],[19.3205,-3.8573,350.1185],[19.3527,-3.876,388.7643],[19.3563,-3.881,360.4365],[19.3689,-3.8913,346.1044],[19.373,-3.8931,348.2819],[19.3831,-3.8939,351.1007],[19.3954,-3.9062,381.2044],[19.426,-3.9255,386.2075],[19.442,-3.9325,350.2727],[19.4517,-3.9468,390.7723],[19.4554,-3.9477,387.3074],[19.4621,-3.9464,359.7854],[19.4778,-3.952,376.5166],[19.4975,-3.9671,355.1077],[19.5016,-3.9736,331.5079],[19.5347,-3.9878,350.7072],[19.5374,-3.9924,335.4128],[19.5482,-3.9992,353.1113],[19.5543,-3.9995,377.2625],[19.5603,-4.0034,350.4794],[19.5685,-4.0037,367.4086],[19.5833,-4.0176,354.2404],[19.5881,-4.0282,340.7022],[19.5963,-4.0368,347.6092],[19.605,-4.0419,332.0],[19.6158,-4.0408,343.2703],[19.6233,-4.0422,344.6029],[19.6338,-4.0469,342.5978],[19.6643,-4.0519,346.4628],[19.6709,-4.0579,349.5932],[19.6888,-4.0585,352.3192],[19.6982,-4.0551,394.8624],[19.7062,-4.0561,400.7274],[19.7126,-4.06,382.6314],[19.7303,-4.0606,385.8302],[19.7341,-4.0636,387.7758],[19.7554,-4.0674,356.9008],[19.7579,-4.0725,358.7128],[19.7602,-4.073,350.7433],[19.7644,-4.0686,376.3387],[19.7699,-4.0661,372.2537],[19.7802,-4.0662,366.7084],[19.8017,-4.0788,343.9839],[19.8113,-4.0878,347.4763],[19.8209,-4.0913,352.7882],[19.8394,-4.0912,354.3589],[19.8452,-4.0894,358.1972],[19.8507,-4.0896,362.9988],[19.8562,-4.0922,363.8118],[19.8739,-4.1121,353.0468],[19.8801,-4.1243,355.1734],[19.8862,-4.1317,373.796],[19.8909,-4.1435,357.8615],[19.9024,-4.15,381.727],[19.9154,-4.1512,386.3962],[19.9241,-4.1547,355.8746],[19.938,-4.1668,422.6826],[19.9414,-4.1772,413.8123],[19.9448,-4.1804,402.8298],[19.9499,-4.182,370.088],[19.9584,-4.1745,364.5122],[19.965699999999998,-4.1739,393.0869],[19.9801,-4.1838,373.5031],[19.9853,-4.2004,356.382],[19.9892,-4.2039,358.9474],[19.9963,-4.2065,369.6202],[20.0011,-4.2116,381.9434],[20.0047,-4.2196,383.778],[20.01,-4.2222,384.7447],[20.0179,-4.2333,396.7681],[20.0181,-4.2492,386.0732],[20.0292,-4.2614,432.5984],[20.0306,-4.2697,392.4336],[20.0335,-4.2737,424.2924],[20.038,-4.2859,341.0],[20.055,-4.2901,341.0],[20.0716,-4.291,341.5],[20.0922,-4.2873,341.5],[20.1013,-4.292,342.3502],[20.1089,-4.2932,342.0],[20.1261,-4.2925,349.0138],[20.1304,-4.2944,350.0163],[20.1377,-4.3005,347.5842],[20.1409,-4.3088,351.254],[20.1455,-4.312,342.5],[20.1553,-4.3139,342.5],[20.1644,-4.3213,343.0],[20.1662,-4.3363,343.0],[20.1698,-4.3405,343.0],[20.1735,-4.3423,343.0],[20.1797,-4.3414,343.5],[20.185,-4.3428,343.5],[20.2006,-4.3349,343.5],[20.2164,-4.3387,344.0],[20.2313,-4.3488,391.3793],[20.2342,-4.3613,353.7687],[20.2307,-4.3689,344.5],[20.2341,-4.382,419.2734],[20.2503,-4.3849,344.5],[20.2542,-4.3869,344.5],[20.2601,-4.3973,401.3948],[20.2661,-4.399,394.1697],[20.2817,-4.3906,363.1281],[20.2952,-4.3897,424.7726],[20.3022,-4.3844,411.3752],[20.3081,-4.3836,376.584],[20.3134,-4.3852,345.5],[20.3271,-4.3938,358.6352],[20.3399,-4.3982,435.2267],[20.3525,-4.3988,469.5805],[20.3615,-4.3935,468.8883],[20.3627,-4.3908,472.1772],[20.3597,-4.3848,462.7658],[20.371,-4.3715,469.1274],[20.3726,-4.3671,452.9413],[20.3629,-4.3482,429.922],[20.3652,-4.3413,423.2572],[20.3717,-4.3312,422.9515],[20.377,-4.3108,350.963],[20.3828,-4.2998,351.4593],[20.3874,-4.2975,347.5],[20.3988,-4.297,347.5],[20.4018,-4.2943,351.6009],[20.4081,-4.2925,348.0],[20.4157,-4.2843,348.0],[20.427,-4.2891,350.6704],[20.4466,-4.2892,352.2433],[20.4601,-4.2955,367.6323],[20.4692,-4.2946,363.4985],[20.4746,-4.2907,357.8976],[20.4798,-4.271,359.3972],[20.4849,-4.2656,349.5],[20.5064,-4.262,350.0],[20.5356,-4.2456,350.5],[20.5886,-4.226,351.5],[20.5932,-4.2221,351.5],[20.6061,-4.2213,355.8197],[20.6139,-4.2133,358.8135],[20.6307,-4.2074,355.394],[20.6311,-4.2028,356.1157],[20.6271,-4.1979,358.4041],[20.6275,-4.1938,358.3649],[20.6356,-4.183,359.9896],[20.6357,-4.1685,364.1559],[20.6373,-4.1644,364.6829],[20.6486,-4.1589,357.865],[20.6564,-4.1478,364.029],[20.6599,-4.1307,366.3864],[20.6621,-4.1034,402.8542],[20.6602,-4.0796,443.481],[20.6617,-4.0583,482.2697],[20.6534,-3.9995,425.9012],[20.6435,-3.9711,414.7156],[20.6467,-3.8915,418.3439],[20.6442,-3.85,519.1017],[20.6408,-3.7267,527.4325],[20.6306,-3.5613,421.9574],[20.631,-3.487,375.7648],[20.6256,-3.4262,347.5429],[20.6288,-3.4083,346.3146],[20.6253,-3.3453,378.8009],[20.6253,-3.3269,386.9284],[20.6275,-3.3164,397.1984],[20.6388,-3.2937,359.2553],[20.6578,-3.236,410.9632],[20.6585,-3.2331,411.7859],[20.6569,-3.2324,402.2413],[20.6558,-3.2261,423.4143],[20.6582,-3.2094,398.7072],[20.6654,-3.1848,452.8196],[20.6673,-3.1691,405.8774],[20.672,-3.1508,402.0609],[20.6757,-3.1439,405.1162],[20.6842,-3.1366,465.3437],[20.6902,-3.1069,453.0706],[20.7266,-2.998,442.0692],[20.7539,-2.9244,424.8692],[20.7758,-2.8729,394.6783],[20.8004,-2.8218,419.5064],[20.8068,-2.8039,398.574],[20.817,-2.7897,431.0797],[20.8282,-2.7776,393.463],[20.8654,-2.7486,451.0603],[20.8645,-2.7023,432.2341],[20.8746,-2.6771,404.0578],[20.8933,-2.6466,452.9275],[20.9232,-2.6065,451.4002],[20.9499,-2.5581,443.4919],[20.9574,-2.5344,521.135],[20.9574,-2.515,466.7469],[20.9621,-2.4898,420.1686],[21.0163,-2.4944,429.7685],[21.0198,-2.4653,418.6741],[21.0201,-2.4346,415.6746],[21.0233,-2.417,434.4147],[21.0223,-2.4037,440.3784],[21.015,-2.3922,412.7282],[21.0118,-2.3838,409.682],[20.9869,-2.3712,447.2909],[20.9609,-2.347,504.5691],[20.9575,-2.3401,456.1841],[20.9548,-2.3244,468.3941],[20.9298,-2.2902,429.2926],[20.9278,-2.2769,477.5412],[20.921,-2.2656,465.422],[20.9055,-2.2471,405.2022],[20.8887,-2.2146,413.4769],[20.878,-2.2054,412.9501],[20.8602,-2.203,397.4515],[20.8435,-2.1932,406.2212],[20.8319,-2.1766,387.1488],[20.8242,-2.1683,385.3165],[20.8112,-2.159,406.0253],[20.7976,-2.1438,394.8128],[20.786,-2.1265,381.2045],[20.7803,-2.1207,384.8642],[20.7741,-2.1177,393.3019],[20.7675,-2.1119,372.6064],[20.7587,-2.0992,406.0275],[20.7395,-2.0807,383.4036],[20.7311,-2.0639,402.7133],[20.7223,-2.051,373.3839],[20.7169,-2.036,379.1682],[20.7107,-2.027,387.8764],[20.6864,-2.0034,422.011],[20.6832,-1.996,388.973],[20.6686,-1.9785,400.0369],[20.6575,-1.9605,382.1453],[20.6502,-1.9655,409.3287],[20.6465,-1.9731,413.5632],[20.6416,-1.9942,432.3853],[20.6379,-1.9997,440.4625],[20.6299,-2.005,410.4309],[20.6255,-2.0132,438.1872],[20.6136,-2.0178,427.7971],[20.5835,-2.0249,455.119],[20.5433,-2.0313,425.527],[20.5379,-2.0348,419.288],[20.5214,-2.0601,415.8857],[20.5074,-2.0716,409.434],[20.4953,-2.074,405.7272],[20.4708,-2.0895,412.5891],[20.433,-2.0965,411.432],[20.4276,-2.0994,386.1678],[20.4142,-2.1118,405.1829],[20.3977,-2.1195,373.6498],[20.3852,-2.1051,419.9456],[20.3588,-2.0852,364.7455],[20.3476,-2.0808,395.7511],[20.3262,-2.065,417.2439],[20.3157,-2.0528,369.5105],[20.2885,-2.0407,402.0927],[20.268,-2.0369,411.139],[20.2554,-2.0331,381.7196],[20.2474,-2.0289,388.9089],[20.242,-2.0229,386.5874],[20.2395,-2.0176,390.3429],[20.2386,-2.0064,372.3337],[20.2419,-1.9992,384.952],[20.2355,-1.9875,384.3438],[20.2235,-1.975,370.9457],[20.1895,-1.9617,365.2146],[20.1849,-1.9585,351.6196],[20.1761,-1.9451,347.0275],[20.1658,-1.9347,347.4515],[20.1613,-1.9245,348.3853],[20.1535,-1.9191,353.4724],[20.1436,-1.9162,366.1945],[20.1215,-1.916,370.9075],[19.9695,-1.8957,352.9772],[19.933,-1.895,356.3076],[19.9276,-1.8972,356.7302],[19.9137,-1.8918,380.5241],[19.9014,-1.8791,364.289],[19.8975,-1.8497,355.6575],[19.8735,-1.7729,368.6309],[19.8551,-1.7069,367.0648],[19.8396,-1.6635,348.2704],[19.8354,-1.6571,365.9327],[19.8243,-1.6466,351.8277],[19.8176,-1.6431,351.0303],[19.807,-1.6408,352.0385],[19.8007,-1.6367,358.4156],[19.7672,-1.6,346.7215],[19.7492,-1.5862,352.4561],[19.7381,-1.5805,347.1386],[19.7322,-1.5784,349.2523],[19.7293,-1.5807,356.9559],[19.7297,-1.5897,348.4486],[19.7274,-1.6042,357.1664],[19.7187,-1.6076,353.3654],[19.7122,-1.6131,358.0679],[19.6896,-1.6582,365.1642],[19.6852,-1.663,365.1534],[19.6795,-1.6644,364.9294],[19.6797,-1.6674,369.9884],[19.6652,-1.6817,384.4398],[19.6604,-1.6836,377.8506],[19.6526,-1.6966,350.2849],[19.6467,-1.728,339.439],[19.6444,-1.7579,341.0722],[19.6383,-1.7722,346.7216],[19.6343,-1.7775,342.2826],[19.6209,-1.7884,330.303],[19.6074,-1.7945,336.8361],[19.6013,-1.802,331.1118],[19.5434,-1.8001,334.6336],[19.5313,-1.7954,335.6492],[19.5026,-1.7743,321.1413],[19.5068,-1.7681,322.16],[19.5102,-1.7573,320.1436],[19.5178,-1.7473,329.1302],[19.519,-1.7381,328.8943],[19.5178,-1.7199,328.9248],[19.5204,-1.71,335.952],[19.5152,-1.6957,337.4048],[19.5157,-1.6838,330.8692],[19.5133,-1.673,332.0932],[19.5099,-1.6672,332.4185],[19.4928,-1.6531,330.3474],[19.489,-1.6434,330.6804],[19.4884,-1.6339,330.4347],[19.4919,-1.608,339.8717],[19.4904,-1.6004,348.8477],[19.4946,-1.5859,337.6346],[19.4947,-1.5721,332.2613],[19.4756,-1.5419,337.299],[19.4571,-1.4796,334.4944],[19.4456,-1.4532,326.7069],[19.4344,-1.4366,325.4215],[19.4334,-1.4247,327.5531],[19.4272,-1.4228,324.1511],[19.4157,-1.3941,327.6563],[19.3918,-1.3441,324.433],[19.3774,-1.2884,328.4109],[19.3503,-1.2135,345.935],[19.337,-1.186,342.8636],[19.3114,-1.104,342.8277],[19.301,-1.0772,343.6652],[19.2884,-1.0609,348.1058],[19.281,-1.0562,350.0154],[19.2718,-1.0529,345.5995],[19.2168,-1.0521,360.5695],[19.2116,-1.0484,363.9298],[19.2068,-1.0406,354.9889],[19.2016,-0.9902,347.4388],[19.1974,-0.9285,333.3059],[19.1903,-0.8927,337.2552],[19.1829,-0.8744,337.8406],[19.1399,-0.7972,328.4681],[19.1218,-0.7746,327.6815],[19.1029,-0.7561,333.1014],[19.0904,-0.7405,339.2679],[19.0816,-0.736,342.5049],[19.0786,-0.7507,332.5104],[19.0691,-0.7722,332.2327],[19.0606,-0.7836,333.2939],[19.0562,-0.7868,332.8653],[19.0363,-0.7922,339.3382],[19.0097,-0.8161,370.3553],[19.0,-0.8195,369.8706],[18.9524,-0.8263,363.9368],[18.9483,-0.8282,367.5804],[18.9278,-0.8264,355.4337],[18.8975,-0.8174,385.6209],[18.8824,-0.8153,353.9601],[18.793,-0.822,368.414],[18.769,-0.868,355.2867],[18.749,-0.935,355.8921],[18.743,-1.012,335.2134],[18.752,-1.023,330.3184],[18.818,-1.038,325.1541],[18.851,-1.078,330.9145],[18.869,-1.133,321.6628],[18.871,-1.166,318.0314],[18.83,-1.184,317.8888],[18.798,-1.144,319.1015],[18.745,-1.118,316.4364],[18.733,-1.144,320.6429],[18.72,-1.183,315.861],[18.7611,-1.2363,326.433],[18.7511,-1.2354,338.5952],[18.7263,-1.2229,333.0599],[18.7094,-1.2208,323.1634],[18.6973,-1.2213,320.7128],[18.6772,-1.2263,317.2463],[18.6601,-1.234,315.0139],[18.6414,-1.2364,311.2434],[18.618,-1.2485,303.9332],[18.5984,-1.2539,325.8941],[18.5844,-1.2554,314.3871],[18.5721,-1.2608,323.1081],[18.5662,-1.2603,317.8812],[18.554,-1.2549,328.6306],[18.5412,-1.255,319.9839],[18.5296,-1.2603,318.9172],[18.5223,-1.2608,319.9337],[18.5134,-1.257,336.3865],[18.4952,-1.2413,326.0521],[18.4746,-1.2315,325.0732],[18.4523,-1.2061,333.707],[18.446,-1.1935,328.0558],[18.4384,-1.1881,334.4058],[18.406,-1.1804,337.8392],[18.3929,-1.173,336.6539],[18.3749,-1.1556,333.3586],[18.36,-1.1504,344.1011],[18.3522,-1.1452,322.0665],[18.3334,-1.126,326.5373],[18.3285,-1.123,330.6695],[18.3148,-1.1197,325.7999],[18.2878,-1.1166,325.7464],[18.2453,-1.1148,326.0301],[18.2053,-1.1069,327.6557],[18.1858,-1.1056,335.073],[18.1707,-1.1074,327.027],[18.1562,-1.1036,323.7177],[18.137,-1.1028,322.4621],[18.1315,-1.1064,325.7026],[18.1309,-1.1126,339.3347],[18.134,-1.16,316.437],[18.1301,-1.1699,317.8328],[18.1275,-1.2044,335.2279],[18.1202,-1.212,326.1195],[18.0371,-1.2779,320.2425],[17.9104,-1.3763,306.3255],[17.8835,-1.3799,310.5075],[17.7321,-1.4115,319.8639],[17.7237,-1.4169,319.3427],[17.7186,-1.4229,320.2702],[17.7102,-1.4279,319.0515],[17.6328,-1.4476,325.8627],[17.621,-1.4519,324.5537],[17.6127,-1.4581,323.5045],[17.5909,-1.4576,339.3481],[17.5777,-1.4623,315.1546],[17.5543,-1.4753,320.6783],[17.5459,-1.4778,334.8222],[17.5204,-1.4777,324.892],[17.5064,-1.4798,331.7031],[17.4808,-1.5047,367.7958],[17.1136,-1.7864,414.4747],[17.1076,-1.7864,401.4947],[17.1009,-1.7782,393.8867],[17.0943,-1.7781,373.4208],[17.0877,-1.7824,400.4183],[17.0702,-1.8029,345.6718],[17.0635,-1.8043,356.9854],[17.0546,-1.7968,339.535],[17.0487,-1.7945,344.0399],[17.0265,-1.7943,331.2841],[17.0169,-1.7905,336.2334],[17.0117,-1.7816,329.6048],[17.0027,-1.7726,328.0829],[16.9938,-1.7696,325.0138],[16.9709,-1.7663,321.706],[16.9406,-1.7593,306.7462],[16.9214,-1.7569,303.5132],[16.9048,-1.7608,300.701],[16.8721,-1.7774,296.5505],[16.8582,-1.7817,301.9751],[16.8463,-1.7819,305.18],[16.8365,-1.7802,302.8088],[16.8189,-1.765,305.7584],[16.8145,-1.7657,305.0822],[16.801,-1.7825,290.9445],[16.7901,-1.8023,289.7716],[16.7888,-1.8211,292.1127],[16.7903,-1.8304,302.0335],[16.7941,-1.8363,304.2968],[16.7992,-1.8371,303.6008],[16.8048,-1.8354,291.9524],[16.8154,-1.8255,302.398],[16.8227,-1.8215,301.7659],[16.8279,-1.8216,293.2935],[16.8379,-1.8306,295.0328],[16.8469,-1.846,299.6146],[16.8517,-1.8453,299.6495],[16.8668,-1.8493,304.7882],[16.879,-1.8557,312.781],[16.8879,-1.8575,331.7991],[16.9121,-1.8558,318.1984],[16.9427,-1.8661,351.7736],[16.945,-2.0013,378.4979],[16.6342,-1.9982,296.332],[16.6237,-1.9966,297.0192],[16.6118,-1.9893,292.7155],[16.5925,-1.963,300.6044],[16.5835,-1.9467,291.8417],[16.5798,-1.9368,299.1461],[16.5797,-1.9198,291.7256],[16.5701,-1.9046,297.8328],[16.5682,-1.8957,295.2501],[16.5627,-1.8897,307.3191],[16.559,-1.8819,283.0],[16.5603,-1.8628,283.0],[16.504,-1.874,283.0],[16.4879,-1.8956,283.0],[16.4055,-1.992,285.323],[16.3592,-2.0383,283.0],[16.3235,-2.0689,283.0],[16.2678,-2.1071,282.5],[16.242,-2.123,282.0],[16.201,-2.198,282.0],[16.1915,-2.225,282.0],[16.1897,-2.2729,281.5],[16.1852,-2.3199,281.0],[16.1843,-2.3829,280.5],[16.1891,-2.4238,280.0],[16.2116,-2.5268,279.0],[16.2349,-2.6032,277.5],[16.2374,-2.6248,277.0],[16.2357,-2.6565,276.5],[16.2329,-2.6688,276.25],[16.2277,-2.6828,276.0],[16.2067,-2.7264,276.0],[16.2027,-2.7463,276.0],[16.2055,-2.7837,276.0],[16.2044,-2.7929,276.0],[16.2004,-2.8105,276.0],[16.1851,-2.8527,275.5],[16.1802,-2.875,275.0],[16.179,-2.928,274.0],[16.1824,-2.9571,274.0],[16.1905,-2.9773,274.0],[16.1945,-2.9999,274.0],[16.1953,-3.016,274.0],[16.1824,-3.0696,273.5],[16.1783,-3.1021,273.5],[16.1803,-3.1375,273.25],[16.1909,-3.1787,273.0],[16.1927,-3.1989,273.0],[16.1864,-3.2224,287.2347],[16.1841,-3.2505,273.0],[16.1893,-3.2673,273.0],[16.1979,-3.2763,273.0],[16.2194,-3.2901,273.0],[16.2224,-3.2963,273.0],[16.2112,-3.3396,274.5429],[16.1871,-3.3954,276.0918],[16.1649,-3.431,273.0],[16.1449,-3.4548,273.0],[16.1324,-3.4768,289.7145],[16.1253,-3.5042,273.0],[16.1129,-3.5363,292.8022],[16.1102,-3.5384,277.4562],[16.0866,-3.5765,300.6338],[16.0581,-3.6089,294.0748],[16.0468,-3.6322,304.3036],[16.0372,-3.6603,281.3183],[16.0236,-3.6823,302.7348],[16.001,-3.7386,297.6848],[15.9817,-3.7679,289.7994],[15.9575,-3.8173,284.3264],[15.9437,-3.8411,273.0],[15.9263,-3.8838,275.8012],[15.9213,-3.9103,272.5],[15.9174,-3.9204,272.5],[15.9138,-3.9263,280.5929],[15.9104,-3.9281,274.7463],[15.9112,-3.9342,272.5],[15.9059,-3.9379,272.9091],[15.9019,-3.947,272.5],[15.9021,-3.9486,272.5],[15.9107,-3.9496,280.3057],[15.9152,-3.9541,278.2705],[15.9186,-3.9531,284.4355],[15.9198,-3.9498,283.4362],[15.9233,-3.9497,293.3152],[15.9277,-3.9419,297.1335],[15.9339,-3.9413,297.4996],[15.939,-3.9351,287.4519],[15.9382,-3.933,327.6065],[15.9397,-3.9311,321.2964],[15.9459,-3.9276,287.4221],[15.9535,-3.9321,290.7446],[15.9579,-3.937,306.9321],[15.9639,-3.9381,290.823],[15.972,-3.9459,288.7692],[15.98,-3.9488,292.905],[15.9818,-3.9519,295.7001],[15.9856,-3.9517,304.4916],[15.9907,-3.956,300.8736],[15.9964,-3.9564,295.8993],[15.999,-3.9584,299.1909],[15.9992,-3.9639,296.8635],[16.0025,-3.965,294.4407],[16.0029,-3.968,295.978],[16.0095,-3.9696,350.9986],[16.0105,-3.9714,417.0835],[16.0251,-3.9684,566.842],[16.0344,-3.9637,512.9471],[16.0429,-3.9485,583.6755],[16.0475,-3.9433,607.0242],[16.0559,-3.9423,597.8938],[16.0758,-3.9479,636.2448],[16.1231,-3.9702,610.7223],[16.1852,-4.0007,613.5236],[16.2698,-4.0464,585.551],[16.3816,-4.1117,581.1353],[16.4139,-4.1336,566.0388],[16.427,-4.145,546.7229],[16.4298,-4.1528,544.7628],[16.4351,-4.1567,545.2079],[16.442,-4.1567,557.3829],[16.4507,-4.1626,576.1315],[16.454,-4.1716,551.0419],[16.4693,-4.1736,578.4575],[16.4716,-4.1766,575.4729],[16.4673,-4.184,553.1806],[16.4609,-4.1831,548.2495],[16.4568,-4.1858,536.2719],[16.455,-4.1911,506.8031],[16.4559,-4.1957,545.9471],[16.4637,-4.2035,548.7546],[16.4674,-4.21,548.4886],[16.4688,-4.2171,551.1764]]]]}
,"properties": {"GID_1": "COD.16_1","GID_0": "COD","country": "DemocraticRepublicoftheCongo","province": "Mai-Ndombe","VARNAME_1": "NA","NL_NAME_1": "NA","TYPE_1": "Province","ENGTYPE_1": "Province","CC_1": "NA","HASC_1": "CD.MA","ISO_1": "NA","name": "Mai-Ndombe.province","area_km2": 129027.4,"hist_schema_id": "Elevation0-9000","hist_area_km2": {"275": 978.68,"300": 18535.39,"325": 36960.23,"350": 21338.97,"375": 16436.76,"400": 11435.49,"425": 7817.26,"450": 4979.35,"475": 3502.18,"500": 2561.15,"525": 1618.86,"550": 869.93,"575": 689.43,"600": 809.03,"625": 485.8,"650": 8.9}}}