{"type": "Feature","bbox": [15.0572,-5.8801,16.0399,-4.8591],"geometry": {"type": "MultiPolygon","coordinates": [[[[15.7714,-5.8801,704.9474],[15.7811,-5.8785,709.3317],[15.7768,-5.8765,724.665],[15.7674,-5.876,688.1586],[15.7614,-5.874,703.6443],[15.7563,-5.8676,668.3233],[15.7556,-5.8632,668.323],[15.7618,-5.8464,711.7846],[15.7627,-5.8372,686.9869],[15.7659,-5.8321,697.1483],[15.7665,-5.8149,686.7432],[15.763,-5.8123,707.9658],[15.7639,-5.8089,690.66],[15.7609,-5.8043,683.7272],[15.7616,-5.7976,720.6104],[15.7583,-5.7841,710.7078],[15.7533,-5.7806,693.8457],[15.7491,-5.7719,733.6887],[15.7496,-5.7675,750.1426],[15.7523,-5.7643,749.1229],[15.7509,-5.7583,736.4857],[15.76,-5.7427,820.0776],[15.7557,-5.7374,712.4569],[15.7582,-5.7351,726.8224],[15.7579,-5.7268,754.52],[15.7604,-5.7238,755.3231],[15.764099999999999,-5.7093,756.8542],[15.764,-5.7019,762.2904],[15.7668,-5.7008,851.694],[15.7722,-5.7025,756.0781],[15.8052,-5.7018,927.2917],[15.8146,-5.697,900.3474],[15.8168,-5.6633,916.848],[15.8208,-5.6566,834.3878],[15.8355,-5.6504,814.0154],[15.8417,-5.6557,785.8693],[15.8457,-5.6561,774.9464],[15.858,-5.6492,828.4528],[15.8621,-5.6338,819.2336],[15.866,-5.6287,792.6364],[15.8703,-5.6018,849.321],[15.8704,-5.5737,831.0206],[15.8731,-5.5562,878.8944],[15.8719,-5.5519,858.748],[15.8744,-5.5433,875.179],[15.8769,-5.5408,886.2979],[15.8776,-5.536,871.2614],[15.876,-5.527,808.648],[15.8788,-5.4941,839.1862],[15.8823,-5.4865,877.8159],[15.8788,-5.4709,871.359],[15.8792,-5.4642,853.186],[15.8755,-5.4564,866.0205],[15.8697,-5.4518,820.4694],[15.869,-5.4467,827.7656],[15.8733,-5.4288,872.6719],[15.8696,-5.4148,836.1819],[15.873,-5.4078,829.7793],[15.8741,-5.3963,791.937],[15.8731,-5.3809,835.0536],[15.8749,-5.366,859.9275],[15.8729,-5.3639,850.4506],[15.8717,-5.357,822.6132],[15.8694,-5.3536,779.5327],[15.8693,-5.3444,781.9799],[15.8661,-5.3396,800.4573],[15.8645,-5.3315,846.5554],[15.8596,-5.3269,831.6868],[15.8569,-5.318,790.4957],[15.8548,-5.317,795.5532],[15.852,-5.3115,829.454],[15.8527,-5.3069,835.2709],[15.8471,-5.2994,805.3749],[15.8471,-5.2954,827.9247],[15.8519,-5.2851,760.584],[15.8524,-5.2802,802.8826],[15.8496,-5.2779,808.9636],[15.8498,-5.2697,763.1505],[15.853,-5.2552,741.0665],[15.8529,-5.2473,730.711],[15.8601,-5.2522,788.1181],[15.8697,-5.2521,815.3164],[15.8766,-5.2503,786.459],[15.8833,-5.253,794.2758],[15.9078,-5.2538,781.4574],[15.9227,-5.2499,779.8987],[15.9257,-5.2466,800.4578],[15.9231,-5.2363,775.5165],[15.9222,-5.2209,779.8039],[15.9237,-5.2131,768.1976],[15.9226,-5.208,760.9573],[15.9326,-5.1859,713.8589],[15.9411,-5.1783,736.1241],[15.949,-5.1624,752.0471],[15.9493,-5.158,748.416],[15.9458,-5.1481,711.0245],[15.9466,-5.1343,709.851],[15.9537,-5.1207,760.5748],[15.9542,-5.1168,742.7338],[15.9521,-5.1094,742.4485],[15.9543,-5.1018,733.7572],[15.9536,-5.0876,728.268],[15.9565,-5.0701,678.5344],[15.9618,-5.0632,678.3954],[15.9631,-5.0535,670.592],[15.9707,-5.0482,682.2136],[15.974,-5.0261,661.168],[15.9788,-5.0203,662.3246],[15.9797,-5.0141,655.43],[15.9891,-5.0088,654.8265],[16.003,-4.9896,647.0021],[16.0207,-4.9765,654.9101],[16.031,-4.9794,634.7512],[16.0399,-4.9773,645.0982],[16.0389,-4.9585,635.6774],[16.0275,-4.9651,651.9156],[16.0063,-4.9716,652.2845],[15.9919,-4.955,746.2667],[15.9802,-4.9467,756.7526],[15.9556,-4.9449,704.8621],[15.9351,-4.9522,767.8412],[15.9279,-4.9588,755.2467],[15.9167,-4.9572,711.9199],[15.91,-4.9437,754.6566],[15.9037,-4.9064,739.2559],[15.8984,-4.8929,733.968],[15.8882,-4.8764,664.0895],[15.8792,-4.8666,659.1199],[15.8575,-4.8591,650.4398],[15.859,-4.8633,654.4817],[15.8645,-4.8675,655.0731],[15.8664,-4.8731,659.513],[15.8607,-4.8782,660.4205],[15.8577,-4.8778,657.4532],[15.8577,-4.8792,656.2072],[15.8549,-4.8772,657.8453],[15.8502,-4.8806,658.9324],[15.8482,-4.8797,658.9788],[15.8475,-4.8819,658.3354],[15.8446,-4.8828,660.3905],[15.845,-4.8858,658.1747],[15.8423,-4.8892,661.5379],[15.8437,-4.8894,659.1976],[15.8424,-4.8917,665.983],[15.8446,-4.8957,659.976],[15.8431,-4.8998,666.7983],[15.8454,-4.9019,664.7745],[15.8435,-4.9024,667.3237],[15.846,-4.9077,662.2541],[15.8502,-4.911,663.1794],[15.8537,-4.9116,662.1459],[15.8569,-4.9187,665.915],[15.855,-4.9193,665.5137],[15.8554,-4.9245,665.1608],[15.8539,-4.923,665.1608],[15.8543,-4.925,667.2995],[15.8524,-4.9249,668.8894],[15.8541,-4.9264,664.2593],[15.8522,-4.9288,668.9583],[15.8549,-4.9295,664.865],[15.8556,-4.9359,664.6909],[15.8569,-4.9369,667.05],[15.8557,-4.938,669.0398],[15.8578,-4.9413,666.1868],[15.8661,-4.9477,669.342],[15.8654,-4.9527,673.9788],[15.8628,-4.9572,670.6932],[15.8596,-4.9572,671.3236],[15.859,-4.9621,667.8647],[15.8557,-4.9663,670.7004],[15.858,-4.9675,670.8472],[15.8557,-4.9688,671.6367],[15.855,-4.9713,673.674],[15.8573,-4.9738,677.1813],[15.8565,-4.9784,684.3693],[15.8537,-4.9799,671.287],[15.8544,-4.982,681.6141],[15.8521,-4.9828,672.1294],[15.8524,-4.9841,673.3535],[15.8504,-4.9851,672.8005],[15.8515,-4.9863,675.5624],[15.8494,-4.9882,677.2152],[15.8538,-4.992,674.8387],[15.8525,-4.9922,674.8387],[15.8535,-4.997,676.3199],[15.8523,-4.9981,678.7231],[15.8509,-4.9969,676.0869],[15.8519,-5.0006,680.9169],[15.8502,-5.0002,676.2266],[15.8461,-5.0077,679.5262],[15.8429,-5.0082,676.326],[15.8419,-5.0113,677.7645],[15.8429,-5.0131,676.4681],[15.8443,-5.0119,677.4034],[15.8444,-5.0143,680.9821],[15.842,-5.0143,676.4681],[15.8416,-5.0169,681.295],[15.8354,-5.0174,677.703],[15.8353,-5.0198,682.8223],[15.8339,-5.0196,682.8223],[15.8342,-5.0235,680.201],[15.8245,-5.0377,725.4628],[15.8188,-5.0418,759.7476],[15.8036,-5.0484,785.6234],[15.7861,-5.0499,767.9888],[15.7671,-5.0481,776.4407],[15.748,-5.0453,754.7299],[15.7409,-5.042,732.2236],[15.7423,-5.0609,738.7587],[15.7371,-5.0696,734.3843],[15.7353,-5.0892,743.5547],[15.7305,-5.1035,777.3984],[15.7294,-5.1148,770.7069],[15.724,-5.1336,791.9342],[15.7201,-5.1403,761.8304],[15.7093,-5.1456,750.4099],[15.7013,-5.1572,752.2213],[15.6993,-5.1636,756.8892],[15.6852,-5.1611,814.8422],[15.632,-5.1597,812.8834],[15.6185,-5.1579,795.1779],[15.6059,-5.1527,493.892],[15.5986,-5.1427,467.5543],[15.5912,-5.1357,464.1562],[15.5871,-5.1274,452.9196],[15.589,-5.1209,457.3902],[15.6022,-5.1052,449.4455],[15.6066,-5.1029,469.3896],[15.6047,-5.0988,427.851],[15.6052,-5.0905,432.4333],[15.61,-5.0852,432.0609],[15.6088,-5.0749,412.4795],[15.6097,-5.068,433.1324],[15.6076,-5.0617,425.3481],[15.6092,-5.0567,418.2842],[15.6066,-5.0505,431.5515],[15.601,-5.0447,417.6759],[15.5908,-5.0412,466.6086],[15.574,-5.0436,533.1835],[15.5564,-5.0493,528.9677],[15.5437,-5.05,527.0619],[15.5331,-5.046,496.3106],[15.53,-5.0195,581.936],[15.5335,-5.0044,544.7958],[15.5637,-4.965,557.9063],[15.5631,-4.9583,525.4775],[15.5544,-4.954,568.9316],[15.5441,-4.9522,461.3634],[15.5331,-4.9461,514.7693],[15.5278,-4.9351,473.2341],[15.5272,-4.9233,440.4536],[15.538,-4.911,430.5085],[15.5499,-4.8882,417.0908],[15.5504,-4.8832,430.8604],[15.5443,-4.8751,408.8842],[15.5413,-4.8742,413.618],[15.5388,-4.876,418.7151],[15.5334,-4.8857,416.1566],[15.5276,-4.8906,427.9523],[15.521,-4.8913,433.6086],[15.5125,-4.8881,420.1169],[15.5028,-4.8918,420.9053],[15.4946,-4.8913,440.3613],[15.4843,-4.8964,438.41],[15.4563,-4.8961,450.6467],[15.4396,-4.9083,473.0047],[15.4201,-4.9125,474.3852],[15.4173,-4.9148,488.9336],[15.413,-4.924,494.1558],[15.4091,-4.9272,515.782],[15.4022,-4.9291,495.4884],[15.3938,-4.9381,495.5006],[15.3887,-4.9404,486.8278],[15.3635,-4.9453,527.4676],[15.3605,-4.9474,520.4406],[15.3571,-4.9612,528.2877],[15.3466,-4.9812,520.753],[15.3457,-4.9879,535.554],[15.3478,-4.9969,570.9337],[15.3187,-4.9614,532.8507],[15.3116,-4.9605,534.5267],[15.3044,-4.9629,550.3942],[15.2939,-4.9676,600.1782],[15.2816,-4.977,569.9594],[15.2736,-4.9791,560.5638],[15.2628,-4.978,550.6652],[15.2591,-4.9748,541.5615],[15.2492,-4.9592,553.1325],[15.2437,-4.9564,536.538],[15.2318,-4.9574,554.449],[15.2164,-4.9544,522.5243],[15.2022,-4.9593,521.8173],[15.1969,-4.96,504.9763],[15.1889,-4.9582,502.3246],[15.153,-4.9433,509.7779],[15.1415,-4.9378,501.8434],[15.1369,-4.9337,504.3021],[15.1245,-4.9284,494.5763],[15.108,-4.9262,515.2012],[15.0867,-4.9257,494.9814],[15.0729,-4.9295,502.334],[15.0649,-4.9348,458.2916],[15.0734,-4.9416,487.3705],[15.0774,-4.9734,487.5752],[15.0797,-4.9775,495.001],[15.0974,-4.9931,558.901],[15.0988,-4.9982,563.7494],[15.0976,-5.0021,591.6709],[15.0892,-5.0109,522.613],[15.0775,-5.0074,520.6105],[15.0717,-5.0095,501.3573],[15.0676,-5.0157,494.8923],[15.0663,-5.024,497.012],[15.0674,-5.0291,492.8288],[15.0716,-5.0332,502.5512],[15.08,-5.033,494.0612],[15.0821,-5.0311,498.0728],[15.086,-5.0309,495.0849],[15.0911,-5.0355,497.1384],[15.0835,-5.0382999999999996,496.244],[15.0771,-5.0376,495.5204],[15.0766,-5.0452,501.5601],[15.0721,-5.053,495.2319],[15.0815,-5.0562,508.3144],[15.0824,-5.0601,515.9472],[15.0804,-5.0627,503.1309],[15.0694,-5.0673,504.9128],[15.0615,-5.0657,498.8531],[15.0572,-5.071,496.6984],[15.0584,-5.0747,527.4265],[15.0627,-5.0776,513.7115],[15.0714,-5.0774,496.6846],[15.0761,-5.0845,511.7913],[15.0793,-5.0845,509.5337],[15.0841,-5.0815,502.2965],[15.0887,-5.0817,520.2213],[15.0914,-5.0868,547.4567],[15.0892,-5.0931,519.8256],[15.1008,-5.092,522.3807],[15.1079,-5.0929,551.97],[15.1129,-5.0955,548.7038],[15.1251,-5.112,562.1928],[15.1279,-5.1199,579.0595],[15.1264,-5.143,560.9754],[15.1244,-5.1534,547.741],[15.1215,-5.1569,572.0732],[15.1196,-5.1677,568.9102],[15.1154,-5.1715,583.5035],[15.1118,-5.1781,542.2427],[15.1054,-5.1827,526.8708],[15.0986,-5.1841,504.1372],[15.0968,-5.1908,505.0426],[15.0986,-5.1949,504.9315],[15.1027,-5.1967,512.3754],[15.1041,-5.1997,522.7549],[15.0998,-5.2069,514.4039],[15.1037,-5.219,506.775],[15.1081,-5.2209,514.8549],[15.1104,-5.2114,506.8635],[15.1152,-5.2084,503.4565],[15.1182,-5.2158,506.7029],[15.1251,-5.2192,543.8298],[15.129,-5.2158,509.089],[15.1333,-5.2208,509.9749],[15.1363,-5.2215,506.5006],[15.1448,-5.2194,535.0743],[15.1448,-5.2247,529.4003],[15.1393,-5.2247,506.4707],[15.1375,-5.2268,508.6554],[15.1456,-5.2378,507.3399],[15.148,-5.2311,514.7722],[15.1511,-5.236,511.0934],[15.1547,-5.2346,513.8782],[15.1586,-5.23,514.3689],[15.1644,-5.2313,509.8588],[15.1692,-5.2272,533.3187],[15.1745,-5.2292,518.0802],[15.1756,-5.2375,509.5627],[15.18,-5.2437,558.9011],[15.1786,-5.2474,543.0049],[15.1709,-5.2532,512.1013],[15.1771,-5.2561,512.2478],[15.1884,-5.2717,513.1472],[15.1883,-5.2623,511.3198],[15.1906,-5.2609,537.8992],[15.1931,-5.2628,518.0176],[15.1948,-5.2692,511.6635],[15.2014,-5.2747,514.3526],[15.2012,-5.2777,513.2854],[15.1939,-5.2906,516.7422],[15.1946,-5.2936,512.212],[15.2006,-5.2998,553.6809],[15.2006,-5.3035,546.6968],[15.1969,-5.3067,528.1222],[15.196,-5.3104,520.8671],[15.1983,-5.3136,514.7679],[15.2045,-5.3161,517.7524],[15.2062,-5.323,534.6722],[15.2043,-5.3272,526.7548],[15.2073,-5.3318,516.2886],[15.2126,-5.3338,531.6826],[15.2133,-5.3356,516.5808],[15.211,-5.3414,517.9913],[15.2131,-5.3462,514.0841],[15.2175,-5.3467,518.9951],[15.2219,-5.3506,535.3235],[15.2207,-5.3531,523.8965],[15.2136,-5.3531,518.2303],[15.2203,-5.363,519.0978],[15.2341,-5.366,521.5103],[15.2431,-5.3763,529.7322],[15.2511,-5.3793,517.27],[15.2592,-5.3993,537.0791],[15.2542,-5.4096,519.5848],[15.2556,-5.4144,521.411],[15.2655,-5.4305,522.5767],[15.2689,-5.4319,520.9343],[15.2737,-5.4294,521.3437],[15.2765,-5.4298,521.0928],[15.2774,-5.4326,520.2496],[15.2589,-5.4455,524.7841],[15.2561,-5.4494,524.5815],[15.2511,-5.4506,522.1661],[15.2474,-5.4533,535.9647],[15.2465,-5.4566,523.4235],[15.2479,-5.4584,525.1633],[15.2564,-5.4565,556.4425],[15.2575,-5.4595,560.6134],[15.2511,-5.4678,529.1157],[15.2445,-5.4662,563.6919],[15.2385,-5.4702,529.6064],[15.2456,-5.4752,530.8981],[15.2496,-5.4803,563.8022],[15.2424,-5.4863,527.7502],[15.2393,-5.4952,534.4874],[15.236,-5.4957,536.2465],[15.2291,-5.492,592.5535],[15.2264,-5.4978,528.1683],[15.2294,-5.5038,529.1813],[15.2235,-5.5121,551.4875],[15.2317,-5.5162,580.6663],[15.2324,-5.5187,536.9878],[15.2304,-5.5203,535.5612],[15.2113,-5.5229,530.0304],[15.2076,-5.531,542.3145],[15.2052,-5.5316,534.2645],[15.2045,-5.5261,529.954],[15.2008,-5.5243,556.5573],[15.1978,-5.5372,536.6932],[15.193,-5.5418,533.1719],[15.1859,-5.5444,531.0962],[15.1799,-5.5531,534.976],[15.1788,-5.5616,537.7115],[15.1689,-5.5596,532.4088],[15.166,-5.5644,533.0689],[15.1662,-5.5686,540.332],[15.1616,-5.5686,541.6284],[15.1582,-5.5746,551.8166],[15.1518,-5.5794,537.6057],[15.1478,-5.5762,535.8137],[15.139099999999999,-5.5776,534.6101],[15.1346,-5.5857,545.6581],[15.1359,-5.5884,542.5248],[15.1346,-5.5935,547.4363],[15.1387,-5.5942,535.4861],[15.1428,-5.5912,548.282],[15.1447,-5.5944,554.4211],[15.1408,-5.5971,548.5798],[15.1396,-5.602,557.6447],[15.138,-5.6029,557.6447],[15.1348,-5.5992,555.5403],[15.1316,-5.5988,556.5899],[15.1298,-5.61,554.0177],[15.1314,-5.6252,563.1125],[15.128,-5.6291,547.7374],[15.1267,-5.64,621.712],[15.1209,-5.6395,545.8304],[15.1182,-5.646,544.1958],[15.1094,-5.6446,547.9431],[15.1085,-5.6494,550.5634],[15.1127,-5.6547,552.7104],[15.103,-5.6591,560.2016],[15.0992,-5.6632,558.1052],[15.0958,-5.6897,620.6709],[15.0935,-5.6927,597.6204],[15.0889,-5.692,546.8406],[15.0873,-5.6952,547.4811],[15.0884,-5.698,575.5629],[15.0928,-5.7008,552.7948],[15.0912,-5.704,586.263],[15.0917,-5.7155,574.3212],[15.1014,-5.7263,555.1444],[15.1048,-5.7219,565.8748],[15.1119,-5.7221,563.434],[15.112,-5.7313,580.6958],[15.1184,-5.7363,559.4787],[15.1288,-5.7393,554.7224],[15.132,-5.7421,573.5947],[15.1341,-5.7513,580.5396],[15.144,-5.7662,766.2983],[15.141,-5.7701,690.411],[15.1431,-5.7731,734.35],[15.1465,-5.7738,706.7736],[15.1498,-5.7788,756.1888],[15.1585,-5.78,720.8694],[15.1606,-5.785,750.7973],[15.1604,-5.7894,722.035],[15.1565,-5.7977,722.5706],[15.159,-5.8018,754.3961],[15.1641,-5.7995,717.9072],[15.1682,-5.7999,731.1443],[15.1717,-5.8057,774.2421],[15.1765,-5.8061,731.1362],[15.1774,-5.8091,750.7135],[15.1747,-5.8105,732.0714],[15.174,-5.8144,724.7542],[15.1848,-5.8234,751.2602],[15.194,-5.8243,744.3795],[15.2032,-5.8307,742.4225],[15.2103,-5.8295,737.4271],[15.2124,-5.8348,734.3566],[15.2124,-5.8433,752.0547],[15.2175,-5.8419,737.0406],[15.2216,-5.8474,733.0345],[15.2235,-5.8545,732.4104],[15.2258,-5.8555,760.3325],[15.2327,-5.8522,763.7104],[15.2345,-5.8497,757.0325],[15.231,-5.843,747.2242],[15.2386,-5.8428,738.6235],[15.2437,-5.8382,738.2323],[15.2471,-5.8375,734.5083],[15.248,-5.8407,736.0906],[15.2448,-5.8423,734.4773],[15.2435,-5.846,738.4346],[15.2449,-5.8508,738.1901],[15.2442,-5.8549,736.3365],[15.2359,-5.8628,738.5511],[15.2387,-5.8667,751.4157],[15.2442,-5.8667,765.4492],[15.2527,-5.8637,778.0486],[15.2559,-5.8561,744.7969],[15.2596,-5.8549,760.4115],[15.2623,-5.8632,745.2366],[15.2695,-5.8643,745.2542],[15.2734,-5.8696,739.9449],[15.2778,-5.8714,753.741],[15.2906,-5.8725,782.3155],[15.2938,-5.8743,765.6638],[15.3508,-5.8737,779.3414],[15.417,-5.8761,803.2908],[15.5259,-5.8769,835.2909],[15.6701,-5.8701,756.47],[15.7085,-5.8717,738.566],[15.7655,-5.877,699.2921],[15.7714,-5.8801,704.9474]]]]}
,"properties": {"GID_2": "COD.11.10_1","GID_0": "COD","country": "DemocraticRepublicoftheCongo","GID_1": "COD.11_1","province": "Kongo-Central","NL_NAME_1": "NA","county": "Madimba","VARNAME_2": "NA","NL_NAME_2": "NA","TYPE_2": "Territoire","ENGTYPE_2": "Territory","CC_2": "NA","HASC_2": "NA","name": "Madimba.county","area_km2": 7737.981,"hist_schema_id": "Elevation0-9000","hist_area_km2": {"400": 1.352,"425": 21.375,"450": 61.356,"475": 120.321,"500": 218.204,"525": 308.372,"550": 506.161,"575": 629.062,"600": 601.251,"625": 526.502,"650": 401.327,"675": 348.574,"700": 307.565,"725": 414.155,"750": 593.986,"775": 549.922,"800": 478.778,"825": 424.015,"850": 351.822,"875": 314.243,"900": 295.159,"925": 205.29,"950": 58.092,"975": 1.097}}}