{"type":"Feature","properties":{"GID_2":"COD.21.4_1","GID_0":"COD","country":"DemocraticRepublicoftheCongo","GID_1":"COD.21_1","province":"Sankuru","NL_NAME_1":"NA","county":"Lodja","VARNAME_2":"NA","NL_NAME_2":"NA","TYPE_2":"Territoire","ENGTYPE_2":"Territory","CC_2":"NA","HASC_2":"NA","name":"Lodja.county"},
"geometry":{"type": "MultiPolygon","coordinates": [[[[23.5258,-2.9185,505.2059],[23.4873,-2.9252,556.68],[23.462,-2.9267,524.9759],[23.4422,-2.9229,520.5367],[23.4135,-2.9088,503.8765],[23.3991,-2.9063,535.323],[23.3263,-2.9072,545.0055],[23.3131,-2.9035,544.1509],[23.2927,-2.9026,551.1938],[23.2831,-2.9001,585.9283],[23.2694,-2.8844,598.1189],[23.2395,-2.8691,539.4618],[23.2137,-2.858,562.014],[23.1424,-2.8332,515.1725],[23.1255,-2.8354,563.8478],[23.1135,-2.8335,498.3691],[23.0746,-2.8193,550.5673],[23.0755,-2.8552,568.7179],[23.0693,-2.8735,570.6622],[23.0431,-2.9112,515.9722],[23.04,-2.9183,549.6591],[23.039,-2.962,543.0078],[23.0352,-2.983,545.0729],[23.0273,-2.9936,531.5371],[23.033,-3.0021,546.5005],[23.0486,-3.0714,509.624],[23.0575,-3.1295,458.2142],[23.0567,-3.1373,477.4373],[23.0486,-3.1618,524.3985],[23.0418,-3.175,587.528],[23.0302,-3.1916,544.4753],[23.0229,-3.2063,573.0698],[23.022,-3.2151,576.9656],[23.0315,-3.2238,575.4917],[23.0527,-3.2349,497.1347],[23.0424,-3.2473,545.0208],[23.0373,-3.2496,572.6416],[23.0179,-3.2645,552.3164],[23.0027,-3.2727,515.2727],[23.0082,-3.2991,492.8738],[23.0194,-3.3313,479.6384],[23.0238,-3.3689,489.4339],[23.0319,-3.3898,488.4905],[23.0321,-3.4118,464.8509],[23.0357,-3.423,398.9644],[23.0325,-3.4484,410.5909],[23.0273,-3.4655,426.3871],[23.025,-3.4821,472.7927],[23.0217,-3.4904,516.7637],[23.0161,-3.5212,492.6084],[23.0202,-3.5402,541.3799],[23.0375,-3.5831,460.3471],[23.0265,-3.6125,504.3761],[22.9985,-3.6706,561.3735],[22.9962,-3.6799,572.7314],[22.9963,-3.6926,549.127],[23.007,-3.7238,553.4755],[23.0108,-3.7526,546.0576],[23.0201,-3.7901,524.1558],[23.0347,-3.8199,566.8069],[23.0606,-3.8452,548.4009],[23.0554,-3.8613,537.15],[23.0584,-3.8632,553.4841],[23.0643,-3.8632,509.3239],[23.0844,-3.8568,526.1224],[23.0953,-3.8558,530.9573],[23.0993,-3.8597,525.4299],[23.0984,-3.8665,515.255],[23.0921,-3.8807,513.4309],[23.0851,-3.9129,496.846],[23.0821,-3.9544,492.9554],[23.0838,-3.9749,466.1989],[23.1105,-4.027,508.9904],[23.1459,-4.0586,503.1412],[23.1464,-4.0848,467.1612],[23.1446,-4.0919,519.6804],[23.1475,-4.1044,530.3568],[23.1503,-4.1087,485.52],[23.1482,-4.1138,473.3643],[23.1551,-4.1226,442.5448],[23.155,-4.1262,482.3842],[23.1447,-4.1474,433.6185],[23.1419,-4.1483,418.8364],[23.1454,-4.1534,417.2017],[23.15,-4.1488,454.2169],[23.153199999999998,-4.1481,439.4255],[23.1589,-4.1502,431.2818],[23.1704,-4.1511,424.88],[23.1848,-4.1459,454.2705],[23.1896,-4.1456,467.2584],[23.2089,-4.159,504.2395],[23.2045,-4.1645,420.0107],[23.2068,-4.1671,422.8235],[23.215699999999998,-4.1629,494.9034],[23.2228,-4.1636,479.4535],[23.2444,-4.1789,419.1307],[23.2517,-4.178,431.1487],[23.2671,-4.1676,461.4711],[23.2717,-4.1676,476.4682],[23.2756,-4.1711,434.7977],[23.2831,-4.1695,470.9374],[23.2873,-4.1716,458.4218],[23.298,-4.182,459.9064],[23.3047,-4.1847,444.8932],[23.318,-4.1802,444.1338],[23.3365,-4.1809,501.4748],[23.34,-4.1864,473.3992],[23.3519,-4.1906,451.2375],[23.3585,-4.1887,421.1305],[23.3709,-4.1895,473.2788],[23.3828,-4.1833,493.8425],[23.4007,-4.1789,512.6525],[23.4049,-4.1796,488.9128],[23.4078,-4.1863,455.4799],[23.4184,-4.1849,494.4736],[23.4255,-4.1898,434.9689],[23.4289,-4.2022,494.3189],[23.4323,-4.2047,476.2831],[23.4358,-4.2034,472.2002],[23.4388,-4.1942,420.3456],[23.442,-4.1914,430.4295],[23.4475,-4.1979,452.9051],[23.4544,-4.1983,483.6821],[23.4688,-4.1924,538.5155],[23.4729,-4.1871,490.0379],[23.4807,-4.1866,473.4562],[23.4846,-4.1754,485.8696],[23.4867,-4.174,491.8428],[23.4899,-4.1791,450.5919],[23.4991,-4.1837,515.5316],[23.5078,-4.1832,509.094],[23.5174,-4.1786,422.9956],[23.5264,-4.1777,428.8925],[23.5323,-4.1828,503.0161],[23.5385,-4.1837,513.9954],[23.5452,-4.1764,524.9208],[23.5555,-4.1775,471.845],[23.5603,-4.1759,476.1901],[23.5672,-4.1691,490.2803],[23.5718,-4.1688,463.1855],[23.5812,-4.1707,507.3653],[23.5844,-4.1755,427.7899],[23.5901,-4.176,503.8298],[23.6025,-4.1811,524.0145],[23.6089,-4.1884,519.8201],[23.6123,-4.1848,498.7108],[23.636,-4.1802,482.8871],[23.6456,-4.188,461.5158],[23.6525,-4.1763,521.6776],[23.6559,-4.1758,494.2479],[23.66,-4.1802,536.6825],[23.6623,-4.1807,535.2308],[23.6637,-4.1894,531.3494],[23.6678,-4.1991,495.615],[23.6758,-4.2051,488.2632],[23.6834,-4.2042,533.093],[23.7095,-4.2143,508.8864],[23.7171,-4.207,533.212],[23.7272,-4.2047,531.6805],[23.7336,-4.2128,538.5125],[23.7437,-4.1903,536.3391],[23.7539,-4.1736,555.1754],[23.7654,-4.1628,537.249],[23.9303,-3.9118,569.6373],[23.9343,-3.8959,517.0609],[23.9349,-3.8717,519.6173],[23.9286,-3.8423,530.942],[23.9283,-3.8332,496.117],[23.9318,-3.8228,479.4617],[23.9385,-3.8171,482.6239],[23.9518,-3.7991,502.3971],[23.9579,-3.7717,531.8109],[23.9524,-3.7519,562.6278],[23.9446,-3.7383,500.5568],[23.9406,-3.727,515.8986],[23.941,-3.7197,490.0534],[23.9508,-3.7109,514.4744],[23.9549,-3.7015,510.3824],[23.9697,-3.6968,496.3644],[23.9711,-3.6762,506.876],[23.9702,-3.6406,484.7875],[23.944,-3.6081,513.9597],[23.9346,-3.5699,518.825],[23.9214,-3.533,591.8821],[23.9343,-3.527,603.6246],[23.9635,-3.5247,562.2656],[23.9728,-3.5213,580.1212],[23.9807,-3.5144,540.9382],[23.9805,-3.5059,565.9783],[23.9683,-3.4907,554.8538],[23.9385,-3.3974,542.1507],[23.9287,-3.3796,592.1761],[23.9253,-3.3665,532.3988],[23.92,-3.3552,602.943],[23.8816,-3.3125,517.0231],[23.8616,-3.2954,566.3686],[23.798,-3.2346,587.2596],[23.7034,-3.1378,563.3309],[23.6797,-3.1114,569.755],[23.6255,-3.0608,521.5484],[23.5905,-3.0307,529.3761],[23.5445,-2.9841,491.7064],[23.533,-2.9706,543.71],[23.5251,-2.9557,500.4639],[23.5234,-2.937,523.0206],[23.5258,-2.9185,505.2059]],
[[23.4205,-3.4486,472.4003],[23.4297,-3.4546,479.7021],[23.4419,-3.4532,474.4521],[23.4567,-3.4557,532.4282],[23.4718,-3.4663,472.9478],[23.476,-3.4751,497.5208],[23.4723,-3.5143,452.061],[23.4746,-3.5295,430.8242],[23.4687,-3.5316,448.0478],[23.4605,-3.5405,484.0342],[23.4509,-3.5471,487.2315],[23.433,-3.5546,487.1961],[23.4178,-3.5578,502.8489],[23.395,-3.5595,519.8571],[23.3891,-3.5568,520.6367],[23.3858,-3.5448,485.3773],[23.3861,-3.537,487.7924],[23.383,-3.5286,514.0093],[23.3855,-3.5123,484.1446],[23.3799,-3.4795,470.8404],[23.3799,-3.4674,441.2822],[23.3832,-3.4595,426.4745],[23.3988,-3.4386,491.1015],[23.4075,-3.4351,516.6021],[23.4205,-3.4486,472.4003]]]]}}