{"type":"Feature","properties":{"GID_2":"COD.1.3_1","GID_0":"COD","country":"DemocraticRepublicoftheCongo","GID_1":"COD.1_1","province":"Bas-Uele","NL_NAME_1":"NA","county":"Ango","VARNAME_2":"NA","NL_NAME_2":"NA","TYPE_2":"Territoire","ENGTYPE_2":"Territory","CC_2":"NA","HASC_2":"NA","name":"Ango.county"},
"geometry":{"type": "MultiPolygon","coordinates": [[[[25.5874,5.3658,569.5184],[25.5879,5.3699,569.1688],[25.5815,5.3752,557.549],[25.5736,5.3768,558.4511],[25.5603,5.3753,561.4902],[25.555,5.3765,561.7274],[25.5461,5.3861,557.0272],[25.5408,5.3859,556.0292],[25.5369,5.3828,562.0358],[25.5353,5.3766,558.3495],[25.5367,5.3718,558.5684],[25.5468,5.3638,572.567],[25.5503,5.3583,576.7131],[25.5475,5.3546,577.916],[25.528,5.3529,567.9221],[25.5113,5.3439,560.3932],[25.5067,5.3473,556.5829],[25.5021,5.3588,567.3796],[25.4975,5.3641,569.3763],[25.4929,5.3661,570.2499],[25.4869,5.3659,569.4811],[25.4828,5.3626,557.8179],[25.4805,5.3518,560.1824],[25.4764,5.3477,561.8473],[25.4718,5.3465,557.1874],[25.4642,5.3492,556.6179],[25.4603,5.349,555.8388],[25.4459,5.3407,554.1697],[25.4292,5.3206,558.8239],[25.4198,5.3189,558.3273],[25.415,5.321,564.6771],[25.4099,5.3274,561.9863],[25.4085,5.3396,565.0748],[25.4041,5.3426,564.7741],[25.4002,5.3405,563.3508],[25.3984,5.3352,555.8344],[25.3982,5.3267,555.9782],[25.395,5.3223,562.0567],[25.3918,5.3207,562.3008],[25.3762,5.3209,555.9108],[25.3677,5.3155,555.2645],[25.3668,5.3103,557.9478],[25.3696,5.305,555.2612],[25.3735,5.3045,558.9166],[25.3815,5.308,556.4258],[25.3847,5.3043,556.7779],[25.3843,5.3,556.0217],[25.3804,5.293,558.4672],[25.371,5.2852,558.4037],[25.3573,5.2863,556.7191],[25.344,5.2605,561.3654],[25.3359,5.2105,581.3074],[25.3328,5.204,592.1755],[25.322,5.195,555.7525],[25.3207,5.1874,558.0654],[25.3241,5.1826,562.5566],[25.3244,5.1755,560.4028],[25.3322,5.1564,555.8065],[25.3371,5.1511,551.5508],[25.3412,5.1502,556.1144],[25.3527,5.1537,556.922],[25.3545,5.1526,557.6134],[25.3552,5.1491,558.9459],[25.3512,5.1141,568.3771],[25.3487,5.107,571.9911],[25.3359,5.0924,563.0978],[25.3295,5.0818,556.0358],[25.3277,5.0742,555.0192],[25.3305,5.0519,554.2305],[25.3274,5.0432,550.3887],[25.318,5.0362,549.5288],[25.2845,5.0297,552.4827],[25.2593,5.0275,551.7405],[25.2476,5.0247,551.3976],[25.2313,5.0143,552.9178],[25.2235,5.014,555.7077],[25.2095,5.0177,555.7944],[25.2017,5.0174,566.5033],[25.1976,5.0137,549.8912],[25.1944,5.0059,551.0772],[25.1912,5.0038,550.1266],[25.1839,5.0033,554.0974],[25.1799,5.0049,554.7078],[25.1673,5.0157,553.3448],[25.1666,5.0228,553.1168],[25.1636,5.0269,556.6046],[25.1542,5.0283,552.59],[25.1491,5.0223,554.7029],[25.1476,5.0114,574.6146],[25.1364,5.0,578.6752],[25.0,5.0,590.6739],[25.0003,4.9932,578.3777],[24.9834,4.9931,572.9565],[24.9533,4.9863,544.3716],[24.9494,4.9828,552.2882],[24.9444,4.9711,566.7123],[24.9394,4.9646,574.4142],[24.9337,4.9611,548.7592],[24.9284,4.9607,553.5226],[24.9192,4.9634,543.6089],[24.8908,4.9617,550.3048],[24.884,4.9423,575.5168],[24.8785,4.9377,572.3697],[24.8732,4.9365,564.5521],[24.8229,4.9393,548.6897],[24.8181,4.937,542.5034],[24.8113,4.9303,543.8961],[24.8045,4.9164,552.6898],[24.7992,4.9111,556.4076],[24.7917,4.9069,543.7832],[24.7845,4.9055,543.8312],[24.7799,4.908,553.7945],[24.779,4.911,559.4282],[24.7811,4.9172,542.3832],[24.7806,4.9212,541.929],[24.7774,4.9232,541.7333],[24.7721,4.9227,544.8058],[24.7641,4.9117,542.9642],[24.7598,4.9089,540.6647],[24.749,4.9095,541.9387],[24.7348,4.9062,541.3143],[24.7297,4.9097,544.3264],[24.7251,4.9216,557.8265],[24.7209,4.9239,580.7521],[24.7055,4.9236,615.9445],[24.6932,4.921,581.0997],[24.6969,4.9109,539.1777],[24.6956,4.8987,541.4828],[24.6995,4.893,558.081],[24.7062,4.8872,541.271],[24.7065,4.8693,554.8357],[24.7095,4.8652,561.0954],[24.7187,4.8624,570.4104],[24.7302,4.8554,586.4558],[24.732,4.8524,588.8429],[24.7286,4.8434,577.1333],[24.7309,4.8383,579.483],[24.7387,4.8333,590.1077],[24.7424,4.8285,592.0178],[24.748,4.8082,562.8018],[24.7559,4.7965,587.2491],[24.7651,4.7871,589.1293],[24.7906,4.7757,574.7972],[24.7931,4.7728,595.1376],[24.7978,4.7587,581.413],[24.8093,4.7496,585.168],[24.8135,4.7369,589.3318],[24.828,4.7103,577.4385],[24.8508,4.6867,562.4001],[24.8561,4.6793,584.8823],[24.8575,4.6745,589.8938],[24.8513,4.631,585.1854],[24.8511,4.6123,587.384],[24.8594,4.6057,590.3123],[24.8941,4.5858,566.1619],[24.907,4.5824,598.292],[24.9123,4.5785,581.7076],[24.9233,4.5654,613.0754],[25.0263,4.523,590.4882],[25.0336,4.5178,599.4077],[25.0449,4.4989,617.6688],[25.0597,4.4845,586.6514],[25.1318,4.441,596.7133],[25.1463,4.4388,598.0046],[25.1548,4.4349,605.5936],[25.2036,4.4452,602.9314],[25.2297,4.4538,603.2754],[25.2744,4.479,652.2994],[25.288,4.4904,652.0628],[25.314,4.4894,627.4795],[25.3196,4.4854,658.9085],[25.3198,4.4657,651.595],[25.3155,4.4359,632.248],[25.3158,4.4258,648.5015],[25.323,4.3876,597.2589],[25.3219,4.3775,603.014],[25.3096,4.3517,603.8772],[25.3047,4.3266,639.9352],[25.3042,4.3183,605.4082],[25.3063,4.3098,616.2554],[25.3147,4.2898,583.971],[25.3209,4.2801,607.367],[25.3347,4.2659,596.2683],[25.3446,4.2586,587.928],[25.3597,4.251,597.1869],[25.3666,4.2448,567.3149],[25.3726,4.2357,570.5499],[25.366,4.2257,555.2107],[25.3956,4.2233,568.1398],[25.4062,4.2077,590.4885],[25.4078,4.1994,577.9885],[25.4072,4.1782,582.0213],[25.4117,4.1451,580.6061],[25.4115,4.1149,580.2177],[25.415,4.1057,582.3033],[25.4307,4.0899,619.7367],[25.4422,4.0755,595.1293],[25.4435,4.057,615.3077],[25.4454,4.0516,595.1581],[25.4445,4.0313,616.9321],[25.4415,4.0165,610.359],[25.4235,4.0116,615.9647],[25.4037,4.0118,607.0566],[25.3946,4.0073,617.9083],[25.3892,4.0021,607.3426],[25.3872,3.9953,595.2036],[25.3872,3.9873,596.8915],[25.3905,3.9751,599.9001],[25.4056,3.9648,602.4556],[25.4286,3.9571,598.3916],[25.4394,3.9449,593.223],[25.484,3.9163,593.466],[25.4934,3.8977,588.0763],[25.5061,3.8839,585.8987],[25.5084,3.8731,580.6311],[25.5105,3.871,593.7351],[25.516,3.8692,589.1237],[25.5283,3.8702,583.4596],[25.5361,3.8661,568.5954],[25.5449,3.864,598.6441],[25.5346,3.8451,577.6319],[25.5333,3.8373,580.2705],[25.5354,3.8265,603.1633],[25.5342,3.8219,582.6452],[25.5116,3.7944,596.8015],[25.5075,3.7951,594.1739],[25.5052,3.8004,618.5221],[25.5018,3.8001,602.7043],[25.4901,3.7883,627.7583],[25.4832,3.786,615.6491],[25.4714,3.762,602.957],[25.4577,3.7475,587.761],[25.4584,3.7445,566.428],[25.4644,3.7404,596.7801],[25.4665,3.7328,611.6214],[25.4653,3.7293,610.3901],[25.4608,3.7254,588.903],[25.458,3.7252,587.1948],[25.45,3.738,588.779],[25.4442,3.7387,605.9045],[25.4335,3.7269,565.5069],[25.4315,3.714,597.0034],[25.4333,3.7085,610.7454],[25.4281,3.6967,596.4658],[25.426,3.6951,592.3312],[25.4238,3.696,592.6997],[25.4221,3.7071,596.0694],[25.4193,3.7105,604.7988],[25.4148,3.7107,605.489],[25.41,3.7075,588.3552],[25.391,3.6796,568.8732],[25.3904,3.6761,580.4489],[25.3934,3.6697,582.9048],[25.3845,3.6549,598.0399],[25.3806,3.6538,586.5835],[25.373,3.6581,594.3409],[25.368,3.6586,579.7573],[25.3655,3.6562,575.7656],[25.3623,3.6461,599.2402],[25.3518,3.6435,597.6227],[25.3447,3.6463,617.7385],[25.3371,3.6398,596.1082],[25.3344,3.6352,601.7783],[25.3303,3.6363,596.1525],[25.3261,3.6407,600.2305],[25.3183,3.6427,604.9366],[25.3096,3.6505,597.248],[25.2961,3.6546,584.7505],[25.2908,3.6523,579.8304],[25.2874,3.6417,594.8086],[25.2806,3.6332,601.134],[25.2826,3.6304,622.7241],[25.2909,3.6295,597.5635],[25.2982,3.6242,590.5916],[25.3049,3.6217,596.4159],[25.3065,3.6181,562.5524],[25.3036,3.5996,603.484],[25.3112,3.5856,574.7451],[25.3117,3.5817,562.8012],[25.3085,3.5727,584.7418],[25.3037,3.5665,588.3175],[25.3,3.5683,573.0298],[25.297,3.5736,568.9597],[25.2927,3.5766,585.7451],[25.2857,3.594,569.0165],[25.2834,3.5963,566.4423],[25.2798,3.5949,575.5],[25.2796,3.5855,581.4445],[25.2769,3.5804,573.6321],[25.2718,3.5813,564.9634],[25.2679,3.5776,569.6286],[25.2652,3.5666,564.8622],[25.2561,3.5504,549.5],[25.2727,3.539,555.9828],[25.2836,3.5416,550.5],[25.2859,3.5409,550.5],[25.2896,3.5354,550.5],[25.2936,3.5218,551.0],[25.3074,3.5046,554.9827],[25.3151,3.5053,578.0878],[25.32,3.509,552.0],[25.3268,3.518,582.5446],[25.333,3.5217,582.5002],[25.3501,3.522,576.111],[25.3648,3.5248,582.8313],[25.3726,3.5304,579.5226],[25.3991,3.5362,570.8047],[25.4076,3.5408,585.0645],[25.4133,3.5415,575.9529],[25.4273,3.5317,582.5883],[25.4381,3.531,556.5],[25.4422,3.5288,585.1757],[25.4569,3.5127,557.5],[25.4624,3.5118,582.3038],[25.4713,3.5146,575.38],[25.4766,3.5141,563.9978],[25.4851,3.5096,586.7573],[25.4947,3.5091,559.0],[25.5032,3.5064,585.6479],[25.5055,3.5085,586.2442],[25.5098,3.5202,587.8958],[25.5194,3.5348,588.6193],[25.5301,3.5465,560.5],[25.5369,3.5489,561.0],[25.5539,3.5434,585.8578],[25.5727,3.546,585.2176],[25.5805,3.5527,583.0378],[25.5859,3.5624,562.5],[25.6037,3.5838,590.6076],[25.6168,3.5873,592.7054],[25.6419,3.5994,585.6001],[25.6804,3.597,622.5189],[25.6891,3.5988,623.0609],[25.7033,3.606,570.7452],[25.709,3.6058,597.365],[25.7129,3.6021,584.9987],[25.7132,3.5883,591.3417],[25.7355,3.5714,592.5951],[25.7398,3.5725,569.0],[25.7469,3.5716,569.5],[25.7563,3.5677,584.1097],[25.7602,3.5636,578.5145],[25.7644,3.5512,570.5],[25.7772,3.5466,624.9937],[25.7832,3.5402,601.8884],[25.789,3.528,585.1456],[25.8128,3.5306,594.6025],[25.8327,3.5401,588.1743],[25.8416,3.551,583.1887],[25.8415,3.5721,603.0699],[25.8433,3.5827,596.1346],[25.8506,3.5984,575.5],[25.8529,3.6083,576.0],[25.8524,3.6136,576.0],[25.8443,3.6288,600.1199],[25.8455,3.6343,588.7635],[25.853,3.6451,577.0],[25.8546,3.6532,577.5],[25.8511,3.664,585.9285],[25.8513,3.6679,584.0349],[25.8547,3.6723,578.0],[25.8529,3.6817,578.5],[25.8563,3.6928,583.4072],[25.8611,3.6965,595.4171],[25.8712,3.6979,594.0671],[25.8853,3.7069,581.8101],[25.8986,3.7051,592.3566],[25.9025,3.7088,590.5936],[25.9082,3.7187,587.2188],[25.9137,3.7183,603.3913],[25.9231,3.713,608.3649],[25.9273,3.7082,604.4343],[25.9342,3.7054,585.308],[25.9422,3.7052,582.0],[25.9449,3.7075,588.822],[25.9479,3.7177,612.8577],[25.9671,3.7212,619.8322],[25.9721,3.7269,604.8024],[25.9772,3.7283,597.2908],[25.9818,3.7233,602.4995],[25.9859,3.7224,588.402],[25.9934,3.7277,592.3014],[26.0047,3.7282,602.5299],[26.0145,3.7383,590.0003],[26.02,3.7406,594.5184],[26.0227,3.7377,590.7198],[26.0356,3.7354,615.6306],[26.0516,3.7196,600.3605],[26.0558,3.7175,632.9818],[26.0626,3.7178,605.0591],[26.0665,3.7214,613.0647],[26.075,3.7139,608.341],[26.0796,3.7042,607.7126],[26.0835,3.6998,609.9008],[26.0829,3.6897,600.5015],[26.0902,3.6782,592.5411],[26.0978,3.6762,614.2695],[26.1065,3.6764,605.6665],[26.1178,3.6686,633.7514],[26.1219,3.6599,594.9807],[26.1418,3.6542,623.7943],[26.153199999999998,3.6621,626.9617],[26.1558,3.6701,613.5872],[26.1626,3.6763,605.3582],[26.1704,3.6761,603.2607],[26.1771,3.6674,623.2654],[26.1856,3.664,615.4259],[26.1927,3.6633,618.9473],[26.2014,3.6601,622.3639],[26.2108,3.6608,626.6279],[26.2195,3.664,622.4448],[26.2231,3.6684,625.2264],[26.2224,3.6783,613.0283],[26.224,3.6857,628.1249],[26.2277,3.6905,623.3784],[26.2471,3.7051,627.4653],[26.264,3.7208,654.118],[26.2693,3.7231,630.6552],[26.2917,3.722,642.0024],[26.2977,3.7298,639.7247],[26.2967,3.7337,616.8201],[26.2979,3.736,618.7971],[26.3025,3.7388,621.0283],[26.3061,3.7437,615.3297],[26.3125,3.7451,619.6308],[26.3198,3.7552,615.7687],[26.3285,3.7587,623.2201],[26.3448,3.7716,626.465],[26.3787,3.7809,616.194],[26.3954,3.7736,627.3271],[26.4041,3.7734,625.636],[26.4061,3.7881,622.1971],[26.4176,3.8022,638.5657],[26.4304,3.8114,628.5843],[26.4329,3.8162,625.7504],[26.431,3.8206,636.2125],[26.4248,3.8259,625.1746],[26.4269,3.8296,628.4745],[26.4317,3.8305,630.1402],[26.429,3.8259,625.6993],[26.4308,3.8234,637.954],[26.4363,3.8248,624.3],[26.4463,3.8476,632.2294],[26.452,3.8549,625.4304],[26.447,3.8577,614.4019],[26.4429,3.8487,623.8924],[26.4406,3.848,621.0019],[26.4426,3.8556,619.1821],[26.4461,3.8595,617.8285],[26.4513,3.8598,624.7374],[26.4575,3.8559,626.8066],[26.4623,3.8584,630.6609],[26.4674,3.8667,625.4431],[26.4706,3.8789,631.3923],[26.4756,3.8838,625.4639],[26.4857,3.8886,634.1287],[26.4902,3.8932,640.3621],[26.4957,3.9082,636.8986],[26.5028,3.9153,645.0161],[26.5078,3.9177,654.3102],[26.5209,3.9193,640.7213],[26.5273,3.9269,619.1865],[26.5396,3.9348,633.5443],[26.5444,3.9428,624.0824],[26.5582,3.9571,615.9702],[26.5678,3.9622,617.4014],[26.5744,3.9723,616.3251],[26.5801,3.9774,619.1485],[26.5847,3.9864,633.0562],[26.5918,3.9933,637.1003],[26.5982,4.0065,617.0422],[26.6034,4.0113,617.0049],[26.6355,4.0236,616.1126],[26.6524,4.0241,620.8984],[26.6733,4.0154,631.9158],[26.6862,4.0142,612.0],[26.6965,4.0161,621.5353],[26.7141,4.0088,618.27],[26.7281,4.0,635.5546],[26.7357,3.9904,642.2437],[26.7375,3.9856,621.8149],[26.7344,3.9782,640.7083],[26.7357,3.9724,633.0999],[26.7296,3.9568,622.0736],[26.7342,3.9418,639.5212],[26.7436,3.9287,621.2303],[26.7496,3.8986,626.6642],[26.7581,3.8878,615.5],[26.7627,3.868,623.3777],[26.7738,3.8415,637.3182],[26.7786,3.8408,621.1998],[26.7836,3.8376,618.9268],[26.8038,3.837,634.4119],[26.8059,3.8354,632.6249],[26.8144,3.8181,645.0214],[26.8119,3.811,637.7325],[26.8121,3.8011,649.1471],[26.8229,3.8006,653.7742],[26.83,3.7983,650.4689],[26.8337,3.7944,654.4598],[26.8404,3.7661,663.7168],[26.8443,3.7618,659.391],[26.8603,3.7544,664.9857],[26.8825,3.7535,692.9344],[26.8901,3.7515,689.3854],[26.8981,3.7441,724.7925],[26.9018,3.7437,698.5966],[26.9158,3.7467,695.4212],[26.9277,3.7458,681.4081],[26.9327,3.7469,674.0024],[26.9474,3.7548,673.2471],[26.9497,3.7599,672.8154],[26.9448,3.775,677.1646],[26.945,3.7794,672.6931],[26.9476,3.7838,676.723],[26.951,3.7856,680.6335],[26.9654,3.7854,710.4719],[26.978,3.7781,676.097],[27.003,3.7827,707.5832],[27.0122,3.7781,707.2137],[27.0188,3.7777,721.232],[27.0296,3.7825,705.6177],[27.0316,3.786,707.7654],[27.0316,3.791,704.0612],[27.0447,3.7943,702.963],[27.0513,3.8056,722.7546],[27.071,3.8153,684.8002],[27.0908,3.8218,698.029],[27.0998,3.8217,689.5721],[27.1032,3.8085,695.8768],[27.1106,3.7977,686.526],[27.1155,3.7968,680.0319],[27.127,3.8075,691.2557],[27.1428,3.8505,658.3144],[27.1487,3.858,655.2933],[27.1542,3.8572,646.3141],[27.1732,3.8398,646.8893],[27.1787,3.8389,689.9229],[27.1966,3.8235,696.8669],[27.2021,3.8221,679.7178],[27.2197,3.8231,691.9091],[27.2293,3.8254,706.1735],[27.2394,3.8307,681.5883],[27.2465,3.8371,668.9758],[27.2515,3.8533,649.3524],[27.2545,3.8567,664.8723],[27.2565,3.8701,668.3846],[27.2597,3.8733,652.8356],[27.2774,3.8793,663.2511],[27.2707,3.8986,657.6315],[27.265,3.9078,649.8867],[27.2583,3.9143,646.4721],[27.2562,3.9228,647.8005],[27.256,3.937,655.1744],[27.2507,3.9451,652.7231],[27.2326,3.957,654.7294],[27.2271,3.9679,674.2243],[27.2236,3.9872,678.217],[27.2241,3.9957,667.2806],[27.2275,4.0003,660.3015],[27.2293,4.0109,655.2463],[27.2245,4.0217,670.4034],[27.222,4.0224,665.6562],[27.2201,4.0298,663.4022],[27.2236,4.0364,663.7144],[27.221,4.0475,661.5382],[27.218,4.0507,666.9526],[27.2084,4.0514,661.1812],[27.2009,4.0544,656.9797],[27.1976,4.059,659.0602],[27.1912,4.079,666.5593],[27.1983,4.1057,667.1871],[27.2008,4.1216,670.9962],[27.2136,4.1347,681.8862],[27.2152,4.1449,670.4396],[27.2145,4.1518,679.1935],[27.2291,4.2024,691.1321],[27.2261,4.2148,694.4846],[27.2279,4.2218,702.2988],[27.2323,4.2248,700.7748],[27.2405,4.2248,700.8265],[27.2395,4.2619,695.5062],[27.2409,4.3117,706.8727],[27.2465,4.331,698.592],[27.2655,4.3664,717.2016],[27.2647,4.4058,695.8818],[27.2669,4.4178,712.7092],[27.2918,4.4513,710.1498],[27.2943,4.4551,712.2855],[27.2947,4.4595,721.628],[27.2922,4.4647,724.7626],[27.281,4.4709,709.199],[27.2728,4.4706,712.4776],[27.2556,4.4616,698.2057],[27.2173,4.4584,686.7607],[27.2102,4.4519,678.5754],[27.1944,4.4441,671.6301],[27.1884,4.4445,665.1475],[27.1811,4.4491,659.8425],[27.1719,4.4516,663.0306],[27.1643,4.4514,661.5645],[27.1552,4.4553,664.3259],[27.1453,4.467,653.854],[27.1375,4.4686,652.6229],[27.1327,4.4716,655.847],[27.112,4.4741,652.0472],[27.09,4.4828,659.7449],[27.0779,4.4819,643.4205],[27.0719,4.4879,637.0096],[27.0402,4.5074,646.9144],[27.0375,4.5049,640.711],[27.0338,4.5049,638.0491],[27.0308,4.5019,630.6829],[27.0168,4.511,646.0503],[27.006,4.5113,650.0718],[26.995,4.5071,637.5278],[26.9888,4.5066,626.742],[26.9808,4.5098,628.5483],[26.9696,4.5066,629.4872],[26.9599,4.51,633.0035],[26.9698,4.5377,651.4797],[26.97,4.5476,669.1327],[26.9727,4.5531,673.4855],[26.9805,4.5621,665.0863],[26.9793,4.569,658.7848],[26.972,4.5757,667.9753],[26.9683,4.5849,680.2706],[26.9704,4.5927,660.7444],[26.9763,4.5975,682.7123],[26.9811,4.6042,706.9271],[26.9814,4.6245,764.6782],[26.9767,4.636,724.7177],[26.9811,4.6415,714.3762],[26.9941,4.6516,675.958],[27.0026,4.6682,672.9692],[27.0138,4.6763,676.2221],[27.025,4.6876,669.6454],[27.0278,4.6931,662.7902],[27.0275,4.6973,672.2297],[27.0172,4.718,659.0558],[27.0062,4.7352,658.9878],[26.9889,4.7522,659.8797],[26.9774,4.7849,636.2603],[26.9838,4.7884,642.0375],[26.9971,4.7891,657.808],[27.0024,4.7865,643.8614],[27.0107,4.787,636.7288],[27.0304,4.7972,649.1596],[27.0354,4.7972,654.4578],[27.0464,4.8179,672.2989],[27.0468,4.8384,661.2396],[27.0391,4.8452,703.3207],[27.0136,4.8527,686.6049],[26.9988,4.8642,680.7076],[26.9888,4.8848,686.5886],[26.9869,4.9207,673.4387],[26.9823,4.9376,683.4138],[26.9575,4.9651,690.2126],[26.9504,4.9757999999999996,687.9688],[26.9653,4.9887,638.1303],[26.9661,4.9948,658.8042],[26.9562,4.9943,634.2552],[26.947,4.9973,650.1804],[26.9443,5.0023,642.2432],[26.9293,5.0108,630.24],[26.9289,5.0249,649.6925],[26.9314,5.034,659.3256],[26.9409,5.0437,629.171],[26.9413,5.0485,632.2244],[26.9365,5.0579,652.5808],[26.9364,5.0815,678.1732],[26.9444,5.0876,662.1355],[26.965,5.0927,679.1825],[26.9807,5.0921,696.2009],[26.9875,5.0955,678.663],[26.9883,5.1219,659.5726],[26.9817,5.1319,675.3541],[26.9774,5.1427,659.9125],[26.9702,5.1522,667.447],[26.9668,5.1487,659.3349],[26.9551,5.1448,658.4728],[26.948,5.1386,639.5008],[26.9351,5.1342,646.8503],[26.9321,5.1277,631.4261],[26.936,5.1213,645.9197],[26.9349,5.1195,643.3469],[26.9276,5.1178,647.5229],[26.9251,5.1137,646.4771],[26.9122,5.0884,647.8916],[26.9122,5.0801,636.5847],[26.9054,5.0734,630.9155],[26.901,5.0722,628.7287],[26.8948,5.0745,624.7147],[26.8911,5.0736,632.5864],[26.8886,5.0681,627.1777],[26.8914,5.063,625.2479],[26.8898,5.0591,621.8115],[26.8843,5.0533,626.0264],[26.885,5.0455,616.098],[26.8809,5.0444,618.8092],[26.8788,5.0407,624.5066],[26.8756,5.04,621.7769],[26.8722,5.0338,619.606],[26.8563,5.039,619.598],[26.8545,5.0422,621.3556],[26.8483,5.045,617.0762],[26.8501,5.0512,622.1141],[26.846,5.0547,621.1738],[26.8352,5.0567,619.1882],[26.8315,5.0592,617.0278],[26.8292,5.0588,613.4573],[26.8258,5.0498,626.9727],[26.8212,5.0477,621.6006],[26.8081,5.0491,618.0923],[26.8063,5.0504,615.8707],[26.8037,5.0587,614.5681],[26.7978,5.0585,613.2457],[26.7939,5.0631,619.3598],[26.7922,5.0672,621.1118],[26.7932,5.0725,632.0233],[26.7837,5.0755,619.7764],[26.789,5.0815,631.8885],[26.7865,5.0861,621.6705],[26.7814,5.0835,618.2312],[26.7713,5.0856,616.8297],[26.7713,5.0937,619.2587],[26.7734,5.1003,620.0184],[26.7725,5.1017,623.2253],[26.7665,5.0987,610.8831],[26.7578,5.1005,626.2808],[26.7539,5.0973,625.3823],[26.75,5.1035,608.9816],[26.7408,5.1019,622.9619],[26.7325,5.0947,630.7678],[26.7252,5.1,617.7409],[26.7231,5.0922,619.5357],[26.7215,5.0917,628.9988],[26.7178,5.0995,607.9297],[26.7109,5.1025,616.2108],[26.7094,5.0935,641.9663],[26.6972,5.0882,649.6792],[26.6906,5.0875,615.3512],[26.6878,5.091,610.903],[26.6894,5.094,614.3936],[26.6889,5.097,617.2957],[26.6814,5.0963,611.4658],[26.68,5.0935,612.3636],[26.683,5.0875,619.6165],[26.6812,5.0841,631.8479],[26.6697,5.0774,614.6158],[26.6555,5.0762,612.5764],[26.6529,5.0787,618.1251],[26.6504,5.0856,604.6859],[26.6456,5.0849,618.1763],[26.641,5.0886,613.6695],[26.6382,5.0814,620.6566],[26.6309,5.0828,610.6328],[26.6275,5.0803,616.7386],[26.6334,5.069,619.1743],[26.6323,5.0651,619.9227],[26.6289,5.0635,629.4209],[26.6252,5.0674,608.2375],[26.6213,5.0678,624.1041],[26.6215,5.0789,604.3994],[26.6146,5.0802,606.5621],[26.621,5.0869,619.1689],[26.6194,5.0881,609.2516],[26.602,5.0816,610.0494],[26.5995,5.0754,614.4199],[26.5965,5.0738,618.1772],[26.5924,5.0747,620.9679],[26.5896,5.0825,603.4492],[26.5852,5.082,607.5795],[26.585,5.0788,604.7811],[26.5834,5.0777,608.8699],[26.5783,5.0813,604.4095],[26.5751,5.0809,605.3088],[26.5717,5.073,606.1381],[26.5719,5.0687,602.138],[26.5756,5.0645,607.3752],[26.5745,5.0634,604.061],[26.5644,5.0636,601.1505],[26.5609,5.0668,603.358],[26.5598,5.0765,607.7114],[26.5572,5.0765,600.8557],[26.5556,5.0751,608.2712],[26.5543,5.0679,615.8511],[26.5504,5.064,602.0815],[26.5545,5.0585,635.4681],[26.5488,5.0571,624.157],[26.5442,5.049,618.5399],[26.5403,5.0465,605.5732],[26.5385,5.0499,599.4946],[26.5437,5.0573,604.1819],[26.5437,5.0628,619.205],[26.5417,5.0679,610.8151],[26.5339,5.0672,604.5029],[26.5318,5.0631,610.1366],[26.5334,5.0568,616.4643],[26.5268,5.0442,637.8331],[26.519,5.0453,624.6221],[26.5153,5.0504,598.8978],[26.5091,5.0439,617.7969],[26.5038,5.0478,601.4694],[26.5029,5.0538,604.0912],[26.4997,5.0559,602.466],[26.4949,5.0554,611.4423],[26.4928,5.0485,628.4318],[26.4908,5.0464,615.9316],[26.488,5.0464,622.7471],[26.4832,5.0524,610.3169],[26.4859,5.0588,616.7667],[26.4848,5.0616,628.0593],[26.4786,5.0586,598.1584],[26.4705,5.0632,597.3885],[26.4662,5.0588,620.8538],[26.4637,5.0585,627.1713],[26.46,5.0641,604.198],[26.4558,5.0657,604.4465],[26.4528,5.073,598.7474],[26.4549,5.0749,604.4158],[26.4609,5.0756,634.0735],[26.4618,5.0772,652.4617],[26.4569,5.0864,622.7729],[26.459,5.0951,643.5909],[26.4572,5.097,626.7993],[26.451,5.0963,599.9366],[26.4443,5.0905,610.0148],[26.4409,5.0912,599.7312],[26.4388,5.0955,596.5456],[26.4429,5.1057,605.8175],[26.441,5.114,607.6875],[26.4337,5.1109,610.3354],[26.4241,5.113,605.289],[26.4218,5.1151,596.5448],[26.4224,5.1224,604.3672],[26.4181,5.1208,597.316],[26.413,5.1213,599.2153],[26.4119,5.1236,595.8038],[26.4148,5.1305,599.7985],[26.4142,5.133,592.401],[26.4054,5.1328,599.2366],[26.4018,5.1226,604.6409],[26.3995,5.1212,602.4571],[26.3972,5.129,594.6635],[26.3907,5.1323,593.7003],[26.3937,5.1366,603.942],[26.3909,5.1474,601.095],[26.3884,5.1488,591.7768],[26.3799,5.1481,594.4108],[26.3735,5.1435,596.4187],[26.3664,5.1428,590.5265],[26.3611,5.1446,590.7371],[26.3512,5.1554,592.3835],[26.3421,5.1469,604.3728],[26.3333,5.1496,596.2948],[26.3283,5.1485,596.8743],[26.3258,5.1452,593.5192],[26.3272,5.1363,606.1949],[26.3244,5.136,606.3992],[26.3189,5.1427,596.9766],[26.318,5.1517,597.4869],[26.3159,5.1533,594.7182],[26.3127,5.1526,593.5715],[26.3109,5.1475,601.9537],[26.3116,5.1443,605.7703],[26.3097,5.142,611.2061],[26.3065,5.1404,600.8615],[26.3033,5.1408,598.4649],[26.3017,5.1417,599.7762],[26.3012,5.1514,597.8894],[26.2973,5.1544,596.0312],[26.2952,5.1608,596.9183],[26.2831,5.156,603.4612],[26.2821,5.1599,608.4777],[26.2874,5.1654,601.066],[26.2855,5.1693,590.4353],[26.2826,5.1709,587.5803],[26.2571,5.1699,603.3099],[26.2546,5.1715,598.1805],[26.2539,5.175,587.6949],[26.2605,5.1858,602.0948],[26.2543,5.1911,588.2345],[26.2538,5.198,589.2886],[26.2495,5.1984,589.6688],[26.2458,5.1957,595.3058],[26.2433,5.1835,592.3647],[26.2382,5.1853,593.9031],[26.2366,5.1927,593.6974],[26.2322,5.1982,587.7961],[26.2396,5.2056,592.2941],[26.2375,5.2085,593.0727],[26.2233,5.2069,597.7037],[26.2212,5.194,604.1795],[26.218,5.1974,586.5819],[26.2159,5.2041,586.9144],[26.2097,5.2085,588.8502],[26.2184,5.2142,601.8265],[26.2117,5.2218,583.5916],[26.2113,5.232,597.8031],[26.208,5.237,586.0831],[26.203,5.2372,590.3315],[26.2002,5.2342,592.6663],[26.1968,5.2218,601.4076],[26.1907,5.2176,599.4888],[26.1867,5.2179,587.9875],[26.1844,5.2199,590.1275],[26.1915,5.2271,591.4905],[26.1879,5.2335,587.6072],[26.1869,5.2416,592.8574],[26.1846,5.2416,583.0378],[26.18,5.2358,591.3362],[26.1743,5.2339,597.2243],[26.169,5.2291,592.5955],[26.1642,5.2288,615.8482],[26.1601,5.2321,615.7327],[26.1578,5.2376,582.3732],[26.1635,5.256,599.6947],[26.1609,5.2585,582.9129],[26.1467,5.2578,594.0679],[26.141,5.2631,581.5629],[26.1364,5.264,584.2092],[26.1343,5.2621,585.3864],[26.1339,5.2506,596.2991],[26.1307,5.2502,594.7861],[26.1286,5.2437,595.7645],[26.1227,5.2402,601.3121],[26.1201,5.232,614.1879],[26.1167,5.2299,621.0502],[26.1121,5.2312,605.8192],[26.1077,5.237,581.7299],[26.1031,5.2388,590.6487],[26.0928,5.2379,582.6633],[26.0905,5.2335,595.7422],[26.1009,5.2252,594.1794],[26.1014,5.2222,594.9604],[26.0975,5.214,599.9464],[26.0996,5.2082,601.5691],[26.0982,5.2059,603.3894],[26.0927,5.2066,601.6625],[26.0865,5.2135,592.406],[26.0768,5.2132,589.9949],[26.0711,5.2074,585.1191],[26.0704,5.1985,607.7745],[26.0679,5.1941,608.8427],[26.0631,5.1943,597.1781],[26.0539,5.2021,579.4809],[26.0536,5.2134,584.9601],[26.0502,5.2134,581.9025],[26.0465,5.2108,581.1705],[26.0415,5.203,612.7311],[26.0383,5.2023,614.5387],[26.0277,5.2069,599.8334],[26.0165,5.2057,608.8669],[26.011,5.2082,606.2355],[26.0087,5.2128,578.0367],[26.0116,5.2222,585.8873],[26.0093,5.2284,587.1048],[26.0065,5.2303,579.0319],[26.001,5.2298,586.2842],[25.9926,5.2201,594.9407],[25.9893,5.2238,588.5517],[25.9852,5.2397,586.1875],[25.9771,5.2353,587.9203],[25.9666,5.223,578.4814],[25.9612,5.2039,579.3188],[25.9619,5.2005,575.4219],[25.9662,5.1945,607.5176],[25.964,5.1917,613.8782],[25.9591,5.1922,606.8013],[25.9501,5.2046,580.8092],[25.9423,5.2066,579.7108],[25.9377,5.2055,583.9827],[25.9265,5.1972,590.325],[25.9095,5.2003,579.5774],[25.9096,5.1916,574.7905],[25.9167,5.1833,582.943],[25.9174,5.1748,600.0846],[25.916,5.1702,604.2253],[25.9085,5.1649,599.0677],[25.905,5.1651,584.7672],[25.9027,5.1706,573.8351],[25.903199999999998,5.1803,579.511],[25.8997,5.1874,580.1954],[25.8985,5.1945,584.1232],[25.896,5.198,582.286],[25.89,5.1991,578.1957],[25.885,5.2039,572.5823],[25.8801,5.206,572.7457],[25.8872,5.2136,586.8357],[25.8838,5.2187,580.7601],[25.862,5.2198,584.0939],[25.8471,5.2119,577.2589],[25.845,5.2084,583.5577],[25.8457,5.2025,593.7157],[25.843,5.1953,625.4227],[25.8391,5.193,608.1752],[25.8359,5.1868,613.1594],[25.832,5.1895,587.1118],[25.8327,5.1934,572.5012],[25.8313,5.1955,572.9996],[25.8249,5.1996,574.0986],[25.8218,5.2063,577.9041],[25.8207,5.2171,588.3138],[25.8115,5.2136,573.1927],[25.809,5.2152,577.8867],[25.8085,5.2194,571.3894],[25.817,5.2298,590.5926],[25.8179,5.2383,591.5378],[25.8208,5.2429,608.1042],[25.8201,5.2459,612.6759],[25.8098,5.244,569.1093],[25.7963,5.2368,583.4357],[25.7915,5.2361,576.3179],[25.7901,5.2377,570.7708],[25.7905,5.2403,568.5221],[25.799,5.2486,572.5334],[25.8008,5.2532,596.4035],[25.799,5.2626,598.3073],[25.7925,5.2727,571.3401],[25.7877,5.2734,570.4265],[25.77,5.2637,566.0258],[25.7721,5.2595,575.8209],[25.7822,5.261,566.4782],[25.785,5.2591,581.6117],[25.7859,5.2564,577.5274],[25.7834,5.2515,576.0994],[25.7754,5.2476,584.8481],[25.7708,5.242,596.0552],[25.7497,5.2378,600.7947],[25.7492,5.2367,607.188],[25.746,5.2514,584.4694],[25.7402,5.2606,582.219],[25.74,5.265,584.124],[25.7358,5.2659,563.9326],[25.7285,5.2636,576.2388],[25.7202,5.267,576.3242],[25.7181,5.2702,566.2894],[25.719,5.2748,590.0998],[25.714,5.2796,560.3147],[25.7126,5.292,571.3745],[25.7089,5.2971,564.0424],[25.7043,5.2994,565.6102],[25.6914,5.3014,564.4692],[25.6863,5.3048,563.7125],[25.6797,5.3053,569.5984],[25.6744,5.3122,563.4998],[25.6698,5.3112,561.8882],[25.665,5.3064,564.7499],[25.6609,5.3061,563.6537],[25.6629,5.3216,566.1151],[25.6617,5.3259,570.9897],[25.6587,5.328,572.9855],[25.645,5.327,564.7675],[25.6406,5.3229,564.213],[25.6372,5.3169,562.9325],[25.6372,5.3137,561.4447],[25.642,5.3072,570.8231],[25.64,5.3029,583.9446],[25.6345,5.3017,576.9896],[25.6306,5.3035,569.0425],[25.628,5.307,561.5229],[25.6273,5.3176,565.3983],[25.6239,5.3215,560.9593],[25.6034,5.3202,564.2415],[25.6018,5.3228,560.4393],[25.608,5.3304,564.2955],[25.6123,5.3341,565.1584],[25.6245,5.3378,571.5255],[25.6268,5.3415,571.6415],[25.6226,5.3475,570.7758],[25.6185,5.3481,560.8748],[25.6116,5.3463,563.9406],[25.6036,5.3469,564.2664],[25.6011,5.3453,563.3309],[25.5972,5.3455,560.7158],[25.5877,5.3547,560.9482],[25.5866,5.3588,561.3297],[25.5874,5.3658,569.5184]]]]}}