{"type": "Feature","bbox": [30.6946,3.1242,30.719,3.1489],"geometry": {"type": "MultiPolygon","coordinates": [[[[30.7147,3.1273,1257.0087],[30.7187,3.1352,1257.6108],[30.719,3.1394,1243.1108],[30.7153,3.1472,1258.3369],[30.708,3.1489,1265.1592],[30.6967,3.1453,1254.5],[30.6946,3.1407,1239.6036],[30.6949,3.1334,1257.0291],[30.6992,3.128,1272.1482],[30.7053,3.125,1265.9592],[30.7114,3.1242,1263.988],[30.7147,3.1273,1257.0087]]]]}
,"properties": {"GID_2": "COD.6.1_1","GID_0": "COD","country": "DemocraticRepublicoftheCongo","GID_1": "COD.6_1","province": "Ituri","NL_NAME_1": "NA","county": "Ariwara","VARNAME_2": "NA","NL_NAME_2": "NA","TYPE_2": "Ville","ENGTYPE_2": "Town","CC_2": "NA","HASC_2": "NA","name": "Ariwara.county","area_km2": 5.694848,"hist_schema_id": "Elevation0-9000","hist_area_km2": {"1250": 3.874185,"1275": 1.820662}}}