{"type": "Feature","bbox": [23.6401,-10.1299,27.8542,-6.144],"geometry": {"type": "MultiPolygon","coordinates": [[[[25.498,-9.4957,700.1946],[25.5016,-9.4872,690.7029],[25.5116,-9.4885,704.9689],[25.5104,-9.5055,711.9249],[25.5304,-9.509,716.3914],[25.5377,-9.5052,716.6962],[25.5493,-9.5069,717.3944],[25.5591,-9.511,732.629],[25.5681,-9.5102,752.6051],[25.5786,-9.5165,734.2255],[25.5902,-9.5171,729.493],[25.6002,-9.513,752.686],[25.6191,-9.497,778.0602],[25.6264,-9.4934,777.2832],[25.6407,-9.4897,796.3702],[25.6451,-9.493,795.7978],[25.6547,-9.519,803.2369],[25.6719,-9.536,799.703],[25.684,-9.5516,780.5804],[25.6944,-9.5601,767.9398],[25.7001,-9.5669,759.1199],[25.7096,-9.5718,764.8127],[25.7231,-9.5838,803.498],[25.7431,-9.5981,847.9542],[25.7899,-9.6192,849.5259],[25.811,-9.6253,877.0901],[25.8178,-9.6289,872.0825],[25.8245,-9.6331,862.1357],[25.8366,-9.6507,875.4373],[25.845,-9.6575,859.2607],[25.8765,-9.6751,846.9811],[25.8799,-9.6799,822.7347],[25.9148,-9.6991,1158.1703],[25.9349,-9.7013,985.688],[25.9591,-9.7,1002.4835],[26.0078,-9.6845,1106.3954],[26.0229,-9.6825,1008.8875],[26.0335,-9.6766,1002.5493],[26.0355,-9.6779,1042.3615],[26.0355,-9.6821,1036.4968],[26.0311,-9.706,1169.927],[26.0313,-9.7135,1104.7637],[26.0326,-9.7197,1087.5911],[26.0377,-9.7226,1122.6167],[26.0462,-9.7222,1144.3258],[26.1041,-9.7113,1246.2434],[26.1081,-9.7116,1257.3837],[26.1159,-9.7188,1256.1553],[26.123,-9.7207,1341.3832],[26.1289,-9.7197,1392.854],[26.134,-9.7168,1354.4419],[26.1413,-9.7089,1387.3025],[26.1457,-9.7073,1413.9171],[26.1485,-9.7066,1409.4116],[26.1546,-9.7092,1399.8896],[26.1648,-9.7102,1390.0875],[26.1727,-9.7085,1494.3296],[26.1885,-9.7003,1588.7797],[26.1923,-9.7003,1576.2122],[26.1967,-9.7026,1565.394],[26.2017,-9.7058,1579.9247],[26.2051,-9.7107,1555.0087],[26.2126,-9.7123,1523.4575],[26.2201,-9.7107,1532.7499],[26.2324,-9.7006,1541.1597],[26.2429,-9.6858,1546.6897],[26.2498,-9.6792,1571.5182],[26.2603,-9.6733,1583.8601],[26.2687,-9.6746,1595.6647],[26.28,-9.6697,1561.6138],[26.3083,-9.6514,1649.9395],[26.3326,-9.6412,1640.681],[26.3283,-9.6267,1629.095],[26.3215,-9.6192,1615.3579],[26.3362,-9.5931,1615.9709],[26.3666,-9.5653,1620.8372],[26.3703,-9.5641,1624.4579],[26.3852,-9.551,1601.6842],[26.3956,-9.5346,1592.6733],[26.4006,-9.5306,1596.0261],[26.4063,-9.522,1566.7036],[26.423,-9.5089,1561.8093],[26.4275,-9.5003,1565.7064],[26.4319,-9.4964,1563.8876],[26.437,-9.4945,1562.1641],[26.4473,-9.4858,1571.6339],[26.4519,-9.4724,1558.1138],[26.4585,-9.4632,1561.1658],[26.4623,-9.4537,1538.2943],[26.4695,-9.4529,1531.2253],[26.48,-9.4406,1540.5824],[26.476,-9.436,1510.6685],[26.4823,-9.4263,1526.8109],[26.4774,-9.4043,1468.3778],[26.4733,-9.3954,1458.118],[26.4655,-9.3861,1438.8513],[26.4651,-9.3732,1379.9258],[26.4683,-9.3679,1294.8171],[26.4731,-9.3646,1329.3672],[26.4744,-9.3561,1289.9927],[26.4774,-9.354,1306.1527],[26.4784,-9.3459,1275.6593],[26.4852,-9.3329,1225.0402],[26.484,-9.3288,1203.4073],[26.4903,-9.3225,1218.9492],[26.4987,-9.2951,1287.6202],[26.4963,-9.2845,1132.834],[26.5013,-9.2789,1213.2893],[26.5022,-9.264,1141.14],[26.4995,-9.2638,1110.1267],[26.498,-9.2597,1094.1163],[26.4941,-9.2583,1123.4065],[26.4933,-9.2524,1137.8896],[26.4883,-9.2453,1055.7322],[26.4851,-9.2447,1049.1968],[26.4827,-9.2406,1051.1992],[26.4771,-9.2397,1043.8164],[26.4695,-9.2359,1012.6447],[26.4777,-9.2308,1025.1631],[26.4758,-9.2285,1011.1081],[26.4707,-9.2274,1010.4669],[26.4663,-9.2224,988.0286],[26.4646,-9.2174,983.3537],[26.4692,-9.2155,999.7938],[26.4734,-9.2053,966.197],[26.4787,-9.202,972.6721],[26.4823,-9.1932,978.564],[26.4826,-9.184,953.4969],[26.4932,-9.1775,973.3701],[26.4954,-9.174,962.8533],[26.4979,-9.1563,935.174],[26.5011,-9.1521,937.4001],[26.5129,-9.1519,950.3956],[26.5254,-9.1481,962.9035],[26.5269,-9.1405,960.1044],[26.5362,-9.1339,1025.0895],[26.5401,-9.1258,1019.3375],[26.5447,-9.1234,965.8913],[26.5482,-9.1135,986.5809],[26.5474,-9.1069,945.2486],[26.562,-9.089,933.0906],[26.5675,-9.0857,937.7526],[26.5728,-9.0858,911.5385],[26.5856,-9.0748,944.4653],[26.589,-9.0684,952.8771],[26.5973,-9.0678,895.4714],[26.6029,-9.0702,942.8257],[26.6077,-9.0704,1028.1],[26.6104,-9.0639,979.6185],[26.6162,-9.0641,999.9839],[26.6226,-9.058,1027.8936],[26.625,-9.0492,968.4552],[26.6295,-9.0455,942.115],[26.6327,-9.0395,916.1547],[26.6414,-9.0318,922.5309],[26.6469,-9.0305,835.644],[26.6534,-9.0201,799.2671],[26.6601,-9.0145,785.6547],[26.6709,-9.0104,664.9255],[26.6734,-9.007,682.9494],[26.6748,-8.9957,659.0314],[26.6775,-8.9931,659.725],[26.6788,-8.9841,643.4249],[26.6772,-8.9715,646.2408],[26.6732,-8.9647,655.9225],[26.6774,-8.952,654.7175],[26.6801,-8.8991,640.9536],[26.6916,-8.8665,631.2867],[26.7068,-8.8599,623.3621],[26.7209,-8.8445,646.8759],[26.7318,-8.8372,660.6846],[26.7325,-8.8329,668.6731],[26.7293,-8.8235,643.8181],[26.7306,-8.815,650.0441],[26.7289,-8.8097,625.259],[26.7136,-8.7918,623.7393],[26.7155,-8.7768,610.7476],[26.7111,-8.7627,613.5942],[26.7179,-8.7531,607.6551],[26.7197,-8.7527,617.7042],[26.7199,-8.7467,609.7795],[26.715,-8.7428,610.8302],[26.7216,-8.7365,634.1592],[26.721,-8.7274,622.1842],[26.7225,-8.72,607.256],[26.7187,-8.7129,598.7065],[26.7143,-8.6951,608.1328],[26.716,-8.6902,609.8006],[26.7192,-8.6872,599.9432],[26.7275,-8.6839,615.4192],[26.7306,-8.6799,607.3072],[26.7321,-8.6714,597.3853],[26.7512,-8.6775,598.3134],[26.7553,-8.6887,604.9521],[26.7574,-8.6908,615.8488],[26.7604,-8.691,599.4644],[26.7704,-8.6825,595.3818],[26.7646,-8.6806,614.6122],[26.7606,-8.674,597.7668],[26.7531,-8.6695,587.4772],[26.7604,-8.6655,620.3036],[26.7732,-8.654,620.8184],[26.7765,-8.6553,614.3184],[26.7779,-8.6599,624.7903],[26.786,-8.6632,647.9035],[26.7923,-8.6645,633.8992],[26.7969,-8.6619,636.7144],[26.8109,-8.6714,685.2139],[26.818,-8.671,686.3078],[26.823,-8.6827,709.7089],[26.8307,-8.6862,721.807],[26.8308,-8.6913,736.2581],[26.8353,-8.6967,750.7695],[26.8359,-8.7094,779.922],[26.8283,-8.7242,796.4041],[26.8304,-8.729,877.262],[26.8264,-8.7336,825.5884],[26.8244,-8.7417,908.7326],[26.8261,-8.7626,1409.9899],[26.8275,-8.7653,1389.168],[26.8317,-8.7662,1374.2207],[26.8342,-8.7751,1473.203],[26.8426,-8.7812,1463.6708],[26.8497,-8.7813,1463.9441],[26.8561,-8.7736,1458.5181],[26.8634,-8.77,1477.8258],[26.875,-8.7584,1459.707],[26.8863,-8.7541,1467.0773],[26.8946,-8.7445,1468.5363],[26.9066,-8.7384,1466.6414],[26.9231,-8.7211,1491.2737],[26.942,-8.7155,1507.8528],[26.9561,-8.7029,1522.2457],[26.9581,-8.6972,1511.1555],[26.957,-8.6861,1496.0535],[26.9583,-8.6818,1498.0001],[26.9678,-8.6699,1514.2722],[26.9763,-8.6654,1515.7939],[27.0063,-8.6387,1518.2822],[27.0322,-8.6126,1530.8723],[27.0389,-8.6091,1530.9738],[27.0525,-8.5822,1543.1638],[27.0681,-8.5728,1617.874],[27.0717,-8.5673,1638.5031],[27.0851,-8.5606,1680.5868],[27.0856,-8.5551,1667.4143],[27.0817,-8.5487,1651.1014],[27.0718,-8.5414,1629.79],[27.0502,-8.5475,1618.5599],[27.012,-8.5379,1214.9614],[27.0065,-8.5329,1161.5615],[27.0055,-8.5165,1502.2991],[27.0155,-8.487,1354.9093],[27.0562,-8.4383,1422.8228],[27.1562,-8.307,722.007],[27.1663,-8.2908,687.8787],[27.1642,-8.2856,675.5826],[27.1741,-8.2714,675.6585],[27.195,-8.2521,1078.9978],[27.2151,-8.2277,1101.8046],[27.2263,-8.2072,749.0714],[27.2511,-8.2042,751.8614],[27.2641,-8.1976,763.2264],[27.2659,-8.195,758.562],[27.2652,-8.1907,754.2206],[27.2784,-8.1799,761.8673],[27.2823,-8.1826,764.011],[27.2851,-8.1818,770.4801],[27.2903,-8.1783,769.0428],[27.2985,-8.1692,778.562],[27.3065,-8.167,775.7458],[27.3106,-8.1679,775.8579],[27.3174,-8.1735,781.1503],[27.3255,-8.1724,822.9556],[27.332,-8.1753,800.8049],[27.3377,-8.1837,818.0077],[27.3416,-8.1862,813.0364],[27.366,-8.186,839.0378],[27.3781,-8.1782,857.4403],[27.3896,-8.1734,942.7917],[27.4223,-8.1499,977.1289],[27.4318,-8.1486,1021.2861],[27.4555,-8.1369,1030.0591],[27.4658,-8.1342,1062.113],[27.4751,-8.1256,1072.2736],[27.4841,-8.1094,1141.7042],[27.5016,-8.0992,1246.1394],[27.5059,-8.1064,1248.8948],[27.5141,-8.1073,1296.7535],[27.5333,-8.1,1264.0002],[27.5597,-8.0818,1266.115],[27.5909,-8.0879,1317.4391],[27.6072,-8.0802,1355.1711],[27.6183,-8.0806,1393.77],[27.6351,-8.0762,1404.9391],[27.6413,-8.0767,1429.6897],[27.6443,-8.0957,1443.6744],[27.6501,-8.1014,1414.2157],[27.6582,-8.1051,1402.3579],[27.6732,-8.1174,1374.8447],[27.6819,-8.1302,1465.7495],[27.6814,-8.1369,1521.6803],[27.6747,-8.1484,1484.8046],[27.6819,-8.1574,1521.5652],[27.6992,-8.1497,1478.2039],[27.7026,-8.1535,1497.884],[27.6969,-8.1797,1408.23],[27.6964,-8.1906,1373.624],[27.6989,-8.1996,1376.1892],[27.7363,-8.1695,1379.0103],[27.7631,-8.1603,1373.7582],[27.7891,-8.1545,1404.041],[27.8073,-8.1515,1295.9197],[27.8222,-8.1514,1216.6139],[27.8375,-8.1445,1156.9597],[27.8534,-8.1227,916.9126],[27.8473,-8.1203,1009.5591],[27.8007,-8.1337,1226.7211],[27.7719,-8.1359,1157.3969],[27.7683,-8.1392,1166.1158],[27.762,-8.1388,1189.2222],[27.7497,-8.131,1260.5479],[27.7453,-8.1304,1401.9015],[27.7407,-8.1316,1398.0215],[27.7259,-8.1436,1484.2633],[27.716,-8.1562,1504.7024],[27.7087,-8.1471,1530.5696],[27.7088,-8.135,1489.184],[27.7253,-8.1191,1461.4418],[27.7305,-8.1174,1438.1799],[27.7375,-8.1071,1414.9607],[27.7396,-8.0954,1359.0143],[27.7449,-8.0859,1349.5021],[27.7666,-8.0707,1340.004],[27.7751,-8.0622,1341.6223],[27.7817,-8.0603,1358.9177],[27.7882,-8.0467,1319.1521],[27.7969,-8.0353,1270.0701],[27.8076,-8.0154,1198.2942],[27.8144,-8.0074,1155.1162],[27.828,-7.9856,1087.808],[27.833,-7.9682,1018.4022],[27.8367,-7.9661,1015.405],[27.8415,-7.956,985.834],[27.8412,-7.9431,965.6356],[27.8453,-7.9392,956.5573],[27.8542,-7.9203,923.4584],[27.8514,-7.9093,910.0969],[27.8528,-7.9045,898.8062],[27.8481,-7.8882,884.0191],[27.808,-7.8813,872.6403],[27.8068,-7.8767,856.4059],[27.8093,-7.8668,848.5865],[27.8061,-7.8643,842.862],[27.806,-7.8567,837.4586],[27.809,-7.8537,836.0359],[27.8078,-7.8489,830.1989],[27.7895,-7.8432,877.2353],[27.7743,-7.8633,886.3871],[27.7343,-7.8779,918.0509],[27.724,-7.8785,933.675],[27.7041,-7.8749,982.117],[27.692,-7.8658,966.0914],[27.6397,-7.8064,884.255],[27.6301,-7.7858,815.7263],[27.6303,-7.7615,846.8529],[27.6268,-7.7348,775.5822],[27.6318,-7.7033,734.3641],[27.6415,-7.6911,765.3533],[27.6736,-7.6728,694.0344],[27.6667,-7.6678,690.0899],[27.6613,-7.6515,683.6173],[27.6504,-7.6406,687.3417],[27.6324,-7.6179,675.9209],[27.6278,-7.6159,676.7459],[27.624,-7.5952,669.8665],[27.6182,-7.5908,670.0345],[27.615,-7.5837,666.3942],[27.5949,-7.5771,656.3302],[27.5922,-7.5746,655.7175],[27.5861,-7.5606,655.7888],[27.5975,-7.5346,670.194],[27.5976,-7.5267,686.3473],[27.594,-7.5206,706.6418],[27.5862,-7.5127,715.1844],[27.5753,-7.5049,712.6754],[27.553,-7.4988,699.4148],[27.5289,-7.4849,649.9553],[27.5107,-7.4819,630.4618],[27.4998,-7.4849,637.5868],[27.5033,-7.5135,658.8113],[27.4978,-7.5195,659.3775],[27.464,-7.5262,693.5977],[27.4428,-7.534,657.2097],[27.4437,-7.5191,648.2115],[27.4418,-7.5134,647.124],[27.4441,-7.5046,645.4398],[27.4434,-7.4987,639.7961],[27.4475,-7.489,637.4641],[27.4443,-7.4837,641.1726],[27.4452,-7.4787,635.1143],[27.4394,-7.4725,633.3906],[27.4332,-7.4737,637.8363],[27.4291,-7.4776,639.7819],[27.4199,-7.4788,648.9316],[27.4029,-7.4967,656.2007],[27.3971,-7.5006,660.2242],[27.3889,-7.5018,666.0767],[27.3811,-7.5087,668.91],[27.3684,-7.5127,679.1887],[27.3627,-7.5187,684.6687],[27.3563,-7.529,694.1559],[27.354,-7.5389,698.1027],[27.3333,-7.5379,755.9064],[27.3194,-7.5386,705.3599],[27.3042,-7.5422,670.8179],[27.2854,-7.5414,649.4833],[27.2799,-7.5357,650.2035],[27.2805,-7.532,649.384],[27.2787,-7.5272,647.6965],[27.2685,-7.521,643.9854],[27.266,-7.5121,642.283],[27.2602,-7.5064,639.249],[27.2556,-7.4981,636.1802],[27.2374,-7.491,630.2274],[27.2339,-7.486,633.2476],[27.2277,-7.4956,640.9363],[27.2252,-7.512,639.4288],[27.219,-7.532,645.8544],[27.2202,-7.546,668.9709],[27.2255,-7.5593,676.4685],[27.2193,-7.5915,714.3699],[27.2223,-7.6067,736.6169],[27.2253,-7.6109,746.3962],[27.215,-7.6146,700.2573],[27.1908,-7.6152,679.0648],[27.14,-7.6219,633.126],[27.0879,-7.6347,653.4115],[27.0541,-7.6293,650.6915],[26.9972,-7.6367,686.2341],[26.9694,-7.6324,689.1901],[26.9556,-7.6257,647.8626],[26.9547,-7.6367,653.3273],[26.9496,-7.6349,647.4365],[26.9411,-7.6359,629.6273],[26.9248,-7.6414,617.3903],[26.9061,-7.6376,587.171],[26.8868,-7.6371,579.2665],[26.8656,-7.6312,569.3981],[26.8483,-7.6285,562.335],[26.8372,-7.629,559.4542],[26.808,-7.626,571.364],[26.8145,-7.5968,579.3522],[26.823,-7.5883,571.7343],[26.8266,-7.5807,567.0113],[26.8261,-7.5762,562.6927],[26.8111,-7.5757,581.2134],[26.809,-7.5684,573.5282],[26.8083,-7.5512,575.229],[26.803,-7.545,576.6882],[26.7848,-7.5356,596.0805],[26.7754,-7.5335,603.2563],[26.7637,-7.5353,626.8788],[26.7528,-7.5466,643.0485],[26.7449,-7.5504,656.1687],[26.7362,-7.5504,719.0881],[26.6988,-7.5228,614.0967],[26.6967,-7.5271,614.8777],[26.7011,-7.5331,625.8475],[26.6991,-7.5375,638.922],[26.6915,-7.5458,636.4702],[26.6855,-7.5463,630.5563],[26.6823,-7.549,626.266],[26.6713,-7.5472,628.1547],[26.6611,-7.553,642.6953],[26.6536,-7.5446,636.8398],[26.6511,-7.5394,655.2549],[26.6497,-7.5191,670.0309],[26.6511,-7.511,635.5345],[26.6477,-7.5089,641.5934],[26.6304,-7.5083,646.0824],[26.6214,-7.5007,651.3497],[26.6124,-7.5,658.45],[26.5873,-7.4808,656.3917],[26.5864,-7.4771,666.0923],[26.5771,-7.4689,674.9801],[26.5493,-7.4662,688.5966],[26.5398,-7.463,691.9694],[26.5345,-7.4582,684.6318],[26.5306,-7.4504,689.6816],[26.5285,-7.4437,695.0015],[26.5273,-7.4226,722.8983],[26.525,-7.4178,733.8868],[26.5211,-7.4148,736.3817],[26.5158,-7.4132,734.7383],[26.5105,-7.4084,736.9109],[26.498,-7.4087,755.7393],[26.4957,-7.4073,745.9598],[26.4909,-7.4094,753.0757],[26.484,-7.4163,771.4016],[26.4833,-7.4225,787.7354],[26.4822,-7.4255,797.37],[26.4792,-7.4259,819.764],[26.4792,-7.4298,838.7089],[26.4755,-7.4335,927.5515],[26.4714,-7.4328,907.7351],[26.4608,-7.3842,851.5263],[26.4545,-7.3724,780.7893],[26.444,-7.3621,753.9911],[26.4346,-7.3578,739.3109],[26.4277,-7.3587,746.8912],[26.4219,-7.363,731.827],[26.4219,-7.3739,758.4645],[26.4284,-7.3882,777.5064],[26.4362,-7.3988,790.9788],[26.4383,-7.4076,797.803],[26.4337,-7.4161,827.4563],[26.424,-7.4189,816.2195],[26.4177,-7.418,796.569],[26.3962,-7.37,739.9667],[26.3877,-7.37,728.986],[26.3729,-7.3743,708.9982],[26.3524,-7.3272,682.0884],[26.3526,-7.3242,678.2678],[26.3595,-7.3139,675.9413],[26.3643,-7.301,674.8352],[26.3689,-7.295,669.2119],[26.3716,-7.2835,666.3104],[26.3785,-7.2699,665.2009],[26.3828,-7.2669,667.1547],[26.3833,-7.2649,664.2883],[26.381,-7.2624,663.3298],[26.3768,-7.2619,672.5584],[26.378,-7.2431,658.179],[26.3816,-7.2375,660.1213],[26.3823,-7.2327,660.0923],[26.38,-7.227,659.6906],[26.3825,-7.2247,655.5259],[26.3855,-7.2164,654.7056],[26.3859,-7.21,649.322],[26.4072,-7.1605,650.9728],[26.4572,-7.152,709.4718],[26.4692,-7.1443,708.2533],[26.4755,-7.1171,712.9414],[26.4815,-7.1029,728.0106],[26.4775,-7.0904,714.571],[26.4857,-7.0618,659.5079],[26.4434,-7.0446,653.9222],[26.4338,-7.0387,637.7747],[26.4191,-7.0369,626.832],[26.4141,-7.0411,626.4103],[26.4134,-7.0452,628.8226],[26.3999,-7.0518,645.6296],[26.363,-7.0503,662.7118],[26.3388,-7.0437,674.8159],[26.315,-7.0212,686.727],[26.2984,-7.013,713.7117],[26.287,-7.0366,742.6605],[26.2789,-7.0432,786.3624],[26.2698,-7.0439,890.863],[26.2348,-7.0308,724.4129],[26.2261,-7.0139,757.2056],[26.2239,-7.0038,780.6274],[26.2132,-6.9865,785.0853],[26.2149,-6.9808,769.5352],[26.2181,-6.9783,773.364],[26.2207,-6.9684,769.9604],[26.2204,-6.9514,725.9097],[26.2168,-6.9429,766.0344],[26.2035,-6.9423,793.9227],[26.1763,-6.9442,882.1839],[26.1503,-6.962,870.8862],[26.1167,-6.9619,771.6472],[26.1016,-6.96,794.3564],[26.0943,-6.9474,805.8546],[26.1023,-6.9353,757.515],[26.1092,-6.93,759.6914],[26.1139,-6.9215,743.1865],[26.1134,-6.9157,754.6439],[26.1086,-6.9106,771.0308],[26.0728,-6.9058,976.213],[26.0525,-6.9,998.1925],[26.0408,-6.8885,1012.6743],[26.0382,-6.8793,1016.7391],[26.045,-6.871,1020.5129],[26.0756,-6.863,975.2755],[26.0816,-6.8543,952.1336],[26.0798,-6.8425,940.591],[26.0867,-6.8359,957.736],[26.0948,-6.8194,823.8376],[26.0949,-6.8108,833.7266],[26.1118,-6.8141,809.4314],[26.1348,-6.8138,764.0436],[26.1336,-6.7953,748.8834],[26.1258,-6.7946,771.9728],[26.1205,-6.7914,793.0396],[26.1129,-6.7932,853.4846],[26.1009,-6.7884,915.4958],[26.0908,-6.7896,898.0082],[26.0854,-6.7637,936.5243],[26.0604,-6.7595,887.3746],[26.037,-6.7508,896.3108],[26.0322,-6.739,936.2872],[26.0343,-6.7235,993.6028],[26.0317,-6.7129,961.0563],[26.0105,-6.7114,925.0017],[26.0062,-6.7021,908.9636],[26.0146,-6.6707,911.6859],[26.0171,-6.6535,912.5836],[26.0106,-6.6459,937.5377],[25.9997,-6.6243,975.4409],[25.9837,-6.6064,951.8334],[25.9659,-6.6028,978.8041],[25.9521,-6.6034,944.1415],[25.9345,-6.6019,989.6395],[25.9344,-6.5901,967.0051],[25.9373,-6.578,946.8141],[25.9342,-6.5616,940.4376],[25.9303,-6.5548,959.0923],[25.9419,-6.5449,939.196],[25.9479,-6.537,947.1688],[25.9491,-6.5168,935.8822],[25.9437,-6.4659,877.5768],[25.9458,-6.4609,875.7404],[25.9756,-6.4643,865.1328],[25.9846,-6.4632,879.1176],[25.985,-6.4565,880.5496],[25.9811,-6.4442,877.1563],[25.984,-6.43,866.4594],[25.9879,-6.4238,853.1001],[25.9956,-6.426,843.7324],[26.0104,-6.4363,842.2823],[26.0241,-6.4336,844.8507],[26.0512,-6.4176,881.2219],[26.0555,-6.4101,850.0856],[26.0597,-6.3862,849.037],[26.0635,-6.377,846.6316],[26.1051,-6.3197,861.8336],[26.1165,-6.2955,854.7132],[26.1127,-6.2857,830.2737],[26.0851,-6.2967,799.4397],[26.0722,-6.2961,788.7888],[26.0652,-6.2842,782.6695],[26.0604,-6.2711,827.4382],[26.0552,-6.2664,815.9617],[26.0461,-6.2641,803.703],[26.0366,-6.2648,808.4988],[26.028,-6.2626,790.9602],[26.0199,-6.2104,788.8094],[26.0165,-6.2044,789.4768],[26.0057,-6.2055,781.9988],[25.9859,-6.2195,767.8383],[25.9822,-6.2493,782.9151],[25.9771,-6.2732,771.4319],[25.9711,-6.2756,758.2745],[25.9598,-6.2649,784.9553],[25.949,-6.2475,753.4821],[25.9489,-6.2341,734.5976],[25.9522,-6.2186,732.1602],[25.9393,-6.2055,738.4361],[25.9255,-6.1972,747.3553],[25.9117,-6.1862,728.3516],[25.8942,-6.1774,733.3972],[25.883,-6.1684,690.7796],[25.8657,-6.1626,661.849],[25.8471,-6.1489,622.8717],[25.8291,-6.144,647.7457],[25.8259,-6.1468,662.902],[25.8034,-6.1514,689.5991],[25.8029,-6.1567,652.8175],[25.814,-6.1641,633.4125],[25.8115,-6.1767,641.275],[25.8034,-6.1834,650.8743],[25.7973,-6.1947,636.5542],[25.7913,-6.199,641.0062],[25.7777,-6.2041,656.1404],[25.761,-6.2069,670.0482],[25.7527,-6.2127,637.2405],[25.7398,-6.2152,660.7789],[25.7359,-6.217,663.309],[25.7281,-6.2249,683.3355],[25.7219,-6.2274,684.0889],[25.7093,-6.2276,670.964],[25.7061,-6.2297,670.6877],[25.7031,-6.2357,661.527],[25.6992,-6.238,668.6479],[25.6912,-6.238,731.3677],[25.6847,-6.2569,672.8102],[25.6811,-6.2615,673.1571],[25.671,-6.2656,655.4155],[25.6432,-6.2693,762.2704],[25.636,-6.2753,742.1831],[25.6131,-6.2772,834.8594],[25.6059,-6.2733,850.7846],[25.6013,-6.279,884.2598],[25.5984,-6.2804,869.1217],[25.5873,-6.2793,870.0404],[25.5793,-6.2827,874.7982],[25.5614,-6.2864,918.6238],[25.5421,-6.2986,831.9882],[25.5368,-6.3065,824.847],[25.5115,-6.309,847.2424],[25.5037,-6.3118,873.0609],[25.4959,-6.3092,879.9231],[25.4929,-6.299,894.9868],[25.4868,-6.2943,894.8457],[25.4399,-6.318,847.2675],[25.4278,-6.3203,838.1149],[25.4153,-6.3193,847.2149],[25.3885,-6.3008,815.7635],[25.3829,-6.299,785.654],[25.3682,-6.3026,768.2599],[25.2959,-6.3275,807.4326],[25.2933,-6.3363,818.0289],[25.3009,-6.3793,867.167],[25.3057,-6.3949,910.5751],[25.3063,-6.4164,895.633],[25.2869,-6.4316,847.3621],[25.2827,-6.4378,822.5129],[25.2724,-6.4416,792.4495],[25.2751,-6.4485,788.3874],[25.2797,-6.4517,787.3135],[25.2818,-6.4609,794.9904],[25.2887,-6.4621,800.8225],[25.2929,-6.4696,778.9919],[25.2968,-6.4722,779.6069],[25.3057,-6.4715,840.5029],[25.309,-6.4735,841.9549],[25.3145,-6.4804,795.7216],[25.3143,-6.4878,823.2505],[25.3292,-6.5066,783.7543],[25.3518,-6.5275,841.6866],[25.3566,-6.5301,843.6251],[25.3591,-6.5342,843.8875],[25.3683,-6.5408,842.5635],[25.3739,-6.5413,846.6834],[25.3799,-6.5341,839.9335],[25.3837,-6.5328,853.6652],[25.3911,-6.5351,838.0374],[25.3964,-6.547,825.1171],[25.4005,-6.5468,815.8151],[25.4047,-6.5443,828.4128],[25.4084,-6.545,828.8249],[25.412,-6.5507,828.4321],[25.4111,-6.5617,829.086],[25.4178,-6.5624,827.3915],[25.4233,-6.5672,829.8265],[25.4293,-6.5762,828.4088],[25.4399,-6.5766,867.1027],[25.4447,-6.5792,870.2967],[25.4475,-6.5895,835.1475],[25.4549,-6.5904,832.0082],[25.4583,-6.5934,847.8204],[25.465699999999998,-6.6123,830.6934],[25.4669,-6.6251,832.0372],[25.4632,-6.6426,835.6566],[25.4632,-6.6548,829.4778],[25.4616,-6.6601,831.9077],[25.4515,-6.6702,854.1715],[25.4407,-6.6895,864.9277],[25.4449,-6.701,854.7925],[25.4437,-6.704,852.4972],[25.4382,-6.7077,854.539],[25.4412,-6.7152,836.2999],[25.4483,-6.724,836.677],[25.4329,-6.7332,864.6746],[25.4217,-6.749,854.5765],[25.4098,-6.7598,867.32],[25.3941,-6.7702,879.8924],[25.3774,-6.787,874.4835],[25.3677,-6.7918,859.1255],[25.3456,-6.799,870.0439],[25.3376,-6.8049,878.128],[25.3102,-6.8086,872.2061],[25.2985,-6.805,877.121],[25.3015,-6.7912,926.6221],[25.3009,-6.7672,896.2718],[25.284,-6.7565,934.9241],[25.2662,-6.7302,910.4478],[25.2575,-6.7242,901.7828],[25.2414,-6.7214,855.111],[25.2225,-6.7094,893.5739],[25.1952,-6.6804,879.4803],[25.1814,-6.6731,868.858],[25.1594,-6.6799,877.1713],[25.1426,-6.6914,868.8369],[25.1375,-6.6917,843.3819],[25.1094,-6.6837,902.7904],[25.0968,-6.6764,899.6232],[25.067,-6.6726,863.9662],[25.0549,-6.6669,877.0212],[25.0493,-6.6585,907.4557],[25.0441,-6.6563,913.9012],[25.0342,-6.6582,926.0156],[25.029,-6.6645,933.083],[25.0218,-6.6858,909.6479],[25.0102,-6.6982,892.1779],[24.9442,-6.6993,878.6313],[24.9352,-6.7033,881.6365],[24.9275,-6.7104,870.97],[24.931,-6.7255,887.0486],[24.9324,-6.7461,886.7629],[24.9264,-6.7502,894.7215],[24.8945,-6.7506,871.3878],[24.8755,-6.7578,861.1695],[24.8481,-6.7835,868.6829],[24.8408,-6.7947,811.8151],[24.8461,-6.8153,748.9895],[24.8475,-6.8272,755.6956],[24.8169,-6.8417,743.8907],[24.8031,-6.8582,716.9681],[24.7902,-6.8688,719.9771],[24.787,-6.8748,721.6581],[24.7843,-6.887,705.3898],[24.7813,-6.8902,697.5283],[24.7769,-6.8918,692.5533],[24.7488,-6.8899,689.6924],[24.7341,-6.9028,700.4246],[24.7373,-6.9086,685.5601],[24.7355,-6.9109,691.3976],[24.7256,-6.9145,693.8702],[24.7281,-6.9184,679.1067],[24.7275,-6.9203,678.8174],[24.7206,-6.9212,683.8379],[24.7217,-6.9265,679.056],[24.7169,-6.9263,690.5984],[24.7148,-6.9288,682.5955],[24.7102,-6.929,693.7892],[24.7056,-6.9334,686.9926],[24.7063,-6.9387,686.288],[24.7049,-6.9419,674.2086],[24.6987,-6.9433,694.7308],[24.698,-6.9483,683.0502],[24.695,-6.9485,685.2271],[24.6904,-6.9531,663.8554],[24.6828,-6.9524,689.0978],[24.669,-6.9552,657.1869],[24.6612,-6.9506,666.7749],[24.6564,-6.9508,651.5754],[24.6527,-6.9573,684.0122],[24.6437,-6.9607,722.8577],[24.6426,-6.9754,664.6314],[24.644,-6.9802,679.387],[24.6195,-6.9833,785.9562],[24.5538,-7.0129,773.3516],[24.5471,-7.0091,765.6085],[24.5293,-6.9876,716.0382],[24.5241,-6.9876,737.4833],[24.5204,-6.9901,753.9778],[24.5162,-6.9959,778.6916],[24.5046,-7.0442,795.9464],[24.483,-7.0541,787.1536],[24.452,-7.0539,809.1147],[24.4315,-7.0518,823.2834],[24.4135,-7.0466,804.6591],[24.3974,-7.0463,760.8613],[24.3796,-7.0581,725.7015],[24.3527,-7.0553,685.869],[24.3451,-7.0587,686.8267],[24.3224,-7.0502,678.3232],[24.3164,-7.0422,673.5074],[24.3097,-7.0408,683.3174],[24.3067,-7.0323,664.9637],[24.304,-7.0314,662.2869],[24.301,-7.0334,666.3299],[24.2973,-7.0332,672.9524],[24.2922,-7.0284,659.7026],[24.2869,-7.0295,670.8969],[24.2796,-7.0249,666.1637],[24.2738,-7.0251,666.5944],[24.2715,-7.0205,662.7069],[24.2665,-7.0173,666.1248],[24.2538,-7.0166,648.1083],[24.2499,-7.0205,657.8767],[24.2448,-7.0203,656.3917],[24.2416,-7.0178,646.9866],[24.2359,-7.0196,660.8964],[24.2324,-7.0182,652.863],[24.231,-7.015,644.4568],[24.2255,-7.0171,651.1395],[24.2179,-7.0099,641.4404],[24.2198,-7.0058,641.2557],[24.2232,-7.0026,640.3716],[24.2264,-7.0021,640.6287],[24.2283,-6.9982,639.3268],[24.2287,-6.9932,642.7716],[24.2258,-6.9851,640.2203],[24.2281,-6.9741,638.7103],[24.2191,-6.9592,637.8239],[24.217,-6.9504,635.7902],[24.2106,-6.9447,640.1245],[24.2074,-6.9357,635.7426],[24.2012,-6.9258,632.9514],[24.191,-6.9224,646.033],[24.1874,-6.9109,629.6248],[24.1795,-6.9093,639.3799],[24.1775,-6.9063,631.4288],[24.1598,-6.9019,625.414],[24.1508,-6.9012,628.2669],[24.1471,-6.9031,628.0455],[24.147,-6.9196,638.7974],[24.1581,-6.9288,625.3016],[24.1575,-6.9322,627.1321],[24.1487,-6.9426,626.4476],[24.1252,-6.9439,626.4501],[24.1218,-6.9467,631.6108],[24.1241,-6.9589,627.3455],[24.1266,-6.9609,627.7441],[24.14,-6.9593,627.6766],[24.1418,-6.9727,628.3274],[24.1463,-6.9785,629.3499],[24.1519,-6.9823,629.29],[24.1524,-6.9846,633.2416],[24.1494,-6.9888,639.1597],[24.1314,-6.9995,634.0051],[24.1305,-7.0034,631.3311],[24.1321,-7.0078,633.8704],[24.1367,-7.0117,636.0242],[24.1475,-7.017,632.7371],[24.1418,-7.0402,637.7443],[24.1411,-7.0506,632.3969],[24.1266,-7.0482,636.3149],[24.1243,-7.0503,647.2051],[24.1217,-7.0673,653.9581],[24.1199,-7.0701,651.3516],[24.1133,-7.072,663.7472],[24.1135,-7.065,671.7432],[24.1086,-7.0627,670.3417],[24.0997,-7.0638,668.9059],[24.0971,-7.0613,675.4873],[24.0918,-7.0618,676.1793],[24.0898,-7.0645,676.1622],[24.0849,-7.0654,673.3653],[24.0808,-7.0696,680.0591],[24.0748,-7.0675,674.7703],[24.0665,-7.068,672.9855],[24.0612,-7.0748,679.288],[24.0605,-7.0836,675.1749],[24.0557,-7.0891,674.1678],[24.0504,-7.1098,677.4052],[24.0451,-7.1148,691.541],[24.0315,-7.1221,697.6444],[24.0306,-7.1288,707.1346],[24.0267,-7.1311,740.211],[24.0145,-7.1635,726.875],[24.0067,-7.169,732.2389],[24.0027,-7.1747,730.25],[23.9839,-7.1846,733.8017],[23.983,-7.1871,733.193],[23.9865,-7.1959,739.3015],[23.9825,-7.2009,742.4365],[23.9793,-7.202,752.3086],[23.9733,-7.1981,742.1262],[23.9611,-7.2103,741.6295],[23.9638,-7.2174,741.7979],[23.962,-7.2268,742.5286],[23.9654,-7.2367,758.8677],[23.9772,-7.2498,756.1438],[23.9857,-7.2622,749.2542],[23.9799,-7.265,749.9517],[23.9781,-7.2691,751.0308],[23.979,-7.2743,749.9984],[23.973,-7.2896,754.0889],[23.977,-7.2958,762.4108],[23.9711,-7.302,766.8492],[23.9744,-7.3114,759.6237],[23.9652,-7.3169,784.2782],[23.9622,-7.3215,765.365],[23.9617,-7.3265,760.6091],[23.9651,-7.3339,759.8101],[23.9663,-7.3415,760.34],[23.9697,-7.3458,761.2424],[23.9773,-7.3486,760.9282],[23.9879,-7.3493,763.927],[23.9946,-7.3548,796.8623],[23.9962,-7.361,779.1406],[24.0006,-7.3652,773.9523],[24.0093,-7.3645,776.0236],[24.01,-7.3698,773.8655],[24.007,-7.3753,775.0898],[24.0038,-7.3776,775.6769],[23.9914,-7.378,782.7821],[23.9835,-7.3835,783.2593],[23.9787,-7.3849,787.2661],[23.9794,-7.3883,786.2325],[23.9752,-7.4012,791.8165],[23.9768,-7.4117,794.9406],[23.9745,-7.4177,798.7035],[23.9718,-7.4453,797.0443],[23.9669,-7.4499,803.2361],[23.966,-7.4584,797.4547],[23.9618,-7.4625,800.5177],[23.9638,-7.4719,800.7292],[23.9561,-7.4861,809.585],[23.9575,-7.4887,802.5468],[23.9554,-7.4928,804.6404],[23.9487,-7.4976,806.5515],[23.9469,-7.5125,814.2474],[23.9386,-7.5167,819.7614],[23.9298,-7.5242,828.9656],[23.9273,-7.5295,805.4078],[23.9351,-7.5484,818.9042],[23.9344,-7.5532,811.42],[23.9326,-7.5529,818.8583],[23.927,-7.5582,816.5689],[23.9215,-7.566,832.4067],[23.9224,-7.5679,823.7295],[23.93,-7.5715,810.3275],[23.9316,-7.5754,812.4099],[23.9309,-7.5839,813.6522],[23.9364,-7.5952,820.9799],[23.9258,-7.6172,836.706],[23.9277,-7.6266,828.611],[23.9231,-7.637,846.1859],[23.9309,-7.6616,817.6857],[23.9313,-7.668,822.9079],[23.9297,-7.6723,824.9762],[23.9219,-7.6808,827.4948],[23.9311,-7.6834,819.8948],[23.9329,-7.6854,823.3657],[23.9281,-7.6914,824.3781],[23.9249,-7.7038,820.4567],[23.9205,-7.7114,827.6447],[23.9198,-7.7178,824.8095],[23.9223,-7.7281,824.1129],[23.9481,-7.7745,831.5604],[23.9529,-7.7796,844.0896],[23.952,-7.786,842.5336],[23.9575,-7.7936,829.3752],[23.9598,-7.8002,839.736],[23.9612,-7.8129,839.5586],[23.9584,-7.8195,833.0951],[23.9513,-7.8262,845.3536],[23.9549,-7.8333,843.1595],[23.939,-7.8407,875.3174],[23.9025,-7.8628,907.7655],[23.8577,-7.8736,945.33],[23.8241,-7.8867,973.9202],[23.8191,-7.8951,978.9131],[23.8223,-7.9252,972.5588],[23.8213,-7.9538,968.4987],[23.8118,-7.9576,989.0643],[23.8118,-7.9527,974.8273],[23.8139,-7.9486,959.7734],[23.8123,-7.9449,973.3292],[23.8146,-7.9362,962.766],[23.8107,-7.9229,955.3705],[23.811,-7.9137,959.7786],[23.8011,-7.8664,944.5127],[23.7972,-7.8593,937.0779],[23.7804,-7.8494,935.7764],[23.7744,-7.8441,938.5807],[23.7714,-7.8365,931.1977],[23.756,-7.8241,928.598],[23.75,-7.8305,928.8652],[23.7357,-7.8583,933.3337],[23.7253,-7.8686,934.8457],[23.7166,-7.8803,953.3088],[23.7156,-7.884,952.0078],[23.7184,-7.8957,952.0823],[23.7165,-7.9035,949.0765],[23.7177,-7.9079,940.0712],[23.7135,-7.9118,939.3896],[23.7133,-7.9168,947.0894],[23.7066,-7.9232,943.4453],[23.7064,-7.9278,946.9734],[23.6912,-7.9448,963.7744],[23.6916,-7.9526,960.6854],[23.6884,-7.9597,968.5666],[23.6884,-7.9675,957.4611],[23.6826,-7.9813,990.6309],[23.6851,-7.9879,983.7377],[23.6835,-7.9923,977.5532],[23.6911,-8.0,998.1157],[23.6741,-8.0293,993.7156],[23.6678,-8.0491,992.7094],[23.6682,-8.0528,984.8608],[23.6754,-8.061,1002.9854],[23.6812,-8.0752,985.3644],[23.6891,-8.0819,993.2272],[23.6928,-8.0899,997.6884],[23.6917,-8.0993,1000.72],[23.6938,-8.1158,990.1257],[23.7008,-8.136,1004.6061],[23.6933,-8.1686,1009.3262],[23.6844,-8.1923,1015.6089],[23.6847,-8.2008,1006.2252],[23.7006,-8.2503,1005.2341],[23.702,-8.2615,1008.3286],[23.7013,-8.276,1010.6271],[23.69,-8.3155,1022.362],[23.6909,-8.3261,1015.24],[23.6896,-8.338,1037.3248],[23.6819,-8.3672,1031.0089],[23.6751,-8.4109,1038.4047],[23.6692,-8.4267,1051.7699],[23.6701,-8.429,1051.4692],[23.6676,-8.4343,1020.2113],[23.6554,-8.4415,1072.0914],[23.6503,-8.4468,1085.7352],[23.6417,-8.4679,1055.9202],[23.6401,-8.4817,1037.3693],[23.6486,-8.5276,1037.1371],[23.6511,-8.5347,1043.688],[23.6581,-8.5423,1055.193],[23.6787,-8.5542,1051.7302],[23.6882,-8.5688,1081.2075],[23.6884,-8.572,1077.974],[23.6815,-8.5792,1069.0461],[23.6792,-8.5845,1074.4587],[23.6781,-8.601,1074.9502],[23.6868,-8.6221,1072.3964],[23.6928,-8.6297,1080.0691],[23.6909,-8.6739,1104.3611],[23.6961,-8.7046,1118.3002],[23.729,-8.7813,1093.9714],[23.7484,-8.767,1109.8357],[23.755,-8.7686,1089.9072],[23.7717,-8.7771,1050.5007],[23.8051,-8.7769,1019.4526],[23.8201,-8.7793,984.4188],[23.8376,-8.7848,998.713],[23.8581,-8.7869,996.426],[23.8715,-8.7878,984.0703],[23.8987,-8.7797,963.5565],[23.9112,-8.7905,923.4723],[23.9227,-8.7782,916.5908],[23.9298,-8.7782,917.5366],[23.9333,-8.7754,916.8746],[23.9354,-8.7701,919.954],[23.9428,-8.7765,926.266],[23.9497,-8.7788,922.1076],[23.9686,-8.7771,926.2242],[23.973,-8.7785,927.7471],[23.9772,-8.7865,945.0227],[23.9801,-8.8028,961.7705],[23.9829,-8.8069,961.342],[23.9912,-8.8128,972.1628],[23.9959,-8.8197,977.645],[24.0005,-8.822,991.6193],[24.008,-8.8296,1003.1038],[24.0139,-8.8326,1002.9704],[24.0432,-8.8585,1028.6226],[24.0739,-8.8885,1078.2632],[24.0884,-8.8913,1033.7222],[24.0997,-8.8967,992.0141],[24.1061,-8.9031,1010.0999],[24.1103,-8.9093,1014.708],[24.1106,-8.9131,984.83],[24.0992,-8.9242,985.0564],[24.0962,-8.9325,982.0112],[24.0979,-8.938,976.3401],[24.106,-8.9365,983.8104],[24.1469,-8.9423,991.6177],[24.1582,-8.9448,994.1188],[24.1657,-8.9489,995.4768],[24.1754,-8.949,1000.551],[24.193,-8.9558,997.7411],[24.2119,-8.9548,1011.2744],[24.2214,-8.9617,1031.8901],[24.2238,-8.9669,1030.9021],[24.2455,-8.9762,1021.33],[24.2497,-8.9799,1025.0754],[24.2521,-8.9849,1031.5496],[24.2505,-8.9923,1022.3535],[24.2538,-9.0008,1046.9253],[24.2515,-9.0079,1032.1736],[24.2668,-9.0453,1071.7244],[24.2742,-9.0572,1071.1838],[24.2854,-9.0674,1069.8071],[24.3056,-9.079,1069.3359],[24.3158,-9.0882,1081.2371],[24.3236,-9.1132,1086.9412],[24.3366,-9.1253,1075.6222],[24.3443,-9.1289,1076.8103],[24.3503,-9.1298,1077.4712],[24.3596,-9.1366,1077.0042],[24.3726,-9.1425,1078.3958],[24.3809,-9.1443,1078.9556],[24.3869,-9.1484,1079.3894],[24.3946,-9.1573,1090.3818],[24.4136,-9.1682,1079.9006],[24.4347,-9.1764,1074.8438],[24.4452,-9.183,1072.7817],[24.4508,-9.1912,1072.4397],[24.4548,-9.202,1080.275],[24.4666,-9.2012,1071.0596],[24.4736,-9.2034,1069.6455],[24.4824,-9.2137,1068.5479],[24.4892,-9.219,1068.1991],[24.489,-9.2351,1066.3804],[24.4967,-9.2425,1092.1925],[24.5057,-9.2469,1095.2588],[24.5141,-9.2486,1092.26],[24.5195,-9.2523,1085.551],[24.5292,-9.2544,1092.6462],[24.5404,-9.2528,1089.3984],[24.5542,-9.2566,1080.0033],[24.5643,-9.266,1078.1659],[24.5696,-9.2682,1072.6841],[24.5753,-9.2774,1080.8047],[24.5734,-9.2909,1076.8215],[24.5701,-9.2935,1084.1167],[24.5525,-9.2947,1063.7178],[24.5368,-9.3006,1026.9553],[24.461,-9.2998,1060.5133],[24.4376,-9.301,1062.9564],[24.4304,-9.3034,1077.6747],[24.411,-9.3033,1078.6726],[24.4023,-9.2967,1070.3612],[24.3969,-9.2885,1070.6652],[24.389,-9.2883,1069.8998],[24.3864,-9.2851,1069.926],[24.3782,-9.2802,1076.431],[24.3299,-9.2705,1080.8568],[24.3003,-9.2703,1079.0706],[24.2926,-9.2737,1076.2336],[24.2684,-9.2757,1074.9873],[24.2634,-9.2813,1086.9739],[24.2573,-9.2816,1091.8391],[24.2514,-9.2849,1079.603],[24.2466,-9.289,1071.7384],[24.2391,-9.3039,1070.5964],[24.2333,-9.3109,1072.1827],[24.229,-9.314,1074.7748],[24.2249,-9.314,1071.1241],[24.2181,-9.3176,1078.0885],[24.2153,-9.3212,1078.4532],[24.2115,-9.3204,1075.9193],[24.2078,-9.3152,1080.3069],[24.1953,-9.3069,1082.0562],[24.1858,-9.3037,1087.0986],[24.1481,-9.3387,1029.021],[24.15,-9.3487,1021.9479],[24.148,-9.353,1012.7322],[24.136,-9.3592,980.7636],[24.1404,-9.3628,974.9094],[24.1447,-9.3741,974.4829],[24.1419,-9.3849,975.5566],[24.1434,-9.3897,978.7333],[24.1518,-9.3995,985.0717],[24.1456,-9.4182,984.086],[24.1461,-9.4225,981.2526],[24.1501,-9.4276,996.7114],[24.1517,-9.4342,992.603],[24.1578,-9.4422,981.5842],[24.1622,-9.453,991.9628],[24.1627,-9.459,991.2307],[24.1566,-9.4811,1004.7839],[24.1529,-9.4848,1008.9461],[24.1514,-9.5046,1007.0575],[24.131,-9.547,1004.101],[24.1212,-9.576,1005.069],[24.1179,-9.5997,1023.6814],[24.1198,-9.6084,1012.2269],[24.1296,-9.6263,1005.9959],[24.132,-9.643,1005.9971],[24.13,-9.6495,1006.2556],[24.1187,-9.667,1006.8364],[24.1195,-9.6746,1007.0149],[24.1124,-9.6926,1007.2767],[24.1136,-9.702,1007.3502],[24.1097,-9.7185,1009.1807],[24.1065,-9.7229,1008.512],[24.082,-9.7364,1009.4916],[24.0716,-9.747,1009.8928],[24.0643,-9.7592,1009.7174],[24.047,-9.7761,1010.5898],[24.0401,-9.7851,1010.8941],[24.0288,-9.8079,1010.9408],[24.0194,-9.8178,1011.0588],[24.013,-9.8356,1011.316],[24.0207,-9.8401,1022.8993],[24.0276,-9.8412,1011.3594],[24.0279,-9.847,1011.6638],[24.0233,-9.8594,1012.6218],[24.0199,-9.8792,1026.5952],[24.0218,-9.8866,1023.0924],[24.0258,-9.8923,1014.9413],[24.0335,-9.8985,1015.6016],[24.0599,-9.8976,1017.6965],[24.0708,-9.9022,1026.1006],[24.0873,-9.906,1022.1138],[24.1045,-9.9142,1023.3603],[24.1053,-9.9218,1024.7246],[24.1083,-9.9291,1026.8628],[24.1058,-9.9363,1028.1003],[24.0935,-9.9437,1034.7697],[24.0869,-9.9501,1036.5798],[24.085,-9.9564,1043.8507],[24.0859,-9.9927,1048.4539],[24.095,-10.003,1074.8047],[24.1036,-10.0084,1051.248],[24.1118,-10.0111,1044.7677],[24.1222,-10.0124,1021.6685],[24.1334,-10.0117,1002.9307],[24.1373,-10.009,1010.9965],[24.1435,-10.0094,1011.0332],[24.1559,-10.0146,1000.4197],[24.1642,-10.0143,1009.3791],[24.1758,-10.0092,993.3008],[24.1839,-10.0025,999.9821],[24.2058,-10.0047,1029.3794],[24.2183,-9.9948,1039.9348],[24.2269,-9.9929,1008.7543],[24.2515,-10.0029,1031.1565],[24.264,-10.0063,1069.9318],[24.2667,-10.0138,1075.0989],[24.279,-10.0289,1051.1542],[24.2791,-10.0329,1063.7539],[24.2822,-10.0379,1062.8754],[24.2883,-10.041,1052.9869],[24.292,-10.0451,1034.131],[24.2975,-10.0336,1041.0663],[24.2949,-10.0258,1017.3134],[24.2963,-10.0226,1024.1335],[24.3069,-10.0172,1025.1879],[24.3251,-9.9921,988.8561],[24.3302,-9.9888,993.7686],[24.351,-9.9882,979.665],[24.3564,-9.9868,966.2642],[24.3596,-9.9833,964.6095],[24.3622,-9.987,980.6603],[24.3629,-9.9962,998.0444],[24.3735,-10.0198,984.2842],[24.3717,-10.0279,1006.0915],[24.3745,-10.0364,1013.6685],[24.3829,-10.0432,1013.6564],[24.3887,-10.0551,1055.385],[24.3882,-10.0737,1040.0115],[24.3897,-10.0779,1046.1619],[24.4062,-10.0925,1059.3748],[24.4145,-10.1084,1065.6849],[24.4116,-10.0736,1069.7834],[24.4146,-10.0601,1079.324],[24.4239,-10.0487,1074.7926],[24.4271,-10.0424,1077.4645],[24.4362,-10.0346,1071.6011],[24.4415,-10.0247,1054.5625],[24.4496,-10.0154,1036.3575],[24.4555,-9.9968,1004.6232],[24.4613,-9.9897,976.7078],[24.463,-9.9815,974.2962],[24.4663,-9.9806,1000.2903],[24.4704,-9.9831,1000.4622],[24.4777,-9.9953,998.013],[24.4987,-10.008,1044.718],[24.508,-10.0172,1055.8689],[24.5365,-10.0374,1003.6179],[24.5502,-10.0525,1063.4493],[24.559,-10.0649,1067.0118],[24.5712,-10.0918,993.0757],[24.5761,-10.098,982.4169],[24.5826,-10.0982,977.95],[24.5928,-10.0949,969.4617],[24.6078,-10.0769,966.2745],[24.6248,-10.0644,969.6428],[24.6443,-10.0585,959.1738],[24.6714,-10.0567,932.0934],[24.6929,-10.0508,917.0975],[24.6955,-10.0487,916.3438],[24.7007,-10.0344,904.3812],[24.6967,-10.0216,908.1761],[24.6973,-10.0167,915.3625],[24.7036,-10.0121,908.477],[24.7077,-10.0054,888.7094],[24.712,-9.9927,873.4279],[24.7148,-9.9936,874.3348],[24.7253,-10.0048,850.7277],[24.7217,-10.0177,854.7977],[24.7227,-10.0264,859.321],[24.7281,-10.0321,858.6094],[24.7302,-10.0386,865.0254],[24.7374,-10.0426,861.3194],[24.7518,-10.0599,872.075],[24.7804,-10.0653,902.1581],[24.8145,-10.0827,931.9535],[24.8229,-10.0809,902.1498],[24.8302,-10.0681,903.292],[24.8344,-10.0642,907.7716],[24.8436,-10.0605,892.4431],[24.8454,-10.0565,917.8676],[24.8461,-10.0499,904.3942],[24.8439,-10.0361,912.2087],[24.8355,-10.0281,882.3866],[24.8352,-10.0224,892.5462],[24.8428,-10.0241,894.3575],[24.8555,-10.0387,900.9333],[24.8707,-10.0517,908.7992],[24.8882,-10.0633,968.8473],[24.9011,-10.0825,1021.1381],[24.9039,-10.0957,1056.7264],[24.9164,-10.1213,1051.1077],[24.9244,-10.1282,1066.8083],[24.9303,-10.1299,1064.7009],[24.943,-10.1283,1052.8258],[24.9768,-10.1194,1014.7748],[24.9807,-10.1083,1021.3956],[24.9961,-10.0951,998.9487],[25.0264,-10.0813,960.7171],[25.0387,-10.0805,975.3011],[25.0514,-10.0742,945.7127],[25.0563,-10.0734,961.6522],[25.062,-10.0683,985.5105],[25.0721,-10.0498,948.053],[25.017,-10.0393,976.1899],[25.0063,-10.0419,1000.1703],[24.983,-10.0382,984.0135],[24.9809,-10.0327,997.3356],[24.9808,-10.0257,1014.3156],[24.9833,-10.0164,1023.2806],[24.9927,-10.014,1006.4626],[25.0192,-10.0147,1011.7582],[25.0246,-10.0129,1023.5568],[25.0365,-10.008,1013.6826],[25.0545,-9.9973,1000.418],[25.0667,-9.9871,1035.2706],[25.0854,-9.9754,1004.5031],[25.1069,-9.9811,989.1525],[25.1283,-9.9799,958.2723],[25.1306,-9.9739,964.3558],[25.1445,-9.9515,932.7182],[25.1643,-9.9256,927.0997],[25.1693,-9.9213,931.1306],[25.2512,-9.8901,962.7001],[25.2667,-9.8816,993.6277],[25.2865,-9.8754,1016.5597],[25.3111,-9.8638,1010.5677],[25.3345,-9.8563,997.2582],[25.4067,-9.8227,920.0397],[25.4171,-9.8205,896.2833],[25.424,-9.817,879.2023],[25.4395,-9.8155,883.0477],[25.4507,-9.8164,889.4235],[25.4548,-9.8191,896.6825],[25.4722,-9.8217,900.1231],[25.4791,-9.8243,834.9171],[25.4883,-9.8242,842.1496],[25.4936,-9.8219,819.3793],[25.5246,-9.8003,748.9802],[25.5373,-9.7981,732.8329],[25.5416,-9.7941,723.8035],[25.5446,-9.7787,733.7686],[25.5382,-9.7663,732.202],[25.5377,-9.7622,737.0341],[25.5406,-9.7543,726.5235],[25.5463,-9.7497,735.8108],[25.5484,-9.7423,742.5356],[25.5388,-9.741,717.0766],[25.5369,-9.7378,713.9403],[25.5253,-9.7297,702.866],[25.5208,-9.7231,702.0244],[25.5192,-9.7074,715.2062],[25.5218,-9.7053,708.7059],[25.5277,-9.7044,700.0739],[25.535,-9.7087,707.2139],[25.5427,-9.7088,703.0258],[25.5447,-9.707,713.1993],[25.5435,-9.7028,715.6344],[25.546,-9.6968,706.5996],[25.5436,-9.6923,707.5068],[25.5385,-9.6916,693.7515],[25.5319,-9.6974,702.2657],[25.5272,-9.697,704.5496],[25.524,-9.6941,696.8195],[25.523,-9.6909,694.7435],[25.5259,-9.68,718.1385],[25.524,-9.6725,704.7318],[25.5243,-9.6621,710.9056],[25.522,-9.6568,703.7435],[25.5182,-9.6541,690.9622],[25.5089,-9.6538,702.5801],[25.501,-9.6449,692.1573],[25.4893,-9.6404,692.8582],[25.4865,-9.6361,695.2524],[25.4863,-9.6331,695.5847],[25.4904,-9.628,693.9631],[25.4932,-9.6275,691.3146],[25.4994,-9.6288,688.7166],[25.513,-9.642,713.2318],[25.5193,-9.6424,729.481],[25.5213,-9.6398,719.7822],[25.5213,-9.6355,704.9016],[25.5163,-9.6298,686.9819],[25.5153,-9.6204,711.7507],[25.5109,-9.6158,710.95],[25.504,-9.6019,688.773],[25.5067,-9.5959,700.9506],[25.5065,-9.5929,701.6055],[25.5025,-9.5879,699.5053],[25.4967,-9.5865,713.3278],[25.4922,-9.5629,714.1976],[25.4931,-9.5585,733.0354],[25.4903,-9.5505,715.8962],[25.4911,-9.5464,710.3159],[25.4953,-9.5424,695.8917],[25.498,-9.5357,703.1836],[25.5026,-9.5086,704.6839],[25.5025,-9.503,693.3253],[25.498,-9.4957,700.1946]]]]}
,"properties": {"GID_1": "COD.4_1","GID_0": "COD","country": "DemocraticRepublicoftheCongo","province": "Haut-Lomami","VARNAME_1": "NA","NL_NAME_1": "NA","TYPE_1": "Province","ENGTYPE_1": "Province","CC_1": "NA","HASC_1": "CD.HL","ISO_1": "NA","name": "Haut-Lomami.province","area_km2": 109536.36,"hist_schema_id": "Elevation0-9000","hist_area_km2": {"550": 1370.38,"575": 6392.86,"600": 1767.02,"625": 1818.74,"650": 2325.07,"675": 3031.91,"700": 3516.83,"725": 3523.65,"750": 3610.98,"775": 3376.41,"800": 3274.9,"825": 3323.44,"850": 3986.73,"875": 5252.61,"900": 6627.24,"925": 7741.65,"950": 7664.36,"975": 7031.91,"1000": 6008.51,"1025": 5444.81,"1050": 5065.21,"1075": 5936.19,"1100": 7645.14,"1125": 1621.17,"1150": 161.87,"1175": 156.07,"1200": 141.69,"1225": 134.19,"1250": 123.54,"1275": 112.93,"1300": 93.21,"1325": 91.08,"1350": 94.13,"1375": 94.6,"1400": 92.82,"1425": 85.49,"1450": 78.58,"1475": 83.11,"1500": 83.5,"1525": 87.54,"1550": 87.47,"1575": 82.51,"1600": 92.64,"1625": 114.81,"1650": 60.05,"1675": 18.46,"1700": 7.46,"1725": 0.88}}}