{"type":"Feature","properties":{"GID_2":"COD.9.6_1","GID_0":"COD","country":"DemocraticRepublicoftheCongo","GID_1":"COD.9_1","province":"Kasaï","NL_NAME_1":"NA","county":"Luebo(ville)","VARNAME_2":"NA","NL_NAME_2":"NA","TYPE_2":"Ville","ENGTYPE_2":"Town","CC_2":"NA","HASC_2":"NA","name":"Luebo(ville).county"},
"geometry":{"type": "MultiPolygon","coordinates": [[[[21.44,-5.331,391.5269],[21.4359,-5.3248,387.8337],[21.4304,-5.3243,427.0271],[21.4235,-5.3298,391.6078],[21.4184,-5.3293,400.3858],[21.4118,-5.3339,406.0159],[21.4053,-5.3346,415.2074],[21.3966,-5.3392,400.123],[21.389,-5.3403,390.448],[21.3991,-5.3575,416.2481],[21.4116,-5.3648,415.0983],[21.4226,-5.3659,491.4109],[21.4317,-5.3634,475.8255],[21.4393,-5.3561,465.1063],[21.4423,-5.3431,466.4044],[21.44,-5.331,391.5269]]]]}}