{"type": "Feature","bbox": [20.4157,-4.336,20.6702,-4.2074],"geometry": {"type": "MultiPolygon","coordinates": [[[[20.6702,-4.234,414.4756],[20.6559,-4.2193,430.8347],[20.6307,-4.2074,355.394],[20.6139,-4.2133,358.8135],[20.6061,-4.2213,355.8197],[20.5932,-4.2221,351.5],[20.5886,-4.226,351.5],[20.5356,-4.2456,350.5],[20.5064,-4.262,350.0],[20.4849,-4.2656,349.5],[20.4798,-4.271,359.3972],[20.4746,-4.2907,357.8976],[20.4692,-4.2946,363.4985],[20.4601,-4.2955,367.6323],[20.4466,-4.2892,352.2433],[20.427,-4.2891,350.6704],[20.4157,-4.2843,348.0],[20.4189,-4.2888,348.0],[20.4267,-4.2942,348.6609],[20.4548,-4.3022,388.3778],[20.4603,-4.3075,395.0641],[20.4702,-4.3064,399.8831],[20.4743,-4.3076,412.4625],[20.4809,-4.312,421.412],[20.4857,-4.321,416.4734],[20.49,-4.3229,426.2257],[20.5091,-4.3255,442.0675],[20.5175,-4.3308,413.4179],[20.5232,-4.3315,351.0],[20.5364,-4.3167,425.2328],[20.5414,-4.3169,428.8063],[20.5515,-4.3126,443.8063],[20.5614,-4.3138,430.2441],[20.5759,-4.3192,355.5369],[20.5799,-4.3277,407.6994],[20.590699999999998,-4.336,447.3513],[20.6122,-4.334,471.4331],[20.6337,-4.3202,454.5855],[20.6475,-4.2992,449.8093],[20.6535,-4.2817,369.9631],[20.6541,-4.2739,367.6549],[20.6666,-4.2475,464.1388],[20.6702,-4.234,414.4756]]]]}
,"properties": {"GID_2": "COD.9.3_1","GID_0": "COD","country": "DemocraticRepublicoftheCongo","GID_1": "COD.9_1","province": "Kasaï","NL_NAME_1": "NA","county": "Ilebo(ville)","VARNAME_2": "NA","NL_NAME_2": "NA","TYPE_2": "Ville","ENGTYPE_2": "Town","CC_2": "NA","HASC_2": "NA","name": "Ilebo(ville).county","area_km2": 199.9509,"hist_schema_id": "Elevation0-9000","hist_area_km2": {"350": 19.8959,"375": 30.4462,"400": 40.9971,"425": 39.58,"450": 38.1631,"475": 23.8069,"500": 6.9982,"525": 0.0634}}}