{"type":"Feature","properties":{"GID_2":"COD.4.5_1","GID_0":"COD","country":"DemocraticRepublicoftheCongo","GID_1":"COD.4_1","province":"Haut-Lomami","NL_NAME_1":"NA","county":"Kaniama","VARNAME_2":"NA","NL_NAME_2":"NA","TYPE_2":"Territoire","ENGTYPE_2":"Territory","CC_2":"NA","HASC_2":"NA","name":"Kaniama.county"},
"geometry":{"type": "MultiPolygon","coordinates": [[[[24.644,-6.9802,679.387],[24.6195,-6.9833,785.9562],[24.5538,-7.0129,773.3516],[24.5471,-7.0091,765.6085],[24.5293,-6.9876,716.0382],[24.5241,-6.9876,737.4833],[24.5204,-6.9901,753.9778],[24.5162,-6.9959,778.6916],[24.5046,-7.0442,795.9464],[24.483,-7.0541,787.1536],[24.452,-7.0539,809.1147],[24.4315,-7.0518,823.2834],[24.4135,-7.0466,804.6591],[24.3974,-7.0463,760.8613],[24.3796,-7.0581,725.7015],[24.3527,-7.0553,685.869],[24.3451,-7.0587,686.8267],[24.3224,-7.0502,678.3232],[24.3164,-7.0422,673.5074],[24.3097,-7.0408,683.3174],[24.3067,-7.0323,664.9637],[24.304,-7.0314,662.2869],[24.301,-7.0334,666.3299],[24.2973,-7.0332,672.9524],[24.2922,-7.0284,659.7026],[24.2869,-7.0295,670.8969],[24.2796,-7.0249,666.1637],[24.2738,-7.0251,666.5944],[24.2715,-7.0205,662.7069],[24.2665,-7.0173,666.1248],[24.2538,-7.0166,648.1083],[24.2499,-7.0205,657.8767],[24.2448,-7.0203,656.3917],[24.2416,-7.0178,646.9866],[24.2359,-7.0196,660.8964],[24.2324,-7.0182,652.863],[24.231,-7.015,644.4568],[24.2255,-7.0171,651.1395],[24.2179,-7.0099,641.4404],[24.2198,-7.0058,641.2557],[24.2232,-7.0026,640.3716],[24.2264,-7.0021,640.6287],[24.2283,-6.9982,639.3268],[24.2287,-6.9932,642.7716],[24.2258,-6.9851,640.2203],[24.2281,-6.9741,638.7103],[24.2191,-6.9592,637.8239],[24.217,-6.9504,635.7902],[24.2106,-6.9447,640.1245],[24.2074,-6.9357,635.7426],[24.2012,-6.9258,632.9514],[24.191,-6.9224,646.033],[24.1874,-6.9109,629.6248],[24.1795,-6.9093,639.3799],[24.1775,-6.9063,631.4288],[24.1508,-6.9012,628.2669],[24.1471,-6.9031,628.0455],[24.148,-6.9079,626.6325],[24.1462,-6.9164,659.9158],[24.147,-6.9196,638.7974],[24.1581,-6.9288,625.3016],[24.1575,-6.9322,627.1321],[24.1487,-6.9426,626.4476],[24.1252,-6.9439,626.4501],[24.1218,-6.9467,631.6108],[24.1241,-6.9589,627.3455],[24.1266,-6.9609,627.7441],[24.14,-6.9593,627.6766],[24.1418,-6.9727,628.3274],[24.1463,-6.9785,629.3499],[24.1519,-6.9823,629.29],[24.1524,-6.9846,633.2416],[24.1494,-6.9888,639.1597],[24.1314,-6.9995,634.0051],[24.1305,-7.0034,631.3311],[24.1321,-7.0078,633.8704],[24.1367,-7.0117,636.0242],[24.1475,-7.017,632.7371],[24.1418,-7.0402,637.7443],[24.1411,-7.0506,632.3969],[24.1266,-7.0482,636.3149],[24.1243,-7.0503,647.2051],[24.1217,-7.0673,653.9581],[24.1199,-7.0701,651.3516],[24.1133,-7.072,663.7472],[24.1135,-7.065,671.7432],[24.1086,-7.0627,670.3417],[24.0997,-7.0638,668.9059],[24.0971,-7.0613,675.4873],[24.0918,-7.0618,676.1793],[24.0898,-7.0645,676.1622],[24.0849,-7.0654,673.3653],[24.0808,-7.0696,680.0591],[24.0748,-7.0675,674.7703],[24.0665,-7.068,672.9855],[24.0612,-7.0748,679.288],[24.0605,-7.0836,675.1749],[24.0557,-7.0891,674.1678],[24.0504,-7.1098,677.4052],[24.0451,-7.1148,691.541],[24.0315,-7.1221,697.6444],[24.0306,-7.1288,707.1346],[24.0267,-7.1311,740.211],[24.0145,-7.1635,726.875],[24.0067,-7.169,732.2389],[24.0027,-7.1747,730.25],[23.9839,-7.1846,733.8017],[23.983,-7.1871,733.193],[23.9865,-7.1959,739.3015],[23.9825,-7.2009,742.4365],[23.9793,-7.202,752.3086],[23.9733,-7.1981,742.1262],[23.9611,-7.2103,741.6295],[23.9638,-7.2174,741.7979],[23.962,-7.2268,742.5286],[23.9654,-7.2367,758.8677],[23.9772,-7.2498,756.1438],[23.9857,-7.2622,749.2542],[23.9799,-7.265,749.9517],[23.9781,-7.2691,751.0308],[23.979,-7.2743,749.9984],[23.973,-7.2896,754.0889],[23.977,-7.2958,762.4108],[23.9711,-7.302,766.8492],[23.9744,-7.3114,759.6237],[23.9652,-7.3169,784.2782],[23.9622,-7.3215,765.365],[23.9617,-7.3265,760.6091],[23.9651,-7.3339,759.8101],[23.9663,-7.3415,760.34],[23.9697,-7.3458,761.2424],[23.9773,-7.3486,760.9282],[23.9879,-7.3493,763.927],[23.9946,-7.3548,796.8623],[23.9962,-7.361,779.1406],[24.0006,-7.3652,773.9523],[24.0093,-7.3645,776.0236],[24.01,-7.3698,773.8655],[24.007,-7.3753,775.0898],[24.0038,-7.3776,775.6769],[23.9914,-7.378,782.7821],[23.9835,-7.3835,783.2593],[23.9787,-7.3849,787.2661],[23.9794,-7.3883,786.2325],[23.9752,-7.4012,791.8165],[23.9768,-7.4117,794.9406],[23.9745,-7.4177,798.7035],[23.9718,-7.4453,797.0443],[23.9669,-7.4499,803.2361],[23.966,-7.4584,797.4547],[23.9618,-7.4625,800.5177],[23.9638,-7.4719,800.7292],[23.9561,-7.4861,809.585],[23.9575,-7.4887,802.5468],[23.9554,-7.4928,804.6404],[23.9487,-7.4976,806.5515],[23.9469,-7.5125,814.2474],[23.9386,-7.5167,819.7614],[23.9298,-7.5242,828.9656],[23.9273,-7.5295,805.4078],[23.9351,-7.5484,818.9042],[23.9344,-7.5532,811.42],[23.9326,-7.5529,818.8583],[23.927,-7.5582,816.5689],[23.9215,-7.566,832.4067],[23.9224,-7.5679,823.7295],[23.93,-7.5715,810.3275],[23.9316,-7.5754,812.4099],[23.9309,-7.5839,813.6522],[23.9364,-7.5952,820.9799],[23.9258,-7.6172,836.706],[23.9277,-7.6266,828.611],[23.9231,-7.637,846.1859],[23.9309,-7.6616,817.6857],[23.9313,-7.668,822.9079],[23.9297,-7.6723,824.9762],[23.9219,-7.6808,827.4948],[23.9311,-7.6834,819.8948],[23.9329,-7.6854,823.3657],[23.9281,-7.6914,824.3781],[23.9249,-7.7038,820.4567],[23.9205,-7.7114,827.6447],[23.9198,-7.7178,824.8095],[23.9223,-7.7281,824.1129],[23.9481,-7.7745,831.5604],[23.9529,-7.7796,844.0896],[23.952,-7.786,842.5336],[23.9575,-7.7936,829.3752],[23.9598,-7.8002,839.736],[23.9612,-7.8129,839.5586],[23.9584,-7.8195,833.0951],[23.9513,-7.8262,845.3536],[23.9549,-7.8333,843.1595],[23.939,-7.8407,875.3174],[23.9025,-7.8628,907.7655],[23.8577,-7.8736,945.33],[23.8241,-7.8867,973.9202],[23.8191,-7.8951,978.9131],[23.8223,-7.9252,972.5588],[23.8213,-7.9538,968.4987],[23.8118,-7.9576,989.0643],[23.8118,-7.9527,974.8273],[23.8139,-7.9486,959.7734],[23.8123,-7.9449,973.3292],[23.8146,-7.9362,962.766],[23.8107,-7.9229,955.3705],[23.811,-7.9137,959.7786],[23.8011,-7.8664,944.5127],[23.7972,-7.8593,937.0779],[23.7804,-7.8494,935.7764],[23.7744,-7.8441,938.5807],[23.7714,-7.8365,931.1977],[23.756,-7.8241,928.598],[23.75,-7.8305,928.8652],[23.7357,-7.8583,933.3337],[23.7253,-7.8686,934.8457],[23.7166,-7.8803,953.3088],[23.7156,-7.884,952.0078],[23.7184,-7.8957,952.0823],[23.7165,-7.9035,949.0765],[23.7177,-7.9079,940.0712],[23.7135,-7.9118,939.3896],[23.7133,-7.9168,947.0894],[23.7066,-7.9232,943.4453],[23.7064,-7.9278,946.9734],[23.6912,-7.9448,963.7744],[23.6916,-7.9526,960.6854],[23.6884,-7.9597,968.5666],[23.6884,-7.9675,957.4611],[23.6826,-7.9813,990.6309],[23.6851,-7.9879,983.7377],[23.6835,-7.9923,977.5532],[23.6911,-8.0,998.1157],[23.6741,-8.0293,993.7156],[23.6678,-8.0491,992.7094],[23.6682,-8.0528,984.8608],[23.6754,-8.061,1002.9854],[23.6812,-8.0752,985.3644],[23.6891,-8.0819,993.2272],[23.6928,-8.0899,997.6884],[23.6917,-8.0993,1000.72],[23.6938,-8.1158,990.1257],[23.7008,-8.136,1004.6061],[23.6933,-8.1686,1009.3262],[23.6844,-8.1923,1015.6089],[23.6847,-8.2008,1006.2252],[23.7006,-8.2503,1005.2341],[23.702,-8.2615,1008.3286],[23.7013,-8.276,1010.6271],[23.69,-8.3155,1022.362],[23.6909,-8.3261,1015.24],[23.6896,-8.338,1037.3248],[23.6819,-8.3672,1031.0089],[23.6751,-8.4109,1038.4047],[23.6692,-8.4267,1051.7699],[23.6701,-8.429,1051.4692],[23.6676,-8.4343,1020.2113],[23.6554,-8.4415,1072.0914],[23.6503,-8.4468,1085.7352],[23.6417,-8.4679,1055.9202],[23.6401,-8.4817,1037.3693],[23.6486,-8.5276,1037.1371],[23.6511,-8.5347,1043.688],[23.6581,-8.5423,1055.193],[23.6787,-8.5542,1051.7302],[23.6882,-8.5688,1081.2075],[23.6884,-8.572,1077.974],[23.6815,-8.5792,1069.0461],[23.6792,-8.5845,1074.4587],[23.6781,-8.601,1074.9502],[23.6868,-8.6221,1072.3964],[23.6928,-8.6297,1080.0691],[23.6909,-8.6739,1104.3611],[23.6961,-8.7046,1118.3002],[23.729,-8.7813,1093.9714],[23.7484,-8.767,1109.8357],[23.755,-8.7686,1089.9072],[23.7717,-8.7771,1050.5007],[23.8051,-8.7769,1019.4526],[23.8201,-8.7793,984.4188],[23.8376,-8.7848,998.713],[23.8581,-8.7869,996.426],[23.8715,-8.7878,984.0703],[23.8987,-8.7797,963.5565],[23.9112,-8.7905,923.4723],[23.9227,-8.7782,916.5908],[23.9298,-8.7782,917.5366],[23.9333,-8.7754,916.8746],[23.9354,-8.7701,919.954],[23.9428,-8.7765,926.266],[23.9497,-8.7788,922.1076],[23.9686,-8.7771,926.2242],[23.973,-8.7785,927.7471],[23.9789,-8.7757,927.4063],[23.9965,-8.7755,944.2321],[24.0082,-8.7683,965.4478],[24.0394,-8.7326,1048.036],[24.0928,-8.6887,1055.3846],[24.1,-8.6779,1065.9899],[24.0986,-8.6734,1071.6687],[24.099,-8.6616,1072.0908],[24.0977,-8.6586,1063.8619],[24.093,-8.6574,1054.5715],[24.0865,-8.6387,1024.4346],[24.0821,-8.633,1013.6839],[24.0505,-8.6139,970.6276],[24.0395,-8.611,967.6081],[24.0372,-8.6088,961.2689],[24.0369,-8.605,942.1868],[24.0412,-8.5944,955.8068],[24.0428,-8.5839,983.3564],[24.0449,-8.5806,971.906],[24.0504,-8.5781,982.4479],[24.0537,-8.5745,979.862],[24.0551,-8.5605,1023.4493],[24.0537,-8.5457,1058.6],[24.0557,-8.5389,1045.8339],[24.0603,-8.5464,1103.4094],[24.0632,-8.5479,1097.6064],[24.0708,-8.5478,1066.5327],[24.1023,-8.5109,1093.472],[24.1157,-8.4972,1100.2355],[24.1289,-8.4865,1098.3417],[24.1478,-8.4635,1096.5166],[24.1511,-8.4612,1095.5728],[24.1725,-8.463,1025.429],[24.1804,-8.4604,1029.6158],[24.1898,-8.45,1027.0757],[24.194,-8.4369,1047.6005],[24.2025,-8.4196,1026.5557],[24.2084,-8.4202,1043.1177],[24.2171,-8.4419,1047.2097],[24.2347,-8.4534,1024.6007],[24.2409,-8.4739,1058.3163],[24.247,-8.4856,1103.4971],[24.2515,-8.4909,1103.6295],[24.261,-8.4947,1101.397],[24.2675,-8.4946,1095.9594],[24.2745,-8.4921,1102.26],[24.2769,-8.4891,1100.5054],[24.2855,-8.4974,1110.0432],[24.3042,-8.5206,1030.0631],[24.3102,-8.524,1040.5972],[24.3197,-8.5263,1034.1559],[24.3333,-8.523,1014.7642],[24.3434,-8.5108,1018.9625],[24.3504,-8.4937,1013.5739],[24.3491,-8.4928,1010.8804],[24.3448,-8.4763,1012.0612],[24.3461,-8.4657,1017.2455],[24.3534,-8.4526,1016.526],[24.3565,-8.4367,1012.5922],[24.3735,-8.4173,1012.5117],[24.3781,-8.4095,999.9998],[24.3803,-8.3996,1001.0421],[24.3827,-8.3806,1016.3068],[24.3828,-8.364,998.8242],[24.381,-8.3597,999.1311],[24.3761,-8.3569,1000.5739],[24.3756,-8.3533,1002.7142],[24.3911,-8.3242,996.7037],[24.3922,-8.3114,996.7316],[24.3985,-8.2966,1001.1823],[24.3952,-8.285,1003.2157],[24.3984,-8.2709,992.2759],[24.399,-8.2599,995.4586],[24.4113,-8.2323,990.2298],[24.4117,-8.2231,992.0594],[24.4098,-8.2185,991.8553],[24.4116,-8.2079,989.8498],[24.4202,-8.1939,988.1014],[24.426,-8.1888,990.3713],[24.4351,-8.1759,988.4907],[24.4454,-8.1648,989.8934],[24.45,-8.1572,992.5524],[24.4572,-8.1388,985.1085],[24.462,-8.1365,985.3021],[24.4664,-8.1286,984.7364],[24.4686,-8.1197,985.6063],[24.4653,-8.108,983.5272],[24.4605,-8.108,985.4219],[24.4586,-8.1014,983.8463],[24.4542,-8.0986,985.0763],[24.4532,-8.0922,989.5343],[24.4545,-8.0849,990.1527],[24.4573,-8.0793,998.4376],[24.466,-8.0696,980.7124],[24.4724,-8.0675,983.321],[24.4838,-8.0578,965.9353],[24.4884,-8.0436,972.3654],[24.4865,-8.0374,961.0878],[24.4889,-8.0293,959.6378],[24.4859,-8.0156,959.5104],[24.4872,-8.0078,960.3073],[24.4921,-8.0,959.3284],[24.4869,-7.9975,966.1564],[24.4936,-7.9858,961.9386],[24.4894,-7.9753,976.5705],[24.4922,-7.9695,981.7882],[24.5014,-7.9649,964.4758],[24.5026,-7.9585,964.4233],[24.5062,-7.9535,966.7513],[24.5076,-7.9408,973.1386],[24.5167,-7.9266,964.498],[24.5157,-7.9231,953.832],[24.5118,-7.9212,963.6631],[24.5129,-7.914,944.1248],[24.5099,-7.909,962.8663],[24.5206,-7.9051,946.9186],[24.5288,-7.8961,949.4485],[24.529,-7.8869,961.9985],[24.5468,-7.866,948.9257],[24.5516,-7.8637,940.891],[24.5557,-7.8506,932.6495],[24.5643,-7.8438,937.0586],[24.568,-7.8355,942.5694],[24.5864,-7.8279,925.7852],[24.590699999999998,-7.8321,917.5172],[24.5935,-7.8309,928.8418],[24.6007,-7.835,916.8843],[24.6011,-7.8334,917.6976],[24.6055,-7.8316,916.1202],[24.6082,-7.8259,924.7382],[24.6055,-7.8174,925.8433],[24.6126,-7.8116,921.219],[24.6225,-7.7917,909.4482],[24.6237,-7.7825,913.5391],[24.6274,-7.7783,905.6328],[24.6276,-7.7689,906.6121],[24.6333,-7.7662,905.4275],[24.6467,-7.743,898.1664],[24.6439,-7.7257999999999996,894.1406],[24.6446,-7.721,896.8767],[24.6501,-7.7189,897.4883],[24.6563,-7.7132,896.9302],[24.6623,-7.7159,891.1519],[24.6665,-7.7072,890.3984],[24.6653,-7.7012,899.6354],[24.6681,-7.6909,890.073],[24.666,-7.6799,888.9904],[24.6619,-7.6764,888.8575],[24.6655,-7.6707,889.3638],[24.6635,-7.6636,888.5508],[24.6665,-7.6594,888.0421],[24.663,-7.6466,889.0011],[24.666,-7.6404,887.1556],[24.6612,-7.6374,889.4215],[24.6614,-7.6328,886.91],[24.6635,-7.6314,886.8237],[24.6589,-7.6266,888.2775],[24.654,-7.6248,886.3662],[24.6513,-7.6195,885.9297],[24.6453,-7.6176,885.9246],[24.6434,-7.6117,884.8759],[24.6393,-7.6075,885.7446],[24.6432,-7.5701,884.2587],[24.6381,-7.5637,883.9474],[24.6333,-7.5644,890.2331],[24.6241,-7.5708,885.0323],[24.6202,-7.571,884.6183],[24.6183,-7.5625,883.1797],[24.6137,-7.5575,890.5],[24.605,-7.5579,883.5583],[24.5992,-7.5545,881.8306],[24.5919,-7.5526,881.712],[24.5882,-7.5485,882.387],[24.5859,-7.5421,887.4683],[24.5909,-7.5276,883.3067],[24.5953,-7.5267,882.9404],[24.6031,-7.5281,879.5535],[24.6036,-7.5221,886.7289],[24.6084,-7.5166,878.9317],[24.5969,-7.5095,877.8363],[24.5928,-7.5005,877.2317],[24.5884,-7.4955,881.9918],[24.5891,-7.4936,885.8291],[24.5925,-7.4939,878.3978],[24.5944,-7.4895,876.8964],[24.5928,-7.4831,876.3728],[24.599,-7.4821,879.226],[24.6022,-7.4732,880.7368],[24.5978,-7.458,875.4126],[24.5948,-7.4532,882.0375],[24.5974,-7.4486,874.5414],[24.5964,-7.4445,874.9451],[24.6026,-7.4355,879.5739],[24.5962,-7.4339,879.8325],[24.5967,-7.4314,880.8456],[24.6029,-7.4243,880.424],[24.6022,-7.4211,884.244],[24.6036,-7.4183,881.5206],[24.6086,-7.4169,874.2414],[24.61,-7.413,873.6899],[24.6077,-7.4043,873.3254],[24.6091,-7.3965,872.6913],[24.6054,-7.3912,875.3875],[24.6128,-7.3726,871.4813],[24.6095,-7.3662,878.09],[24.6107,-7.3572,872.0616],[24.6084,-7.3528,871.978],[24.6006,-7.3466,872.1142],[24.5989,-7.3409,871.236],[24.5909,-7.3356,872.6268],[24.5895,-7.3193,870.4082],[24.5941,-7.3159,869.5411],[24.5941,-7.3131,870.8263],[24.589,-7.3081,881.9713],[24.5886,-7.3021,875.4529],[24.5946,-7.281,871.7244],[24.6005,-7.2683,872.172],[24.6005,-7.2649,871.069],[24.5936,-7.2617,874.338],[24.590699999999998,-7.2566,870.9],[24.5819,-7.2509,869.6805],[24.5819,-7.2481,870.0541],[24.5865,-7.2396,868.8625],[24.5837,-7.2339,867.7794],[24.5782,-7.229,868.1208],[24.5711,-7.2265,867.9309],[24.561,-7.2302,869.9382],[24.5545,-7.224,867.983],[24.5587,-7.2169,871.77],[24.5568,-7.2141,870.6699],[24.5511,-7.2132,881.7591],[24.5515,-7.2079,891.8032],[24.5538,-7.2038,883.1022],[24.5603,-7.1996,865.8006],[24.5628,-7.1943,880.8151],[24.5695,-7.1911,870.1183],[24.5764,-7.1714,892.2484],[24.5745,-7.1629,893.2841],[24.5757,-7.1553,877.7809],[24.5817,-7.1424,875.588],[24.5876,-7.1404,868.1484],[24.5934,-7.1434,861.4454],[24.5991,-7.1268,863.4106],[24.5973,-7.1167,858.7238],[24.6028,-7.105,856.4146],[24.6113,-7.0972,838.4774],[24.612,-7.0951,832.8832],[24.6095,-7.0866,810.514],[24.6145,-7.0797,777.4793],[24.6086,-7.0671,798.9418],[24.6095,-7.06,783.4639],[24.6143,-7.0563,765.2252],[24.6224,-7.0384,714.027],[24.6277,-7.0333,716.8099],[24.629,-7.0234,729.3979],[24.6479,-7.0115,675.5914],[24.653,-7.0046,726.1423],[24.6543,-6.9938,722.7963],[24.6513,-6.9874,683.9597],[24.644,-6.9802,679.387]]]]}}