{"type": "Feature","bbox": [19.5108,-4.0791,19.552,-4.0409],"geometry": {"type": "MultiPolygon","coordinates": [[[[19.5331,-4.0791,383.2346],[19.5428,-4.0761,385.3177],[19.5513,-4.0654,442.5847],[19.552,-4.0521,427.2078],[19.5464,-4.0435,389.8553],[19.5409,-4.0409,373.0185],[19.522,-4.0427,408.2233],[19.5153,-4.0466,355.612],[19.5108,-4.0537,384.6534],[19.5143,-4.0709,456.7304],[19.5239,-4.0781,363.5528],[19.5331,-4.0791,383.2346]]]]}
,"properties": {"GID_2": "COD.13.11_1","GID_0": "COD","country": "DemocraticRepublicoftheCongo","GID_1": "COD.13_1","province": "Kwilu","NL_NAME_1": "NA","county": "Mangai","VARNAME_2": "NA","NL_NAME_2": "NA","TYPE_2": "Ville","ENGTYPE_2": "Town","CC_2": "NA","HASC_2": "NA","name": "Mangai.county","area_km2": 15.18499,"hist_schema_id": "Elevation0-9000","hist_area_km2": {"325": 0.02115,"350": 2.3264,"375": 3.27809,"400": 3.61649,"425": 3.95487,"450": 1.8611,"475": 0.12689}}}