{"type":"Feature","properties":{"GID_2":"COD.13.8_1","GID_0":"COD","country":"DemocraticRepublicoftheCongo","GID_1":"COD.13_1","province":"Kwilu","NL_NAME_1":"NA","county":"Idiofa","VARNAME_2":"NA","NL_NAME_2":"NA","TYPE_2":"Territoire","ENGTYPE_2":"Territory","CC_2":"NA","HASC_2":"NA","name":"Idiofa.county"},
"geometry":{"type": "MultiPolygon","coordinates": [[[[20.038,-4.2859,341.0],[20.0335,-4.2737,424.2924],[20.0306,-4.2697,392.4336],[20.0292,-4.2614,432.5984],[20.0181,-4.2492,386.0732],[20.0179,-4.2333,396.7681],[20.01,-4.2222,384.7447],[20.0047,-4.2196,383.778],[20.0011,-4.2116,381.9434],[19.9963,-4.2065,369.6202],[19.9892,-4.2039,358.9474],[19.9853,-4.2004,356.382],[19.9801,-4.1838,373.5031],[19.965699999999998,-4.1739,393.0869],[19.9584,-4.1745,364.5122],[19.9499,-4.182,370.088],[19.9448,-4.1804,402.8298],[19.9414,-4.1772,413.8123],[19.938,-4.1668,422.6826],[19.9241,-4.1547,355.8746],[19.9154,-4.1512,386.3962],[19.9024,-4.15,381.727],[19.8909,-4.1435,357.8615],[19.8862,-4.1317,373.796],[19.8801,-4.1243,355.1734],[19.8739,-4.1121,353.0468],[19.8562,-4.0922,363.8118],[19.8507,-4.0896,362.9988],[19.8452,-4.0894,358.1972],[19.8394,-4.0912,354.3589],[19.8209,-4.0913,352.7882],[19.8113,-4.0878,347.4763],[19.8017,-4.0788,343.9839],[19.7802,-4.0662,366.7084],[19.7699,-4.0661,372.2537],[19.7644,-4.0686,376.3387],[19.7602,-4.073,350.7433],[19.7579,-4.0725,358.7128],[19.7554,-4.0674,356.9008],[19.7341,-4.0636,387.7758],[19.7303,-4.0606,385.8302],[19.7126,-4.06,382.6314],[19.7062,-4.0561,400.7274],[19.6982,-4.0551,394.8624],[19.6888,-4.0585,352.3192],[19.6709,-4.0579,349.5932],[19.6643,-4.0519,346.4628],[19.6338,-4.0469,342.5978],[19.6233,-4.0422,344.6029],[19.6158,-4.0408,343.2703],[19.605,-4.0419,332.0],[19.5963,-4.0368,347.6092],[19.5881,-4.0282,340.7022],[19.5833,-4.0176,354.2404],[19.5685,-4.0037,367.4086],[19.5603,-4.0034,350.4794],[19.5543,-3.9995,377.2625],[19.5482,-3.9992,353.1113],[19.5374,-3.9924,335.4128],[19.5347,-3.9878,350.7072],[19.5016,-3.9736,331.5079],[19.4975,-3.9671,355.1077],[19.4778,-3.952,376.5166],[19.4621,-3.9464,359.7854],[19.4554,-3.9477,387.3074],[19.4517,-3.9468,390.7723],[19.442,-3.9325,350.2727],[19.426,-3.9255,386.2075],[19.3954,-3.9062,381.2044],[19.3831,-3.8939,351.1007],[19.373,-3.8931,348.2819],[19.3689,-3.8913,346.1044],[19.3563,-3.881,360.4365],[19.3527,-3.876,388.7643],[19.3205,-3.8573,350.1185],[19.3022,-3.8568,325.5],[19.2946,-3.8526,344.8107],[19.2823,-3.8435,337.753],[19.2754,-3.8346,343.4618],[19.2629,-3.8267,330.5591],[19.2444,-3.8232,324.0],[19.23,-3.8123,325.4946],[19.2195,-3.8088,333.136],[19.202,-3.7969,326.4621],[19.1786,-3.7919,324.1066],[19.1594,-3.7817,331.3278],[19.1551,-3.7757,340.3864],[19.1466,-3.7738,330.2561],[19.1313,-3.7656,324.2788],[19.1047,-3.7671,322.5],[19.0951,-3.7661,322.5],[19.0835,-3.7593,322.0],[19.0654,-3.7539,321.5],[19.0579,-3.7488,341.7534],[19.0483,-3.7368,346.6491],[19.0417,-3.7319,341.8792],[19.0191,-3.7253,342.8832],[19.0,-3.7115,336.7844],[18.9883,-3.7103,321.5],[18.9759,-3.6995,334.1372],[18.9639,-3.6989,321.5],[18.9545,-3.6953,321.0],[18.9368,-3.6851,332.2182],[18.9315,-3.6791,340.2292],[18.9074,-3.6729,343.3616],[18.8839,-3.6608,337.985],[18.8686,-3.6591,328.3062],[18.8612,-3.6598,319.5],[18.8581,-3.6652,329.8361],[18.86,-3.6803,322.1545],[18.8594,-3.6911,319.5],[18.8627,-3.7024,322.3112],[18.8605,-3.7211,330.3024],[18.8616,-3.7447,332.5454],[18.8649,-3.7542,338.209],[18.8649,-3.7608,341.1993],[18.8594,-3.7906,343.037],[18.8501,-3.7975,345.7994],[18.8387,-3.8156,368.7259],[18.8283,-3.8257,353.9204],[18.8116,-3.8318,358.8109],[18.8054,-3.8376,363.5912],[18.7871,-3.8638,399.1498],[18.7692,-3.8938,376.5894],[18.7592,-3.9042,382.9138],[18.7493,-3.9075,380.792],[18.7459,-3.9103,380.3463],[18.7409,-3.9202,371.2935],[18.7352,-3.9267,375.3014],[18.7339,-3.932,407.6209],[18.7386,-3.9446,423.0936],[18.7316,-3.9615,420.3768],[18.7249,-3.9836,406.1637],[18.7197,-3.9938,405.2454],[18.7115,-4.0014,396.2799],[18.686,-4.0021,404.0437],[18.6808,-4.0049,394.0354],[18.6769,-4.0093,391.2663],[18.6729,-4.0233,408.277],[18.6846,-4.0251,404.0721],[18.6897,-4.0285,402.1608],[18.7059,-4.0437,410.9307],[18.7241,-4.0579,427.9482],[18.738,-4.0759,447.0054],[18.7439,-4.0798,415.1569],[18.7678,-4.0816,404.4683],[18.813,-4.0805,390.8467],[18.8164,-4.0837,422.8174],[18.8206,-4.1063,405.0456],[18.8207,-4.1193,431.809],[18.8072,-4.1407,413.124],[18.8012,-4.1616,390.3148],[18.8011,-4.1837,411.7289],[18.8063,-4.2019,415.6139],[18.815,-4.2118,469.1556],[18.8343,-4.2267,445.6597],[18.8467,-4.2563,452.0892],[18.853,-4.2618,461.6858],[18.8598,-4.2599,453.9196],[18.8662,-4.2487,459.887],[18.8751,-4.2258,452.9192],[18.8819,-4.2152,446.8269],[18.8852,-4.2143,426.7724],[18.8978,-4.2172,414.6695],[18.9079,-4.2233,393.6937],[18.9226,-4.2168,422.2914],[18.9256,-4.2184,416.9844],[18.9272,-4.2278,407.1494],[18.9295,-4.231,387.1442],[18.9367,-4.2348,387.9212],[18.9557,-4.2349,401.266],[18.9658,-4.2383,390.8349],[18.9722,-4.2357,378.7288],[18.977,-4.2156,396.4063],[18.9826,-4.2035,427.5329],[18.9916,-4.2029,391.5984],[18.9982,-4.2066,366.0735],[19.0201,-4.2281,374.4405],[19.0653,-4.1934,362.202],[19.0687,-4.1957,388.9319],[19.0746,-4.2066,386.6313],[19.0791,-4.2248,401.4579],[19.0886,-4.2364,381.1683],[19.0911,-4.2474,376.7592],[19.0985,-4.2647,390.3225],[19.1017,-4.2696,386.1596],[19.115,-4.2793,387.109],[19.1255,-4.3158,479.4047],[19.1259,-4.3229,469.9971],[19.1226,-4.3323,483.8806],[19.1162,-4.3408,442.5603],[19.1129,-4.3527,477.8819],[19.1078,-4.3636,455.9919],[19.1136,-4.3646,449.3286],[19.1302,-4.358,442.3376],[19.1749,-4.325,378.7197],[19.1919,-4.3179,368.3724],[19.2007,-4.3178,358.2681],[19.2041,-4.3207,364.2946],[19.2132,-4.3355,427.2451],[19.2211,-4.3567,366.7496],[19.2254,-4.3604,417.3087],[19.2251,-4.368,382.2585],[19.2297,-4.3717,381.5211],[19.2308,-4.3772,391.5583],[19.237,-4.3828,376.0253],[19.2383,-4.3883,365.9968],[19.2364,-4.3959,369.3737],[19.2378,-4.3994,373.6161],[19.2368,-4.4046,366.4747],[19.2398,-4.409,372.3786],[19.2389,-4.4396,371.7656],[19.237,-4.4479,361.6366],[19.2333,-4.4504,376.7313],[19.2322,-4.4536,368.2996],[19.2349,-4.4612,373.459],[19.2325,-4.4677,371.9714],[19.2368,-4.4776,378.0178],[19.2446,-4.4855,437.5767],[19.2464,-4.4903,401.1802],[19.2422,-4.5006,365.1561],[19.2424,-4.5045,373.9537],[19.2481,-4.5129,373.1931],[19.2464,-4.5209,367.4263],[19.2487,-4.5294,379.1241],[19.2438,-4.5411,371.2396],[19.2451,-4.5545,371.2565],[19.251,-4.5596,379.3813],[19.2473,-4.5637,368.4335],[19.253,-4.567,371.7101],[19.2537,-4.5695,366.9771],[19.2493,-4.5727,370.404],[19.2463,-4.5812,369.0686],[19.2423,-4.5855,409.6591],[19.2396,-4.592,373.9864],[19.2407,-4.595,374.5141],[19.2459,-4.5989,386.2065],[19.2452,-4.6042,371.6121],[19.2486,-4.6102,378.1855],[19.2378,-4.6129,439.0578],[19.2334,-4.6159,439.7198],[19.2244,-4.6264,425.3801],[19.2181,-4.6413,377.8492],[19.2121,-4.6479,382.5533],[19.2043,-4.6532,379.4159],[19.1925,-4.6669,391.1328],[19.1776,-4.6965,392.1069],[19.1707,-4.7056,396.04],[19.1688,-4.7116,406.0481],[19.1685,-4.7272,387.7365],[19.1664,-4.7396,400.0815],[19.1674,-4.7574,403.9145],[19.1661,-4.7714,405.1329],[19.1629,-4.778,408.8088],[19.1625,-4.8047,402.0094],[19.1589,-4.8309,415.4954],[19.1528,-4.8539,432.0175],[19.1287,-4.9186,449.8532],[19.1169,-4.9372,435.42],[19.1148,-4.945,433.4857],[19.1071,-4.956,441.8544],[19.1048,-4.967,456.3439],[19.1011,-4.9723,436.8389],[19.0961,-4.9913,447.5115],[19.0892,-5.0016,447.1603],[19.088,-5.0094,445.6355],[19.0794,-5.0236,462.7461],[19.0777,-5.0319,472.8703],[19.0781,-5.042,486.2065],[19.0702,-5.059,501.3907],[19.0702,-5.0631,530.9243],[19.0765,-5.0768,503.0129],[19.0989,-5.1006,559.8234],[19.0947,-5.1217,662.1653],[19.084,-5.155,711.4672],[19.0812,-5.1702,718.9376],[19.0811,-5.1822,670.1987],[19.0853,-5.2162,704.8039],[19.0834,-5.2521,672.6568],[19.0868,-5.2567,668.0356],[19.1004,-5.2568,692.5043],[19.1072,-5.2686,683.3164],[19.1131,-5.2712,685.4653],[19.1161,-5.2753,676.9749],[19.1181,-5.2758,688.6758],[19.1244,-5.2719,706.0509],[19.1281,-5.266,714.6177],[19.1338,-5.266,703.7252],[19.1369,-5.2566,722.9185],[19.1396,-5.237,701.4567],[19.1451,-5.2208,711.8782],[19.1579,-5.2028,720.115],[19.1654,-5.1953,704.5418],[19.1746,-5.1893,720.6812],[19.1846,-5.1859,680.1028],[19.2066,-5.1853,633.9733],[19.2142,-5.1587,652.3896],[19.2216,-5.1491,700.3832],[19.2443,-5.1469,690.8463],[19.2503,-5.1477,651.075],[19.2576,-5.144,624.4247],[19.262,-5.1445,605.8218],[19.2596,-5.1544,601.4854],[19.2646,-5.1673,606.7949],[19.2676,-5.1712,606.6205],[19.2833,-5.1824,616.735],[19.2865,-5.1863,617.355],[19.2901,-5.2029,613.9591],[19.2985,-5.2138,619.6492],[19.305,-5.2364,622.3622],[19.3109,-5.2486,622.8533],[19.3203,-5.2588,629.6346],[19.3264,-5.2717,630.7915],[19.3256,-5.283,637.3899],[19.3128,-5.3006,725.989],[19.2862,-5.3278,671.0712],[19.2774,-5.3304,681.5779],[19.2734,-5.3371,726.208],[19.2765,-5.3434,723.2133],[19.2856,-5.3542,731.7224],[19.2881,-5.3633,723.6764],[19.3147,-5.4007,730.6403],[19.3628,-5.5071,748.4407],[19.3718,-5.5229,747.8634],[19.3789,-5.5315,742.3918],[19.3987,-5.5467,748.1648],[19.4055,-5.5511,751.7223],[19.4254,-5.5581,751.3643],[19.4335,-5.5801,745.6293],[19.444,-5.622,755.1075],[19.4453,-5.6397,755.6609],[19.4436,-5.6603,760.3951],[19.4491,-5.6732,756.4095],[19.4498,-5.6969,759.7345],[19.4548,-5.7036,759.7576],[19.4682,-5.7423,762.5222],[19.4786,-5.7499,755.6731],[19.4887,-5.7544,760.8865],[19.4995,-5.7537,711.02],[19.5072,-5.7465,706.3779],[19.5127,-5.7447,697.4951],[19.5183,-5.7392,725.2401],[19.5218,-5.7307,737.3131],[19.5261,-5.7275,746.9442],[19.5322,-5.7108,750.2224],[19.532,-5.7034,748.2229],[19.5355,-5.6944,743.1324],[19.5319,-5.6889,741.6217],[19.5333,-5.6834,736.3535],[19.5313,-5.6779,724.4086],[19.5322,-5.6751,719.1965],[19.5373,-5.6708,701.6586],[19.5403,-5.6634,683.2291],[19.5418,-5.6517,678.9794],[19.5501,-5.64,681.4911],[19.5602,-5.6381,715.5697],[19.566,-5.6387,733.8629],[19.5957,-5.6657,697.8785],[19.6189,-5.6655,723.2545],[19.6368,-5.6606,728.0852],[19.6429,-5.657,730.1699],[19.6528,-5.6464,745.6798],[19.6579,-5.6334,751.3749],[19.6638,-5.6108,705.2153],[19.6703,-5.5954,686.6101],[19.6749,-5.5908,676.769],[19.6852,-5.5884,739.0729],[19.7575,-5.5902,735.3946],[19.7774,-5.5877,730.8226],[19.7934,-5.5774,726.918],[19.8044,-5.5756,726.7597],[19.8132,-5.5717,727.204],[19.8217,-5.5624,723.8479],[19.8342,-5.5402,617.1619],[19.8447,-5.53,611.0067],[19.8729,-5.5293,498.01],[19.8723,-5.522,513.1241],[19.8682,-5.5169,497.812],[19.8653,-5.4989,509.7709],[19.8676,-5.4897,485.4939],[19.8668,-5.4835,486.7396],[19.8696,-5.4727,490.6475],[19.8676,-5.4623,496.9811],[19.8713,-5.4534,498.3079],[19.8688,-5.4479,569.0386],[19.8746,-5.4366,493.4048],[19.9084,-5.438,537.1644],[19.9208,-5.4416,515.8219],[19.9677,-5.4618,714.1674],[19.971,-5.4603,714.1821],[19.9735,-5.4505,710.7538],[19.9773,-5.4466,710.9402],[20.0021,-5.4326,632.7361],[20.0181,-5.4207,700.3407],[20.0269,-5.4129,629.9153],[20.0376,-5.4,592.118],[20.0405,-5.3882,520.4889],[20.0398,-5.384,552.8297],[20.0367,-5.3794,493.3325],[20.0316,-5.378,499.8737],[20.0212,-5.381,501.7274],[20.0195,-5.3797,511.9661],[20.0114,-5.3629,673.5919],[20.0079,-5.3514,631.7509],[20.0077,-5.341,699.1641],[20.0128,-5.322,562.5016],[20.0206,-5.3009,502.0555],[20.0259,-5.2929,525.9037],[20.0314,-5.2891,484.8387],[20.0378,-5.2873,571.8589],[20.0532,-5.2867,549.7135],[20.0595,-5.2838,530.1578],[20.0647,-5.2682,496.6121],[20.0696,-5.2649,540.9459],[20.0724,-5.2587,598.8209],[20.0767,-5.2422,567.5692],[20.0871,-5.2198,550.1097],[20.1101,-5.1893,527.5865],[20.1241,-5.1753,503.7799],[20.1319,-5.1699,490.6928],[20.1542,-5.1644,544.1624],[20.169,-5.1529,538.3941],[20.1763,-5.1494,546.313],[20.1849,-5.1457,514.012],[20.1907,-5.1456,392.4191],[20.1862,-5.129,393.2797],[20.1796,-5.1216,393.2879],[20.1785,-5.1115,388.5],[20.1827,-5.0973,404.2943],[20.1822,-5.0931,405.2626],[20.1793,-5.0887,399.6229],[20.1697,-5.0843,386.0],[20.1683,-5.0808,385.5],[20.1702,-5.068,385.0],[20.1686,-5.062,391.2467],[20.164,-5.0578,384.0],[20.151,-5.0529,383.0],[20.1465,-5.0434,382.5],[20.1398,-5.0354,382.0],[20.1399,-5.0181,381.0],[20.1441,-5.0062,380.375],[20.1432,-4.9995,437.362],[20.1314,-4.9785,379.0],[20.1296,-4.9723,475.0761],[20.1191,-4.9655,411.9771],[20.1152,-4.9591,394.0905],[20.1101,-4.9314,383.5225],[20.1079,-4.904,432.6832],[20.1021,-4.8898,384.5303],[20.1012,-4.8831,397.843],[20.1026,-4.8711,401.1495],[20.0912,-4.8522,390.949],[20.0913,-4.8462,408.5134],[20.0847,-4.8285,371.5],[20.0859,-4.822,404.3388],[20.0784,-4.8116,386.822],[20.0691,-4.7888,411.8358],[20.0558,-4.7823,389.885],[20.058,-4.7563,372.2276],[20.0606,-4.7485,445.4058],[20.0508,-4.7404,380.7518],[20.0496,-4.7371,385.1514],[20.0566,-4.7291,372.6207],[20.06,-4.7213,367.8213],[20.0589,-4.7149,370.5553],[20.0519,-4.7008,364.0],[20.0551,-4.6909,378.9193],[20.0545,-4.6866,368.9077],[20.0568,-4.6838,381.823],[20.0667,-4.6825,366.5186],[20.0692,-4.6797,380.3952],[20.0709,-4.6685,424.07],[20.0649,-4.662,378.3701],[20.0609,-4.6502,361.25],[20.062,-4.6456,361.0],[20.069,-4.6369,367.7786],[20.0667,-4.6307,376.8079],[20.0565,-4.6182,362.0251],[20.0639,-4.6017,368.3113],[20.0621,-4.595,367.5379],[20.0693,-4.584,357.5],[20.0735,-4.5712,369.7775],[20.0813,-4.5648,360.7115],[20.0848,-4.5581,368.0017],[20.0855,-4.5415,368.8543],[20.0954,-4.5409,364.7854],[20.1024,-4.5283,374.866],[20.1111,-4.5203,373.0373],[20.113,-4.5086,425.0974],[20.1192,-4.5056,368.8234],[20.1248,-4.5001,402.0546],[20.1239,-4.4937,478.7996],[20.1145,-4.4849,372.3597],[20.1093,-4.4766,390.1265],[20.0992,-4.476,447.9935],[20.0923,-4.471,372.2327],[20.0901,-4.4654,365.0272],[20.0922,-4.4558,418.01],[20.0881,-4.4435,374.7022],[20.0932,-4.4344,371.4216],[20.0871,-4.4189,431.6394],[20.0748,-4.4021,371.3701],[20.0719,-4.3873,428.8152],[20.0669,-4.3813,443.1692],[20.0649,-4.3741,397.0837],[20.0619,-4.3698,420.0394],[20.0518,-4.3649,430.3988],[20.0473,-4.3602,408.5467],[20.0437,-4.3529,372.147],[20.0435,-4.342,391.7535],[20.0406,-4.3317,366.7422],[20.045,-4.3149,392.6146],[20.0434,-4.3114,390.9737],[20.0377,-4.3098,387.0356],[20.0336,-4.3056,359.4699],[20.033,-4.2927,345.8872],[20.038,-4.2859,341.0]],
[[19.8581,-4.1705,413.2423],[19.8542,-4.1705,413.0143],[19.8481,-4.1664,416.1587],[19.8461,-4.1628,409.213],[19.8454,-4.1518,428.7325],[19.8466,-4.147,386.6177],[19.8497,-4.1424,362.4915],[19.854,-4.1404,336.5],[19.8675,-4.1404,337.0],[19.8742,-4.1431,337.0],[19.8774,-4.147,337.0],[19.8794,-4.1547,337.5],[19.8778,-4.1644,337.5],[19.8676,-4.1699,403.2806],[19.8581,-4.1705,413.2423]],
[[19.6176,-5.0666,653.7523],[19.6002,-5.0673,594.799],[19.5861,-5.0631,671.1617],[19.5755,-5.0548,686.8846],[19.572,-5.0477,677.2719],[19.5683,-5.0364,678.8909],[19.5686,-5.0228,674.2642],[19.5762,-5.0047,585.3788],[19.5858,-4.9965,683.3773],[19.5979,-4.9935,598.5293],[19.6186,-4.9921,508.6441],[19.6284,-4.9966,497.9717],[19.6413,-5.0133,487.7508],[19.645,-5.0337,466.1572],[19.6404,-5.0485,475.1817],[19.6316,-5.0611,521.5056],[19.6176,-5.0666,653.7523]],
[[19.5331,-4.0791,383.2346],[19.5239,-4.0781,363.5528],[19.5143,-4.0709,456.7304],[19.5108,-4.0537,384.6534],[19.5153,-4.0466,355.612],[19.522,-4.0427,408.2233],[19.5409,-4.0409,373.0185],[19.5464,-4.0435,389.8553],[19.552,-4.0521,427.2078],[19.5513,-4.0654,442.5847],[19.5428,-4.0761,385.3177],[19.5331,-4.0791,383.2346]]]]}}