{"type": "Feature","bbox": [18.421,2.752,19.5186,4.7769],"geometry": {"type": "MultiPolygon","coordinates": [[[[18.635,3.4711,324.5],[18.6399,3.4486,324.5],[18.64,3.427,324.5],[18.639,3.417,324.5],[18.632,3.397,324.5],[18.633,3.386,324.5],[18.645,3.359,328.712],[18.649,3.344,334.4041],[18.65,3.331,346.6363],[18.645,3.305,324.0],[18.638,3.29,329.0212],[18.635,3.26,331.2838],[18.6426,3.2207,324.0],[18.6417,3.2089,324.0],[18.6256,3.1589,323.5],[18.6014,3.1145,323.5],[18.5848,3.0976,323.5],[18.576,3.095,323.5],[18.5439,3.0796,323.5],[18.533,3.07,338.0641],[18.529,3.062,323.5],[18.5216,3.0253,323.5],[18.5169,3.014,323.0],[18.5049,2.9962,336.6405],[18.497,2.991,325.1453],[18.475,2.97,322.5],[18.468,2.958,322.0],[18.463,2.942,322.0],[18.453,2.927,324.8838],[18.4415,2.8889,321.5],[18.4385,2.8723,321.0],[18.4393,2.8555,321.0],[18.4458,2.8367,321.0],[18.4455,2.8224,321.0],[18.4383,2.8047,320.5],[18.433,2.7779,320.0],[18.421,2.752,320.0],[18.4422,2.7638,323.3563],[18.4523,2.7747,332.6942],[18.4576,2.7771,326.2785],[18.4647,2.7764,328.2752],[18.4696,2.7825,330.2299],[18.4746,2.7849,325.6369],[18.487,2.7843,333.6414],[18.5003,2.7863,328.0605],[18.5036,2.7923,334.9571],[18.5075,2.7954,323.1208],[18.5146,2.7957,325.1325],[18.5227,2.8018,324.9156],[18.5292,2.8005,326.7463],[18.556,2.8114,325.463],[18.5654,2.8108,327.261],[18.5759,2.8153,323.9605],[18.5796,2.8151,325.0399],[18.5821,2.813,339.5086],[18.5922,2.8146,337.7756],[18.5969,2.8213,353.6485],[18.6085,2.8233,345.5307],[18.6119,2.8307,344.8576],[18.6124,2.8433,345.8065],[18.6115,2.8479,325.4086],[18.6066,2.8525,326.0158],[18.6089,2.8553,327.6761],[18.6084,2.8589,349.9045],[18.612,2.8599,336.6935],[18.6117,2.8647,334.925],[18.6076,2.872,335.4293],[18.6148,2.8728,343.4287],[18.6182,2.8779,356.8882],[18.6153,2.8866,336.4948],[18.6189,2.8924,348.9639],[18.6168,2.8961,351.5732],[18.6182,2.9005,351.0486],[18.6156,2.9037,352.5747],[18.6087,2.9073,339.0059],[18.6019,2.9031,341.6945],[18.6003,2.8989,340.5054],[18.5952,2.9039,342.0146],[18.594,2.91,349.6544],[18.5992,2.9154,348.4582],[18.6049,2.9155,346.5641],[18.6088,2.9188,347.1053],[18.6152,2.9182,352.9452],[18.6223,2.9201,352.329],[18.6259,2.9243,350.1663],[18.6229,2.9261,345.6855],[18.6236,2.9286,337.6428],[18.6281,2.9291,348.9922],[18.6389,2.9449,335.1757],[18.6379,2.9548,332.3145],[18.6334,2.9555,330.9001],[18.6405,2.9698,344.3561],[18.6432,2.9712,351.1096],[18.6448,2.9744,349.7496],[18.6524,2.9708,351.6564],[18.6585,2.9723,348.4078],[18.6577,2.9642,348.5594],[18.6607,2.9594,351.0229],[18.6653,2.9581,353.8326],[18.6683,2.9621,350.265],[18.6704,2.9736,351.4413],[18.675,2.9762,350.6612],[18.6839,2.9744,350.6547],[18.6853,2.9768,347.7149],[18.6841,2.98,343.944],[18.6784,2.9808,352.488],[18.676,2.984,344.7817],[18.6778,2.987,354.6346],[18.6865,2.986,332.5935],[18.6909,2.9805,344.7421],[18.6946,2.9801,336.2194],[18.697,2.9942,339.7328],[18.7041,2.9876,336.0491],[18.7131,2.9874,347.9193],[18.7165,2.984,343.6342],[18.7254,2.9897,345.8871],[18.7242,2.9931,345.3031],[18.726,2.9943,345.4997],[18.7267,2.9991,343.0449],[18.7386,3.0013,339.6769],[18.7422,3.0046,342.1973],[18.7442,3.009,344.7364],[18.7423,3.017,343.8186],[18.7471,3.0168,344.5664],[18.7602,3.0117,341.5379],[18.7629,3.0131,345.3038],[18.7615,3.0154,343.9018],[18.7516,3.0178,335.2851],[18.7484,3.0208,350.8056],[18.758,3.0227,348.3723],[18.7656,3.02,348.0936],[18.7721,3.0263,347.6702],[18.768,3.0314,337.7449],[18.7606,3.0319,345.4326],[18.7574,3.0347,352.9281],[18.7585,3.0365,342.6942],[18.7633,3.0371,335.1068],[18.7753,3.0324,332.7653],[18.7752,3.0383,330.6252],[18.7828,3.0391,331.0298],[18.7841,3.041,330.4214],[18.7914,3.041,355.2143],[18.793,3.0429,352.0655],[18.7875,3.0458,339.0596],[18.7824,3.0462,341.83],[18.7901,3.0595,341.1532],[18.7904,3.0753,351.5851],[18.7918,3.0775,342.2987],[18.7961,3.0754,353.3736],[18.7967,3.0832,352.3378],[18.8003,3.087,352.5969],[18.8087,3.0891,339.2241],[18.8116,3.0866,357.3833],[18.815,3.0782,343.9665],[18.819,3.0747,337.0662],[18.8236,3.0741,355.1491],[18.8263,3.079,351.989],[18.8313,3.0763,355.0159],[18.837,3.0761,358.7383],[18.8438,3.0826,355.7891],[18.8451,3.0707,333.9873],[18.8486,3.0682,356.7642],[18.8536,3.0698,345.7289],[18.8574,3.0752,359.1194],[18.8676,3.084,349.1291],[18.8708,3.085,340.5919],[18.8796,3.0807,339.613],[18.8848,3.0815,345.0879],[18.8866,3.0836,352.159],[18.8877,3.0937,347.0433],[18.8924,3.0972,348.3668],[18.8985,3.107,338.448],[18.9033,3.1068,358.2709],[18.9054,3.105,359.4136],[18.9064,3.102,343.5241],[18.9028,3.0902,343.0381],[18.9047,3.0884,337.7805],[18.9159,3.0915,350.61],[18.9229,3.0966,337.0893],[18.9267,3.1052,348.1689],[18.9453,3.0971,337.3969],[18.9514,3.0975,338.119],[18.9678,3.1112,343.0694],[18.9702,3.122,337.4298],[18.9739,3.1258,340.5023],[18.9789,3.1256,332.4507],[18.9824,3.1226,332.6516],[18.9852,3.1148,340.9143],[18.9935,3.1071,367.1901],[18.997,3.1069,383.6725],[19.0078,3.1188,343.7896],[19.0119,3.1207,340.5389],[19.0181,3.1205,348.7426],[19.0241,3.116,361.3568],[19.0289,3.1144,366.0863],[19.0305,3.117,348.0884],[19.029,3.1324,341.0649],[19.0307,3.1377,333.3051],[19.035,3.1444,344.4014],[19.0412,3.1465,343.1354],[19.0448,3.1498,338.0628],[19.0415,3.1541,334.1242],[19.0333,3.1577,332.1964],[19.0283,3.171,353.4533],[19.0312,3.1745,337.7791],[19.0367,3.1755,333.957],[19.0408,3.1785,348.2166],[19.0442,3.1783,339.2327],[19.0529,3.1653,336.7725],[19.0563,3.1658,342.377],[19.0603,3.173,336.815],[19.0596,3.179,335.8722],[19.0611,3.1852,335.3675],[19.0668,3.1869,363.254],[19.0779,3.1771,339.0123],[19.08,3.1914,358.1414],[19.0891,3.2003,359.3576],[19.0906,3.2139,360.025],[19.0953,3.2183,347.4597],[19.0977,3.2284,350.5108],[19.0958,3.2337,362.9296],[19.0899,3.235,355.698],[19.0876,3.2286,356.4387],[19.0769,3.2471,361.5639],[19.0748,3.2533,363.3997],[19.0747,3.2618,355.4182],[19.0822,3.2665,354.084],[19.0835,3.2713,352.6885],[19.08,3.2816,360.2599],[19.0769,3.286,350.031],[19.0721,3.288,346.7559],[19.0714,3.2908,361.8744],[19.0771,3.2933,364.229],[19.0918,3.3059,342.1141],[19.0988,3.3208,355.6801],[19.0971,3.3242,347.2305],[19.0909,3.3276,360.1009],[19.0979,3.332,341.5517],[19.0944,3.341,344.7626],[19.0772,3.3412,362.8089],[19.0763,3.3435,359.4685],[19.0797,3.3468,353.853],[19.0884,3.3508,348.5643],[19.1025,3.3526,348.9124],[19.11,3.3589,356.4529],[19.1244,3.3625,350.3289],[19.1299,3.3658,350.4471],[19.1337,3.3748,340.0067],[19.1375,3.3785,359.493],[19.1401,3.3907,362.888],[19.1503,3.3984,363.1848],[19.1575,3.4098,341.3703],[19.161,3.4103,347.1993],[19.1695,3.4053,345.0546],[19.1722,3.407,345.8846],[19.1809,3.4071,341.9983],[19.1821,3.4101,339.762],[19.1804,3.414,340.287],[19.1663,3.4255,341.2533],[19.1695,3.43,341.9792],[19.1752,3.4335,344.5948],[19.2046,3.4384,347.7607],[19.2073,3.4428,343.8636],[19.2088,3.4532,351.4951],[19.2039,3.4626,344.9895],[19.1955,3.4595,337.1214],[19.1922,3.4654,358.675],[19.1952,3.468,349.0563],[19.2009,3.4683,342.2089],[19.2262,3.4575,354.6087],[19.2322,3.4573,351.3655],[19.2337,3.4657,347.072],[19.2308,3.4739,357.7857],[19.2385,3.4841,342.0763],[19.247,3.4791,341.3879],[19.2523,3.4829,367.0779],[19.2563,3.4885,346.6481],[19.2655,3.4863,345.3315],[19.2671,3.4883,348.7093],[19.2578,3.4972,349.469],[19.2589,3.506,352.291],[19.2561,3.5096,347.2786],[19.2508,3.511,359.1826],[19.2483,3.5137,363.0541],[19.2496,3.5155,361.392],[19.2574,3.5161,353.0477],[19.2585,3.5186,359.5757],[19.2557,3.5255,339.9101],[19.2575,3.5281,340.7432],[19.2719,3.5342,349.058],[19.2766,3.5389,348.1023],[19.2806,3.552,348.3633],[19.2803,3.5562,341.816],[19.2761,3.5607,346.0626],[19.2749,3.5685,349.5743],[19.2813,3.5718,360.2111],[19.2833,3.5748,361.5139],[19.2848,3.5825,344.0269],[19.2828,3.6011,354.701],[19.2807,3.6061,355.2312],[19.2754,3.6065,352.53],[19.2708,3.6106,343.9682],[19.2708,3.6141,351.8345],[19.2769,3.6217,356.7361],[19.2729,3.6272,356.0898],[19.2548,3.6268,354.1374],[19.2463,3.6285,342.6187],[19.2426,3.6326,345.7397],[19.2423,3.6359,346.7264],[19.2485,3.6355,356.0417],[19.2492,3.6392,354.5214],[19.2426,3.6561,341.8367],[19.2474,3.6596,343.4839],[19.2551,3.662,350.114],[19.2565,3.6641,345.1515],[19.2544,3.6682,344.8642],[19.2632,3.6743,353.3185],[19.2686,3.6907,353.0247],[19.2659,3.7008,359.6512],[19.2688,3.7087,358.6455],[19.2681,3.7105,369.5664],[19.2647,3.7105,361.9739],[19.2642,3.7134,359.8067],[19.2667,3.7174,360.7083],[19.2659,3.7192,361.5956],[19.2595,3.7205,357.6586],[19.2663,3.7335,354.0187],[19.2664,3.7429,345.0438],[19.2739,3.7437,359.2053],[19.279,3.7405,362.447],[19.2809,3.7357,344.3778],[19.283,3.7346,345.8429],[19.2896,3.7395,356.6351],[19.2978,3.7403,346.064],[19.3003,3.7426,350.122],[19.2998,3.7449,348.8399],[19.2927,3.7492,360.5594],[19.2963,3.7506,346.6221],[19.3014,3.7488,355.4689],[19.3136,3.7382,350.5179],[19.3178,3.7373,346.553],[19.3205,3.741,347.4067],[19.3326,3.7381,348.0119],[19.3388,3.7405,343.7326],[19.3487,3.7385,348.5645],[19.3555,3.7391,350.2576],[19.3573,3.7437,348.7385],[19.3543,3.7519,351.0916],[19.3544,3.7561,349.8272],[19.3597,3.7538,348.501],[19.3627,3.7555,361.7952],[19.3635,3.7668,352.6715],[19.3619,3.7704,357.7142],[19.3547,3.7741,347.1529],[19.3524,3.7779,348.9518],[19.3533,3.7816,360.7112],[19.3623,3.7923,380.3257],[19.3618,3.7958,364.6465],[19.3471,3.8007,362.0278],[19.3464,3.8023,350.0045],[19.3532,3.8065,367.5815],[19.3592,3.8061,348.1892],[19.3634,3.8004,350.266],[19.3675,3.8,348.068],[19.3736,3.809,354.7433],[19.3731,3.8113,358.2814],[19.3667,3.814,353.3313],[19.3712,3.8191,378.7451],[19.3723,3.8233,375.881],[19.369,3.8265,368.1905],[19.3546,3.827,348.935],[19.3516,3.8302,347.2261],[19.3513,3.835,354.1899],[19.3586,3.8342,348.5094],[19.3598,3.837,350.4361],[19.3521,3.8463,356.6545],[19.3521,3.8502,350.0574],[19.3546,3.8525,349.0196],[19.363,3.8499,376.0327],[19.3698,3.8421,357.5522],[19.3741,3.8426,378.5917],[19.3759,3.8459,370.9362],[19.375,3.8489,353.4384],[19.3662,3.8557,350.5422],[19.3648,3.858,352.3879],[19.3655,3.8603,349.8111],[19.3719,3.8631,349.9214],[19.3769,3.8618,355.9589],[19.3853,3.8662,349.4406],[19.3946,3.8603,357.3859],[19.3978,3.8618,352.668],[19.4036,3.8687,349.7008],[19.4078,3.8628,367.4279],[19.4103,3.8667,356.7387],[19.41,3.875,351.9187],[19.418,3.8963,373.155],[19.4174,3.9076,364.2573],[19.4149,3.9112,364.7316],[19.3955,3.9241,366.5614],[19.3885,3.9328,363.8871],[19.384,3.9532,380.085],[19.3809,3.9592,386.2992],[19.368,3.9678,372.4073],[19.364,3.9719,378.8375],[19.3596,3.9811,364.7207],[19.3538,3.9865,372.8762],[19.349,3.9878,367.1278],[19.345,3.9926,384.141],[19.327,4.0056,366.8958],[19.3172,4.0032,370.5818],[19.3117,4.0049,373.9955],[19.305,4.0042,373.6386],[19.2867,4.0233,381.118],[19.2731,4.0287,392.8874],[19.2664,4.0335,397.1402],[19.2659,4.0362,403.812],[19.27,4.0399,418.2088],[19.2744,4.0572,421.9272],[19.2729,4.066,407.0373],[19.2683,4.0701,410.2949],[19.2682,4.0733,422.6394],[19.2724,4.0782,453.122],[19.2965,4.0797,442.2452],[19.3025,4.081,417.0043],[19.3077,4.0857,430.1637],[19.3343,4.1578,391.3113],[19.3386,4.1602,394.3264],[19.3426,4.1664,391.52],[19.3512,4.1902,418.1343],[19.357,4.1974,399.4293],[19.3762,4.2498,445.287],[19.4189,4.3519,420.6519],[19.4542,4.4319,600.4702],[19.4596,4.4504,608.4579],[19.4768,4.4828,638.0705],[19.4877,4.509,643.2745],[19.4893,4.5177,632.9398],[19.5086,4.557,626.4993],[19.5102,4.5646,627.0933],[19.5165,4.569,618.9911],[19.5186,4.5732,629.1925],[19.5186,4.5872,622.8477],[19.5124,4.5971,611.278],[19.5091,4.5993,613.612],[19.5018,4.5997,610.4745],[19.4914,4.6038,603.3235],[19.4845,4.6081,592.9668],[19.4831,4.612,589.6454],[19.474,4.619,584.9846],[19.4697,4.6385,540.2613],[19.4712,4.648,521.5539],[19.475,4.6556,516.9451],[19.4749,4.6632,513.4513],[19.4707,4.6708,523.5396],[19.4585,4.6775,515.4949],[19.4271,4.6793,501.0914],[19.4209,4.6776,512.2828],[19.4153,4.6686,509.0359],[19.4046,4.6574,500.5908],[19.3936,4.6513,498.831],[19.3922,4.6377,503.0015],[19.3881,4.634,500.7683],[19.3847,4.6268,500.4719],[19.3799,4.6251,494.2664],[19.3736,4.6347,505.4351],[19.3581,4.6336,483.9536],[19.3539,4.6357,495.4513],[19.3508,4.6425,526.1248],[19.3465,4.6455,526.9607],[19.3343,4.6447,481.4823],[19.3302,4.6465,483.0606],[19.3282,4.6593,488.9786],[19.3109,4.6642,478.6228],[19.3086,4.6667,468.7916],[19.312,4.6711,477.866],[19.3062,4.6743,470.5357],[19.3041,4.6816,486.5384],[19.2983,4.6843,485.4778],[19.2915,4.6815,468.457],[19.2904,4.6766,469.3928],[19.2883,4.675,471.0602],[19.2854,4.6754,464.8007],[19.2825,4.6805,483.0585],[19.2784,4.6839,469.6612],[19.2758,4.6905,472.8237],[19.2554,4.6919,458.0243],[19.2504,4.6875,459.6597],[19.2423,4.686,461.5508],[19.238,4.6855,467.6989],[19.2345,4.6878,472.9257],[19.2302,4.688,460.7497],[19.2293,4.6804,468.1395],[19.2263,4.681,454.7857],[19.2237,4.6923,464.461],[19.215699999999998,4.6929,454.8332],[19.2108,4.6997,474.3415],[19.2056,4.693,450.5857],[19.1895,4.6903,455.3115],[19.187,4.6928,490.0318],[19.1879,4.6967,515.2181],[19.1862,4.6999,457.6265],[19.1796,4.6987,442.6003],[19.1635,4.7031,484.2177],[19.1618,4.7054,463.4654],[19.1622,4.7118,440.1224],[19.1587,4.7166,441.2614],[19.1539,4.7184,433.1716],[19.1523,4.7347,443.9279],[19.1498,4.7343,434.5653],[19.1451,4.7298,450.0989],[19.1354,4.7304,438.6064],[19.1246,4.7347,419.7445],[19.1243,4.7416,423.5912],[19.1141,4.7663,377.7917],[19.0951,4.7673,384.7614],[19.0873,4.7644,372.2986],[19.0825,4.7692,379.137],[19.075,4.7615,380.1485],[19.0724,4.7617,382.4498],[19.0751,4.7714,373.4197],[19.0723,4.7769,369.1062],[19.068,4.7734,368.8232],[19.0624,4.774,367.2487],[19.0579,4.7724,364.9398],[19.0584,4.7687,391.7955],[19.0522,4.7642,380.4255],[19.0422,4.7616,390.2856],[19.0407,4.7657,367.7803],[19.0364,4.7659,372.1641],[19.0334,4.7689,388.021],[19.014,4.768,347.0],[19.01,4.753,347.0],[18.9942,4.7383,357.7385],[18.9853,4.7336,349.4821],[18.9475,4.6961,355.4276],[18.9377,4.6728,350.5242],[18.932,4.6661,345.0],[18.906,4.656,362.3489],[18.9026,4.6451,354.1183],[18.895,4.64,350.443],[18.891,4.634,355.3318],[18.8899,4.6246,352.0351],[18.8844,4.6142,343.0],[18.8747,4.6024,345.0531],[18.8561,4.5903,342.0],[18.8398,4.5708,380.6689],[18.8318,4.5583,371.0989],[18.8226,4.5318,359.2812],[18.8176,4.4945,391.4228],[18.811,4.461,405.4032],[18.8,4.439,420.8109],[18.794,4.423,380.3197],[18.7801,4.4196,337.5],[18.774,4.398,348.5713],[18.763,4.387,355.3822],[18.7405,4.3689,348.6828],[18.7498,4.35,403.076],[18.7528,4.3034,434.5577],[18.786,4.3039,453.2347],[18.8047,4.2783,453.3128],[18.8377,4.2698,503.469],[18.8657,4.265,579.7994],[18.868,4.2482,620.8604],[18.8232,4.1684,371.02],[18.8098,4.1318,382.2837],[18.7638,4.1298,371.0961],[18.7327,4.1008,372.8174],[18.6947,4.0444,375.1147],[18.6775,4.0117,370.4854],[18.6782,3.9766,353.4121],[18.6691,3.9687,359.8597],[18.652,3.978,333.0],[18.6476,3.9617,333.6627],[18.6361,3.9391,332.5],[18.6201,3.9238,333.0789],[18.608,3.909,332.0],[18.602,3.896,332.0],[18.5952,3.8407,332.5154],[18.5984,3.8145,350.5209],[18.5978,3.803,355.9158],[18.587,3.751,351.071],[18.587,3.744,329.0],[18.5896,3.733,327.0],[18.5914,3.7037,324.5],[18.5947,3.6904,324.5],[18.6016,3.6757,351.0936],[18.6109,3.6325,353.6896],[18.616,3.5888,356.677],[18.6184,3.5334,350.1025],[18.623,3.5081,345.4121],[18.635,3.4711,324.5]]]]}
,"properties": {"GID_2": "COD.23.5_1","GID_0": "COD","country": "DemocraticRepublicoftheCongo","GID_1": "COD.23_1","province": "Sud-Ubangi","NL_NAME_1": "NA","county": "Libenge","VARNAME_2": "NA","NL_NAME_2": "NA","TYPE_2": "Territoire","ENGTYPE_2": "Territory","CC_2": "NA","HASC_2": "NA","name": "Libenge.county","area_km2": 12718.68,"hist_schema_id": "Elevation0-9000","hist_area_km2": {"325": 268.236,"350": 3593.745,"375": 3688.92,"400": 983.659,"425": 610.121,"450": 534.953,"475": 443.895,"500": 453.638,"525": 511.244,"550": 377.278,"575": 260.988,"600": 368.147,"625": 564.897,"650": 58.938}}}