{"type":"Feature","properties":{"GID_2":"COD.8.9_1","GID_0":"COD","country":"DemocraticRepublicoftheCongo","GID_1":"COD.8_1","province":"Kasaï-Oriental","NL_NAME_1":"NA","county":"Tshilenge(ville)","VARNAME_2":"NA","NL_NAME_2":"NA","TYPE_2":"Ville","ENGTYPE_2":"Town","CC_2":"NA","HASC_2":"NA","name":"Tshilenge(ville).county"},
"geometry":{"type": "MultiPolygon","coordinates": [[[[23.7356,-6.2052,607.8946],[23.73,-6.2099,613.4964],[23.7297,-6.2136,614.4877],[23.7299,-6.2309,620.8508],[23.7318,-6.2386,633.1763],[23.7352,-6.2445,621.4822],[23.7573,-6.2665,615.4172],[23.7615,-6.2687,623.3911],[23.7723,-6.2678,608.5651],[23.7845,-6.2573,563.5643],[23.7908,-6.2449,552.7202],[23.7982,-6.2401,532.8559],[23.7913,-6.2222,530.3105],[23.7835,-6.2189,547.5011],[23.7553,-6.2165,580.1541],[23.7356,-6.2052,607.8946]]]]}}