{"type":"Feature","properties":{"GID_2":"COD.12.2_1","GID_0":"COD","country":"DemocraticRepublicoftheCongo","GID_1":"COD.12_1","province":"Kwango","NL_NAME_1":"NA","county":"Kahemba","VARNAME_2":"NA","NL_NAME_2":"NA","TYPE_2":"Territoire","ENGTYPE_2":"Territory","CC_2":"NA","HASC_2":"NA","name":"Kahemba.county"},
"geometry":{"type": "MultiPolygon","coordinates": [[[[19.3807,-7.9998,1036.1077],[19.4357,-7.9985,1068.1847],[19.4406,-7.9796,1068.4597],[19.4365,-7.9582,1057.6416],[19.3574,-7.9282,1025.1528],[19.357,-7.913,1017.5287],[19.354,-7.908,1011.3465],[19.3439,-7.9012,1010.8544],[19.3479,-7.8845,1010.7027],[19.356,-7.879,1005.928],[19.3567,-7.8657,1001.5282],[19.364,-7.861,997.7665],[19.3647,-7.8485,998.4822],[19.3617,-7.8337,997.9342],[19.3616,-7.812,993.1032],[19.3649,-7.806,998.0627],[19.37,-7.8021,991.4335],[19.3803,-7.7884,988.9442],[19.387,-7.783,988.1189],[19.388,-7.7732,999.9861],[19.3914,-7.7687,1012.887],[19.3902,-7.7597,1006.7639],[19.401,-7.719,1002.1402],[19.402,-7.709,981.8091],[19.408,-7.704,974.982],[19.409,-7.701,974.3274],[19.4069,-7.682,983.9084],[19.4014,-7.6746,972.7751],[19.399,-7.6659,971.1899],[19.3979,-7.651,1007.137],[19.3871,-7.6371,986.6196],[19.3846,-7.6279,979.7475],[19.3777,-7.6169,975.4],[19.3687,-7.5831,972.7495],[19.3799,-7.5771,956.8513],[19.381,-7.5701,955.3122],[19.462,-7.571,990.4934],[19.474,-7.567,975.7462],[19.4838,-7.5563,969.1826],[19.4845,-7.5534,970.8359],[19.4824,-7.5503,974.8556],[19.4842,-7.5436,969.9439],[19.4939,-7.533,960.507],[19.4927,-7.5253,966.7903],[19.4853,-7.5039,968.4693],[19.496,-7.5,950.4999],[19.512,-7.489,962.6398],[19.5168,-7.4839,962.9538],[19.5219,-7.4739,957.6759],[19.5366,-7.4685,940.4109],[19.5419,-7.4688,938.5107],[19.5492,-7.4736,939.8069],[19.55,-7.472,949.8192],[19.5447,-7.457,951.7887],[19.537,-7.449,954.2003],[19.5294,-7.447,944.2133],[19.5264,-7.4427,937.4802],[19.5268,-7.4361,935.9439],[19.5317,-7.4351,949.9791],[19.5328,-7.4319,936.0836],[19.521,-7.4246,954.9572],[19.515,-7.408,948.9907],[19.4957,-7.3705,927.1309],[19.5,-7.358,921.8547],[19.503,-7.355,965.6985],[19.501,-7.342,917.7511],[19.4991,-7.3414,918.0714],[19.496,-7.331,917.0298],[19.4906,-7.3238,916.3652],[19.4876,-7.3151,915.8762],[19.492,-7.308,945.0829],[19.4884,-7.3022,923.0135],[19.493,-7.295,964.4373],[19.4922,-7.2906,923.7245],[19.495,-7.287,918.8459],[19.4927,-7.274,919.3144],[19.4939,-7.2675,904.9236],[19.5009,-7.252,901.2116],[19.5002,-7.2442,913.5955],[19.503,-7.234,912.2131],[19.5001,-7.229,898.717],[19.504,-7.22,898.2898],[19.5034,-7.2159,911.9054],[19.5051,-7.2091,899.6744],[19.5015,-7.1981,914.0369],[19.503,-7.193,894.7846],[19.4979,-7.1839,917.7448],[19.4965,-7.176,914.6381],[19.5034,-7.17,898.8002],[19.5085,-7.137,894.4974],[19.5222,-7.113,815.1868],[19.5332,-7.0881,766.96],[19.5375,-7.0817,762.1962],[19.552,-7.0693,637.9426],[19.5595,-7.059,627.2347],[19.5636,-7.0573,613.0159],[19.5473,-7.0302,743.4371],[19.5437,-7.0124,783.5984],[19.5439,-6.9998,705.7845],[19.6762,-7.0005,917.806],[19.706,-6.999,914.0981],[19.834,-6.998,877.3448],[19.868,-7.0,741.3057],[19.9558,-6.9994,635.1744],[19.9572,-6.9968,646.4882],[19.9688,-6.9918,618.594],[19.9628,-6.9856,660.3473],[19.9644,-6.9835,651.7333],[19.97,-6.982,593.8815],[19.9656,-6.9778,625.3926],[19.9622,-6.9686,635.2794],[19.9641,-6.964,601.9683],[19.9591,-6.9562,605.9104],[19.9596,-6.9389,580.3966],[19.9518,-6.9373,580.8401],[19.9493,-6.9334,582.0568],[19.9507,-6.9272,605.7516],[19.9537,-6.9246,582.0255],[19.9506,-6.9115,576.8663],[19.9522,-6.906,572.4691],[19.9462,-6.903,574.9611],[19.9446,-6.8998,609.2531],[19.9463,-6.8927,570.1064],[19.9376,-6.8933,587.1489],[19.9361,-6.8726,559.4002],[19.931,-6.8634,558.1208],[19.9306,-6.8581,619.6869],[19.9176,-6.8475,570.7101],[19.9075,-6.8426,575.2507],[19.9011,-6.8294,554.3573],[19.903,-6.8212,641.6205],[19.9003,-6.8172,661.8303],[19.8908,-6.8156,582.0562],[19.89,-6.8062,606.6459],[19.887,-6.8043,561.1571],[19.8881,-6.8013,595.7384],[19.8873,-6.7965,647.7795],[19.8774,-6.7969,637.1956],[19.8758,-6.7946,629.1745],[19.8763,-6.7877,596.9793],[19.866,-6.7754,640.6566],[19.8579,-6.7736,622.6904],[19.8559,-6.7717,603.4772],[19.8532,-6.7639,603.6115],[19.8458,-6.7627,618.8027],[19.8433,-6.7604,600.6426],[19.8463,-6.756,635.4532],[19.8351,-6.7419,571.732],[19.8365,-6.7369,576.6893],[19.8347,-6.7332,619.3632],[19.8267,-6.7345,613.3304],[19.8247,-6.7223,590.4182],[19.8231,-6.7203,607.595],[19.818,-6.7198,596.2136],[19.8155,-6.7168,608.9383],[19.8183,-6.711,609.201],[19.8176,-6.7069,586.7919],[19.8119,-6.7073,572.0466],[19.8119,-6.6992,618.2239],[19.8053,-6.6965,594.5233],[19.7957,-6.6859,595.6824],[19.786,-6.6819,533.0129],[19.7851,-6.6805,542.7488],[19.787,-6.6743,584.1202],[19.7796,-6.6699,583.2515],[19.7774,-6.6651,592.78],[19.7723,-6.6655,521.5124],[19.7696,-6.6561,549.6732],[19.7628,-6.6491,602.0683],[19.7598,-6.6406,583.8501],[19.7566,-6.6385,589.396],[19.7546,-6.6295,584.1142],[19.7403,-6.6271,518.3934],[19.736,-6.6216,523.625],[19.7342,-6.6152,523.0875],[19.7257,-6.6119,556.9156],[19.7223,-6.6066,561.6509],[19.7198,-6.5983,517.2751],[19.7162,-6.5937,535.1166],[19.7139,-6.5849,512.6612],[19.7096,-6.5808,528.5853],[19.7078,-6.5734,577.1356],[19.7088,-6.5608,565.0593],[19.712,-6.5571,572.9742],[19.7102,-6.5534,556.0717],[19.7047,-6.552,508.7657],[19.7024,-6.5476,524.3578],[19.702,-6.5384,532.6946],[19.7073,-6.5313,591.774],[19.7016,-6.5216,524.075],[19.7014,-6.5182,514.8927],[19.7081,-6.5164,588.5889],[19.71,-6.5123,538.5954],[19.7086,-6.507,504.8687],[19.7038,-6.5,549.7255],[19.7048,-6.4971,524.6133],[19.7165,-6.4978,558.6727],[19.7147,-6.4937,543.4102],[19.7085,-6.4872,522.101],[19.7085,-6.484,504.6958],[19.7152,-6.4767,551.1754],[19.7137,-6.4546,505.3159],[19.7048,-6.4472,502.4477],[19.706,-6.4414,508.7284],[19.7159,-6.4385,502.8706],[19.7185,-6.4351,498.9106],[19.7203,-6.4257,508.132],[19.7185,-6.4192,506.0697],[19.714,-6.4153,517.818],[19.7131,-6.4114,570.2062],[19.7096,-6.4097,533.6339],[19.7069,-6.4047,499.7288],[19.7067,-6.3959,502.5353],[19.7035,-6.3911,495.875],[19.7045,-6.3867,536.5649],[19.7011,-6.3821,512.8609],[19.697,-6.3683,494.3899],[19.6958,-6.3462,554.8218],[19.6896,-6.3434,527.6541],[19.6873,-6.339,501.9711],[19.6878,-6.337,511.3446],[19.6836,-6.3367,530.0822],[19.6769,-6.3415,562.695],[19.6604,-6.3444,582.1355],[19.6558,-6.3464,505.7776],[19.6472,-6.3542,546.8218],[19.6345,-6.358,520.2286],[19.6103,-6.3543,558.78],[19.5745,-6.3427,614.7612],[19.5584,-6.3416,611.3838],[19.5524,-6.3399,577.2691],[19.5296,-6.3257,649.5857],[19.5174,-6.3211,650.5669],[19.5036,-6.3052,615.5716],[19.4997,-6.3036,581.8748],[19.4905,-6.3072,618.8129],[19.4758,-6.3021,544.0254],[19.4728,-6.2995,568.6979],[19.4699,-6.2901,657.902],[19.4568,-6.2826,671.8783],[19.4545,-6.2838,651.2436],[19.4454,-6.2816,636.952],[19.4405,-6.2864,591.9967],[19.4297,-6.2923,669.8757],[19.4234,-6.3038,706.3102],[19.414,-6.3306,826.6421],[19.4062,-6.3469,732.1057],[19.3985,-6.3711,837.4256],[19.3908,-6.3826,816.2169],[19.3827,-6.3867,811.9337],[19.366,-6.3913,819.5198],[19.3523,-6.3896,693.8859],[19.3425,-6.3831,691.0566],[19.3372,-6.3822,683.9435],[19.3305,-6.3836,671.1157],[19.333,-6.3903,672.4267],[19.3405,-6.3996,681.1112],[19.3448,-6.4164,784.4432],[19.3429,-6.4253,691.2437],[19.3423,-6.4421,739.9348],[19.3374,-6.4513,724.3114],[19.3429,-6.4596,770.9161],[19.3424,-6.4633,779.2278],[19.3366,-6.4701,862.2031],[19.3375,-6.4775,861.1309],[19.3296,-6.4947,714.4355],[19.3304,-6.5025,689.7416],[19.3283,-6.5147,728.9258],[19.3213,-6.527,708.8886],[19.3229,-6.5355,723.1225],[19.3203,-6.5443,702.7327],[19.3237,-6.5509,745.5043],[19.3218,-6.5564,709.1615],[19.3236,-6.562,727.7106],[19.3181,-6.5677,698.04],[19.3205,-6.581,760.5123],[19.3196,-6.5877,862.2994],[19.3135,-6.5929,880.2515],[19.3054,-6.6051,882.5966],[19.3035,-6.6163,884.3761],[19.2986,-6.6225,885.579],[19.2988,-6.6305,888.4749],[19.2895,-6.6548,799.6218],[19.2913,-6.6594,840.054],[19.2892,-6.664,756.8173],[19.2813,-6.6718,859.6248],[19.278199999999998,-6.6906,881.1857],[19.2789,-6.698,882.5655],[19.274,-6.7035,884.6661],[19.2756,-6.709,885.2164],[19.2728,-6.7143,883.9002],[19.2718,-6.7216,882.2712],[19.2766,-6.7334,886.1283],[19.2836,-6.7403,888.1887],[19.2843,-6.744,889.9599],[19.2815,-6.7525,895.1157],[19.2766,-6.7575,891.8527],[19.2679,-6.7544,811.9638],[19.2665,-6.7583,810.7761],[19.264,-6.7583,804.3566],[19.2532,-6.7518,843.6767],[19.2491,-6.7518,856.0636],[19.2403,-6.7586,808.6487],[19.2292,-6.7622,863.5386],[19.2234,-6.7744,904.0762],[19.2068,-6.7878,880.5584],[19.2033,-6.7963,900.62],[19.2007,-6.7983,900.8888],[19.1967,-6.8119,924.4117],[19.1879,-6.8187,930.458],[19.1847,-6.8265,934.5891],[19.1727,-6.8315,875.019],[19.1703,-6.8388,891.9012],[19.1682,-6.8404,927.5134],[19.1549,-6.841,898.5004],[19.145,-6.8471,925.3569],[19.1398,-6.8634,924.7959],[19.1375,-6.8662,912.7637],[19.1338,-6.8643,869.1775],[19.1306,-6.8661,869.5687],[19.1262,-6.8723,872.197],[19.1218,-6.8729,872.1358],[19.1178,-6.8817,875.5868],[19.1114,-6.8844,880.871],[19.1106,-6.8984,903.0087],[19.1046,-6.9016,893.4584],[19.1014,-6.9025,891.6733],[19.0959,-6.8997,918.7454],[19.0892,-6.9003,932.5823],[19.0864,-6.8987,941.1452],[19.0758,-6.9009,907.7347],[19.0692,-6.8949,949.9819],[19.0625,-6.8957,941.1813],[19.0544,-6.9014,910.3575],[19.0459,-6.9016,896.0747],[19.0305,-6.9095,931.9801],[18.9934,-6.9158,921.1833],[18.986,-6.9197,959.8608],[18.9814,-6.9201,983.279],[18.9789,-6.8909,979.0479],[18.9754,-6.881,976.3723],[18.952,-6.8387,911.5789],[18.9494,-6.827,934.1402],[18.945,-6.8231,902.554],[18.9413,-6.8123,895.8382],[18.936,-6.8084,893.7714],[18.9293,-6.8073,892.8762],[18.9189,-6.7982,895.8016],[18.9193,-6.795,903.9852],[18.9234,-6.792,907.5084],[18.9213,-6.7872,904.8633],[18.9015,-6.7839,904.3056],[18.8926,-6.7913,897.6569],[18.8852,-6.7909,894.0562],[18.879,-6.7875,894.0228],[18.8759,-6.773,881.1537],[18.8733,-6.768,878.1567],[18.877,-6.7633,907.5208],[18.8748,-6.7539,886.0312],[18.8714,-6.7523,881.9669],[18.8684,-6.7574,869.9434],[18.8656,-6.7528,871.5669],[18.8533,-6.7649,893.3678],[18.8508,-6.7709,889.4634],[18.8531,-6.7771,895.355],[18.85,-6.7803,886.5161],[18.8507,-6.7899,894.6329],[18.8482,-6.7936,895.2019],[18.8443,-6.7953,895.284],[18.8333,-6.794,913.7663],[18.8303,-6.7974,898.67],[18.8248,-6.7982,896.6657],[18.823,-6.8023,900.4664],[18.8191,-6.8026,898.6743],[18.8096,-6.7992,905.5039],[18.7979,-6.8052,900.4018],[18.7958,-6.8032,898.7987],[18.7899,-6.8046,910.923],[18.7677,-6.7875,977.4695],[18.7541,-6.7838,969.2463],[18.7507,-6.7848,948.7877],[18.7461,-6.7906,919.6143],[18.7338,-6.8127,982.9182],[18.7292,-6.8176,987.988],[18.7211,-6.8224,982.9932],[18.7172,-6.8218,973.1318],[18.7097,-6.8152,976.4385],[18.7082,-6.8109,982.061],[18.7092,-6.8013,985.4763],[18.7151,-6.7906,927.8209],[18.729,-6.7736,968.598],[18.7313,-6.7689,986.4661],[18.7312,-6.7585,981.6962],[18.724,-6.7462,976.3364],[18.7177,-6.7401,972.5639],[18.7051,-6.7287,966.2833],[18.686,-6.7162,966.7488],[18.6753,-6.7183,975.1627],[18.6496,-6.73,959.9435],[18.6259,-6.7388,889.3271],[18.6227,-6.7421,863.1462],[18.6133,-6.7423,886.7147],[18.6038,-6.7387,928.5308],[18.5978,-6.7386,954.1956],[18.5478,-6.7842,989.8708],[18.546,-6.7939,990.8152],[18.5516,-6.809,973.7993],[18.5505,-6.8125,985.6207],[18.5459,-6.8171,972.9907],[18.54,-6.8199,974.6786],[18.5333,-6.8214,967.2419],[18.528,-6.8166,978.7549],[18.5211,-6.7901,1003.2491],[18.5187,-6.7888,1001.173],[18.4828,-6.7969,1019.2995],[18.4628,-6.7996,1009.5016],[18.4371,-6.808,968.093],[18.4212,-6.8109,951.0835],[18.4178,-6.8195,956.7424],[18.4222,-6.8328,987.5331],[18.437,-6.8396,1021.5654],[18.4406,-6.8556,1013.6069],[18.4447,-6.8597,1002.5361],[18.4439,-6.8657,1022.4631],[18.4363,-6.8835,1025.7545],[18.43,-6.8911,1022.9268],[18.424,-6.8927,1008.165],[18.4086,-6.8912,924.5228],[18.4105,-6.8937,933.0525],[18.4073,-6.8984,918.7258],[18.4126,-6.9029,930.9872],[18.4099,-6.9087,936.7233],[18.4136,-6.9128,928.1174],[18.4115,-6.9156,935.6486],[18.4131,-6.9172,935.8661],[18.4166,-6.9169,937.0637],[18.4178,-6.919,933.7721],[18.4127,-6.9227,932.339],[18.4129,-6.9246,922.1754],[18.4178,-6.9289,919.5532],[18.4125,-6.9316,922.5058],[18.4116,-6.9339,924.7243],[18.4142,-6.9355,919.9972],[18.4206,-6.9357,933.4451],[18.4209,-6.9392,926.3919],[18.4163,-6.9422,919.8226],[18.4228,-6.9454,935.9242],[18.4247,-6.9557,928.7693],[18.4245,-6.9617,941.4991],[18.4193,-6.973,944.6833],[18.4227,-6.9764,935.0807],[18.4232,-6.9824,923.5203],[18.4258,-6.9846,939.7657],[18.4283,-6.9803,929.6096],[18.4366,-6.9846,927.9512],[18.4408,-6.9937,932.353],[18.4447,-6.9946,925.0092],[18.4454,-6.9967,942.6617],[18.4381,-6.9979,932.5428],[18.4369,-7.0009,935.3894],[18.443,-7.008,931.1581],[18.4446,-7.0158,934.1791],[18.4483,-7.0203,939.4371],[18.4599,-7.0214,946.2688],[18.4635,-7.0191,921.2845],[18.4665,-7.0198,922.381],[18.4668,-7.0251,944.9941],[18.4716,-7.0273,932.2806],[18.4798,-7.0394,984.6281],[18.4743,-7.0409,932.0826],[18.4716,-7.0537,941.1843],[18.4832,-7.0656,926.5015],[18.48,-7.0707,923.0359],[18.4807,-7.0732,924.2089],[18.4857,-7.0716,923.5495],[18.4892,-7.0784,941.5934],[18.4952,-7.0814,923.6122],[18.4973,-7.0867,962.8237],[18.4926,-7.0952,950.3616],[18.4928,-7.0998,954.4578],[18.4873,-7.1001,935.0861],[18.4862,-7.1026,937.7832],[18.4901,-7.1081,944.8192],[18.4828,-7.1102,940.6871],[18.481,-7.1157,932.5854],[18.4819,-7.1196,933.0239],[18.4905,-7.1246,949.0614],[18.4909,-7.1274,952.4817],[18.4855,-7.1334,940.2944],[18.485,-7.1361,946.9062],[18.4878,-7.1437,961.9546],[18.4927,-7.1411,940.2026],[18.4941,-7.1439,945.4229],[18.4909,-7.1513,941.2237],[18.4909,-7.1571,950.9119],[18.4985,-7.185,987.8453],[18.5056,-7.181,951.2833],[18.5075,-7.1863,949.1052],[18.5098,-7.1879,948.6105],[18.5103,-7.1916,988.8626],[18.5068,-7.1987,954.0873],[18.5081,-7.207,960.6151],[18.5162,-7.2228,961.3256],[18.5206,-7.2264,961.1774],[18.522,-7.2333,958.2581],[18.5324,-7.2406,960.684],[18.5346,-7.2466,964.8673],[18.538,-7.25,971.625],[18.5422,-7.2585,972.7957],[18.5526,-7.2611,971.4684],[18.5626,-7.2677,968.691],[18.5679,-7.2813,989.1654],[18.576,-7.2863,974.7609],[18.5791,-7.2989,982.3235],[18.5775,-7.3035,970.5269],[18.5782,-7.3069,991.7248],[18.5847,-7.3117,974.6558],[18.5862,-7.3195,985.4009],[18.5917,-7.3247,1002.1586],[18.5961,-7.3256,996.5793],[18.5991,-7.3288,976.2637],[18.6019,-7.338,996.2464],[18.5955,-7.3417,992.0316],[18.5997,-7.3461,988.5474],[18.5986,-7.3507,987.601],[18.6,-7.3548,1001.2477],[18.6066,-7.352,996.4938],[18.611,-7.3559,1002.5026],[18.6156,-7.3568,995.3363],[18.6313,-7.3548,995.5573],[18.6329,-7.3564,995.8173],[18.6325,-7.3592,996.791],[18.6371,-7.3626,996.0429],[18.6394,-7.3695,998.1737],[18.6466,-7.3758,997.3027],[18.6377,-7.393,1019.3235],[18.6373,-7.4122,1063.0254],[18.6337,-7.4219,1066.4985],[18.6222,-7.4421,1099.2075],[18.6133,-7.4535,1105.5117],[18.5875,-7.4942,1118.9945],[18.5723,-7.5086,1119.9655],[18.5675,-7.5086,1104.6174],[18.5446,-7.4967,1086.4443],[18.5188,-7.4772,1129.7068],[18.5139,-7.4745,1126.8394],[18.5105,-7.4745,1121.0933],[18.5063,-7.4771,1084.5184],[18.4993,-7.4936,1054.4027],[18.4845,-7.5124,1090.5085],[18.47,-7.5191,1067.1404],[18.4439,-7.5236,1023.438],[18.425,-7.5349,887.4029],[18.412,-7.5354,870.4243],[18.411,-7.5273,816.0765],[18.4078,-7.5251,843.8724],[18.3877,-7.522,801.3109],[18.3822,-7.5167,795.9843],[18.3782,-7.5165,832.9847],[18.3706,-7.5113,772.8513],[18.3644,-7.5116,780.6904],[18.3584,-7.5141,779.9175],[18.3465,-7.5261,715.0858],[18.345,-7.5317,703.5956],[18.346,-7.5422,707.132],[18.3442,-7.5544,710.1718],[18.3417,-7.5542,705.1138],[18.3391,-7.557,702.1227],[18.3352,-7.5565,701.5649],[18.3274,-7.5619,698.8098],[18.3222,-7.5695,693.0422],[18.3218,-7.5738,692.7839],[18.3258,-7.5864,706.7112],[18.3212,-7.5966,694.896],[18.3219,-7.6021,685.6406],[18.3179,-7.6184,700.4552],[18.3126,-7.621,689.9335],[18.3108,-7.629,688.7774],[18.3143,-7.635,694.3931],[18.3088,-7.6375,689.4973],[18.3091,-7.64,688.604],[18.3121,-7.6423,686.5748],[18.3123,-7.646,684.0981],[18.3088,-7.6626,689.1151],[18.3051,-7.6658,682.8361],[18.3053,-7.6681,706.4725],[18.3088,-7.6704,689.6345],[18.3093,-7.6731,698.1824],[18.3075,-7.6768,687.1047],[18.3116,-7.6823,682.534],[18.3048,-7.692,714.7931],[18.3044,-7.6973,687.3286],[18.3019,-7.6989,691.3161],[18.2949,-7.6975,745.3597],[18.2906,-7.6999,743.9612],[18.2814,-7.6985,677.7385],[18.2788,-7.7009,707.0308],[18.2724,-7.7025,681.285],[18.2639,-7.7094,674.7318],[18.2619,-7.715,700.5737],[18.258,-7.7171,693.7902],[18.2548,-7.7224,674.5579],[18.2474,-7.7233,721.0422],[18.2461,-7.7263,694.0325],[18.2486,-7.729,685.9044],[18.2452,-7.7314,670.2242],[18.2436,-7.7339,700.8947],[18.2443,-7.7364,672.8297],[18.2416,-7.7401,676.8683],[18.2386,-7.7397,683.0238],[18.2342,-7.7344,669.531],[18.2316,-7.7351,672.3549],[18.2291,-7.739,686.6544],[18.2266,-7.7352,664.3311],[18.2231,-7.7361,666.369],[18.2206,-7.7412,667.5269],[18.2165,-7.7414,669.7289],[18.2138,-7.7495,670.2263],[18.2094,-7.7495,664.2228],[18.2092,-7.7552,702.2612],[18.2034,-7.7566,678.1565],[18.2039,-7.7599,679.4595],[18.2016,-7.7626,728.1455],[18.2033,-7.7651,705.6373],[18.2067,-7.7644,668.2036],[18.2081,-7.7667,707.4033],[18.2028,-7.7693,662.8647],[18.201,-7.775,694.3279],[18.195,-7.7735,658.4817],[18.1939,-7.7783,675.8409],[18.19,-7.7831,689.7256],[18.1928,-7.7877,654.7798],[18.1917,-7.7898,673.4622],[18.1875,-7.7903,661.7073],[18.1871,-7.7988,673.6607],[18.1819,-7.8025,661.1756],[18.1787,-7.8103,663.0022],[18.1741,-7.8117,665.2422],[18.1628,-7.8106,679.7443],[18.1522,-7.8123,661.3251],[18.1466,-7.8064,726.7617],[18.1328,-7.8068,645.9208],[18.1095,-7.8153,783.7487],[18.0967,-7.8154,724.0567],[18.0919,-7.8146,669.3595],[18.0687,-7.7974,649.7985],[18.0651,-7.7965,639.1354],[18.0625,-7.7986,647.442],[18.0628,-7.8036,651.7121],[18.061,-7.8039,642.237],[18.0538,-7.797,683.4088],[18.0483,-7.7987,639.4028],[18.0478,-7.7959,638.3381],[18.0507,-7.7904,636.0392],[18.0372,-7.7896,701.6154],[17.9864,-7.8119,771.7169],[17.9372,-7.8424,791.523],[17.9272,-7.8643,823.1891],[17.9134,-7.8783,856.8664],[17.9117,-7.8848,799.4625],[17.9135,-7.8913,778.5801],[17.9187,-7.9003,840.3647],[17.9191,-7.9059,833.062],[17.9149,-7.9156,829.0013],[17.9149,-7.9207,807.4888],[17.9228,-7.9423,823.8204],[17.9235,-7.9505,823.6168],[17.9015,-7.9669,834.9452],[17.8939,-7.9785,758.3853],[17.8912,-7.9873,741.8387],[17.8863,-8.0151,765.0729],[17.8863,-8.0704,752.3923],[17.885,-8.079,650.3666],[17.9399,-8.0824,670.8139],[17.9588,-8.091,684.1901],[17.972,-8.109,702.0129],[17.982,-8.113,773.5393],[18.0,-8.098,740.1863],[18.1004,-8.0991,746.1364],[18.1035,-8.0873,665.2231],[18.0875,-8.068,700.7061],[18.095,-8.0549,692.6021],[18.0983,-8.0402,698.9001],[18.135,-8.035,676.3795],[18.153,-8.009,787.0679],[18.1814,-8.0,797.9005],[18.209,-7.994,809.3777],[18.217,-7.9895,780.5383],[18.2265,-7.9892,796.8864],[18.2421,-7.9931,780.5417],[18.2613,-7.9939,811.7249],[18.2804,-7.9885,771.0696],[18.292,-7.9881,768.6305],[18.3012,-7.9902,811.1555],[18.3074,-7.9937,792.6016],[18.2998,-8.0,756.6709],[18.302,-8.012,725.4905],[18.304,-8.014,743.6407],[18.313,-8.018,804.8611],[18.319,-8.018,794.0278],[18.327,-8.0135,807.502],[18.3309,-8.019,783.1205],[18.354,-8.0265,820.9697],[18.3593,-8.0259,763.8875],[18.3649,-8.0214,751.6646],[18.3757,-8.0273,787.9846],[18.3879,-8.0175,788.4176],[18.398,-8.013,796.6773],[18.3911,-8.0,819.6311],[18.527,-8.0,965.4889],[18.531,-7.9939,946.8044],[18.533,-7.972,933.7422],[18.545,-7.9632,981.4144],[18.5557,-7.9484,954.8915],[18.5582,-7.9336,953.0975],[18.7776,-7.9221,1060.1375],[18.7816,-7.9275,1067.7241],[18.7829,-7.9472,1073.5177],[18.7828,-7.9583,1055.601],[18.779,-7.9603,1044.3474],[18.7781,-7.9637,1045.0969],[18.7799,-7.9668,1046.9609],[18.7857,-7.9692,1044.6553],[18.791,-7.981,1070.8201],[18.8,-7.9934,1058.9728],[18.8002,-8.0,1067.6051],[19.3807,-7.9998,1036.1077]],
[[19.0318,-7.3231,1034.9291],[19.0155,-7.3222,1044.3679],[19.003,-7.3193,1046.3191],[18.98,-7.3059,973.2041],[18.9733,-7.2839,1044.0911],[18.9877,-7.2638,984.5898],[19.0049,-7.2542,1032.0156],[19.0241,-7.2466,1025.3394],[19.05,-7.2456,1012.1512],[19.0663,-7.2504,948.1794],[19.0768,-7.2619,1018.6025],[19.0787,-7.2868,1022.3386],[19.0701,-7.304,1025.0376],[19.05,-7.3174,1026.214],[19.0318,-7.3231,1034.9291]]]]}}