{"type": "Feature","bbox": [28.3116,2.0557,30.1942,3.484],"geometry": {"type": "MultiPolygon","coordinates": [[[[28.503,2.8251,776.6606],[28.5005,2.8182,792.0417],[28.5046,2.797,791.4208],[28.5018,2.7777,802.0424],[28.5041,2.7648,809.2014],[28.5023,2.7554,821.5155],[28.4606,2.7568,812.9283],[28.44,2.7547,812.2941],[28.4277,2.7421,825.8192],[28.4312,2.6894,832.9497],[28.4254,2.6785,824.2458],[28.3662,2.6443,818.5692],[28.3556,2.642,838.1775],[28.3337,2.6411,818.5406],[28.3336,2.6343,833.9118],[28.3393,2.6148,832.8022],[28.3351,2.6095,810.764],[28.3313,2.611,821.4009],[28.3222,2.6078,820.1652],[28.3116,2.5873,809.6661],[28.3149,2.5781,798.9543],[28.3173,2.5766,807.577],[28.3219,2.577,799.485],[28.3282,2.5819,804.5305],[28.3355,2.5833,819.6646],[28.3433,2.5659,820.814],[28.3547,2.5591,826.3567],[28.3739,2.5568,805.3765],[28.3713,2.54,812.3912],[28.3636,2.5271,797.8613],[28.3544,2.4838,815.8176],[28.3336,2.4627,807.305],[28.3491,2.4631,812.243],[28.3547,2.4659,810.6442],[28.3654,2.4648,816.0998],[28.3685,2.4591,821.5673],[28.3667,2.4503,814.1987],[28.3479,2.4167,809.4151],[28.3491,2.4043,790.1936],[28.3542,2.3929,795.3907],[28.3477,2.3639,811.5029],[28.3618,2.3542,821.8405],[28.3637,2.3408,824.6824],[28.3335,2.342,815.3809],[28.3221,2.3352,796.9161],[28.3491,2.3212,797.8337],[28.3789,2.2964,841.6946],[28.3996,2.2516,852.4357],[28.41,2.2519,864.4522],[28.4254,2.2607,842.1147],[28.4404,2.266,841.4324],[28.4606,2.2776,832.6957],[28.5806,2.334,814.561],[28.5879,2.3264,832.7787],[28.5902,2.3126,814.2978],[28.5966,2.3008,814.6727],[28.6012,2.2965,822.808],[28.6014,2.2884,827.3251],[28.6046,2.2847,815.9014],[28.6094,2.2691,825.6292],[28.6142,2.2698,824.496],[28.6197,2.2647,828.8828],[28.6251,2.2656,828.9024],[28.6281,2.2628,834.163],[28.6361,2.2414,853.9544],[28.6395,2.2405,851.6827],[28.6464,2.2435,875.3593],[28.6528,2.2391,887.257],[28.6713,2.2322,896.0017],[28.6812,2.2315,915.124],[28.6901,2.226,917.2314],[28.6956,2.2248,896.0009],[28.6972,2.2186,921.0795],[28.7143,2.211,907.972],[28.7187,2.2041,914.9843],[28.7284,2.2057,936.8472],[28.7388,2.205,931.0337],[28.7512,2.1971,921.5748],[28.7648,2.1818,936.4199],[28.7749,2.1946,928.8294],[28.7765,2.2011,923.819],[28.7726,2.2062,915.0685],[28.7797,2.217,889.2161],[28.7774,2.2206,895.658],[28.777,2.2266,880.5298],[28.7699,2.2324,881.7714],[28.7592,2.2623,859.4013],[28.753,2.2676,876.4733],[28.7507,2.2814,863.2078],[28.7477,2.2835,864.0663],[28.7413,2.2839,853.6764],[28.7379,2.2943,856.4935],[28.7231,2.3072,845.5051],[28.7192,2.3155,858.4396],[28.713,2.3219,843.4385],[28.7093,2.3307,844.4733],[28.7094,2.3362,835.1514],[28.7153,2.3337,841.6555],[28.7233,2.3254,839.7584],[28.7359,2.3196,845.9064],[28.7457,2.3129,845.3951],[28.753,2.3037,842.5203],[28.7654,2.309,863.9879],[28.7745,2.3023,870.8842],[28.7818,2.3019,882.7556],[28.799,2.3075,902.0755],[28.8073,2.3053,927.2908],[28.819,2.2996,883.7707],[28.8419,2.2959,873.4083],[28.8571,2.2902,903.1877],[28.9223,2.2806,958.6339],[28.9688,2.2705,960.812],[28.9776,2.2856,932.9651],[28.9769,2.2911,955.8552],[28.9799,2.2941,958.565],[28.9881,2.324,957.7344],[28.9939,2.336,900.6302],[29.0005,2.3436,906.4126],[28.9971,2.3479,908.2484],[29.0005,2.3571,883.7697],[28.9982,2.365,903.994],[28.9875,2.3728,895.3236],[28.9864,2.3891,898.103],[28.9781,2.3972,903.5396],[28.9722,2.4138,856.9679],[28.9688,2.4168,889.1421],[28.9674,2.4232,850.0005],[28.9697,2.4292,851.7757],[28.9745,2.4239,844.9424],[28.9825,2.4204,866.0857],[28.9903,2.4066,870.0231],[28.9987,2.4078,878.6822],[29.0052,2.4137,869.2507],[29.0118,2.4146,875.7526],[29.0157,2.4192,877.0219],[29.0191,2.4188,874.7382],[29.0232,2.4096,875.7376],[29.0278,2.4063,898.6741],[29.0317,2.3948,888.6516],[29.0425,2.4005,908.6399],[29.0439,2.4041,894.511],[29.0399,2.4218,908.4283],[29.053,2.427,950.9963],[29.0658,2.4359,915.9659],[29.0721,2.4372,963.2004],[29.0824,2.4294,936.7487],[29.0955,2.4258,966.9075],[29.0867,2.4436,966.8942],[29.0938,2.452,980.0279],[29.1104,2.4456,978.6589],[29.1195,2.4547,965.8254],[29.1272,2.4568,959.5473],[29.1348,2.4547,977.2717],[29.1479,2.4447,959.7464],[29.1663,2.412,991.8878],[29.1752,2.4013,949.9059],[29.1908,2.4367,958.394],[29.1993,2.4444,955.7368],[29.2043,2.4557,969.9646],[29.2053,2.4869,946.2098],[29.203,2.5295,927.154],[29.2086,2.5379,925.4205],[29.2292,2.5437,943.4252],[29.2354,2.5242,931.7539],[29.2559,2.4924,978.968],[29.263,2.473,943.4598],[29.2687,2.4661,963.1459],[29.2724,2.4436,977.558],[29.284,2.4419,975.2106],[29.2984,2.4343,964.0472],[29.3016,2.4244,985.0213],[29.3103,2.418,982.9219],[29.3151,2.418,992.6984],[29.3178,2.4198,993.4255],[29.3236,2.418,1004.3419],[29.3279,2.4138,1008.303],[29.3336,2.414,1009.618],[29.3435,2.4172,1012.474],[29.3485,2.4154,994.7416],[29.3679,2.4177,981.1642],[29.383,2.4209,986.7143],[29.3892,2.425,988.0046],[29.4103,2.4236,991.3546],[29.4167,2.427,1002.995],[29.4215,2.4353,998.1042],[29.4261,2.4364,987.7211],[29.4316,2.4337,1059.7698],[29.4439,2.4362,1000.6495],[29.4529,2.4524,1068.8317],[29.4794,2.4601,1087.6018],[29.4778,2.4654,1113.9341],[29.4792,2.4674,1085.8828],[29.4938,2.472,1084.6359],[29.5071,2.4796,1037.9856],[29.5279,2.4828,1086.814],[29.549,2.4929,1052.6885],[29.5639,2.4921,1086.3051],[29.571,2.4951,1084.6174],[29.5744,2.4949,1069.5332],[29.5815,2.4889,1142.2795],[29.5872,2.4882,1168.8414],[29.6007,2.4884,1105.2448],[29.6137,2.4934,1066.7859],[29.6215,2.4937,1100.2822],[29.6316,2.4913,1112.2596],[29.6338,2.4735,1170.0428],[29.6399,2.46,1159.6176],[29.65,2.4253,1184.3625],[29.6482,2.42,1180.2483],[29.6474,2.394,1134.7537],[29.6424,2.3843,1147.0598],[29.6392,2.3735,1138.6201],[29.6394,2.3638,1137.3807],[29.6476,2.3331,1142.7767],[29.6412,2.3246,1105.4258],[29.6432,2.3147,1133.7341],[29.6604,2.3018,1116.6042],[29.6651,2.2862,1132.724],[29.6595,2.2799,1141.311],[29.6455,2.2707,1117.0264],[29.6254,2.2793,1160.1993],[29.6074,2.2837,1083.2563],[29.6059,2.2759,1113.4838],[29.6212,2.2141,1131.5363],[29.6101,2.2106,1086.262],[29.61,2.2007,1084.5244],[29.6133,2.1894,1125.1864],[29.623,2.1872,1134.4895],[29.656,2.1894,1112.4144],[29.6633,2.1942,1106.0559],[29.6706,2.1931,1105.6387],[29.6745,2.1949,1103.0278],[29.6807,2.1921,1095.2708],[29.6903,2.1976,1104.4224],[29.6956,2.1948,1093.5206],[29.7027,2.1951,1100.578],[29.717,2.1895,1062.7002],[29.7346,2.1731,1059.6187],[29.7413,2.1715,1046.1545],[29.7477,2.1678,1047.4015],[29.765,2.1526,1044.3608],[29.7716,2.1445,1056.0366],[29.7755,2.1312,1057.9657],[29.7837,2.1252,1074.505],[29.7864,2.1146,1063.0592],[29.7949,2.1026,1039.3612],[29.8013,2.0992,1049.4788],[29.8088,2.0916,1058.5332],[29.8204,2.0858,1048.0938],[29.8337,2.083,1031.2178],[29.8399,2.0782,1036.6036],[29.8481,2.0786,1091.6575],[29.8527,2.0767,1065.3586],[29.8687,2.0804,1027.5732],[29.8787,2.0735,1028.3925],[29.8821,2.0684,1043.5861],[29.886,2.0672,1036.3806],[29.8951,2.0557,1023.6197],[29.8972,2.0562,1022.7661],[29.8977,2.0661,1061.3757],[29.9018,2.073,1108.8059],[29.8968,2.0888,1056.33],[29.8991,2.096,1059.3174],[29.9037,2.0994,1040.0652],[29.9035,2.1095,1033.0643],[29.8991,2.1123,1050.1003],[29.8905,2.1105,1035.176],[29.8838,2.1149,1051.5145],[29.8797,2.1209,1050.5317],[29.877,2.1218,1024.6001],[29.8713,2.1197,1068.2285],[29.8699,2.123,1052.0776],[29.8729,2.1391,1052.8257],[29.869,2.1467,1027.6833],[29.8656,2.1494,1039.9741],[29.8615,2.1499,1035.3972],[29.8514,2.1483,1113.5061],[29.8706,2.1837,1071.6659],[29.8734,2.1759,1034.0308],[29.875,2.1756,1034.0308],[29.8792,2.186,1046.1969],[29.884,2.1844,1064.0254],[29.8897,2.1866,1054.5056],[29.8984,2.1859,1050.4215],[29.9039,2.1885,1061.2579],[29.9105,2.1848,1046.6407],[29.9144,2.1866,1047.9299],[29.9165,2.19,1055.4568],[29.9158,2.1967,1073.7781],[29.9174,2.2055,1056.25],[29.9215,2.2121,1057.2284],[29.9204,2.2174,1044.5266],[29.9213,2.2222,1055.6085],[29.9248,2.2266,1055.4301],[29.9257,2.2379,1062.3966],[29.9298,2.2498,1078.0715],[29.9367,2.2517,1067.3595],[29.945,2.2606,1089.2092],[29.9468,2.2675,1076.4702],[29.9509,2.2698,1092.679],[29.9571,2.2574,1062.5259],[29.9639,2.2486,1074.3486],[29.9644,2.2456,1066.6145],[29.9666,2.2447,1071.3923],[29.9696,2.2468,1102.8287],[29.9694,2.2507,1101.5492],[29.9712,2.2514,1081.3679],[29.9751,2.247,1080.885],[29.9824,2.2488,1107.056],[29.9886,2.2654,1085.0333],[29.9875,2.2713,1103.7469],[29.9893,2.2734,1111.9626],[29.9948,2.2748,1110.7915],[29.9978,2.2794,1108.0125],[30.0,2.2749,1081.7793],[30.0138,2.2768,1100.452],[30.0273,2.283,1118.6663],[30.0304,2.3046,1121.0123],[30.0333,2.3136,1110.0968],[30.043,2.3287,1175.2617],[30.0536,2.3658,1150.0406],[30.0572,2.3689,1149.5315],[30.0609,2.3685,1155.1677],[30.0666,2.3625,1159.4437],[30.0722,2.3603,1183.0493],[30.0792,2.3608,1211.0829],[30.0982,2.3673,1190.7157],[30.1067,2.366,1169.071],[30.1146,2.3714,1173.2148],[30.1215,2.3721,1186.3213],[30.1256,2.3699,1191.9297],[30.127,2.3981,1220.8164],[30.1315,2.4321,1220.6865],[30.1355,2.4831,1227.0657],[30.144,2.5028,1195.4746],[30.1454,2.5072,1163.9891],[30.1444,2.5115,1165.6105],[30.1497,2.5127,1189.6663],[30.1548,2.5211,1168.8177],[30.1648,2.5306,1187.985],[30.1765,2.5467,1198.1118],[30.1871,2.5558,1192.3312],[30.1942,2.5728,1259.2427],[30.1847,2.5843,1289.046],[30.149,2.5879,1253.9336],[30.145,2.6038,1284.3822],[30.1449,2.6148,1254.5364],[30.1473,2.6197,1279.6161],[30.1441,2.6303,1257.8188],[30.0822,2.6211,1283.9849],[30.0636,2.6266,1270.7585],[30.0563,2.6397,1194.1667],[30.0454,2.6878,1169.4626],[30.012,2.7091,1126.2766],[29.9972,2.7197,1071.0176],[29.9899,2.7276,1193.5106],[29.9849,2.7341,1077.8525],[29.9826,2.7639,1100.9326],[29.9505,2.7697,1164.3943],[29.9406,2.7841,1106.948],[29.9456,2.7957,1146.9503],[29.9581,2.8071,1082.3923],[29.9705,2.825,1081.3324],[29.9706,2.8509,1128.6102],[29.9682,2.86,1034.2344],[29.9608,2.8666,1019.64],[29.8903,2.8678,1133.2961],[29.8271,2.8521,1032.9518],[29.816,2.8523,1053.4287],[29.793,2.8399,994.213],[29.7885,2.8445,1024.5554],[29.7745,2.8452,987.7923],[29.7695,2.8473,999.2097],[29.7578,2.8639,1034.8793],[29.7496,2.8853,1012.7124],[29.7403,2.9012,971.8094],[29.7362,2.9045,978.6275],[29.7307,2.9158,926.7811],[29.7337,2.9201,936.76],[29.7342,2.9252,926.5106],[29.728,2.9351,939.0457],[29.7228,2.9567,923.2734],[29.7212,2.9728,942.1362],[29.7242,2.9816,921.4042],[29.7183,2.9929,913.2907],[29.7174,3.0053,902.9411],[29.7133,3.0141,884.2485],[29.705,3.021,990.311],[29.703,3.0263,1009.1188],[29.6989,3.0281,895.2784],[29.6877,3.0417,860.5906],[29.6803,3.0443,850.6875],[29.6794,3.0509,856.1041],[29.6744,3.0551,859.0624],[29.6724,3.0592,847.9915],[29.6731,3.0645,831.9204],[29.6758,3.0652,828.384],[29.6804,3.0636,833.0786],[29.6806,3.0671,817.9248],[29.6836,3.0705,830.6826],[29.6827,3.0763,818.4869],[29.6925,3.076,826.8308],[29.7097,3.0714,816.3716],[29.7232,3.0709,824.5909],[29.7257,3.0727,817.05],[29.7285,3.0723,832.4055],[29.7317,3.07,843.4073],[29.7372,3.0693,876.5833],[29.7406,3.0663,823.5429],[29.7463,3.0667,837.4587],[29.7498,3.0718,842.6061],[29.7553,3.0722,833.9659],[29.7612,3.0681,830.4306],[29.7733,3.0667,848.9875],[29.7795,3.0611,848.3941],[29.7847,3.0526,842.1675],[29.7985,3.0376,854.2351],[29.8133,3.0251,889.8434],[29.8257,3.0203,874.1912],[29.8325,3.021,968.1567],[29.8433,3.0166,899.6613],[29.8515,3.0147,888.3433],[29.857,3.0154,963.7305],[29.8648,3.0078,902.826],[29.8673,3.0073,895.4556],[29.8714,3.0101,914.1855],[29.8755,3.0094,969.1409],[29.8824,3.0048,925.4418],[29.8943,3.0038,921.8339],[29.8961,3.002,925.7194],[29.8977,2.9941,917.7622],[29.9078,2.984,915.2849],[29.9181,2.9826,908.64],[29.9229,2.9856,932.6897],[29.9252,2.9851,943.5543],[29.9316,2.9752,917.7059],[29.9359,2.9752,924.7842],[29.9391,2.971,917.5284],[29.9457,2.9706,923.7436],[29.9498,2.9659,929.9072],[29.9542,2.9524,927.7188],[29.9647,2.9561,947.1733],[29.9671,2.9587,943.2401],[29.9706,2.9638,949.6597],[29.9697,2.9738,982.2479],[29.9581,3.0015,1053.1716],[29.9535,3.0171,1165.9747],[29.9501,3.0217,1145.2346],[29.8853,3.0328,1070.2861],[29.8617,3.0385,960.0656],[29.8484,3.042,932.6159],[29.8274,3.0514,977.4648],[29.8105,3.0653,901.5807],[29.7979,3.0772,886.3373],[29.7871,3.0903,854.2701],[29.76,3.1141,1050.0574],[29.7443,3.1402,951.2311],[29.7246,3.149,931.8382],[29.7026,3.1478,899.0131],[29.6849,3.1355,895.8053],[29.6611,3.1594,902.0038],[29.6664,3.1638,904.2831],[29.6707,3.1766,889.4059],[29.6762,3.181,880.0076],[29.6788,3.1858,881.4659],[29.6838,3.1888,875.9225],[29.687,3.1957,883.7114],[29.6815,3.2026,873.5475],[29.679,3.2118,862.9309],[29.6843,3.224,867.0508],[29.6992,3.2177,876.8182],[29.7125,3.2084,883.8777],[29.722,3.1985,917.881],[29.7366,3.2105,912.4818],[29.7395,3.2208,911.1837],[29.7464,3.231,901.6082],[29.7432,3.238,867.7199],[29.7478,3.2467,879.5023],[29.7483,3.2511,868.4624],[29.7464,3.2534,869.7289],[29.7327,3.2525,859.5187],[29.732,3.2541,855.2727],[29.7343,3.2587,859.2712],[29.73,3.2638,857.5256],[29.7256,3.2647,853.8094],[29.7215,3.2709,868.9458],[29.7146,3.2721,858.6646],[29.7137,3.2769,858.2515],[29.7057,3.282,852.4226],[29.7037,3.2859,837.3211],[29.706,3.2903,842.1296],[29.711,3.2921,835.6082],[29.7126,3.3008,841.3985],[29.7058,3.3131,845.9711],[29.6969,3.3214,836.2542],[29.6909,3.3253,827.9391],[29.6838,3.3251,841.9978],[29.6822,3.3228,835.3839],[29.6859,3.3168,829.2604],[29.6842,3.3138,832.9905],[29.6769,3.3161,838.3816],[29.6733,3.3157,833.9204],[29.6712,3.3122,831.0614],[29.6721,3.3083,835.8937],[29.67,3.306,834.1016],[29.6611,3.3053,833.3477],[29.6545,3.2964,824.0042],[29.6508,3.2947,825.7923],[29.6499,3.2927,827.0126],[29.6581,3.2869,835.9099],[29.6666,3.2857,850.0433],[29.6686,3.283,836.1115],[29.6634,3.2798,828.5801],[29.6638,3.2763,827.6641],[29.6695,3.2694,836.2991],[29.6675,3.2666,823.0895],[29.6626,3.2669,828.9186],[29.6597,3.2692,829.182],[29.6569,3.2766,828.0781],[29.6535,3.2784,836.9293],[29.6496,3.2775,829.2986],[29.6473,3.2731,825.8482],[29.6475,3.2692,833.6202],[29.6409,3.2697,831.3535],[29.6326,3.2635,831.5491],[29.6306,3.2653,838.6486],[29.6322,3.2706,845.3167],[29.6308,3.2745,849.1748],[29.6276,3.2766,835.8238],[29.6242,3.2762,829.4426],[29.618,3.2835,845.2424],[29.6132,3.2838,837.0977],[29.6061,3.2769,817.9579],[29.5963,3.278,828.7234],[29.5919,3.281,839.4054],[29.5883,3.2857,832.8771],[29.5848,3.2962,826.1458],[29.5798,3.3036,820.993],[29.5734,3.3048,828.8892],[29.5714,3.3092,817.9166],[29.5737,3.3172,814.1309],[29.5759,3.319,815.175],[29.5753,3.3324,819.1354],[29.5719,3.3365,828.233],[29.5684,3.346,824.1496],[29.5618,3.3524,823.7648],[29.5572,3.3534,815.6253],[29.5545,3.3488,814.4045],[29.5515,3.349,817.0322],[29.5488,3.3568,830.4376],[29.5456,3.3578,835.4472],[29.5439,3.3543,819.1492],[29.5462,3.3481,819.4317],[29.5439,3.3451,812.1382],[29.5354,3.341,820.6845],[29.5249,3.341,839.5961],[29.5206,3.3431,813.7525],[29.5204,3.3502,826.0965],[29.5169,3.3525,813.5632],[29.4904,3.353,816.3142],[29.4743,3.3517,818.1911],[29.4601,3.3536,815.0141],[29.4494,3.3632,811.482],[29.4274,3.3711,802.984],[29.4231,3.3699,794.8991],[29.4187,3.3653,787.8412],[29.4114,3.3653,794.3307],[29.4024,3.3589,783.9009],[29.3969,3.358,787.967],[29.3759,3.3725,789.0447],[29.3711,3.3776,775.4711],[29.366,3.3792,775.9282],[29.3599,3.3776,770.721],[29.3539,3.3785,767.6405],[29.3427,3.3882,770.6769],[29.3253,3.3896,755.3949],[29.315,3.3929,754.1569],[29.3061,3.4074,754.5283],[29.2999,3.4088,759.3079],[29.2972,3.4115,755.3165],[29.294,3.4201,750.7727],[29.283,3.4293,746.5594],[29.2818,3.4325,748.8467],[29.2667,3.4397,746.863],[29.2658,3.4452,739.6398],[29.2594,3.4482,738.1097],[29.2608,3.4521,744.3568],[29.2583,3.4539,750.4992],[29.2525,3.4523,741.4371],[29.2459,3.4443,738.2708],[29.234,3.4466,764.1071],[29.2289,3.445,736.6854],[29.225,3.4413,728.3884],[29.2175,3.443,732.1681],[29.2154,3.4363,725.7781],[29.2129,3.4338,727.8149],[29.206,3.4446,727.5366],[29.2012,3.4473,729.2666],[29.1909,3.4493,725.951],[29.1886,3.4531,733.8854],[29.188,3.4596,740.704],[29.1838,3.4623,733.6846],[29.18,3.4688,738.8621],[29.1715,3.4713,726.4958],[29.158,3.484,754.6704],[29.1488,3.4748,730.5582],[29.1465,3.47,737.2246],[29.1433,3.4684,739.2429],[29.1392,3.4693,737.4391],[29.1215,3.4502,748.452],[29.1208,3.4456,750.7142],[29.1247,3.4355,759.1183],[29.1261,3.4237,786.8421],[29.13,3.42,782.29],[29.1288,3.4065,793.907],[29.1341,3.3972,810.69],[29.1318,3.3931,794.7936],[29.1274,3.3899,802.558],[29.1253,3.3767,838.0781],[29.1111,3.3568,866.2353],[29.0678,3.3079,877.6431],[29.0459,3.2796,897.9352],[29.0224,3.2593,864.886],[28.9891,3.2457,796.4067],[28.9748,3.2336,773.1991],[28.9621,3.2128,789.8862],[28.9595,3.2017,811.5056],[28.9598,3.1848,788.4175],[28.9532,3.1689,796.9175],[28.9477,3.1693,797.5963],[28.9452,3.168,802.4283],[28.9415,3.1523,798.8575],[28.9296,3.1424,799.6441],[28.9266,3.1364,800.5618],[28.9135,3.1217,805.516],[28.9067,3.118,799.9542],[28.8955,3.1197,810.5715],[28.89,3.1183,802.5992],[28.8813,3.1121,816.277],[28.879,3.1052,826.5301],[28.8803,3.0803,832.3625],[28.8796,3.0746,838.8462],[28.8769,3.0702,832.1377],[28.8677,3.0656,845.7686],[28.8561,3.0499,826.3342],[28.8457,3.0423,834.1029],[28.8046,3.0448,813.5904],[28.7935,3.0512,790.4792],[28.7894,3.0468,793.8646],[28.7647,3.0493,789.4744],[28.756,3.0461,802.4922],[28.7441,3.0261,800.3538],[28.7486,3.0105,798.5482],[28.7464,3.0003,796.2811],[28.75,2.9879,787.2459],[28.7502,2.9778,831.8866],[28.7476,2.9677,795.9524],[28.7351,2.9435,810.8071],[28.7117,2.9325,804.6188],[28.7104,2.9228,810.8436],[28.7078,2.9175,830.9449],[28.7042,2.9143,787.804],[28.7053,2.9074,789.6042],[28.6978,2.903,800.1414],[28.6948,2.8901,813.2863],[28.6914,2.8871,788.783],[28.6918,2.8832,795.5252],[28.6955,2.8807,795.3918],[28.7069,2.8802,797.8605],[28.7099,2.8784,796.4355],[28.7115,2.8719,818.1431],[28.7094,2.8602,793.068],[28.7037,2.851,787.0048],[28.684,2.8515,818.9275],[28.6819,2.8476,787.6767],[28.6813,2.8386,806.0953],[28.6765,2.8381,800.5358],[28.6698,2.8418,784.8872],[28.6691,2.8443,794.4564],[28.6723,2.8515,792.7291],[28.668,2.8591,813.5911],[28.6584,2.8628,775.2902],[28.6529,2.8727,775.3015],[28.6456,2.8727,778.2377],[28.6348,2.8568,802.7188],[28.6268,2.8563,795.7713],[28.6236,2.8543,792.9042],[28.6112,2.8598,788.4326],[28.6003,2.8586,771.3619],[28.5996,2.8566,794.487],[28.6067,2.8494,810.6826],[28.6078,2.8458,816.2968],[28.6069,2.843,817.3165],[28.5975,2.8407,843.5974],[28.5929,2.8366,835.3155],[28.5883,2.8372,795.1477],[28.5861,2.8343,781.7133],[28.5877,2.8299,802.7805],[28.581,2.8211,783.9059],[28.5789,2.8138,802.7597],[28.5696,2.8115,788.1792],[28.5659,2.8007,836.2801],[28.5638,2.8018,849.2807],[28.559,2.8126,794.234],[28.5613,2.8175,784.0994],[28.5613,2.8345,780.7672],[28.5666,2.8426,794.4582],[28.5533,2.8554,788.8514],[28.5547,2.8653,791.2214],[28.5492,2.8872,781.001],[28.5474,2.8877,776.1854],[28.5449,2.887,776.3408],[28.5419,2.8831,788.7708],[28.5302,2.8799,781.4019],[28.5218,2.8801,773.7647],[28.5195,2.8785,791.6178],[28.5192,2.8753,826.659],[28.5266,2.8642,786.3657],[28.5314,2.861,779.3788],[28.5375,2.8373,823.9478],[28.5357,2.8336,915.481],[28.5261,2.8327,820.6296],[28.5206,2.8292,784.8868],[28.5124,2.8196,812.9103],[28.508,2.8198,806.1438],[28.503,2.8251,776.6606]],
[[29.5742,3.0882,806.4696],[29.5801,3.0806,799.0613],[29.5877,3.089,815.9858],[29.5898,3.088,818.8558],[29.5987,3.0752,812.9579],[29.6098,3.0467,888.4005],[29.6026,3.0295,987.7983],[29.5893,3.0109,951.3595],[29.5745,3.0002,940.4519],[29.5526,2.9981,974.5527],[29.5219,3.0083,961.3891],[29.4995,3.0402,998.5786],[29.4982,3.0692,830.3881],[29.5068,3.087,801.8941],[29.5316,3.1032,787.4938],[29.536,3.1041,792.1039],[29.542,3.108,786.8126],[29.5474,3.1083,788.6974],[29.5671,3.102,796.2969],[29.5687,3.1002,793.4122],[29.5673,3.0923,802.9651],[29.5696,3.0884,804.568],[29.5742,3.0882,806.4696]]]]}
,"properties": {"GID_2": "COD.5.10_1","GID_0": "COD","country": "DemocraticRepublicoftheCongo","GID_1": "COD.5_1","province": "Haut-Uele","NL_NAME_1": "NA","county": "Watsa","VARNAME_2": "NA","NL_NAME_2": "NA","TYPE_2": "Territoire","ENGTYPE_2": "Territory","CC_2": "NA","HASC_2": "NA","name": "Watsa.county","area_km2": 16388.47,"hist_schema_id": "Elevation0-9000","hist_area_km2": {"725": 31.68,"750": 190.15,"775": 280.66,"800": 983.09,"825": 2963.55,"850": 2695.97,"875": 1273.81,"900": 799.45,"925": 861.33,"950": 675.8,"975": 492.43,"1000": 449.13,"1025": 414.22,"1050": 427.16,"1075": 562.07,"1100": 586.98,"1125": 589.39,"1150": 658.29,"1175": 607.7,"1200": 409.28,"1225": 244.36,"1250": 88.54,"1275": 64.24,"1300": 25.37,"1325": 8.18,"1350": 3.41,"1375": 1.4,"1400": 0.61,"1425": 0.21}}}