{"type": "Feature","bbox": [18.9733,-7.3231,19.0787,-7.2456],"geometry": {"type": "MultiPolygon","coordinates": [[[[19.0318,-7.3231,1034.9291],[19.05,-7.3174,1026.214],[19.0701,-7.304,1025.0376],[19.0787,-7.2868,1022.3386],[19.0768,-7.2619,1018.6025],[19.0663,-7.2504,948.1794],[19.05,-7.2456,1012.1512],[19.0241,-7.2466,1025.3394],[19.0049,-7.2542,1032.0156],[18.9877,-7.2638,984.5898],[18.9733,-7.2839,1044.0911],[18.98,-7.3059,973.2041],[19.003,-7.3193,1046.3191],[19.0155,-7.3222,1044.3679],[19.0318,-7.3231,1034.9291]]]]}
,"properties": {"GID_2": "COD.12.3_1","GID_0": "COD","country": "DemocraticRepublicoftheCongo","GID_1": "COD.12_1","province": "Kwango","NL_NAME_1": "NA","county": "Kahemba(ville)","VARNAME_2": "NA","NL_NAME_2": "NA","TYPE_2": "Ville","ENGTYPE_2": "Town","CC_2": "NA","HASC_2": "NA","name": "Kahemba(ville).county","area_km2": 76.32187,"hist_schema_id": "Elevation0-9000","hist_area_km2": {"950": 6.01513,"975": 10.51558,"1000": 9.98988,"1025": 42.48262,"1050": 7.31865}}}