{"type": "Feature","bbox": [24.1075,-11.7393,25.9473,-9.9806],"geometry": {"type": "MultiPolygon","coordinates": [[[[25.9473,-10.9519,1479.6945],[25.9437,-10.93,1461.1785],[25.9407,-10.9211,1454.3673],[25.9393,-10.9055,1447.9277],[25.9328,-10.8699,1372.6903],[25.9261,-10.8532,1330.2264],[25.9244,-10.8358,1282.0614],[25.9184,-10.8162,1278.0781],[25.9163,-10.8002,1304.4321],[25.9075,-10.7899,1347.005],[25.9009,-10.7865,1335.5654],[25.8975,-10.7821,1345.5681],[25.9037,-10.7528,1370.9034],[25.9036,-10.7353,1404.137],[25.8883,-10.7135,1415.1628],[25.8888,-10.7079,1421.3738],[25.9093,-10.6849,1442.2238],[25.9118,-10.6715,1459.5131],[25.8974,-10.6445,1433.8157],[25.8776,-10.6148,1381.7639],[25.8669,-10.5776,1424.1279],[25.8609,-10.547,1439.4027],[25.8486,-10.5225,1375.7041],[25.8482,-10.5172,1407.8796],[25.8558,-10.5003,1343.6395],[25.8532,-10.4803,1407.2385],[25.8535,-10.466,1375.004],[25.8468,-10.4486,1409.5269],[25.8486,-10.4419,1433.0287],[25.8454,-10.4298,1430.9663],[25.8481,-10.4166,1492.1621],[25.8421,-10.3847,1599.0713],[25.836,-10.3772,1607.7069],[25.8333,-10.3694,1617.7866],[25.824,-10.3622,1620.7317],[25.8218,-10.3553,1625.1344],[25.8194,-10.3528,1634.3518],[25.8101,-10.3504,1628.0403],[25.8024,-10.3454,1638.5903],[25.797,-10.3441,1644.5129],[25.7932,-10.3379,1651.9529],[25.7905,-10.3151,1648.9548],[25.7912,-10.3018,1646.4266],[25.7956,-10.2879,1642.4584],[25.8022,-10.2776,1653.0907],[25.8041,-10.2689,1658.343],[25.8023,-10.2591,1665.1989],[25.7887,-10.2401,1669.2207],[25.7875,-10.232,1659.5747],[25.7792,-10.2237,1679.7981],[25.7706,-10.2177,1680.6736],[25.7612,-10.2167,1665.7183],[25.7428,-10.2238,1641.9844],[25.7146,-10.2292,1652.9468],[25.7063,-10.2292,1646.2656],[25.7007,-10.2274,1652.959],[25.697,-10.2288,1656.041],[25.692,-10.2392,1679.949],[25.6784,-10.2572,1694.2275],[25.6674,-10.2589,1700.6655],[25.6473,-10.2694,1651.2136],[25.6494,-10.265,1679.9634],[25.6538,-10.2626,1690.0809],[25.6582,-10.2477,1688.4076],[25.6571,-10.2329,1654.1503],[25.6581,-10.2171,1619.5608],[25.6612,-10.2,1551.4291],[25.6595,-10.1941,1551.1814],[25.6548,-10.1888,1490.3395],[25.6445,-10.1816,1431.7058],[25.6394,-10.1844,1424.4099],[25.6315,-10.1813,1389.6055],[25.6278,-10.1859,1376.6255],[25.6211,-10.1831,1373.0021],[25.6171,-10.1839,1370.6184],[25.6064,-10.1978,1380.7573],[25.6007,-10.2126,1479.1769],[25.5925,-10.2226,1338.3634],[25.5893,-10.2311,1367.4946],[25.5854,-10.2296,1324.5912],[25.5801,-10.2347,1288.8618],[25.5673,-10.2346,1269.943],[25.559,-10.2379,1346.5797],[25.5501,-10.2355,1217.525],[25.546,-10.2399,1223.1318],[25.5409,-10.2401,1277.2097],[25.5297,-10.237,1325.505],[25.5131,-10.2239,1330.563],[25.4924,-10.22,1273.8557],[25.4842,-10.2159,1170.6252],[25.4732,-10.2057,1113.2072],[25.4717,-10.1958,1125.3738],[25.4742,-10.19,1125.8367],[25.4715,-10.1781,1125.5413],[25.4696,-10.1756,1038.1211],[25.4449,-10.1623,966.2097],[25.4393,-10.1637,946.7471],[25.4238,-10.1629,865.4995],[25.4227,-10.168,962.8351],[25.4154,-10.1814,865.7569],[25.4099,-10.1872,923.0063],[25.4004,-10.193,892.7693],[25.3998,-10.2027,874.0417],[25.4015,-10.2073,863.2054],[25.4106,-10.2123,883.9193],[25.4166,-10.2104,903.5491],[25.4183,-10.2152,904.4907],[25.4172,-10.2258,898.2739],[25.4184,-10.231,919.0571],[25.4308,-10.2311,945.5576],[25.4368,-10.2364,1190.7019],[25.4417,-10.2377,1041.0413],[25.4446,-10.2418,978.9279],[25.4492,-10.2448,1040.2057],[25.451,-10.2544,1001.1262],[25.4543,-10.2587,1022.7166],[25.4537,-10.2705,1157.0071],[25.4593,-10.2773,1023.6415],[25.4598,-10.281,1049.9287],[25.4558,-10.2918,1199.2795],[25.4374,-10.312,1025.5463],[25.4201,-10.3276,1102.248],[25.4156,-10.3359,1107.8984],[25.4143,-10.3442,1124.3843],[25.4013,-10.3453,1097.1066],[25.3877,-10.3437,1058.642],[25.3789,-10.3457,1051.0746],[25.3591,-10.3599,1044.3563],[25.3514,-10.354,1040.8467],[25.334,-10.3563,1040.7822],[25.3294,-10.3597,1041.6584],[25.3185,-10.3596,1019.3845],[25.3071,-10.3551,984.6448],[25.3028,-10.3513,934.8113],[25.2991,-10.3449,921.6763],[25.2999,-10.3363,938.8624],[25.2935,-10.3239,951.122],[25.2876,-10.3203,985.8813],[25.2615,-10.3157,1076.5685],[25.2519,-10.3044,1149.8831],[25.2318,-10.2938,1126.7559],[25.2236,-10.2934,1115.5238],[25.2118,-10.2992,1100.6182],[25.1988,-10.2989,1090.9961],[25.1916,-10.3026,1088.0851],[25.1762,-10.3009,1089.975],[25.1659,-10.2819,1105.5486],[25.1641,-10.2675,1093.8796],[25.1656,-10.2548,1072.9797],[25.1646,-10.2502,1062.9042],[25.1708,-10.2359,1053.1121],[25.1693,-10.232,1046.658],[25.1464,-10.2127,1019.2726],[25.1338,-10.2043,1014.355],[25.125,-10.2032,1003.6255],[25.1201,-10.2005,1004.515],[25.1149,-10.1927,1023.6631],[25.1063,-10.1896,999.4622],[25.095,-10.1786,1003.4312],[25.0958,-10.1575,1029.8197],[25.0945,-10.148,1041.3296],[25.0846,-10.1293,1000.1131],[25.0807,-10.1114,1008.8752],[25.0774,-10.1043,985.6339],[25.0788,-10.0997,977.534],[25.0698,-10.085,979.9895],[25.0563,-10.0734,961.6522],[25.0514,-10.0742,945.7127],[25.0387,-10.0805,975.3011],[25.0264,-10.0813,960.7171],[24.9961,-10.0951,998.9487],[24.9807,-10.1083,1021.3956],[24.9768,-10.1194,1014.7748],[24.943,-10.1283,1052.8258],[24.9303,-10.1299,1064.7009],[24.9244,-10.1282,1066.8083],[24.9164,-10.1213,1051.1077],[24.9039,-10.0957,1056.7264],[24.9011,-10.0825,1021.1381],[24.8882,-10.0633,968.8473],[24.8707,-10.0517,908.7992],[24.8555,-10.0387,900.9333],[24.8428,-10.0241,894.3575],[24.8352,-10.0224,892.5462],[24.8355,-10.0281,882.3866],[24.8439,-10.0361,912.2087],[24.8461,-10.0499,904.3942],[24.8436,-10.0605,892.4431],[24.8344,-10.0642,907.7716],[24.8302,-10.0681,903.292],[24.8229,-10.0809,902.1498],[24.8145,-10.0827,931.9535],[24.7804,-10.0653,902.1581],[24.7518,-10.0599,872.075],[24.7374,-10.0426,861.3194],[24.7302,-10.0386,865.0254],[24.7281,-10.0321,858.6094],[24.7227,-10.0264,859.321],[24.7217,-10.0177,854.7977],[24.7253,-10.0048,850.7277],[24.7148,-9.9936,874.3348],[24.712,-9.9927,873.4279],[24.7077,-10.0054,888.7094],[24.7036,-10.0121,908.477],[24.6973,-10.0167,915.3625],[24.6967,-10.0216,908.1761],[24.7007,-10.0344,904.3812],[24.6955,-10.0487,916.3438],[24.6929,-10.0508,917.0975],[24.6714,-10.0567,932.0934],[24.6443,-10.0585,959.1738],[24.6248,-10.0644,969.6428],[24.6078,-10.0769,966.2745],[24.5928,-10.0949,969.4617],[24.5826,-10.0982,977.95],[24.5761,-10.098,982.4169],[24.5712,-10.0918,993.0757],[24.559,-10.0649,1067.0118],[24.5425,-10.0436,1044.7738],[24.5329,-10.0342,1036.5061],[24.508,-10.0172,1055.8689],[24.4987,-10.008,1044.718],[24.4777,-9.9953,998.013],[24.4704,-9.9831,1000.4622],[24.4663,-9.9806,1000.2903],[24.463,-9.9815,974.2962],[24.4613,-9.9897,976.7078],[24.4555,-9.9968,1004.6232],[24.4496,-10.0154,1036.3575],[24.4415,-10.0247,1054.5625],[24.4362,-10.0346,1071.6011],[24.4271,-10.0424,1077.4645],[24.4239,-10.0487,1074.7926],[24.4146,-10.0601,1079.324],[24.4116,-10.0736,1069.7834],[24.4145,-10.1084,1065.6849],[24.4062,-10.0925,1059.3748],[24.3897,-10.0779,1046.1619],[24.3882,-10.0737,1040.0115],[24.3887,-10.0551,1055.385],[24.3829,-10.0432,1013.6564],[24.3745,-10.0364,1013.6685],[24.3717,-10.0279,1006.0915],[24.3735,-10.0198,984.2842],[24.3629,-9.9962,998.0444],[24.3622,-9.987,980.6603],[24.3596,-9.9833,964.6095],[24.3564,-9.9868,966.2642],[24.351,-9.9882,979.665],[24.3302,-9.9888,993.7686],[24.3251,-9.9921,988.8561],[24.3069,-10.0172,1025.1879],[24.2963,-10.0226,1024.1335],[24.2949,-10.0258,1017.3134],[24.2975,-10.0336,1041.0663],[24.292,-10.0451,1034.131],[24.2883,-10.041,1052.9869],[24.2822,-10.0379,1062.8754],[24.2791,-10.0329,1063.7539],[24.279,-10.0289,1051.1542],[24.2667,-10.0138,1075.0989],[24.264,-10.0063,1069.9318],[24.2515,-10.0029,1031.1565],[24.2269,-9.9929,1008.7543],[24.2183,-9.9948,1039.9348],[24.2058,-10.0047,1029.3794],[24.1839,-10.0025,999.9821],[24.1758,-10.0092,993.3008],[24.1642,-10.0143,1009.3791],[24.1559,-10.0146,1000.4197],[24.1435,-10.0094,1011.0332],[24.1373,-10.009,1010.9965],[24.1221,-10.0249,1001.1558],[24.1195,-10.0323,1003.0169],[24.1152,-10.036,1004.338],[24.1142,-10.0385,1026.2203],[24.1175,-10.0436,1083.967],[24.1394,-10.0552,1032.7727],[24.1417,-10.0602,1026.881],[24.1411,-10.0669,1024.3247],[24.143,-10.0752,1039.5967],[24.1421,-10.0832,1015.621],[24.1445,-10.0949,1020.4867],[24.1433,-10.0981,1025.2144],[24.1084,-10.1248,1048.2136],[24.1075,-10.1613,1062.1278],[24.1127,-10.1795,1043.7345],[24.119,-10.184,1050.3805],[24.1242,-10.1971,1046.9067],[24.1344,-10.2028,1050.9907],[24.1431,-10.2168,1102.7004],[24.1427,-10.2281,1123.6704],[24.1397,-10.2419,1068.6073],[24.1349,-10.2515,1063.8676],[24.1296,-10.2569,1061.0505],[24.1194,-10.2622,1064.4583],[24.1306,-10.2748,1089.2054],[24.1325,-10.2801,1085.4706],[24.1307,-10.2879,1084.8412],[24.1326,-10.2927,1109.2059],[24.1506,-10.3154,1084.6854],[24.1611,-10.3225,1110.2181],[24.1678,-10.3217,1104.3846],[24.1799,-10.3286,1134.6577],[24.2062,-10.3273,1174.9917],[24.2118,-10.3321,1171.2144],[24.2153,-10.3378,1167.381],[24.2151,-10.3447,1142.2778],[24.208,-10.3622,1170.147],[24.2135,-10.3717,1183.3207],[24.2405,-10.3702,1182.5834],[24.2452,-10.3781,1184.0237],[24.2471,-10.3899,1189.4453],[24.2591,-10.3875,1184.2306],[24.2668,-10.3808,1181.113],[24.2798,-10.3808,1171.9778],[24.2912,-10.3839,1163.4384],[24.2946,-10.3983,1149.5931],[24.2923,-10.419,1139.6348],[24.2926,-10.4364,1157.8779],[24.3075,-10.4522,1178.0105],[24.3106,-10.4582,1170.9314],[24.3077,-10.4792,1168.0525],[24.3077,-10.4941,1144.481],[24.3118,-10.5042,1121.4304],[24.3072,-10.5143,1135.6185],[24.3014,-10.5215,1124.8721],[24.3038,-10.5387,1126.3809],[24.3083,-10.55,1126.2737],[24.3118,-10.5511,1139.0081],[24.3151,-10.5598,1126.0077],[24.3147,-10.566,1125.9873],[24.3168,-10.5725,1154.5157],[24.3164,-10.5853,1131.1636],[24.3188,-10.5934,1131.9434],[24.3172,-10.5975,1129.0901],[24.3128,-10.6015,1128.0447],[24.3187,-10.6115,1169.1805],[24.3171,-10.6159,1147.8396],[24.3197,-10.6258,1130.0498],[24.3227,-10.6285,1129.832],[24.3292,-10.6269,1130.2698],[24.3304,-10.6299,1129.6375],[24.3281,-10.6349,1131.3751],[24.3328,-10.6423,1132.0753],[24.3424,-10.6503,1144.348],[24.3445,-10.6553,1131.3882],[24.344,-10.6762,1138.2687],[24.3491,-10.6728,1137.1992],[24.3517,-10.6783,1140.4797],[24.3489,-10.6856,1138.6597],[24.3595,-10.7008,1168.042],[24.3635,-10.7102,1171.2368],[24.364,-10.724,1178.1372],[24.359,-10.7431,1184.2328],[24.3654,-10.7515,1184.1311],[24.3689,-10.7515,1183.563],[24.3699,-10.7603,1183.5072],[24.3748,-10.7618,1187.9316],[24.379,-10.7689,1185.7747],[24.3813,-10.7694,1193.2955],[24.3841,-10.7728,1189.6702],[24.3902,-10.7744,1199.6326],[24.3951,-10.7785,1206.1525],[24.3982,-10.7845,1197.1106],[24.3979,-10.7872,1193.5068],[24.3945,-10.7905,1190.5652],[24.3947,-10.7946,1200.7434],[24.3985,-10.7989,1209.916],[24.4025,-10.8084,1215.4119],[24.3974,-10.8134,1200.4714],[24.4012,-10.8275,1225.2018],[24.3966,-10.8323,1197.7467],[24.3953,-10.8406,1205.5857],[24.4023,-10.8539,1231.4736],[24.4054,-10.8649,1205.1106],[24.4024,-10.8672,1218.9138],[24.3987,-10.8744,1228.0752],[24.3879,-10.8825,1242.2755],[24.367,-10.8927,1240.0919],[24.3534,-10.8864,1241.1547],[24.3388,-10.8902,1237.8757],[24.3281,-10.8895,1244.343],[24.3211,-10.891,1241.5793],[24.3141,-10.8896,1244.3035],[24.3071,-10.8844,1266.2606],[24.2997,-10.8846,1245.2407],[24.2939,-10.8879,1247.608],[24.2804,-10.8893,1261.5708],[24.2739,-10.8924,1261.8579],[24.2643,-10.8924,1246.6191],[24.2621,-10.8991,1248.6484],[24.2649,-10.9117,1274.3762],[24.2592,-10.9348,1266.41],[24.2519,-10.9541,1288.634],[24.2413,-10.9735,1296.495],[24.2297,-10.9791,1266.6382],[24.1967,-10.9837,1278.0256],[24.1795,-10.992,1285.1147],[24.1707,-11.001,1289.1508],[24.1739,-11.0176,1314.3854],[24.1818,-11.0176,1317.1283],[24.2118,-11.0339,1329.5654],[24.2322,-11.042,1315.5184],[24.2699,-11.0414,1322.7478],[24.2931,-11.0438,1340.9193],[24.3258,-11.0559,1334.959],[24.3601,-11.0806,1354.5493],[24.3741,-11.0888,1357.7208],[24.3842,-11.1069,1368.2671],[24.3845,-11.1254,1356.4253],[24.3753,-11.1708,1371.002],[24.3766,-11.1765,1373.4814],[24.3886,-11.1979,1390.9343],[24.3919,-11.2088,1385.3353],[24.3916,-11.2207,1395.6602],[24.3943,-11.2274,1393.3027],[24.3925,-11.2428,1402.5786],[24.3831,-11.2775,1412.5608],[24.3757,-11.2882,1405.2765],[24.3705,-11.3025,1408.55],[24.3537,-11.3349,1456.4557],[24.3433,-11.3479,1467.4398],[24.3376,-11.3541,1476.1646],[24.3159,-11.3632,1477.478],[24.3,-11.3653,1493.5017],[24.2833,-11.3703,1492.2418],[24.2759,-11.3782,1475.5459],[24.2749,-11.3841,1488.7234],[24.2784,-11.3907,1496.2733],[24.2816,-11.3929,1498.8514],[24.2979,-11.3992,1497.7922],[24.3216,-11.4024,1491.9829],[24.332,-11.4024,1491.3489],[24.351,-11.396,1473.0924],[24.3586,-11.3963,1486.5459],[24.3913,-11.4131,1483.3202],[24.4211,-11.4337,1447.0242],[24.4343,-11.4544,1433.3907],[24.4392,-11.4554,1447.1713],[24.4658,-11.4533,1443.0325],[24.4899,-11.4572,1470.765],[24.5017,-11.4572,1461.7515],[24.5381,-11.4427,1441.1477],[24.5419,-11.4399,1455.8931],[24.5624,-11.4423,1421.7485],[24.5686,-11.4414,1436.9757],[24.5793,-11.4359,1415.4938],[24.5856,-11.4246,1441.7108],[24.5884,-11.4169,1462.9553],[24.5881,-11.4118,1431.4211],[24.5906,-11.4082,1442.3149],[24.6102,-11.3988,1428.2107],[24.617,-11.3986,1427.3315],[24.632,-11.3915,1425.1401],[24.6415,-11.3822,1421.3599],[24.6451,-11.3708,1407.4393],[24.6721,-11.3444,1393.7968],[24.6975,-11.3263,1424.1216],[24.7129,-11.3239,1396.1135],[24.7273,-11.3185,1443.3059],[24.7353,-11.3066,1447.1389],[24.7466,-11.2993,1447.8053],[24.7685,-11.2956,1439.3528],[24.7945,-11.2997,1426.3348],[24.8047,-11.2979,1423.46],[24.8464,-11.2873,1404.7859],[24.8678,-11.2727,1457.9038],[24.874,-11.2659,1455.7264],[24.8818,-11.2654,1453.2582],[24.8947,-11.2689,1453.5746],[24.9143,-11.2665,1454.7925],[24.9304,-11.2588,1444.3665],[24.9493,-11.2524,1387.4443],[24.9686,-11.2531,1406.2446],[24.988,-11.2467,1413.8344],[25.0174,-11.2408,1406.7698],[25.031,-11.2414,1397.4773],[25.0711,-11.25,1417.1244],[25.0933,-11.2446,1407.5845],[25.1189,-11.2414,1429.1862],[25.1415,-11.2338,1450.0845],[25.1581,-11.2308,1442.0586],[25.1958,-11.228,1477.9092],[25.2234,-11.2222,1507.8838],[25.2331,-11.2186,1490.1514],[25.246,-11.2114,1507.899],[25.2611,-11.2003,1487.6394],[25.2832,-11.1903,1510.1973],[25.3149,-11.1883,1516.5261],[25.338,-11.1904,1506.9928],[25.3432,-11.1961,1505.4449],[25.3447,-11.2032,1495.3422],[25.3432,-11.2149,1482.7732],[25.3303,-11.2317,1496.2729],[25.3209,-11.2497,1529.8665],[25.3208,-11.2577,1535.444],[25.3238,-11.2643,1528.3384],[25.316,-11.2789,1518.1067],[25.3067,-11.2874,1493.5884],[25.297,-11.2915,1470.4355],[25.2919,-11.3063,1456.6333],[25.3038,-11.3297,1462.301],[25.3004,-11.3377,1456.426],[25.2953,-11.3418,1463.1187],[25.2803,-11.3484,1463.8101],[25.2768,-11.356,1453.684],[25.2771,-11.3681,1473.4287],[25.2878,-11.3961,1511.1331],[25.2912,-11.4012,1516.2677],[25.2982,-11.4323,1518.7672],[25.2946,-11.4484,1527.6257],[25.2958,-11.4581,1529.3099],[25.3118,-11.4885,1552.8707],[25.3116,-11.4968,1536.36],[25.306,-11.5019,1529.4009],[25.299,-11.5017,1528.5768],[25.2904,-11.507,1532.7338],[25.2873,-11.5111,1534.0686],[25.2907,-11.5216,1537.843],[25.3104,-11.5632,1544.4241],[25.3247,-11.5791,1550.0905],[25.3286,-11.6014,1514.1682],[25.3287,-11.6143,1496.2184],[25.3313,-11.6201,1503.5321],[25.3489,-11.6316,1500.2764],[25.3678,-11.6393,1479.9918],[25.3861,-11.6444,1501.5581],[25.4165,-11.6685,1491.8627],[25.4262,-11.6664,1461.7103],[25.4425,-11.6685,1489.3759],[25.4775,-11.6783,1491.0288],[25.4865,-11.6969,1509.9418],[25.4764,-11.6958,1499.1729],[25.474,-11.7103,1479.881],[25.4853,-11.717,1486.9624],[25.4956,-11.7198,1501.2313],[25.4948,-11.7239,1501.5897],[25.4968,-11.7279,1505.5044],[25.497,-11.726,1503.4713],[25.5317,-11.7393,1415.6471],[25.5368,-11.7345,1417.4247],[25.5448,-11.7335,1412.4355],[25.5517,-11.7272,1408.9907],[25.5599,-11.7121,1427.1794],[25.5724,-11.7021,1420.0648],[25.5781,-11.6885,1394.0623],[25.5999,-11.6731,1415.4623],[25.6076,-11.653,1402.8612],[25.6118,-11.6502,1415.1816],[25.6244,-11.6551,1401.8083],[25.6305,-11.6553,1389.6112],[25.6386,-11.6504,1381.9666],[25.6566,-11.647,1379.5129],[25.6744,-11.6323,1367.2896],[25.6824,-11.6205,1375.2091],[25.676,-11.5902,1368.1721],[25.6815,-11.5814,1352.3647],[25.6844,-11.5701,1350.1484],[25.6897,-11.5615,1348.6615],[25.6868,-11.5565,1349.3782],[25.6882,-11.5537,1365.835],[25.695,-11.5555,1359.5081],[25.7021,-11.5489,1356.5076],[25.7055,-11.5404,1357.3201],[25.7123,-11.5408,1346.0449],[25.7287,-11.5231,1344.6121],[25.7314,-11.4952,1345.8386],[25.7349,-11.4782,1335.9802],[25.7407,-11.4726,1357.1261],[25.7541,-11.4656,1348.4056],[25.7606,-11.4639,1353.856],[25.7681,-11.4661,1343.1857],[25.7748,-11.4582,1333.9441],[25.7777,-11.4457,1344.3586],[25.7736,-11.4343,1337.2361],[25.7738,-11.4306,1339.8407],[25.7773,-11.4285,1346.9482],[25.78,-11.4216,1354.8641],[25.7783,-11.4202,1359.759],[25.7815,-11.4112,1344.7006],[25.781,-11.4066,1341.5417],[25.7779,-11.4016,1336.9106],[25.7711,-11.404,1324.9832],[25.7602,-11.4032,1330.1042],[25.758,-11.4002,1349.9043],[25.7633,-11.3914,1329.5537],[25.7567,-11.3846,1326.6592],[25.756,-11.3809,1334.0631],[25.7586,-11.3673,1347.2026],[25.7566,-11.3386,1347.6968],[25.7706,-11.3114,1372.2839],[25.803,-11.2835,1430.5659],[25.8097,-11.2737,1439.8173],[25.8154,-11.2609,1461.214],[25.8148,-11.242,1446.0515],[25.8094,-11.2307,1483.689],[25.7959,-11.2168,1446.4753],[25.7905,-11.2037,1470.3706],[25.7906,-11.1607,1440.7609],[25.7935,-11.1326,1460.4089],[25.8297,-11.1116,1460.3386],[25.8494,-11.0972,1459.6567],[25.8542,-11.0747,1393.6001],[25.8666,-11.0602,1405.1265],[25.8796,-11.0395,1342.6047],[25.8782,-11.0366,1362.9292],[25.8788,-11.0301,1353.6234],[25.8827,-11.0225,1354.6827],[25.8824,-11.0188,1346.3043],[25.877,-11.0161,1339.2933],[25.9248,-10.9719,1466.1798],[25.9315,-10.9622,1453.9116],[25.9473,-10.9519,1479.6945]],
[[25.5591,-10.712,1432.1985],[25.5511,-10.7326,1456.8003],[25.5469,-10.7361,1468.5703],[25.5329,-10.7387,1505.533],[25.5268,-10.7557,1514.8096],[25.5164,-10.7721,1522.4666],[25.5333,-10.8052,1420.0369],[25.4508,-10.8007,1543.9523],[25.4502,-10.7764,1527.2415],[25.432,-10.7634,1471.731],[25.4108,-10.7534,1507.0273],[25.4096,-10.7463,1474.0382],[25.4145,-10.7404,1477.2125],[25.4248,-10.7354,1467.3361],[25.4327,-10.7255,1475.4178],[25.4352,-10.7101,1400.6333],[25.4564,-10.7073,1434.4943],[25.471,-10.713,1483.519],[25.5202,-10.7081,1512.8831],[25.536,-10.7026,1438.5149],[25.55,-10.7017,1398.516],[25.5591,-10.712,1432.1985]]]]}
,"properties": {"GID_2": "COD.15.6_1","GID_0": "COD","country": "DemocraticRepublicoftheCongo","GID_1": "COD.15_1","province": "Lualaba","NL_NAME_1": "NA","county": "Mutshatsha","VARNAME_2": "NA","NL_NAME_2": "NA","TYPE_2": "Territoire","ENGTYPE_2": "Territory","CC_2": "NA","HASC_2": "NA","name": "Mutshatsha.county","area_km2": 24040.42,"hist_schema_id": "Elevation0-9000","hist_area_km2": {"850": 4.68,"875": 23.69,"900": 70.23,"925": 118.43,"950": 166.62,"975": 198.93,"1000": 257.17,"1025": 408.99,"1050": 700.65,"1075": 1011.39,"1100": 1173.75,"1125": 1249.8,"1150": 1281.18,"1175": 983.1,"1200": 673.95,"1225": 802.57,"1250": 1059.52,"1275": 1118.48,"1300": 1212.59,"1325": 1551.2,"1350": 1808.69,"1375": 1833.46,"1400": 1749.11,"1425": 1379.49,"1450": 889.7,"1475": 764.48,"1500": 546.42,"1525": 380.39,"1550": 152.14,"1575": 84.53,"1600": 87.41,"1625": 94.78,"1650": 123.01,"1675": 62.3,"1700": 17.59}}}