{"type": "Feature","bbox": [27.447,0.5196,31.3057,3.6747],"geometry": {"type": "MultiPolygon","coordinates": [[[[30.5787,1.3101,620.0],[30.6325,1.411,620.0],[30.658,1.445,620.0],[30.701,1.496,620.0],[30.813,1.583,620.0],[30.819,1.585,620.0],[30.846,1.609,620.0],[30.952,1.693,620.0],[30.9989,1.728,620.0],[31.0334,1.7574,620.0],[31.0993,1.8548,620.0],[31.1062,1.8529,620.0],[31.1499,1.909,620.0],[31.1637,1.9226,620.0],[31.1996,1.9672,620.0],[31.2209,1.9999,620.0],[31.3056,2.1165,620.0],[31.3057,2.1571,620.0],[31.2484,2.1999,911.4274],[31.2031,2.2211,997.2906],[31.203,2.2945,978.1161],[31.1997,2.293,985.8174],[31.1991,2.2911,986.6523],[31.1868,2.289,1003.4396],[31.1846,2.2861,1003.634],[31.1823,2.2866,1007.9424],[31.1778,2.2841,1016.0824],[31.175,2.2854,1017.5616],[31.1722,2.2831,1022.631],[31.172,2.2811,1024.2172],[31.164,2.2782,1043.7839],[31.1619,2.2783,1045.0902],[31.1595,2.2813,1051.5647],[31.1578,2.2801,1050.1074],[31.1559,2.282,1057.0771],[31.1526,2.2804,1070.7365],[31.1494,2.2834,1085.1594],[31.1411,2.2836,1187.4548],[31.1415,2.2819,1187.8628],[31.1387,2.2808,1273.6338],[31.1369,2.2772,1242.4114],[31.1355,2.2708,1243.2104],[31.133,2.2714,1268.3523],[31.1328,2.2656,1257.5143],[31.1306,2.2647,1252.9868],[31.1249,2.2666,1318.7788],[31.118,2.2732,1352.9106],[31.1128,2.2731,1373.1963],[31.1081,2.278,1381.1492],[31.1052,2.2787,1380.8809],[31.1053,2.2818,1380.9382],[31.0919,2.293,1444.3859],[31.0824,2.2985,1514.3254],[31.0803,2.297,1508.3552],[31.0758,2.2986,1523.0621],[31.0752,2.3022,1531.6082],[31.0693,2.3055,1518.1953],[31.0734,2.3067,1526.7804],[31.0759,2.3041,1529.3158],[31.0759,2.317,1469.1073],[31.0689,2.343,1434.2754],[31.0635,2.3532,1402.7201],[31.0277,2.3807,1388.5438],[31.0285,2.3832,1394.9998],[31.0268,2.3842,1398.9615],[31.0263,2.3873,1422.2642],[31.0255,2.3849,1411.49],[31.0236,2.3848,1411.49],[31.0229,2.3865,1412.616],[31.0212,2.385,1408.4028],[31.0207,2.3881,1424.7711],[31.0118,2.3905,1421.2175],[31.0104,2.3984,1430.6902],[31.0081,2.4008,1436.9329],[31.0064,2.4014,1432.1364],[31.0027,2.3988,1432.9512],[30.9959,2.4045,1460.7207],[30.9898,2.4064,1462.9657],[30.9838,2.4059,1473.1492],[30.9805,2.4075,1492.1794],[30.9686,2.4029,1514.1353],[30.9659,2.4038,1550.6936],[30.9596,2.3974,1593.436],[30.9566,2.3997,1658.8157],[30.9577,2.4039,1563.1073],[30.948,2.398,1599.8129],[30.944,2.393,1575.7878],[30.938,2.375,1625.2791],[30.941,2.353,1782.13],[30.937,2.34,1816.735],[30.935,2.338,1807.4016],[30.931,2.336,1822.0251],[30.886,2.344,1642.085],[30.881,2.346,1698.14],[30.8681,2.3698,1668.4485],[30.8649,2.3713,1657.8357],[30.865,2.3759,1664.1833],[30.8558,2.3775,1646.7278],[30.8538,2.382,1632.5148],[30.8479,2.3852,1610.1637],[30.8448,2.3938,1596.0862],[30.8457,2.3975,1613.8519],[30.841,2.4044,1585.6914],[30.8379,2.4042,1579.3927],[30.8396,2.4097,1608.3641],[30.8376,2.4151,1588.7931],[30.8325,2.4174,1568.8677],[30.8346,2.4205,1574.9923],[30.834,2.426,1550.3024],[30.803,2.43,1601.1472],[30.7901,2.4356,1587.5868],[30.7835,2.4345,1613.7589],[30.778,2.4389,1624.3738],[30.7704,2.4312,1628.3511],[30.7649,2.4315,1648.49],[30.7626,2.4287,1641.0106],[30.7552,2.4268,1674.2078],[30.7547,2.4232,1645.2209],[30.7517,2.4199,1680.2875],[30.7485,2.4413,1651.906],[30.7414,2.4489,1667.0853],[30.7401,2.4544,1671.7742],[30.7443,2.4602,1641.6766],[30.7434,2.4723,1633.5161],[30.7461,2.4814,1654.4713],[30.7464,2.4916,1649.4666],[30.7512,2.4972,1616.3882],[30.7573,2.4974,1627.8838],[30.761,2.512,1646.3181],[30.7595,2.5364,1621.0111],[30.7568,2.536,1616.2721],[30.7564,2.5385,1621.899],[30.7588,2.55,1611.0425],[30.7558,2.5572,1615.7639],[30.7576,2.5651,1609.3542],[30.7529,2.5726,1619.584],[30.754,2.5792,1622.502],[30.7501,2.5865,1617.7129],[30.7531,2.5913,1597.0776],[30.7564,2.5917,1590.7439],[30.76,2.5966,1570.554],[30.7666,2.5992,1559.5002],[30.7714,2.599,1587.571],[30.7721,2.6026,1562.491],[30.778,2.6039,1556.4003],[30.7793,2.6072,1558.2894],[30.7785,2.6136,1542.5679],[30.7805,2.6147,1561.5117],[30.7797,2.617,1547.5735],[30.7909,2.6352,1573.4951],[30.7874,2.637,1551.9519],[30.7867,2.6457,1529.5271],[30.7919,2.6478,1539.9296],[30.7929,2.6534,1525.58],[30.7978,2.6606,1536.9454],[30.7969,2.6628,1520.4822],[30.7989,2.6656,1520.8431],[30.7974,2.6714,1526.5004],[30.8052,2.6785,1533.1964],[30.8043,2.6819,1530.215],[30.8078,2.6853,1524.6764],[30.8066,2.6897,1518.7974],[30.8107,2.6951,1523.6188],[30.8105,2.6989,1512.0439],[30.8072,2.704,1504.2798],[30.8092,2.7078,1506.9929],[30.8083,2.7089,1498.8112],[30.8139,2.7135,1510.4321],[30.8136,2.7155,1492.144],[30.8186,2.7169,1516.8401],[30.8191,2.7195,1516.4784],[30.8219,2.7201,1503.6895],[30.8234,2.7274,1488.1501],[30.8266,2.7294,1498.7302],[30.8221,2.7376,1495.2172],[30.829,2.756,1460.9548],[30.8374,2.7673,1506.5748],[30.8414,2.7683,1478.2556],[30.8442,2.7652,1486.2062],[30.8463,2.7662,1478.8574],[30.8472,2.7699,1484.4402],[30.8542,2.7711,1507.0955],[30.8592,2.7739,1491.3193],[30.8614,2.7839,1458.0756],[30.8666,2.7891,1426.2786],[30.8676,2.7943,1412.5463],[30.8842,2.8144,1405.2115],[30.8857,2.8317,1394.2889],[30.8839,2.8381,1393.2805],[30.8879,2.8505,1374.7762],[30.8872,2.8532,1374.6592],[30.8902,2.8585,1354.686],[30.8873,2.8714,1350.076],[30.8873,2.8808,1361.9908],[30.8835,2.8857,1341.3632],[30.8743,2.8912,1341.1951],[30.8746,2.8996,1336.0569],[30.8693,2.9041,1330.8668],[30.8699,2.9107,1326.5973],[30.8665,2.912,1322.1909],[30.8654,2.9148,1329.2168],[30.8649,2.9186,1322.0493],[30.8669,2.9224,1316.894],[30.8628,2.9263,1318.5397],[30.8582,2.9279,1324.322],[30.8575,2.93,1322.062],[30.8606,2.9343,1317.3688],[30.8545,2.9412,1314.4816],[30.8534,2.951,1312.6426],[30.8561,2.9543,1306.7245],[30.858,2.9619,1301.7573],[30.8383,2.9739,1296.9227],[30.8325,2.984,1290.9728],[30.8255,2.989,1299.5347],[30.824,2.9916,1303.033],[30.8253,3.0013,1307.8313],[30.8226,3.0044,1290.0336],[30.817,3.0085,1283.6416],[30.8086,3.0056,1279.8171],[30.8022,3.0071,1281.3865],[30.7918,3.0176,1286.2042],[30.7807,3.0229,1298.1948],[30.7778,3.0269,1295.7085],[30.778,3.0368,1295.6953],[30.7692,3.0455,1302.0944],[30.768,3.0522,1297.4763],[30.7721,3.0551,1297.7471],[30.775,3.06,1293.1271],[30.7849,3.0639,1278.6326],[30.7905,3.0637,1288.6768],[30.7944,3.0694,1282.3059],[30.7931,3.0756,1274.64],[30.7935,3.0954,1275.5687],[30.7994,3.1045,1277.3965],[30.7998,3.122,1270.3129],[30.8022,3.127,1275.9231],[30.8021,3.1357,1269.759],[30.8091,3.1427,1264.5968],[30.8097,3.1617,1258.98],[30.8148,3.1769,1266.8882],[30.822,3.19,1257.6936],[30.8246,3.1983,1253.7551],[30.8297,3.2045,1271.4541],[30.8267,3.218,1262.2198],[30.8297,3.2274,1254.4553],[30.8359,3.2361,1246.9968],[30.8411,3.2394,1259.0671],[30.8414,3.2431,1267.2839],[30.8362,3.2513,1266.2367],[30.8383,3.2636,1249.2334],[30.842,3.27,1248.592],[30.8459,3.27,1249.5651],[30.8563,3.2752,1248.592],[30.8652,3.2764,1237.2319],[30.8707,3.2808,1257.9982],[30.8665,3.2863,1247.6536],[30.8752,3.2952,1229.4812],[30.8735,3.3022,1249.417],[30.875,3.3064,1241.1339],[30.8761,3.3077,1243.6375],[30.8822,3.305,1248.6654],[30.885,3.311,1245.7173],[30.887,3.316,1236.2892],[30.887,3.33,1238.9697],[30.89,3.34,1238.606],[30.9105,3.3654,1251.3445],[30.9117,3.3688,1253.7539],[30.918,3.3731,1251.2438],[30.917,3.385,1258.5427],[30.9187,3.3887,1257.5942],[30.9241,3.3917,1241.5205],[30.9378,3.4046,1254.9266],[30.9375,3.4279,1245.0305],[30.935,3.4444,1254.3486],[30.9372,3.458,1241.5532],[30.9367,3.4628,1236.4399],[30.9413,3.4655,1251.8174],[30.943,3.4687,1256.6016],[30.9413,3.4842,1268.3455],[30.9374,3.4959,1272.0979],[30.94,3.5025,1266.2222],[30.936,3.5095,1256.5505],[30.9299,3.508,1262.6893],[30.9116,3.5087,1243.4729],[30.9035,3.5037,1241.9994],[30.897,3.502,1242.7615],[30.8791,3.4888,1230.6155],[30.8784,3.4842,1233.9891],[30.8768,3.4852,1230.2268],[30.8724,3.4826,1207.9735],[30.862,3.481,1205.8638],[30.8536,3.4864,1207.0879],[30.8474,3.4975,1217.3732],[30.8461,3.5083,1226.0745],[30.85,3.5238,1241.8535],[30.8602,3.5467,1252.089],[30.8621,3.554,1297.0214],[30.862,3.5631,1290.9189],[30.857,3.569,1278.4417],[30.8143,3.5799,1216.4941],[30.8072,3.5834,1209.9614],[30.7993,3.5904,1205.5746],[30.7909,3.6033,1194.7943],[30.786,3.621,1211.2866],[30.786,3.648,1189.2087],[30.784,3.657,1189.9092],[30.778,3.669,1204.6365],[30.7713,3.6747,1214.4296],[30.761,3.672,1192.5181],[30.755,3.666,1167.1111],[30.746,3.6378,1187.5549],[30.7346,3.6243,1184.0122],[30.7275,3.6217,1185.2487],[30.719,3.6206,1183.0782],[30.6975,3.6275,1198.1292],[30.6869,3.634,1207.3773],[30.674,3.637,1226.8693],[30.667,3.636,1201.512],[30.6226,3.6069,1190.0559],[30.5919,3.5943,1160.832],[30.5733,3.5921,1184.2214],[30.559,3.596,1199.8766],[30.541,3.5949,1153.4913],[30.4927,3.579,1137.9539],[30.4557,3.5591,1134.0134],[30.4511,3.5612,1136.2177],[30.4314,3.5621,1115.127],[30.418,3.5514,1113.7891],[30.4084,3.5462,1098.1904],[30.4015,3.5463,1093.7109],[30.3912,3.5495,1081.0099],[30.3832,3.5487,1064.97],[30.3761,3.5456,1058.6676],[30.3722,3.5403,1042.3169],[30.3705,3.5336,1033.4611],[30.3757,3.5141,1059.0148],[30.376,3.5065,1034.2347],[30.3743,3.5016,1025.4407],[30.3848,3.4771,1038.9204],[30.3949,3.4569,1051.8519],[30.4023,3.4464,1056.4327],[30.41,3.4398,1065.8882],[30.4231,3.4327,1057.9414],[30.4217,3.4212,1060.8896],[30.4172,3.4126,1058.158],[30.4117,3.4091,1059.5005],[30.4063,3.3978,1073.5647],[30.4009,3.3924,1075.6544],[30.3963,3.3958,1059.9294],[30.3779,3.4011,998.3132],[30.3668,3.4075,995.9234],[30.3692,3.381,994.7516],[30.3681,3.3571,989.7033],[30.3547,3.3231,981.5611],[30.3505,3.3226,980.1246],[30.3421,3.3166,964.5645],[30.337,3.3048,952.5814],[30.3427,3.3021,958.0069],[30.3465,3.292,953.4448],[30.3459,3.2846,962.3999],[30.3424,3.2749,966.5197],[30.3429,3.2678,963.5591],[30.3534,3.2484,989.2816],[30.3561,3.2346,997.6479],[30.3591,3.2295,996.5011],[30.3517,3.218,1078.2731],[30.3337,3.1976,1061.0912],[30.292,3.1641,989.1639],[30.2802,3.152,1019.1261],[30.2609,3.1258,1008.6277],[30.2497,3.1073,1013.9916],[30.2341,3.0881,961.7361],[30.1702,3.0537,970.0901],[30.1396,3.0254,942.1067],[30.145,3.0112,952.489],[30.1515,3.0052,962.7744],[30.1593,3.0026,966.4153],[30.1612,2.9991,962.3428],[30.1622,2.9886,966.3916],[30.1719,2.9641,981.3253],[30.1751,2.9471,984.5022],[30.2063,2.9228,1026.5754],[30.1887,2.9046,1021.0306],[30.167,2.903,1004.4084],[30.146,2.9073,983.5033],[30.1299,2.9063,990.1205],[30.1169,2.8981,981.2752],[30.1132,2.8923,981.6408],[30.1119,2.882,987.1576],[30.1147,2.8746,976.1576],[30.1211,2.8791,969.7612],[30.1286,2.8794,970.97],[30.1433,2.875,986.6899],[30.1554,2.8781,974.9937],[30.1662,2.8782,982.2026],[30.1892,2.8716,993.6722],[30.1942,2.8714,989.3508],[30.1964,2.8831,998.8335],[30.1986,2.8855,990.9113],[30.2012,2.8855,1000.5002],[30.2107,2.8769,994.353],[30.2088,2.8447,1025.3411],[30.2137,2.8245,1011.4557],[30.205,2.8163,1027.2556],[30.1803,2.82,1032.6411],[30.1605,2.8177,1012.9174],[30.1518,2.8127,1006.6002],[30.1486,2.8024,1019.1996],[30.1609,2.7892,1014.6078],[30.177,2.7825,1019.9335],[30.1856,2.7681,1038.8091],[30.1793,2.7371,1075.084],[30.1853,2.7099,1130.8762],[30.1964,2.7006,1130.6863],[30.2086,2.6693,1191.8572],[30.2133,2.6045,1258.8467],[30.2083,2.593,1260.3099],[30.1847,2.5843,1289.046],[30.1942,2.5728,1259.2427],[30.1871,2.5558,1192.3312],[30.1765,2.5467,1198.1118],[30.1648,2.5306,1187.985],[30.1548,2.5211,1168.8177],[30.1497,2.5127,1189.6663],[30.1444,2.5115,1165.6105],[30.1454,2.5072,1163.9891],[30.144,2.5028,1195.4746],[30.1355,2.4831,1227.0657],[30.1315,2.4321,1220.6865],[30.127,2.3981,1220.8164],[30.1256,2.3699,1191.9297],[30.1215,2.3721,1186.3213],[30.1146,2.3714,1173.2148],[30.1067,2.366,1169.071],[30.0982,2.3673,1190.7157],[30.0792,2.3608,1211.0829],[30.0722,2.3603,1183.0493],[30.0666,2.3625,1159.4437],[30.0609,2.3685,1155.1677],[30.0572,2.3689,1149.5315],[30.0536,2.3658,1150.0406],[30.043,2.3287,1175.2617],[30.0333,2.3136,1110.0968],[30.0304,2.3046,1121.0123],[30.0273,2.283,1118.6663],[30.0138,2.2768,1100.452],[30.0,2.2749,1081.7793],[29.9978,2.2794,1108.0125],[29.9948,2.2748,1110.7915],[29.9893,2.2734,1111.9626],[29.9875,2.2713,1103.7469],[29.9886,2.2654,1085.0333],[29.9824,2.2488,1107.056],[29.9751,2.247,1080.885],[29.9712,2.2514,1081.3679],[29.9694,2.2507,1101.5492],[29.9696,2.2468,1102.8287],[29.9666,2.2447,1071.3923],[29.9644,2.2456,1066.6145],[29.9639,2.2486,1074.3486],[29.9571,2.2574,1062.5259],[29.9509,2.2698,1092.679],[29.9468,2.2675,1076.4702],[29.945,2.2606,1089.2092],[29.9367,2.2517,1067.3595],[29.9298,2.2498,1078.0715],[29.9257,2.2379,1062.3966],[29.9248,2.2266,1055.4301],[29.9213,2.2222,1055.6085],[29.9204,2.2174,1044.5266],[29.9215,2.2121,1057.2284],[29.9174,2.2055,1056.25],[29.9158,2.1967,1073.7781],[29.9165,2.19,1055.4568],[29.9144,2.1866,1047.9299],[29.9105,2.1848,1046.6407],[29.9039,2.1885,1061.2579],[29.8984,2.1859,1050.4215],[29.8897,2.1866,1054.5056],[29.884,2.1844,1064.0254],[29.8792,2.186,1046.1969],[29.875,2.1756,1034.0308],[29.8734,2.1759,1034.0308],[29.8706,2.1837,1071.6659],[29.8514,2.1483,1113.5061],[29.8615,2.1499,1035.3972],[29.8656,2.1494,1039.9741],[29.869,2.1467,1027.6833],[29.8729,2.1391,1052.8257],[29.8699,2.123,1052.0776],[29.8713,2.1197,1068.2285],[29.877,2.1218,1024.6001],[29.8797,2.1209,1050.5317],[29.8838,2.1149,1051.5145],[29.8905,2.1105,1035.176],[29.8991,2.1123,1050.1003],[29.9035,2.1095,1033.0643],[29.9037,2.0994,1040.0652],[29.8991,2.096,1059.3174],[29.8968,2.0888,1056.33],[29.9018,2.073,1108.8059],[29.8977,2.0661,1061.3757],[29.8972,2.0562,1022.7661],[29.8951,2.0557,1023.6197],[29.886,2.0672,1036.3806],[29.8821,2.0684,1043.5861],[29.8787,2.0735,1028.3925],[29.8687,2.0804,1027.5732],[29.8527,2.0767,1065.3586],[29.8481,2.0786,1091.6575],[29.8399,2.0782,1036.6036],[29.8337,2.083,1031.2178],[29.8204,2.0858,1048.0938],[29.8088,2.0916,1058.5332],[29.8013,2.0992,1049.4788],[29.7949,2.1026,1039.3612],[29.7864,2.1146,1063.0592],[29.7837,2.1252,1074.505],[29.7755,2.1312,1057.9657],[29.7716,2.1445,1056.0366],[29.765,2.1526,1044.3608],[29.7477,2.1678,1047.4015],[29.7413,2.1715,1046.1545],[29.7346,2.1731,1059.6187],[29.717,2.1895,1062.7002],[29.7027,2.1951,1100.578],[29.6956,2.1948,1093.5206],[29.6903,2.1976,1104.4224],[29.6807,2.1921,1095.2708],[29.6745,2.1949,1103.0278],[29.6706,2.1931,1105.6387],[29.6633,2.1942,1106.0559],[29.656,2.1894,1112.4144],[29.623,2.1872,1134.4895],[29.6133,2.1894,1125.1864],[29.61,2.2007,1084.5244],[29.6101,2.2106,1086.262],[29.6212,2.2141,1131.5363],[29.6059,2.2759,1113.4838],[29.6074,2.2837,1083.2563],[29.6254,2.2793,1160.1993],[29.6455,2.2707,1117.0264],[29.6595,2.2799,1141.311],[29.6651,2.2862,1132.724],[29.6604,2.3018,1116.6042],[29.6432,2.3147,1133.7341],[29.6412,2.3246,1105.4258],[29.6476,2.3331,1142.7767],[29.6394,2.3638,1137.3807],[29.6392,2.3735,1138.6201],[29.6424,2.3843,1147.0598],[29.6474,2.394,1134.7537],[29.6482,2.42,1180.2483],[29.65,2.4253,1184.3625],[29.6399,2.46,1159.6176],[29.6338,2.4735,1170.0428],[29.6316,2.4913,1112.2596],[29.6215,2.4937,1100.2822],[29.6137,2.4934,1066.7859],[29.6007,2.4884,1105.2448],[29.5872,2.4882,1168.8414],[29.5815,2.4889,1142.2795],[29.5744,2.4949,1069.5332],[29.571,2.4951,1084.6174],[29.5639,2.4921,1086.3051],[29.549,2.4929,1052.6885],[29.5279,2.4828,1086.814],[29.5071,2.4796,1037.9856],[29.4938,2.472,1084.6359],[29.4792,2.4674,1085.8828],[29.4778,2.4654,1113.9341],[29.4794,2.4601,1087.6018],[29.4529,2.4524,1068.8317],[29.4439,2.4362,1000.6495],[29.4316,2.4337,1059.7698],[29.4261,2.4364,987.7211],[29.4215,2.4353,998.1042],[29.4167,2.427,1002.995],[29.4103,2.4236,991.3546],[29.3892,2.425,988.0046],[29.383,2.4209,986.7143],[29.3679,2.4177,981.1642],[29.3485,2.4154,994.7416],[29.3435,2.4172,1012.474],[29.3336,2.414,1009.618],[29.3279,2.4138,1008.303],[29.3236,2.418,1004.3419],[29.3178,2.4198,993.4255],[29.3151,2.418,992.6984],[29.3103,2.418,982.9219],[29.3016,2.4244,985.0213],[29.2984,2.4343,964.0472],[29.284,2.4419,975.2106],[29.2724,2.4436,977.558],[29.2687,2.4661,963.1459],[29.263,2.473,943.4598],[29.2559,2.4924,978.968],[29.2354,2.5242,931.7539],[29.2292,2.5437,943.4252],[29.2086,2.5379,925.4205],[29.203,2.5295,927.154],[29.2053,2.4869,946.2098],[29.2043,2.4557,969.9646],[29.1993,2.4444,955.7368],[29.1908,2.4367,958.394],[29.1752,2.4013,949.9059],[29.1663,2.412,991.8878],[29.1479,2.4447,959.7464],[29.1348,2.4547,977.2717],[29.1272,2.4568,959.5473],[29.1195,2.4547,965.8254],[29.1104,2.4456,978.6589],[29.0938,2.452,980.0279],[29.0867,2.4436,966.8942],[29.0955,2.4258,966.9075],[29.0824,2.4294,936.7487],[29.0721,2.4372,963.2004],[29.0658,2.4359,915.9659],[29.053,2.427,950.9963],[29.0399,2.4218,908.4283],[29.0439,2.4041,894.511],[29.0425,2.4005,908.6399],[29.0317,2.3948,888.6516],[29.0278,2.4063,898.6741],[29.0232,2.4096,875.7376],[29.0191,2.4188,874.7382],[29.0157,2.4192,877.0219],[29.0118,2.4146,875.7526],[29.0052,2.4137,869.2507],[28.9987,2.4078,878.6822],[28.9903,2.4066,870.0231],[28.9825,2.4204,866.0857],[28.9745,2.4239,844.9424],[28.9697,2.4292,851.7757],[28.9674,2.4232,850.0005],[28.9688,2.4168,889.1421],[28.9722,2.4138,856.9679],[28.9781,2.3972,903.5396],[28.9864,2.3891,898.103],[28.9875,2.3728,895.3236],[28.9982,2.365,903.994],[29.0005,2.3571,883.7697],[28.9971,2.3479,908.2484],[29.0005,2.3436,906.4126],[28.9939,2.336,900.6302],[28.9881,2.324,957.7344],[28.9799,2.2941,958.565],[28.9769,2.2911,955.8552],[28.9776,2.2856,932.9651],[28.9688,2.2705,960.812],[28.9223,2.2806,958.6339],[28.8571,2.2902,903.1877],[28.8419,2.2959,873.4083],[28.819,2.2996,883.7707],[28.8073,2.3053,927.2908],[28.799,2.3075,902.0755],[28.7818,2.3019,882.7556],[28.7745,2.3023,870.8842],[28.7654,2.309,863.9879],[28.753,2.3037,842.5203],[28.7457,2.3129,845.3951],[28.7359,2.3196,845.9064],[28.7233,2.3254,839.7584],[28.7153,2.3337,841.6555],[28.7094,2.3362,835.1514],[28.7093,2.3307,844.4733],[28.713,2.3219,843.4385],[28.7192,2.3155,858.4396],[28.7231,2.3072,845.5051],[28.7379,2.2943,856.4935],[28.7413,2.2839,853.6764],[28.7477,2.2835,864.0663],[28.7507,2.2814,863.2078],[28.753,2.2676,876.4733],[28.7592,2.2623,859.4013],[28.7699,2.2324,881.7714],[28.777,2.2266,880.5298],[28.7774,2.2206,895.658],[28.7797,2.217,889.2161],[28.7726,2.2062,915.0685],[28.7765,2.2011,923.819],[28.7749,2.1946,928.8294],[28.7648,2.1818,936.4199],[28.7512,2.1971,921.5748],[28.7388,2.205,931.0337],[28.7284,2.2057,936.8472],[28.7187,2.2041,914.9843],[28.7143,2.211,907.972],[28.6972,2.2186,921.0795],[28.6956,2.2248,896.0009],[28.6901,2.226,917.2314],[28.6812,2.2315,915.124],[28.6713,2.2322,896.0017],[28.6528,2.2391,887.257],[28.6464,2.2435,875.3593],[28.6395,2.2405,851.6827],[28.6361,2.2414,853.9544],[28.6281,2.2628,834.163],[28.6251,2.2656,828.9024],[28.6197,2.2647,828.8828],[28.6142,2.2698,824.496],[28.6094,2.2691,825.6292],[28.6046,2.2847,815.9014],[28.6014,2.2884,827.3251],[28.6012,2.2965,822.808],[28.5966,2.3008,814.6727],[28.5902,2.3126,814.2978],[28.5879,2.3264,832.7787],[28.5806,2.334,814.561],[28.4606,2.2776,832.6957],[28.4404,2.266,841.4324],[28.4254,2.2607,842.1147],[28.41,2.2519,864.4522],[28.3996,2.2516,852.4357],[28.3789,2.2964,841.6946],[28.3491,2.3212,797.8337],[28.3221,2.3352,796.9161],[28.3139,2.3361,805.4893],[28.3168,2.3144,823.0096],[28.3098,2.1337,866.777],[28.3074,2.1066,887.803],[28.3087,2.088,887.8067],[28.2986,1.8741,896.5747],[28.2889,1.8543,823.8282],[28.2517,1.8414,850.6242],[28.2312,1.8283,781.6205],[28.1906,1.796,806.9036],[28.1881,1.7849,813.1644],[28.1919,1.7764,827.3962],[28.1907,1.7378,782.6015],[28.1995,1.7102,785.1987],[28.2155,1.6899,763.1567],[28.2121,1.6844,758.858],[28.2092,1.683,768.467],[28.1803,1.6901,776.0594],[28.1539,1.7017,783.099],[28.1124,1.7141,799.6477],[28.0211,1.7469,715.1505],[28.0069,1.7513,720.9028],[27.9817,1.7557,709.3082],[27.9627,1.7558,678.7421],[27.9413,1.7485,753.0631],[27.9397,1.7439,729.8394],[27.9413,1.7384,698.5297],[27.9399,1.7324,659.2121],[27.9461,1.7262,759.5729],[27.9425,1.7205,662.717],[27.9382,1.7211,690.1052],[27.9202,1.7612,706.6553],[27.9101,1.7763,729.6771],[27.9009,1.7942,709.2268],[27.8858,1.7786,744.4449],[27.8783,1.7787,735.9928],[27.8674,1.792,795.1014],[27.8472,1.8277,800.1546],[27.7827,1.8288,742.4957],[27.7634,1.8525,745.386],[27.75,1.8564,732.7027],[27.7391,1.8575,694.6329],[27.7165,1.8458,647.2224],[27.694,1.8155,669.1642],[27.6823,1.8083,693.345],[27.6504,1.8144,700.1751],[27.6278,1.8214,709.986],[27.606,1.832,713.9042],[27.585,1.8473,729.7557],[27.5784,1.8446,711.4835],[27.5667,1.828,716.1572],[27.5558,1.7994,648.7678],[27.5533,1.7734,596.4781],[27.56,1.7574,612.3137],[27.5961,1.7056,622.2628],[27.6431,1.6545,629.8058],[27.6369,1.5834,644.5093],[27.6415,1.5716,641.3334],[27.6457,1.573,684.4456],[27.6562,1.5849,723.2205],[27.6658,1.5908,697.3659],[27.6771,1.591,694.05],[27.6938,1.5945,703.29],[27.7014,1.5915,703.3149],[27.7073,1.5942,722.8167],[27.7156,1.609,699.7362],[27.7399,1.6048,629.3838],[27.7562,1.612,641.7448],[27.7612,1.6077,620.5551],[27.8066,1.5445,689.6201],[27.8112,1.5249,696.8914],[27.8036,1.5044,630.9274],[27.7997,1.5021,636.3967],[27.799,1.4948,627.184],[27.7968,1.4899,621.6877],[27.7913,1.4842,634.5233],[27.7753,1.4833,617.288],[27.7566,1.478,600.2757],[27.7508,1.4736,596.1246],[27.7495,1.469,583.0811],[27.7506,1.4644,595.0302],[27.768,1.4598,601.2682],[27.7735,1.4467,611.6546],[27.7735,1.4432,582.7205],[27.7506,1.4496,602.2661],[27.7158,1.4535,582.4769],[27.6915,1.4581,595.5938],[27.6739,1.464,598.5699],[27.6634,1.4744,581.2249],[27.6505,1.4779,572.0583],[27.6358,1.4754,568.3649],[27.6183,1.4534,563.6131],[27.6078,1.4536,569.3255],[27.5839,1.4619,629.1019],[27.581,1.475,595.9395],[27.5864,1.4982,558.7748],[27.5872,1.5126,564.4284],[27.5808,1.5298,573.557],[27.5742,1.5388,563.1005],[27.5515,1.5546,551.1838],[27.5424,1.5558,566.6194],[27.5317,1.5624,552.6727],[27.5246,1.5645,561.7133],[27.5125,1.5652,560.9352],[27.5047,1.5702,548.4328],[27.4887,1.5679,550.1851],[27.4736,1.5607,550.887],[27.447,1.5546,544.4669],[27.4496,1.547,551.425],[27.4492,1.5352,551.516],[27.4561,1.5244,553.4406],[27.4625,1.509,548.2148],[27.4783,1.4929,549.2953],[27.4803,1.4877,569.9032],[27.4783,1.4766,564.3125],[27.484,1.4463,541.7527],[27.492,1.4364,552.5961],[27.4943,1.426,559.1144],[27.5003,1.4189,557.6238],[27.5062,1.4162,561.1846],[27.5162,1.4152,565.9494],[27.5213,1.4102,550.7153],[27.5339,1.3895,548.2635],[27.5439,1.381,547.109],[27.5572,1.3737,552.6116],[27.5688,1.3596,547.1915],[27.5711,1.3532,546.188],[27.5707,1.3433,556.2316],[27.5723,1.3399,546.7349],[27.5759,1.3392,543.532],[27.5816,1.3408,548.3488],[27.5958,1.3394,551.6207],[27.5992,1.341,553.3853],[27.6077,1.3578,544.2955],[27.6127,1.3624,564.0665],[27.6207,1.3585,546.8962],[27.6234,1.3486,559.559],[27.628,1.3431,561.1842],[27.6335,1.3411,562.7314],[27.6456,1.3411,564.004],[27.6506,1.3448,553.3457],[27.6639,1.3438,563.4813],[27.6767,1.3505,573.2771],[27.7002,1.3487,562.2709],[27.7114,1.3356,574.1108],[27.7151,1.3335,558.9973],[27.7267,1.3315,567.7888],[27.7333,1.325,545.7496],[27.74,1.322,564.0183],[27.7507,1.3204,578.8302],[27.7555,1.3133,571.7853],[27.7651,1.3078,555.743],[27.7704,1.3073,550.1969],[27.7738,1.3087,554.2269],[27.7826,1.3015,559.0309],[27.7772,1.2825,570.0353],[27.7651,1.2566,600.8639],[27.768,1.2445,603.1345],[27.7835,1.2288,575.3865],[27.7785,1.221,580.5684],[27.7555,1.2117,658.4923],[27.7564,1.1949,623.5132],[27.7709,1.1496,729.4922],[27.7394,1.1215,714.8403],[27.7378,1.1091,727.7495],[27.7408,1.0988,717.2305],[27.739,1.093,720.9634],[27.7408,1.0684,677.8328],[27.7468,1.0673,668.826],[27.7531,1.0737,703.5671],[27.757,1.0735,704.6351],[27.7694,1.0657,680.0969],[27.773,1.0583,699.7221],[27.7828,1.0652,703.1814],[27.8029,1.06,692.8921],[27.8084,1.0623,706.0499],[27.8244,1.0634,712.6073],[27.8281,1.0616,721.8394],[27.8313,1.0535,715.4593],[27.8354,1.0499,726.1086],[27.8443,1.046,729.7449],[27.8475,1.0418,758.7811],[27.853,1.0388,765.6932],[27.8607,1.0395,754.7997],[27.8609,1.043,745.8799],[27.8635,1.0457,744.6884],[27.8751,1.0508,758.4113],[27.8954,1.049,746.3114],[27.9048,1.0432,751.9371],[27.9171,1.0471,756.2405],[27.9267,1.0464,716.7164],[27.9333,1.0428,705.9122],[27.9361,1.037,748.0428],[27.9225,1.0043,770.7303],[27.8777,0.9464,689.3753],[27.8861,0.9315,713.1415],[27.8925,0.934,716.2563],[27.9071,0.9251,711.2568],[27.9124,0.9255,720.7655],[27.9167,0.9317,719.366],[27.9197,0.9327,719.6599],[27.9226,0.931,745.2723],[27.9247,0.9264,741.7925],[27.9293,0.9225,734.8456],[27.9457,0.9202,735.342],[27.9507,0.9212,746.7238],[27.9653,0.9315,801.2476],[27.9742,0.9403,771.6727],[27.982,0.9407,757.6077],[27.985,0.9386,764.7097],[27.988,0.9308,763.4106],[27.993,0.9304,736.2863],[28.0007,0.9331,733.3342],[27.9871,0.911,759.5762],[27.9545,0.8464,715.2045],[27.9362,0.7899,691.7897],[27.9387,0.7656,714.9703],[27.9462,0.7618,722.2465],[27.9437,0.7572,692.2006],[27.9345,0.7489,699.2853],[28.0109,0.6498,634.6409],[28.0179,0.6362,647.4822],[28.0227,0.6334,650.0086],[28.0275,0.633,648.716],[28.0428,0.6396,650.4906],[28.0444,0.6424,648.2026],[28.0437,0.6465,650.359],[28.0451,0.6509,646.1979],[28.0503,0.6532,651.309],[28.0618,0.6633,654.2189],[28.0681,0.6642,656.0458],[28.0695,0.6764,656.6266],[28.0739,0.6789,651.9798],[28.096,0.6734,818.6401],[28.1407,0.6828,815.4647],[28.1591,0.6852,677.9482],[28.1829,0.6845,793.7101],[28.2485,0.688,711.1615],[28.2591,0.691,705.6474],[28.27,0.6904,717.2599],[28.3143,0.697,726.7449],[28.3377,0.6978,725.481],[28.3434,0.695,745.6135],[28.3516,0.6863,741.0446],[28.358,0.687,751.488],[28.3754,0.6778,769.5531],[28.3747,0.6748,749.806],[28.377,0.6704,748.5814],[28.3781,0.6619,754.8334],[28.3847,0.664,761.8712],[28.3909,0.6635,762.7273],[28.3927,0.6578,736.713],[28.398,0.6575,752.105],[28.4028,0.6527,738.7992],[28.4101,0.6525,771.8734],[28.4183,0.6451,783.3804],[28.4233,0.6355,791.1646],[28.4343,0.635,772.5286],[28.4425,0.6284,768.6075],[28.4464,0.6297,788.4183],[28.448,0.6265,778.3879],[28.447,0.6212,793.1564],[28.4589,0.6067,789.2233],[28.4772,0.5932,800.4238],[28.4769,0.5872,809.4301],[28.4822,0.5861,809.2552],[28.4879,0.5778,794.2977],[28.4984,0.5727,802.9066],[28.505,0.5667,797.8884],[28.5,0.5596,791.8192],[28.5011,0.5555,816.2989],[28.4984,0.5518,818.6605],[28.4995,0.5484,812.9778],[28.4977,0.5447,815.3605],[28.4984,0.5419,819.6415],[28.5025,0.5396,811.4557],[28.507,0.5339,817.4933],[28.5123,0.5355,820.8163],[28.5166,0.5401,818.1516],[28.5205,0.5412,830.2681],[28.5232,0.5449,825.7401],[28.5262,0.5447,833.7257],[28.529,0.5421,839.5765],[28.5317,0.5421,831.5165],[28.5333,0.544,830.9393],[28.5404,0.5433,843.8078],[28.5438,0.5449,838.6552],[28.5547,0.5442,822.4023],[28.5557,0.5403,837.416],[28.5543,0.5325,822.3788],[28.5588,0.5288,886.93],[28.5536,0.5215,830.5607],[28.555,0.5196,834.2649],[28.5684,0.5226,866.9521],[28.5739,0.5267,935.8876],[28.578,0.5274,892.2679],[28.5919,0.5403,860.2778],[28.6049,0.5382,888.1439],[28.6084,0.5407,884.9539],[28.6109,0.5453,880.1244],[28.6157,0.5469,869.3132],[28.6273,0.5439,919.3693],[28.6317,0.5449,902.3175],[28.636,0.5481,889.7314],[28.6387,0.5543,891.0343],[28.6465,0.5586,905.6756],[28.6474,0.5644,883.6318],[28.6536,0.5724,924.5358],[28.6574,0.5724,964.8436],[28.6604,0.5814,917.6142],[28.6743,0.5716,930.1649],[28.6899,0.5707,1030.4312],[28.71,0.5715,1055.1765],[28.7205,0.5735,1047.1838],[28.7535,0.5735,1073.0494],[28.7627,0.5756,1065.2413],[28.8034,0.5765,1170.4001],[28.8135,0.5791,1031.3398],[28.8406,0.5798,1082.6597],[28.9009,0.5876,1021.3954],[28.9321,0.5821,881.3859],[28.9718,0.5629,1033.7181],[28.9914,0.5603,1021.9671],[29.0055,0.5634,983.1911],[29.017,0.5839,1018.1315],[29.0462,0.5895,926.6887],[29.0621,0.6082,844.0057],[29.0676,0.6123,829.0895],[29.0706,0.6171,834.8616],[29.0727,0.6288,848.1348],[29.0756,0.6314,846.1777],[29.085,0.6332,851.8956],[29.0989,0.6391,827.1672],[29.1017,0.6424,827.1664],[29.104,0.6536,827.7316],[29.1101,0.6502,837.701],[29.1177,0.6518,841.1465],[29.1224,0.6547,863.5685],[29.1279,0.6612,827.3702],[29.1343,0.6621,822.0358],[29.157,0.6761,810.9636],[29.1629,0.6768,811.5239],[29.1649,0.6655,808.964],[29.1624,0.6618,811.2787],[29.1651,0.6584,821.1965],[29.1734,0.6561,823.3719],[29.1752,0.6496,818.4938],[29.177,0.6482,818.1254],[29.1818,0.6549,811.5534],[29.1873,0.6455,818.0946],[29.1946,0.6445,826.3528],[29.1973,0.6406,837.8854],[29.2037,0.6386,842.1725],[29.2046,0.6335,842.377],[29.2149,0.6259,851.6],[29.2187,0.6252,856.2915],[29.2222,0.6169,862.6398],[29.2536,0.6188,892.1278],[29.2637,0.6036,924.7795],[29.2716,0.6001,940.3945],[29.2827,0.5886,947.6234],[29.286,0.587,959.2382],[29.2905,0.5867,968.687],[29.2917,0.5943,980.3923],[29.2901,0.6007,970.6425],[29.2863,0.6039,958.8459],[29.2807,0.6179,953.1702],[29.2855,0.6264,988.3854],[29.2871,0.6344,1012.5223],[29.295,0.6461,969.8605],[29.2963,0.6606,977.85],[29.3044,0.6756,942.5634],[29.3086,0.6796,937.5509],[29.3254,0.6869,910.4995],[29.3297,0.6844,909.7606],[29.3261,0.6738,909.7257],[29.3366,0.6627,918.9932],[29.3363,0.6595,926.5327],[29.3395,0.6561,926.1844],[29.3388,0.6526,924.4061],[29.3313,0.6446,934.1119],[29.332,0.6407,924.0808],[29.3283,0.6324,926.543],[29.3281,0.6283,930.2705],[29.3301,0.6253,940.722],[29.334,0.6241,927.9702],[29.3392,0.6251,935.0125],[29.3475,0.6227,939.5504],[29.3591,0.6163,944.3503],[29.3662,0.6167,942.7908],[29.3671,0.6154,946.6381],[29.3643,0.6126,957.8166],[29.365,0.611,962.9895],[29.3813,0.5963,988.176],[29.3922,0.6029,968.1248],[29.407,0.6036,988.9301],[29.4337,0.6085,1035.936],[29.4569,0.6154,1027.0475],[29.4739,0.6253,1050.6449],[29.4695,0.6487,1057.8881],[29.4319,0.6513,1039.6162],[29.4113,0.6658,1016.2752],[29.3943,0.6714,983.4933],[29.3894,0.6837,966.6198],[29.3767,0.697,946.7981],[29.3629,0.6931,931.0218],[29.3501,0.7042,936.7192],[29.347,0.7098,919.251],[29.3476,0.7134,914.1555],[29.3612,0.7236,927.6619],[29.3701,0.747,949.6128],[29.3706,0.7534,957.8672],[29.3643,0.7638,960.9171],[29.3657,0.7759,961.1475],[29.3695,0.7876,946.7435],[29.3697,0.8221,931.241],[29.3775,0.8278,920.7113],[29.3827,0.8256,919.5307],[29.3884,0.819,917.799],[29.3961,0.8164,922.1368],[29.3986,0.8116,922.2945],[29.4046,0.81,928.567],[29.4096,0.815,923.3838],[29.4158,0.8157,923.6581],[29.4199,0.8233,931.0948],[29.4297,0.8302,930.6055],[29.442,0.834,936.6348],[29.4448,0.8373,931.8516],[29.4471,0.8474,938.6033],[29.4519,0.852,945.9106],[29.4549,0.8586,943.0182],[29.4581,0.8602,961.9031],[29.4754,0.8528,968.0709],[29.4813,0.845,970.7544],[29.4861,0.842,972.5582],[29.4946,0.801,1003.1301],[29.5096,0.7902,1020.3191],[29.5369,0.7887,1044.8691],[29.5291,0.813,1035.183],[29.5282,0.8375,1108.6577],[29.5216,0.8471,1003.722],[29.5208,0.8543,990.8331],[29.5229,0.8612,991.4216],[29.5373,0.8633,1007.8434],[29.5598,0.8748,1032.6782],[29.5725,0.871,1028.6749],[29.5859,0.8619,1048.1177],[29.6001,0.8612,1070.7102],[29.6138,0.8546,1097.6576],[29.6232,0.8535,1155.6355],[29.6275,0.8563,1163.63],[29.6262,0.8736,1084.4761],[29.6274,0.8816,1112.679],[29.634,0.8861,1113.6145],[29.6367,0.8954,1125.6714],[29.6409,0.901,1232.1729],[29.6485,0.9015,1273.6158],[29.6591,0.9077,1176.9779],[29.6636,0.9061,1172.3223],[29.6689,0.8977,1173.311],[29.696,0.8683,1150.646],[29.7047,0.8644,1100.875],[29.7268,0.8655,1071.674],[29.7352,0.8745,1035.5339],[29.741,0.8749,1084.506],[29.7453,0.8873,1089.2937],[29.7435,0.897,1157.9116],[29.7561,0.908,1124.1062],[29.7629,0.9092,1128.542],[29.7946,0.9064,1150.4635],[29.7981,0.9096,1165.5585],[29.8078,0.9105,1207.4186],[29.8216,0.9308,1203.4326],[29.826,0.932,1203.9785],[29.8381,0.9414,1210.6195],[29.8515,0.9399,1359.2021],[29.8612,0.9542,1435.917],[29.8626,0.9505,1424.3483],[29.8628,0.9307,1438.5029],[29.8602,0.8974,1162.7593],[29.865,0.8898,1170.7599],[29.8684,0.8889,1073.8807],[29.8752,0.8907,937.5081],[29.8768,0.8882,846.3876],[29.875,0.8666,819.0266],[29.8788,0.8578,811.6587],[29.8879,0.8475,749.7906],[29.8952,0.8438,731.4802],[29.8986,0.8344,729.4528],[29.8998,0.8242,758.3654],[29.9089,0.8137,701.6925],[29.907,0.8109,701.9504],[29.907,0.8051,695.9942],[29.9107,0.8047,686.0532],[29.9203,0.7991,689.0762],[29.9237,0.7987,698.6141],[29.9365,0.8072,679.9115],[29.945,0.817,687.9962],[29.9495,0.8168,686.4072],[29.9538,0.8133,673.9197],[29.9571,0.8163,680.5349],[29.9557,0.8227,680.8882],[29.9646,0.8319,676.2452],[29.9701,0.8349,671.0524],[29.9828,0.8366,674.1025],[29.984,0.8409,675.3782],[29.9885,0.8391,679.3494],[29.9855,0.8506,679.0704],[29.9875,0.8492,676.7809],[29.9911,0.8504,679.1205],[30.0,0.848,673.9878],[29.9996,0.8524,681.3494],[30.0029,0.853,681.1532],[30.0044,0.8562,689.183],[30.0093,0.8572,669.9409],[30.0109,0.8561,671.6408],[30.0105,0.8542,665.8877],[30.0156,0.8537,679.4979],[30.0199,0.8616,668.8097],[30.0269,0.8605,668.5289],[30.0226,0.8649,666.589],[30.0228,0.8671,667.9087],[30.0248,0.8681,667.0425],[30.031,0.862,662.5082],[30.0333,0.8639,666.466],[30.0326,0.8663,665.6134],[30.0445,0.8714,669.4733],[30.0511,0.8723,665.2917],[30.0634,0.8708,664.5685],[30.0677,0.8775,661.9155],[30.0726,0.882,659.1031],[30.0881,0.8873,662.6093],[30.088,0.8899,661.6089],[30.090699999999998,0.8882,660.5735],[30.0961,0.8901,661.0852],[30.0977,0.8928,662.871],[30.1026,0.8926,663.0258],[30.1031,0.8956,657.9119],[30.1076,0.8941,662.8553],[30.1094,0.8971,658.5962],[30.113,0.8919,664.8123],[30.1148,0.894,658.1666],[30.1139,0.8963,658.7027],[30.1158,0.8973,659.7195],[30.1288,0.8927,660.6982],[30.1318,0.8941,662.3566],[30.1336,0.8919,654.4683],[30.1412,0.89,656.9346],[30.1438,0.8869,654.5441],[30.1448,0.8905,657.0494],[30.1489,0.8893,653.2354],[30.1526,0.8982,652.7559],[30.1483,0.9,651.3161],[30.1531,0.8996,651.0625],[30.1542,0.9022,650.6137],[30.1588,0.9031,649.7719],[30.1591,0.9054,650.4369],[30.1613,0.9036,650.2322],[30.1645,0.9075,649.1522],[30.1616,0.9131,650.7911],[30.1645,0.9128,651.347],[30.166,0.9109,651.4686],[30.1716,0.9157,651.0032],[30.1734,0.9199,648.5418],[30.1722,0.935,646.2666],[30.1733,0.9396,647.661],[30.1753,0.9408,646.3798],[30.1745,0.9445,650.091],[30.1768,0.9462,645.8248],[30.1739,0.9487,646.0355],[30.1766,0.9493,646.84],[30.1804,0.9468,647.0464],[30.1833,0.9493,646.9993],[30.1886,0.9497,647.3176],[30.1913,0.9518,647.3448],[30.194,0.9569,646.6721],[30.1946,0.9679,645.3956],[30.1973,0.9711,644.5005],[30.2111,0.9796,642.6793],[30.212,0.9811,643.2725],[30.2098,0.9817,643.5587],[30.2096,0.9832,640.5761],[30.215,0.9864,642.0217],[30.2141,0.9902,640.8988],[30.2159,0.9907,640.8406],[30.2177,0.9885,642.3374],[30.2205,0.9931,641.5709],[30.2244,0.9949,640.4935],[30.2262,0.9999,640.6086],[30.2227,1.0105,639.4208],[30.2249,1.0158,637.163],[30.2243,1.0196,638.6787],[30.2195,1.0185,639.2535],[30.2239,1.0261,637.8527],[30.2223,1.0304,638.6269],[30.2265,1.0305,636.2279],[30.2267,1.0389,637.3018],[30.2245,1.0401,637.4825],[30.2224,1.0359,636.9268],[30.2204,1.0387,637.2599],[30.2222,1.0413,636.8636],[30.2269,1.0426,637.4697],[30.2286,1.0458,635.7626],[30.2268,1.0476,636.3999],[30.2211,1.048,635.3424],[30.2234,1.0532,635.314],[30.2217,1.0561,635.3066],[30.2278,1.0592,635.5522],[30.2249,1.0623,635.1245],[30.2244,1.0668,634.7828],[30.2252,1.0692,634.7148],[30.2291,1.0711,633.8546],[30.2252,1.0744,634.4232],[30.23,1.0765,634.3641],[30.2269,1.0808,634.2527],[30.229,1.0844,634.4738],[30.228,1.0881,633.1793],[30.231,1.0867,634.5154],[30.2315,1.0908,632.6287],[30.235,1.0942,632.7147],[30.2376,1.0941,632.0551],[30.2376,1.0975,632.5449],[30.2399,1.1004,632.1477],[30.2387,1.1032,631.7864],[30.2401,1.1113,632.3232],[30.2481,1.1114,632.0433],[30.2506,1.1083,631.8214],[30.264,1.1049,631.4158],[30.2711,1.1195,630.1134],[30.2847,1.1277,628.8736],[30.2903,1.1351,628.4796],[30.301,1.1398,628.2618],[30.3066,1.1477,627.706],[30.32,1.157,629.1853],[30.3235,1.1568,627.1978],[30.3295,1.1514,628.778],[30.3326,1.1519,626.8453],[30.3363,1.1556,626.3724],[30.3413,1.1797,626.0498],[30.3472,1.1862,628.0445],[30.3472,1.1894,626.2294],[30.354,1.1954,626.0466],[30.36,1.2052,627.3273],[30.3709,1.2023,625.91],[30.3767,1.1956,625.928],[30.3838,1.1956,623.9564],[30.3892,1.1909,623.3679],[30.3947,1.1936,623.0925],[30.3972,1.1926,623.1224],[30.4056,1.1963,623.4351],[30.4068,1.1993,623.1484],[30.412,1.2007,623.7102],[30.417,1.1989,622.37],[30.4182,1.1946,622.5555],[30.4225,1.1943,621.9408],[30.4323,1.2007,623.0009],[30.4375,1.2006,622.363],[30.4426,1.2046,622.1742],[30.4496,1.2032,622.2469],[30.4582,1.2047,622.0886],[30.4693,1.2108,622.3145],[30.4698,1.2139,622.4895],[30.4723,1.2145,622.3394],[30.4755,1.2127,623.5104],[30.5198,1.2662,620.0],[30.5497,1.2663,620.0],[30.562,1.2822,620.0],[30.5787,1.3101,620.0]]]]}
,"properties": {"GID_1": "COD.6_1","GID_0": "COD","country": "DemocraticRepublicoftheCongo","province": "Ituri","VARNAME_1": "NA","NL_NAME_1": "NA","TYPE_1": "Province","ENGTYPE_1": "Province","CC_1": "NA","HASC_1": "CD.IT","ISO_1": "CD-IT","name": "Ituri.province","area_km2": 65230.0,"hist_schema_id": "Elevation0-9000","hist_area_km2": {"525": 14.56,"550": 238.75,"575": 735.02,"600": 771.03,"625": 3381.8,"650": 1277.25,"675": 1088.71,"700": 1020.1,"725": 1012.26,"750": 1138.37,"775": 1691.51,"800": 2337.68,"825": 2829.4,"850": 3424.82,"875": 3521.78,"900": 3571.43,"925": 3339.3,"950": 2960.09,"975": 2560.21,"1000": 2260.09,"1025": 2178.3,"1050": 1663.8,"1075": 1393.24,"1100": 1298.25,"1125": 1372.33,"1150": 1498.28,"1175": 1478.95,"1200": 1328.88,"1225": 1215.84,"1250": 1096.75,"1275": 835.76,"1300": 708.35,"1325": 675.85,"1350": 650.55,"1375": 610.0,"1400": 519.26,"1425": 519.58,"1450": 469.1,"1475": 419.68,"1500": 404.93,"1525": 359.69,"1550": 344.11,"1575": 427.19,"1600": 529.65,"1625": 535.96,"1650": 466.97,"1675": 409.93,"1700": 363.68,"1725": 273.38,"1750": 243.18,"1775": 226.38,"1800": 194.62,"1825": 189.31,"1850": 177.29,"1875": 158.29,"1900": 128.35,"1925": 106.05,"1950": 85.37,"1975": 73.63,"2000": 76.98,"2025": 89.06,"2050": 93.93,"2075": 76.22,"2100": 47.44,"2125": 16.08,"2150": 8.39,"2175": 4.94,"2200": 3.62,"2225": 2.52,"2250": 1.89,"2275": 1.46,"2300": 1.12,"2325": 0.83}}}