{"type": "Feature","bbox": [23.02,-6.9183,23.4467,-6.4584],"geometry": {"type": "MultiPolygon","coordinates": [[[[23.2772,-6.9153,832.7537],[23.2811,-6.9157,817.3345],[23.2827,-6.9132,812.3147],[23.2795,-6.91,822.1705],[23.282,-6.9079,812.8351],[23.2917,-6.8852,812.7587],[23.2889,-6.8795,817.0046],[23.2933,-6.8733,813.8428],[23.3028,-6.8701,814.4543],[23.3081,-6.8623,808.749],[23.3078,-6.86,811.7214],[23.2998,-6.862,810.001],[23.2906,-6.8457,805.8372],[23.2913,-6.8425,813.1549],[23.3,-6.8347,814.3245],[23.3053,-6.8262,794.2192],[23.3104,-6.822,761.2733],[23.309,-6.8193,763.8068],[23.315,-6.8071,762.5146],[23.3153,-6.7998,765.4851],[23.3252,-6.8035,761.572],[23.3339,-6.8044,753.3088],[23.3376,-6.8016,768.7062],[23.3316,-6.7977,754.1075],[23.3323,-6.7938,751.6661],[23.3229,-6.7791,753.2543],[23.3128,-6.7692,755.0911],[23.3121,-6.7653,762.4899],[23.3183,-6.7655,759.1244],[23.3236,-6.7602,761.608],[23.3296,-6.7609,752.0798],[23.339,-6.7589,754.0885],[23.342,-6.7532,748.3445],[23.3487,-6.749,741.6349],[23.3547,-6.7348,734.772],[23.3581,-6.7318,742.4771],[23.3673,-6.7307,754.5505],[23.389,-6.7169,734.8569],[23.4028,-6.7158,736.5535],[23.412,-6.7071,739.9951],[23.4129,-6.7013,722.647],[23.4191,-6.688,708.9786],[23.412,-6.6756,696.6459],[23.4116,-6.6721,713.1729],[23.4153,-6.6666,695.0731],[23.4247,-6.6662,713.111],[23.43,-6.6607,714.9091],[23.4353,-6.6589,693.3187],[23.4408,-6.6474,680.1605],[23.4341,-6.6416,677.6573],[23.4316,-6.623,648.0034],[23.427,-6.6156,652.3365],[23.4283,-6.6094,657.6729],[23.42,-6.6012,659.5579],[23.4197,-6.5906,643.6613],[23.4165,-6.5846,660.42],[23.4167,-6.5809,673.8186],[23.4211,-6.5807,671.4161],[23.4276,-6.5763,675.2458],[23.4303,-6.5704,661.0142],[23.4342,-6.5678,676.011],[23.4393,-6.5561,653.222],[23.4467,-6.549,634.4159],[23.4464,-6.5462,631.6299],[23.4409,-6.5474,642.6807],[23.4398,-6.5446,648.3726],[23.4426,-6.5327,645.9728],[23.4377,-6.5327,649.2473],[23.4322,-6.5359,647.4257],[23.429,-6.5283,663.1465],[23.4256,-6.5262,672.7369],[23.4134,-6.5342,681.2919],[23.4042,-6.5299,682.7548],[23.4007,-6.5301,678.5593],[23.3929,-6.5395,707.798],[23.386,-6.539,694.175],[23.3793,-6.5353,688.6899],[23.3692,-6.5259,699.597],[23.3642,-6.5247,696.7861],[23.3605,-6.5256,690.4608],[23.3402,-6.5383,721.9036],[23.3222,-6.5356,733.4219],[23.3082,-6.5496,742.5729],[23.276,-6.5771,782.6629],[23.2559,-6.5884,803.6349],[23.2465,-6.5925,830.6165],[23.2178,-6.5989,808.833],[23.2068,-6.5953,787.6481],[23.2024,-6.5963,772.7959],[23.1942,-6.6018,752.8605],[23.1807,-6.605,746.4724],[23.1799,-6.6069,754.6331],[23.1734,-6.6018,753.8298],[23.1732,-6.5986,754.8003],[23.1764,-6.5945,746.6412],[23.1739,-6.5796,726.6047],[23.1797,-6.5639,740.5284],[23.1714,-6.5575,723.4481],[23.1685,-6.5513,726.5275],[23.1696,-6.5469,721.2819],[23.1683,-6.5423,729.1563],[23.1719,-6.5336,723.3468],[23.1724,-6.5253,727.8779],[23.1662,-6.5225,718.56],[23.1651,-6.5175,720.4301],[23.1674,-6.5124,718.8984],[23.166,-6.5083,723.5132],[23.1679,-6.5037,732.4722],[23.1621,-6.5007,726.9029],[23.1607,-6.4966,729.5676],[23.1511,-6.4924,720.6862],[23.1476,-6.488,727.6947],[23.1536,-6.4844,729.1678],[23.1555,-6.4759,714.3132],[23.1518,-6.4604,726.2119],[23.1504,-6.4588,727.7667],[23.1399,-6.4584,716.4926],[23.1369,-6.4758,717.5851],[23.1269,-6.4905,734.757],[23.1272,-6.5038,713.6815],[23.1255,-6.5105,717.2911],[23.1129,-6.5231,735.5101],[23.1014,-6.5385,734.8368],[23.1004,-6.5507,725.9089],[23.1041,-6.5557,752.8459],[23.09,-6.5805,762.9001],[23.0914,-6.5854,758.2874],[23.0891,-6.5943,770.4878],[23.0923,-6.6003,767.0342],[23.0909,-6.6061,783.4478],[23.0932,-6.6107,770.4664],[23.0925,-6.6134,770.4184],[23.0734,-6.6354,775.7354],[23.0777,-6.643,775.9582],[23.0722,-6.6527,783.8716],[23.074,-6.6623,776.2126],[23.0613,-6.6913,790.2774],[23.0578,-6.7101,784.7239],[23.0461,-6.7282,791.4877],[23.0385,-6.7349,791.6141],[23.0334,-6.7422,789.1968],[23.0299,-6.7514,786.677],[23.02,-6.7666,789.2027],[23.0211,-6.7705,790.9083],[23.0246,-6.776,790.0905],[23.0388,-6.7836,798.1594],[23.0505,-6.7943,820.8972],[23.0637,-6.8155,848.6115],[23.0694,-6.8332,856.7458],[23.0758,-6.8418,872.6496],[23.0846,-6.8494,893.6136],[23.094,-6.8539,883.1487],[23.1035,-6.8561,863.5219],[23.1235,-6.8579,823.4697],[23.1407,-6.8577,851.241],[23.1488,-6.861,865.374],[23.1559,-6.8678,859.0833],[23.1587,-6.8788,846.5062],[23.1624,-6.8837,848.8607],[23.1678,-6.8878,854.2585],[23.1743,-6.8901,876.933],[23.1776,-6.8935,890.7629],[23.1793,-6.9027,901.7109],[23.1831,-6.9058,924.5221],[23.2061,-6.9096,886.6415],[23.2203,-6.9174,867.0993],[23.2284,-6.9183,845.5823],[23.2363,-6.913,870.0914],[23.2614,-6.9123,870.4039],[23.2772,-6.9153,832.7537]]]]}
,"properties": {"GID_2": "COD.14.3_1","GID_0": "COD","country": "DemocraticRepublicoftheCongo","GID_1": "COD.14_1","province": "Lomami","NL_NAME_1": "NA","county": "Kamiji","VARNAME_2": "NA","NL_NAME_2": "NA","TYPE_2": "Territoire","ENGTYPE_2": "Territory","CC_2": "NA","HASC_2": "NA","name": "Kamiji.county","area_km2": 1279.3551,"hist_schema_id": "Elevation0-9000","hist_area_km2": {"625": 0.316,"650": 11.9214,"675": 33.3419,"700": 47.7488,"725": 82.0789,"750": 119.0975,"775": 171.4434,"800": 172.3204,"825": 232.7104,"850": 217.2821,"875": 139.2439,"900": 39.8298,"925": 11.6837,"950": 0.3369}}}