{"type": "Feature","bbox": [22.6809,0.9581,25.1701,2.3962],"geometry": {"type": "MultiPolygon","coordinates": [[[[23.5726,2.3962,518.1144],[23.5612,2.36,554.0196],[23.5798,2.1931,418.4608],[23.5462,2.1932,393.291],[23.5249,2.1836,393.8404],[23.4849,2.185,393.0822],[23.4705,2.193,403.1826],[23.4652,2.2001,398.2209],[23.456,2.2041,402.6075],[23.4498,2.2126,426.0043],[23.4436,2.2147,417.1148],[23.4342,2.2217,413.0152],[23.4289,2.2233,390.3465],[23.4254,2.2297,423.8665],[23.422,2.2311,399.9722],[23.4133,2.2308,389.123],[23.4096,2.2342,387.7409],[23.3892,2.2454,389.2542],[23.3764,2.2476,388.771],[23.3704,2.2504,382.2432],[23.3647,2.2558,384.2078],[23.3621,2.2607,386.8451],[23.3461,2.2698,384.7757],[23.3327,2.281,381.9565],[23.3291,2.2821,382.9808],[23.3231,2.2784,391.2966],[23.3175,2.271,402.5743],[23.3134,2.259,408.7329],[23.3142,2.2459,407.7241],[23.3209,2.2236,431.0085],[23.3197,2.2082,437.5692],[23.3133,2.201,408.318],[23.312,2.1948,423.656],[23.3155,2.1794,436.0941],[23.3144,2.1679,420.2666],[23.3265,2.141,439.0445],[23.3219,2.1334,419.4818],[23.3195,2.1184,432.2079],[23.3219,2.1056,456.3791],[23.3153,2.0984,457.3339],[23.3126,2.0899,459.0312],[23.2712,2.1061,473.8423],[23.2565,2.1004,477.238],[23.2328,2.086,454.3511],[23.2103,2.0861,474.1099],[23.1939,2.0928,456.6608],[23.188,2.093,444.95],[23.1774,2.0994,435.3152],[23.1758,2.1079,415.4185],[23.1672,2.1187,412.1171],[23.1553,2.1191,407.473],[23.1473,2.1284,396.4777],[23.1308,2.1366,388.199],[23.1238,2.1483,385.0768],[23.1149,2.1556,381.3029],[23.1105,2.1662,398.5699],[23.1049,2.1717,384.3465],[23.098,2.1758,384.8694],[23.0898,2.1778,381.7133],[23.0758,2.192,379.3866],[23.0648,2.1956,377.9564],[23.0576,2.2022,375.5796],[23.0496,2.204,378.9432],[23.0487,2.2116,374.4004],[23.0413,2.2125,368.7935],[23.0305,2.2188,368.9384],[23.0209,2.219,354.4163],[23.0166,2.2164,355.6027],[23.0132,2.2104,363.58],[23.0073,2.2062,358.5691],[23.0033,2.1897,350.0],[23.0068,2.1782,356.6737],[23.0045,2.1752,360.6937],[23.0006,2.1738,357.456],[22.9972,2.1756,373.6946],[22.9848,2.187,374.1695],[22.9781,2.186,353.5118],[22.9722,2.1805,357.8283],[22.9711,2.1757,352.4872],[22.9756,2.1619,349.5],[22.9742,2.1584,375.1988],[22.9584,2.1602,349.0],[22.9443,2.149,349.0],[22.9386,2.1471,352.2025],[22.9341,2.1425,367.3903],[22.9339,2.1361,362.2874],[22.9458,2.129,352.2853],[22.9458,2.1263,348.5],[22.9486,2.123,373.7028],[22.9489,2.118,373.4137],[22.9345,2.1071,348.0],[22.9289,2.096,350.3748],[22.9239,2.0912,349.2251],[22.9186,2.0916,352.3867],[22.9119,2.0989,352.8231],[22.9051,2.1027,358.6213],[22.8977,2.1029,353.1236],[22.8946,2.1006,349.9381],[22.8903,2.0925,369.7747],[22.8926,2.084,349.8916],[22.8922,2.0741,348.9835],[22.8886,2.069,347.5],[22.8778,2.0713,351.4409],[22.8735,2.0703,347.0],[22.8682,2.0655,347.0],[22.8597,2.0491,348.9012],[22.8558,2.047,347.6909],[22.8462,2.0465,357.9056],[22.8419,2.0441,351.4094],[22.833,2.033,364.8674],[22.8267,2.0279,355.5966],[22.8088,2.0352,350.8347],[22.8019,2.0344,346.0],[22.7903,2.0219,351.2051],[22.784,2.0175,346.0],[22.7801,2.0177,356.0],[22.7642,2.0349,362.4586],[22.755,2.0399,349.3969],[22.7481,2.0477,358.3008],[22.7396,2.051,368.2931],[22.7271,2.0491,345.0],[22.7232,2.0507,360.5602],[22.7162,2.0606,356.7442],[22.7132,2.0624,356.593],[22.7018,2.0623,345.0],[22.6935,2.0694,362.7007],[22.6865,2.0659,356.9632],[22.6809,2.05,345.0],[22.6816,2.0444,346.9794],[22.6851,2.0359,345.0],[22.689,2.0321,345.0],[22.6916,2.022,357.1352],[22.7054,2.0082,345.0],[22.7107,2.0007,345.0],[22.7176,1.9823,358.8831],[22.7138,1.9812,345.0],[22.724,1.9658,358.2461],[22.7318,1.9599,363.7613],[22.7508,1.9533,358.3954],[22.759,1.9539,352.5386],[22.7645,1.9486,347.8387],[22.7795,1.9404,345.0],[22.79,1.9313,345.0],[22.799,1.9272,345.0],[22.8086,1.9188,345.0],[22.8166,1.9179,356.6528],[22.8267,1.9108,347.5997],[22.8324,1.9129,359.2195],[22.8466,1.9126,345.0],[22.8471,1.9149,345.0],[22.8835,1.9013,345.0],[22.8945,1.9005,345.0],[22.9624,1.8853,345.0],[22.9902,1.8728,345.0],[23.0038,1.8492,365.4179],[23.0231,1.8405,361.4967],[23.0564,1.8086,356.66],[23.0658,1.7815,362.5715],[23.0759,1.7703,366.6876],[23.0872,1.7538,359.2041],[23.0884,1.7469,353.077],[23.096,1.7368,360.7471],[23.1084,1.7286,363.0648],[23.1109,1.7226,370.305],[23.1076,1.7107,348.0],[23.1148,1.6921,381.1911],[23.1294,1.683,362.8223],[23.1339,1.6717,368.7203],[23.1492,1.661,349.5],[23.1548,1.653,349.5],[23.1613,1.6385,365.3718],[23.1638,1.6282,364.0865],[23.1677,1.6241,363.6161],[23.1693,1.6194,362.9387],[23.1753,1.6151,363.9959],[23.1841,1.6042,366.7231],[23.174,1.598,388.5366],[23.1674,1.5901,389.0862],[23.1516,1.5314,424.9521],[23.1397,1.5225,414.8722],[23.1277,1.5103,460.2178],[23.2155,1.3643,404.8841],[23.224,1.3457,443.0806],[23.208,1.3199,427.4383],[23.2156,1.3098,405.2563],[23.225,1.305,422.506],[23.2401,1.3134,429.0816],[23.2569,1.327,459.2203],[23.287,1.3438,426.998],[23.3261,1.3436,422.2611],[23.3539,1.334,409.363],[23.4035,1.3062,389.3881],[23.4474,1.262,392.402],[23.4822,1.2158,399.0414],[23.5112,1.1725,393.0201],[23.5225,1.1587,425.2385],[23.5361,1.1327,402.4437],[23.5329,1.0914,416.3109],[23.5338,1.084,407.1386],[23.5368,1.0795,421.2039],[23.5551,1.0815,421.269],[23.5677,1.0851,425.3583],[23.5824,1.0832,417.8148],[23.5887,1.0776,414.8797],[23.5945,1.0673,418.0559],[23.612,1.051,408.3927],[23.6209,1.0454,393.5956],[23.6325,1.0435,420.8297],[23.6737,1.043,400.1682],[23.6871,1.0538,390.6705],[23.6885,1.0589,383.9511],[23.7044,1.0781,382.3352],[23.7059,1.0905,368.2383],[23.7042,1.1032,374.0365],[23.6952,1.1084,360.0],[23.6957,1.1096,360.0],[23.7099,1.1036,368.0534],[23.7246,1.1,366.1582],[23.7392,1.1001,368.2263],[23.7605,1.0906,365.0854],[23.7733,1.0867,371.0272],[23.7843,1.0801,376.0636],[23.8078,1.0796,365.2068],[23.8236,1.0711,372.4114],[23.8682,1.0652,378.271],[23.8741,1.0657,377.9847],[23.8812,1.0694,381.176],[23.8855,1.0698,378.483],[23.8995,1.0646,362.4825],[23.9084,1.0543,374.9781],[23.9198,1.0523,375.6754],[23.9608,1.0376,363.7722],[23.9695,1.0298,373.3182],[23.9787,1.0264,377.9026],[24.0011,1.0141,372.3117],[24.0054,1.0132,365.0],[24.0066,1.0105,368.7069],[24.0128,1.0061,388.5913],[24.0206,1.005,375.0542],[24.0419,0.9925,365.0],[24.0437,0.9865,369.8248],[24.0519,0.99,368.1062],[24.0718,0.983,365.0],[24.0794,0.9826,365.5],[24.1009,0.9735,383.238],[24.1079,0.9765,367.2755],[24.1157,0.9756,365.5],[24.1315,0.9679,367.3059],[24.1459,0.9581,366.0],[24.1633,0.9729,399.3947],[24.1816,0.985,438.6742],[24.2668,1.0516,477.2232],[24.3022,1.0898,449.7149],[24.3148,1.1226,459.8148],[24.3189,1.1297,446.6168],[24.3205,1.1323,430.4232],[24.3284,1.136,413.3842],[24.3323,1.1401,411.7009],[24.3346,1.1457,425.712],[24.3363,1.1657,417.266],[24.3429,1.1719,422.8141],[24.3504,1.189,424.0431],[24.3524,1.2,415.7622],[24.3605,1.2099,422.7694],[24.3762,1.2176,428.2916],[24.4402,1.317,384.3687],[24.4313,1.3255,400.904],[24.4292,1.3312,415.2031],[24.4202,1.3404,421.4073],[24.4082,1.3466,412.8216],[24.4102,1.3527,450.3806],[24.4197,1.3616,464.0824],[24.4442,1.3763,448.9806],[24.4896,1.4108,470.4748],[24.5351,1.4606,485.2623],[24.5421,1.505,470.7961],[24.551,1.5317,460.3862],[24.5598,1.5439,461.5742],[24.5834,1.5649,473.7855],[24.6161,1.601,481.3524],[24.639,1.6385,523.5491],[24.6607,1.667,516.3649],[24.6843,1.7203,527.3714],[24.7014,1.7348,530.312],[24.7286,1.7532,519.6636],[24.7654,1.7726,552.2822],[24.7808,1.7828,527.0549],[24.8193,1.7985,568.2303],[24.9006,1.8288,595.6547],[24.9581,1.8407,525.1337],[24.9984,1.8627,582.1344],[25.0294,1.8742,528.0408],[25.0754,1.8745,503.1732],[25.093,1.8776,476.3735],[25.1085,1.8828,473.8839],[25.1515,1.8868,464.3622],[25.1639,1.8958,453.9833],[25.1701,1.909,461.4241],[25.1667,1.9201,466.9352],[25.1505,2.1581,477.0804],[25.1548,2.1674,468.7775],[25.1529,2.1743,471.6177],[25.1577,2.192,463.6496],[25.1556,2.2019,465.2972],[25.1503,2.2069,463.0952],[25.1421,2.2076,457.8845],[25.1352,2.2119,465.2888],[25.1205,2.2128,460.8553],[25.1071,2.2091,455.4865],[25.0988,2.2088,466.9835],[25.0965,2.2106,470.162],[25.0956,2.2178,447.7122],[25.094,2.2196,449.5315],[25.0908,2.2203,468.9085],[25.0867,2.2246,455.0608],[25.0825,2.2253,448.6393],[25.0717,2.2377,457.9405],[25.0683,2.2391,457.752],[25.0634,2.2538,465.4768],[25.0591,2.2567,457.1703],[25.0529,2.2572,455.4155],[25.0506,2.2546,458.8438],[25.0493,2.2486,457.0909],[25.0465,2.2473,451.809],[25.0447,2.2479,453.0176],[25.0417,2.2555,451.9155],[25.0394,2.256,460.519],[25.0367,2.2509,455.8593],[25.0346,2.25,452.0028],[25.0323,2.2518,455.458],[25.0284,2.261,445.0599],[25.0259,2.2624,442.7407],[25.0234,2.2591,451.138],[25.0232,2.2543,455.4378],[25.0179,2.2566,452.8455],[25.0149,2.2644,457.4803],[25.0126,2.2655,451.7174],[25.006,2.2575,442.1239],[24.9992,2.2581,445.12],[24.9937,2.2551,440.7629],[24.9898,2.2595,443.144],[24.9861,2.2601,451.6735],[24.9788,2.2571,448.0129],[24.9747,2.2525,446.2387],[24.9717,2.2534,459.7375],[24.9655,2.2603,450.5052],[24.9623,2.2598,451.3099],[24.9605,2.2568,438.4043],[24.9599,2.2492,450.4031],[24.9564,2.2471,442.6973],[24.9526,2.2471,441.6937],[24.95,2.2508,438.2609],[24.953,2.2568,438.4098],[24.9509,2.2644,436.736],[24.9488,2.2655,431.8925],[24.9417,2.2609,446.692],[24.934,2.2608,433.2737],[24.9259,2.2663,435.6196],[24.9225,2.2649,444.9381],[24.9187,2.2585,444.7421],[24.9123,2.2566,447.8975],[24.9057,2.2495,430.6829],[24.9025,2.2494,430.5189],[24.8995,2.2416,440.7517],[24.897,2.24,439.942],[24.8915,2.2441,439.5373],[24.8873,2.254,436.9034],[24.8793,2.262,443.6107],[24.8795,2.2708,445.3601],[24.877,2.2756,447.4553],[24.8696,2.2792,438.7083],[24.8666,2.2827,433.9605],[24.8635,2.2806,438.7398],[24.8612,2.2755,438.8363],[24.8637,2.2663,445.0539],[24.8616,2.2642,443.9167],[24.8445,2.2634,460.1588],[24.4575,2.2826,498.8386],[24.4483,2.2814,534.3721],[24.4401,2.2698,542.672],[24.425,2.2593,573.0362],[24.41,2.2594,583.1956],[24.3647,2.2397,578.6365],[24.3566,2.2432,582.8701],[24.3474,2.2608,582.8529],[24.337,2.2749,571.0824],[24.3196,2.2808,585.9266],[24.3104,2.2808,585.8148],[24.3046,2.2762,573.5466],[24.2732,2.26,566.9714],[24.2246,2.2637,570.1272],[24.2153,2.2602,568.6461],[24.2036,2.245,572.2291],[24.2024,2.2369,571.929],[24.1955,2.2287,581.4731],[24.1722,2.22,587.152],[24.1612,2.2195,574.5687],[24.1154,2.2097,546.5059],[24.1044,2.2057,510.5554],[24.0946,2.2075,527.6855],[24.0755,2.2158,525.6477],[24.0598,2.2106,540.1555],[24.0581,2.2071,548.7103],[24.0656,2.2064,550.6],[24.0638,2.2024,560.8423],[24.058,2.1971,564.5948],[24.0574,2.1848,563.9819],[24.0608,2.1761,564.5871],[24.0689,2.1708,548.9535],[24.0857,2.1543,529.8716],[24.0585,2.1347,555.1928],[24.0475,2.1365,566.5524],[24.0406,2.1342,551.2291],[24.0322,2.1242,561.0095],[24.024,2.124,527.5948],[24.0121,2.1278,522.5607],[24.0007,2.1245,528.5441],[23.9879,2.1155,521.6548],[23.9785,2.1141,514.5016],[23.9749,2.112,513.1422],[23.9715,2.0977,516.495],[23.9627,2.0873,476.482],[23.9602,2.0774,482.4107],[23.9463,2.0757,494.2646],[23.9305,2.0793,490.6296],[23.92,2.0781,494.971],[23.914,2.0824,480.2073],[23.9039,2.0844,454.3812],[23.8996,2.0876,454.1204],[23.8931,2.0989,433.8748],[23.8903,2.1083,451.5792],[23.8827,2.1202,425.1211],[23.8763,2.1243,452.0771],[23.8669,2.1268,455.1424],[23.8447,2.1288,442.8185],[23.8241,2.1287,450.3951],[23.7997,2.1239,443.5513],[23.7738,2.1252,447.3481],[23.7665,2.1283,429.7968],[23.7566,2.137,420.0703],[23.7316,2.1509,410.0646],[23.7224,2.1606,403.6675],[23.7123,2.1644,428.6671],[23.6981,2.1761,404.2318],[23.6802,2.1813,401.2703],[23.6649,2.1888,403.0172],[23.6486,2.1914,398.6249],[23.637,2.1901,413.3231],[23.6189,2.192,421.5969],[23.594,2.1911,417.9633],[23.6028,2.2096,435.2422],[23.6016,2.2199,461.7741],[23.6053,2.242,466.078],[23.6103,2.249,462.5938],[23.6117,2.2543,464.6057],[23.6033,2.2802,431.9056],[23.6037,2.2837,465.3185],[23.6071,2.286,478.994],[23.6064,2.2901,480.0366],[23.5852,2.3227,508.3814],[23.5844,2.3381,546.3503],[23.5815,2.3404,539.5192],[23.5696,2.377,528.5212],[23.5726,2.3962,518.1144]],
[[23.6064,1.211,385.2788],[23.6026,1.2098,376.5876],[23.5918,1.2109,374.0563],[23.5806,1.2171,360.0],[23.5751,1.2278,360.0],[23.5732,1.2477,381.9755],[23.577,1.26,378.5977],[23.594,1.2715,391.7653],[23.6015,1.2743,388.7785],[23.6202,1.274,372.0281],[23.6269,1.271,381.5048],[23.6316,1.2656,372.0699],[23.635,1.2578,383.9733],[23.6369,1.2466,373.0032],[23.6366,1.2356,363.4847],[23.6346,1.2308,369.9207],[23.6064,1.211,385.2788]]]]}
,"properties": {"GID_2": "COD.25.3_1","GID_0": "COD","country": "DemocraticRepublicoftheCongo","GID_1": "COD.25_1","province": "Tshopo","NL_NAME_1": "NA","county": "Basoko","VARNAME_2": "NA","NL_NAME_2": "NA","TYPE_2": "Territoire","ENGTYPE_2": "Territory","CC_2": "NA","HASC_2": "NA","name": "Basoko.county","area_km2": 22721.74,"hist_schema_id": "Elevation0-9000","hist_area_km2": {"350": 793.97,"375": 2421.39,"400": 5211.79,"425": 3100.84,"450": 1985.18,"475": 2809.05,"500": 2553.02,"525": 1962.25,"550": 1289.85,"575": 544.25,"600": 49.29,"625": 0.87}}}