{"type":"Feature","properties":{"GID_2":"COD.19.9_1","GID_0":"COD","country":"DemocraticRepublicoftheCongo","GID_1":"COD.19_1","province":"Nord-Kivu","NL_NAME_1":"NA","county":"Rutshuru","VARNAME_2":"NA","NL_NAME_2":"NA","TYPE_2":"Territoire","ENGTYPE_2":"Territory","CC_2":"NA","HASC_2":"NA","name":"Rutshuru.county"},
"geometry":{"type": "MultiPolygon","coordinates": [[[[29.5985,-1.3907,3200.0439],[29.5996,-1.3922,3106.4204],[29.6009,-1.3912,3145.0581],[29.6016,-1.3873,3235.0005],[29.5964,-1.3875,3346.9998],[29.5985,-1.3907,3200.0439]]],
[[[29.0662,-0.821,1407.5092],[29.0689,-0.8349,1465.2662],[29.0684,-0.8411,1481.4861],[29.0623,-0.8577,1482.1372],[29.0301,-0.8605,1384.8379],[29.0212,-0.8645,1393.5712],[29.0139,-0.8636,1342.4766],[29.0053,-0.8659,1476.4314],[28.9977,-0.8646,1347.0315],[28.9929,-0.866,1437.6594],[28.987,-0.864,1413.3],[28.9831,-0.8663,1365.438],[28.9706,-0.8664,1342.3776],[28.9653,-0.8698,1283.7053],[28.9694,-0.8779,1361.4978],[28.983,-0.8853,1578.0815],[28.9982,-0.8917,1793.0969],[29.0124,-0.9003,1694.8496],[29.0299,-0.9038,1624.5408],[29.0372,-0.9096,1618.203],[29.0452,-0.9279,1759.5585],[29.0537,-0.9388,1664.125],[29.0589,-0.9554,1660.3562],[29.0578,-0.9656,1714.696],[29.0523,-0.9799,1825.6586],[29.0378,-1.0061,1903.0273],[29.0327,-1.013,1894.6609],[29.0062,-1.0328,1630.2064],[28.9858,-1.0278,1515.3407],[28.9751,-1.0306,1598.7191],[28.9632,-1.0307,1842.6682],[28.9438,-1.0345,1373.4268],[28.9485,-1.0464,1435.0487],[28.9549,-1.0523,1435.2245],[28.9608,-1.0537,1389.4995],[28.9633,-1.0509,1418.7939],[28.9702,-1.055,1397.1235],[28.9784,-1.0559,1512.8029],[28.9832,-1.0552,1457.947],[28.9862,-1.0506,1493.3828],[28.9889,-1.0522,1416.3397],[28.991,-1.0565,1438.6621],[28.9963,-1.0588,1442.1628],[28.999,-1.062,1430.993],[29.0045,-1.0631,1458.3813],[29.0078,-1.0716,1457.6016],[29.0055,-1.0746,1441.2367],[29.0094,-1.0796,1459.4137],[29.0092,-1.0822,1452.8097],[29.0128,-1.0821,1457.0371],[29.016,-1.0791,1465.1964],[29.0193,-1.0842,1460.9097],[29.0174,-1.0879,1458.2405],[29.0195,-1.0899,1471.0988],[29.0277,-1.0869,1506.6211],[29.028,-1.0952,1482.027],[29.0257,-1.0979,1462.6091],[29.028199999999998,-1.0993,1463.5466],[29.0342,-1.0988,1508.4077],[29.0358,-1.1025,1477.4207],[29.0322,-1.1117,1487.5208],[29.0401,-1.1287,1500.2725],[29.0401,-1.133,1508.5454],[29.0374,-1.1388,1526.7086],[29.0381,-1.1445,1504.0835],[29.0331,-1.1512,1620.4773],[29.0345,-1.1537,1547.8684],[29.0416,-1.1558,1534.3677],[29.0353,-1.1696,1538.6345],[29.0362,-1.1737,1545.329],[29.0294,-1.1816,1564.5804],[29.0296,-1.1866,1571.9927],[29.0272,-1.1912,1579.9833],[29.0283,-1.1958,1580.5668],[29.0361,-1.2043,1608.1862],[29.0444,-1.2203,1631.1016],[29.0529,-1.227,1643.2577],[29.0428,-1.2465,1729.074],[29.0392,-1.2608,1708.679],[29.0358,-1.2638,1709.0035],[29.0362,-1.2726,1715.7268],[29.0406,-1.2791,1728.6215],[29.0522,-1.2888,1738.3252],[29.0602,-1.2981,1762.5889],[29.0772,-1.3103,1860.9033],[29.0887,-1.3339,1980.9775],[29.0958,-1.3382,1995.0568],[29.1093,-1.342,2016.0878],[29.127,-1.3585,2065.0298],[29.1364,-1.3647,2075.9861],[29.1412,-1.3653,2094.45],[29.2113,-1.3938,2675.3696],[29.2182,-1.4378,2492.9802],[29.2541,-1.4688,2196.9995],[29.2797,-1.4704,2068.519],[29.3081,-1.4628,1927.8018],[29.3957,-1.4647,2857.7866],[29.4448,-1.4694,3184.3101],[29.4859,-1.4766,3107.449],[29.5017,-1.4589,2874.8247],[29.4859,-1.4573,3657.2239],[29.4938,-1.4462,2965.8967],[29.4953,-1.446,2966.3027],[29.4961,-1.4425,2936.4204],[29.5044,-1.4402,2790.8936],[29.5055,-1.4344,2787.3867],[29.5201,-1.4292,2665.0139],[29.5214,-1.4266,2701.4587],[29.5184,-1.4251,2712.6487],[29.5248,-1.414,2630.2803],[29.5259,-1.4094,2731.812],[29.5289,-1.4108,2695.7852],[29.5304,-1.4083,2706.4492],[29.534,-1.4081,2695.5591],[29.5409,-1.4209,2507.9146],[29.5516,-1.4216,2459.561],[29.5484,-1.4134,2563.9092],[29.5407,-1.4042,2734.1479],[29.5446,-1.4019,2798.0681],[29.5553,-1.419,2458.0361],[29.5751,-1.3977,2801.4197],[29.5897,-1.3951,3358.3186],[29.589,-1.3916,3430.9355],[29.5931,-1.387,3526.9937],[29.593,-1.3843,3454.1887],[29.5889,-1.3857,3410.5286],[29.605,-1.3177,2059.8262],[29.6011,-1.3023,2054.9475],[29.5979,-1.2997,2015.7405],[29.5943,-1.2832,1858.1776],[29.6007,-1.2839,1865.8149],[29.6012,-1.2639,1789.3926],[29.6059,-1.2517,1833.1324],[29.601,-1.2519,1758.6689],[29.5993,-1.2501,1767.5887],[29.5958,-1.2509,1770.6539],[29.5944,-1.249,1764.6035],[29.5986,-1.2466,1803.5642],[29.6006,-1.2425,1841.7412],[29.6035,-1.2416,1854.7317],[29.6041,-1.2337,1941.1799],[29.6059,-1.2301,1894.4075],[29.6019,-1.2221,1977.1984],[29.6067,-1.2191,1967.9241],[29.6042,-1.2153,1892.8564],[29.5928,-1.2092,1930.3118],[29.5924,-1.2072,1907.4645],[29.5878,-1.2038,1732.1215],[29.5882,-1.2007,1782.8386],[29.583,-1.2002,1779.2778],[29.5819,-1.1963,1847.8748],[29.5723,-1.188,1898.5233],[29.5715,-1.1836,1757.4209],[29.5727,-1.1816,1750.1482],[29.5761,-1.1814,1764.1384],[29.5794,-1.1745,1753.5146],[29.5761,-1.1682,1699.8199],[29.579,-1.1605,1695.1033],[29.5846,-1.1529,1576.3787],[29.5856,-1.154,1575.2483],[29.5876,-1.1525,1644.1919],[29.5887,-1.1533,1664.8455],[29.5885,-1.1518,1644.1919],[29.5913,-1.1496,1664.4561],[29.5934,-1.1498,1676.1588],[29.5875,-1.125,1609.6342],[29.5891,-1.1023,1656.2803],[29.5921,-1.0951,1535.6273],[29.595,-1.0621,1595.1722],[29.5926,-1.0404,1746.371],[29.5919,-1.0115,1371.6118],[29.5831,-1.005,1347.3914],[29.5849,-0.9955,1583.9954],[29.5883,-0.9883,1782.1892],[29.5847,-0.9791,1752.2372],[29.5889,-0.9775,1622.5503],[29.593,-0.9838,1814.7588],[29.5964,-0.9844,1722.7659],[29.6003,-0.9775,1778.686],[29.594,-0.974,1845.4603],[29.5921,-0.9702,1741.1937],[29.5936,-0.964,1881.8821],[29.5892,-0.9491,1655.1967],[29.5892,-0.943,1713.9971],[29.5862,-0.9413,1723.1624],[29.5857,-0.9389,1659.1997],[29.592,-0.9295,1515.1564],[29.5885,-0.9206,1782.0623],[29.583,-0.9184,1741.3472],[29.5814,-0.9163,1777.9905],[29.5807,-0.9023,1665.2484],[29.5825,-0.8994,1682.8501],[29.5874,-0.8973,1768.7179],[29.6311,-0.8975,1160.8317],[29.6353,-0.8919,1152.4089],[29.6316,-0.8902,1116.4384],[29.6275,-0.8824,1137.547],[29.6295,-0.8793,1111.9207],[29.6262,-0.8699,1111.1361],[29.6269,-0.8656,1087.1521],[29.6254,-0.8586,1097.5081],[29.6293,-0.8446,1083.4071],[29.6358,-0.8321,1093.8247],[29.6387,-0.8319,1071.0098],[29.6375,-0.8281,1067.6489],[29.6393,-0.8275,1047.4697],[29.6408,-0.8225,1063.7135],[29.6385,-0.8213,1058.7794],[29.6397,-0.8202,1040.3889],[29.6383,-0.8176,1038.7534],[29.6394,-0.8174,1089.3589],[29.6351,-0.8136,1041.5103],[29.634,-0.8085,1049.1917],[29.6293,-0.8031,1067.4265],[29.6321,-0.7985,1032.4851],[29.6314,-0.7965,1034.0006],[29.6249,-0.7899,1051.2938],[29.6264,-0.7889,1027.9127],[29.6264,-0.7857,1024.1938],[29.6288,-0.785,1021.1198],[29.6287,-0.783,1020.5864],[29.6269,-0.7823,1020.5341],[29.628,-0.7777,1017.9594],[29.6305,-0.7756,1025.2953],[29.6284,-0.7716,1027.8221],[29.6302,-0.7694,1015.5367],[29.6292,-0.7672,1011.7454],[29.6303,-0.7624,1008.9197],[29.6283,-0.761,1010.4637],[29.6291,-0.7562,1005.3941],[29.6277,-0.7543,1005.6764],[29.629,-0.7531,1005.1282],[29.6278,-0.7493,1005.2838],[29.6301,-0.7465,1001.3604],[29.6303,-0.7427,998.6478],[29.6288,-0.7409,997.0591],[29.6303,-0.7381,998.5087],[29.6287,-0.736,1011.3894],[29.6304,-0.7361,1011.3894],[29.6306,-0.7324,994.2033],[29.6275,-0.7241,993.1135],[29.6239,-0.7213,991.5033],[29.625,-0.7174,988.2369],[29.624,-0.716,989.3607],[29.6269,-0.7137,992.6232],[29.6256,-0.7124,987.813],[29.6253,-0.7021,993.0216],[29.627,-0.7016,987.1655],[29.6268,-0.6986,981.2206],[29.6294,-0.6994,980.1257],[29.632,-0.6968,981.0072],[29.633,-0.686,977.3034],[29.6348,-0.6843,977.3635],[29.6338,-0.6818,978.2589],[29.6362,-0.681,974.3384],[29.6365,-0.6729,1002.4116],[29.6397,-0.6735,972.9667],[29.6413,-0.6719,972.7174],[29.6431,-0.6655,971.8844],[29.6476,-0.6588,965.3927],[29.648,-0.6464,958.8125],[29.6505,-0.6423,955.5649],[29.6505,-0.6384,957.4903],[29.6534,-0.637,956.4474],[29.6529,-0.6354,961.4668],[29.6569,-0.6306,962.0522],[29.6567,-0.6288,959.9946],[29.6591,-0.6275,957.4651],[29.6595,-0.6231,954.6668],[29.6486,-0.5928,941.7474],[29.6517,-0.594,940.9272],[29.6552,-0.5927,947.8899],[29.6562,-0.594,945.6957],[29.6576,-0.5921,941.7453],[29.6592,-0.5936,943.0092],[29.6589,-0.5913,941.7453],[29.6619,-0.5932,942.0092],[29.6612,-0.5914,940.692],[29.6663,-0.5893,940.6085],[29.6792,-0.5672,934.1416],[29.6792,-0.5633,932.6383],[29.6744,-0.5556,930.6588],[29.6681,-0.555,929.8204],[29.6655,-0.5512,928.8329],[29.6674,-0.5428,928.4369],[29.6664,-0.5408,930.0177],[29.6693,-0.5383,928.234],[29.669,-0.5305,926.3154],[29.671,-0.522,924.9506],[29.6687,-0.5169,923.5194],[29.6695,-0.5132,921.8278],[29.6675,-0.5078,920.113],[29.6713,-0.5025,921.6337],[29.6674,-0.4986,923.3149],[29.6729,-0.4941,922.6594],[29.6747,-0.4901,919.4225],[29.6734,-0.4887,922.8622],[29.6734,-0.4833,919.7201],[29.6703,-0.4795,922.5833],[29.6703,-0.4718,924.5826],[29.6645,-0.4685,920.5392],[29.661,-0.4695,916.6136],[29.6557,-0.4655,917.4872],[29.6539,-0.4668,917.181],[29.6518,-0.4622,912.0],[29.6509,-0.4644,912.0],[29.6478,-0.4658,912.0],[29.6461,-0.4648,912.0],[29.6434,-0.4668,912.0],[29.6458,-0.4694,912.0],[29.6474,-0.4686,912.7195],[29.6423,-0.4837,917.1438],[29.6318,-0.4939,912.0],[29.6292,-0.4987,912.0],[29.6264,-0.499,912.0],[29.626,-0.5047,912.0],[29.6188,-0.5107,912.0],[29.6166,-0.5328,912.8115],[29.6137,-0.539,913.7251],[29.613,-0.5334,912.0],[29.6122,-0.534,912.0],[29.6131,-0.5428,915.1917],[29.611,-0.5485,912.0],[29.5994,-0.5647,912.0],[29.5935,-0.5782,912.0],[29.5845,-0.5854,912.0],[29.5717,-0.6063,912.0],[29.5589,-0.6191,912.0],[29.5539,-0.6211,912.0],[29.5344,-0.6206,912.0],[29.5161,-0.6166,912.0],[29.5163,-0.6182,912.0],[29.526,-0.6223,912.0],[29.5151,-0.6286,912.0],[29.4992,-0.6411,912.0],[29.4865,-0.6473,912.0],[29.48,-0.6412,917.5037],[29.4809,-0.6321,912.0],[29.4767,-0.6257,915.9247],[29.4749,-0.6247,915.7833],[29.4729,-0.6263,915.1708],[29.4717,-0.6247,915.5484],[29.4669,-0.6238,915.8273],[29.472,-0.6205,916.1945],[29.4713,-0.6153,912.0],[29.4648,-0.6131,912.0],[29.4637,-0.6141,916.787],[29.4651,-0.6177,916.6439],[29.4635,-0.6176,916.558],[29.4595,-0.6151,916.7311],[29.4579,-0.6102,913.1709],[29.4536,-0.6076,914.6582],[29.4535,-0.6033,912.0],[29.4449,-0.5999,912.0],[29.4409,-0.6041,916.7556],[29.4424,-0.6091,917.0364],[29.4347,-0.6122,912.0],[29.4349,-0.6149,912.0],[29.4301,-0.6142,912.0],[29.4287,-0.6166,913.1321],[29.4318,-0.6257,916.6369],[29.4319,-0.6316,914.986],[29.4355,-0.637,916.9435],[29.4221,-0.6488,916.2375],[29.4206,-0.6561,915.9709],[29.4159,-0.655,912.0],[29.4076,-0.6663,916.2289],[29.4051,-0.666,912.0],[29.4043,-0.6711,914.9734],[29.4011,-0.6716,912.8572],[29.4017,-0.6767,915.7246],[29.3982,-0.6822,912.0],[29.3993,-0.686,915.8701],[29.3976,-0.6906,915.7236],[29.3925,-0.6885,912.0],[29.3924,-0.6837,912.0],[29.39,-0.6782,912.0],[29.3813,-0.6829,912.59],[29.3779,-0.6818,912.0],[29.3752,-0.6862,912.0],[29.374,-0.6944,916.1925],[29.3711,-0.6978,912.0],[29.3709,-0.7048,915.9778],[29.3674,-0.7023,915.5607],[29.3676,-0.7,912.6485],[29.3632,-0.6988,915.9301],[29.365,-0.6933,915.55],[29.3684,-0.696,915.6816],[29.3708,-0.6921,914.9848],[29.3677,-0.6915,914.9559],[29.3675,-0.6849,912.0],[29.3662,-0.6847,912.0],[29.3663,-0.6881,917.0675],[29.3638,-0.6918,915.5444],[29.3626,-0.69,915.8123],[29.364,-0.6767,921.7442],[29.3683,-0.6692,915.5934],[29.3707,-0.6686,915.5292],[29.373,-0.6634,917.6509],[29.3711,-0.6631,916.2637],[29.3729,-0.6562,918.5316],[29.3744,-0.6546,918.9841],[29.3625,-0.6553,921.1168],[29.3591,-0.6569,922.6758],[29.3421,-0.6506,925.6892],[29.3351,-0.6437,924.4465],[29.3279,-0.6437,927.4205],[29.3337,-0.6613,931.5319],[29.3253,-0.6701,934.5821],[29.2908,-0.6945,956.3732],[29.2382,-0.7021,1329.5492],[29.2302,-0.6923,1626.9893],[29.213,-0.6825,1595.8523],[29.1989,-0.6658,1766.0209],[29.1897,-0.6639,1872.7046],[29.1855,-0.6668,1915.0601],[29.1831,-0.6824,1957.2819],[29.1664,-0.698,1838.1804],[29.1611,-0.7048,1742.5564],[29.1465,-0.7136,1532.4724],[29.1277,-0.7118,1496.1614],[29.1186,-0.7275,1497.7637],[29.1169,-0.7335,1519.5186],[29.1183,-0.7408,1487.5143],[29.1006,-0.7676,1456.9119],[29.0892,-0.7768,1439.0507],[29.0849,-0.7828,1414.2502],[29.0802,-0.7966,1421.0596],[29.0707,-0.8098,1395.582],[29.0662,-0.821,1407.5092]],
[[29.4464,-1.2223,1217.8806],[29.4206,-1.2081,1158.334],[29.423,-1.1703,1125.9827],[29.4464,-1.1561,1230.1707],[29.4723,-1.1656,1298.6587],[29.484,-1.1845,1386.2504],[29.4746,-1.2105,1300.7361],[29.4464,-1.2223,1217.8806]]]]}}