{"type": "Feature","bbox": [21.258,2.9443,23.5331,4.24],"geometry": {"type": "MultiPolygon","coordinates": [[[[21.965,4.2251,415.4858],[21.9646,4.2125,420.0045],[21.9589,4.19,423.2633],[21.9583,4.1798,417.0906],[21.9459,4.1308,451.6906],[21.9389,4.1104,438.9394],[21.9273,4.0817,453.9735],[21.9106,4.0481,445.8933],[21.8714,3.985,473.7786],[21.8443,3.9759,463.6135],[21.8222,3.9706,453.9538],[21.8069,3.9716,442.3334],[21.7915,3.9747,456.2262],[21.767,3.974,479.9779],[21.7574,3.9794,470.2602],[21.7283,3.9832,480.1923],[21.6875,3.9927,483.397],[21.6799,3.9932,457.3421],[21.6229,3.9788,493.2565],[21.568,3.9802,500.0002],[21.538,3.9764,503.9323],[21.5263,3.9772,505.9486],[21.5206,3.9739,513.6999],[21.5079,3.935,532.9738],[21.4979,3.8899,478.6961],[21.495,3.8878,477.6802],[21.4909,3.8795,489.63869999999997],[21.4839,3.8735,487.623],[21.4759,3.8621,477.6581],[21.4741,3.8571,483.6119],[21.4744,3.8513,467.0565],[21.4675,3.8457,495.9096],[21.4586,3.8338,490.4101],[21.4412,3.8236,472.1738],[21.4366,3.8192,475.2135],[21.4295,3.8017,470.228],[21.4314,3.7886,449.4804],[21.4374,3.7842,442.6947],[21.4416,3.7785,435.5068],[21.4456,3.7574,429.0358],[21.4437,3.7394,433.2412],[21.4487,3.7197,417.7979],[21.4589,3.7032,412.5841],[21.4426,3.6865,404.54],[21.4366,3.662,424.2029],[21.4282,3.6541,401.4371],[21.4221,3.6435,406.8643],[21.3811,3.6063,423.3661],[21.3686,3.5979,417.0482],[21.3544,3.5752,448.9772],[21.3466,3.5671,412.4713],[21.3373,3.5604,424.2925],[21.3332,3.5272,415.897],[21.3206,3.5045,457.4719],[21.3147,3.5019,404.8658],[21.3099,3.4965,402.2704],[21.3013,3.4681,387.4057],[21.2902,3.4597,381.4813],[21.2864,3.4588,378.7181],[21.2824,3.4593,385.2656],[21.2727,3.4659,378.5355],[21.2628,3.4659,385.131],[21.258,3.4621,385.6866],[21.2589,3.4563,385.8026],[21.266,3.4474,422.3653],[21.2684,3.4394,419.4784],[21.2713,3.436,435.2302],[21.2859,3.427,481.3587],[21.3265,3.4081,502.0394],[21.359,3.395,491.947],[21.4918,3.3526,474.5174],[21.5373,3.3338,528.272],[21.5472,3.3269,517.4575],[21.5494,3.3216,502.1534],[21.5534,3.2863,438.7967],[21.5641,3.2731,466.5276],[21.5724,3.2333,497.0274],[21.5764,3.2325,496.9187],[21.5861,3.2374,508.3141],[21.6104,3.2604,505.916],[21.6357,3.2699,500.9128],[21.6478,3.2767,499.5121],[21.6524,3.2802,489.9017],[21.6596,3.2921,469.7917],[21.6653,3.2964,445.7704],[21.6731,3.3002,471.6443],[21.6987,3.3039,492.9939],[21.7124,3.3102,507.2462],[21.7205,3.318,531.2003],[21.7426,3.358,521.5976],[21.7553,3.3774,486.9037],[21.7598,3.3825,479.7449],[21.7717,3.3847,474.9717],[21.7827,3.384,502.1488],[21.787,3.379,507.9101],[21.8023,3.3388,505.7957],[21.8149,3.3177,510.1541],[21.8214,3.3122,474.9064],[21.8297,3.3115,505.7893],[21.8367,3.3137,486.4082],[21.8566,3.3237,507.4995],[21.8709,3.3279,488.1326],[21.8803,3.3287,487.1622],[21.8889,3.3267,511.0375],[21.9174,3.2981,476.3943],[21.9292,3.2947,480.6635],[21.9464,3.2951,488.983],[21.9526,3.2928,513.4663],[21.9639,3.2752,522.0593],[21.9714,3.2694,534.7824],[21.9967,3.2605,560.4343],[22.0064,3.2545,558.0147],[22.0163,3.2521,537.8384],[22.0338,3.2547,534.7553],[22.0412,3.2524,532.0257],[22.0509,3.2447,500.6654],[22.0536,3.2279,452.9454],[22.0649,3.2142,494.8078],[22.0749,3.1882,458.2839],[22.0814,3.1805,476.4047],[22.091,3.1508,422.4924],[22.0982,3.1385,428.3908],[22.1012,3.1286,422.2665],[22.1014,3.1134,462.0347],[22.1051,3.0989,449.7918],[22.1064,3.0821,409.9363],[22.1071,3.0511,411.3621],[22.1109,3.0334,410.8173],[22.1085,3.0136,420.42],[22.11,2.9988,425.3706],[22.1154,2.9858,419.929],[22.1163,2.9782,434.4596],[22.1166,2.9443,390.2397],[22.1339,2.9486,395.1287],[22.1452,2.9482,399.455],[22.1497,2.9536,396.2992],[22.1538,2.955,396.2445],[22.1599,2.961,399.0553],[22.1858,2.9623,400.1855],[22.1919,2.967,397.2547],[22.2045,2.9705,393.437],[22.2122,2.9777,398.116],[22.2214,2.9776,395.5015],[22.231,2.9813,392.4319],[22.2385,2.9869,396.7756],[22.2522,2.9879,397.2301],[22.2595,2.9912,398.6112],[22.2664,2.9917,395.2211],[22.2755,2.995,403.0444],[22.2833,2.9953,392.3183],[22.3036,3.0097,392.3954],[22.3178,3.0087,406.5674],[22.3419,3.0263,394.1347],[22.3547,3.0319,393.738],[22.3648,3.0315,398.3366],[22.3724,3.0249,408.6437],[22.4162,3.0073,437.5007],[22.4341,3.0033,409.7502],[22.4623,2.9998,404.3303],[22.4738,2.9925,437.9014],[22.4759,2.9849,400.0126],[22.4807,2.9801,412.5356],[22.4865,2.9785,408.3204],[22.5089,3.0162,475.2691],[22.509,3.0351,464.5168],[22.518,3.0503,460.4934],[22.5142,3.0639,448.9817],[22.5214,3.0858,491.5574],[22.533,3.0969,488.1207],[22.5433,3.0998,505.5223],[22.5499,3.1088,526.1255],[22.5512,3.115,514.6581],[22.5551,3.1185,516.5762],[22.5573,3.1238,513.7582],[22.5579,3.1448,526.3021],[22.5559,3.1705,567.8437],[22.5705,3.2035,558.556],[22.6037,3.2685,554.3578],[22.6212,3.2959,558.5571],[22.625,3.3149,553.8207],[22.6122,3.3433,550.5439],[22.6131,3.3597,545.6304],[22.6166,3.3693,549.2151],[22.6547,3.408,507.2301],[22.6658,3.429,526.7104],[22.6737,3.4381,550.0691],[22.6815,3.445,554.2261],[22.7053,3.4525,535.1821],[22.7288,3.477,512.0034],[22.7468,3.4898,518.5187],[22.7869,3.5039,533.0563],[22.8069,3.517,537.0991],[22.8197,3.5278,536.724],[22.8287,3.5456,549.8254],[22.8418,3.554,563.8629],[22.8821,3.562,557.3558],[22.9336,3.5655,540.5275],[22.9654,3.5754,557.6108],[22.9951,3.5808,548.2628],[23.0236,3.5906,554.4762],[23.0368,3.5994,507.353],[23.0467,3.6116,537.6459],[23.0567,3.6326,564.8361],[23.0615,3.6346,566.3079],[23.0843,3.6358,552.0771],[23.0912,3.6393,531.9818],[23.099,3.6496,511.4611],[23.1085,3.6757,503.9839],[23.1187,3.6919,514.7312],[23.1233,3.6962,512.4637],[23.1403,3.7003,535.7497],[23.143,3.7045,525.726],[23.1563,3.714,530.6703],[23.1809,3.725,523.027],[23.1869,3.7298,519.0085],[23.1908,3.731,525.9709],[23.2107,3.7531,544.1917],[23.2464,3.7714,551.5297],[23.2406,3.7822,570.5118],[23.2367,3.7856,573.4658],[23.243,3.7923,543.1798],[23.2624,3.7814,550.974],[23.2852,3.7777,570.5249],[23.3232,3.7487,586.611],[23.340699999999998,3.7249,594.6776],[23.3518,3.7128,554.1583],[23.4073,3.6883,573.3064],[23.4224,3.6903,554.5513],[23.4251,3.6979,531.2446],[23.434,3.7074,529.9579],[23.4383,3.7085,520.8287],[23.4436,3.7077,524.3508],[23.4493,3.7107,513.6348],[23.4589,3.7197,509.1639],[23.4636,3.7276,512.236],[23.4691,3.7315,509.9257],[23.4836,3.7304,514.6899],[23.4886,3.7335,526.4927],[23.4975,3.7441,504.6957],[23.5052,3.7478,516.2365],[23.5241,3.7657,505.876],[23.5305,3.7765,511.5596],[23.5331,3.8062,496.3539],[23.5291,3.8186,491.4784],[23.5197,3.8156,487.012],[23.5073,3.8176,460.0],[23.4826,3.8131,484.2729],[23.4611,3.818,480.487],[23.4578,3.8208,464.0377],[23.4557,3.8284,459.0],[23.4521,3.8288,468.6247],[23.4438,3.8234,486.8604],[23.4333,3.8225,485.3788],[23.4255,3.828,458.0],[23.414,3.8323,457.875],[23.4023,3.8333,479.7229],[23.4028,3.8246,483.4123],[23.3931,3.808,477.6054],[23.388,3.8075,471.9589],[23.3835,3.8035,478.2485],[23.3768,3.8028,476.0375],[23.3741,3.7991,479.8051],[23.3697,3.7977,478.884],[23.3656,3.8018,459.8807],[23.3635,3.808,456.0],[23.358,3.8124,465.4688],[23.3456,3.8164,467.4584],[23.3366,3.827,455.125],[23.3251,3.8246,486.0291],[23.3217,3.828,464.1636],[23.3242,3.8354,472.6837],[23.3209,3.8363,465.54],[23.3116,3.8319,511.2731],[23.301,3.8346,491.1107],[23.2978,3.8316,514.3854],[23.2912,3.8327,492.4647],[23.2852,3.8363,448.7247],[23.2781,3.8349,501.4156],[23.2689,3.8367,470.3752],[23.2554,3.8442,443.0875],[23.254,3.8465,441.0],[23.2547,3.8495,440.75],[23.2519,3.8511,442.0598],[23.2487,3.8499,456.0593],[23.2434,3.8545,457.0701],[23.2264,3.8628999999999998,439.0],[23.2151,3.8651,450.9228],[23.2078,3.8644,464.1256],[23.198,3.8524,472.4077],[23.1886,3.8516,468.0473],[23.1784,3.8451,459.9939],[23.169,3.8448,460.213],[23.1655,3.8485,455.7893],[23.1545,3.8477,446.2028],[23.1488,3.8555,436.5],[23.1548,3.876,448.701],[23.1537,3.8776,436.0],[23.1504,3.8774,455.1209],[23.1409,3.8649,467.8257],[23.1347,3.8669,444.3136],[23.1294,3.8644,466.8472],[23.1184,3.8664,455.0592],[23.1113,3.8728,430.5],[23.1065,3.873,430.0],[23.1017,3.8697,462.1757],[23.0978,3.8692,473.0862],[23.0926,3.8614,491.2463],[23.0891,3.8591,477.0705],[23.0773,3.8548,459.8692],[23.0715,3.8571,425.5],[23.069,3.8608,425.0],[23.0628,3.8554,468.3511],[23.0585,3.8543,472.0775],[23.0495,3.8618,430.7461],[23.0412,3.8617,454.1709],[23.0328,3.8582,458.1526],[23.0254,3.8607,442.4238],[23.0215,3.86,459.1193],[23.0127,3.8501,464.1961],[23.0056,3.8507,482.4529],[22.993,3.8384,459.9589],[22.9901,3.8382,449.4914],[22.9871,3.8402,435.5008],[22.9863,3.8458,451.3156],[22.9831,3.8469,425.9184],[22.9815,3.8503,422.9354],[22.9746,3.8514,447.4794],[22.973,3.8572,431.9932],[22.9693,3.8597,415.0],[22.9654,3.8597,458.321],[22.9631,3.8578,453.7154],[22.9595,3.8589,439.4877],[22.9492,3.852,452.6262],[22.937,3.8533,453.1426],[22.9288,3.8505,455.4025],[22.9181,3.843,433.0517],[22.9135,3.8441,427.2107],[22.9014,3.8346,473.3399],[22.8957,3.8362,456.3198],[22.8903,3.8451,409.0],[22.8818,3.8501,419.2349],[22.8761,3.8455,459.4457],[22.8709,3.8452,464.654],[22.8686,3.8436,467.8882],[22.8596,3.8486,428.9582],[22.8546,3.8493,414.8085],[22.849,3.8598,405.625],[22.8442,3.8616,408.0867],[22.838,3.8598,461.9668],[22.8289,3.8516,437.1832],[22.8263,3.8597,406.3088],[22.814,3.8559,438.1315],[22.8107,3.861,420.8166],[22.7958,3.871,433.5945],[22.7946,3.8754,430.2516],[22.7914,3.8792,428.383],[22.784,3.8829,425.2959],[22.7821,3.8856,440.6069],[22.7839,3.9047,463.9396],[22.7864,3.9082,448.8881],[22.798,3.9081,480.9829],[22.8005,3.9115,456.3658],[22.8019,3.9194,456.1661],[22.7985,3.9368,464.6766],[22.8044,3.9479,496.282],[22.8096,3.9652,483.7863],[22.8221,3.9819,489.8013],[22.8294,3.9861,503.142],[22.837,3.9871,492.9449],[22.8117,4.0188,520.8557],[22.8003,4.0201,533.6408],[22.7934,4.0289,529.0663],[22.7868,4.0338,515.967],[22.7757,4.0292,523.1194],[22.7601,4.0302,510.1192],[22.7609,4.0449,504.2074],[22.7475,4.0737,485.0],[22.7343,4.075,518.4104],[22.7222,4.0831,480.9709],[22.7143,4.1027,482.2976],[22.7098,4.1016,487.3265],[22.6941,4.084,500.3809],[22.6803,4.0924,494.216],[22.6735,4.1222,481.8781],[22.6676,4.1233,509.8557],[22.6485,4.1137,492.4692],[22.6291,4.1281,447.3909],[22.6215,4.1291,460.5651],[22.5999,4.1217,445.1105],[22.5853,4.122,438.4177],[22.5576,4.1345,436.0805],[22.5469,4.1363,436.5121],[22.5184,4.126,405.3604],[22.4989,4.1144,399.8519],[22.4879,4.1157,395.9604],[22.4769,4.1193,397.423],[22.4693,4.1167,394.5],[22.4629,4.1171,396.8164],[22.4449,4.1244,400.2516],[22.4094,4.1255,393.5938],[22.3982,4.1211,397.5571],[22.392,4.121,396.3116],[22.3874,4.1183,397.107],[22.3594,4.118,395.2052],[22.34,4.114,396.6425],[22.306,4.1152,391.0],[22.2813,4.1121,398.3395],[22.2664,4.1144,393.6164],[22.2402,4.1244,391.0],[22.2191,4.1264,395.2847],[22.1982,4.1351,390.5],[22.187,4.143,390.5],[22.164,4.154,390.5],[22.127,4.192,392.1895],[22.095,4.212,393.7616],[22.0689,4.2149,394.1238],[22.0588,4.22,389.5],[22.0313,4.2217,409.332],[22.007,4.239,393.39],[21.993,4.24,394.5955],[21.9822,4.237,416.0216],[21.965,4.2251,415.4858]]]]}
,"properties": {"GID_2": "COD.20.6_1","GID_0": "COD","country": "DemocraticRepublicoftheCongo","GID_1": "COD.20_1","province": "Nord-Ubangi","NL_NAME_1": "NA","county": "Yakoma","VARNAME_2": "NA","NL_NAME_2": "NA","TYPE_2": "Territoire","ENGTYPE_2": "Territory","CC_2": "NA","HASC_2": "NA","name": "Yakoma.county","area_km2": 16321.24,"hist_schema_id": "Elevation0-9000","hist_area_km2": {"350": 0.61,"375": 67.47,"400": 1339.25,"425": 3122.49,"450": 3411.42,"475": 2658.24,"500": 2166.11,"525": 2027.01,"550": 1387.74,"575": 133.05,"600": 7.85}}}