{"type":"Feature","properties":{"GID_2":"COD.16.8_1","GID_0":"COD","country":"DemocraticRepublicoftheCongo","GID_1":"COD.16_1","province":"Mai-Ndombe","NL_NAME_1":"NA","county":"Mushie","VARNAME_2":"NA","NL_NAME_2":"NA","TYPE_2":"Territoire","ENGTYPE_2":"Territory","CC_2":"NA","HASC_2":"NA","name":"Mushie.county"},
"geometry":{"type": "MultiPolygon","coordinates": [[[[16.7137,-3.0186,283.9002],[16.7293,-3.0266,283.009],[16.7387,-3.0268,284.3912],[16.7492,-3.024,286.0231],[16.7545,-3.0278,281.5],[16.7664,-3.0276,285.4674],[16.7861,-3.0323,290.5795],[16.7951,-3.0403,282.0],[16.8011,-3.0417,282.0],[16.8194,-3.0421,282.5],[16.8359,-3.0454,282.5],[16.8473,-3.0433,285.9527],[16.8583,-3.046,283.0],[16.872,-3.0418,283.5],[16.8828,-3.0316,283.5],[16.894,-3.0298,286.468],[16.9112,-3.0315,284.0],[16.9566,-3.0154,284.0],[16.9631,-3.0172,284.0],[16.9711,-3.0163,286.1975],[16.9731,-3.0117,286.7683],[16.9761,-3.0098,284.8603],[16.98,-3.0103,287.1359],[17.0172,-2.997,284.0],[17.0422,-2.9976,284.0],[17.0616,-2.9947,284.0],[17.0705,-2.9921,284.6492],[17.0765,-2.9882,284.4744],[17.097,-2.9798,284.0],[17.1064,-2.9777,284.0],[17.1406,-2.9886,284.0],[17.1599,-2.9986,287.2569],[17.1797,-3.0142,287.6814],[17.1861,-3.0155,284.5],[17.1961,-3.0127,284.5],[17.2048,-3.0069,285.0],[17.2155,-3.0038,286.4216],[17.224,-3.0034,286.2447],[17.2272,-3.0003,287.8235],[17.2508,-3.003,285.5],[17.2784,-2.986,287.5952],[17.3289,-2.9313,288.6583],[17.3332,-2.9188,288.2863],[17.3333,-2.8981,288.6095],[17.3347,-2.894,288.6707],[17.3411,-2.8863,286.9023],[17.3466,-2.8842,289.279],[17.3617,-2.8837,286.5],[17.3731,-2.88,289.0521],[17.3802,-2.8756,289.0495],[17.3929,-2.8635,287.5609],[17.4014,-2.8598,287.0],[17.4165,-2.8577,287.0],[17.4247,-2.8588,287.0],[17.4517,-2.8497,289.3624],[17.4555,-2.8453,289.3893],[17.4598,-2.8321,289.7853],[17.463,-2.8291,287.0],[17.466,-2.8286,288.8745],[17.4793,-2.8371,287.0],[17.4862,-2.8373,287.0],[17.5001,-2.8342,290.3737],[17.5205,-2.8268,289.771],[17.5298,-2.8198,289.8148],[17.5634,-2.8134,290.0077],[17.5712,-2.8085,290.1555],[17.5986,-2.7761,300.6915],[17.6085,-2.7579,298.0813],[17.6088,-2.7498,303.6216],[17.5947,-2.7102,324.4077],[17.595,-2.6976,329.2405],[17.5969,-2.6943,323.0193],[17.6004,-2.6916,311.1917],[17.605,-2.691,313.2273],[17.6658,-2.6914,296.6295],[17.6751,-2.6893,305.9169],[17.6913,-2.6805,316.2492],[17.7212,-2.6507,306.6059],[17.7272,-2.6372,290.8515],[17.7354,-2.5856,291.0185],[17.7613,-2.5213,290.8369],[17.7631,-2.5059,292.2008],[17.7731,-2.5026,292.3796],[17.7872,-2.4871,298.8826],[17.792,-2.4848,316.7392],[17.8011,-2.4843,295.1414],[17.8057,-2.4739,293.3147],[17.808,-2.4635,306.5199],[17.8069,-2.4447,293.1838],[17.8153,-2.4363,297.0219],[17.8196,-2.4253,292.5646],[17.8321,-2.4142,306.3538],[17.8392,-2.4123,305.3437],[17.8494,-2.4012,303.8163],[17.8583,-2.3986,292.7346],[17.8529,-2.3837,299.3999],[17.8558,-2.3616,310.7467],[17.8563,-2.3333,311.3916],[17.8601,-2.3264,316.0693],[17.8729,-2.3136,311.0698],[17.8801,-2.2927,309.1563],[17.8921,-2.2774,306.5973],[17.8932,-2.2677,312.2368],[17.8913,-2.2537,311.0998],[17.8969,-2.239,311.6065],[17.8962,-2.2353,312.3665],[17.8916,-2.2312,312.2405],[17.8918,-2.2264,312.2976],[17.8984,-2.2226,313.8378],[17.9036,-2.2113,312.6243],[17.9134,-2.2051,323.9794],[17.9161,-2.1968,326.5974],[17.9112,-2.177,315.1968],[17.9129,-2.1639,314.1553],[17.9034,-2.1446,314.5882],[17.9022,-2.1246,316.4352],[17.9094,-2.1119,316.1321],[17.9203,-2.1001,316.1255],[17.9257,-2.0904,317.9704],[17.9282,-2.0764,317.3564],[17.9327,-2.0676,317.8494],[17.9461,-2.0528,317.6869],[17.9484,-2.0475,317.88],[17.9503,-2.0014,327.1461],[17.9114,-2.0069,336.6411],[17.8589,-2.009,322.7206],[17.8328,-2.0149,319.9686],[17.8204,-2.0203,326.4577],[17.8188,-2.0234,319.3535],[17.8074,-2.0263,320.4879],[17.7971,-2.0256,318.2536],[17.7911,-2.0275,303.2744],[17.7789,-2.0425,304.1734],[17.769,-2.0442,314.5004],[17.7636,-2.0497,306.2427],[17.732,-2.0492,323.2907],[17.658,-2.0732,320.6375],[17.5308,-2.0825,309.7552],[17.5174,-2.0856,313.2949],[17.4892,-2.097,324.7126],[17.4643,-2.0978,323.6729],[17.459,-2.1029,310.2995],[17.4467,-2.1016,327.4917],[17.4402,-2.0954,319.4093],[17.4203,-2.0895,324.5105],[17.3953,-2.091,325.8345],[17.3779,-2.0984,334.1373],[17.3577,-2.1176,332.4651],[17.352,-2.1185,335.7995],[17.3451,-2.1133,333.2959],[17.3411,-2.1122,321.4467],[17.3321,-2.1141,333.0188],[17.3003,-2.1282,332.1664],[17.2922,-2.1362,344.5474],[17.2935,-2.1513,335.577],[17.2915,-2.1552,337.7424],[17.2888,-2.1573,337.1778],[17.2728,-2.1602,354.3268],[17.2588,-2.1784,364.5421],[17.2455,-2.1892,341.4247],[17.2237,-2.199,340.8684],[17.2177,-2.1991,348.2121],[17.1988,-2.1871,360.9526],[17.1838,-2.1804,344.8572],[17.1637,-2.1579,363.0466],[17.1519,-2.1498,365.8092],[17.1465,-2.1471,346.7716],[17.1345,-2.1458,363.1784],[17.1263,-2.1489,351.7971],[17.0991,-2.177,359.2914],[17.0734,-2.2006,355.8412],[17.0599,-2.2108,362.6663],[17.0334,-2.2196,368.163],[16.9365,-2.2706,376.1534],[16.9228,-2.2744,366.4416],[16.9011,-2.2743,358.2081],[16.884,-2.269,375.2402],[16.8741,-2.2615,366.6982],[16.8647,-2.2522,366.2051],[16.8329,-2.2054,349.0823],[16.8279,-2.1994,364.7704],[16.8224,-2.1965,346.6366],[16.8086,-2.1925,341.4064],[16.7478,-2.1825,322.9035],[16.7241,-2.182,331.1912],[16.718,-2.1844,331.1764],[16.7104,-2.194,331.3463],[16.7064,-2.1964,325.1237],[16.6918,-2.1949,321.3897],[16.6892,-2.1981,322.579],[16.6773,-2.2193,316.1873],[16.6728,-2.236,319.1681],[16.674,-2.2435,339.6426],[16.6811,-2.2574,334.5994],[16.679,-2.2762,357.6758],[16.653,-2.3016,347.2344],[16.648,-2.3225,389.789],[16.6429,-2.3282,393.6107],[16.6341,-2.3306,369.0902],[16.5999,-2.319,402.7234],[16.57,-2.3064,396.1897],[16.5337,-2.2955,369.962],[16.5265,-2.2911,342.9407],[16.5171,-2.2818,341.0615],[16.5077,-2.2715,339.6678],[16.4868,-2.2426,323.7849],[16.4786,-2.2358,341.1701],[16.46,-2.2296,333.5837],[16.4475,-2.229,343.5901],[16.434,-2.2201,318.2989],[16.4322,-2.241,322.3035],[16.4343,-2.2502,325.3167],[16.4405,-2.2584,319.4843],[16.4433,-2.2651,328.0448],[16.4406,-2.2817,345.4284],[16.4435,-2.3005,355.7729],[16.4472,-2.3088,348.0508],[16.4584,-2.3184,341.7921],[16.464,-2.3303,345.5773],[16.4622,-2.3389,339.156],[16.4569,-2.3465,331.463],[16.4456,-2.3702,357.8871],[16.4441,-2.3854,366.458],[16.4393,-2.4059,371.8429],[16.4401,-2.4123,356.091],[16.4516,-2.4335,451.4411],[16.4523,-2.4378,422.3939],[16.4556,-2.4431,456.1822],[16.4598,-2.4442,441.879],[16.4749,-2.4403,447.0215],[16.513,-2.4207,420.9456],[16.5263,-2.4219,435.4047],[16.5316,-2.4276,416.8829],[16.5362,-2.455,436.4495],[16.5341,-2.4645,437.1898],[16.5229,-2.4858,421.7274],[16.5195,-2.5099,421.8619],[16.5261,-2.5316,432.8451],[16.5534,-2.5673,428.8752],[16.5546,-2.5734,403.8161],[16.5516,-2.5881,411.4237],[16.5368,-2.6068,435.0984],[16.5379,-2.6135,419.05],[16.5368,-2.6171,427.4158],[16.5302,-2.6229,420.3679],[16.5197,-2.6255,434.9816],[16.5122,-2.632,434.1795],[16.5074,-2.6325,439.6574],[16.4964,-2.6458,458.9431],[16.4955,-2.6511,486.4733],[16.4978,-2.6543,464.2337],[16.5134,-2.6591,440.8299],[16.527,-2.6729,433.2275],[16.5401,-2.6891,418.6332],[16.5695,-2.7056,404.5537],[16.5814,-2.7085,414.9503],[16.5922,-2.7168,407.7155],[16.5932,-2.737,364.3122],[16.595,-2.7428,358.0419],[16.598,-2.7464,368.1833],[16.6084,-2.7533,396.5878],[16.6236,-2.7755,369.487],[16.6317,-2.8068,342.6958],[16.6472,-2.8449,316.4769],[16.6501,-2.8633,323.4076],[16.6579,-2.8764,313.0729],[16.6648,-2.8835,321.9327],[16.6922,-2.9066,326.3059],[16.6968,-2.9176,309.4615],[16.7069,-2.9314,312.0629],[16.7116,-2.9595,307.7185],[16.711,-2.9668,299.4923],[16.7073,-2.9751,301.9526],[16.7063,-3.003,300.0281],[16.7091,-3.0112,291.097],[16.7137,-3.0186,283.9002]]]]}}