{"type":"Feature","properties":{"GID_2":"COD.4.3_1","GID_0":"COD","country":"DemocraticRepublicoftheCongo","GID_1":"COD.4_1","province":"Haut-Lomami","NL_NAME_1":"NA","county":"Kamina","VARNAME_2":"NA","NL_NAME_2":"NA","TYPE_2":"Territoire","ENGTYPE_2":"Territory","CC_2":"NA","HASC_2":"NA","name":"Kamina.county"},
"geometry":{"type": "MultiPolygon","coordinates": [[[[25.9343,-8.0193,631.4205],[25.9239,-8.0164,636.1919],[25.918,-8.0107,642.2225],[25.9107,-8.0117,640.5172],[25.9063,-8.0104,644.1946],[25.8946,-8.0,643.7737],[25.885,-7.9938,642.5968],[25.8861,-7.9885,640.208],[25.8838,-7.9883,642.7053],[25.8817,-7.9901,644.2659],[25.8762,-7.9888,643.4182],[25.8739,-7.9922,657.8597],[25.8712,-7.9913,660.3528],[25.8691,-7.9872,644.0054],[25.8652,-7.9858,654.4789],[25.8635,-7.9824,648.1438],[25.8601,-7.9824,650.0505],[25.8569,-7.9782,655.0461],[25.849,-7.9743,654.2556],[25.8449,-7.9663,652.8419],[25.8354,-7.9581,657.793],[25.826,-7.9606,655.8841],[25.823,-7.9595,665.4669],[25.8239,-7.956,657.4443],[25.8209,-7.9514,670.7886],[25.8209,-7.948,661.6776],[25.8147,-7.948,663.887],[25.8073,-7.9356,662.9751],[25.8066,-7.9319,663.8363],[25.8082,-7.929,666.3959],[25.8052,-7.923,668.4264],[25.8072,-7.9177,669.2826],[25.8026,-7.9083,671.0747],[25.7987,-7.9079,669.7559],[25.7879,-7.8987,671.7677],[25.7849,-7.9035,675.0734],[25.7823,-7.8936,669.876],[25.7802,-7.8923,672.5598],[25.777,-7.8822,675.8345],[25.7747,-7.881,676.3802],[25.7712,-7.8824,679.6438],[25.7671,-7.8797,676.0284],[25.7639,-7.8824,678.0242],[25.7593,-7.8817,678.907],[25.7547,-7.8863,682.7399],[25.7503,-7.8813,683.4355],[25.7464,-7.882,684.2772],[25.7431,-7.879,684.3163],[25.7356,-7.8813,693.0373],[25.7319,-7.8779,691.0295],[25.7247,-7.877,691.0461],[25.721,-7.8749,688.7507],[25.7097,-7.8614,698.191],[25.7058,-7.8607,690.915],[25.7056,-7.8545,693.8947],[25.701,-7.8529,694.205],[25.6957,-7.8485,699.2386],[25.6922,-7.8497,701.6318],[25.6899,-7.8428,703.0161],[25.6871,-7.8416,699.887],[25.6752,-7.8456,702.8979],[25.6634,-7.8387,706.3149],[25.653,-7.8348,709.2962],[25.6424,-7.8344,708.9215],[25.6302,-7.8364,718.6417],[25.6238,-7.8332,716.6974],[25.616,-7.8325,717.2853],[25.6074,-7.8289,719.1915],[25.5911,-7.8142,727.8694],[25.5876,-7.8062,745.3226],[25.5839,-7.8032,739.1656],[25.5763,-7.8014,741.9269],[25.5625,-7.7867,749.2123],[25.5523,-7.7821,744.1545],[25.5498,-7.775,760.2355],[25.5436,-7.7713,767.6666],[25.5415,-7.7631,769.0507],[25.5366,-7.7608,760.9064],[25.5313,-7.7534,751.9103],[25.5217,-7.7461,760.6705],[25.518,-7.7367,771.1851],[25.5087,-7.7316,776.7651],[25.4958,-7.719,798.5952],[25.4873,-7.7064,770.0223],[25.4719,-7.7018,798.9561],[25.4675,-7.6952,792.4116],[25.4647,-7.6947,819.5075],[25.459,-7.6809,801.6383],[25.4564,-7.6796,815.4521],[25.4559,-7.6747,796.8458],[25.453,-7.6692,787.4316],[25.4497,-7.6679,789.46],[25.4228,-7.6718,811.4744],[25.415,-7.6785,802.3959],[25.4092,-7.678,801.5216],[25.4037,-7.6752,815.3384],[25.3968,-7.6688,838.123],[25.3931,-7.6622,859.4259],[25.3891,-7.6459,844.7104],[25.3834,-7.6332,842.8859],[25.3838,-7.6248,867.8586],[25.3807,-7.6175,869.1475],[25.3699,-7.62,883.4486],[25.367,-7.6266,918.3359],[25.3574,-7.6346,936.9053],[25.3464,-7.6398,930.1041],[25.3299,-7.6426,927.2405],[25.3232,-7.6397,959.4117],[25.3104,-7.638,943.2653],[25.3067,-7.6429,963.7014],[25.2767,-7.6418,977.4432],[25.2686,-7.6389,963.4615],[25.2519,-7.627,915.6111],[25.2462,-7.6271,883.3643],[25.2414,-7.6233,863.2393],[25.2317,-7.6242,863.6856],[25.228,-7.632,863.7822],[25.2238,-7.6338,863.9861],[25.2162,-7.6322,866.1136],[25.2126,-7.6368,866.385],[25.2103,-7.6373,864.5227],[25.2086,-7.6323,878.422],[25.2052,-7.6352,864.6616],[25.2001,-7.6359,873.8267],[25.1773,-7.6527,871.5863],[25.1757,-7.669,866.059],[25.1716,-7.672,869.8439],[25.164,-7.6738,866.6217],[25.1601,-7.6697,871.3798],[25.1541,-7.6688,870.2068],[25.1471,-7.6624,875.9721],[25.141,-7.6457,912.4335],[25.139,-7.6242,910.4755],[25.132,-7.6157,901.342],[25.1316,-7.6101,902.0675],[25.1261,-7.6034,878.0427],[25.1239,-7.5923,873.8885],[25.1209,-7.5899,881.7145],[25.1185,-7.5841,896.9995],[25.1119,-7.5626,926.1001],[25.1113,-7.5544,916.6478],[25.1158,-7.5313,923.9738],[25.1255,-7.5062,951.0151],[25.1294,-7.5011,954.6617],[25.1307,-7.4858,977.7715],[25.125,-7.4802,963.3743],[25.1156,-7.4753,964.1412],[25.08,-7.4643,937.9487],[25.0653,-7.4579,968.8533],[25.061,-7.4545,985.1509],[25.0576,-7.446,1012.5739],[25.0579,-7.4406,1010.0736],[25.0587,-7.4344,1014.6083],[25.0646,-7.419,1002.9711],[25.0643,-7.3881,959.7579],[25.0618,-7.3822,993.1858],[25.0458,-7.3689,1007.8563],[25.0436,-7.3618,1022.9537],[25.0477,-7.3529,1006.7274],[25.0587,-7.3431,1007.0457],[25.0869,-7.3301,1004.4998],[25.0991,-7.3226,958.9055],[25.1125,-7.3094,1009.9145],[25.1119,-7.2767,920.4139],[25.1148,-7.2693,933.5056],[25.1255,-7.2553,906.9832],[25.1293,-7.2473,904.4022],[25.1265,-7.2388,883.8442],[25.1224,-7.2338,876.8069],[25.1079,-7.2368,878.548],[25.0819,-7.2504,882.7532],[25.0484,-7.26,898.4277],[25.0265,-7.263,890.2949],[25.0053,-7.263,909.364],[24.9977,-7.266,909.8628],[24.9846,-7.2658,907.8223],[24.971,-7.2614,902.6573],[24.9595,-7.2486,906.5582],[24.9542,-7.2359,901.8752],[24.9499,-7.2371,910.5134],[24.9423,-7.2343,912.2574],[24.9278,-7.2346,910.9944],[24.919,-7.2385,914.4749],[24.9103,-7.246,926.9684],[24.9064,-7.2474,922.2124],[24.899,-7.2454,935.6854],[24.8919,-7.2463,953.3104],[24.8852,-7.2433,931.4616],[24.8813,-7.2435,934.1509],[24.8785,-7.2458,926.8979],[24.8643,-7.2454,946.9988],[24.859,-7.2483,963.2621],[24.8525,-7.2477,946.6545],[24.8449,-7.2534,955.0911],[24.8325,-7.258,965.7341],[24.8247,-7.2589,967.7756],[24.8044,-7.2676,962.9167],[24.7915,-7.2706,969.9922],[24.7869,-7.2738,970.0291],[24.7863,-7.2782,976.8561],[24.7904,-7.2948,1015.1767],[24.7883,-7.2996,1032.4688],[24.7739,-7.2963,1041.9839],[24.7671,-7.2858,1012.6005],[24.768,-7.2804,993.1451],[24.7754,-7.27,955.3156],[24.7864,-7.2611,975.9336],[24.7867,-7.2587,967.8057],[24.7666,-7.2324,899.8853],[24.7352,-7.2452,971.6473],[24.7094,-7.2487,963.0089],[24.7043,-7.2517,954.3769],[24.6759,-7.2579,1018.8533],[24.6623,-7.2563,1027.9125],[24.6596,-7.2505,1011.8217],[24.6604,-7.2387,989.7428],[24.6513,-7.2329,979.9073],[24.6452,-7.2218,968.7596],[24.6369,-7.2048,933.7522],[24.6335,-7.1904,944.6095],[24.631,-7.1877,947.0454],[24.6187,-7.1543,920.5732],[24.6108,-7.1446,915.8233],[24.6057,-7.1429,908.9618],[24.5934,-7.1434,861.4454],[24.5876,-7.1404,868.1484],[24.5817,-7.1424,875.588],[24.5757,-7.1553,877.7809],[24.5745,-7.1629,893.2841],[24.5764,-7.1714,892.2484],[24.5695,-7.1911,870.1183],[24.5628,-7.1943,880.8151],[24.5603,-7.1996,865.8006],[24.5538,-7.2038,883.1022],[24.5515,-7.2079,891.8032],[24.5511,-7.2132,881.7591],[24.5568,-7.2141,870.6699],[24.5587,-7.2169,871.77],[24.5545,-7.224,867.983],[24.561,-7.2302,869.9382],[24.5711,-7.2265,867.9309],[24.5782,-7.229,868.1208],[24.5837,-7.2339,867.7794],[24.5865,-7.2396,868.8625],[24.5819,-7.2481,870.0541],[24.5819,-7.2509,869.6805],[24.590699999999998,-7.2566,870.9],[24.5936,-7.2617,874.338],[24.6005,-7.2649,871.069],[24.6005,-7.2683,872.172],[24.5946,-7.281,871.7244],[24.5886,-7.3021,875.4529],[24.589,-7.3081,881.9713],[24.5941,-7.3131,870.8263],[24.5941,-7.3159,869.5411],[24.5895,-7.3193,870.4082],[24.5909,-7.3356,872.6268],[24.5989,-7.3409,871.236],[24.6006,-7.3466,872.1142],[24.6084,-7.3528,871.978],[24.6107,-7.3572,872.0616],[24.6095,-7.3662,878.09],[24.6128,-7.3726,871.4813],[24.6054,-7.3912,875.3875],[24.6091,-7.3965,872.6913],[24.6077,-7.4043,873.3254],[24.61,-7.413,873.6899],[24.6086,-7.4169,874.2414],[24.6036,-7.4183,881.5206],[24.6022,-7.4211,884.244],[24.6029,-7.4243,880.424],[24.5967,-7.4314,880.8456],[24.5962,-7.4339,879.8325],[24.6026,-7.4355,879.5739],[24.5964,-7.4445,874.9451],[24.5974,-7.4486,874.5414],[24.5948,-7.4532,882.0375],[24.5978,-7.458,875.4126],[24.6022,-7.4732,880.7368],[24.599,-7.4821,879.226],[24.5928,-7.4831,876.3728],[24.5944,-7.4895,876.8964],[24.5925,-7.4939,878.3978],[24.5891,-7.4936,885.8291],[24.5884,-7.4955,881.9918],[24.5928,-7.5005,877.2317],[24.5969,-7.5095,877.8363],[24.6084,-7.5166,878.9317],[24.6036,-7.5221,886.7289],[24.6031,-7.5281,879.5535],[24.5953,-7.5267,882.9404],[24.5909,-7.5276,883.3067],[24.5859,-7.5421,887.4683],[24.5882,-7.5485,882.387],[24.5919,-7.5526,881.712],[24.5992,-7.5545,881.8306],[24.605,-7.5579,883.5583],[24.6137,-7.5575,890.5],[24.6183,-7.5625,883.1797],[24.6202,-7.571,884.6183],[24.6241,-7.5708,885.0323],[24.6333,-7.5644,890.2331],[24.6381,-7.5637,883.9474],[24.6432,-7.5701,884.2587],[24.6393,-7.6075,885.7446],[24.6434,-7.6117,884.8759],[24.6453,-7.6176,885.9246],[24.6513,-7.6195,885.9297],[24.654,-7.6248,886.3662],[24.6589,-7.6266,888.2775],[24.6635,-7.6314,886.8237],[24.6614,-7.6328,886.91],[24.6612,-7.6374,889.4215],[24.666,-7.6404,887.1556],[24.663,-7.6466,889.0011],[24.6665,-7.6594,888.0421],[24.6635,-7.6636,888.5508],[24.6655,-7.6707,889.3638],[24.6619,-7.6764,888.8575],[24.666,-7.6799,888.9904],[24.6681,-7.6909,890.073],[24.6653,-7.7012,899.6354],[24.6665,-7.7072,890.3984],[24.6623,-7.7159,891.1519],[24.6563,-7.7132,896.9302],[24.6501,-7.7189,897.4883],[24.6446,-7.721,896.8767],[24.6439,-7.7257999999999996,894.1406],[24.6467,-7.743,898.1664],[24.6333,-7.7662,905.4275],[24.6276,-7.7689,906.6121],[24.6274,-7.7783,905.6328],[24.6237,-7.7825,913.5391],[24.6225,-7.7917,909.4482],[24.6126,-7.8116,921.219],[24.6055,-7.8174,925.8433],[24.6082,-7.8259,924.7382],[24.6055,-7.8316,916.1202],[24.6011,-7.8334,917.6976],[24.6007,-7.835,916.8843],[24.5935,-7.8309,928.8418],[24.590699999999998,-7.8321,917.5172],[24.5864,-7.8279,925.7852],[24.568,-7.8355,942.5694],[24.5643,-7.8438,937.0586],[24.5557,-7.8506,932.6495],[24.5516,-7.8637,940.891],[24.5468,-7.866,948.9257],[24.529,-7.8869,961.9985],[24.5288,-7.8961,949.4485],[24.5206,-7.9051,946.9186],[24.5099,-7.909,962.8663],[24.5129,-7.914,944.1248],[24.5118,-7.9212,963.6631],[24.5157,-7.9231,953.832],[24.5167,-7.9266,964.498],[24.5076,-7.9408,973.1386],[24.5062,-7.9535,966.7513],[24.5026,-7.9585,964.4233],[24.5014,-7.9649,964.4758],[24.4922,-7.9695,981.7882],[24.4894,-7.9753,976.5705],[24.4936,-7.9858,961.9386],[24.4869,-7.9975,966.1564],[24.4921,-8.0,959.3284],[24.4872,-8.0078,960.3073],[24.4859,-8.0156,959.5104],[24.4889,-8.0293,959.6378],[24.4865,-8.0374,961.0878],[24.4884,-8.0436,972.3654],[24.4838,-8.0578,965.9353],[24.4724,-8.0675,983.321],[24.466,-8.0696,980.7124],[24.4573,-8.0793,998.4376],[24.4545,-8.0849,990.1527],[24.4532,-8.0922,989.5343],[24.4542,-8.0986,985.0763],[24.4586,-8.1014,983.8463],[24.4605,-8.108,985.4219],[24.4653,-8.108,983.5272],[24.4686,-8.1197,985.6063],[24.4664,-8.1286,984.7364],[24.462,-8.1365,985.3021],[24.4572,-8.1388,985.1085],[24.45,-8.1572,992.5524],[24.4454,-8.1648,989.8934],[24.4351,-8.1759,988.4907],[24.426,-8.1888,990.3713],[24.4202,-8.1939,988.1014],[24.4116,-8.2079,989.8498],[24.4098,-8.2185,991.8553],[24.4117,-8.2231,992.0594],[24.4113,-8.2323,990.2298],[24.399,-8.2599,995.4586],[24.3984,-8.2709,992.2759],[24.3952,-8.285,1003.2157],[24.3985,-8.2966,1001.1823],[24.3922,-8.3114,996.7316],[24.3911,-8.3242,996.7037],[24.3756,-8.3533,1002.7142],[24.3761,-8.3569,1000.5739],[24.381,-8.3597,999.1311],[24.3828,-8.364,998.8242],[24.3827,-8.3806,1016.3068],[24.3803,-8.3996,1001.0421],[24.3781,-8.4095,999.9998],[24.3735,-8.4173,1012.5117],[24.3565,-8.4367,1012.5922],[24.3534,-8.4526,1016.526],[24.3461,-8.4657,1017.2455],[24.3448,-8.4763,1012.0612],[24.3491,-8.4928,1010.8804],[24.3504,-8.4937,1013.5739],[24.3434,-8.5108,1018.9625],[24.3333,-8.523,1014.7642],[24.3197,-8.5263,1034.1559],[24.3102,-8.524,1040.5972],[24.3042,-8.5206,1030.0631],[24.2855,-8.4974,1110.0432],[24.2769,-8.4891,1100.5054],[24.2745,-8.4921,1102.26],[24.2675,-8.4946,1095.9594],[24.261,-8.4947,1101.397],[24.2515,-8.4909,1103.6295],[24.247,-8.4856,1103.4971],[24.2409,-8.4739,1058.3163],[24.2347,-8.4534,1024.6007],[24.2171,-8.4419,1047.2097],[24.2084,-8.4202,1043.1177],[24.2025,-8.4196,1026.5557],[24.194,-8.4369,1047.6005],[24.1898,-8.45,1027.0757],[24.1804,-8.4604,1029.6158],[24.1725,-8.463,1025.429],[24.1511,-8.4612,1095.5728],[24.1478,-8.4635,1096.5166],[24.1289,-8.4865,1098.3417],[24.1157,-8.4972,1100.2355],[24.1023,-8.5109,1093.472],[24.0708,-8.5478,1066.5327],[24.0632,-8.5479,1097.6064],[24.0603,-8.5464,1103.4094],[24.0557,-8.5389,1045.8339],[24.0537,-8.5457,1058.6],[24.0551,-8.5605,1023.4493],[24.0537,-8.5745,979.862],[24.0504,-8.5781,982.4479],[24.0449,-8.5806,971.906],[24.0428,-8.5839,983.3564],[24.0412,-8.5944,955.8068],[24.0369,-8.605,942.1868],[24.0372,-8.6088,961.2689],[24.0395,-8.611,967.6081],[24.0505,-8.6139,970.6276],[24.0821,-8.633,1013.6839],[24.0865,-8.6387,1024.4346],[24.093,-8.6574,1054.5715],[24.0977,-8.6586,1063.8619],[24.099,-8.6616,1072.0908],[24.0986,-8.6734,1071.6687],[24.1,-8.6779,1065.9899],[24.0928,-8.6887,1055.3846],[24.0394,-8.7326,1048.036],[24.0082,-8.7683,965.4478],[23.9965,-8.7755,944.2321],[23.9789,-8.7757,927.4063],[23.973,-8.7785,927.7471],[23.9772,-8.7865,945.0227],[23.9801,-8.8028,961.7705],[23.9829,-8.8069,961.342],[23.9912,-8.8128,972.1628],[23.9959,-8.8197,977.645],[24.0005,-8.822,991.6193],[24.008,-8.8296,1003.1038],[24.0139,-8.8326,1002.9704],[24.0432,-8.8585,1028.6226],[24.0739,-8.8885,1078.2632],[24.0884,-8.8913,1033.7222],[24.0997,-8.8967,992.0141],[24.1061,-8.9031,1010.0999],[24.1103,-8.9093,1014.708],[24.1106,-8.9131,984.83],[24.0992,-8.9242,985.0564],[24.0962,-8.9325,982.0112],[24.0979,-8.938,976.3401],[24.106,-8.9365,983.8104],[24.1469,-8.9423,991.6177],[24.1582,-8.9448,994.1188],[24.1657,-8.9489,995.4768],[24.1754,-8.949,1000.551],[24.193,-8.9558,997.7411],[24.2119,-8.9548,1011.2744],[24.2214,-8.9617,1031.8901],[24.2238,-8.9669,1030.9021],[24.2455,-8.9762,1021.33],[24.2497,-8.9799,1025.0754],[24.2521,-8.9849,1031.5496],[24.2505,-8.9923,1022.3535],[24.2538,-9.0008,1046.9253],[24.2515,-9.0079,1032.1736],[24.2668,-9.0453,1071.7244],[24.2742,-9.0572,1071.1838],[24.2854,-9.0674,1069.8071],[24.3056,-9.079,1069.3359],[24.3158,-9.0882,1081.2371],[24.3236,-9.1132,1086.9412],[24.3366,-9.1253,1075.6222],[24.3443,-9.1289,1076.8103],[24.3503,-9.1298,1077.4712],[24.3596,-9.1366,1077.0042],[24.3726,-9.1425,1078.3958],[24.3809,-9.1443,1078.9556],[24.3869,-9.1484,1079.3894],[24.3946,-9.1573,1090.3818],[24.4136,-9.1682,1079.9006],[24.4347,-9.1764,1074.8438],[24.4452,-9.183,1072.7817],[24.4508,-9.1912,1072.4397],[24.4548,-9.202,1080.275],[24.4666,-9.2012,1071.0596],[24.4736,-9.2034,1069.6455],[24.4824,-9.2137,1068.5479],[24.4892,-9.219,1068.1991],[24.489,-9.2351,1066.3804],[24.4967,-9.2425,1092.1925],[24.5057,-9.2469,1095.2588],[24.5141,-9.2486,1092.26],[24.5195,-9.2523,1085.551],[24.5292,-9.2544,1092.6462],[24.5404,-9.2528,1089.3984],[24.5542,-9.2566,1080.0033],[24.5643,-9.266,1078.1659],[24.5696,-9.2682,1072.6841],[24.5753,-9.2774,1080.8047],[24.5749,-9.2842,1077.3667],[24.5734,-9.2909,1076.8215],[24.5701,-9.2935,1084.1167],[24.5525,-9.2947,1063.7178],[24.5368,-9.3006,1026.9553],[24.461,-9.2998,1060.5133],[24.4376,-9.301,1062.9564],[24.4304,-9.3034,1077.6747],[24.411,-9.3033,1078.6726],[24.4023,-9.2967,1070.3612],[24.3969,-9.2885,1070.6652],[24.389,-9.2883,1069.8998],[24.3864,-9.2851,1069.926],[24.3782,-9.2802,1076.431],[24.3299,-9.2705,1080.8568],[24.3003,-9.2703,1079.0706],[24.2926,-9.2737,1076.2336],[24.2684,-9.2757,1074.9873],[24.2634,-9.2813,1086.9739],[24.2573,-9.2816,1091.8391],[24.2514,-9.2849,1079.603],[24.2466,-9.289,1071.7384],[24.2391,-9.3039,1070.5964],[24.2333,-9.3109,1072.1827],[24.229,-9.314,1074.7748],[24.2249,-9.314,1071.1241],[24.2181,-9.3176,1078.0885],[24.2153,-9.3212,1078.4532],[24.2115,-9.3204,1075.9193],[24.2078,-9.3152,1080.3069],[24.1953,-9.3069,1082.0562],[24.1858,-9.3037,1087.0986],[24.1481,-9.3387,1029.021],[24.15,-9.3487,1021.9479],[24.148,-9.353,1012.7322],[24.136,-9.3592,980.7636],[24.1404,-9.3628,974.9094],[24.1447,-9.3741,974.4829],[24.1419,-9.3849,975.5566],[24.1434,-9.3897,978.7333],[24.1518,-9.3995,985.0717],[24.1456,-9.4182,984.086],[24.1461,-9.4225,981.2526],[24.1501,-9.4276,996.7114],[24.1517,-9.4342,992.603],[24.1578,-9.4422,981.5842],[24.1622,-9.453,991.9628],[24.1627,-9.459,991.2307],[24.1566,-9.4811,1004.7839],[24.1529,-9.4848,1008.9461],[24.1514,-9.5046,1007.0575],[24.131,-9.547,1004.101],[24.1212,-9.576,1005.069],[24.1179,-9.5997,1023.6814],[24.1198,-9.6084,1012.2269],[24.1296,-9.6263,1005.9959],[24.132,-9.643,1005.9971],[24.13,-9.6495,1006.2556],[24.1187,-9.667,1006.8364],[24.1195,-9.6746,1007.0149],[24.1124,-9.6926,1007.2767],[24.1136,-9.702,1007.3502],[24.1097,-9.7185,1009.1807],[24.1065,-9.7229,1008.512],[24.082,-9.7364,1009.4916],[24.0716,-9.747,1009.8928],[24.0643,-9.7592,1009.7174],[24.047,-9.7761,1010.5898],[24.0401,-9.7851,1010.8941],[24.0288,-9.8079,1010.9408],[24.0194,-9.8178,1011.0588],[24.013,-9.8356,1011.316],[24.0207,-9.8401,1022.8993],[24.0276,-9.8412,1011.3594],[24.0279,-9.847,1011.6638],[24.0233,-9.8594,1012.6218],[24.0199,-9.8792,1026.5952],[24.0218,-9.8866,1023.0924],[24.0258,-9.8923,1014.9413],[24.0335,-9.8985,1015.6016],[24.0599,-9.8976,1017.6965],[24.0708,-9.9022,1026.1006],[24.0873,-9.906,1022.1138],[24.1045,-9.9142,1023.3603],[24.1053,-9.9218,1024.7246],[24.1083,-9.9291,1026.8628],[24.1058,-9.9363,1028.1003],[24.0935,-9.9437,1034.7697],[24.0869,-9.9501,1036.5798],[24.085,-9.9564,1043.8507],[24.0859,-9.9927,1048.4539],[24.095,-10.003,1074.8047],[24.1036,-10.0084,1051.248],[24.1118,-10.0111,1044.7677],[24.1222,-10.0124,1021.6685],[24.1334,-10.0117,1002.9307],[24.1373,-10.009,1010.9965],[24.1435,-10.0094,1011.0332],[24.1559,-10.0146,1000.4197],[24.1642,-10.0143,1009.3791],[24.1758,-10.0092,993.3008],[24.1839,-10.0025,999.9821],[24.2058,-10.0047,1029.3794],[24.2183,-9.9948,1039.9348],[24.2269,-9.9929,1008.7543],[24.2515,-10.0029,1031.1565],[24.264,-10.0063,1069.9318],[24.2667,-10.0138,1075.0989],[24.279,-10.0289,1051.1542],[24.2791,-10.0329,1063.7539],[24.2822,-10.0379,1062.8754],[24.2883,-10.041,1052.9869],[24.292,-10.0451,1034.131],[24.2975,-10.0336,1041.0663],[24.2949,-10.0258,1017.3134],[24.2963,-10.0226,1024.1335],[24.3069,-10.0172,1025.1879],[24.3251,-9.9921,988.8561],[24.3302,-9.9888,993.7686],[24.351,-9.9882,979.665],[24.3564,-9.9868,966.2642],[24.3596,-9.9833,964.6095],[24.3622,-9.987,980.6603],[24.3629,-9.9962,998.0444],[24.3735,-10.0198,984.2842],[24.3717,-10.0279,1006.0915],[24.3745,-10.0364,1013.6685],[24.3829,-10.0432,1013.6564],[24.3887,-10.0551,1055.385],[24.3882,-10.0737,1040.0115],[24.3897,-10.0779,1046.1619],[24.4062,-10.0925,1059.3748],[24.4145,-10.1084,1065.6849],[24.4116,-10.0736,1069.7834],[24.4146,-10.0601,1079.324],[24.4239,-10.0487,1074.7926],[24.4271,-10.0424,1077.4645],[24.4362,-10.0346,1071.6011],[24.4415,-10.0247,1054.5625],[24.4496,-10.0154,1036.3575],[24.4555,-9.9968,1004.6232],[24.4613,-9.9897,976.7078],[24.463,-9.9815,974.2962],[24.4663,-9.9806,1000.2903],[24.4704,-9.9831,1000.4622],[24.4777,-9.9953,998.013],[24.4987,-10.008,1044.718],[24.508,-10.0172,1055.8689],[24.5365,-10.0374,1003.6179],[24.5502,-10.0525,1063.4493],[24.559,-10.0649,1067.0118],[24.5712,-10.0918,993.0757],[24.5761,-10.098,982.4169],[24.5826,-10.0982,977.95],[24.5928,-10.0949,969.4617],[24.6078,-10.0769,966.2745],[24.6248,-10.0644,969.6428],[24.6443,-10.0585,959.1738],[24.6714,-10.0567,932.0934],[24.6929,-10.0508,917.0975],[24.6955,-10.0487,916.3438],[24.7007,-10.0344,904.3812],[24.6967,-10.0216,908.1761],[24.6973,-10.0167,915.3625],[24.7036,-10.0121,908.477],[24.7077,-10.0054,888.7094],[24.712,-9.9927,873.4279],[24.7148,-9.9936,874.3348],[24.7253,-10.0048,850.7277],[24.7217,-10.0177,854.7977],[24.7227,-10.0264,859.321],[24.7281,-10.0321,858.6094],[24.7302,-10.0386,865.0254],[24.7374,-10.0426,861.3194],[24.7518,-10.0599,872.075],[24.7804,-10.0653,902.1581],[24.8145,-10.0827,931.9535],[24.8229,-10.0809,902.1498],[24.8302,-10.0681,903.292],[24.8344,-10.0642,907.7716],[24.8436,-10.0605,892.4431],[24.8461,-10.0499,904.3942],[24.8439,-10.0361,912.2087],[24.8355,-10.0281,882.3866],[24.8352,-10.0224,892.5462],[24.8428,-10.0241,894.3575],[24.8555,-10.0387,900.9333],[24.8707,-10.0517,908.7992],[24.8882,-10.0633,968.8473],[24.9011,-10.0825,1021.1381],[24.9039,-10.0957,1056.7264],[24.9164,-10.1213,1051.1077],[24.9244,-10.1282,1066.8083],[24.9303,-10.1299,1064.7009],[24.943,-10.1283,1052.8258],[24.9768,-10.1194,1014.7748],[24.9807,-10.1083,1021.3956],[24.9961,-10.0951,998.9487],[25.0109,-10.0876,991.2383],[25.0264,-10.0813,960.7171],[25.0387,-10.0805,975.3011],[25.0514,-10.0742,945.7127],[25.0563,-10.0734,961.6522],[25.062,-10.0683,985.5105],[25.0721,-10.0498,948.053],[25.017,-10.0393,976.1899],[25.0063,-10.0419,1000.1703],[24.983,-10.0382,984.0135],[24.9809,-10.0327,997.3356],[24.9808,-10.0257,1014.3156],[24.9833,-10.0164,1023.2806],[24.9927,-10.014,1006.4626],[25.0192,-10.0147,1011.7582],[25.0246,-10.0129,1023.5568],[25.0365,-10.008,1013.6826],[25.0545,-9.9973,1000.418],[25.0667,-9.9871,1035.2706],[25.0854,-9.9754,1004.5031],[25.1069,-9.9811,989.1525],[25.1283,-9.9799,958.2723],[25.1306,-9.9739,964.3558],[25.1445,-9.9515,932.7182],[25.1643,-9.9256,927.0997],[25.1693,-9.9213,931.1306],[25.2512,-9.8901,962.7001],[25.2667,-9.8816,993.6277],[25.2865,-9.8754,1016.5597],[25.3111,-9.8638,1010.5677],[25.3345,-9.8563,997.2582],[25.4067,-9.8227,920.0397],[25.4171,-9.8205,896.2833],[25.424,-9.817,879.2023],[25.4395,-9.8155,883.0477],[25.4507,-9.8164,889.4235],[25.4548,-9.8191,896.6825],[25.4722,-9.8217,900.1231],[25.4791,-9.8243,834.9171],[25.4883,-9.8242,842.1496],[25.4936,-9.8219,819.3793],[25.5246,-9.8003,748.9802],[25.5373,-9.7981,732.8329],[25.5416,-9.7941,723.8035],[25.5446,-9.7787,733.7686],[25.5382,-9.7663,732.202],[25.5377,-9.7622,737.0341],[25.5406,-9.7543,726.5235],[25.5463,-9.7497,735.8108],[25.5484,-9.7423,742.5356],[25.5388,-9.741,717.0766],[25.5369,-9.7378,713.9403],[25.5253,-9.7297,702.866],[25.5208,-9.7231,702.0244],[25.5192,-9.7074,715.2062],[25.5218,-9.7053,708.7059],[25.5277,-9.7044,700.0739],[25.535,-9.7087,707.2139],[25.5427,-9.7088,703.0258],[25.5447,-9.707,713.1993],[25.5435,-9.7028,715.6344],[25.546,-9.6968,706.5996],[25.5436,-9.6923,707.5068],[25.5385,-9.6916,693.7515],[25.5319,-9.6974,702.2657],[25.5272,-9.697,704.5496],[25.524,-9.6941,696.8195],[25.523,-9.6909,694.7435],[25.5259,-9.68,718.1385],[25.524,-9.6725,704.7318],[25.5243,-9.6621,710.9056],[25.522,-9.6568,703.7435],[25.5182,-9.6541,690.9622],[25.5089,-9.6538,702.5801],[25.501,-9.6449,692.1573],[25.4893,-9.6404,692.8582],[25.4865,-9.6361,695.2524],[25.4863,-9.6331,695.5847],[25.4904,-9.628,693.9631],[25.4932,-9.6275,691.3146],[25.4994,-9.6288,688.7166],[25.513,-9.642,713.2318],[25.5193,-9.6424,729.481],[25.5213,-9.6398,719.7822],[25.5213,-9.6355,704.9016],[25.5163,-9.6298,686.9819],[25.5153,-9.6204,711.7507],[25.5109,-9.6158,710.95],[25.504,-9.6019,688.773],[25.5067,-9.5959,700.9506],[25.5065,-9.5929,701.6055],[25.5025,-9.5879,699.5053],[25.4967,-9.5865,713.3278],[25.4922,-9.5629,714.1976],[25.4931,-9.5585,733.0354],[25.4903,-9.5505,715.8962],[25.4911,-9.5464,710.3159],[25.4953,-9.5424,695.8917],[25.498,-9.5357,703.1836],[25.5026,-9.5086,704.6839],[25.5025,-9.503,693.3253],[25.498,-9.4957,700.1946],[25.5032,-9.4807,695.4789],[25.5144,-9.4719,699.4163],[25.516,-9.4671,689.3275],[25.5148,-9.4618,670.3875],[25.5063,-9.4472,690.356],[25.5079,-9.4425,699.7443],[25.5173,-9.4342,703.8984],[25.5191,-9.4305,711.6769],[25.5181,-9.4229,695.695],[25.5194,-9.4155,702.1236],[25.5222,-9.4125,698.6358],[25.5263,-9.412,693.7392],[25.5312,-9.415,672.4671],[25.5349,-9.4115,676.8696],[25.533,-9.4062,681.5043],[25.5338,-9.4016,686.6862],[25.5315,-9.3968,689.1796],[25.5201,-9.3891,647.8909],[25.5205,-9.385,665.9059],[25.5232,-9.3819,675.309],[25.5278,-9.3817,685.2981],[25.5304,-9.3796,681.8857],[25.5339,-9.3678,666.2201],[25.544,-9.3567,668.2559],[25.5486,-9.3548,682.5873],[25.5539,-9.3488,646.5467],[25.5529,-9.3439,643.9293],[25.5499,-9.3419,644.3514],[25.5436,-9.3411,643.9319],[25.541,-9.3333,656.959],[25.5442,-9.3284,691.2529],[25.5459,-9.3167,669.9869],[25.548,-9.3146,650.9318],[25.5565,-9.3156,669.2979],[25.5584,-9.3131,677.2904],[25.5525,-9.3017,645.539],[25.5561,-9.292,658.5382],[25.5551,-9.2872,660.7147],[25.5511,-9.2867,639.4161],[25.5468,-9.2934,648.3485],[25.542,-9.2967,644.3182],[25.5373,-9.291,639.0801],[25.5488,-9.2638,661.1049],[25.5608,-9.2409,645.2155],[25.5721,-9.2373,716.4228],[25.5744,-9.2343,678.6605],[25.5748,-9.2302,638.8972],[25.5727,-9.224,645.6815],[25.5781,-9.2166,658.5673],[25.5769,-9.2042,630.5708],[25.5791,-9.2012,631.0126],[25.585,-9.2076,627.7271],[25.5906,-9.2096,670.7904],[25.5981,-9.2254,632.8768],[25.6023,-9.2281,647.7124],[25.609,-9.2273,641.7861],[25.6134,-9.2247,631.8083],[25.6211,-9.2269,637.069],[25.6247,-9.2264,665.9106],[25.6325,-9.2174,627.2729],[25.6269,-9.2094,641.8768],[25.6278,-9.2067,647.5897],[25.6354,-9.2098,634.679],[25.6377,-9.2077,639.41],[25.6361,-9.2024,632.2679],[25.6383,-9.2008,628.7256],[25.6485,-9.2018,661.5312],[25.6547,-9.1986,724.0393],[25.6579,-9.1935,695.1669],[25.6565,-9.1887,656.8215],[25.659,-9.1815,736.4512],[25.658,-9.1788,733.834],[25.6464,-9.1759,637.4007],[25.6317,-9.1641,627.7045],[25.6279,-9.1572,635.5663],[25.6209,-9.1516,635.4637],[25.618,-9.1406,677.1406],[25.6191,-9.1339,726.4474],[25.617,-9.1296,707.5042],[25.6102,-9.126,680.2397],[25.6065,-9.1207,656.7047],[25.605,-9.1097,678.3118],[25.6015,-9.1077,661.2785],[25.5959,-9.1077,663.1311],[25.5868,-9.0945,673.4352],[25.583,-9.0918,679.1498],[25.5752,-9.0896,687.9424],[25.567,-9.0818,696.5163],[25.5688,-9.0777,749.3597],[25.5643,-9.0699,691.3649],[25.5659,-9.0621,693.5988],[25.5718,-9.0558,733.0048],[25.5741,-9.051,698.6379],[25.5727,-9.0308,705.2783],[25.5681,-9.0168,722.0307],[25.5685,-9.0104,724.8319],[25.5613,-9.0038,768.0217],[25.5589,-8.9923,824.6871],[25.5554,-8.9912,817.3607],[25.5513,-8.9781,831.8025],[25.5465,-8.9773,838.2253],[25.5373,-8.9654,871.806],[25.5395,-8.956,886.0442],[25.5387,-8.9461,904.4896],[25.5348,-8.9328,909.8785],[25.5359,-8.9208,926.2803],[25.5344,-8.9109,928.0016],[25.523,-8.8792,971.1387],[25.5187,-8.8778,984.7812],[25.517,-8.8518,1050.1379],[25.5019,-8.8289,1043.1796],[25.4957,-8.8285,1003.9199],[25.4887,-8.8214,982.144],[25.4824,-8.8192,982.1031],[25.4794,-8.8142,966.514],[25.4788,-8.8084,959.9548],[25.4823,-8.8043,967.5261],[25.4785,-8.7979,946.4449],[25.4794,-8.7953,944.5806],[25.4922,-8.7837,942.1672],[25.4953,-8.769,932.535],[25.4871,-8.7626,911.3401],[25.4796,-8.7496,900.8738],[25.4816,-8.7439,901.8254],[25.4783,-8.7345,890.9227],[25.4818,-8.7186,881.2996],[25.5142,-8.7213,935.689],[25.5719,-8.7212,916.5881],[25.5749,-8.7188,919.3995],[25.5772,-8.7123,915.9365],[25.5786,-8.6979,915.7227],[25.5676,-8.6856,897.5549],[25.5624,-8.6742,893.8672],[25.5601,-8.6556,871.0313],[25.5639,-8.644,862.7208],[25.5842,-8.6369,858.0821],[25.5996,-8.6349,864.6314],[25.6072,-8.6312,846.3353],[25.6126,-8.6251,831.2664],[25.6156,-8.6239,847.2978],[25.6207,-8.6269,833.0853],[25.6436,-8.6241,831.2072],[25.6519,-8.6272,832.8074],[25.6565,-8.6242,832.3517],[25.6605,-8.6283,828.6019],[25.6628,-8.628,835.1705],[25.6696,-8.6181,844.0046],[25.6695,-8.6123,839.5582],[25.6734,-8.6086,833.5739],[25.6731,-8.5997,832.8384],[25.6758,-8.5939,847.813],[25.6847,-8.5823,836.3696],[25.6962,-8.5588,831.4841],[25.7068,-8.5435,834.6887],[25.7048,-8.5297,822.8568],[25.7098,-8.52,807.7549],[25.7164,-8.4949,751.3485],[25.7134,-8.4718,748.7853],[25.7139,-8.4534,749.3543],[25.703,-8.4269,749.9085],[25.6967,-8.4233,767.415],[25.6948,-8.4187,746.9254],[25.6952,-8.4093,743.6226],[25.6897,-8.3969,729.613],[25.6767,-8.384,728.2825],[25.675,-8.3776,730.9691],[25.677,-8.3686,725.4201],[25.6738,-8.3549,712.6218],[25.6758,-8.3484,714.4051],[25.6813,-8.3458,711.2308],[25.7037,-8.347,716.132],[25.7106,-8.3448,712.9785],[25.7214,-8.3449,711.73],[25.7329,-8.3388,705.6849],[25.7372,-8.3298,689.6398],[25.7436,-8.3268,691.7148],[25.7622,-8.3243,685.7479],[25.7668,-8.3212,683.9944],[25.777,-8.3209,680.0322],[25.7891,-8.3123,687.9853],[25.8013,-8.3075,685.3776],[25.8109,-8.3074,675.7217],[25.8164,-8.3005,677.832],[25.8212,-8.299,685.0713],[25.8269,-8.2925,674.58],[25.8313,-8.292,677.3241],[25.8411,-8.2804,680.3458],[25.8482,-8.2778,682.3972],[25.8511,-8.2748,688.4454],[25.8529,-8.2658,678.4574],[25.856,-8.2596,678.4481],[25.8534,-8.2493,667.5142],[25.8523,-8.2344,662.7031],[25.848,-8.2446,679.6844],[25.846,-8.2462,680.0157],[25.8436,-8.2407,662.4503],[25.8481,-8.2292,661.4395],[25.8466,-8.2209,678.7817],[25.8495,-8.2184,676.1674],[25.853,-8.2206,669.4736],[25.8553,-8.2201,675.3571],[25.8579,-8.2061,659.26],[25.8634,-8.2003,678.6821],[25.8654,-8.1911,664.6531],[25.8679,-8.1888,657.0386],[25.8709,-8.1915,663.1083],[25.8748,-8.1901,653.5104],[25.8751,-8.1742,652.5568],[25.873,-8.1722,653.2866],[25.8725,-8.1687,653.2695],[25.8745,-8.1644,650.8495],[25.8803,-8.1673,662.7057],[25.8825,-8.1613,659.4054],[25.8794,-8.1478,647.6158],[25.8643,-8.139,664.5801],[25.8541,-8.1359,647.6106],[25.8513,-8.1306,656.5749],[25.8526,-8.1258,647.6619],[25.8497,-8.1176,646.8062],[25.8541,-8.0994,644.6681],[25.8621,-8.0899,692.5088],[25.8622,-8.0789,640.7024],[25.8707,-8.0762,638.7259],[25.8827,-8.0789,654.0426],[25.8883,-8.0689,636.9398],[25.8943,-8.067,651.4698],[25.8984,-8.0594,641.0987],[25.9074,-8.0623,636.4029],[25.911,-8.0574,643.7204],[25.9156,-8.0578,633.9337],[25.9199,-8.053,634.7177],[25.9166,-8.0468,635.1417],[25.917,-8.0422,635.0329],[25.9255,-8.0343,632.1752],[25.9326,-8.0351,640.5338],[25.9304,-8.0221,630.889],[25.9343,-8.0193,631.4205]],
[[25.0167,-8.6984,1117.981],[25.0283,-8.7039,1123.9075],[25.0344,-8.7099,1121.6434],[25.0411,-8.7196,1105.0492],[25.0435,-8.7281,1101.9716],[25.0386,-8.7553,1085.4967],[25.0338,-8.7656,1019.631],[25.0234,-8.7704,1021.3854],[25.0064,-8.7723,1065.194],[24.9766,-8.7686,1116.9823],[24.9644,-8.7614,1124.3978],[24.9583,-8.7408,1114.7019],[24.9595,-8.7196,1119.3262],[24.9662,-8.7099,1117.6099],[24.9808,-8.7014,1115.135],[24.9936,-8.7021,1113.3926],[25.0033,-8.6978,1114.9485],[25.0167,-8.6984,1117.981]]]]}}