{"type": "Feature","bbox": [25.1217,2.2029,26.5553,3.7406],"geometry": {"type": "MultiPolygon","coordinates": [[[[25.2561,3.5504,549.5],[25.2484,3.5318,565.8835],[25.2432,3.5232,554.2996],[25.2368,3.5193,557.5007],[25.2336,3.5094,555.6917],[25.2274,3.5038,569.8885],[25.2204,3.4939,553.1862],[25.2071,3.492,563.0325],[25.2002,3.486,569.1701],[25.1962,3.4756,570.2843],[25.1939,3.4736,572.6908],[25.1866,3.4722,548.558],[25.1802,3.465,571.8888],[25.1752,3.4558,575.1118],[25.1796,3.4458,549.6357],[25.1786,3.4427,546.9712],[25.1663,3.4389,560.3165],[25.1656,3.4346,577.237],[25.1617,3.4309,566.6387],[25.162,3.4233,547.2465],[25.1579,3.4209,544.2646],[25.1531,3.4209,552.939],[25.1483,3.4179,564.8585],[25.1311,3.4197,562.9459],[25.1217,3.4151,561.7891],[25.1229,3.3999,561.6266],[25.1282,3.3882,565.0469],[25.1378,3.3803,558.2499],[25.1441,3.3785,559.0637],[25.1526,3.3701,563.7697],[25.1714,3.3621,559.2706],[25.1771,3.3579,561.2726],[25.1896,3.3347,566.6665],[25.2038,3.3318,561.3314],[25.2152,3.3424,563.827],[25.223,3.342,569.1107],[25.2287,3.3349,565.1861],[25.2377,3.3312,568.8484],[25.2462,3.3221,559.1738],[25.2489,3.3225,563.4308],[25.2528,3.3318,562.5817],[25.2562,3.3331,565.658],[25.2762,3.3293,560.1528],[25.2791,3.327,554.4682],[25.2828,3.3201,566.2448],[25.2892,3.3197,560.0919],[25.3039,3.3223,561.968],[25.3137,3.3278,572.8209],[25.3192,3.3338,567.5803],[25.3279,3.338,578.1555],[25.3377,3.3571,568.9609],[25.3477,3.3668,608.9169],[25.3694,3.375,577.4346],[25.3813,3.3723,580.6241],[25.3882,3.3651,578.9337],[25.3915,3.3645,581.036],[25.3974,3.3698,578.3032],[25.4113,3.376,580.7339],[25.4173,3.3708,594.6378],[25.4208,3.3593,580.2484],[25.4674,3.3086,581.5002],[25.4785,3.2996,578.2419],[25.4867,3.2888,585.7044],[25.4909,3.2879,581.1908],[25.4957,3.2937,582.8848],[25.5009,3.2969,596.5069],[25.5105,3.2981,589.3939],[25.5142,3.2972,585.7836],[25.5408,3.2763,595.3625],[25.5509,3.2713,583.7487],[25.561,3.2713,617.3304],[25.5676,3.2684,582.0094],[25.5773,3.2679,608.1637],[25.5821,3.2721,586.1113],[25.5848,3.2717,596.743],[25.5873,3.2673,630.3682],[25.5931,3.2627,596.9537],[25.5951,3.2648,588.1534],[25.5949,3.2735,584.1164],[25.6052,3.269,592.3683],[25.6121,3.2678,572.5479],[25.6157,3.2722,601.0431],[25.6244,3.266,570.8689],[25.6328,3.2854,600.3526],[25.6368,3.278,597.6782],[25.6537,3.2765,611.9944],[25.6565,3.2746,613.65],[25.6576,3.2721,597.1837],[25.6563,3.2654,590.085],[25.6579,3.2615,571.8461],[25.6659,3.2572,577.0138],[25.6705,3.2579,593.951],[25.6847,3.2554,587.2109],[25.692,3.2568,588.2228],[25.6993,3.2635,612.2036],[25.7011,3.2697,612.5928],[25.7002,3.2743,579.9869],[25.6968,3.2773,586.5944],[25.6928,3.2869,580.8953],[25.6871,3.2931,594.3921],[25.6976,3.2987,600.8071],[25.6994,3.3019,593.4652],[25.6962,3.3079,597.6357],[25.6969,3.3153,583.0844],[25.6934,3.3229,596.8649],[25.6943,3.3256,608.2828],[25.703,3.328,591.42],[25.7062,3.3314,597.34],[25.7085,3.3443,590.8922],[25.7135,3.3535,607.7672],[25.718,3.3563,599.6722],[25.7188,3.3453,596.3447],[25.7272,3.3421,603.4622],[25.7401,3.3209,586.2874],[25.7431,3.3202,578.0775],[25.7486,3.323,608.1488],[25.7497,3.321,602.8698],[25.7463,3.3129,601.5875],[25.7487,3.2979,581.3152],[25.7636,3.2883,597.3068],[25.7693,3.2794,594.1517],[25.7796,3.278,590.6198],[25.7831,3.2757,588.7865],[25.7923,3.2566,595.5826],[25.8088,3.2482,605.7225],[25.815,3.242,604.9097],[25.8203,3.2277,593.6719],[25.8382,3.2123,595.194],[25.8442,3.2133,604.7174],[25.8469,3.2057,587.1517],[25.8467,3.1972,587.6664],[25.8442,3.19,590.0447],[25.8458,3.188,594.0363],[25.8527,3.1891,605.7362],[25.8539,3.1862,630.4759],[25.8491,3.1792,602.6611],[25.8452,3.1785,598.557],[25.8408,3.1824,601.6544],[25.8362,3.1829,589.1984],[25.8349,3.1803,610.7229],[25.8358,3.1741,613.3365],[25.839,3.1695,621.6874],[25.8427,3.1672,608.9792],[25.8546,3.1647,605.7274],[25.8615,3.1576,602.9094],[25.8611,3.1493,603.4867],[25.865,3.1448,609.8313],[25.87,3.1425,598.7428],[25.8732,3.1372,608.5405],[25.8769,3.1351,600.7723],[25.8868,3.1333,593.97],[25.8877,3.1312,623.1978],[25.8827,3.1252,609.5273],[25.876,3.1271,600.9932],[25.8717,3.1227,603.1195],[25.8646,3.1213,608.9832],[25.8637,3.1192,613.9116],[25.8692,3.0994,612.1445],[25.8674,3.0948,608.0984],[25.8537,3.0773,605.7803],[25.8531,3.0713,609.8306],[25.8554,3.0676,606.7106],[25.8531,3.0649,604.8928],[25.8458,3.0625,612.2803],[25.8437,3.0584,618.5345],[25.8481,3.045,605.7793],[25.8502,3.0432,606.6177],[25.855,3.043,601.4456],[25.8541,3.0336,622.4785],[25.8575,3.0271,613.9708],[25.8635,3.0223,615.6935],[25.8685,3.0232,603.9399],[25.8715,3.0182,602.7314],[25.8867,3.0092,602.9094],[25.8949,3.0086,604.0455],[25.9009,3.0047,604.0903],[25.9155,3.0033,613.2622],[25.9208,2.9992,605.6154],[25.921,2.9962,609.76],[25.9135,2.9884,611.6508],[25.908,2.9879,600.4228],[25.903,2.9916,602.1321],[25.892,2.9918,603.72],[25.8908,2.9862,603.5107],[25.8927,2.9819,611.3733],[25.897,2.9791,621.3677],[25.9019,2.9729,632.4958],[25.9094,2.97,627.9709],[25.8957,2.9546,627.7573],[25.8676,2.9297,638.5913],[25.8567,2.9162,644.031],[25.8522,2.9069,652.3326],[25.8417,2.8979,645.7836],[25.825,2.8907,651.0051],[25.79,2.8822,610.1771],[25.7841,2.8591,624.8575],[25.7661,2.845,610.9937],[25.778,2.8232,633.6842],[25.8084,2.7883,627.8173],[25.8093,2.7768,605.5278],[25.8013,2.7352,619.7122],[25.7914,2.7153,631.913],[25.784,2.7044,608.0426],[25.7821,2.6938,614.9265],[25.7824,2.6794,608.0995],[25.777,2.6628,602.0878],[25.7655,2.6518,595.9471],[25.7696,2.64,575.603],[25.7776,2.6295,569.4771],[25.784,2.6146,587.2019],[25.7965,2.599,593.9325],[25.8064,2.5806,599.9024],[25.8301,2.5243,607.4243],[25.8314,2.5102,616.3251],[25.8205,2.4967,610.9575],[25.8134,2.4813,627.1974],[25.8141,2.4417,647.8174],[25.8198,2.4168,621.3342],[25.8288,2.3958,619.422],[25.8416,2.3774,623.9857],[25.8749,2.3179,608.7699],[25.8774,2.2962,592.1122],[25.8915,2.2689,599.8312],[25.8941,2.2555,572.2646],[25.9161,2.2188,529.6005],[25.9214,2.2152,536.6898],[25.9315,2.2159,532.1101],[25.9532,2.204,554.2091],[25.9582,2.2029,568.1758],[25.9658,2.2082,585.7903],[25.9676,2.2114,581.9179],[25.966,2.2169,568.4175],[25.971,2.2236,574.4688],[25.9717,2.23,568.5249],[25.9794,2.239,566.8523],[25.9851,2.2579,546.9005],[25.9905,2.2701,568.1169],[26.0127,2.2771,593.3914],[26.0164,2.2762,586.2978],[26.0264,2.2776,592.0559],[26.0394,2.2848,589.3796],[26.0536,2.2855,609.8398],[26.0696,2.2807,609.3419],[26.0875,2.2791,640.7867],[26.1051,2.284,615.4612],[26.1119,2.2879,624.5454],[26.114,2.2916,633.4267],[26.1121,2.2971,627.1378],[26.1135,2.3008,628.9296],[26.1276,2.3124,636.6973],[26.1372,2.3151,633.1199],[26.1464,2.3239,649.8253],[26.1537,2.3276,634.0437],[26.1651,2.3295,641.3773],[26.1718,2.3233,641.2191],[26.175,2.3226,633.2144],[26.1901,2.3127,638.0418],[26.1931,2.3125,637.1234],[26.1969,2.3227,643.5887],[26.2042,2.3277,652.1673],[26.2131,2.3383,653.4733],[26.2177,2.3416,654.3027],[26.246,2.3436,664.6748],[26.2566,2.3479,657.5953],[26.2622,2.3574,667.2144],[26.2713,2.3626,656.981],[26.3169,2.3644,692.9288],[26.3077,2.4067,690.7023],[26.2755,2.3956,689.7733],[26.2359,2.41,674.5197],[26.212,2.4166,672.5565],[26.186,2.4286,653.2219],[26.1245,2.4696,638.8121],[26.125,2.5074,658.2548],[26.1322,2.5188,641.0078],[26.1452,2.5591,654.4098],[26.1467,2.5811,657.4258],[26.1448,2.5937,662.4749],[26.1448,2.6128999999999998,666.9704],[26.1507,2.6488,657.064],[26.1494,2.6762,646.1398],[26.1448,2.682,642.0344],[26.1443,2.6863,630.415],[26.1379,2.693,636.6323],[26.1363,2.7045,624.2129],[26.131,2.71,638.0532],[26.131,2.7178,625.4856],[26.1282,2.7227,615.3439],[26.1369,2.7275,620.923],[26.1426,2.7216,630.9281],[26.1566,2.7195,627.8433],[26.1623,2.7165,635.8165],[26.1689,2.7175,628.1221],[26.1714,2.7219,628.373],[26.181,2.7288,620.068],[26.1916,2.7281,627.3588],[26.1982,2.7307,619.3057],[26.2048,2.7281,628.5597],[26.2085,2.7341,619.8752],[26.2094,2.7408,616.7817],[26.2052,2.7555,617.3277],[26.2059,2.7618,620.7164],[26.1978,2.7921,618.4301],[26.2031,2.8039,633.6261],[26.2037,2.8151,637.2542],[26.2023,2.8266,636.4529],[26.2036,2.84,636.743],[26.198,2.8577,637.4075],[26.2095,2.8606,665.1974],[26.2251,2.8693,647.4067],[26.2423,2.8743,644.8095],[26.2485,2.8879,655.5282],[26.2654,2.8926,626.4188],[26.2815,2.8881,635.9954],[26.2893,2.889,642.6971],[26.308,2.8958,649.0571],[26.3174,2.8941,647.1346],[26.3442,2.8816,666.7634],[26.3549,2.8794,682.2999],[26.3882,2.8799,696.0942],[26.3939,2.8787,688.9055],[26.4063,2.869,698.1222],[26.4177,2.8571,695.8536],[26.4218,2.8558,687.5424],[26.4272,2.8567,686.2485],[26.4332,2.8708,711.1168],[26.4416,2.8822,673.8542],[26.4488,2.888,683.5941],[26.4903,2.9073,693.9254],[26.4997,2.9187,690.4721],[26.4882,2.9578,672.1511],[26.4933,2.964,677.7659],[26.5305,2.962,653.7013],[26.5449,2.9641,696.0712],[26.552,2.9704,663.7324],[26.5553,2.9812,665.1636],[26.5544,2.9851,652.8015],[26.5475,2.9883,663.5648],[26.5436,2.9956,653.3552],[26.5386,2.9998,651.9838],[26.5312,3.0005,651.0004],[26.5242,3.0041,653.0531],[26.5194,3.003,666.1932],[26.5171,3.0053,665.6603],[26.5125,3.0018,668.9304],[26.4997,3.0004,659.1109],[26.4967,3.0183,646.6494],[26.4886,3.031,646.1082],[26.4881,3.0402,640.4147],[26.4838,3.0466,641.6893],[26.4886,3.0524,645.1803],[26.4881,3.0565,643.5728],[26.4828,3.0623,641.4628],[26.481,3.0733,642.6209],[26.4663,3.0811,642.8773],[26.4636,3.0882,637.3448],[26.4569,3.0942,641.2148],[26.4516,3.1115,639.6862],[26.4557,3.1172,654.1395],[26.4564,3.1227,655.2391],[26.4523,3.1257,640.8146],[26.4513,3.1338,641.8337],[26.4589,3.1421,646.9883],[26.4593,3.1446,645.6089],[26.4554,3.1474,642.1491],[26.4582,3.1515,641.619],[26.4561,3.1614,637.6765],[26.4577,3.1665,658.0889],[26.4629,3.1739,640.2463],[26.4638,3.1782,645.3896],[26.4611,3.1851,662.2625],[26.4565,3.1904,641.9421],[26.4368,3.1968,643.855],[26.4312,3.2035,645.5192],[26.4262,3.2069,638.126],[26.4186,3.2076,641.3524],[26.4127,3.2115,644.8238],[26.4079,3.217,639.5697],[26.4042,3.2186,637.5541],[26.4014,3.2244,649.2452],[26.3971,3.2271,647.8165],[26.3934,3.2322,649.1226],[26.3888,3.2356,633.2988],[26.3781,3.2377,633.6218],[26.3758,3.2429,635.2631],[26.3821,3.2602,643.2884],[26.3944,3.2826,642.5771],[26.3896,3.2835,645.2431],[26.3896,3.2867,639.7268],[26.3953,3.2982,631.3134],[26.3992,3.3001,642.0332],[26.4003,3.3077,638.7836],[26.4035,3.3121,636.8416],[26.4003,3.313,637.0037],[26.3971,3.3203,641.8966],[26.4001,3.3332,651.155],[26.397,3.3447,640.929],[26.3879,3.3505,638.2668],[26.3872,3.3537,636.0452],[26.3899,3.3604,641.5812],[26.3858,3.3615,651.1707],[26.3853,3.3631,651.869],[26.3872,3.3645,639.2816],[26.3862,3.3666,628.0018],[26.3801,3.3661,637.1538],[26.3782,3.3645,638.7871],[26.3743,3.3656,634.442],[26.3714,3.3615,633.3088],[26.3691,3.3617,633.7953],[26.3645,3.3739,630.5403],[26.3692,3.3948,637.8485],[26.3779,3.3974,650.6467],[26.3818,3.4041,646.5631],[26.3882,3.4036,641.3738],[26.3912,3.4059,638.6993],[26.3937,3.4122,646.0236],[26.393,3.4142,646.9884],[26.3877,3.4119,645.1624],[26.3829,3.4158,643.4049],[26.3808,3.4207,639.5254],[26.3724,3.4243,629.6124],[26.3687,3.4204,624.2233],[26.36,3.4208,632.3047],[26.3554,3.4289,625.2523],[26.3421,3.4298,630.5637],[26.3302,3.4277,646.9114],[26.324,3.4311,628.2048],[26.3171,3.4532,661.2106],[26.3075,3.4677,640.1118],[26.3026,3.4716,643.2784],[26.2912,3.4755,628.698],[26.2845,3.4805,623.4029],[26.2737,3.495,626.4083],[26.265,3.5014,624.7695],[26.2462,3.5099,622.1874],[26.2391,3.5096,633.4211],[26.2318,3.5135,642.2414],[26.2219,3.5114,634.8695],[26.2155,3.5176,654.3765],[26.2184,3.5289,623.9415],[26.2159,3.5356,632.7709],[26.2072,3.5413,619.89],[26.2005,3.5429,626.2343],[26.1927,3.5498,630.6413],[26.1886,3.5498,635.6599],[26.1827,3.5445,637.9252],[26.1776,3.5442,643.9371],[26.168,3.5504,627.3323],[26.1645,3.5566,623.1292],[26.1526,3.5631,638.6208],[26.1492,3.5681,667.4178],[26.1485,3.5723,648.2554],[26.151,3.5817,613.8876],[26.1484,3.5946,617.5938],[26.1527,3.6114,615.9433],[26.1488,3.6264,625.4824],[26.1375,3.6429,620.1041],[26.135,3.65,614.4934],[26.1418,3.6542,623.7943],[26.1219,3.6599,594.9807],[26.1178,3.6686,633.7514],[26.1065,3.6764,605.6665],[26.0978,3.6762,614.2695],[26.0902,3.6782,592.5411],[26.0829,3.6897,600.5015],[26.0835,3.6998,609.9008],[26.0796,3.7042,607.7126],[26.075,3.7139,608.341],[26.0665,3.7214,613.0647],[26.0626,3.7178,605.0591],[26.0558,3.7175,632.9818],[26.0516,3.7196,600.3605],[26.0356,3.7354,615.6306],[26.0227,3.7377,590.7198],[26.02,3.7406,594.5184],[26.0145,3.7383,590.0003],[26.0047,3.7282,602.5299],[25.9934,3.7277,592.3014],[25.9859,3.7224,588.402],[25.9818,3.7233,602.4995],[25.9772,3.7283,597.2908],[25.9721,3.7269,604.8024],[25.9671,3.7212,619.8322],[25.9479,3.7177,612.8577],[25.9449,3.7075,588.822],[25.9422,3.7052,582.0],[25.9342,3.7054,585.308],[25.9273,3.7082,604.4343],[25.9231,3.713,608.3649],[25.9137,3.7183,603.3913],[25.9082,3.7187,587.2188],[25.9025,3.7088,590.5936],[25.8986,3.7051,592.3566],[25.8853,3.7069,581.8101],[25.8712,3.6979,594.0671],[25.8611,3.6965,595.4171],[25.8563,3.6928,583.4072],[25.8529,3.6817,578.5],[25.8547,3.6723,578.0],[25.8513,3.6679,584.0349],[25.8511,3.664,585.9285],[25.8546,3.6532,577.5],[25.853,3.6451,577.0],[25.8455,3.6343,588.7635],[25.8443,3.6288,600.1199],[25.8524,3.6136,576.0],[25.8529,3.6083,576.0],[25.8506,3.5984,575.5],[25.8433,3.5827,596.1346],[25.8415,3.5721,603.0699],[25.8416,3.551,583.1887],[25.8327,3.5401,588.1743],[25.8128,3.5306,594.6025],[25.789,3.528,585.1456],[25.7832,3.5402,601.8884],[25.7772,3.5466,624.9937],[25.7644,3.5512,570.5],[25.7602,3.5636,578.5145],[25.7563,3.5677,584.1097],[25.7469,3.5716,569.5],[25.7398,3.5725,569.0],[25.7355,3.5714,592.5951],[25.7132,3.5883,591.3417],[25.7129,3.6021,584.9987],[25.709,3.6058,597.365],[25.7033,3.606,570.7452],[25.6891,3.5988,623.0609],[25.6804,3.597,622.5189],[25.6419,3.5994,585.6001],[25.6168,3.5873,592.7054],[25.6037,3.5838,590.6076],[25.5859,3.5624,562.5],[25.5805,3.5527,583.0378],[25.5727,3.546,585.2176],[25.5539,3.5434,585.8578],[25.5369,3.5489,561.0],[25.5301,3.5465,560.5],[25.5194,3.5348,588.6193],[25.5098,3.5202,587.8958],[25.5055,3.5085,586.2442],[25.5032,3.5064,585.6479],[25.4947,3.5091,559.0],[25.4851,3.5096,586.7573],[25.4766,3.5141,563.9978],[25.4713,3.5146,575.38],[25.4624,3.5118,582.3038],[25.4569,3.5127,557.5],[25.4422,3.5288,585.1757],[25.4381,3.531,556.5],[25.4273,3.5317,582.5883],[25.4133,3.5415,575.9529],[25.4076,3.5408,585.0645],[25.3991,3.5362,570.8047],[25.3726,3.5304,579.5226],[25.3648,3.5248,582.8313],[25.3501,3.522,576.111],[25.333,3.5217,582.5002],[25.3268,3.518,582.5446],[25.32,3.509,552.0],[25.3151,3.5053,578.0878],[25.3074,3.5046,554.9827],[25.2936,3.5218,551.0],[25.2896,3.5354,550.5],[25.2859,3.5409,550.5],[25.2836,3.5416,550.5],[25.2727,3.539,555.9828],[25.2561,3.5504,549.5]],
[[26.0817,3.6322,644.037],[26.0612,3.6335,616.1293],[26.056,3.6385,637.8704],[26.0532,3.6552,630.4739],[26.0562,3.6626,605.5162],[26.0711,3.6698,604.5579],[26.0791,3.6695,601.5753],[26.0858,3.6674,601.6109],[26.0917,3.6619,604.6951],[26.0949,3.6552,602.1484],[26.0956,3.6474,606.4167],[26.0923,3.6407,601.9872],[26.0817,3.6322,644.037]]]]}
,"properties": {"GID_2": "COD.1.4_1","GID_0": "COD","country": "DemocraticRepublicoftheCongo","GID_1": "COD.1_1","province": "Bas-Uele","NL_NAME_1": "NA","county": "Bambesa","VARNAME_2": "NA","NL_NAME_2": "NA","TYPE_2": "Territoire","ENGTYPE_2": "Territory","CC_2": "NA","HASC_2": "NA","name": "Bambesa.county","area_km2": 9915.001,"hist_schema_id": "Elevation0-9000","hist_area_km2": {"525": 7.818,"550": 58.901,"575": 359.522,"600": 1608.502,"625": 3115.462,"650": 2978.438,"675": 1456.071,"700": 304.181,"725": 25.916,"750": 0.169}}}