{"type": "Feature","bbox": [23.9272,-6.7805,24.0007,-6.7207],"geometry": {"type": "MultiPolygon","coordinates": [[[[23.9795,-6.7781,765.8942],[23.9927,-6.7696,743.2198],[24.0007,-6.7569,709.5197],[24.0007,-6.748,709.5363],[23.9913,-6.7287,725.9362],[23.987,-6.724,732.4788],[23.9748,-6.7207,736.7181],[23.9644,-6.7221,785.0504],[23.9574,-6.7254,796.7412],[23.939,-6.7296,763.1451],[23.9272,-6.7466,748.2004],[23.9324,-6.771,729.2793],[23.9414,-6.7762,739.7855],[23.9527,-6.78,742.3499],[23.9673,-6.7805,776.5513],[23.9795,-6.7781,765.8942]]]]}
,"properties": {"GID_2": "COD.14.9_1","GID_0": "COD","country": "DemocraticRepublicoftheCongo","GID_1": "COD.14_1","province": "Lomami","NL_NAME_1": "NA","county": "Ngandajika(ville)","VARNAME_2": "NA","NL_NAME_2": "NA","TYPE_2": "Ville","ENGTYPE_2": "Town","CC_2": "NA","HASC_2": "NA","name": "Ngandajika(ville).county","area_km2": 41.52082,"hist_schema_id": "Elevation0-9000","hist_area_km2": {"700": 1.01067,"725": 8.82218,"750": 13.72787,"775": 12.0645,"800": 5.89559}}}