{"type":"Feature","properties":{"GID_2":"COD.1.5_1","GID_0":"COD","country":"DemocraticRepublicoftheCongo","GID_1":"COD.1_1","province":"Bas-Uele","NL_NAME_1":"NA","county":"Bondo","VARNAME_2":"NA","NL_NAME_2":"NA","TYPE_2":"Territoire","ENGTYPE_2":"Territory","CC_2":"NA","HASC_2":"NA","name":"Bondo.county"},
"geometry":{"type": "MultiPolygon","coordinates": [[[[24.4783,5.099,546.6178],[24.4751,5.0989,565.5029],[24.4672,5.1046,535.5483],[24.4544,5.1045,540.9473],[24.4391,5.0972,580.6259],[24.4376,5.0902,585.0964],[24.4478,5.0745,546.7039],[24.4475,5.0644,545.272],[24.4439,5.0604,551.2322],[24.4342,5.0592,593.0463],[24.4299,5.0635,607.6072],[24.4073,5.1106,549.9986],[24.4029,5.1128,546.886],[24.3958,5.1126,543.2065],[24.3897,5.1088,534.5037],[24.382,5.0966,559.0049],[24.3797,5.0817,573.4088],[24.3761,5.0738,581.8678],[24.3722,5.0712,583.2239],[24.3609,5.068,577.0027],[24.358,5.0647,571.6098],[24.3573,5.0599,566.5868],[24.3631,5.0493,537.8231],[24.3689,5.0462,554.8158],[24.3743,5.0459,589.4929],[24.3901,5.0532,535.8958],[24.3982,5.0535,546.5695],[24.4092,5.0446,586.9214],[24.4124,5.0364,616.9],[24.4108,5.0313,614.4597],[24.4061,5.0273,565.0596],[24.3919,5.0226,544.2619],[24.3808,5.0107,578.8762],[24.3753,5.0084,580.9932],[24.362,5.0075,528.5],[24.355,5.0098,559.3601],[24.3491,5.0098,528.5],[24.3343,5.0031,590.3355],[24.3257,5.0038,530.8177],[24.3192,5.007,544.4225],[24.2983,5.0029,537.1932],[24.2831,4.986,546.1617],[24.2742,4.9806,552.6085],[24.2733,4.9723,541.6714],[24.2823,4.9583,552.4779],[24.2837,4.95,569.2658],[24.2801,4.9392,551.3342],[24.2751,4.9369,554.1707],[24.2525,4.9349,531.9969],[24.2505,4.9404,536.892],[24.2534,4.952,544.1818],[24.2481,4.9588,553.6439],[24.2363,4.9595,543.5059],[24.2293,4.9567,533.9203],[24.1911,4.9307,534.9735],[24.1708,4.9067,530.8782],[24.1681,4.9011,532.9561],[24.1632,4.8972,525.0],[24.1362,4.8975,531.4525],[24.1166,4.9126,568.9095],[24.1054,4.9135,548.1036],[24.096,4.912,530.8162],[24.0746,4.9034,575.4022],[24.065,4.8977,559.4267],[24.0487,4.8827,524.9709],[24.0389,4.8772,525.567],[24.0182,4.8737,535.7339],[23.992,4.8599,522.4034],[23.9849,4.861,516.217],[23.9762,4.8562,514.4324],[23.9712,4.858,544.9674],[23.9698,4.8714,513.9647],[23.9668,4.8767,515.465],[23.9599,4.8771,575.71],[23.9535,4.8718,579.1263],[23.9507,4.8668,539.4318],[23.9491,4.8523,549.417],[23.9537,4.8375,573.8916],[23.9554,4.8226,541.8451],[23.9517,4.8108,514.9422],[23.9498,4.8094,514.0335],[23.9301,4.812,514.969],[23.9161,4.817,552.0691],[23.9072,4.8288,503.0],[23.8922,4.8327,505.7778],[23.8847,4.831,502.0],[23.8734,4.8218,501.375],[23.8702,4.8165,501.0],[23.8562,4.8108,510.0336],[23.8512,4.8108,506.2382],[23.8427,4.8237,516.2338],[23.8374,4.8282,512.7211],[23.8335,4.8294,522.1015],[23.8158,4.819,505.5379],[23.8064,4.8112,499.5],[23.7803,4.7836,568.0087],[23.7707,4.7796,564.9701],[23.7587,4.7787,562.6426],[23.7289,4.7849,529.4359],[23.7092,4.7823,513.0736],[23.6775,4.7639,502.3573],[23.6199,4.7406,520.6375],[23.6087,4.7369,511.6287],[23.5901,4.7355,537.2863],[23.5821,4.733,525.9227],[23.5612,4.7148,520.1692],[23.5514,4.7035,510.0534],[23.5399,4.6961,518.1539],[23.5264,4.6912,493.5121],[23.5007,4.6733,528.2162],[23.4649,4.6735,507.0289],[23.4573,4.6695,544.2383],[23.4495,4.6615,499.0637],[23.431,4.6502,514.575],[23.4259,4.6446,518.2914],[23.425,4.6322,484.5],[23.4292,4.6009,490.2426],[23.4271,4.5919,502.8743],[23.4209,4.5889,495.1293],[23.4081,4.5901,502.7823],[23.3826,4.5889,491.6447],[23.3771,4.5909,482.5],[23.3714,4.6024,482.0],[23.3603,4.6079,530.6876],[23.3466,4.6089,512.7436],[23.3312,4.6022,507.2517],[23.3193,4.6068,494.5846],[23.3057,4.6201,498.8761],[23.2949,4.6274,486.9515],[23.2887,4.6283,484.2295],[23.2805,4.6256,490.1945],[23.2752,4.6304,494.9314],[23.271,4.6507,485.8018],[23.263,4.6638,489.2545],[23.2582,4.6667,491.3533],[23.2382,4.6683,490.7665],[23.2254,4.6817,488.2101],[23.2084,4.6922,491.0463],[23.1955,4.7201,487.7123],[23.1831,4.732,485.5692],[23.1716,4.7382,489.3101],[23.1594,4.7361,496.0146],[23.1429,4.7234,484.3243],[23.123,4.7153,495.5972],[23.1133,4.708,495.65],[23.08,4.7351,491.2517],[23.0631,4.7523,493.5197],[23.0489,4.7571,492.36],[23.0323,4.7658,488.8168],[22.9964,4.8102,485.7813],[22.9793,4.8428,488.4255],[22.9748,4.847,519.9924],[22.9672,4.8378,475.5],[22.9634,4.8368,477.885],[22.9546,4.8264,483.689],[22.9413,4.8154,488.8069],[22.9354,4.8145,475.0],[22.9225,4.8181,479.7117],[22.9115,4.8193,474.5],[22.9067,4.8179,474.0],[22.8952,4.807,478.958],[22.8877,4.7845,481.7469],[22.8886,4.775,484.4873],[22.9013,4.7633,484.782],[22.9026,4.7571,487.491],[22.9008,4.7534,480.25],[22.8766,4.7391,473.7654],[22.8745,4.7225,483.4531],[22.8701,4.7131,482.1353],[22.8658,4.7078,480.3569],[22.8575,4.7013,480.1877],[22.8456,4.7017,471.8975],[22.8286,4.7213,475.6405],[22.8219,4.7243,470.0],[22.8091,4.7252,477.094],[22.802,4.7226,477.5064],[22.7905,4.7145,477.0257],[22.7834,4.7044,476.5303],[22.7814,4.6903,489.7863],[22.7784,4.6825,490.085],[22.769,4.6682,485.9968],[22.7624,4.6507,531.4723],[22.7426,4.6284,505.5723],[22.739,4.6192,507.0275],[22.7357,4.5968,513.5851],[22.7343,4.5948,488.9199],[22.7337,4.556,490.1896],[22.7303,4.5461,506.8712],[22.7216,4.5385,517.4277],[22.7106,4.5238,459.375],[22.7065,4.5157,458.0],[22.7072,4.4913,469.2496],[22.699,4.4717,464.8748],[22.6882,4.4613,504.0795],[22.6802,4.4618,471.5509],[22.6722,4.4668,456.6409],[22.6627,4.4806,470.029],[22.648,4.4811,478.2919],[22.6272,4.4847,465.1974],[22.6143,4.4805,475.4695],[22.6098,4.4754,490.3234],[22.6026,4.475,458.5119],[22.5992,4.4717,471.5239],[22.5967,4.4634,459.8955],[22.5983,4.4457,453.1049],[22.5979,4.4245,473.8621],[22.5867,4.4061,454.5912],[22.5856,4.3999,446.5922],[22.59,4.3893,425.0165],[22.6017,4.3829,432.8778],[22.62,4.3776,417.2332],[22.6235,4.3721,417.9519],[22.6219,4.3581,438.5372],[22.6194,4.3505,445.8038],[22.6086,4.3481,435.4023],[22.5807,4.3308,447.3783],[22.575,4.3287,425.9994],[22.5693,4.3209,409.4424],[22.5622,4.2985,425.2137],[22.558,4.2945,406.3696],[22.5462,4.2708,407.2859],[22.5445,4.2615,406.0161],[22.5461,4.2482,396.7827],[22.5547,4.2386,403.8967],[22.5561,4.2347,415.2249],[22.5504,4.2154,404.8389],[22.5406,4.2034,403.0457],[22.5317,4.1956,407.4669],[22.5205,4.1896,407.1971],[22.5075,4.1767,393.5],[22.5042,4.1711,397.1656],[22.5015,4.1704,405.2773],[22.4937,4.1596,404.1141],[22.4699,4.1434,406.6934],[22.4559,4.128,400.8982],[22.4452,4.1243,400.2516],[22.4629,4.1171,396.8164],[22.4693,4.1167,394.5],[22.4769,4.1193,397.423],[22.4879,4.1157,395.9604],[22.4989,4.1144,399.8519],[22.5184,4.126,405.3604],[22.5469,4.1363,436.5121],[22.5576,4.1345,436.0805],[22.5853,4.122,438.4177],[22.5999,4.1217,445.1105],[22.6215,4.1291,460.5651],[22.6291,4.1281,447.3909],[22.6485,4.1137,492.4692],[22.6676,4.1233,509.8557],[22.6735,4.1222,481.8781],[22.6803,4.0924,494.216],[22.6941,4.084,500.3809],[22.7098,4.1016,487.3265],[22.7143,4.1027,482.2976],[22.7222,4.0831,480.9709],[22.7343,4.075,518.4104],[22.7475,4.0737,485.0],[22.7609,4.0449,504.2074],[22.7601,4.0302,510.1192],[22.7757,4.0292,523.1194],[22.7868,4.0338,515.967],[22.7934,4.0289,529.0663],[22.8003,4.0201,533.6408],[22.8117,4.0188,520.8557],[22.837,3.9871,492.9449],[22.8294,3.9861,503.142],[22.8221,3.9819,489.8013],[22.8096,3.9652,483.7863],[22.8044,3.9479,496.282],[22.7985,3.9368,464.6766],[22.8019,3.9194,456.1661],[22.8005,3.9115,456.3658],[22.798,3.9081,480.9829],[22.7864,3.9082,448.8881],[22.7839,3.9047,463.9396],[22.7821,3.8856,440.6069],[22.784,3.8829,425.2959],[22.7914,3.8792,428.383],[22.7946,3.8754,430.2516],[22.7958,3.871,433.5945],[22.8107,3.861,420.8166],[22.814,3.8559,438.1315],[22.8263,3.8597,406.3088],[22.8289,3.8516,437.1832],[22.838,3.8598,461.9668],[22.8442,3.8616,408.0867],[22.849,3.8598,405.625],[22.8546,3.8493,414.8085],[22.8596,3.8486,428.9582],[22.8686,3.8436,467.8882],[22.8709,3.8452,464.654],[22.8761,3.8455,459.4457],[22.8818,3.8501,419.2349],[22.8903,3.8451,409.0],[22.8957,3.8362,456.3198],[22.9014,3.8346,473.3399],[22.9135,3.8441,427.2107],[22.9181,3.843,433.0517],[22.9288,3.8505,455.4025],[22.937,3.8533,453.1426],[22.9492,3.852,452.6262],[22.9595,3.8589,439.4877],[22.9631,3.8578,453.7154],[22.9654,3.8597,458.321],[22.9693,3.8597,415.0],[22.973,3.8572,431.9932],[22.9746,3.8514,447.4794],[22.9815,3.8503,422.9354],[22.9831,3.8469,425.9184],[22.9863,3.8458,451.3156],[22.9871,3.8402,435.5008],[22.9901,3.8382,449.4914],[22.993,3.8384,459.9589],[23.0056,3.8507,482.4529],[23.0127,3.8501,464.1961],[23.0215,3.86,459.1193],[23.0254,3.8607,442.4238],[23.0328,3.8582,458.1526],[23.0412,3.8617,454.1709],[23.0495,3.8618,430.7461],[23.0585,3.8543,472.0775],[23.0628,3.8554,468.3511],[23.069,3.8608,425.0],[23.0715,3.8571,425.5],[23.0773,3.8548,459.8692],[23.0891,3.8591,477.0705],[23.0926,3.8614,491.2463],[23.0978,3.8692,473.0862],[23.1017,3.8697,462.1757],[23.1065,3.873,430.0],[23.1113,3.8728,430.5],[23.1184,3.8664,455.0592],[23.1294,3.8644,466.8472],[23.1347,3.8669,444.3136],[23.1409,3.8649,467.8257],[23.1504,3.8774,455.1209],[23.1537,3.8776,436.0],[23.1548,3.876,448.701],[23.1488,3.8555,436.5],[23.1545,3.8477,446.2028],[23.1655,3.8485,455.7893],[23.169,3.8448,460.213],[23.1784,3.8451,459.9939],[23.1886,3.8516,468.0473],[23.198,3.8524,472.4077],[23.2078,3.8644,464.1256],[23.2151,3.8651,450.9228],[23.2264,3.8628999999999998,439.0],[23.2434,3.8545,457.0701],[23.2487,3.8499,456.0593],[23.2519,3.8511,442.0598],[23.2547,3.8495,440.75],[23.254,3.8465,441.0],[23.2554,3.8442,443.0875],[23.2689,3.8367,470.3752],[23.2781,3.8349,501.4156],[23.2852,3.8363,448.7247],[23.2912,3.8327,492.4647],[23.2978,3.8316,514.3854],[23.301,3.8346,491.1107],[23.3116,3.8319,511.2731],[23.3209,3.8363,465.54],[23.3242,3.8354,472.6837],[23.3217,3.828,464.1636],[23.3251,3.8246,486.0291],[23.3366,3.827,455.125],[23.3456,3.8164,467.4584],[23.358,3.8124,465.4688],[23.3635,3.808,456.0],[23.3656,3.8018,459.8807],[23.3697,3.7977,478.884],[23.3741,3.7991,479.8051],[23.3768,3.8028,476.0375],[23.3835,3.8035,478.2485],[23.388,3.8075,471.9589],[23.3931,3.808,477.6054],[23.4028,3.8246,483.4123],[23.4023,3.8333,479.7229],[23.414,3.8323,457.875],[23.4255,3.828,458.0],[23.4333,3.8225,485.3788],[23.4438,3.8234,486.8604],[23.4521,3.8288,468.6247],[23.4557,3.8284,459.0],[23.4578,3.8208,464.0377],[23.4611,3.818,480.487],[23.4826,3.8131,484.2729],[23.5073,3.8176,460.0],[23.5197,3.8156,487.012],[23.5291,3.8186,491.4784],[23.5331,3.8062,496.3539],[23.5317,3.7982,487.8023],[23.5325,3.7903,501.2224],[23.5305,3.7765,511.5596],[23.5241,3.7657,505.876],[23.5052,3.7478,516.2365],[23.4975,3.7441,504.6957],[23.4886,3.7335,526.4927],[23.4836,3.7304,514.6899],[23.4691,3.7315,509.9257],[23.4636,3.7276,512.236],[23.4589,3.7197,509.1639],[23.4493,3.7107,513.6348],[23.4436,3.7077,524.3508],[23.4383,3.7085,520.8287],[23.434,3.7074,529.9579],[23.4251,3.6979,531.2446],[23.4224,3.6903,554.5513],[23.4073,3.6883,573.3064],[23.3518,3.7128,554.1583],[23.340699999999998,3.7249,594.6776],[23.3232,3.7487,586.611],[23.2852,3.7777,570.5249],[23.2624,3.7814,550.974],[23.243,3.7923,543.1798],[23.2367,3.7856,573.4658],[23.2406,3.7822,570.5118],[23.2464,3.7714,551.5297],[23.2549,3.7639,544.0659],[23.2556,3.7611,537.1544],[23.2467,3.7537,523.7534],[23.2457,3.744,531.5321],[23.24,3.738,520.114],[23.24,3.7332,520.3854],[23.2414,3.7318,512.0429],[23.2499,3.7325,516.601],[23.2535,3.73,507.987],[23.2657,3.7294,515.8143],[23.2769,3.726,515.631],[23.2818,3.7224,520.4283],[23.2896,3.7095,497.0287],[23.2871,3.7051,505.1766],[23.2833,3.7035,507.7134],[23.2737,3.6951,496.9287],[23.2685,3.6774,503.011],[23.2692,3.6735,491.0744],[23.2768,3.674,499.3233],[23.278199999999998,3.6666,481.9152],[23.2826,3.663,481.1572],[23.2854,3.6547,480.4766],[23.2916,3.6471,484.2058],[23.3171,3.6351,463.0241],[23.3233,3.6294,453.8362],[23.3245,3.6252,457.4034],[23.3211,3.6167,460.533],[23.3218,3.6133,459.1194],[23.3184,3.6049,453.3649],[23.3187,3.6008,459.2672],[23.3251,3.5951,466.8164],[23.3309,3.597,451.5577],[23.3377,3.5965,451.7806],[23.3426,3.5901,450.2319],[23.3456,3.5849,448.3041],[23.3452,3.575,444.223],[23.348,3.5692,443.5222],[23.3521,3.5676,446.4044],[23.353,3.563,445.0042],[23.356,3.5598,454.2841],[23.3549,3.5554,447.1226],[23.3598,3.5467,441.8569],[23.3605,3.5396,435.2965],[23.3665,3.5366,452.0211],[23.3681,3.5334,459.611],[23.5198,3.5345,466.8265],[23.5534,3.5202,447.0121],[23.5973,3.5092,441.1255],[23.6091,3.5263,443.3662],[23.6111,3.5406,431.8808],[23.619,3.5565,458.6223],[23.6404,3.5769,467.5761],[23.6717,3.5703,463.4533],[23.6993,3.5569,451.4432],[23.704,3.5569,458.6961],[23.7088,3.577,470.9738],[23.714,3.5847,463.775],[23.7178,3.5881,463.812],[23.7258,3.5878,483.6262],[23.7487,3.5708,479.4731],[23.7612,3.5656,451.3558],[23.769,3.567,456.9546],[23.7822,3.5704,474.1219],[23.7918,3.5774,474.7164],[23.8082,3.5928,504.4431],[23.8219,3.6138,535.8174],[23.8229,3.6181,542.9155],[23.8269,3.6204,530.337],[23.8367,3.6147,562.9972],[23.853,3.5913,551.4795],[23.8571,3.59,538.8821],[23.8676,3.6038,549.1523],[23.8717,3.6142,550.053],[23.878,3.6227,536.851],[23.8887,3.6239,542.5774],[23.8954,3.6167,538.3727],[23.8994,3.6172,533.4904],[23.9102,3.6339,538.0548],[23.9253,3.6495,533.8527],[23.945,3.6622,545.1612],[23.9446,3.6791,496.9521],[23.9479,3.6927,514.1473],[23.947,3.6987,503.1134],[23.9461,3.6977,496.7849],[23.9428,3.7063,473.5],[23.9453,3.7146,473.5],[23.9489,3.7169,473.75],[23.9514,3.7226,474.0],[23.954,3.724,474.0],[23.9736,3.7253,474.5],[23.992,3.7302,474.5],[24.0076,3.7222,481.9379],[24.0195,3.7195,491.0677],[24.0243,3.7244,503.6738],[24.0318,3.7279,477.0],[24.035,3.7272,483.0987],[24.0465,3.7181,478.0],[24.0548,3.7156,478.5],[24.0619,3.7149,479.0],[24.0674,3.7209,479.25],[24.071,3.7214,505.5126],[24.0825,3.7166,480.0],[24.0933,3.7075,502.0298],[24.0993,3.7071,481.5],[24.1032,3.7087,481.5],[24.1124,3.7034,482.0],[24.1151,3.7044,482.5],[24.1171,3.7078,482.5],[24.122,3.7097,483.0],[24.1304,3.71,496.8349],[24.1393,3.7162,484.0],[24.1519,3.7156,485.0],[24.1579,3.7186,485.0],[24.1632,3.7191,504.5005],[24.1762,3.7127,486.5],[24.1884,3.7142,487.0],[24.1964,3.7108,487.5],[24.2047,3.7043,488.5],[24.2164,3.7033,489.0],[24.221,3.7008,489.5],[24.232,3.7015,490.0],[24.2407,3.6937,506.0674],[24.243,3.6884,518.3834],[24.244,3.6778,503.7675],[24.2477,3.6721,497.1775],[24.2647,3.6634,491.0],[24.2769,3.6513,506.3168],[24.2806,3.6446,509.1516],[24.2886,3.6396,491.0],[24.2926,3.6327,499.4982],[24.2948,3.6318,491.0],[24.3002,3.6206,504.8106],[24.3123,3.6183,491.0],[24.3155,3.616,494.3083],[24.3183,3.6066,502.4723],[24.3216,3.6036,495.267],[24.3239,3.5981,494.9298],[24.3253,3.5901,498.1574],[24.3319,3.5908,509.3698],[24.3443,3.5784,491.0],[24.3455,3.5731,511.5586],[24.3483,3.5715,503.3239],[24.354,3.5716,492.875],[24.3563,3.5697,500.2779],[24.3589,3.5603,517.057],[24.3612,3.5573,496.0],[24.3607,3.5536,500.881],[24.3852,3.5535,509.2846],[24.3963,3.5469,504.7904],[24.4047,3.5476,527.1302],[24.4105,3.5437,521.3312],[24.4214,3.5479,569.4931],[24.4322,3.5434,511.9517],[24.4435,3.5319,500.375],[24.4481,3.5359,565.9042],[24.4593,3.5361,515.8802],[24.4685,3.5396,523.9678],[24.4737,3.5367,504.0],[24.4806,3.5277,511.6243],[24.4841,3.5298,509.7446],[24.496,3.5299,524.5256],[24.5029,3.5264,505.0],[24.5084,3.5214,519.2339],[24.5128,3.5124,505.0],[24.5217,3.5051,505.5],[24.5367,3.4888,505.5],[24.5654,3.4696,517.407],[24.5707,3.4685,508.273],[24.5751,3.4641,510.8985],[24.5792,3.4635,505.5],[24.6,3.4684,505.5],[24.6025,3.4673,505.5],[24.6046,3.4684,508.6614],[24.6068,3.477,528.6747],[24.6126,3.4795,505.5],[24.6213,3.4793,505.5],[24.6491,3.5004,517.0726],[24.6629,3.4979,517.1584],[24.6661,3.4947,508.0366],[24.6704,3.4933,518.8297],[24.6735,3.4871,520.7409],[24.6778,3.4846,530.2462],[24.6772,3.4763,523.4695],[24.6868,3.4674,528.3658],[24.6981,3.4628,520.79],[24.7033,3.4654,529.4084],[24.7116,3.4664,512.3521],[24.7237,3.4609,513.0985],[24.7281,3.4648,509.0],[24.7291,3.4791,540.7229],[24.7316,3.483,535.6137],[24.7431,3.4812,528.2362],[24.7513,3.4884,517.4482],[24.7662,3.4891,523.5741],[24.7849,3.5019,536.6682],[24.8012,3.5024,531.4154],[24.8049,3.4939,526.8704],[24.8147,3.4953,531.4899],[24.8257,3.4924,525.0],[24.842,3.4943,526.0],[24.8558,3.4881,540.6293],[24.875,3.4841,549.0772],[24.8824,3.4783,551.707],[24.8935,3.4772,535.1006],[24.8982,3.4717,540.5679],[24.903199999999998,3.4697,546.8877],[24.9083,3.4702,539.6975],[24.9115,3.4743,537.0217],[24.914,3.4833,540.6644],[24.9174,3.487,541.0811],[24.9265,3.488,554.0885],[24.935,3.4845,553.8589],[24.9424,3.4765,550.2722],[24.9451,3.4756,552.1674],[24.9481,3.471,539.1136],[24.9534,3.4676,550.4265],[24.9548,3.4625,537.4757],[24.9628,3.4577,533.9722],[24.9809,3.4536,552.5091],[24.986,3.4477,563.924],[24.9874,3.4428,563.7072],[24.9826,3.4341,583.8942],[24.9848,3.4141,545.7313],[24.9878,3.4072,538.7743],[24.997,3.3954,557.5257],[25.0027,3.3936,560.4524],[25.01,3.3951,560.0835],[25.0197,3.3942,540.8655],[25.027,3.4004,584.4879],[25.0322,3.4025,557.2717],[25.0445,3.415,559.8618],[25.0585,3.4231,563.5193],[25.0635,3.4233,562.3392],[25.0887,3.4163,559.7056],[25.1054,3.4189,562.0408],[25.1217,3.4151,561.7891],[25.1311,3.4197,562.9459],[25.1483,3.4179,564.8585],[25.1531,3.4209,552.939],[25.1579,3.4209,544.2646],[25.162,3.4233,547.2465],[25.1617,3.4309,566.6387],[25.1656,3.4346,577.237],[25.1663,3.4389,560.3165],[25.1786,3.4427,546.9712],[25.1796,3.4458,549.6357],[25.1752,3.4558,575.1118],[25.1802,3.465,571.8888],[25.1866,3.4722,548.558],[25.1939,3.4736,572.6908],[25.1962,3.4756,570.2843],[25.2002,3.486,569.1701],[25.2071,3.492,563.0325],[25.2204,3.4939,553.1862],[25.2274,3.5038,569.8885],[25.2336,3.5094,555.6917],[25.2368,3.5193,557.5007],[25.2432,3.5232,554.2996],[25.2484,3.5318,565.8835],[25.2561,3.5504,549.5],[25.2652,3.5666,564.8622],[25.2679,3.5776,569.6286],[25.2718,3.5813,564.9634],[25.2769,3.5804,573.6321],[25.2796,3.5855,581.4445],[25.2798,3.5949,575.5],[25.2834,3.5963,566.4423],[25.2857,3.594,569.0165],[25.2927,3.5766,585.7451],[25.297,3.5736,568.9597],[25.3,3.5683,573.0298],[25.3037,3.5665,588.3175],[25.3058,3.5676,595.7115],[25.3117,3.5817,562.8012],[25.3112,3.5856,574.7451],[25.3036,3.5996,603.484],[25.3065,3.6181,562.5524],[25.3049,3.6217,596.4159],[25.2982,3.6242,590.5916],[25.2909,3.6295,597.5635],[25.2826,3.6304,622.7241],[25.2806,3.6332,601.134],[25.2874,3.6417,594.8086],[25.2908,3.6523,579.8304],[25.2961,3.6546,584.7505],[25.3096,3.6505,597.248],[25.3183,3.6427,604.9366],[25.3261,3.6407,600.2305],[25.3303,3.6363,596.1525],[25.3344,3.6352,601.7783],[25.3371,3.6398,596.1082],[25.3447,3.6463,617.7385],[25.3518,3.6435,597.6227],[25.3623,3.6461,599.2402],[25.3655,3.6562,575.7656],[25.368,3.6586,579.7573],[25.373,3.6581,594.3409],[25.3806,3.6538,586.5835],[25.3845,3.6549,598.0399],[25.3934,3.6697,582.9048],[25.3904,3.6761,580.4489],[25.391,3.6796,568.8732],[25.41,3.7075,588.3552],[25.4148,3.7107,605.489],[25.4193,3.7105,604.7988],[25.4221,3.7071,596.0694],[25.4238,3.696,592.6997],[25.426,3.6951,592.3312],[25.4281,3.6967,596.4658],[25.4333,3.7085,610.7454],[25.4315,3.714,597.0034],[25.4335,3.7269,565.5069],[25.4442,3.7387,605.9045],[25.45,3.738,588.779],[25.458,3.7252,587.1948],[25.4608,3.7254,588.903],[25.4653,3.7293,610.3901],[25.4665,3.7328,611.6214],[25.4644,3.7404,596.7801],[25.4584,3.7445,566.428],[25.4577,3.7475,587.761],[25.4714,3.762,602.957],[25.4832,3.786,615.6491],[25.4901,3.7883,627.7583],[25.5018,3.8001,602.7043],[25.5052,3.8004,618.5221],[25.5075,3.7951,594.1739],[25.5116,3.7944,596.8015],[25.5342,3.8219,582.6452],[25.5354,3.8265,603.1633],[25.5333,3.8373,580.2705],[25.5346,3.8451,577.6319],[25.5449,3.864,598.6441],[25.5361,3.8661,568.5954],[25.5283,3.8702,583.4596],[25.516,3.8692,589.1237],[25.5105,3.871,593.7351],[25.5084,3.8731,580.6311],[25.5061,3.8839,585.8987],[25.4934,3.8977,588.0763],[25.484,3.9163,593.466],[25.4394,3.9449,593.223],[25.4286,3.9571,598.3916],[25.4056,3.9648,602.4556],[25.3905,3.9751,599.9001],[25.3872,3.9873,596.8915],[25.3872,3.9953,595.2036],[25.3892,4.0021,607.3426],[25.3946,4.0073,617.9083],[25.4037,4.0118,607.0566],[25.4235,4.0116,615.9647],[25.4415,4.0165,610.359],[25.4445,4.0313,616.9321],[25.4454,4.0516,595.1581],[25.4435,4.057,615.3077],[25.4422,4.0755,595.1293],[25.4307,4.0899,619.7367],[25.415,4.1057,582.3033],[25.4115,4.1149,580.2177],[25.4117,4.1451,580.6061],[25.4072,4.1782,582.0213],[25.4078,4.1994,577.9885],[25.4062,4.2077,590.4885],[25.3956,4.2233,568.1398],[25.366,4.2257,555.2107],[25.3726,4.2357,570.5499],[25.3666,4.2448,567.3149],[25.3597,4.251,597.1869],[25.3446,4.2586,587.928],[25.3347,4.2659,596.2683],[25.3209,4.2801,607.367],[25.3147,4.2898,583.971],[25.3063,4.3098,616.2554],[25.3042,4.3183,605.4082],[25.3047,4.3266,639.9352],[25.3096,4.3517,603.8772],[25.3219,4.3775,603.014],[25.323,4.3876,597.2589],[25.3158,4.4258,648.5015],[25.3155,4.4359,632.248],[25.3198,4.4657,651.595],[25.3196,4.4854,658.9085],[25.314,4.4894,627.4795],[25.288,4.4904,652.0628],[25.2744,4.479,652.2994],[25.2297,4.4538,603.2754],[25.2036,4.4452,602.9314],[25.1548,4.4349,605.5936],[25.1463,4.4388,598.0046],[25.1318,4.441,596.7133],[25.0597,4.4845,586.6514],[25.0449,4.4989,617.6688],[25.0336,4.5178,599.4077],[25.0263,4.523,590.4882],[24.9233,4.5654,613.0754],[24.9123,4.5785,581.7076],[24.907,4.5824,598.292],[24.8941,4.5858,566.1619],[24.8594,4.6057,590.3123],[24.8511,4.6123,587.384],[24.8513,4.631,585.1854],[24.8575,4.6745,589.8938],[24.8561,4.6793,584.8823],[24.8508,4.6867,562.4001],[24.828,4.7103,577.4385],[24.8135,4.7369,589.3318],[24.8093,4.7496,585.168],[24.7978,4.7587,581.413],[24.7931,4.7728,595.1376],[24.7906,4.7757,574.7972],[24.7651,4.7871,589.1293],[24.7559,4.7965,587.2491],[24.748,4.8082,562.8018],[24.7424,4.8285,592.0178],[24.7387,4.8333,590.1077],[24.7309,4.8383,579.483],[24.7286,4.8434,577.1333],[24.732,4.8524,588.8429],[24.7302,4.8554,586.4558],[24.7187,4.8624,570.4104],[24.7095,4.8652,561.0954],[24.7065,4.8693,554.8357],[24.7062,4.8872,541.271],[24.6995,4.893,558.081],[24.6956,4.8987,541.4828],[24.6969,4.9109,539.1777],[24.6932,4.921,581.0997],[24.6764,4.9193,555.1713],[24.6682,4.9163,546.3674],[24.662,4.917,540.6323],[24.6581,4.9195,543.3057],[24.6564,4.9241,576.142],[24.658,4.9285,569.2674],[24.668,4.937,541.3822],[24.673,4.95,539.778],[24.676,4.96,559.5267],[24.6739,4.9695,553.1666],[24.6723,4.9686,537.6399],[24.6597,4.9708,540.9011],[24.652,4.974,540.1583],[24.6328,4.9751,536.8715],[24.6299,4.9822,561.8554],[24.6225,5.0142,537.3109],[24.6138,5.0301,552.5493],[24.6105,5.0321,589.0595],[24.5919,5.0315,538.4191],[24.5653,5.0362,534.8693],[24.5483,5.049,565.6709],[24.545,5.0555,575.4169],[24.5438,5.0644,560.1998],[24.5392,5.0759,539.6227],[24.5344,5.0805,540.9634],[24.4944,5.0928,536.9051],[24.4856,5.0994,539.6219],[24.4783,5.099,546.6178]],
[[23.6724,3.7667,511.6653],[23.659,3.7662,532.2761],[23.645,3.7744,537.0376],[23.6325,3.7966,526.1915],[23.6325,3.8179,507.7184],[23.6402,3.8324,496.2543],[23.6422,3.8333,479.467],[23.659,3.8226,464.5],[23.6784,3.8038,476.4054],[23.6825,3.7937,467.9947],[23.6869,3.7903,475.0048],[23.6904,3.7825,489.6022],[23.701,3.773,466.0],[23.6869,3.7676,494.2043],[23.6724,3.7667,511.6653]]]]}}