{"type": "Feature","bbox": [27.2435,2.9363,28.5419,4.0671],"geometry": {"type": "MultiPolygon","coordinates": [[[[27.6577,3.3028,705.0115],[27.6591,3.3046,687.862],[27.6579,3.3079,688.4648],[27.6527,3.312,686.2633],[27.652,3.3154,675.6653],[27.6543,3.3191,661.9163],[27.6616,3.3178,659.1766],[27.6669,3.3102,674.0959],[27.6776,3.3083,666.6297],[27.6827,3.3122,676.5321],[27.6882,3.3125,688.3608],[27.6955,3.3166,701.0299],[27.6982,3.3157,699.3287],[27.6987,3.3102,661.5963],[27.7099,3.304,659.8953],[27.7262,3.3077,665.2543],[27.728,3.3042,663.2507],[27.7324,3.3033,662.8549],[27.7413,3.3058,666.9945],[27.7454,3.3054,677.8689],[27.7468,3.2987,682.5444],[27.7539,3.2966,669.4982],[27.7555,3.2987,663.7496],[27.7546,3.3035,663.3478],[27.7571,3.3061,662.8977],[27.7628,3.3001,674.8079],[27.7711,3.3075,696.2402],[27.777,3.3095,702.181],[27.7866,3.3038,697.6011],[27.791,3.2987,708.0361],[27.7995,3.2983,696.8101],[27.8047,3.295,718.416],[27.805,3.2925,715.4586],[27.7997,3.2881,699.8842],[27.7979,3.2838,685.7377],[27.8004,3.281,679.8126],[27.8155,3.2764,685.1344],[27.8192,3.2771,687.6077],[27.8224,3.2819,685.6595],[27.8274,3.2815,695.9689],[27.8308,3.2769,686.0929],[27.8231,3.2707,667.598],[27.8249,3.2681,682.6858],[27.8292,3.267,677.6039],[27.8311,3.2644,676.559],[27.8306,3.2612,692.153],[27.835,3.2578,690.3],[27.8357,3.2541,686.876],[27.8292,3.2421,681.0901],[27.8309,3.24,681.1349],[27.8352,3.2426,692.1697],[27.8384,3.2417,687.1624],[27.839,3.2398,687.5917],[27.8368,3.2343,692.3987],[27.8299,3.2301,677.1287],[27.8304,3.2269,677.2773],[27.8382,3.2203,690.2183],[27.8419,3.2035,687.8408],[27.840699999999998,3.2016,687.0607],[27.8451,3.1991,680.5261],[27.8485,3.1931,669.1763],[27.8538,3.1938,683.9752],[27.8636,3.1899,673.4937],[27.8689,3.1897,676.5775],[27.8712,3.1922,684.7276],[27.87,3.1975,674.1329],[27.8714,3.1996,670.6763],[27.8739,3.1993,672.0117],[27.8822,3.1917,676.6987],[27.8877,3.1913,683.135],[27.8909,3.2002,678.6324],[27.9014,3.1867,682.6177],[27.9124,3.1855,679.3876],[27.9195,3.1881,681.4229],[27.9227,3.1869,688.2024],[27.9229,3.1772,684.0081],[27.9259,3.1759,673.4563],[27.9312,3.1766,676.4724],[27.9394,3.172,690.0719],[27.9428,3.168,680.7321],[27.9442,3.1639,694.5332],[27.9406,3.151,685.3357],[27.9463,3.1432,684.9349],[27.9483,3.1367,692.8647],[27.955,3.1363,695.7177],[27.958,3.1381,686.1172],[27.9692,3.1338,674.5624],[27.985,3.1347,689.6301],[27.9875,3.1333,686.4669],[27.988,3.1305,699.9756],[27.985,3.1278,695.7664],[27.9786,3.1266,685.5906],[27.9779,3.1241,682.5247],[27.9804,3.12,677.8896],[27.9797,3.1179,681.6946],[27.9745,3.1188,684.4949],[27.9795,3.1073,679.6038],[27.9845,3.1124,687.4852],[27.9873,3.111,688.4023],[27.9866,3.1057,693.4292],[27.9891,3.1032,688.9545],[28.001,3.1027,681.0109],[28.0086,3.0981,687.7977],[28.0093,3.0963,696.5162],[28.0072,3.0951,697.7759],[27.9978,3.0981,709.2167],[27.9964,3.0962,706.4605],[28.0015,3.09,692.9877],[27.9996,3.0815,709.3091],[28.0024,3.0737,714.3879],[28.01,3.0723,680.3856],[28.0278,3.0627,698.81],[28.0377,3.0524,693.897],[28.0496,3.0484,684.1365],[28.0541,3.0518,713.421],[28.064,3.0493,687.322],[28.0674,3.0408,688.4485],[28.0773,3.0268,699.1049],[28.0816,3.0231,697.8228],[28.088,3.0219,707.2085],[28.0917,3.0157,708.6837],[28.0942,3.0143,704.4332],[28.1006,3.015,710.0316],[28.1086,3.0093,721.7382],[28.1162,3.0074,731.3702],[28.1297,2.9883,724.5605],[28.1375,2.9874,731.6644],[28.1418,2.9938,734.0496],[28.1453,2.9948,756.9764],[28.1505,2.9934,771.1953],[28.1622,2.9948,752.0668],[28.1668,2.989,732.9164],[28.1711,2.9867,754.6857],[28.1771,2.9867,728.5797],[28.1839,2.9817,740.2493],[28.1981,2.9833,742.0676],[28.2013,2.9872,727.625],[28.2039,2.9975,737.4689],[28.2208,3.0139,754.7604],[28.227,3.0146,754.8359],[28.2286,3.0106,736.9354],[28.2265,3.0012,749.1367],[28.2318,2.9936,738.1101],[28.2281,2.9872,740.4031],[28.2286,2.9853,746.2154],[28.2348,2.9842,744.7169],[28.2409,2.9757,741.8271],[28.2586,2.96,772.257],[28.259,2.9579,775.6268],[28.254,2.9526,766.0338],[28.2554,2.9503,755.9479],[28.2748,2.946,757.7745],[28.2794,2.9388,791.0823],[28.2828,2.9368,750.9127],[28.2963,2.9363,753.6802],[28.3002,2.9388,749.1848],[28.3014,2.9526,756.8945],[28.303,2.9549,754.1307],[28.3064,2.9547,755.0499],[28.3085,2.9483,756.5027],[28.3137,2.948,768.6455],[28.3178,2.9453,760.681],[28.3309,2.9457,767.0942],[28.3264,2.9596,785.8662],[28.3315,2.9698,792.4774],[28.3332,2.9897,789.8754],[28.3319,3.0192,798.8152],[28.3264,3.04,792.7101],[28.3205,3.0423,783.1597],[28.3029,3.0393,781.0303],[28.2888,3.0506,775.9596],[28.29,3.0678,775.0009],[28.2952,3.0887,768.5295],[28.3018,3.0993,761.3444],[28.3076,3.1179,751.6381],[28.3131,3.1294,751.4256],[28.3183,3.1335,744.5348],[28.3236,3.1478,748.8628],[28.3206,3.1667,728.0623],[28.3218,3.1747,734.6752],[28.3318,3.1909,727.8153],[28.3376,3.1938,732.8472],[28.3447,3.201,718.5098],[28.3515,3.2031,739.3613],[28.3623,3.2134,719.1816],[28.3678,3.2334,721.6418],[28.3724,3.2419,720.0145],[28.3735,3.2495,715.0358],[28.3714,3.2597,721.616],[28.3753,3.2721,712.8388],[28.3742,3.2811,710.0651],[28.3802,3.2997,707.1552],[28.3699,3.3089,702.8263],[28.3673,3.3195,710.1178],[28.368,3.323,707.4716],[28.371,3.3225,709.0093],[28.3756,3.3246,718.4341],[28.3928,3.322,702.7028],[28.4065,3.3119,710.2308],[28.4143,3.3112,715.9239],[28.4234,3.3045,712.9804],[28.4328,3.3043,713.8448],[28.445,3.2953,714.6541],[28.4502,3.3008,719.8276],[28.4566,3.2979,730.7457],[28.4624,3.2979,732.3721],[28.4795,3.3089,733.3365],[28.4924,3.3105,732.6353],[28.5187,3.3098,739.601],[28.521,3.3121,740.5087],[28.5228,3.3204,754.3744],[28.5283,3.3231,758.4912],[28.5154,3.3332,761.4557],[28.5082,3.341,751.9556],[28.4938,3.3626,763.7642],[28.5057,3.3759,769.9799],[28.4967,3.3843,765.3799],[28.4723,3.3854,753.4137],[28.474,3.3909,753.1935],[28.4829,3.4029,736.8357],[28.4918,3.4336,737.0905],[28.5089,3.474,751.6425],[28.5207,3.5099,725.1486],[28.5288,3.5508,721.812],[28.5252,3.5677,721.8484],[28.5311,3.5881,718.9515],[28.5419,3.6128999999999998,686.3083],[28.5374,3.6143,683.6071],[28.5211,3.627,689.3242],[28.5057,3.6302,682.0],[28.4998,3.6339,698.5609],[28.4883,3.6334,686.1095],[28.4572,3.6397,687.1748],[28.4466,3.6404,686.4221],[28.437,3.6438,690.0088],[28.4192,3.6625,691.0137],[28.4114,3.6583,678.0],[28.4056,3.6581,679.6195],[28.3974,3.6613,680.3746],[28.3672,3.6662,684.8103],[28.3637,3.6652,676.0],[28.3621,3.6567,679.9495],[28.3536,3.6542,684.3302],[28.3507,3.6507,677.4327],[28.3433,3.6312,681.6268],[28.341,3.6206,675.9413],[28.3298,3.6047,683.1189],[28.3005,3.6066,673.7457],[28.289,3.5985,675.7313],[28.2842,3.5914,678.0862],[28.2792,3.5911,680.6748],[28.2689,3.5957,675.6838],[28.2629,3.6017,676.541],[28.2554,3.6063,676.0999],[28.2538,3.6119,682.2197],[28.2558,3.6238,677.9613],[28.2547,3.6268,680.9595],[28.2437,3.6383,681.2262],[28.2274,3.6696,676.719],[28.2244,3.6887,667.0],[28.1958,3.7014,666.5787],[28.1933,3.7042,669.1838],[28.1898,3.7134,666.4104],[28.1853,3.7189,682.1617],[28.1775,3.723,668.9414],[28.1468,3.7276,671.3298],[28.133,3.7244,680.4301],[28.1266,3.7249,663.9532],[28.1191,3.7281,662.5],[28.111,3.7256,667.9421],[28.1028,3.7253,661.5],[28.0842,3.732,661.0],[28.0803,3.7359,660.875],[28.0698,3.7359,665.0129],[28.0615,3.744,677.4491],[28.0457,3.7467,661.9904],[28.0505,3.7518,673.3169],[28.0565,3.7511,680.6902],[28.0611,3.7546,675.4371],[28.0732,3.7461,673.7844],[28.0856,3.747,679.6049],[28.0922,3.7449,677.1484],[28.0982,3.7456,677.106],[28.1014,3.75,682.6871],[28.1113,3.7546,682.8588],[28.1172,3.7539,676.731],[28.1195,3.7569,681.1818],[28.1188,3.7613,677.4189],[28.1207,3.7631,677.141],[28.1266,3.7626,682.5785],[28.1305,3.7645,680.489],[28.1376,3.7629,675.9746],[28.1383,3.7654,677.2396],[28.1351,3.7711,682.4896],[28.1362,3.7728,687.0304],[28.1429,3.7686,673.3569],[28.1475,3.7695,674.2011],[28.1449,3.7725,671.3319],[28.1475,3.7799,672.7781],[28.1523,3.7827,678.9733],[28.1515,3.7918,678.2958],[28.1461,3.8026,679.915],[28.1395,3.808,681.8369],[28.1032,3.8066,701.3896],[28.0865,3.8114,712.5996],[28.0692,3.824,699.4269],[28.0508,3.8439,691.343],[28.0503,3.8522,692.7015],[28.0528,3.8618,686.1324],[28.051,3.8671,691.3096],[28.0413,3.8782,694.269],[28.0425,3.8853,701.0345],[28.0374,3.8977,699.7037],[28.0407,3.9046,706.1079],[28.039,3.9162,701.1495],[28.0365,3.9221,693.9105],[28.029,3.9277,691.8473],[28.0205,3.9417,688.5457],[28.0079,3.9564,694.519],[27.9982,3.9613,697.2355],[27.9783,3.9762,711.9453],[27.9672,3.9868,704.2172],[27.9612,3.9988,697.6452],[27.9588,4.0181,694.0029],[27.9586,4.0549,681.3807],[27.9063,4.0453,679.4253],[27.9006,4.0404,677.4779],[27.8951,4.0397,672.1039],[27.8923,4.0377,683.772],[27.8832,4.0432,682.6877],[27.8527,4.0487,670.6378],[27.8433,4.0485,682.0549],[27.8362,4.057,665.1795],[27.8309,4.0556,665.3276],[27.8284,4.0611,663.9351],[27.8158,4.0671,684.5923],[27.8064,4.0616,669.4832],[27.8045,4.057,662.7391],[27.7979,4.0579,662.3961],[27.7958,4.0542,686.4373],[27.7984,4.0503,668.5914],[27.8027,4.0489,669.217],[27.8046,4.0448,666.1057],[27.803,4.0404,669.1887],[27.7981,4.0381,673.6953],[27.797,4.033,672.5476],[27.7933,4.0321,676.9802],[27.7888,4.0243,670.2881],[27.7904,4.0178,673.6605],[27.7876,4.0121,676.4652],[27.7869,4.0019,665.8732],[27.7773,3.9929,669.4151],[27.7769,3.9883,672.8828],[27.7791,3.9844,661.9423],[27.7856,3.9842,675.5204],[27.7881,3.981,662.5321],[27.7863,3.9766,661.7419],[27.7787,3.9794,665.0026],[27.775,3.9789,673.5918],[27.7727,3.9738,661.9468],[27.7686,3.9722,665.5219],[27.7659,3.969,660.9468],[27.7565,3.9725,661.771],[27.7496,3.9697,660.7388],[27.7455,3.9738,662.8044],[27.742,3.9653,671.7338],[27.7494,3.9619,661.1889],[27.7528,3.9575,663.6193],[27.7491,3.9536,661.7358],[27.7425,3.9568,660.418],[27.7407,3.952,660.1898],[27.7331,3.9586,659.9644],[27.7221,3.9563,665.4483],[27.7184,3.9577,665.29],[27.7161,3.9559,665.0759],[27.7152,3.9496,666.779],[27.7164,3.9448,668.3798],[27.712,3.9377,670.2396],[27.7045,3.9344,664.9631],[27.7033,3.9384,663.0562],[27.701,3.9397,659.1132],[27.6976,3.9381,671.6769],[27.69,3.9379,666.7394],[27.6873,3.9358,665.3391],[27.6859,3.9301,665.5934],[27.6827,3.9296,664.4733],[27.6795,3.9321,665.441],[27.674,3.931,670.0916],[27.6712,3.9351,666.7518],[27.6673,3.9365,664.2134],[27.6559,3.9264,683.6959],[27.6513,3.9307,678.1851],[27.6492,3.93,682.5747],[27.647,3.9254,676.975],[27.6403,3.9273,671.9724],[27.6273,3.9236,669.6107],[27.6211,3.925,675.1561],[27.6185,3.9226,677.9794],[27.6135,3.9295,669.6028],[27.6107,3.9302,669.1901],[27.6078,3.9261,671.9413],[27.6098,3.9203,672.4078],[27.6087,3.9178,674.9396],[27.6025,3.9146,678.4665],[27.6002,3.9063,667.2528],[27.6034,3.8985,678.065],[27.6028,3.8957,677.74],[27.5986,3.8948,672.7841],[27.5991,3.8863,671.7144],[27.5858,3.8805,677.5618],[27.5821,3.8821,678.8416],[27.5785,3.8929,678.1615],[27.5714,3.8851,675.9866],[27.5592,3.8869,676.0318],[27.5604,3.88,678.0699],[27.5535,3.869,669.3168],[27.5496,3.868,669.5767],[27.5471,3.8634,672.1372],[27.5407,3.8632,675.3553],[27.5345,3.857,677.0612],[27.5393,3.8466,677.3629],[27.5379,3.8409,677.1808],[27.5322,3.8383,677.231],[27.5292,3.8344,673.9336],[27.5272,3.8351,672.9296],[27.5263,3.8411,668.9689],[27.5237,3.8418,674.0487],[27.521,3.8367,673.6384],[27.513,3.8404,675.4669],[27.5107,3.8381,668.7626],[27.5034,3.8358,665.7139],[27.4956,3.8401,670.4386],[27.4912,3.8369,665.662],[27.4857,3.8229,670.2242],[27.4821,3.8219,670.9122],[27.4786,3.824,667.0403],[27.469,3.818,662.9337],[27.4594,3.8176,669.9573],[27.4587,3.8111,658.2314],[27.4516,3.807,667.5396],[27.4511,3.8053,669.2985],[27.4587,3.7991,665.7469],[27.461,3.7839,661.3701],[27.4661,3.7814,661.6653],[27.4677,3.7777,667.5461],[27.4658,3.7745,671.2568],[27.4587,3.774,663.327],[27.4525,3.78,669.3638],[27.4427,3.7954,666.3406],[27.4367,3.7975,664.324],[27.4362,3.8046,664.8218],[27.431,3.8118,663.877],[27.4243,3.8122,659.0347],[27.4152,3.8097,659.4746],[27.4122,3.8028,662.9225],[27.4085,3.8019,668.6815],[27.4053,3.8048,667.977],[27.3978,3.8037,660.0986],[27.3927,3.8011,672.195],[27.384,3.8007,664.2026],[27.3797,3.7961,662.0884],[27.3762,3.7864,668.0985],[27.3735,3.7843,653.8002],[27.3703,3.7843,652.7396],[27.3684,3.7945,666.229],[27.3659,3.7965,664.5984],[27.3622,3.7967,666.6907],[27.3474,3.7898,660.7077],[27.3442,3.7903,655.1429],[27.3393,3.7953,650.9842],[27.3318,3.7946,651.9611],[27.3274,3.7967,651.188],[27.3226,3.7946,650.6943],[27.329,3.7813,652.0496],[27.3343,3.7553,663.6622],[27.3366,3.7551,666.9677],[27.3385,3.7399,678.5539],[27.3424,3.7316,681.764],[27.3329,3.7129,699.299],[27.3339,3.6966,695.6313],[27.3216,3.6547,699.1133],[27.3274,3.646,719.0635],[27.3312,3.643,712.8311],[27.3463,3.6409,719.136],[27.3625,3.6301,704.8619],[27.3673,3.6233,705.9719],[27.3692,3.5763,716.9327],[27.374,3.5485,743.9618],[27.3674,3.539,735.6237],[27.3371,3.505,734.225],[27.3191,3.4785,724.2674],[27.3135,3.4575,730.6266],[27.2983,3.451,725.6465],[27.2945,3.4271,705.4795],[27.2803,3.413,699.8715],[27.2851,3.4005,703.2363],[27.2861,3.3727,696.6547],[27.2729,3.3317,697.9899],[27.2539,3.3205,664.747],[27.2435,3.2967,678.1691],[27.2464,3.2775,680.3515],[27.2587,3.2773,679.5181],[27.2739,3.2828,678.6586],[27.2834,3.2788,682.2661],[27.2882,3.2711,668.1231],[27.3003,3.2272,676.0834],[27.3093,3.2256,680.7655],[27.3134,3.2341,696.1537],[27.318,3.2387,693.9744],[27.3269,3.2401,707.3312],[27.3294,3.2369,692.1219],[27.3287,3.2312,697.2974],[27.3303,3.2243,707.0537],[27.3329,3.2217,704.4138],[27.3409,3.2293,707.0419],[27.3525,3.2298,706.7191],[27.3583,3.2349,689.3221],[27.361,3.2459,726.9587],[27.3647,3.2494,718.5887],[27.3727,3.2519,690.8014],[27.3773,3.2471,699.2623],[27.3816,3.2489,694.558],[27.3915,3.2459,679.7893],[27.3935,3.2494,692.0002],[27.3921,3.2538,681.5973],[27.3846,3.2584,678.0311],[27.383,3.2618,677.7817],[27.3839,3.2644,680.3102],[27.3953,3.2713,694.0612],[27.4038,3.274,701.7682],[27.4054,3.2701,709.8163],[27.4033,3.2623,701.0149],[27.404,3.2575,710.6127],[27.4114,3.2513,710.5325],[27.421,3.2529,726.1381],[27.4249,3.2575,704.8486],[27.4253,3.2642,711.0089],[27.4212,3.28,707.7968],[27.4219,3.2828,707.6616],[27.4255,3.2842,703.2784],[27.4372,3.2819,697.0112],[27.4436,3.2849,706.9498],[27.4571,3.2865,692.1284],[27.4601,3.2886,694.701],[27.4622,3.295,683.5768],[27.4612,3.2994,683.3519],[27.456,3.3033,680.5266],[27.4624,3.3066,672.0993],[27.467,3.3059,675.3909],[27.4709,3.3015,688.7639],[27.4732,3.2967,689.1216],[27.4716,3.2849,687.9001],[27.4732,3.2801,718.1617],[27.4764,3.278,697.8864],[27.48,3.2783,691.1132],[27.4832,3.2833,674.9152],[27.4871,3.2829,670.8554],[27.4899,3.2803,684.5034],[27.491,3.29,700.1935],[27.494,3.2928,695.7423],[27.4997,3.293,700.6967],[27.5059,3.299,688.7828],[27.5178,3.299,692.5868],[27.5235,3.296,678.5092],[27.5263,3.2891,699.8419],[27.5288,3.2873,700.7412],[27.5377,3.2894,709.8046],[27.5451,3.2965,694.3463],[27.5487,3.2958,713.4305],[27.551,3.2896,728.0367],[27.5531,3.2891,728.0181],[27.5586,3.2967,698.2222],[27.5643,3.2912,727.5812],[27.5808,3.2938,700.4565],[27.5881,3.303,703.9276],[27.5904,3.3159,681.3622],[27.5924,3.3177,661.4714],[27.5989,3.3099,681.546],[27.6089,3.3041,686.0331],[27.6119,3.3039,686.7103],[27.6163,3.312,661.0607],[27.6245,3.3127,660.0626],[27.627,3.3115,675.9385],[27.6295,3.3067,694.8048],[27.6362,3.3048,711.0355],[27.6453,3.2986,718.6151],[27.6577,3.3028,705.0115]]]]}
,"properties": {"GID_2": "COD.5.6_1","GID_0": "COD","country": "DemocraticRepublicoftheCongo","GID_1": "COD.5_1","province": "Haut-Uele","NL_NAME_1": "NA","county": "Niangara","VARNAME_2": "NA","NL_NAME_2": "NA","TYPE_2": "Territoire","ENGTYPE_2": "Territory","CC_2": "NA","HASC_2": "NA","name": "Niangara.county","area_km2": 9375.365,"hist_schema_id": "Elevation0-9000","hist_area_km2": {"650": 189.98,"675": 1863.399,"700": 2776.763,"725": 3104.916,"750": 1050.757,"775": 264.147,"800": 119.029,"825": 6.373}}}