{"type":"Feature","properties":{"featurecla":"Lake","scalerank":8,"name":"Lac Mai-Ndombe","name_abb":"L. Mai-Ndombe","name_alt":null,"note":null,"delta":null,"dam_name":null,"year":-99,"admin":null,"min_zoom":6.0,"min_label":7.0},
"geometry":{"type": "Polygon","coordinates": [[[18.581886719127,-2.0742702258248191,306.0732],[18.55686576832079,-2.087516611545738,291.0],[18.485335285427794,-2.159047094438733,291.0],[18.46826216605416,-2.1702329312697368,291.0],[18.444418671756495,-2.179063855083712,291.0],[18.421163905713087,-2.1820074963550269,291.0],[18.406151335229396,-2.1761202138123679,291.0],[18.40232460157668,-2.1599301868201342,322.7344],[18.406151335229396,-2.0904602528170528,302.6839],[18.40320769395808,-2.0704434921721031,291.0],[18.398203503796822,-2.0554309216883841,317.7896],[18.397026047288307,-2.0398296229504069,291.0],[18.406151335229396,-2.018635405796942,291.0],[18.414099166661941,-2.011865030872912,291.0],[18.431172286035576,-1.9927313626093619,291.0],[18.442063758739437,-1.972714601964384,291.0],[18.430583557781318,-1.9632949498961809,291.0],[18.410566797136369,-1.9691822324388111,308.8279],[18.394376770144106,-1.983900438795388,291.0],[18.36464599330381,-2.018635405796942,291.0],[18.351693971710034,-1.9971468245163351,291.0],[18.338447585989087,-1.99744118864345,291.0],[18.323140651378253,-2.0030341070589661,291.0],[18.303123890733303,-1.9980299168977349,291.0],[18.290760597393756,-1.9830173464140159,321.2541],[18.284873314851126,-1.9621174933876659,316.9128],[18.282224037706953,-1.8632111466714041,294.8002],[18.286345135486783,-1.854085858730343,311.6042],[18.29605915168213,-1.845843663170655,295.6562],[18.301357705970503,-1.8063988701350131,298.5278],[18.31695900470848,-1.792563756159808,307.6765],[18.303123890733303,-1.7857933812357769,305.7205],[18.303123890733303,-1.779023006311746,291.0],[18.378775471406129,-1.744876767564477,306.4931],[18.399969688559622,-1.738106392640447,311.7746],[18.409094976500711,-1.733690930733474,293.5383],[18.413216074280541,-1.7275092840637289,298.6616],[18.418808992696057,-1.72250509390247,309.9107],[18.445596128265038,-1.719561452631154,293.2741],[18.454721416206098,-1.717500903741239,293.2617],[18.465907253037102,-1.703077061511777,292.4096],[18.472971992088276,-1.6830603008668279,294.7766],[18.481802915902222,-1.641849323068413,291.0],[18.49004511146191,-1.622126926550578,291.0],[18.508590051471202,-1.5918074214560249,297.8906],[18.516243518776633,-1.5735568455738469,293.7473],[18.500642220038657,-1.5785610357351061,291.0],[18.478270546376649,-1.602110165905628,291.0],[18.464435432401444,-1.607703084321116,291.0],[18.454427052078984,-1.6024045300327709,291.0],[18.444713035883638,-1.592690513837425,291.0],[18.432938470798376,-1.5879806878033089,291.0],[18.409094976500711,-1.602110165905628,291.0],[18.392904949508448,-1.604465078922686,291.0],[18.385840210457303,-1.607703084321116,291.0],[18.382013476804588,-1.6127072744823749,291.0],[18.376126194261957,-1.6283085732203519,291.0],[18.3720050964821,-1.635078948144383,291.0],[18.329911026302284,-1.659511170696305,291.0],[18.324318107886768,-1.669813915145909,291.0],[18.31695900470848,-1.669813915145909,291.0],[18.313426635182907,-1.6609829913319629,291.0],[18.307539352640276,-1.656861893552104,291.0],[18.298119700572073,-1.655390072916447,291.0],[18.286345135486783,-1.655390072916447,291.0],[18.283401494215468,-1.6506802468823589,291.0],[18.2901718691395,-1.617711464643605,294.4354],[18.281635309452696,-1.5953397909815981,291.0],[18.262207277062004,-1.587391959549052,291.0],[18.239246875145739,-1.5882750519304241,291.0],[18.220407571009304,-1.5941623344730831,291.0],[18.198624625601553,-1.6068199919397439,291.0],[18.186850060516292,-1.620949470042063,301.9207],[18.181551506227919,-1.639494410051356,307.101],[18.180374049719404,-1.665987181493193,291.0],[18.189499337660465,-1.679527931341255,291.0],[18.206866821161242,-1.696012322460632,295.7231],[18.215697744975188,-1.715440354851324,291.0],[18.200979538618611,-1.738106392640447,291.0],[18.199507717982954,-1.733690930733474,291.0],[18.193914799567438,-1.72427127866527,291.0],[18.186850060516292,-1.710730528817209,291.0],[18.168893848761257,-1.7104361646900941,291.0],[18.152998185896138,-1.704254518020321,291.0],[18.146227810972107,-1.6727575564172239,291.0],[18.137396887158161,-1.6536238881536749,291.0],[18.117380126513211,-1.6509746110094741,291.0],[18.094714088724089,-1.6583337141877621,291.0],[18.077346605223312,-1.669813915145909,291.0],[18.069693137917881,-1.68158848023117,291.0],[18.053503110925647,-1.7236825504110129,291.0],[18.04791019251013,-1.7637160717009119,311.7693],[18.049382013145788,-1.769603354243543,313.634],[18.057329844578362,-1.779023006311746,307.8917],[18.15240945764188,-1.817290342838874,308.6574],[18.169482577015515,-1.8299480003055351,300.6011],[18.170071305269772,-1.8346578263396509,313.595],[18.185378239880635,-1.881461722553581,310.997],[18.18743878877055,-1.891175738748927,291.0],[18.186555696389149,-1.9017728473256741,291.0],[18.181551506227919,-1.9064826733597611,291.0],[18.172720582413973,-1.91148686352102,291.0],[18.166833299871342,-1.9176685101907649,299.2728],[18.169482577015515,-1.9256163416233389,291.0],[18.174486767176774,-1.932975444801627,291.0],[18.178019136702346,-1.94151200448843,291.0],[18.186850060516292,-2.0030341070589661,291.0],[18.185672604007749,-2.013925579762827,291.0],[18.186555696389149,-2.018635405796942,291.0],[18.19008806591475,-2.0227565035767729,291.0],[18.193620435440323,-2.0233452318310579,291.0],[18.197152804965896,-2.023050867703915,291.0],[18.200979538618611,-2.0254057807209729,291.0],[18.223351212280619,-2.051898552162811,321.2613],[18.239541239272853,-2.066616758519388,291.0],[18.2519045326124,-2.0730927693163039,291.0],[18.266034010714719,-2.0780969594775338,291.0],[18.283990222469754,-2.0904602528170528,291.0],[18.300180249461988,-2.106061551555058,306.3569],[18.310777358038735,-2.1216628502930348,291.0],[18.301063341843388,-2.1452119804635572,291.0],[18.296353515809272,-2.271788555130172,315.1331],[18.278397304054238,-2.3562710596169718,315.4962],[18.261324184680603,-2.393360939635556,291.0],[18.241601788162768,-2.395421488525471,294.3762],[18.230710315458907,-2.4080791459921329,294.8652],[18.223939940534876,-2.4310395479083979,325.5703],[18.220407571009304,-2.4566492269688638,296.9996],[18.220407571009304,-2.4772547158680709,301.3593],[18.251021440231,-2.5426035520913222,315.6432],[18.2519045326124,-2.5529062965409248,312.3802],[18.245722885942627,-2.5637977692447862,315.1345],[18.238363782764338,-2.614722763238575,293.0226],[18.231593407840307,-2.631795882612209,293.4638],[18.225117397043419,-2.642098627061813,295.7743],[18.220113206882161,-2.6659421213594778,291.8442],[18.214520288466673,-2.6765392299362252,291.0],[18.206278092906985,-2.68036596358894,291.0],[18.19833026147441,-2.679777235334655,309.4077],[18.186555696389149,-2.683309604860256,312.7155],[18.181845870355062,-2.696261626454032,308.5968],[18.180374049719404,-2.710685468683494,302.4877],[18.197152804965896,-2.7033263655052049,292.3336],[18.212165375449615,-2.70538691439512,293.4769],[18.226589217679077,-2.70450382201372,294.321],[18.241601788162768,-2.690079979784286,292.3065],[18.244251065306969,-2.683898333114513,291.0],[18.245722885942627,-2.6706519473935941,291.0],[18.248666527213942,-2.66270411596102,291.0],[18.252787624993772,-2.6579942899269331,291.0],[18.259852364044946,-2.652401371511417,291.6023],[18.266328374841834,-2.645925360714529,291.0],[18.268977651986035,-2.63856625753624,291.0],[18.27515929865578,-2.6123678502215171,291.0],[18.286345135486783,-2.5805765244913061,291.0],[18.292232418029414,-2.5514344759052681,291.0],[18.282812765961211,-2.5325951717688331,291.0],[18.289877505012385,-2.5137558676323981,291.0],[18.287816956122441,-2.4719561615796981,291.0],[18.296353515809272,-2.45046758029909,291.0],[18.306067532004619,-2.4401648358494872,291.0],[18.328439205666626,-2.4213255317130522,291.0],[18.33785885773483,-2.4089622383735332,291.0],[18.353754520599949,-2.374227271372007,291.0],[18.3737712812449,-2.3465570434216261,291.0],[18.394082406016992,-2.3035798808603829,291.0],[18.409683704754968,-2.2826800278340329,291.0],[18.417925900314657,-2.279736386562718,309.6591],[18.466495981291388,-2.2703167344945139,319.7731],[18.495638029877398,-2.258836533536368,307.2652],[18.447067948900695,-2.2455901478154492,304.4643],[18.434704655561148,-2.235876131620103,291.0],[18.454721416206098,-2.21733119161081,291.0],[18.465318524782845,-2.212915729703838,291.0],[18.490633839716168,-2.2079115395426072,291.0],[18.534788458785926,-2.1887778712790289,317.4162],[18.543913746727014,-2.1828905887363992,304.189],[18.591895099449459,-2.12460649156435,319.1751],[18.591895099449459,-2.0825124213845072,309.3176],[18.581886719127,-2.0742702258248191,306.0732]]]}}