{"type": "Feature","bbox": [17.6374,-2.7278,17.7134,-2.6662],"geometry": {"type": "MultiPolygon","coordinates": [[[[17.7052,-2.6662,306.8647],[17.6913,-2.6805,316.2492],[17.6751,-2.6893,305.9169],[17.6658,-2.6914,296.6295],[17.6374,-2.6911,294.7939],[17.6474,-2.7062,292.1852],[17.6617,-2.7211,293.8118],[17.6713,-2.7256,294.3117],[17.689,-2.7278,308.3911],[17.7038,-2.7206,289.4839],[17.7105,-2.7128,289.5347],[17.7134,-2.7054,290.9896],[17.7128,-2.6966,304.3169],[17.7052,-2.6662,306.8647]]]]}
,"properties": {"GID_2": "COD.16.9_1","GID_0": "COD","country": "DemocraticRepublicoftheCongo","GID_1": "COD.16_1","province": "Mai-Ndombe","NL_NAME_1": "NA","county": "Nioki","VARNAME_2": "NA","NL_NAME_2": "NA","TYPE_2": "Ville","ENGTYPE_2": "Town","CC_2": "NA","HASC_2": "NA","name": "Nioki.county","area_km2": 30.47605,"hist_schema_id": "Elevation0-9000","hist_area_km2": {"300": 21.32683,"325": 8.4715,"350": 0.67772}}}