{"type":"Feature","properties":{"GID_2":"COD.11.6_1","GID_0":"COD","country":"DemocraticRepublicoftheCongo","GID_1":"COD.11_1","province":"Kongo-Central","NL_NAME_1":"NA","county":"Kimvula","VARNAME_2":"NA","NL_NAME_2":"NA","TYPE_2":"Territoire","ENGTYPE_2":"Territory","CC_2":"NA","HASC_2":"NA","name":"Kimvula.county"},
"geometry":{"type": "MultiPolygon","coordinates": [[[[16.1394,-5.8586,540.4667],[16.1416,-5.8423,579.6718],[16.1504,-5.8188,516.9466],[16.1641,-5.8102,515.0803],[16.1935,-5.8098,551.4054],[16.1993,-5.8082,559.6445],[16.2062,-5.7948,521.7195],[16.2075,-5.7789,475.8383],[16.2109,-5.774,532.2522],[16.2109,-5.7699,558.2219],[16.2076,-5.7644,493.299],[16.2094,-5.7568,563.59],[16.2087,-5.7538,469.251],[16.2044,-5.7561,463.928],[16.2011,-5.752,474.4797],[16.2052,-5.7412,554.4453],[16.2054,-5.7329,544.1611],[16.2091,-5.7283,601.9584],[16.2051,-5.7142,529.0405],[16.2067,-5.7073,502.2581],[16.206,-5.6991,569.2026],[16.2071,-5.6949,598.2448],[16.2122,-5.6951,600.9059],[16.2135,-5.6885,563.7595],[16.2059,-5.677,489.5298],[16.2063,-5.6738,476.8989],[16.2107,-5.6737,517.0366],[16.2119,-5.6712,550.8989],[16.2102,-5.6611,512.7061],[16.2141,-5.6576,571.5065],[16.2113,-5.6523,490.0074],[16.2159,-5.6464,562.2444],[16.2154,-5.6406,537.6939],[16.2186,-5.6348,521.1044],[16.2179,-5.6325,538.7162],[16.2147,-5.6328,521.8833],[16.2131,-5.6282,509.0433],[16.2144,-5.6238,548.0262],[16.2103,-5.6183,547.6846],[16.2105,-5.6158,499.7955],[16.2162,-5.6164,521.6782],[16.2169,-5.6144,549.7049],[16.2146,-5.6112,587.6816],[16.2178,-5.6068,580.1194],[16.2125,-5.6007999999999996,509.3015],[16.2113,-5.5962,510.2943],[16.2117,-5.5836,516.7401],[16.2083,-5.5744,547.7115],[16.2121,-5.5675,582.1019],[16.2084,-5.5571,541.1062],[16.2056,-5.5394,623.3683],[16.2021,-5.5362,583.3441],[16.2014,-5.5321,573.3555],[16.2023,-5.5247,551.8578],[16.2062,-5.5187,571.7358],[16.2013,-5.4944,604.2722],[16.2016,-5.4716,602.9155],[16.2069,-5.4601,586.4999],[16.2029,-5.4412,586.8621],[16.2061,-5.4375,601.0867],[16.2093,-5.4262,603.7458],[16.2065,-5.418,618.0995],[16.2112,-5.3975,633.786],[16.2142,-5.3959,618.1625],[16.2155,-5.3839,606.2432],[16.2123,-5.3775,619.4113],[16.2143,-5.3586,613.936],[16.217,-5.3531,600.9824],[16.217,-5.3427,610.6118],[16.213,-5.3379,619.5057],[16.213,-5.3335,629.8716],[16.2171,-5.3197,619.5188],[16.218,-5.3082,611.8577],[16.2212,-5.3036,610.6094],[16.2247,-5.2769,648.9059],[16.2272,-5.272,648.7749],[16.2329,-5.244,635.7994],[16.237,-5.2375,656.2552],[16.2397,-5.2262,623.7524],[16.2458,-5.214,623.2325],[16.2487,-5.1832,629.1619],[16.2544,-5.1785,622.9861],[16.2565,-5.1746,617.2445],[16.2526,-5.173,620.0814],[16.2537,-5.1601,615.7599],[16.2518,-5.153,616.6351],[16.252,-5.1383,616.7864],[16.2457,-5.1273,626.2287],[16.2397,-5.1204,635.6172],[16.2317,-5.1165,619.9811],[16.2318,-5.1063,611.9235],[16.2355,-5.09,594.6562],[16.24,-5.0852,612.0079],[16.243,-5.0769,592.248],[16.2421,-5.0705,591.8257],[16.2457,-5.0555,620.359],[16.2502,-5.0513,626.0021],[16.2491,-5.0474,619.231],[16.2506,-5.0394,582.0099],[16.2463,-5.0336,612.9272],[16.2472,-5.0302,592.6808],[16.2577,-5.0212,583.0685],[16.2586,-5.0179,580.2986],[16.256,-5.0097,625.1147],[16.2578,-5.0032,623.7544],[16.2679,-4.9928,592.59],[16.2693,-4.9868,609.4214],[16.2681,-4.9806,621.1871],[16.2571,-4.97,586.0255],[16.1525,-4.9678,687.9568],[16.0838,-4.9634,740.4394],[16.0543,-4.9631,736.0829],[16.0389,-4.9585,635.6774],[16.0399,-4.9773,645.0982],[16.031,-4.9794,634.7512],[16.0207,-4.9765,654.9101],[16.003,-4.9896,647.0021],[15.9891,-5.0088,654.8265],[15.9797,-5.0141,655.43],[15.9788,-5.0203,662.3246],[15.974,-5.0261,661.168],[15.9707,-5.0482,682.2136],[15.9631,-5.0535,670.592],[15.9618,-5.0632,678.3954],[15.9565,-5.0701,678.5344],[15.9536,-5.0876,728.268],[15.9543,-5.1018,733.7572],[15.9521,-5.1094,742.4485],[15.9542,-5.1168,742.7338],[15.9537,-5.1207,760.5748],[15.9466,-5.1343,709.851],[15.9458,-5.1481,711.0245],[15.9493,-5.158,748.416],[15.949,-5.1624,752.0471],[15.9411,-5.1783,736.1241],[15.9326,-5.1859,713.8589],[15.9226,-5.208,760.9573],[15.9237,-5.2131,768.1976],[15.9222,-5.2209,779.8039],[15.9231,-5.2363,775.5165],[15.9257,-5.2466,800.4578],[15.9227,-5.2499,779.8987],[15.9078,-5.2538,781.4574],[15.8833,-5.253,794.2758],[15.8766,-5.2503,786.459],[15.8697,-5.2521,815.3164],[15.8601,-5.2522,788.1181],[15.8529,-5.2473,730.711],[15.853,-5.2552,741.0665],[15.8498,-5.2697,763.1505],[15.8496,-5.2779,808.9636],[15.8524,-5.2802,802.8826],[15.8519,-5.2851,760.584],[15.8471,-5.2954,827.9247],[15.8471,-5.2994,805.3749],[15.8527,-5.3069,835.2709],[15.852,-5.3115,829.454],[15.8548,-5.317,795.5532],[15.8569,-5.318,790.4957],[15.8596,-5.3269,831.6868],[15.8645,-5.3315,846.5554],[15.8661,-5.3396,800.4573],[15.8693,-5.3444,781.9799],[15.8694,-5.3536,779.5327],[15.8717,-5.357,822.6132],[15.8729,-5.3639,850.4506],[15.8749,-5.366,859.9275],[15.8731,-5.3809,835.0536],[15.8741,-5.3963,791.937],[15.873,-5.4078,829.7793],[15.8696,-5.4148,836.1819],[15.8733,-5.4288,872.6719],[15.869,-5.4467,827.7656],[15.8697,-5.4518,820.4694],[15.8755,-5.4564,866.0205],[15.8792,-5.4642,853.186],[15.8788,-5.4709,871.359],[15.8823,-5.4865,877.8159],[15.8788,-5.4941,839.1862],[15.876,-5.527,808.648],[15.8776,-5.536,871.2614],[15.8769,-5.5408,886.2979],[15.8744,-5.5433,875.179],[15.8719,-5.5519,858.748],[15.8731,-5.5562,878.8944],[15.8704,-5.5737,831.0206],[15.8703,-5.6018,849.321],[15.866,-5.6287,792.6364],[15.8621,-5.6338,819.2336],[15.858,-5.6492,828.4528],[15.8457,-5.6561,774.9464],[15.8417,-5.6557,785.8693],[15.8355,-5.6504,814.0154],[15.8208,-5.6566,834.3878],[15.8168,-5.6633,916.848],[15.8146,-5.697,900.3474],[15.8052,-5.7018,927.2917],[15.7722,-5.7025,756.0781],[15.7668,-5.7008,851.694],[15.764,-5.7019,762.2904],[15.764099999999999,-5.7093,756.8542],[15.7604,-5.7238,755.3231],[15.7579,-5.7268,754.52],[15.7582,-5.7351,726.8224],[15.7557,-5.7374,712.4569],[15.76,-5.7427,820.0776],[15.7509,-5.7583,736.4857],[15.7523,-5.7643,749.1229],[15.7496,-5.7675,750.1426],[15.7491,-5.7719,733.6887],[15.7533,-5.7806,693.8457],[15.7583,-5.7841,710.7078],[15.7616,-5.7976,720.6104],[15.7609,-5.8043,683.7272],[15.7639,-5.8089,690.66],[15.763,-5.8123,707.9658],[15.7665,-5.8149,686.7432],[15.7659,-5.8321,697.1483],[15.7627,-5.8372,686.9869],[15.7618,-5.8464,711.7846],[15.7556,-5.8632,668.323],[15.7563,-5.8676,668.3233],[15.7614,-5.874,703.6443],[15.7674,-5.876,688.1586],[15.7768,-5.8765,724.665],[15.7807,-5.8784,709.3317],[15.8561,-5.8776,726.2863],[16.1413,-5.8697,547.5468],[16.1394,-5.8586,540.4667]]]]}}