{"type":"Feature","properties":{"GID_2":"COD.4.6_1","GID_0":"COD","country":"DemocraticRepublicoftheCongo","GID_1":"COD.4_1","province":"Haut-Lomami","NL_NAME_1":"NA","county":"Malemba-Nkulu","VARNAME_2":"NA","NL_NAME_2":"NA","TYPE_2":"Territoire","ENGTYPE_2":"Territory","CC_2":"NA","HASC_2":"NA","name":"Malemba-Nkulu.county"},
"geometry":{"type": "MultiPolygon","coordinates": [[[[27.8375,-8.1445,1156.9597],[27.8534,-8.1227,916.9126],[27.8473,-8.1203,1009.5591],[27.8007,-8.1337,1226.7211],[27.7719,-8.1359,1157.3969],[27.7683,-8.1392,1166.1158],[27.762,-8.1388,1189.2222],[27.7497,-8.131,1260.5479],[27.7453,-8.1304,1401.9015],[27.7407,-8.1316,1398.0215],[27.7259,-8.1436,1484.2633],[27.716,-8.1562,1504.7024],[27.7087,-8.1471,1530.5696],[27.7088,-8.135,1489.184],[27.7253,-8.1191,1461.4418],[27.7305,-8.1174,1438.1799],[27.7375,-8.1071,1414.9607],[27.7396,-8.0954,1359.0143],[27.7449,-8.0859,1349.5021],[27.7666,-8.0707,1340.004],[27.7751,-8.0622,1341.6223],[27.7817,-8.0603,1358.9177],[27.7882,-8.0467,1319.1521],[27.7969,-8.0353,1270.0701],[27.8076,-8.0154,1198.2942],[27.8144,-8.0074,1155.1162],[27.828,-7.9856,1087.808],[27.833,-7.9682,1018.4022],[27.8367,-7.9661,1015.405],[27.8415,-7.956,985.834],[27.8412,-7.9431,965.6356],[27.8453,-7.9392,956.5573],[27.8542,-7.9203,923.4584],[27.8514,-7.9093,910.0969],[27.8528,-7.9045,898.8062],[27.8481,-7.8882,884.0191],[27.808,-7.8813,872.6403],[27.8068,-7.8767,856.4059],[27.8093,-7.8668,848.5865],[27.8061,-7.8643,842.862],[27.806,-7.8567,837.4586],[27.809,-7.8537,836.0359],[27.8078,-7.8489,830.1989],[27.7895,-7.8432,877.2353],[27.7743,-7.8633,886.3871],[27.7343,-7.8779,918.0509],[27.724,-7.8785,933.675],[27.7041,-7.8749,982.117],[27.692,-7.8658,966.0914],[27.6397,-7.8064,884.255],[27.6301,-7.7858,815.7263],[27.6303,-7.7615,846.8529],[27.6268,-7.7348,775.5822],[27.6318,-7.7033,734.3641],[27.6415,-7.6911,765.3533],[27.6736,-7.6728,694.0344],[27.6667,-7.6678,690.0899],[27.6613,-7.6515,683.6173],[27.6504,-7.6406,687.3417],[27.6324,-7.6179,675.9209],[27.6278,-7.6159,676.7459],[27.624,-7.5952,669.8665],[27.6182,-7.5908,670.0345],[27.615,-7.5837,666.3942],[27.5949,-7.5771,656.3302],[27.5922,-7.5746,655.7175],[27.5861,-7.5606,655.7888],[27.5975,-7.5346,670.194],[27.5976,-7.5267,686.3473],[27.594,-7.5206,706.6418],[27.5753,-7.5049,712.6754],[27.553,-7.4988,699.4148],[27.5289,-7.4849,649.9553],[27.5204,-7.4825,652.2886],[27.5107,-7.4819,630.4618],[27.4998,-7.4849,637.5868],[27.5033,-7.5135,658.8113],[27.4978,-7.5195,659.3775],[27.464,-7.5262,693.5977],[27.4428,-7.534,657.2097],[27.4437,-7.5191,648.2115],[27.4418,-7.5134,647.124],[27.4441,-7.5046,645.4398],[27.4434,-7.4987,639.7961],[27.4475,-7.489,637.4641],[27.4443,-7.4837,641.1726],[27.4452,-7.4787,635.1143],[27.4394,-7.4725,633.3906],[27.4332,-7.4737,637.8363],[27.4291,-7.4776,639.7819],[27.4199,-7.4788,648.9316],[27.4029,-7.4967,656.2007],[27.3971,-7.5006,660.2242],[27.3889,-7.5018,666.0767],[27.3811,-7.5087,668.91],[27.3684,-7.5127,679.1887],[27.3627,-7.5187,684.6687],[27.3563,-7.529,694.1559],[27.354,-7.5389,698.1027],[27.3194,-7.5386,705.3599],[27.3042,-7.5422,670.8179],[27.2854,-7.5414,649.4833],[27.2799,-7.5357,650.2035],[27.2805,-7.532,649.384],[27.2787,-7.5272,647.6965],[27.2685,-7.521,643.9854],[27.266,-7.5121,642.283],[27.2602,-7.5064,639.249],[27.2556,-7.4981,636.1802],[27.2374,-7.491,630.2274],[27.2339,-7.486,633.2476],[27.2277,-7.4956,640.9363],[27.2252,-7.512,639.4288],[27.219,-7.532,645.8544],[27.2202,-7.546,668.9709],[27.2255,-7.5593,676.4685],[27.2193,-7.5915,714.3699],[27.2223,-7.6067,736.6169],[27.2253,-7.6109,746.3962],[27.215,-7.6146,700.2573],[27.1908,-7.6152,679.0648],[27.14,-7.6219,633.126],[27.0879,-7.6347,653.4115],[27.0541,-7.6293,650.6915],[26.9972,-7.6367,686.2341],[26.9694,-7.6324,689.1901],[26.9556,-7.6257,647.8626],[26.9547,-7.6367,653.3273],[26.9496,-7.6349,647.4365],[26.9411,-7.6359,629.6273],[26.9248,-7.6414,617.3903],[26.9061,-7.6376,587.171],[26.8868,-7.6371,579.2665],[26.8656,-7.6312,569.3981],[26.8483,-7.6285,562.335],[26.8372,-7.629,559.4542],[26.808,-7.626,571.364],[26.8145,-7.5968,579.3522],[26.823,-7.5883,571.7343],[26.8266,-7.5807,567.0113],[26.8261,-7.5762,562.6927],[26.8111,-7.5757,581.2134],[26.809,-7.5684,573.5282],[26.8083,-7.5512,575.229],[26.803,-7.545,576.6882],[26.7943,-7.5397,583.6116],[26.7754,-7.5335,603.2563],[26.7637,-7.5353,626.8788],[26.7528,-7.5466,643.0485],[26.7449,-7.5504,656.1687],[26.7362,-7.5504,719.0881],[26.6988,-7.5228,614.0967],[26.6967,-7.5271,614.8777],[26.7011,-7.5331,625.8475],[26.6991,-7.5375,638.922],[26.6915,-7.5458,636.4702],[26.6855,-7.5463,630.5563],[26.6823,-7.549,626.266],[26.6713,-7.5472,628.1547],[26.6611,-7.553,642.6953],[26.6536,-7.5446,636.8398],[26.6511,-7.5394,655.2549],[26.6497,-7.5191,670.0309],[26.6511,-7.511,635.5345],[26.6477,-7.5089,641.5934],[26.6304,-7.5083,646.0824],[26.6214,-7.5007,651.3497],[26.6124,-7.5,658.45],[26.5873,-7.4808,656.3917],[26.5864,-7.4771,666.0923],[26.5771,-7.4689,674.9801],[26.5493,-7.4662,688.5966],[26.5398,-7.463,691.9694],[26.5345,-7.4582,684.6318],[26.5306,-7.4504,689.6816],[26.5285,-7.4437,695.0015],[26.5273,-7.4226,722.8983],[26.525,-7.4178,733.8868],[26.5211,-7.4148,736.3817],[26.5158,-7.4132,734.7383],[26.5105,-7.4084,736.9109],[26.498,-7.4087,755.7393],[26.4957,-7.4073,745.9598],[26.4909,-7.4094,753.0757],[26.484,-7.4163,771.4016],[26.4833,-7.4225,787.7354],[26.4822,-7.4255,797.37],[26.4792,-7.4259,819.764],[26.4792,-7.4298,838.7089],[26.4755,-7.4335,927.5515],[26.4714,-7.4328,907.7351],[26.4608,-7.3842,851.5263],[26.4545,-7.3724,780.7893],[26.4497,-7.3669,761.1674],[26.444,-7.3621,753.9911],[26.4346,-7.3578,739.3109],[26.4277,-7.3587,746.8912],[26.4219,-7.363,731.827],[26.4219,-7.3739,758.4645],[26.4284,-7.3882,777.5064],[26.4362,-7.3988,790.9788],[26.4383,-7.4076,797.803],[26.4337,-7.4161,827.4563],[26.424,-7.4189,816.2195],[26.4177,-7.418,796.569],[26.3962,-7.37,739.9667],[26.3877,-7.37,728.986],[26.3729,-7.3743,708.9982],[26.3582,-7.3391,682.2832],[26.3442,-7.3672,686.4459],[26.3182,-7.3865,701.5062],[26.3037,-7.3792,700.837],[26.2701,-7.3765,699.0522],[26.2655,-7.3781,699.6014],[26.257,-7.3761,701.2568],[26.2388,-7.3754,705.8237],[26.2303,-7.3796,719.6882],[26.2149,-7.3835,710.1226],[26.2061,-7.384,714.1479],[26.1939,-7.3886,718.7942],[26.1797,-7.3985,733.6801],[26.173,-7.4012,718.7584],[26.1657,-7.4017,719.6592],[26.1434,-7.4132,727.5315],[26.1351,-7.4151,727.1816],[26.1097,-7.4353,752.5709],[26.1037,-7.4419,773.3038],[26.0979,-7.482,816.9066],[26.0876,-7.507,828.6726],[26.0772,-7.548,833.1193],[26.0775,-7.5613,817.5759],[26.0707,-7.5766,794.0089],[26.0682,-7.5934,786.3572],[26.0646,-7.6005,774.1141],[26.0494,-7.6127,754.5135],[26.0462,-7.6265,749.702],[26.0248,-7.6297,735.4965],[26.0278,-7.6401,745.1334],[26.031,-7.6417,748.2119],[26.0359,-7.6412,741.165],[26.0368,-7.6451,734.1434],[26.0331,-7.6495,744.4985],[26.0306,-7.6589,748.0245],[26.0345,-7.6789,736.1566],[26.038,-7.6837,725.5912],[26.038,-7.6867,728.7206],[26.0336,-7.6929,727.0843],[26.0275,-7.7216,717.1601],[26.0275,-7.7276,712.5659],[26.0319,-7.7416,709.0985],[26.0278,-7.7744,703.4967],[26.0345,-7.7973,699.5468],[26.035,-7.8061,695.8156],[26.0318,-7.8113,696.6014],[26.0249,-7.8178,702.4517],[25.9962,-7.8325,689.0123],[25.9959,-7.8357,690.2351],[25.9999,-7.841,689.7554],[26.0077,-7.8474,688.7427],[26.0121,-7.86,680.7628],[26.0096,-7.8646,684.1691],[26.0117,-7.8697,679.3663],[26.0101,-7.8775,685.9522],[26.0161,-7.8851,683.3373],[26.0142,-7.9018,676.7185],[26.0189,-7.9119,673.7568],[26.0184,-7.9183,671.4827],[26.0203,-7.9241,666.252],[26.0134,-7.9349,667.1359],[26.0079,-7.9558,656.8157],[26.0042,-7.962,652.593],[26.0054,-7.9741,649.6316],[26.0102,-7.9769,646.2958],[26.0123,-7.9803,656.2601],[26.0188,-7.981,637.7832],[26.0239,-7.9874,637.0817],[26.0296,-7.9897,631.7806],[26.0312,-7.9931,633.1283],[26.0298,-8.0165,631.0985],[26.0248,-8.0246,626.3528],[26.0252,-8.0342,626.0603],[26.045,-8.0554,623.6295],[26.0561,-8.0573,620.8839],[26.0747,-8.072,628.0591],[26.0796,-8.0735,624.1049],[26.0829,-8.0785,620.3438],[26.0841,-8.0859,619.5408],[26.0865,-8.0895,619.3054],[26.0945,-8.0894,623.6741],[26.1002,-8.0854,624.5403],[26.112,-8.0864,624.2233],[26.1155,-8.0912,616.9691],[26.1119,-8.1172,615.28],[26.1168,-8.1192,628.4962],[26.1189,-8.118,625.7574],[26.1206,-8.1068,622.4381],[26.1252,-8.1065,615.3187],[26.128,-8.1097,613.6707],[26.1269,-8.1133,615.7476],[26.1278,-8.117,616.4017],[26.1256,-8.1232,613.8455],[26.1275,-8.1255,614.4837],[26.1337,-8.1231,617.3217],[26.1381,-8.1272,613.2682],[26.151,-8.1273,626.1642],[26.1493,-8.1197,615.5492],[26.1506,-8.1151,615.5644],[26.1464,-8.1071,612.8726],[26.147,-8.1023,614.5767],[26.1516,-8.1055,611.9041],[26.1547,-8.1107,622.9023],[26.1669,-8.1112,610.9597],[26.171,-8.1031,613.1371],[26.1753,-8.1008,611.252],[26.177,-8.1104,609.1566],[26.1801,-8.1145,610.4863],[26.1793,-8.1214,609.5235],[26.1779,-8.1233,608.0716],[26.1731,-8.1242,607.5798],[26.1722,-8.1277,607.33],[26.1764,-8.1306,612.381],[26.193,-8.1302,614.7482],[26.1978,-8.1329,630.2059],[26.2036,-8.1321,607.8621],[26.2091,-8.1343,605.7548],[26.2303,-8.1334,603.6785],[26.2425,-8.1447,617.0667],[26.248,-8.1439,602.307],[26.2485,-8.1515,603.6566],[26.2499,-8.1529,602.6232],[26.2539,-8.1537,636.0498],[26.2617,-8.152,603.2629],[26.2685,-8.148,602.6199],[26.2813,-8.1545,601.3163],[26.2903,-8.1556,599.1505],[26.2942,-8.1539,603.9626],[26.2923,-8.1498,601.3979],[26.2851,-8.1423,597.686],[26.2869,-8.1393,607.0188],[26.2905,-8.1376,602.914],[26.3037,-8.1428,602.3452],[26.276,-8.092,697.0363],[26.2772,-8.0796,694.5305],[26.2884,-8.0551,711.6613],[26.2857,-8.0344,717.9781],[26.2777,-8.0256,710.3835],[26.2779,-8.0168,714.5536],[26.2993,-8.0038,665.9787],[26.3127,-7.9923,641.1095],[26.3194,-7.9887,627.0266],[26.3233,-7.9897,643.1157],[26.3286,-7.9942,650.6029],[26.3323,-8.0092,619.8208],[26.3374,-8.0,625.8562],[26.3417,-7.9839,638.1449],[26.3454,-7.9788,645.7602],[26.358,-7.9687,663.2985],[26.3665,-7.9588,672.6796],[26.3769,-7.9549,696.6554],[26.3907,-7.9436,719.0175],[26.4006,-7.9454,742.3893],[26.4059,-7.9438,736.7564],[26.413,-7.9471,772.3485],[26.4152,-7.9533,777.157],[26.4162,-7.964,745.1905],[26.4042,-7.9809,698.4872],[26.3968,-7.9862,696.5687],[26.3925,-7.9931,706.3444],[26.3932,-8.0105,671.8795],[26.4101,-8.0045,690.2154],[26.4143,-8.0049,700.7825],[26.4377,-7.9984,727.2755],[26.4518,-7.9997,775.1992],[26.4689,-8.0068,792.8177],[26.4836,-8.0174,743.4517],[26.4983,-8.0333,696.1016],[26.5097,-8.0823,598.7367],[26.5145,-8.0917,572.8579],[26.5189,-8.0946,577.8574],[26.5314,-8.0951,572.5925],[26.5379,-8.0987,570.6653],[26.5527,-8.1006,582.1722],[26.5652,-8.0926,571.9418],[26.6064,-8.0992,571.2613],[26.6194,-8.1086,569.9326],[26.6326,-8.1221,567.3563],[26.6846,-8.1519,563.2471],[26.6976,-8.1494,563.2539],[26.7079,-8.1451,562.6339],[26.7331,-8.1312,562.8707],[26.7448,-8.1182,560.5],[26.7765,-8.0967,562.4192],[26.7974,-8.0985,562.0213],[26.8029,-8.1008,561.2286],[26.8044,-8.1082,560.7807],[26.8014,-8.1101,561.5814],[26.8004,-8.117,561.6032],[26.8023,-8.1238,561.5854],[26.8075,-8.1315,561.5599],[26.8128,-8.1473,561.4304],[26.8221,-8.1554,561.4553],[26.8232,-8.1628,561.719],[26.8269,-8.1636,561.9739],[26.8325,-8.1578,561.7936],[26.8288,-8.1716,561.8112],[26.8228,-8.1816,562.6689],[26.8131,-8.2052,562.6771],[26.7953,-8.2165,562.9437],[26.7573,-8.2067,564.3951],[26.7469,-8.208,563.9745],[26.7233,-8.2354,563.6763],[26.6979,-8.2473,563.8189],[26.6821,-8.2694,564.3303],[26.6672,-8.27,564.3328],[26.6609,-8.2752,563.0],[26.671,-8.2989,564.1656],[26.6649,-8.3049,564.6715],[26.6433,-8.3138,563.1793],[26.6222,-8.3472,564.4809],[26.6295,-8.38,564.9966],[26.5884,-8.4354,563.316],[26.5731,-8.4535,566.5711],[26.5623,-8.4866,567.4803],[26.5647,-8.4905,567.5674],[26.5698,-8.4941,567.791],[26.5883,-8.4964,567.6967],[26.5947,-8.4926,567.1323],[26.5991,-8.493,567.5811],[26.6089,-8.4853,568.35],[26.6181,-8.4847,567.6743],[26.6231,-8.4787,567.9998],[26.6393,-8.48,568.4694],[26.6502,-8.4838,569.389],[26.6543,-8.4835,570.1881],[26.6665,-8.4771,568.4486],[26.6842,-8.4764,570.0319],[26.6909,-8.4717,568.5809],[26.7017,-8.4709,568.8845],[26.7087,-8.4774,571.0763],[26.7136,-8.4783,571.8196],[26.7208,-8.4874,573.5432],[26.7404,-8.5011,570.0166],[26.759,-8.5254,574.7382],[26.7634,-8.5377,611.3447],[26.7621,-8.5439,616.3981],[26.7536,-8.562,575.138],[26.755,-8.5799,582.1667],[26.7618,-8.5867,576.1053],[26.7573,-8.5932,579.7745],[26.7594,-8.597,583.2013],[26.7664,-8.5999,585.6414],[26.7732,-8.606,576.9442],[26.7739,-8.6235,577.4161],[26.7773,-8.6319,590.4149],[26.7764,-8.6374,604.2861],[26.7734,-8.6395,608.7961],[26.7707,-8.6396,606.7939],[26.7662,-8.6341,582.2213],[26.7554,-8.6375,601.3687],[26.7541,-8.6398,595.6941],[26.756,-8.646,619.4911],[26.7481,-8.6578,607.5687],[26.7488,-8.662,591.9907],[26.7531,-8.6695,587.4772],[26.7604,-8.6655,620.3036],[26.7732,-8.654,620.8184],[26.7765,-8.6553,614.3184],[26.7779,-8.6599,624.7903],[26.786,-8.6632,647.9035],[26.7923,-8.6645,633.8992],[26.7969,-8.6619,636.7144],[26.8109,-8.6714,685.2139],[26.818,-8.671,686.3078],[26.823,-8.6827,709.7089],[26.8307,-8.6862,721.807],[26.8308,-8.6913,736.2581],[26.8353,-8.6967,750.7695],[26.8359,-8.7094,779.922],[26.8283,-8.7242,796.4041],[26.8304,-8.729,877.262],[26.8264,-8.7336,825.5884],[26.8244,-8.7417,908.7326],[26.8261,-8.7626,1409.9899],[26.8275,-8.7653,1389.168],[26.8317,-8.7662,1374.2207],[26.8342,-8.7751,1473.203],[26.8426,-8.7812,1463.6708],[26.8497,-8.7813,1463.9441],[26.8561,-8.7736,1458.5181],[26.8634,-8.77,1477.8258],[26.875,-8.7584,1459.707],[26.8863,-8.7541,1467.0773],[26.8946,-8.7445,1468.5363],[26.9066,-8.7384,1466.6414],[26.9231,-8.7211,1491.2737],[26.942,-8.7155,1507.8528],[26.9561,-8.7029,1522.2457],[26.9581,-8.6972,1511.1555],[26.957,-8.6861,1496.0535],[26.9583,-8.6818,1498.0001],[26.9678,-8.6699,1514.2722],[26.9763,-8.6654,1515.7939],[27.0063,-8.6387,1518.2822],[27.0322,-8.6126,1530.8723],[27.0389,-8.6091,1530.9738],[27.0525,-8.5822,1543.1638],[27.0681,-8.5728,1617.874],[27.0717,-8.5673,1638.5031],[27.0851,-8.5606,1680.5868],[27.0856,-8.5551,1667.4143],[27.0817,-8.5487,1651.1014],[27.0718,-8.5414,1629.79],[27.0502,-8.5475,1618.5599],[27.012,-8.5379,1214.9614],[27.0065,-8.5329,1161.5615],[27.0055,-8.5165,1502.2991],[27.0155,-8.487,1354.9093],[27.0562,-8.4383,1422.8228],[27.1562,-8.307,722.007],[27.1663,-8.2908,687.8787],[27.1642,-8.2856,675.5826],[27.1741,-8.2714,675.6585],[27.195,-8.2521,1078.9978],[27.2151,-8.2277,1101.8046],[27.2263,-8.2072,749.0714],[27.2511,-8.2042,751.8614],[27.2641,-8.1976,763.2264],[27.2659,-8.195,758.562],[27.2652,-8.1907,754.2206],[27.2784,-8.1799,761.8673],[27.2823,-8.1826,764.011],[27.2851,-8.1818,770.4801],[27.2903,-8.1783,769.0428],[27.2985,-8.1692,778.562],[27.3065,-8.167,775.7458],[27.3106,-8.1679,775.8579],[27.3174,-8.1735,781.1503],[27.3255,-8.1724,822.9556],[27.332,-8.1753,800.8049],[27.3377,-8.1837,818.0077],[27.3416,-8.1862,813.0364],[27.366,-8.186,839.0378],[27.3781,-8.1782,857.4403],[27.3896,-8.1734,942.7917],[27.4223,-8.1499,977.1289],[27.4318,-8.1486,1021.2861],[27.4555,-8.1369,1030.0591],[27.4658,-8.1342,1062.113],[27.4751,-8.1256,1072.2736],[27.4841,-8.1094,1141.7042],[27.5016,-8.0992,1246.1394],[27.5059,-8.1064,1248.8948],[27.5141,-8.1073,1296.7535],[27.5333,-8.1,1264.0002],[27.5597,-8.0818,1266.115],[27.5909,-8.0879,1317.4391],[27.6072,-8.0802,1355.1711],[27.6183,-8.0806,1393.77],[27.6351,-8.0762,1404.9391],[27.6413,-8.0767,1429.6897],[27.6443,-8.0957,1443.6744],[27.6501,-8.1014,1414.2157],[27.6582,-8.1051,1402.3579],[27.6732,-8.1174,1374.8447],[27.6819,-8.1302,1465.7495],[27.6814,-8.1369,1521.6803],[27.6747,-8.1484,1484.8046],[27.6819,-8.1574,1521.5652],[27.6992,-8.1497,1478.2039],[27.7026,-8.1535,1497.884],[27.6969,-8.1797,1408.23],[27.6964,-8.1906,1373.624],[27.6989,-8.1996,1376.1892],[27.7363,-8.1695,1379.0103],[27.7631,-8.1603,1373.7582],[27.7891,-8.1545,1404.041],[27.8073,-8.1515,1295.9197],[27.8222,-8.1514,1216.6139],[27.8375,-8.1445,1156.9597]]]]}}