{"type":"Feature","properties":{"GID_2":"COD.12.7_1","GID_0":"COD","country":"DemocraticRepublicoftheCongo","GID_1":"COD.12_1","province":"Kwango","NL_NAME_1":"NA","county":"Kenge(ville)","VARNAME_2":"NA","NL_NAME_2":"NA","TYPE_2":"Ville","ENGTYPE_2":"Town","CC_2":"NA","HASC_2":"NA","name":"Kenge(ville).county"},
"geometry":{"type": "MultiPolygon","coordinates": [[[[17.0034,-4.888,453.4117],[17.0141,-4.8868,407.309],[17.0236,-4.8805,444.9465],[17.0311,-4.8729,478.5306],[17.0412,-4.8684,585.7317],[17.0513,-4.8475,435.9626],[17.0532,-4.8393,423.1807],[17.0513,-4.8292,529.543],[17.0469,-4.8197,443.0229],[17.0368,-4.8089,512.0803],[17.028,-4.8051,544.1561],[17.0185,-4.8045,409.8439],[17.0072,-4.8064,436.0582],[16.987,-4.8168,367.0319],[16.9877,-4.8189,374.3027],[16.9836,-4.829,373.6304],[16.9839,-4.8355,387.6016],[16.9869,-4.8437,364.2027],[16.9796,-4.8541,390.2856],[16.9799,-4.8642,384.366],[16.9735,-4.8781,376.2228],[16.9826,-4.8849,401.3474],[16.9952,-4.888,430.4842],[17.0034,-4.888,453.4117]]]]}}