{"type": "Feature","bbox": [17.798583776829616,-1.003667895446938,18.162712202091484,-0.63276909526104],"geometry": {"type": "Polygon","coordinates": [[[18.077346605223312,-0.941557064622174,313.7939],[18.0847057084016,-0.952742901453149,318.3143],[18.082645159511685,-0.960690732885723,322.6302],[18.073225507443453,-0.976880759877957,332.8002],[18.071164958553538,-0.987183504327561,332.42],[18.072931143316339,-0.99719188465005,322.3291],[18.077935333477569,-0.996897520522907,318.1957],[18.084411344274457,-0.992776422743077,319.6991],[18.091476083325631,-0.990715873853162,316.6888],[18.114436485241896,-0.987183504327561,296.0],[18.1247392296915,-0.990127145598876,303.2397],[18.131803968742673,-1.003667895446938,313.1649],[18.14240107731942,-0.999546797667108,313.2843],[18.156530555421739,-0.986594776073304,296.0],[18.162712202091484,-0.983945498929131,305.3997],[18.162712202091484,-0.980118765276416,296.0],[18.143578533827935,-0.961279461139981,296.0],[18.138574343666704,-0.952742901453149,296.0],[18.136808158903904,-0.946855618910519,296.0],[18.127977235089958,-0.940673972240774,296.0],[18.125033593818642,-0.9353754179524,296.0],[18.1247392296915,-0.932431776681085,296.0],[18.125033593818642,-0.91859666270588,296.0],[18.120912496038784,-0.906527733493505,296.0],[18.111787208097724,-0.89769680967953,296.0],[18.102661920156635,-0.890632070628385,296.0],[18.098540822376776,-0.884156059831497,296.0],[18.103250648410892,-0.852364734101258,296.0],[18.105311197300807,-0.84677181568577,296.0],[18.112670300479095,-0.843828174414455,307.913],[18.122089952547327,-0.843828174414455,320.704],[18.129743419852758,-0.840295804888854,311.4264],[18.131803968742673,-0.826166326786534,319.2432],[18.127094142708557,-0.817924131226846,296.0],[18.105899925555093,-0.805560837887327,296.0],[18.098540822376776,-0.798790462963296,296.0],[18.095008452851204,-0.788487718513693,296.0],[18.091476083325631,-0.750514746113708,296.0],[18.101190099520977,-0.754635843893539,296.0],[18.112081572224838,-0.756402028656339,317.6482],[18.12150122429307,-0.754341479766424,312.0624],[18.125033593818642,-0.746982376588136,305.0187],[18.120323767784527,-0.735502175629989,307.0999],[18.112081572224838,-0.727848708324558,296.0],[18.108843566826408,-0.72225578990907,296.0],[18.118851947148869,-0.71636850736644,296.0],[18.118851947148869,-0.695763018467204,296.0],[18.08970989856283,-0.668387154643966,296.0],[18.077346605223312,-0.661616779719935,296.0],[18.066160768392308,-0.660144959084278,296.0],[18.052914382671389,-0.660439323211421,296.0],[18.0420229099675,-0.656906953685848,296.0],[18.037313083933412,-0.644838024473444,296.0],[18.025832882975266,-0.633946551769554,296.0],[17.999634475660542,-0.63276909526104,296.0],[17.971669883583047,-0.636595828913755,296.0],[17.954891128336527,-0.641305654947843,296.0],[17.872763536866785,-0.674863165440854,296.0],[17.831846923195485,-0.676629350203655,298.2462],[17.80976961366062,-0.648076029871874,295.25],[17.798583776829616,-0.662794236228478,298.3421],[17.799172505083874,-0.678984263220713,312.467],[17.806825972389305,-0.695174290212947,312.3804],[17.817128716838909,-0.709598132442409,312.0143],[17.80976961366062,-0.71636850736644,318.7984],[17.835379292721086,-0.724021974671842,320.045],[17.888070471477647,-0.716074143239297,305.2473],[17.912797058156713,-0.723138882290471,331.2974],[17.916623791809428,-0.717545963874954,311.2044],[17.920450525462115,-0.713424866095124,302.6559],[17.923982894987716,-0.709009404188151,299.5014],[17.926337808004774,-0.702533393391235,296.0],[17.940172921979951,-0.722550154036185,296.0],[17.940761650234208,-0.775241332792774,319.3136],[17.947532025158239,-0.798790462963296,296.0],[17.91426887879237,-0.791725723912151,297.4437],[17.908970324503997,-0.797907370581896,299.0873],[17.912797058156713,-0.819395951862504,313.2919],[17.918978704826458,-0.831759245202051,313.908],[17.947532025158239,-0.860312565533832,314.1401],[17.950770030556697,-0.866494212203577,312.8906],[17.956362948972185,-0.881801146814439,296.0],[17.9610727750063,-0.88768842935707,312.1379],[17.966960057548931,-0.889748978246985,312.1622],[17.981678263905508,-0.891515163009785,316.1811],[17.988448638829539,-0.894458804281101,312.0969],[17.991981008355111,-0.895341896662501,296.8616],[18.005816122330316,-0.894458804281101,305.8797],[18.009348491855889,-0.896224989043873,316.5574],[18.009054127728774,-0.900051722696588,318.8567],[18.008171035347374,-0.904761548730704,329.6833],[18.009054127728774,-0.90858828238342,330.1409],[18.012292133127204,-0.916536113815965,318.7199],[18.010525948364432,-0.923012124612853,319.2582],[18.011409040745804,-0.927721950646969,323.9764],[18.022594877576807,-0.929193771282627,317.6031],[18.016118866779919,-0.944795070020604,314.8757],[18.012292133127204,-0.96039636875858,298.337],[18.016413230907062,-0.972465297970984,312.1173],[18.033486350280697,-0.976880759877957,309.9724],[18.060567849976792,-0.951565444944634,304.6458],[18.077346605223312,-0.941557064622174,313.7939]]]}
,"properties": {"featurecla": "Lake","scalerank": 5,"name": "Lac Tumba","name_abb": "L. Tumba","name_alt": null,"note": null,"delta": null,"dam_name": null,"year": -99,"admin": null,"min_zoom": 4.7,"min_label": 6.0,"area_km2": 735.5821,"hist_schema_id": "Elevation0-9000","hist_area_km2": {"300": 663.6938,"325": 71.6127,"350": 0.2756}}}