{"type":"Feature","properties":{"GID_2":"COD.16.3_1","GID_0":"COD","country":"DemocraticRepublicoftheCongo","GID_1":"COD.16_1","province":"Mai-Ndombe","NL_NAME_1":"NA","county":"Inongo","VARNAME_2":"NA","NL_NAME_2":"NA","TYPE_2":"Territoire","ENGTYPE_2":"Territory","CC_2":"NA","HASC_2":"NA","name":"Inongo.county"},
"geometry":{"type": "MultiPolygon","coordinates": [[[[17.5064,-1.4798,331.7031],[17.4808,-1.5047,367.7958],[17.1136,-1.7864,414.4747],[17.1076,-1.7864,401.4947],[17.1009,-1.7782,393.8867],[17.0943,-1.7781,373.4208],[17.0877,-1.7824,400.4183],[17.0702,-1.8029,345.6718],[17.0635,-1.8043,356.9854],[17.0546,-1.7968,339.535],[17.0487,-1.7945,344.0399],[17.0265,-1.7943,331.2841],[17.0169,-1.7905,336.2334],[17.0117,-1.7816,329.6048],[17.0027,-1.7726,328.0829],[16.9938,-1.7696,325.0138],[16.9709,-1.7663,321.706],[16.9406,-1.7593,306.7462],[16.9214,-1.7569,303.5132],[16.9048,-1.7608,300.701],[16.8721,-1.7774,296.5505],[16.8582,-1.7817,301.9751],[16.8463,-1.7819,305.18],[16.8365,-1.7802,302.8088],[16.8189,-1.765,305.7584],[16.8145,-1.7657,305.0822],[16.801,-1.7825,290.9445],[16.7901,-1.8023,289.7716],[16.7888,-1.8211,292.1127],[16.7903,-1.8304,302.0335],[16.7941,-1.8363,304.2968],[16.7992,-1.8371,303.6008],[16.8048,-1.8354,291.9524],[16.8154,-1.8255,302.398],[16.8227,-1.8215,301.7659],[16.8279,-1.8216,293.2935],[16.8379,-1.8306,295.0328],[16.8469,-1.846,299.6146],[16.8517,-1.8453,299.6495],[16.8668,-1.8493,304.7882],[16.879,-1.8557,312.781],[16.8879,-1.8575,331.7991],[16.9121,-1.8558,318.1984],[16.9427,-1.8661,351.7736],[16.945,-2.0013,378.4979],[16.637,-1.9982,293.7492],[16.6398,-2.0019,294.2061],[16.6486,-2.0283,296.055],[16.6498,-2.0359,298.3767],[16.6462,-2.0536,298.3336],[16.6462,-2.0626,303.2021],[16.644,-2.069,309.8318],[16.6443,-2.0918,300.7705],[16.6537,-2.1026,308.306],[16.655,-2.13,307.6692],[16.6577,-2.1356,304.7313],[16.6661,-2.1435,308.3527],[16.6746,-2.1792,318.8469],[16.6918,-2.1949,321.3897],[16.6998,-2.196,316.5755],[16.7064,-2.1964,325.1237],[16.7104,-2.194,331.3463],[16.718,-2.1844,331.1764],[16.7241,-2.182,331.1912],[16.7478,-2.1825,322.9035],[16.8086,-2.1925,341.4064],[16.8224,-2.1965,346.6366],[16.8279,-2.1994,364.7704],[16.8329,-2.2054,349.0823],[16.8647,-2.2522,366.2051],[16.8741,-2.2615,366.6982],[16.884,-2.269,375.2402],[16.9011,-2.2743,358.2081],[16.9228,-2.2744,366.4416],[16.9365,-2.2706,376.1534],[17.0334,-2.2196,368.163],[17.0599,-2.2108,362.6663],[17.0734,-2.2006,355.8412],[17.0991,-2.177,359.2914],[17.1263,-2.1489,351.7971],[17.1345,-2.1458,363.1784],[17.1465,-2.1471,346.7716],[17.1519,-2.1498,365.8092],[17.1637,-2.1579,363.0466],[17.1838,-2.1804,344.8572],[17.1988,-2.1871,360.9526],[17.2177,-2.1991,348.2121],[17.2237,-2.199,340.8684],[17.2455,-2.1892,341.4247],[17.2588,-2.1784,364.5421],[17.2728,-2.1602,354.3268],[17.2888,-2.1573,337.1778],[17.2915,-2.1552,337.7424],[17.2935,-2.1513,335.577],[17.2922,-2.1362,344.5474],[17.3003,-2.1282,332.1664],[17.3321,-2.1141,333.0188],[17.3411,-2.1122,321.4467],[17.3451,-2.1133,333.2959],[17.352,-2.1185,335.7995],[17.3577,-2.1176,332.4651],[17.3779,-2.0984,334.1373],[17.3953,-2.091,325.8345],[17.4203,-2.0895,324.5105],[17.4402,-2.0954,319.4093],[17.4467,-2.1016,327.4917],[17.459,-2.1029,310.2995],[17.4643,-2.0978,323.6729],[17.4892,-2.097,324.7126],[17.5174,-2.0856,313.2949],[17.5308,-2.0825,309.7552],[17.658,-2.0732,320.6375],[17.732,-2.0492,323.2907],[17.7636,-2.0497,306.2427],[17.769,-2.0442,314.5004],[17.7789,-2.0425,304.1734],[17.7911,-2.0275,303.2744],[17.7971,-2.0256,318.2536],[17.8074,-2.0263,320.4879],[17.8188,-2.0234,319.3535],[17.8204,-2.0203,326.4577],[17.8328,-2.0149,319.9686],[17.8589,-2.009,322.7206],[17.9114,-2.0069,336.6411],[17.9503,-2.0014,327.1461],[17.9484,-2.0475,317.88],[17.9461,-2.0528,317.6869],[17.9327,-2.0676,317.8494],[17.9282,-2.0764,317.3564],[17.9257,-2.0904,317.9704],[17.9203,-2.1001,316.1255],[17.9094,-2.1119,316.1321],[17.9022,-2.1246,316.4352],[17.9034,-2.1446,314.5882],[17.9129,-2.1639,314.1553],[17.9112,-2.177,315.1968],[17.9161,-2.1968,326.5974],[17.9134,-2.2051,323.9794],[17.9036,-2.2113,312.6243],[17.8984,-2.2226,313.8378],[17.8918,-2.2264,312.2976],[17.8916,-2.2312,312.2405],[17.8962,-2.2353,312.3665],[17.8969,-2.239,311.6065],[17.8913,-2.2537,311.0998],[17.8932,-2.2677,312.2368],[17.8921,-2.2774,306.5973],[17.8801,-2.2927,309.1563],[17.8729,-2.3136,311.0698],[17.8601,-2.3264,316.0693],[17.8906,-2.3314,313.5419],[17.898,-2.3312,299.0562],[17.9151,-2.3224,294.8753],[17.9221,-2.3226,325.7626],[17.9266,-2.325,317.9339],[17.9336,-2.3248,299.5372],[17.9412,-2.3217,314.0236],[17.9504,-2.307,309.2764],[17.9617,-2.303,307.93],[17.9856,-2.2987,340.0588],[17.9961,-2.2912,331.5471],[18.0043,-2.2805,321.0764],[18.0198,-2.2793,334.7606],[18.0477,-2.2891,312.7618],[18.0773,-2.302,330.8016],[18.0852,-2.3076,315.5372],[18.1059,-2.3339,327.854],[18.1115,-2.3381,341.8574],[18.1352,-2.3389,334.3691],[18.1519,-2.3551,317.4081],[18.1566,-2.3658,330.1824],[18.1576,-2.3738,333.1429],[18.1525,-2.3779,335.8969],[18.1483,-2.3845,331.5063],[18.1517,-2.4131,321.4492],[18.1785,-2.4845,350.2932],[18.1891,-2.5092,353.1383],[18.2082,-2.5453,341.8996],[18.2151,-2.5509,339.9354],[18.2579,-2.5508,291.0],[18.2624,-2.5557,291.0],[18.2641,-2.5615,291.0],[18.2639,-2.5825,291.0],[18.2682,-2.5878,291.0],[18.2829,-2.5864,291.0],[18.2927,-2.5814,291.0],[18.3239,-2.5744,312.9298],[18.3295,-2.5786,306.8806],[18.3392,-2.5801,303.081],[18.402,-2.5838,345.1107],[18.4106,-2.5879,343.8382],[18.413,-2.5911,325.1558],[18.4188,-2.6287,331.0404],[18.4276,-2.6509,312.9044],[18.4346,-2.6637,348.6299],[18.4452,-2.674,343.1163],[18.452,-2.6774,333.4925],[18.4578,-2.6765,308.6346],[18.4832,-2.6588,314.2848],[18.4874,-2.65,297.0814],[18.4782,-2.6252,314.9142],[18.4795,-2.6187,303.6297],[18.4834,-2.6139,329.4641],[18.4964,-2.6044,316.4],[18.532,-2.5854,319.1597],[18.5376,-2.5852,316.4642],[18.5533,-2.5942,316.0574],[18.5625,-2.5943,318.6526],[18.5848,-2.5854,313.0251],[18.5902,-2.5794,313.8551],[18.5944,-2.5713,306.9762],[18.6145,-2.553,313.3773],[18.6245,-2.5392,314.0007],[18.635,-2.5278,329.8012],[18.6474,-2.5211,312.7969],[18.6583,-2.5214,314.4183],[18.6702,-2.5247,314.2893],[18.6781,-2.523,314.9454],[18.703,-2.4915,322.7141],[18.7247,-2.4672,319.6715],[18.7352,-2.4578,320.4551],[18.7701,-2.4357,318.8707],[18.792,-2.4312,321.2619],[18.7986,-2.432,319.9789],[18.8014,-2.427,315.8145],[18.8189,-2.4172,318.5903],[18.829,-2.4217,321.6362],[18.8581,-2.4289,317.808],[18.8691,-2.4297,319.8659],[18.8767,-2.4361,318.7708],[18.8801,-2.437,320.569],[18.9113,-2.4409,320.7066],[18.9205,-2.4512,321.4498],[18.9315,-2.4553,322.2273],[18.9457,-2.4573,320.9525],[18.9494,-2.4542,321.3894],[18.9551,-2.4544,320.0793],[18.9613,-2.4567,320.2737],[18.9703,-2.4642,321.1191],[18.9772,-2.4793,321.7454],[19.0,-2.4887,316.3715],[19.0075,-2.4927,311.0786],[19.0118,-2.4973,312.9265],[19.0233,-2.5273,320.6636],[19.0416,-2.5661,319.8099],[19.0662,-2.5759,332.8761],[19.0724,-2.5831,326.4489],[19.0865,-2.5948,324.0619],[19.121,-2.631,339.0374],[19.1666,-2.6702,336.0255],[19.2546,-2.7535,338.3478],[19.2604,-2.7587,338.2886],[19.2657,-2.7608,337.1995],[19.2689,-2.7603,335.4578],[19.2725,-2.7517,333.7764],[19.2741,-2.7397,338.3575],[19.2821,-2.7119,331.0959],[19.2835,-2.6981,322.8404],[19.2739,-2.6295,319.9788],[19.2744,-2.618,316.7135],[19.2777,-2.6049,323.413],[19.2797,-2.5806,335.0699],[19.2841,-2.5709,327.2616],[19.2875,-2.544,319.6395],[19.2915,-2.53,318.7454],[19.3026,-2.5057,319.8536],[19.3051,-2.4804,321.1731],[19.3047,-2.4643,316.0719],[19.3017,-2.4482,301.9442],[19.2668,-2.3418,318.7913],[19.2497,-2.278,318.7712],[19.2512,-2.2685,319.513],[19.2589,-2.2467,299.8509],[19.2578,-2.24,309.4111],[19.2621,-2.2212,319.6686],[19.26,-2.2126,318.2578],[19.2569,-2.208,317.2966],[19.2435,-2.1957,312.8605],[19.2293,-2.1885,307.4424],[19.2138,-2.1511,307.7833],[19.2092,-2.1456,307.2424],[19.1838,-2.1259,312.0685],[19.1763,-2.1159,314.3585],[19.1677,-2.1,312.6528],[19.1643,-2.0874,307.8549],[19.1649,-2.074,305.7898],[19.1586,-2.0599,308.5253],[19.1593,-2.0521,307.3894],[19.162,-2.0528,307.9388],[19.1161,-1.9647,309.4188],[19.0,-1.8755,319.0786],[18.9906,-1.8727,316.4174],[18.9758,-1.8724,320.3648],[18.9554,-1.8764,308.1327],[18.9509,-1.876,306.7462],[18.9194,-1.8615,320.6938],[18.9054,-1.8501,317.0807],[18.8958,-1.8481,312.1196],[18.8843,-1.8406,312.8289],[18.8774,-1.8333,314.0625],[18.8726,-1.8328,312.2525],[18.8687,-1.8306,317.2023],[18.8551,-1.8166,314.848],[18.8487,-1.8169,312.7201],[18.8337,-1.8336,306.4089],[18.8298,-1.8331,308.8137],[18.8234,-1.824,308.8737],[18.8192,-1.8208,300.9454],[18.8012,-1.8207,303.3856],[18.7906,-1.8157,298.947],[18.7854,-1.8169,309.7675],[18.7765,-1.8282,311.4148],[18.7694,-1.825,315.1067],[18.7376,-1.7917,296.5164],[18.7271,-1.7927,314.2232],[18.7223,-1.7909,313.1425],[18.7039,-1.7705,299.687],[18.6956,-1.7694,298.2046],[18.6897,-1.7658,299.681],[18.6851,-1.7603,300.0409],[18.6843,-1.7506,310.8337],[18.6808,-1.7438,308.3448],[18.678,-1.7258,303.1899],[18.6747,-1.7227,306.0159],[18.6525,-1.7145,304.041],[18.6426,-1.7082,292.4461],[18.6367,-1.707,297.4942],[18.6159,-1.7125,305.4386],[18.5825,-1.7083,316.7786],[18.5715,-1.7088,315.4436],[18.5604,-1.7124,311.3392],[18.5478,-1.7198,315.7832],[18.5348,-1.7187,315.4747],[18.5291,-1.7257,315.2238],[18.5253,-1.7278,312.7568],[18.5038,-1.7314,318.6998],[18.4945,-1.7367,313.7858],[18.4792,-1.7522,316.8371],[18.4681,-1.7557,328.5218],[18.4461,-1.7573,301.5056],[18.4382,-1.7605,320.8678],[18.4232,-1.7494,310.5637],[18.4143,-1.7494,305.1477],[18.3994,-1.7371,307.3102],[18.3897,-1.7346,311.4573],[18.3961,-1.727,310.2253],[18.4036,-1.7244,291.0],[18.4194,-1.7243,316.1458],[18.427,-1.7273,306.6718],[18.4313,-1.7268,307.0415],[18.4459,-1.7186,293.2741],[18.4653,-1.6923,294.6019],[18.4719,-1.6791,294.2847],[18.4823,-1.6273,291.0],[18.494,-1.6073,291.5627],[18.4976,-1.5976,291.0],[18.504,-1.5911,296.8917],[18.5056,-1.5856,294.2504],[18.5046,-1.581,292.2472],[18.5062,-1.5791,291.0],[18.5124,-1.5775,294.2746],[18.5174,-1.5777,296.2427],[18.5207,-1.5682,294.1092],[18.531,-1.5702,296.1393],[18.5381,-1.5683,293.9201],[18.5429,-1.5637,293.319],[18.5524,-1.5588,291.4248],[18.5735,-1.5589,291.9776],[18.5847,-1.5545,295.7054],[18.5958,-1.5526,293.8636],[18.6159,-1.5513,294.7265],[18.6393,-1.552,293.8074],[18.6878,-1.5278,292.0],[18.691,-1.5287,294.1479],[18.6952,-1.5357,310.0246],[18.6966,-1.5662,315.6602],[18.6997,-1.5684,309.3572],[18.7049,-1.5691,314.4461],[18.7084,-1.5658,309.7542],[18.7179,-1.5506,292.0],[18.7201,-1.5349,292.0],[18.7225,-1.5313,292.0],[18.7287,-1.5273,310.0614],[18.7305,-1.5213,308.4017],[18.7281,-1.5112,305.1392],[18.7244,-1.5039,304.8018],[18.7413,-1.498,312.3354],[18.7598,-1.4735,313.2191],[18.7635,-1.471,313.8159],[18.7792,-1.4702,299.5005],[18.799,-1.4528,307.4996],[18.8037,-1.4353,306.4579],[18.7972,-1.4224,294.7948],[18.7957,-1.4153,312.0089],[18.806,-1.3991,315.2031],[18.813,-1.3938,315.5002],[18.8274,-1.3936,319.3691],[18.8328,-1.3877,316.5341],[18.8192,-1.3304,314.7361],[18.8025,-1.3054,315.0124],[18.7929,-1.2636,319.7642],[18.7882,-1.2545,320.8598],[18.785,-1.2515,322.1935],[18.7611,-1.2363,326.433],[18.7511,-1.2354,338.5952],[18.7263,-1.2229,333.0599],[18.7094,-1.2208,323.1634],[18.6973,-1.2213,320.7128],[18.6772,-1.2263,317.2463],[18.6601,-1.234,315.0139],[18.6414,-1.2364,311.2434],[18.618,-1.2485,303.9332],[18.5984,-1.2539,325.8941],[18.5844,-1.2554,314.3871],[18.5721,-1.2608,323.1081],[18.5662,-1.2603,317.8812],[18.554,-1.2549,328.6306],[18.5412,-1.255,319.9839],[18.5296,-1.2603,318.9172],[18.5223,-1.2608,319.9337],[18.5134,-1.257,336.3865],[18.4952,-1.2413,326.0521],[18.4746,-1.2315,325.0732],[18.4523,-1.2061,333.707],[18.446,-1.1935,328.0558],[18.4384,-1.1881,334.4058],[18.406,-1.1804,337.8392],[18.3929,-1.173,336.6539],[18.3749,-1.1556,333.3586],[18.36,-1.1504,344.1011],[18.3522,-1.1452,322.0665],[18.3334,-1.126,326.5373],[18.3285,-1.123,330.6695],[18.3148,-1.1197,325.7999],[18.2878,-1.1166,325.7464],[18.2453,-1.1148,326.0301],[18.2053,-1.1069,327.6557],[18.1858,-1.1056,335.073],[18.1707,-1.1074,327.027],[18.1562,-1.1036,323.7177],[18.137,-1.1028,322.4621],[18.1315,-1.1064,325.7026],[18.1309,-1.1126,339.3347],[18.134,-1.16,316.437],[18.1301,-1.1699,317.8328],[18.1275,-1.2044,335.2279],[18.1202,-1.212,326.1195],[18.0371,-1.2779,320.2425],[17.9104,-1.3763,306.3255],[17.8835,-1.3799,310.5075],[17.7321,-1.4115,319.8639],[17.7237,-1.4169,319.3427],[17.7186,-1.4229,320.2702],[17.7102,-1.4279,319.0515],[17.6328,-1.4476,325.8627],[17.621,-1.4519,324.5537],[17.6127,-1.4581,323.5045],[17.5909,-1.4576,339.3481],[17.5777,-1.4623,315.1546],[17.5543,-1.4753,320.6783],[17.5459,-1.4778,334.8222],[17.5204,-1.4777,324.892],[17.5064,-1.4798,331.7031]],
[[18.3229,-2.0252,291.0],[18.2931,-2.0318,291.0],[18.2568,-2.0252,291.0],[18.2281,-2.003,291.0],[18.2071,-1.9626,291.0],[18.2149,-1.9154,291.0],[18.2568,-1.8966,291.0],[18.2788,-1.8899,291.0],[18.3052,-1.901,316.0736],[18.3129,-1.9143,315.6901],[18.3482,-1.9332,314.6365],[18.357,-1.9609,312.2959],[18.3548,-1.9841,294.0331],[18.3438,-2.0063,291.0],[18.3229,-2.0252,291.0]]]]}}