{"type": "Feature","bbox": [19.8454,-4.1705,19.8794,-4.1404],"geometry": {"type": "MultiPolygon","coordinates": [[[[19.8581,-4.1705,413.2423],[19.8676,-4.1699,403.2806],[19.8778,-4.1644,337.5],[19.8794,-4.1547,337.5],[19.8774,-4.147,337.0],[19.8742,-4.1431,337.0],[19.8675,-4.1404,337.0],[19.854,-4.1404,336.5],[19.8497,-4.1424,362.4915],[19.8466,-4.147,386.6177],[19.8454,-4.1518,428.7325],[19.8461,-4.1628,409.213],[19.8481,-4.1664,416.1587],[19.8542,-4.1705,413.0143],[19.8581,-4.1705,413.2423]]]]}
,"properties": {"GID_2": "COD.13.5_1","GID_0": "COD","country": "DemocraticRepublicoftheCongo","GID_1": "COD.13_1","province": "Kwilu","NL_NAME_1": "NA","county": "Dibaya-Lubwe","VARNAME_2": "NA","NL_NAME_2": "NA","TYPE_2": "Ville","ENGTYPE_2": "Town","CC_2": "NA","HASC_2": "NA","name": "Dibaya-Lubwe.county","area_km2": 10.657822,"hist_schema_id": "Elevation0-9000","hist_area_km2": {"325": 3.129698,"350": 1.585993,"375": 2.579868,"400": 2.875898,"425": 0.486366}}}