{"type": "Feature","bbox": [24.5984,-5.0197,28.8035,-0.0138],"geometry": {"type": "MultiPolygon","coordinates": [[[[26.0471,-4.9991,564.644],[26.2252,-5.0011,568.7893],[26.2705,-5.0,553.8535],[26.2798,-5.0011,560.1158],[26.9684,-4.9995,523.7717],[27.6021,-5.0166,625.573],[27.6736,-5.01,723.5604],[28.407,-5.0197,811.611],[28.8035,-5.0103,832.5951],[28.8014,-5.0012,835.1925],[28.7957,-4.9935,822.4044],[28.7887,-4.9912,835.3302],[28.785,-4.9943,817.0154],[28.7761,-4.9838,819.9263],[28.7713,-4.973,814.2568],[28.775,-4.9713,820.3133],[28.7758,-4.9679,804.0203],[28.7776,-4.9669,804.0557],[28.7767,-4.966,833.2871],[28.7726,-4.9651,802.5782],[28.7719,-4.967,802.6052],[28.7696,-4.9673,812.9604],[28.7645,-4.9654,809.8663],[28.7615,-4.9605,810.0402],[28.7546,-4.9609,812.2175],[28.7515,-4.9505,800.8987],[28.7489,-4.9472,794.9669],[28.7491,-4.9437,794.5852],[28.751,-4.9452,796.3853],[28.752,-4.9425,797.3423],[28.7539,-4.9429,799.7997],[28.76,-4.9388,789.9044],[28.757,-4.9334,792.6345],[28.7572,-4.9271,790.5118],[28.7555,-4.9237,788.8418],[28.7689,-4.9178,785.7352],[28.7682,-4.9142,783.1412],[28.7609,-4.9077,783.5723],[28.7522,-4.9039,778.2141],[28.7526,-4.9024,781.3268],[28.75,-4.9009,779.6196],[28.7493,-4.8985,776.799],[28.7506,-4.8979,778.8479],[28.7462,-4.8902,774.8671],[28.7458,-4.8817,793.0391],[28.7417,-4.8761,767.9682],[28.7438,-4.8733,791.7443],[28.7414,-4.8726,772.55],[28.7417,-4.8693,783.7247],[28.7388,-4.8655,766.625],[28.7411,-4.8631,769.3768],[28.7377,-4.8587,769.2207],[28.7373,-4.853,765.7739],[28.7347,-4.8489,768.2233],[28.7269,-4.8482,770.181],[28.7281,-4.8449,773.885],[28.7188,-4.8395,762.8098],[28.7132,-4.8342,760.431],[28.7117,-4.8304,758.2124],[28.7125,-4.8284,757.7698],[28.7138,-4.826,760.1927],[28.7163,-4.8264,759.749],[28.7173,-4.825,756.9136],[28.7161,-4.82,754.0186],[28.7039,-4.8108,752.1163],[28.6978,-4.8091,747.4037],[28.6951,-4.81,753.644],[28.6973,-4.8029,748.4248],[28.6964,-4.801,749.9908],[28.6899,-4.7995,752.0229],[28.6871,-4.7821,743.6823],[28.685,-4.7781,741.8836],[28.687,-4.7773,741.4099],[28.6877,-4.774,741.8904],[28.6847,-4.7685,742.7585],[28.689,-4.756,746.6987],[28.685,-4.7522,742.5829],[28.6834,-4.7535,743.6465],[28.6795,-4.7507,745.5567],[28.6838,-4.7396,741.9424],[28.6818,-4.7396,744.2859],[28.6776,-4.7359,738.3423],[28.677,-4.7309,736.4922],[28.6744,-4.73,735.0692],[28.6747,-4.7257,744.3922],[28.6694,-4.7246,743.1779],[28.6655,-4.7206,740.5938],[28.6634,-4.7145,729.0612],[28.6639,-4.7108,732.1385],[28.6593,-4.7057,742.3528],[28.6569,-4.7058,734.8166],[28.6556,-4.7033,722.4321],[28.6477,-4.7033,731.6094],[28.6461,-4.7015,732.8291],[28.6349,-4.701,730.7498],[28.6335,-4.6978,735.4588],[28.6305,-4.6983,730.1743],[28.6196,-4.6913,736.066],[28.6138,-4.6861,738.1517],[28.6073,-4.6766,757.4526],[28.5674,-4.5406,1006.0722],[28.5528,-4.5234,832.1447],[28.5546,-4.4642,1152.4578],[28.5531,-4.4601,1133.1052],[28.513,-4.4595,827.5289],[28.5034,-4.461,824.8276],[28.4939,-4.4546,801.5054],[28.4918,-4.4085,1081.6349],[28.4808,-4.3967,1133.3656],[28.4457,-4.3873,765.1503],[28.4168,-4.3751,753.6234],[28.4025,-4.3642,723.6155],[28.4036,-4.3599,713.0687],[28.3964,-4.3348,745.6713],[28.4,-4.327,795.8709],[28.3974,-4.3217,767.9738],[28.3997,-4.3171,740.7906],[28.3971,-4.3061,779.0209],[28.3935,-4.3038,780.2521],[28.3789,-4.2744,907.4004],[28.3733,-4.2731,968.7682],[28.3584,-4.282,1022.082],[28.3076,-4.2431,810.8165],[28.2427,-4.1996,880.5458],[28.2247,-4.178,811.0885],[28.2172,-4.1594,730.7849],[28.2103,-4.1366,763.8055],[28.2052,-4.1266,811.4088],[28.1982,-4.1213,896.9669],[28.186,-4.1192,804.4875],[28.1812,-4.123,801.3798],[28.1746,-4.1363,769.1133],[28.1851,-4.1573,706.5897],[28.1808,-4.1602,679.6942],[28.179,-4.1647,684.6145],[28.1796,-4.1673,681.7793],[28.1823,-4.1672,683.1691],[28.1822,-4.1686,687.9903],[28.1791,-4.1759,681.3481],[28.1755,-4.178,674.4564],[28.1742,-4.1809,676.3646],[28.1768,-4.1822,676.0788],[28.1783,-4.1855,681.8591],[28.1748,-4.1856,674.412],[28.1756,-4.1909,671.9407],[28.1697,-4.1972,674.5955],[28.1692,-4.2051,673.4104],[28.166,-4.2119,679.7111],[28.1622,-4.2134,667.3124],[28.1617,-4.2157,674.9457],[28.16,-4.2146,670.4308],[28.1605,-4.2131,665.3096],[28.158,-4.214,666.4709],[28.1512,-4.2209,670.9592],[28.1457,-4.223,674.2907],[28.1375,-4.2226,663.4471],[28.1361,-4.2238,657.8899],[28.1297,-4.2164,673.006],[28.1263,-4.2156,662.0544],[28.1214,-4.2261,668.5875],[28.1179,-4.227,673.5669],[28.1161,-4.2258,664.6929],[28.1148,-4.2195,672.6978],[28.1068,-4.2119,660.2317],[28.104,-4.2111,668.6708],[28.1001,-4.2128,662.916],[28.0936,-4.2086,660.8636],[28.0829,-4.1961,664.0667],[28.0719,-4.1963,683.145],[28.0743,-4.1895,659.5176],[28.0659,-4.1872,660.3239],[28.0611,-4.1835,660.4916],[28.0552,-4.1839,661.9886],[28.0494,-4.1806,663.4386],[28.0392,-4.19,664.7507],[28.0372,-4.1903,665.147],[28.031,-4.1856,661.3903],[28.0246,-4.1899,658.6113],[28.0178,-4.1909,657.3793],[28.0168,-4.1847,672.6068],[28.0215,-4.175,668.9445],[28.0163,-4.1712,662.2222],[28.0239,-4.1662,651.5719],[28.0244,-4.1631,651.6546],[28.0225,-4.1552,651.9155],[28.0166,-4.1458,656.9572],[28.0298,-4.1395,658.8965],[28.0336,-4.1339,650.2431],[28.0362,-4.1225,694.9024],[28.0034,-4.1189,686.683],[27.9831,-4.1114,700.9994],[27.9857,-4.109,696.3254],[27.9669,-4.105,704.7537],[27.9437,-4.1223,666.1081],[27.9435,-4.1213,666.1081],[27.9414,-4.1221,663.2521],[27.9408,-4.1258,675.4136],[27.9422,-4.1272,687.7369],[27.9366,-4.1259,672.5789],[27.9337,-4.128,688.6641],[27.9307,-4.1265,676.5217],[27.9251,-4.1274,664.9698],[27.924,-4.1256,672.069],[27.919,-4.1245,677.5744],[27.9155,-4.1251,674.9923],[27.9136,-4.1287,681.8134],[27.9106,-4.1241,665.0603],[27.9048,-4.1243,670.1573],[27.903199999999998,-4.1225,670.097],[27.8997,-4.1237,676.4534],[27.8988,-4.1221,670.758],[27.8951,-4.1257,682.4146],[27.8924,-4.1193,686.0599],[27.8876,-4.1193,671.8529],[27.8834,-4.1157,677.5497],[27.8781,-4.1151,682.8431],[27.8755,-4.1165,697.6592],[27.8742,-4.1132,690.3369],[27.8655,-4.1144,689.5251],[27.8604,-4.1116,695.2814],[27.8584,-4.1096,706.7053],[27.8586,-4.1063,693.1458],[27.8542,-4.1042,694.6486],[27.8543,-4.1016,686.7771],[27.8509,-4.099,691.5068],[27.8461,-4.0985,706.7994],[27.8472,-4.0971,699.9425],[27.8418,-4.0943,692.0034],[27.8415,-4.0919,697.324],[27.8385,-4.0923,697.7235],[27.8343,-4.0899,700.4431],[27.8336,-4.0791,753.8402],[27.8223,-4.0704,740.2667],[27.8233,-4.0587,772.2723],[27.8281,-4.0544,787.3142],[27.8271,-4.0442,795.2715],[27.8378,-4.0224,1128.98],[27.8183,-4.019,1022.549],[27.7986,-4.004,1321.1727],[27.7672,-4.004,889.924],[27.6364,-4.0219,848.835],[27.6185,-4.0204,1136.6938],[27.5973,-4.0099,858.5458],[27.5806,-3.9949,939.8859],[27.5313,-3.9934,733.7865],[27.4772,-3.9769,665.6206],[27.4638,-3.9769,650.2177],[27.4594,-3.9799,642.1613],[27.4516,-3.9966,635.7681],[27.4491,-3.992,635.4564],[27.4469,-3.9944,635.7798],[27.4459,-3.9913,637.6318],[27.4472,-3.9902,633.1966],[27.4425,-3.9834,631.5302],[27.436,-3.98,628.9871],[27.4314,-3.9814,640.5382],[27.4263,-3.9765,631.468],[27.426,-3.9744,635.3735],[27.4226,-3.9737,638.0803],[27.4244,-3.9685,629.2384],[27.4169,-3.9647,628.844],[27.4184,-3.9617,633.2528],[27.4133,-3.9604,629.4965],[27.4143,-3.9564,645.8237],[27.4126,-3.9573,630.7402],[27.4031,-3.9497,625.2438],[27.4002,-3.9498,624.3839],[27.3995,-3.9452,624.8276],[27.3953,-3.941,629.6022],[27.3904,-3.9389,621.9465],[27.386,-3.9395,625.4897],[27.3866,-3.9353,624.6745],[27.3822,-3.9353,623.6647],[27.3791,-3.9379,625.3118],[27.3758,-3.9354,620.8699],[27.3703,-3.9355,617.0524],[27.3685,-3.9389,631.8296],[27.3651,-3.9381,627.9977],[27.3627,-3.9342,612.5342],[27.3613,-3.9354,612.8192],[27.3606,-3.9341,610.1984],[27.3592,-3.9354,618.7376],[27.3466,-3.9353,612.7668],[27.3388,-3.9305,613.9535],[27.3368,-3.9277,607.55],[27.338,-3.9248,607.0474],[27.3346,-3.9271,609.8887],[27.3346,-3.9243,606.9605],[27.3304,-3.9243,607.3254],[27.3295,-3.9223,612.5033],[27.3278,-3.9254,611.4226],[27.324,-3.9215,608.0412],[27.3223,-3.9229,605.975],[27.3203,-3.9219,610.3278],[27.3209,-3.9201,605.0814],[27.3184,-3.9186,607.7443],[27.3191,-3.9167,602.2844],[27.3169,-3.917,606.1895],[27.3164,-3.9156,602.9433],[27.3157,-3.9173,606.1895],[27.3125,-3.9154,603.6013],[27.3097,-3.918,609.3566],[27.3054,-3.9168,603.6941],[27.3034,-3.9187,604.4507],[27.304,-3.9162,605.179],[27.3016,-3.916,601.2627],[27.2981,-3.918,610.0482],[27.2961,-3.9171,606.1091],[27.2918,-3.9205,604.8467],[27.2915,-3.9187,602.0564],[27.2902,-3.9202,608.1624],[27.2882,-3.9176,602.6229],[27.2842,-3.9164,602.3652],[27.2814,-3.9171,597.9467],[27.2816,-3.9186,600.566],[27.2801,-3.9187,602.2363],[27.2803,-3.9167,598.1593],[27.2777,-3.9185,606.5331],[27.2806,-3.9133,609.4199],[27.2773,-3.9121,606.0469],[27.2753,-3.908,609.7136],[27.2689,-3.9085,609.6083],[27.2668,-3.9051,600.4209],[27.2637,-3.9043,603.5561],[27.2623,-3.899,608.229],[27.2604,-3.8994,601.2587],[27.2617,-3.9009,605.6954],[27.2607,-3.9031,611.2508],[27.2534,-3.9033,600.6404],[27.2523,-3.9019,596.7156],[27.2501,-3.9026,599.1245],[27.2497,-3.9045,598.8451],[27.2444,-3.9005,599.9644],[27.2391,-3.9016,604.2338],[27.2379,-3.8995,613.6342],[27.2376,-3.9015,604.2338],[27.236,-3.9,594.8068],[27.2347,-3.9011,602.9691],[27.2342,-3.898,593.1818],[27.2323,-3.8992,600.5139],[27.2317,-3.8972,595.7354],[27.2285,-3.8955,595.6241],[27.2271,-3.898,606.4263],[27.2247,-3.8955,596.1558],[27.2218,-3.8975,597.6945],[27.2218,-3.8952,592.6169],[27.2201,-3.897,592.5178],[27.2207,-3.8987,598.4994],[27.2177,-3.8977,601.0345],[27.2175,-3.8996,601.3024],[27.2143,-3.8985,590.0758],[27.2138,-3.8999,595.8094],[27.2109,-3.8979,591.7343],[27.2117,-3.8968,591.7343],[27.2101,-3.8988,598.2822],[27.2093,-3.8964,590.5803],[27.2064,-3.8973,604.6814],[27.2056,-3.8943,591.5158],[27.2039,-3.8946,605.9449],[27.202,-3.8913,591.736],[27.201,-3.8927,591.736],[27.1975,-3.8884,591.042],[27.1949,-3.8876,589.6112],[27.1946,-3.8891,592.2422],[27.1925,-3.8892,591.4573],[27.1933,-3.8877,590.9208],[27.1912,-3.889,593.5322],[27.1912,-3.8877,588.5719],[27.1887,-3.8893,592.6438],[27.1871,-3.8866,589.6662],[27.1879,-3.8842,589.6772],[27.1859,-3.8831,589.6772],[27.1873,-3.8795,601.637],[27.1861,-3.8769,608.1346],[27.1811,-3.8736,605.7787],[27.1809,-3.87,595.0383],[27.1758,-3.8611,602.9072],[27.1772,-3.8571,597.1807],[27.174,-3.8579,597.0384],[27.1714,-3.8561,602.2676],[27.1697,-3.8578,589.7443],[27.1645,-3.8518,606.879],[27.1644,-3.8504,595.9651],[27.1669,-3.8496,602.6838],[27.1663,-3.8485,605.8386],[27.1624,-3.8502,598.491],[27.1624,-3.8486,597.9005],[27.1642,-3.8481,597.3657],[27.1635,-3.8446,593.3525],[27.1672,-3.8456,602.5078],[27.1637,-3.8424,595.6656],[27.1636,-3.839,591.2734],[27.1652,-3.8373,598.3179],[27.1597,-3.8376,593.7803],[27.1544,-3.8229,596.0627],[27.1525,-3.8212,598.5156],[27.1494,-3.819,597.2742],[27.1442,-3.8185,597.7139],[27.1412,-3.8204,597.1012],[27.1411,-3.8171,601.1502],[27.1441,-3.8127,592.6888],[27.1431,-3.8116,592.6888],[27.1356,-3.8078,599.219],[27.1303,-3.811,619.515],[27.1321,-3.8048,593.1708],[27.1286,-3.8054,601.795],[27.1288,-3.7978,595.7961],[27.1244,-3.7961,597.5372],[27.1212,-3.7893,594.1537],[27.1216,-3.7863,595.7475],[27.1194,-3.7853,581.5292],[27.1171,-3.7872,589.3831],[27.1164,-3.7855,587.9361],[27.1123,-3.7846,598.8653],[27.1134,-3.7824,596.4783],[27.1122,-3.7802,590.6083],[27.1158,-3.7784,590.8368],[27.1167,-3.7749,585.3379],[27.1111,-3.771,592.8856],[27.1125,-3.769,586.9036],[27.1064,-3.7669,589.3148],[27.109,-3.7586,579.9344],[27.1023,-3.7604,590.7881],[27.1021,-3.7524,587.5488],[27.0966,-3.7534,585.4845],[27.0964,-3.7519,581.985],[27.0995,-3.7514,589.8264],[27.0959,-3.7404,594.6805],[27.0881,-3.7356,584.0656],[27.0903,-3.735,596.7377],[27.0908,-3.7327,589.522],[27.0856,-3.7285,600.6932],[27.0866,-3.7271,594.8849],[27.0881,-3.7282,599.666],[27.0904,-3.727,591.5212],[27.0885,-3.725,592.4616],[27.0926,-3.7235,588.0602],[27.0876,-3.7138,587.0622],[27.0874,-3.7105,583.3119],[27.0918,-3.7078,585.8908],[27.0885,-3.7055,578.6566],[27.0893,-3.7027,577.7744],[27.0922,-3.7,586.9949],[27.0974,-3.7022,589.439],[27.0988,-3.6999,581.5319],[27.0961,-3.6983,580.5964],[27.0981,-3.6964,597.0352],[27.097,-3.6913,571.6287],[27.0999,-3.6892,594.2417],[27.0978,-3.688,577.6702],[27.0944,-3.6901,598.8403],[27.0927,-3.6855,578.7894],[27.0965,-3.6837,589.4591],[27.1001,-3.6787,574.0959],[27.0959,-3.6741,585.7716],[27.0995,-3.6698,596.1948],[27.1001,-3.6658,578.8606],[27.1002,-3.6625,578.2858],[27.0976,-3.6591,588.8838],[27.1001,-3.6508,571.4911],[27.0967,-3.6468,567.379],[27.0987,-3.6451,579.1063],[27.0994,-3.6407,572.451],[27.0993,-3.6235,568.735],[27.104,-3.6234,594.6587],[27.1029,-3.6169,576.0212],[27.1095,-3.6136,569.4471],[27.1068,-3.6066,565.3352],[27.1106,-3.6048,566.9176],[27.1112,-3.5948,565.0587],[27.1152,-3.5944,556.3348],[27.1164,-3.5929,581.0701],[27.1149,-3.5899,565.1146],[27.1168,-3.5821,561.5251],[27.1191,-3.5801,559.1794],[27.1248,-3.58,563.4182],[27.1228,-3.5739,569.4157],[27.1272,-3.5736,566.0422],[27.1251,-3.5644,564.6879],[27.1217,-3.5617,586.6843],[27.1215,-3.5584,574.6752],[27.1258,-3.5563,569.2263],[27.1311,-3.5597,574.2798],[27.1346,-3.5594,584.3309],[27.1323,-3.5531,563.9723],[27.135,-3.5465,563.1049],[27.1334,-3.5449,551.7467],[27.1352,-3.5388,559.3497],[27.1286,-3.5409,560.1489],[27.1236,-3.5396,554.5795],[27.1203,-3.5469,566.5544],[27.1183,-3.5452,555.009],[27.1183,-3.5414,553.9734],[27.1168,-3.5397,551.3873],[27.1189,-3.5369,551.6156],[27.1223,-3.5361,563.1152],[27.1259,-3.5314,548.2947],[27.1285,-3.5319,561.5202],[27.1269,-3.5279,570.3227],[27.129,-3.5218,570.0714],[27.1279,-3.5125,572.981],[27.1336,-3.4989,552.9074],[27.1289,-3.4884,539.5],[27.1297,-3.4839,541.7722],[27.1236,-3.4797,541.9046],[27.1236,-3.474,543.9901],[27.1202,-3.4714,544.3069],[27.1209,-3.4628,540.798],[27.1191,-3.4572,542.2998],[27.1231,-3.4532,563.1129],[27.1244,-3.4471,560.9388],[27.1298,-3.4431,556.9937],[27.1323,-3.4267,538.5],[27.1286,-3.4237,538.5],[27.1205,-3.4305,542.3842],[27.1154,-3.4306,546.059],[27.1133,-3.4216,556.8459],[27.1146,-3.4164,584.5865],[27.1187,-3.413,571.6456],[27.1193,-3.4096,538.0],[27.1145,-3.3872,574.6034],[27.1117,-3.3847,569.2828],[27.1082,-3.3846,552.6422],[27.104,-3.389,544.8311],[27.103,-3.3923,546.7945],[27.1006,-3.3928,547.4391],[27.0964,-3.3901,540.3243],[27.0919,-3.3816,549.4992],[27.0933,-3.3764,568.0212],[27.101,-3.3702,556.9444],[27.105,-3.3637,575.2043],[27.0946,-3.3412,549.9169],[27.0954,-3.3272,582.5236],[27.0977,-3.3248,575.7924],[27.0991,-3.318,557.8473],[27.1018,-3.314,557.1865],[27.1109,-3.3081,580.1738],[27.1131,-3.3045,563.9514],[27.1205,-3.3023,562.411],[27.1237,-3.2934,548.5706],[27.1304,-3.2894,573.1461],[27.1347,-3.2826,561.7277],[27.1346,-3.2737,579.6183],[27.1381,-3.2717,583.0195],[27.142,-3.2653,551.327],[27.1374,-3.2623,551.7405],[27.128,-3.2609,564.0334],[27.1105,-3.2456,554.914],[27.1177,-3.2339,545.5573],[27.1167,-3.2294,562.0676],[27.1209,-3.2239,545.2448],[27.1208,-3.2194,552.8887],[27.1233,-3.2131,550.3641],[27.1275,-3.2084,546.8126],[27.1279,-3.2046,550.7592],[27.1255,-3.2022,539.7297],[27.1212,-3.2015,566.1304],[27.1229,-3.1926,580.2651],[27.1225,-3.1897,581.9322],[27.1202,-3.1879,560.1024],[27.1186,-3.1786,553.7383],[27.1211,-3.17,545.5153],[27.1317,-3.1544,548.3724],[27.1298,-3.1448,551.4226],[27.1267,-3.1447,561.8049],[27.1234,-3.1411,566.004],[27.115,-3.1407,558.9616],[27.1117,-3.1365,559.9429],[27.112,-3.1331,544.1057],[27.1228,-3.1155,580.1018],[27.1211,-3.1052,553.16],[27.1225,-3.0974,578.0385],[27.1172,-3.0845,552.9534],[27.1199,-3.0767,559.0317],[27.1137,-3.069,550.1646],[27.0988,-3.0675,554.4048],[27.0954,-3.0657,556.3907],[27.0729,-3.0411,559.9725],[27.0671,-3.0406,538.9001],[27.0622,-3.0447,557.4152],[27.058,-3.0413,575.7756],[27.054,-3.0289,530.5],[27.0606,-3.021,560.704],[27.0582,-3.007,559.7736],[27.0578,-2.9877,540.4082],[27.0577,-2.9893,547.7053],[27.0538,-2.9827,534.3103],[27.049,-2.9786,546.5561],[27.034,-2.9722,542.7256],[27.029,-2.9685,546.4211],[27.0236,-2.9597,543.977],[27.0259,-2.952,540.4601],[27.0245,-2.9492,544.729],[27.0208,-2.9507,527.2532],[27.0159,-2.9611,524.2006],[27.0014,-2.959,534.7244],[26.9984,-2.9455,588.3951],[26.9912,-2.9421,570.1018],[26.9798,-2.9288,576.5747],[26.9758,-2.9026,614.4119],[26.9617,-2.863,657.5552],[26.9571,-2.8368,598.8281],[26.9449,-2.8201,590.8533],[26.9162,-2.8075,578.8954],[26.9151,-2.8042,574.1376],[26.9183,-2.7978,583.4535],[26.9155,-2.7941,582.3574],[26.9187,-2.7913,581.7208],[26.9198,-2.7877,589.1671],[26.927,-2.7824,582.8538],[26.9317,-2.7764,592.1932],[26.9335,-2.7724,588.5587],[26.9333,-2.7683,600.6802],[26.9371,-2.7628,595.8159],[26.9383,-2.7497,596.5634],[26.9458,-2.7397,607.6439],[26.9429,-2.7124,659.7887],[26.9057,-2.6956,638.3285],[26.9007,-2.6861,744.3044],[26.91,-2.6782,773.6276],[26.905,-2.6647,608.2236],[26.8898,-2.6544,596.2563],[26.8816,-2.6449,566.9943],[26.8642,-2.6088,523.4848],[26.8629,-2.6073,519.8163],[26.8566,-2.607,557.9827],[26.8569,-2.6041,516.1321],[26.8598,-2.6021,534.6735],[26.8544,-2.5917,563.0877],[26.8549,-2.5798,571.048],[26.8657,-2.5719,560.6243],[26.871,-2.5632,562.1751],[26.8706,-2.5425,567.76],[26.856,-2.4942,620.0947],[26.8269,-2.4632,627.6861],[26.8202,-2.4465,659.525],[26.8182,-2.3958,684.0184],[26.8241,-2.3783,591.902],[26.8214,-2.3656,579.2842],[26.814,-2.3514,683.8459],[26.8106,-2.3398,549.1139],[26.8206,-2.3405,558.5137],[26.8235,-2.3352,560.827],[26.8261,-2.3347,566.6821],[26.829,-2.3393,568.732],[26.8325,-2.3396,565.401],[26.8357,-2.3352,546.4736],[26.8446,-2.3388,566.3103],[26.848,-2.3335,552.6018],[26.8512,-2.3338,572.41],[26.854,-2.3312,546.8438],[26.8567,-2.331,554.1591],[26.8614,-2.3228,575.0119],[26.862,-2.3133,582.7151],[26.8578,-2.3022,588.4764],[26.8521,-2.2958,662.3107],[26.8512,-2.2887,648.6768],[26.8581,-2.2141,571.1389],[26.8645,-2.1856,563.6314],[26.8656,-2.165,555.6122],[26.868,-2.1589,528.5783],[26.8717,-2.1588,527.6603],[26.873,-2.1613,544.648],[26.8784,-2.1569,531.0154],[26.8928,-2.1555,535.3242],[26.8965,-2.1558,533.6402],[26.9061,-2.1614,533.3379],[26.9131,-2.1584,532.361],[26.9158,-2.1607,532.8575],[26.919,-2.1702,530.7211],[26.9257,-2.1736,526.625],[26.932,-2.181,535.8992],[26.9374,-2.1823,545.3212],[26.9369,-2.1761,558.5051],[26.9338,-2.1757,546.1753],[26.932,-2.1723,540.0383],[26.9343,-2.1678,560.7347],[26.9391,-2.1644,540.2938],[26.9396,-2.1613,534.8031],[26.9346,-2.1554,549.8878],[26.9366,-2.154,554.6351],[26.9376,-2.1504,535.3859],[26.9448,-2.1509,547.8804],[26.9478,-2.144,536.1188],[26.9584,-2.1381,554.756],[26.9633,-2.1291,546.2108],[26.9662,-2.1299,549.1472],[26.969,-2.1347,537.0],[26.9688,-2.1424,539.4138],[26.9715,-2.1488,565.2549],[26.9796,-2.1547,566.4738],[26.9826,-2.1546,559.6099],[26.9842,-2.1525,550.1771],[26.9843,-2.1479,545.853],[26.9777,-2.1396,568.454],[26.9744,-2.1278,542.546],[26.9748,-2.125,543.5857],[26.9769,-2.1239,546.1127],[26.9886,-2.1319,543.3339],[26.9957,-2.1482,555.2884],[26.9983,-2.1505,565.9522],[27.001,-2.1515,557.298],[27.004,-2.1499,540.0],[27.0057,-2.1405,556.5896],[27.01,-2.1374,543.8011],[27.0115,-2.1444,551.3105],[27.015,-2.1454,540.5],[27.0198,-2.1499,548.6611],[27.0208,-2.1614,554.1272],[27.0237,-2.1645,545.5711],[27.0291,-2.1676,546.5261],[27.0351,-2.1645,554.4945],[27.0372,-2.165,541.0],[27.038,-2.1715,541.9354],[27.0433,-2.1761,541.0],[27.0503,-2.1784,550.3682],[27.0565,-2.1784,548.4218],[27.0606,-2.1892,560.9144],[27.0604,-2.2021,568.1133],[27.0624,-2.207,547.8632],[27.0662,-2.2105,546.361],[27.0713,-2.2084,559.263],[27.0752,-2.2015,546.3043],[27.079,-2.2006,557.1292],[27.0879,-2.2052,542.5],[27.0922,-2.2032,542.5],[27.0987,-2.2037,549.1709],[27.1056,-2.2085,552.0685],[27.116,-2.2104,555.1571],[27.1168,-2.2132,548.7585],[27.1108,-2.224,551.7405],[27.1168,-2.2332,545.1036],[27.1236,-2.2366,547.6528],[27.1253,-2.2348,544.9613],[27.1224,-2.2272,546.8751],[27.1231,-2.2232,545.4376],[27.1401,-2.2127,563.3871],[27.1448,-2.2119,552.9335],[27.153,-2.2138,565.1974],[27.153,-2.219,564.3098],[27.1474,-2.2307,548.2725],[27.15,-2.2349,557.3795],[27.1523,-2.2344,548.2042],[27.1528,-2.2258,570.5331],[27.1548,-2.2226,574.4193],[27.159,-2.2218,544.5],[27.1662,-2.2247,562.1078],[27.1683,-2.2215,546.325],[27.1681,-2.2182,544.9358],[27.1714,-2.2165,544.5],[27.1757,-2.2196,574.5969],[27.1719,-2.2288,554.5869],[27.1711,-2.2353,554.0484],[27.1726,-2.2394,545.0],[27.1761,-2.2416,566.0753],[27.1804,-2.2389,550.2302],[27.1804,-2.2285,558.5374],[27.183,-2.2227,578.1923],[27.1908,-2.2191,560.5491],[27.1965,-2.2186,551.8639],[27.1974,-2.2222,549.7887],[27.1873,-2.2277,546.0],[27.1883,-2.2335,551.5224],[27.1937,-2.2343,549.4882],[27.1959,-2.2327,554.7079],[27.1995,-2.2245,577.64],[27.2025,-2.2237,561.2127],[27.2038,-2.2258,546.5],[27.2032,-2.2385,549.8784],[27.2065,-2.2427,552.6624],[27.2084,-2.2408,565.6023],[27.2092,-2.2362,572.6022],[27.2124,-2.2333,547.0],[27.2201,-2.2348,547.0],[27.2273,-2.2385,563.9773],[27.2292,-2.2496,576.5239],[27.2284,-2.2635,552.3561],[27.2314,-2.2693,555.6953],[27.2375,-2.2713,581.5054],[27.24,-2.2701,554.3724],[27.2412,-2.2664,566.03],[27.2412,-2.2538,579.1485],[27.243,-2.2487,574.2808],[27.2521,-2.2411,560.1685],[27.2558,-2.2306,565.8929],[27.2601,-2.2273,555.9791],[27.2642,-2.2266,552.3969],[27.2688,-2.2293,559.86],[27.2686,-2.2338,550.0],[27.2709,-2.2384,569.9266],[27.2789,-2.2389,595.8716],[27.288,-2.2421,600.9805],[27.2946,-2.2293,600.0555],[27.3192,-2.196,595.7641],[27.353,-2.1653,603.3686],[27.3688,-2.1642,698.8289],[27.3847,-2.1671,684.9468],[27.4087,-2.1557,928.1658],[27.4238,-2.1438,1246.818],[27.4526,-2.1305,1251.0953],[27.4534,-2.1205,1282.22],[27.4461,-2.1072,1266.9749],[27.453,-2.0843,1186.7323],[27.4678,-2.0584,1026.0798],[27.4736,-2.041,1159.7585],[27.4724,-2.0339,1173.6101],[27.4564,-2.0291,989.9122],[27.4351,-2.0291,933.3297],[27.3936,-2.0169,870.834],[27.3783,-2.0062,794.6337],[27.3749,-1.9999,812.6152],[27.3809,-1.9912,861.2607],[27.7397,-2.0006,1126.5321],[27.7428,-1.9867,1124.4948],[27.7465,-1.9777,1085.8745],[27.7429,-1.9391,1163.0181],[27.7435,-1.9269,1072.6638],[27.7505,-1.9043,1124.5903],[27.7486,-1.8731,1039.8757],[27.7541,-1.8682,982.98],[27.7547,-1.8638,1039.0939],[27.7517,-1.8588,1035.1721],[27.7517,-1.8556,993.2538],[27.7562,-1.8448,1106.2327],[27.7555,-1.8415,1081.7833],[27.7491,-1.8388,1191.7632],[27.742,-1.831,1182.4454],[27.7413,-1.8269,1126.061],[27.7476,-1.794,979.6467],[27.7467,-1.7894,986.527],[27.7432,-1.7882,1004.2775],[27.7391,-1.7901,985.1212],[27.7366,-1.782,1073.7902],[27.7272,-1.7729,1093.4963],[27.7205,-1.7695,1098.9968],[27.7123,-1.7693,972.4275],[27.6974,-1.7741,1011.4802],[27.694,-1.7709,1028.152],[27.6846,-1.7717,1054.1548],[27.6807,-1.7641,981.0703],[27.6804,-1.7524,982.8751],[27.6738,-1.7459,1102.6841],[27.6733,-1.743,1091.8423],[27.6781,-1.7278,862.4004],[27.6774,-1.7252,856.8232],[27.6728,-1.7211,861.9174],[27.6684,-1.7087,876.9219],[27.659,-1.7106,916.4481],[27.6558,-1.7074,896.038],[27.6553,-1.7053,877.3812],[27.6581,-1.7007,844.6799],[27.6535,-1.6911,894.7244],[27.6454,-1.6867,876.548],[27.623,-1.685,993.8063],[27.618,-1.6813,984.484],[27.6154,-1.6728,1005.8596],[27.6061,-1.6694,946.8187],[27.5973,-1.6588,920.7252],[27.59,-1.6582,864.3378],[27.5873,-1.6564,933.1662],[27.5781,-1.6442,779.5647],[27.574,-1.6444,816.3656],[27.5715,-1.6472,827.8585],[27.5676,-1.6458,861.8312],[27.5607,-1.6369,811.3841],[27.5479,-1.6379,615.08],[27.544,-1.6349,654.505],[27.5408,-1.6271,692.3141],[27.5284,-1.6221,707.9082],[27.5263,-1.6189,681.0045],[27.5256,-1.609,664.7946],[27.5194,-1.6019,632.2139],[27.5153,-1.601,686.0309],[27.5082,-1.5897,733.3183],[27.5063,-1.5837,707.8143],[27.5079,-1.5752,658.4465],[27.4986,-1.5387,683.2171],[27.4722,-1.5075,620.5608],[27.4585,-1.4947,633.4408],[27.4545,-1.4848,641.0693],[27.4522,-1.4664,614.8807],[27.4494,-1.4593,617.9241],[27.4306,-1.4462,617.9148],[27.4115,-1.4581,691.7428],[27.4033,-1.4587,701.2425],[27.3914,-1.4501,624.7872],[27.3558,-1.3793,719.769],[27.3521,-1.3688,653.2141],[27.3469,-1.3608,633.671],[27.3458,-1.3496,616.7218],[27.3482,-1.3392,609.869],[27.3648,-1.3067,637.7637],[27.363,-1.3047,634.0278],[27.3559,-1.3045,620.9294],[27.3453,-1.2974,630.4589],[27.3415,-1.2969,632.6057],[27.3332,-1.2995,646.4557],[27.3264,-1.2977,635.1199],[27.3207,-1.2931,631.8839],[27.3092,-1.2791,614.2363],[27.2961,-1.2729,596.874],[27.2867,-1.2645,587.5281],[27.2824,-1.2521,597.6892],[27.2647,-1.2393,584.23],[27.2608,-1.2317,588.7806],[27.2397,-1.2122,577.8231],[27.2354,-1.2051,572.3401],[27.2271,-1.2049,575.2267],[27.2283,-1.1927,571.2087],[27.2321,-1.1881,547.9698],[27.2506,-1.174,545.0],[27.2652,-1.1728,575.5243],[27.2686,-1.1758,576.1855],[27.2751,-1.1893,547.0],[27.2771,-1.1903,547.0],[27.2876,-1.1838,547.5],[27.2951,-1.1812,577.9106],[27.3027,-1.1814,579.2925],[27.3224,-1.1924,549.5],[27.3272,-1.1924,581.3546],[27.3344,-1.1889,554.2824],[27.3381,-1.1818,580.8474],[27.3335,-1.1715,574.6142],[27.3248,-1.1634,551.5],[27.3215,-1.1556,583.3611],[27.3124,-1.1462,588.0629],[27.295,-1.1355,625.8524],[27.2904,-1.1293,599.6429],[27.2883,-1.1238,597.0482],[27.2841,-1.0923,579.1069],[27.2804,-1.0877,582.5765],[27.2754,-1.0852,583.9528],[27.2683,-1.0784,585.402],[27.2666,-1.0676,579.5015],[27.2698,-1.0611,575.5732],[27.278199999999998,-1.0526,565.3392],[27.2775,-1.0383,569.1978],[27.2685,-1.0181,554.5],[27.2687,-1.0117,556.8918],[27.2767,-0.9958,584.3267],[27.2743,-0.9802,589.1048],[27.2762,-0.9779,591.4648],[27.2821,-0.9802,577.6477],[27.2858,-0.9788,586.9041],[27.2976,-0.9696,582.3392],[27.3108,-0.9551,588.8306],[27.3215,-0.9534,584.0903],[27.3265,-0.9504,586.6754],[27.3345,-0.9502,578.4859],[27.3418,-0.9442,585.0164],[27.3468,-0.9425,582.0819],[27.3569,-0.943,591.7668],[27.366,-0.9473,594.0794],[27.3724,-0.9482,602.5752],[27.3859,-0.9452,600.051],[27.3932,-0.9426,591.309],[27.4094,-0.9299,605.4192],[27.424,-0.9214,596.2177],[27.4417,-0.9135,596.6874],[27.449,-0.9126,595.7302],[27.457,-0.9157,583.2752],[27.4637,-0.9148,607.549],[27.4824,-0.9062,596.1003],[27.4853,-0.9065,601.3419],[27.4997,-0.9004,604.5508],[27.5173,-0.899,589.9263],[27.5218,-0.9011,602.4095],[27.5269,-0.9006,605.4658],[27.5292,-0.9031,602.7358],[27.5433,-0.9095,602.517],[27.5481,-0.9099,596.7012],[27.5554,-0.9051,610.1412],[27.5751,-0.9034,625.2936],[27.5893,-0.9137,626.8431],[27.6071,-0.9159,630.8485],[27.6135,-0.9182,621.9689],[27.6208,-0.9244,624.756],[27.6299,-0.9239,637.7335],[27.6352,-0.9328,631.4178],[27.6384,-0.9344,626.7468],[27.6425,-0.9333,635.011],[27.6462,-0.927,657.2092],[27.6533,-0.9305,719.512],[27.6631,-0.9281,894.9681],[27.6795,-0.9299,945.8663],[27.69,-0.9237,880.7947],[27.698,-0.9154,762.4719],[27.7063,-0.8931,760.4501],[27.7081,-0.8926,643.7542],[27.712,-0.8967,780.1559],[27.7166,-0.8978,680.1332],[27.7203,-0.8948,635.6974],[27.7524,-0.8915,753.3128],[27.7597,-0.8873,865.0974],[27.7663,-0.8857,656.5697],[27.7691,-0.8829,641.8837],[27.7722,-0.8708,763.4245],[27.7671,-0.8409,971.5544],[27.7691,-0.8331,1027.1249],[27.7795,-0.8154,877.6844],[27.7788,-0.8071,813.9575],[27.7831,-0.7928,785.0297],[27.7801,-0.7804,967.6708],[27.7823,-0.7735,972.4219],[27.7896,-0.7611,991.4331],[27.7978,-0.7539,969.0667],[27.8,-0.747,812.0232],[27.8019,-0.7466,791.1608],[27.8053,-0.75,895.2079],[27.8064,-0.7468,847.6616],[27.8041,-0.7394,780.7335],[27.8082,-0.7314,808.9468],[27.8052,-0.7213,785.5092],[27.806,-0.7084,770.9913],[27.8044,-0.6949,822.6235],[27.8055,-0.6903,845.9025],[27.8089,-0.6861,867.9285],[27.8176,-0.6815,865.7843],[27.8269,-0.6739,851.7961],[27.831,-0.6663,818.8516],[27.8273,-0.656,858.4874],[27.8227,-0.6537,873.5765],[27.8244,-0.6252,1088.8162],[27.8308,-0.6114,1007.5271],[27.8346,-0.6098,1046.7716],[27.841,-0.596,881.6271],[27.6605,-0.5954,911.9399],[27.6501,-0.5907,931.26],[27.6353,-0.5868,869.9182],[27.63,-0.58,875.4021],[27.6208,-0.5724,899.1392],[27.6144,-0.5706,906.1028],[27.6014,-0.5729,829.0728],[27.5957,-0.564,855.3441],[27.5781,-0.5565,832.7725],[27.5717,-0.5519,835.3954],[27.5678,-0.548,835.5651],[27.5668,-0.5421,824.7339],[27.562,-0.5393,877.4012],[27.5595,-0.5345,824.293],[27.557,-0.534,844.0171],[27.5529,-0.5361,862.4497],[27.5422,-0.532,821.4159],[27.5358,-0.536,821.5422],[27.5273,-0.5367,796.7465],[27.5191,-0.5415,815.903],[27.4985,-0.5285,811.1833],[27.4983,-0.52,817.8845],[27.4946,-0.5053,820.738],[27.4968,-0.495,808.8017],[27.4952,-0.4927,810.7596],[27.4881,-0.4909,825.1906],[27.4719,-0.4912,824.7247],[27.4598,-0.4942,821.057],[27.4521,-0.5002,793.2117],[27.4466,-0.5011,790.6113],[27.4353,-0.5129,794.4437],[27.4264,-0.5131,771.6616],[27.4198,-0.5166,800.7222],[27.399,-0.5132,795.7397],[27.3933,-0.5162,773.5037],[27.3842,-0.5174,746.1852],[27.3752,-0.5133,744.8745],[27.3586,-0.5156,748.9183],[27.3503,-0.506,748.1226],[27.348,-0.4812,767.2785],[27.3445,-0.4762,772.3849],[27.3393,-0.4723,764.1852],[27.3349,-0.4712,761.3672],[27.3304,-0.473,762.8868],[27.326,-0.4721,748.3997],[27.3205,-0.4643,745.804],[27.3089,-0.4639,738.2047],[27.3004,-0.4527,738.0229],[27.2853,-0.4497,748.8333],[27.2785,-0.4532,750.5741],[27.2678,-0.4516,723.2333],[27.2568,-0.4528,733.9587],[27.2515,-0.4482,738.583],[27.2315,-0.4499,735.3527],[27.2257,-0.4476,757.7469],[27.1931,-0.4466,764.8442],[27.1767,-0.4418,748.0862],[27.141,-0.4242,720.2338],[27.1357,-0.4238,726.0799],[27.1305,-0.4192,746.73],[27.1206,-0.4057,737.2849],[27.1215,-0.4015,736.8344],[27.1178,-0.388,711.7142],[27.1128,-0.3892,719.5238],[27.1037,-0.3862,737.0018],[27.1007,-0.3896,761.7092],[27.0973,-0.3901,754.0818],[27.0952,-0.3881,749.1177],[27.0911,-0.3888,742.6847],[27.0886,-0.386,722.7388],[27.0822,-0.3881,735.4741],[27.0788,-0.3865,778.2885],[27.0728,-0.3801,734.2323],[27.0705,-0.3734,720.5554],[27.0698,-0.3629,712.2169],[27.0737,-0.355,703.4271],[27.0728,-0.3516,673.0263],[27.0679,-0.347,680.6764],[27.0632,-0.3452,686.4037],[27.0713,-0.3353,680.6339],[27.0702,-0.3293,661.5397],[27.0482,-0.3085,689.7094],[27.0386,-0.3094,671.0568],[27.0336,-0.3051,686.5859],[27.0288,-0.3042,658.1148],[27.0107,-0.2868,658.0279],[27.0086,-0.2827,646.5828],[27.0095,-0.2739,690.2839],[27.0025,-0.2717,651.863],[26.994,-0.2758,654.6208],[26.9853,-0.2722,655.8947],[26.9801,-0.2651,624.0665],[26.9771,-0.2697,646.434],[26.9751,-0.2701,637.3134],[26.9725,-0.2683,628.0024],[26.9678,-0.2697,640.0701],[26.9563,-0.266,639.9018],[26.9499,-0.2578,657.8031],[26.9419,-0.2583,653.761],[26.9367,-0.2555,646.2585],[26.9275,-0.2464,625.803],[26.9202,-0.2439,583.4478],[26.9058,-0.229,557.1187],[26.9035,-0.2294,563.5448],[26.8956,-0.2416,563.5557],[26.889,-0.2405,577.6989],[26.8876,-0.2325,594.5938],[26.8857,-0.2304,572.4588],[26.875,-0.2254,662.6202],[26.8706,-0.2197,669.4089],[26.8572,-0.2107,694.3854],[26.8512,-0.2142,713.2659],[26.8458,-0.2142,716.7448],[26.846,-0.2057,701.5752],[26.8325,-0.209,693.8557],[26.8289,-0.2133,662.212],[26.828,-0.2179,663.5541],[26.8284,-0.2264,674.3304],[26.831,-0.2345,625.4434],[26.8337,-0.2379,640.5156],[26.8472,-0.2454,627.6796],[26.8484,-0.2505,564.1102],[26.8409,-0.2592,545.6606],[26.8254,-0.2657,549.305],[26.8165,-0.2669,552.6873],[26.8119,-0.265,551.4905],[26.8037,-0.257,696.8739],[26.7998,-0.2568,678.5771],[26.7952,-0.2529,669.0793],[26.7906,-0.2525,651.6345],[26.7772,-0.2589,652.7612],[26.7553,-0.2739,642.4338],[26.7501,-0.2872,620.5428],[26.746,-0.2914,630.0767],[26.7091,-0.3161,550.6639],[26.666,-0.327,549.0673],[26.6168,-0.357,559.6795],[26.6148,-0.3521,557.4232],[26.5922,-0.3609,536.7006],[26.5821,-0.3684,551.2509],[26.5599,-0.3784,533.6685],[26.54,-0.3766,538.2889],[26.5249,-0.3833,521.5668],[26.5151,-0.3831,517.0979],[26.4981,-0.3787,528.3311],[26.4902,-0.3817,533.9648],[26.4708,-0.3843,533.8229],[26.4679,-0.3827,535.683],[26.4574,-0.3818,540.9026],[26.4544,-0.3798,530.251],[26.453,-0.3745,529.4854],[26.4484,-0.3683,532.0901],[26.4425,-0.3469,529.1337],[26.4368,-0.3393,525.5418],[26.4317,-0.3364,521.8964],[26.4328,-0.3314,527.9645],[26.4299,-0.3261,511.351],[26.4314,-0.3217,509.604],[26.4307,-0.3192,509.7919],[26.4252,-0.3182,521.2328],[26.4187,-0.3196,531.7054],[26.4079,-0.3121,549.0524],[26.4051,-0.3069,548.6595],[26.399,-0.3089,550.7501],[26.386,-0.3046,545.7882],[26.3821,-0.3018,555.5106],[26.3798,-0.2955,565.8057],[26.3701,-0.283,575.6652],[26.3698,-0.2791,567.192],[26.3629,-0.2732,568.6764],[26.3437,-0.2607,522.268],[26.3361,-0.2672,520.427],[26.3265,-0.2587,518.9628],[26.3208,-0.2399,515.8391],[26.3217,-0.2281,538.226],[26.3167,-0.2248,541.6276],[26.3128,-0.2195,501.5696],[26.3091,-0.2074,512.7384],[26.3098,-0.2021,530.7352],[26.3013,-0.192,509.5527],[26.2949,-0.1958,510.7328],[26.283,-0.1981,528.6802],[26.2795,-0.2003,519.0327],[26.273,-0.1995,527.1426],[26.2702,-0.1945,506.6022],[26.2679,-0.1809,525.083],[26.2649,-0.1769,526.96],[26.2585,-0.1746,507.7559],[26.2546,-0.1623,514.6841],[26.2527,-0.1605,508.4899],[26.2435,-0.1589,498.7783],[26.2301,-0.1445,495.9917],[26.2263,-0.137,508.9915],[26.223,-0.1365,505.08],[26.2188,-0.1421,505.1738],[26.215699999999998,-0.1428,501.8574],[26.2128,-0.1397,498.6538],[26.2122,-0.1295,505.3273],[26.2092,-0.1329,499.2765],[26.2057,-0.1342,503.146],[26.1972,-0.1315,526.1415],[26.1926,-0.1323,516.8121],[26.1922,-0.1303,521.6678],[26.1978,-0.1205,500.8242],[26.1948,-0.1143,511.6445],[26.1945,-0.1063,508.0154],[26.1882,-0.1102,504.4116],[26.1832,-0.1109,505.3826],[26.1736,-0.0942,519.9687],[26.1706,-0.0942,518.9885],[26.166,-0.0995,525.5222],[26.1498,-0.0929,505.1502],[26.1432,-0.0933,492.8079],[26.1448,-0.0828,495.556],[26.1402,-0.0773,502.6123],[26.1364,-0.0766,513.0184],[26.1341,-0.0859,516.8225],[26.1322,-0.087,515.346],[26.1236,-0.0852,497.711],[26.1226,-0.0799,494.4855],[26.1169,-0.0828,485.9591],[26.1112,-0.0758,489.1538],[26.1014,-0.0765,507.3651],[26.0971,-0.0659,491.5269],[26.095,-0.0542,514.5012],[26.0918,-0.0507,512.2974],[26.0806,-0.053,515.8551],[26.0784,-0.0498,514.4355],[26.0865,-0.0443,503.5698],[26.0895,-0.0402,491.5098],[26.0911,-0.0321,493.3324],[26.0894,-0.0314,493.3324],[26.0839,-0.0356,505.973],[26.0795,-0.0369,523.3865],[26.065,-0.034,505.1695],[26.0641,-0.0308,487.2227],[26.0702,-0.0307,501.6277],[26.0736,-0.0274,477.0204],[26.0721,-0.0228,492.3456],[26.0643,-0.0143,491.1467],[26.0571,-0.0138,487.4752],[26.0582,-0.0235,506.0539],[26.0564,-0.0297,487.6297],[26.0516,-0.0363,484.8242],[26.0396,-0.0396,516.5542],[26.0336,-0.049,505.5373],[26.0356,-0.0606,498.2655],[26.0482,-0.0859,507.68],[26.065,-0.1613,516.7734],[26.0818,-0.1984,496.4947],[26.0928,-0.2096,490.4501],[26.0997,-0.2199,488.6657],[26.1042,-0.2243,490.6612],[26.115,-0.227,491.9601],[26.1246,-0.2373,490.4436],[26.1358,-0.2559,504.4683],[26.1422,-0.2626,516.2762],[26.1577,-0.2703,521.6189],[26.1708,-0.2841,512.1241],[26.1649,-0.297,510.2963],[26.1542,-0.3117,491.9396],[26.151,-0.3218,512.3749],[26.1312,-0.3496,513.5126],[26.126,-0.3556,528.6621],[26.1141,-0.3646,517.7088],[26.1091,-0.3726,529.0155],[26.1236,-0.3897,530.9887],[26.1523,-0.415,529.0945],[26.1883,-0.4371,537.2819],[26.2735,-0.4984,555.0478],[26.2737,-0.5041,551.9607],[26.2674,-0.526,581.5206],[26.2579,-0.577,548.9062],[26.2586,-0.5944,539.2032],[26.2566,-0.6248,519.0117],[26.2521,-0.6356,525.6514],[26.2407,-0.6491,515.2104],[26.2359,-0.6641,531.6079],[26.2302,-0.668,513.9738],[26.2376,-0.6877,530.8764],[26.239,-0.7123,509.3381],[26.237,-0.7745,511.4155],[26.245,-0.8269,487.1188],[26.249,-0.8399,502.474],[26.2597,-0.8555,507.0812],[26.2437,-0.8943,530.59],[26.2283,-0.9111,544.5096],[26.2096,-0.9227,526.9329],[26.1851,-0.9291,514.303],[26.1701,-0.9298,526.7533],[26.1634,-0.9326,507.9306],[26.1461,-0.9491,522.6376],[26.1263,-0.9545,520.3557],[26.1128,-0.9531,515.5195],[26.0736,-0.9625,512.3046],[26.0829,-1.0907,511.9659],[26.1323,-1.1167,537.1214],[26.141,-1.1329,531.9069],[26.1323,-1.1413,508.111],[26.1116,-1.1477,521.6138],[26.0869,-1.1477,534.3558],[26.0803,-1.1554,536.8212],[26.0743,-1.1917,530.8971],[26.0603,-1.2389,527.8293],[26.0589,-1.2596,500.4715],[26.0796,-1.2648,488.4078],[26.0819,-1.2813,464.9681],[26.0746,-1.2825,483.6238],[26.0694,-1.288,487.9101],[26.0692,-1.3014,501.7963],[26.0667,-1.3103,506.4645],[26.0717,-1.3269,456.5],[26.0674,-1.3471,481.4879],[26.0696,-1.3848,455.5],[26.0659,-1.394,507.3292],[26.0616,-1.397,500.8615],[26.0522,-1.3977,488.4542],[26.0301,-1.3945,486.8348],[26.0237,-1.3989,484.5508],[26.0173,-1.4076,463.2772],[26.0173,-1.4113,497.58],[26.0264,-1.424,500.0486],[26.0342,-1.4297,500.6735],[26.039,-1.4439,512.067],[26.034,-1.4582,517.4344],[26.0279,-1.463,517.6467],[26.0183,-1.4656,515.6345],[26.0142,-1.4686,494.5244],[26.0137,-1.4727,500.7109],[26.0167,-1.4833,484.7175],[26.0154,-1.4881,497.7267],[25.9994,-1.5008,491.095],[25.9852,-1.5013,451.8751],[25.982,-1.5026,455.0479],[25.9583,-1.4942,435.5],[25.9336,-1.4953,492.1257],[25.9285,-1.4908,494.5146],[25.929,-1.4786,485.041],[25.92,-1.4708,482.644],[25.9013,-1.4616,481.5495],[25.8928,-1.4543,465.8248],[25.8896,-1.432,509.2167],[25.8788,-1.4258,483.5218],[25.8655,-1.4138,481.3634],[25.861,-1.4115,468.1844],[25.8599,-1.4377,478.3427],[25.8663,-1.4649,476.9373],[25.8632,-1.4791,488.1025],[25.8568,-1.4925,476.2371],[25.8548,-1.506,481.5645],[25.8663,-1.5787,476.8904],[25.8687,-1.6394,481.4102],[25.863,-1.6555,471.2058],[25.8633,-1.6686,475.0853],[25.8619,-1.669,476.5012],[25.8494,-1.7003,466.6644],[25.848,-1.7088,472.3462],[25.852,-1.7661,480.6796],[25.8434,-1.833,489.9848],[25.8233,-1.8339,483.4847],[25.8011,-1.8432,459.6173],[25.7902,-1.8425,428.5],[25.7872,-1.8409,428.5],[25.7723,-1.8239,468.6946],[25.7659,-1.8193,472.1223],[25.7604,-1.8177,472.1378],[25.7424,-1.8184,479.7341],[25.7302,-1.8216,480.4646],[25.72,-1.8221,482.9828],[25.7133,-1.8247,479.992],[25.699,-1.8392,482.5079],[25.6775,-1.8507,489.0645],[25.6743,-1.8546,477.9968],[25.6707,-1.8753,476.1556],[25.6675,-1.8815,468.173],[25.6565,-1.8923,471.4217],[25.6234,-1.9052,471.3649],[25.6131,-1.9112,467.0445],[25.6015,-1.9218,472.4101],[25.5715,-1.9237,487.4565],[25.5635,-1.9285,483.2856],[25.5564,-1.9299,467.9206],[25.5345,-1.9515,491.0288],[25.518,-1.9557,492.3922],[25.5098,-1.9608,493.976],[25.5011,-1.9619,501.0394],[25.4961,-1.9642,499.8439],[25.4783,-1.9803,481.3181],[25.4694,-1.9937,485.0456],[25.4577,-2.0054,490.4057],[25.4481,-2.0112,484.2098],[25.4399,-2.0199,487.1159],[25.4303,-2.0342,491.9113],[25.4226,-2.0547,496.9705],[25.3298,-2.0811,477.1966],[25.2401,-2.112,460.7988],[25.2321,-2.0759,453.3127],[25.2116,-2.0861,461.8017],[25.2004,-2.088,465.8149],[25.1852,-2.0835,458.0224],[25.1759,-2.0777,465.1466],[25.1753,-2.0687,464.3546],[25.1726,-2.0623,479.8484],[25.1786,-2.0514,473.0464],[25.209,-2.0277,459.1686],[25.2076,-2.02,470.6336],[25.1984,-2.0143,453.6042],[25.1971,-2.0098,463.2277],[25.2017,-1.9925,454.0424],[25.1971,-1.9828,453.1295],[25.1885,-1.9803,477.8994],[25.1601,-1.9853,458.0018],[25.135,-1.9853,479.2314],[25.1184,-1.9763,467.7899],[25.0867,-1.9749,466.1327],[25.0682,-1.9755,476.1995],[25.0557,-1.9806,483.2988],[25.0491,-1.9703,489.3928],[25.0245,-1.9686,481.5561],[24.9899,-1.9747,501.978],[24.9839,-1.977,493.517],[24.9782,-1.9816,496.4962],[24.5984,-1.9808,611.1696],[24.6087,-2.0647,577.7173],[24.6216,-2.0911,631.7551],[24.6636,-2.1395,573.0983],[24.6811,-2.1896,551.0165],[24.6896,-2.3225,514.064],[24.6943,-2.3625,492.7051],[24.7062,-2.3689,504.0192],[24.7199,-2.3653,514.7762],[24.7846,-2.3692,488.2499],[24.8685,-2.3695,496.1324],[24.926,-2.3724,480.9192],[24.9315,-2.3742,479.9568],[24.9315,-2.3979,478.6584],[24.9607,-2.3989,482.0244],[24.979,-2.4163,463.8589],[24.9891,-2.4208,463.6997],[25.0263,-2.4135,466.6948],[25.0483,-2.4119,464.8679],[25.0493,-2.4247,469.7382],[25.0329,-2.4444,439.0],[25.0049,-2.4643,471.0622],[24.9995,-2.4723,463.704],[25.0027,-2.4862,442.6515],[25.018,-2.4928,464.4384],[25.0378,-2.4917,465.7516],[25.0467,-2.4963,448.8219],[25.0344,-2.5095,465.7792],[25.0039,-2.5308,470.0718],[25.0017,-2.5453,459.9027],[25.0068,-2.5622,442.5322],[25.036,-2.5836,464.2466],[25.047,-2.595,467.0609],[25.0588,-2.6024,467.8766],[25.0743,-2.6007,465.1367],[25.0773,-2.6311,482.8079],[25.0828,-2.6458,477.7224],[25.0814,-2.6573,472.3681],[25.0835,-2.6686,460.8322],[25.0823,-2.6805,476.5846],[25.0869,-2.6971,481.9173],[25.0867,-2.7024,465.4052],[25.0954,-2.7309,464.5426],[25.097,-2.7428,461.9237],[25.1101,-2.7615,458.1266],[25.1124,-2.7744,470.7222],[25.1081,-2.7872,454.2325],[25.1049,-2.8109,475.0164],[25.1026,-2.8167,451.9511],[25.0944,-2.8231,450.9543],[25.0884,-2.8307,478.7904],[25.0866,-2.8416,473.2608],[25.0724,-2.8675,479.0502],[25.0688,-2.8777,478.8599],[25.0649,-2.9034,483.985],[25.0505,-2.9294,490.0677],[25.0432,-2.9515,473.5721],[25.0329,-2.9739,471.0125],[25.0247,-2.9849,452.5],[25.0231,-2.9992,469.0086],[25.0167,-3.0155,472.3819],[25.0091,-3.0212,460.6338],[25.0074,-3.0243,466.1804],[25.0079,-3.0298,472.6601],[25.0117,-3.0337,463.1429],[25.019,-3.0378,470.9834],[25.0313,-3.0401,461.7281],[25.0318,-3.0417,461.705],[25.0277,-3.047,477.1745],[25.0272,-3.05,472.0077],[25.0368,-3.0659,463.1772],[25.0364,-3.0744,472.1013],[25.0343,-3.0781,461.2212],[25.0309,-3.0776,467.2484],[25.0183,-3.0657,454.0],[25.0137,-3.0634,458.1363],[25.0089,-3.0636,461.7961],[25.0012,-3.0742,454.0],[25.0017,-3.078,457.735],[25.0046,-3.0813,468.0815],[25.0147,-3.085,454.0],[25.0192,-3.0887,459.2071],[25.0208,-3.0926,455.511],[25.0183,-3.1057,479.4648],[25.0085,-3.1165,472.0601],[25.0076,-3.1207,477.8156],[25.009,-3.1236,458.0566],[25.0236,-3.134,457.1265],[25.0232,-3.1386,462.1129],[25.0202,-3.1427,468.1463],[25.0071,-3.1462,483.8831],[25.0,-3.1529,475.7739],[24.9982,-3.1632,467.57],[24.9989,-3.1738,472.8986],[24.9971,-3.1851,464.5082],[24.9948,-3.1892,464.2075],[24.99,-3.1927,476.2365],[24.9696,-3.1934,465.726],[24.9662,-3.1954,470.1013],[24.9644,-3.2014,476.1309],[24.9699,-3.2178,464.2998],[24.9674,-3.2235,462.6404],[24.9587,-3.2339,479.366],[24.9575,-3.2401,478.7639],[24.9632,-3.2569,473.2539],[24.9635,-3.2617,481.3749],[24.9603,-3.2679,469.7601],[24.9562,-3.2698,466.0505],[24.9491,-3.2693,473.7493],[24.941,-3.2645,482.1099],[24.925,-3.2629,475.5974],[24.9122,-3.2652,460.0069],[24.9019,-3.2741,483.0678],[24.8982,-3.282,475.294],[24.8966,-3.2898,475.6962],[24.8978,-3.293,467.3849],[24.9017,-3.2955,468.0936],[24.9156,-3.296,465.3295],[24.9179,-3.3004,467.4954],[24.9097,-3.3107,463.3106],[24.9079,-3.3172,472.8295],[24.9101,-3.3314,463.2691],[24.9063,-3.3459,476.409],[24.9065,-3.3636,472.1067],[24.9031,-3.3712,472.5364],[24.8997,-3.3738,472.204],[24.8717,-3.3749,475.1211],[24.8676,-3.3777,482.5124],[24.8648,-3.3837,476.8006],[24.86,-3.4083,480.5926],[24.8552,-3.4198,487.3732],[24.8507,-3.4239,499.9254],[24.8371,-3.4255,493.6043],[24.8339,-3.4281,484.1261],[24.834,-3.4444,506.633],[24.8307,-3.4541,507.2482],[24.8248,-3.4589,498.8391],[24.8163,-3.4591,465.687],[24.8023,-3.4543,487.6991],[24.7982,-3.455,483.8384],[24.7744,-3.4757,470.7578],[24.7726,-3.4822,486.2982],[24.7751,-3.4856,488.7023],[24.7799,-3.4902,483.4471],[24.7891,-3.4941,464.5707],[24.7985,-3.5042,467.2692],[24.8001,-3.5187,491.1656],[24.8076,-3.5328,489.481],[24.8058,-3.5369,481.4551],[24.7939,-3.5397,479.9514],[24.7921,-3.5427,483.9409],[24.793,-3.5477,467.739],[24.7912,-3.5523,460.731],[24.7877,-3.5491,471.8658],[24.7831,-3.5496,474.6962],[24.777,-3.5454,469.6708],[24.774,-3.5457,471.2339],[24.7733,-3.548,479.0345],[24.7786,-3.5613,459.5],[24.7772,-3.5643,463.7372],[24.7715,-3.5654,465.6004],[24.7694,-3.5682,463.3138],[24.7757,-3.5756,464.1649],[24.7777,-3.5797,462.5545],[24.7772,-3.5845,465.0412],[24.7703,-3.5875,460.5],[24.7669,-3.5912,465.9995],[24.7692,-3.594,478.5842],[24.7733,-3.5949,460.5],[24.7838,-3.5942,464.2387],[24.7827,-3.6025,462.3905],[24.7882,-3.6105,463.0219],[24.7882,-3.6138,462.9951],[24.7859,-3.6184,466.8803],[24.7807,-3.6204,463.396],[24.7788,-3.6243,473.1544],[24.7811,-3.6283,463.5041],[24.7917,-3.6273,463.1488],[24.788,-3.6324,462.9092],[24.7882,-3.6365,466.1147],[24.7967,-3.6399,464.6035],[24.7978,-3.6444,465.1889],[24.7958,-3.648,463.6615],[24.7862,-3.6515,464.9469],[24.7857,-3.6561,468.553],[24.7889,-3.66,464.9038],[24.7995,-3.6577,465.3596],[24.804,-3.6589,468.8343],[24.8075,-3.6665,471.2264],[24.8059,-3.6722,470.0275],[24.7974,-3.6761,465.8443],[24.7951,-3.6789,464.2309],[24.8011,-3.6904,468.0657],[24.7976,-3.6991,470.71],[24.7972,-3.7109,474.6971],[24.7814,-3.707,469.7107],[24.778199999999998,-3.7081,471.9903],[24.7761,-3.7152,465.9529],[24.7676,-3.7233,474.0737],[24.7663,-3.7373,467.0327],[24.7612,-3.7343,467.4171],[24.758,-3.7343,468.0924],[24.7546,-3.7362,474.4236],[24.7516,-3.741,473.844],[24.7527,-3.7435,464.1698],[24.7635,-3.7447,466.7106],[24.7651,-3.7468,466.8455],[24.7621,-3.755,469.6181],[24.753,-3.7594,473.4064],[24.7473,-3.776,477.04],[24.7427,-3.7822,474.4081],[24.7406,-3.7815,471.9038],[24.7381,-3.7758,469.4933],[24.7316,-3.7747,500.4753],[24.7305,-3.7808,482.1499],[24.7337,-3.7907,467.4565],[24.7422,-3.7997,467.5371],[24.7413,-3.8057,472.0319],[24.7431,-3.8107,470.6501],[24.7484,-3.8096,473.5686],[24.7555,-3.8183,468.1377],[24.759,-3.8174,470.2092],[24.7615,-3.8146,467.3734],[24.764,-3.8146,466.5602],[24.7649,-3.8183,464.7288],[24.7613,-3.8257,468.259],[24.7645,-3.8271,466.5926],[24.7734,-3.8252,468.128],[24.7794,-3.8273,469.4778],[24.7814,-3.8305,468.232],[24.7794,-3.8337,472.7334],[24.7663,-3.8356,468.4131],[24.767,-3.8381,468.0742],[24.7821,-3.8432,464.5],[24.7961,-3.8446,471.585],[24.8197,-3.8542,476.0205],[24.8222,-3.859,468.5795],[24.8204,-3.8625,472.2253],[24.8121,-3.8579,464.5],[24.8078,-3.8574,471.2314],[24.803,-3.8604,469.9027],[24.8009,-3.8694,474.0224],[24.803,-3.8763,471.6263],[24.8133,-3.8839,472.41],[24.8177,-3.8899,482.1491],[24.8239,-3.9094,470.442],[24.8303,-3.9166,476.2233],[24.8367,-3.9196,482.1896],[24.8436,-3.9186,482.0382],[24.8477,-3.9078,484.542],[24.8511,-3.9051,469.5673],[24.8543,-3.9067,471.989],[24.8585,-3.9177,476.718],[24.853,-3.9347,477.3593],[24.8539,-3.9396,495.8121],[24.858,-3.9449,467.827],[24.8715,-3.9439,473.6258],[24.8881,-3.9596,487.2209],[24.8874,-3.9667,486.4661],[24.889,-3.9683,488.636],[24.9009,-3.9699,479.1661],[24.9062,-3.9769,477.9214],[24.9059,-3.9798,472.4233],[24.8995,-3.986,484.6437],[24.8954,-4.0022,529.8345],[24.8956,-4.0091,517.8928],[24.8975,-4.0121,518.7576],[24.905,-4.0137,479.5291],[24.9083,-4.0201,481.5352],[24.9163,-4.0229,476.6767],[24.9209,-4.044,514.64],[24.9239,-4.0468,503.9257],[24.9268,-4.047,515.3378],[24.9328,-4.0447,489.8611],[24.9397,-4.0445,477.4072],[24.9454,-4.0323,490.0979],[24.9468,-4.0302,502.1028],[24.9493,-4.03,475.294],[24.952,-4.0321,481.0496],[24.9624,-4.033,484.1444],[24.9651,-4.0346,483.8954],[24.9713,-4.0461,485.9757],[24.98,-4.0479,485.144],[24.9816,-4.0507,481.4454],[24.9796,-4.0558,486.999],[24.9839,-4.065,528.8043],[24.9839,-4.0707,487.8635],[24.9729,-4.1015,504.1145],[24.9768,-4.1084,513.9707],[24.9924,-4.111,496.4177],[24.9979,-4.1149,483.4542],[25.0007,-4.119,497.308],[25.0016,-4.1252,488.8589],[25.0,-4.1324,483.03],[24.9954,-4.1381,484.1203],[24.9849,-4.1455,515.2263],[24.984,-4.1492,512.0128],[24.9863,-4.1572,507.041],[24.989,-4.16,507.3872],[25.0131,-4.169,479.5061],[25.0159,-4.1724,483.2894],[25.0131,-4.1765,480.8236],[25.0021,-4.183,485.8924],[25.0097,-4.1975,494.2075],[25.0069,-4.2051,500.4074],[25.0014,-4.2092,486.5792],[24.9989,-4.2134,507.5721],[25.0053,-4.2226,500.5095],[25.0015,-4.2308,508.6231],[25.009,-4.2442,498.8441],[25.0067,-4.2518,493.0907],[25.0132,-4.266,496.8268],[25.0191,-4.2702,487.2827],[25.0205,-4.2732,486.6133],[25.0175,-4.2819,486.9879],[24.9946,-4.3118,492.2863],[24.991,-4.3351,483.438],[24.9937,-4.3597,482.1512],[24.9917,-4.3682,482.1214],[24.9729,-4.3855,490.3117],[24.9736,-4.3931,487.1408],[24.9791,-4.4025,486.6584],[24.9947,-4.4158,488.1536],[24.9952,-4.4186,500.569],[24.9915,-4.4255,488.0],[24.9924,-4.4283,495.4721],[25.0076,-4.4425,503.3613],[25.005,-4.4478,499.6684],[24.9991,-4.4504,492.0],[24.9984,-4.4536,504.7714],[25.0021,-4.4607,494.4893],[25.0,-4.466,502.4965],[24.9879,-4.4731,492.5],[24.9782,-4.472,497.9521],[24.9725,-4.483,513.1073],[24.9679,-4.4812,504.838],[24.9652,-4.4821,510.8419],[24.9613,-4.4948,509.8763],[24.9537,-4.5019,506.5847],[24.9292,-4.5196,529.1607],[24.9274,-4.5277,495.5228],[24.9221,-4.5334,506.3419],[24.928,-4.5415,494.0],[24.9274,-4.5468,500.4538],[24.9177,-4.5463,512.6343],[24.9163,-4.5495,504.3838],[24.9205,-4.5615,505.3202],[24.9175,-4.5682,510.1232],[24.9168,-4.567,507.7525],[24.9122,-4.5673,506.7985],[24.9086,-4.5647,510.5089],[24.9058,-4.5652,504.4174],[24.9021,-4.5762,508.4616],[24.8973,-4.5838,497.8653],[24.89,-4.5866,498.0406],[24.8831,-4.5871,495.0],[24.8788,-4.5896,496.2203],[24.8801,-4.597,495.5],[24.8783,-4.6013,497.4446],[24.8721,-4.6027,506.6216],[24.871,-4.6052,501.5062],[24.8735,-4.6101,496.2994],[24.8723,-4.6128,498.5094],[24.868,-4.616,510.4775],[24.8639,-4.6271,499.4441],[24.859,-4.6338,500.2446],[24.8639,-4.6425,502.5116],[24.8595,-4.6455,498.482],[24.8597,-4.6542,500.8578],[24.8579,-4.6607,515.6025],[24.8593,-4.6655,499.2234],[24.8676,-4.6726,503.3076],[24.8696,-4.6812,496.5],[24.8735,-4.6862,514.5465],[24.8653,-4.6911,505.4077],[24.8639,-4.6943,507.636],[24.8731,-4.7026,506.65],[24.8804,-4.7145,497.7993],[24.8878,-4.7154,516.2423],[24.8898,-4.7194,505.4141],[24.8882,-4.724,500.8968],[24.8901,-4.729,499.6955],[24.8963,-4.7368,499.7232],[24.8953,-4.7444,500.5706],[24.9018,-4.7564,500.0689],[24.9096,-4.7658,498.687],[24.9236,-4.7688,502.7084],[24.9266,-4.7725,505.8555],[24.9296,-4.7868,503.1878],[24.9325,-4.7902,500.0668],[24.9415,-4.793,506.0924],[24.9491,-4.7992,504.2393],[24.9603,-4.7992,506.546],[24.9633,-4.8063,504.6428],[24.9764,-4.8173,508.9115],[24.9775,-4.8263,502.0085],[24.9837,-4.8353,505.519],[24.9844,-4.8449,503.3464],[24.9867,-4.85,508.6219],[25.0111,-4.8742,525.8753],[25.0164,-4.891,515.153],[25.0127,-4.9082,509.4174],[25.0148,-4.917,508.3806],[25.0205,-4.9227,517.0004],[25.0288,-4.9271,510.6017],[25.0308,-4.9411,508.1988],[25.0398,-4.9526,513.5197],[25.0416,-4.9676,505.4266],[25.0527,-4.9786,515.5507],[25.0609,-4.9837,530.3258],[25.0614,-4.9866,534.2867],[25.6585,-4.9989,576.5684],[26.0471,-4.9991,564.644]]]]}
,"properties": {"GID_1": "COD.17_1","GID_0": "COD","country": "DemocraticRepublicoftheCongo","province": "Maniema","VARNAME_1": "NA","NL_NAME_1": "NA","TYPE_1": "Province","ENGTYPE_1": "Province","CC_1": "NA","HASC_1": "CD.MN","ISO_1": "NA","name": "Maniema.province","area_km2": 128165.04,"hist_schema_id": "Elevation0-9000","hist_area_km2": {"425": 97.5,"450": 869.26,"475": 8048.32,"500": 18514.26,"525": 20821.73,"550": 17012.88,"575": 13398.94,"600": 10290.45,"625": 7069.23,"650": 4813.99,"675": 4095.74,"700": 4070.11,"725": 3076.06,"750": 2746.68,"775": 2369.97,"800": 1774.76,"825": 1443.45,"850": 1174.83,"875": 916.19,"900": 716.5,"925": 648.01,"950": 619.44,"975": 563.35,"1000": 499.76,"1025": 413.87,"1050": 339.89,"1075": 311.6,"1100": 283.62,"1125": 259.62,"1150": 221.59,"1175": 202.31,"1200": 168.77,"1225": 126.97,"1250": 89.82,"1275": 50.35,"1300": 26.7,"1325": 11.72,"1350": 4.75,"1375": 1.97}}}