{"type": "Feature","bbox": [28.0324,-7.1327,29.6549,-5.0079],"geometry": {"type": "MultiPolygon","coordinates": [[[[28.407,-5.0197,811.611],[28.4111,-5.0213,815.9103],[28.4121,-5.0275,810.728],[28.4153,-5.0289,807.9477],[28.4202,-5.036,818.22],[28.4259,-5.0362,801.2098],[28.4298,-5.0401,802.4156],[28.4329,-5.0546,812.4067],[28.4366,-5.0592,820.0544],[28.4442,-5.0644,791.1861],[28.4564,-5.0789,789.2087],[28.4517,-5.0995,846.6789],[28.4097,-5.1317,1121.2681],[28.3842,-5.1541,1085.2631],[28.3922,-5.1788,1156.6917],[28.401,-5.1875,1089.2711],[28.4105,-5.1868,1117.2297],[28.4511,-5.2046,1046.0598],[28.4755,-5.2042,864.0922],[28.5439,-5.2098,790.7832],[28.561,-5.2267,802.0347],[28.5617,-5.2652,849.3038],[28.547,-5.2854,845.6616],[28.5205,-5.3137,962.2417],[28.5363,-5.3111,891.4785],[28.5475,-5.3138,874.7578],[28.5562,-5.3117,859.4837],[28.5652,-5.3144,849.3574],[28.5781,-5.3141,836.012],[28.592,-5.3085,812.5082],[28.5987,-5.3087,807.8929],[28.6054,-5.3172,806.0093],[28.6137,-5.3162,797.9726],[28.6062,-5.3333,800.6187],[28.6028,-5.3526,816.9989],[28.577,-5.3685,842.8124],[28.5663,-5.377,853.0922],[28.5555,-5.3877,901.416],[28.5515,-5.4002,906.0646],[28.5431,-5.4129,972.9824],[28.5166,-5.4289,1084.0479],[28.5082,-5.437,1034.8719],[28.4936,-5.4569,978.6561],[28.4828,-5.4754,925.6648],[28.4707,-5.491,936.893],[28.4621,-5.4973,1020.02],[28.4577,-5.5237,1101.6042],[28.4637,-5.5419,1120.5358],[28.491,-5.5634,1126.3855],[28.4992,-5.5851,1160.161],[28.4952,-5.6029,1143.9358],[28.4901,-5.6137,1116.2035],[28.4917,-5.6279,939.3528],[28.5007,-5.6387,920.6525],[28.511,-5.6466,1176.1395],[28.5182,-5.6484,1257.0718],[28.5228,-5.6536,1243.521],[28.5469,-5.7094,1097.7141],[28.5937,-5.7837,1109.3809],[28.6084,-5.8029,1068.7683],[28.6028,-5.8075,1013.0245],[28.58,-5.809,980.2596],[28.567,-5.8065,994.8603],[28.5341,-5.7862,914.9037],[28.5121,-5.7839,891.5798],[28.4845,-5.7864,853.8247],[28.46,-5.7797,844.051],[28.4522,-5.7832,842.1923],[28.4426,-5.7832,841.4673],[28.4364,-5.7789,828.2512],[28.429,-5.7785,831.0289],[28.4209,-5.7723,832.9084],[28.4154,-5.7622,817.3542],[28.4115,-5.7613,827.8488],[28.4068,-5.7535,804.3016],[28.4025,-5.754,806.4365],[28.3997,-5.7512,793.0254],[28.3942,-5.7526,795.482],[28.3919,-5.751,790.8974],[28.383,-5.7536,814.6036],[28.379,-5.747,785.6071],[28.3657,-5.7475,784.5724],[28.3606,-5.7411,780.5906],[28.359,-5.7418,781.4785],[28.3565,-5.7374,775.2361],[28.3509,-5.7331,773.2609],[28.3289,-5.7522,836.0056],[28.3102,-5.7567,828.2604],[28.3011,-5.7557,806.9474],[28.2655,-5.7284,817.2289],[28.2585,-5.7183,807.3453],[28.2541,-5.7146,806.4163],[28.2399,-5.7108,788.8566],[28.2173,-5.692,781.7892],[28.2131,-5.686,768.0332],[28.2113,-5.6773,753.1403],[28.2116,-5.6582,737.2543],[28.2003,-5.6488,695.0681],[28.1957,-5.6351,686.562],[28.1899,-5.6323,684.7566],[28.1592,-5.6359,686.7485],[28.0759,-5.6655,706.3588],[28.0393,-5.6657,682.5203],[28.0324,-5.6716,695.1589],[28.0718,-5.7073,704.3596],[28.0959,-5.7351,740.9368],[28.0752,-5.7616,632.2728],[28.0649,-5.7664,630.1783],[28.0732,-5.7772,624.0111],[28.0914,-5.7834,625.0241],[28.1043,-5.7992,634.691],[28.1078,-5.8058,643.0164],[28.1184,-5.8152,640.553],[28.123,-5.8239,642.4778],[28.1302,-5.8308,641.9509],[28.1401,-5.8524,648.5546],[28.1514,-5.8636,659.1464],[28.1257,-5.9524,762.011],[28.1209,-5.9583,759.3201],[28.112,-5.9825,766.0799],[28.1086,-6.0029,693.7646],[28.1115,-6.0121,700.1147],[28.1266,-6.0192,687.029],[28.1315,-6.0253,711.4546],[28.1382,-6.0276,694.0095],[28.1453,-6.0269,703.2584],[28.1501,-6.0292,706.542],[28.1568,-6.0358,730.0001],[28.1635,-6.0363,727.3854],[28.1769,-6.0505,730.5397],[28.1813,-6.0573,739.131],[28.1873,-6.0608,746.9984],[28.1944,-6.0612,730.7305],[28.2045,-6.0708,749.0457],[28.2126,-6.0726,734.7869],[28.2216,-6.0864,748.5651],[28.2276,-6.0919,765.2973],[28.2283,-6.0992,782.079],[28.2388,-6.1094,760.4916],[28.2607,-6.1192,824.9003],[28.2837,-6.1102,854.5823],[28.3141,-6.1095,858.7906],[28.346,-6.1195,866.3005],[28.3943,-6.1199,860.357],[28.3983,-6.1256,843.4737],[28.3927,-6.1344,862.7021],[28.3069,-6.199,890.5874],[28.2931,-6.2149,940.4655],[28.2858,-6.2327,845.9614],[28.2944,-6.2738,874.5365],[28.3075,-6.2898,917.6642],[28.3102,-6.2984,903.9744],[28.3099,-6.3185,877.7515],[28.3018,-6.3396,862.5519],[28.2872,-6.3684,843.9058],[28.2868,-6.3777,843.6234],[28.2923,-6.3865,863.0795],[28.311,-6.3807,877.2563],[28.3227,-6.3795,853.4293],[28.3326,-6.3841,870.0023],[28.3439,-6.3847,868.8405],[28.3504,-6.3868,859.3787],[28.3667,-6.3858,857.7985],[28.3766,-6.388,847.3141],[28.3865,-6.3972,870.416],[28.3858,-6.4013,915.7646],[28.39,-6.4096,901.8151],[28.3972,-6.4139,879.3339],[28.3991,-6.4335,893.6489],[28.3953,-6.4505,891.059],[28.3793,-6.4779,953.5647],[28.349,-6.5025,864.192],[28.343,-6.5118,869.9961],[28.341,-6.5373,844.1713],[28.342,-6.5489,821.4838],[28.3464,-6.5579,797.9297],[28.3583,-6.5629,783.8101],[28.3638,-6.558,768.1484],[28.3934,-6.5525,839.3853],[28.4043,-6.5549,866.8953],[28.4133,-6.5628,872.3525],[28.4339,-6.5689,889.1235],[28.4526,-6.5701,896.7906],[28.4773,-6.5816,850.1757],[28.5106,-6.5895,955.0379],[28.5403,-6.5761,1022.3679],[28.5591,-6.5657,1045.4521],[28.5718,-6.5614,1070.0486],[28.6123,-6.565,1138.5358],[28.6866,-6.5747,1149.4882],[28.6871,-6.5856,1167.811],[28.6761,-6.6106,1203.7192],[28.6474,-6.6629,1084.7806],[28.6287,-6.6696,1068.7074],[28.6165,-6.6763,988.3171],[28.5965,-6.697,961.5438],[28.5818,-6.7214,921.0726],[28.5699,-6.8211,907.45],[28.5683,-6.885,916.0674],[28.564,-6.902,860.3712],[28.5639,-6.9166,831.5641],[28.5812,-6.9362,823.1501],[28.6007,-6.9384,836.3445],[28.6108,-6.9335,815.8335],[28.6128,-6.9245,871.5524],[28.6147,-6.9245,863.0049],[28.6246,-6.9325,824.2564],[28.6296,-6.9669,915.3687],[28.6211,-6.9803,1001.8912],[28.6191,-7.0016,993.9105],[28.6353,-7.0283,986.1116],[28.6389,-7.038,957.012],[28.6604,-7.1297,916.2978],[28.67,-7.1327,932.7344],[28.6783,-7.1276,965.5778],[28.6893,-7.127,977.5087],[28.6935,-7.1238,980.555],[28.6987,-7.1139,997.2098],[28.7017,-7.1132,985.5535],[28.7081,-7.1074,985.4408],[28.7178,-7.1062,1004.7886],[28.7223,-7.1025,1023.5297],[28.7286,-7.1037,1021.3123],[28.7366,-7.0986,1014.042],[28.7476,-7.0981,1016.8374],[28.7522,-7.0946,1021.0865],[28.757,-7.0959,1037.3788],[28.7585,-7.1019,1034.3927],[28.7621,-7.1023,1026.4515],[28.7649,-7.1065,1048.5421],[28.7707,-7.1062,1045.0305],[28.7762,-7.1092,1060.2756],[28.7808,-7.1057,1059.9606],[28.7838,-7.1066,1058.6434],[28.7861,-7.1119,1076.7267],[28.7928,-7.1077,1074.4602],[28.8013,-7.1049,1088.2092],[28.81,-7.1058,1088.2798],[28.8165,-7.1104,1111.4849],[28.8236,-7.1108,1115.075],[28.8379,-7.105,1139.5132],[28.8438,-7.0999,1145.6566],[28.8992,-7.1011,1400.1162],[28.933,-7.1212,1443.415],[28.9375,-7.115,1453.8949],[28.9368,-7.1086,1432.8741],[28.9294,-7.0969,1382.9023],[28.9287,-7.0914,1402.0366],[28.9295,-7.0804,1368.5239],[28.9389,-7.0672,1317.2506],[28.9354,-7.065,1321.5416],[28.9354,-7.0606,1318.8264],[28.9386,-7.0512,1300.943],[28.9373,-7.0298,1255.9805],[28.9393,-7.0222,1238.0009],[28.9434,-7.0171,1237.1333],[28.948,-7.015,1221.684],[28.9556,-7.0159,1218.051],[28.9584,-7.0141,1216.2195],[28.9609,-7.015,1212.0916],[28.9655,-7.0136,1192.2427],[28.9646,-7.0101,1197.5699],[28.967,-6.9993,1217.0339],[28.9739,-6.9896,1188.0914],[28.9628,-6.9821,1165.3187],[28.9533,-6.9725,1174.6652],[28.9487,-6.9633,1155.0271],[28.9393,-6.9349,1142.9911],[28.9397,-6.931,1158.3977],[28.9425,-6.9268,1131.4958],[28.9367,-6.9218,1152.9258],[28.9348,-6.9078,1127.9385],[28.9571,-6.9145,1164.1432],[28.9954,-6.9229,1335.7385],[29.0168,-6.9256,1385.3755],[29.0493,-6.9343,1262.6122],[29.0597,-6.9448,1280.8162],[29.0717,-6.9531,1379.8885],[29.0778,-6.9495,1477.9609],[29.091,-6.9244,1484.127],[29.1168,-6.8937,1628.959],[29.1309,-6.8342,1481.8008],[29.1487,-6.824,1653.3146],[29.1575,-6.8016,1575.5383],[29.1822,-6.7794,1498.942],[29.1907,-6.7642,1528.941],[29.206,-6.7471,1502.9846],[29.2204,-6.7411,1447.235],[29.2259,-6.736,1439.4001],[29.2326,-6.7327,1440.9507],[29.2522,-6.7138,1436.6389],[29.2575,-6.7105,1403.6421],[29.2872,-6.7078,1401.9313],[29.2959,-6.7034,1392.093],[29.3091,-6.6852,1348.4934],[29.3086,-6.6725,1357.2987],[29.3113,-6.667,1360.7113],[29.322,-6.6562,1316.5287],[29.3227,-6.6525,1307.2811],[29.3268,-6.6485,1280.825],[29.3222,-6.644,1305.1072],[29.3265,-6.6371,1280.871],[29.3261,-6.6348,1278.1282],[29.3231,-6.6332,1271.3145],[29.3235,-6.6295,1288.1329],[29.3272,-6.6288,1272.4907],[29.3283,-6.6256,1277.8597],[29.3361,-6.6244,1267.9827],[29.3389,-6.6225,1264.3821],[29.3398,-6.6186,1288.0793],[29.3471,-6.613,1197.8367],[29.3457,-6.6064,1212.1273],[29.3491,-6.5972,1197.7528],[29.3518,-6.5944,1320.0325],[29.3545,-6.5937,1302.4904],[29.3587,-6.5976,1186.4612],[29.3645,-6.5975,1241.847],[29.3656,-6.5959,1211.0603],[29.3637,-6.5826,1169.9958],[29.373,-6.5653,1145.3285],[29.3783,-6.5623,1197.1036],[29.3845,-6.5616,1122.5569],[29.3875,-6.559,1175.5881],[29.3932,-6.5585,1100.8789],[29.4014,-6.5537,1008.4478],[29.4062,-6.5467,1127.6344],[29.4124,-6.5426,905.4504],[29.4146,-6.5306,912.7695],[29.4172,-6.531,849.8826],[29.4208,-6.5234,789.5291],[29.4261,-6.5239,794.336],[29.4291,-6.528,782.9471],[29.4516,-6.5254,774.6881],[29.46,-6.527,802.8547],[29.4673,-6.523,772.8752],[29.4776,-6.5222,771.5959],[29.4798,-6.5172,770.0],[29.4797,-6.5079,770.0],[29.4831,-6.5083,776.4651],[29.4992,-6.4981,770.0],[29.5114,-6.4927,770.0],[29.5398,-6.4683,770.0],[29.6007,-6.4426,770.0],[29.6156,-6.4277,770.0],[29.6549,-6.413,770.0],[29.624,-6.338,770.0],[29.621,-6.323,770.0],[29.612,-6.304,770.0],[29.595,-6.252,770.0],[29.589,-6.22,770.0],[29.5793,-6.1468,770.0],[29.578,-6.1017,770.0],[29.5782,-5.9629,770.0],[29.5805,-5.9419,770.0],[29.6,-5.856,770.0],[29.605,-5.809,770.0],[29.607,-5.768,770.0],[29.599,-5.664,770.0],[29.588,-5.619,770.0],[29.576,-5.556,770.0],[29.5683,-5.5364,770.0],[29.564,-5.515,770.0],[29.558,-5.502,770.0],[29.5297,-5.4151,770.0],[29.5221,-5.3992,770.0],[29.501,-5.344,770.0],[29.4953,-5.3367,770.0],[29.4673,-5.2742,770.0],[29.439,-5.203,770.0],[29.4102,-5.1235,770.0],[29.4012,-5.0916,770.0],[29.3731,-5.0169,770.0],[29.3721,-5.0079,770.0],[28.8018,-5.0103,839.496],[28.407,-5.0197,811.611]],
[[29.241,-5.9773,770.0],[29.2257,-5.9794,770.0],[29.2121,-5.9782,770.0],[29.1812,-5.9695,855.3131],[29.1663,-5.9637,831.0768],[29.1581,-5.9534,824.7296],[29.1498,-5.9303,857.9087],[29.1503,-5.9146,788.5164],[29.1552,-5.9022,807.9785],[29.1688,-5.8927,849.9518],[29.1903,-5.8844,835.4175],[29.2063,-5.8824,809.6432],[29.2406,-5.8886,770.0],[29.2513,-5.8919,770.0],[29.2591,-5.8985,770.0],[29.2653,-5.9096,770.0],[29.2661,-5.922,770.0],[29.2637,-5.9488,770.0],[29.2587,-5.9662,770.0],[29.241,-5.9773,770.0]]]]}
,"properties": {"GID_2": "COD.24.2_1","GID_0": "COD","country": "DemocraticRepublicoftheCongo","GID_1": "COD.24_1","province": "Tanganyika","NL_NAME_1": "NA","county": "Kalemie","VARNAME_2": "NA","NL_NAME_2": "NA","TYPE_2": "Territoire","ENGTYPE_2": "Territory","CC_2": "NA","HASC_2": "NA","name": "Kalemie.county","area_km2": 25981.08,"hist_schema_id": "Elevation0-9000","hist_area_km2": {"625": 14.91,"650": 38.01,"675": 57.65,"700": 87.24,"725": 192.58,"750": 409.94,"775": 5673.66,"800": 717.51,"825": 785.98,"850": 932.79,"875": 929.41,"900": 988.22,"925": 983.27,"950": 900.83,"975": 840.27,"1000": 828.48,"1025": 812.65,"1050": 835.0,"1075": 867.84,"1100": 863.11,"1125": 843.38,"1150": 740.75,"1175": 677.88,"1200": 577.87,"1225": 522.48,"1250": 545.1,"1275": 576.2,"1300": 552.26,"1325": 478.06,"1350": 412.06,"1375": 350.57,"1400": 296.32,"1425": 231.11,"1450": 190.7,"1475": 151.01,"1500": 126.83,"1525": 113.91,"1550": 103.51,"1575": 70.35,"1600": 49.75,"1625": 39.38,"1650": 31.53,"1675": 28.54,"1700": 29.23,"1725": 26.32,"1750": 26.01,"1775": 24.61,"1800": 21.17,"1825": 21.22,"1850": 22.48,"1875": 23.66,"1900": 22.12,"1925": 21.03,"1950": 19.57,"1975": 18.39,"2000": 18.56,"2025": 18.14,"2050": 16.74,"2075": 14.08,"2100": 12.86,"2125": 10.81,"2150": 10.56,"2175": 9.4,"2200": 8.76,"2225": 8.13,"2250": 8.34,"2275": 7.75,"2300": 8.83,"2325": 9.29,"2350": 9.61,"2375": 9.06,"2400": 9.31,"2425": 8.81,"2450": 8.28,"2475": 7.9,"2500": 6.42,"2525": 5.22,"2550": 4.12,"2575": 2.7,"2600": 1.18,"2625": 0.59,"2650": 0.44,"2675": 0.38}}}