{"type":"Feature","properties":{"GID_2":"COD.25.5_1","GID_0":"COD","country":"DemocraticRepublicoftheCongo","GID_1":"COD.25_1","province":"Tshopo","NL_NAME_1":"NA","county":"Isangi","VARNAME_2":"NA","NL_NAME_2":"NA","TYPE_2":"Territoire","ENGTYPE_2":"Territory","CC_2":"NA","HASC_2":"NA","name":"Isangi.county"},
"geometry":{"type": "MultiPolygon","coordinates": [[[[24.3022,1.0898,449.7149],[24.2668,1.0516,477.2232],[24.1816,0.985,438.6742],[24.1633,0.9729,399.3947],[24.1459,0.9581,366.0],[24.1315,0.9679,367.3059],[24.1157,0.9756,365.5],[24.1079,0.9765,367.2755],[24.1009,0.9735,383.238],[24.0794,0.9826,365.5],[24.0718,0.983,365.0],[24.0519,0.99,368.1062],[24.0437,0.9865,369.8248],[24.0419,0.9925,365.0],[24.0206,1.005,375.0542],[24.0128,1.0061,388.5913],[24.0066,1.0105,368.7069],[24.0054,1.0132,365.0],[24.0011,1.0141,372.3117],[23.9787,1.0264,377.9026],[23.9695,1.0298,373.3182],[23.9608,1.0376,363.7722],[23.9198,1.0523,375.6754],[23.9084,1.0543,374.9781],[23.8995,1.0646,362.4825],[23.8855,1.0698,378.483],[23.8812,1.0694,381.176],[23.8741,1.0657,377.9847],[23.8682,1.0652,378.271],[23.8236,1.0711,372.4114],[23.8078,1.0796,365.2068],[23.7843,1.0801,376.0636],[23.7733,1.0867,371.0272],[23.7605,1.0906,365.0854],[23.7392,1.1001,368.2263],[23.7246,1.1,366.1582],[23.7099,1.1036,368.0534],[23.6957,1.1096,360.0],[23.6952,1.1084,360.0],[23.7042,1.1032,374.0365],[23.7059,1.0905,368.2383],[23.7363,1.0472,388.9291],[23.7434,1.0302,393.2956],[23.7559,1.0138,396.1943],[23.7552,1.0078,395.2661],[23.7585,0.9949,395.7833],[23.7476,0.9755,406.6301],[23.7381,0.9645,424.4151],[23.7361,0.9548,417.3174],[23.703,0.9724,427.5664],[23.6937,0.9904,407.2005],[23.6905,0.9792,408.4518],[23.6893,0.9135,445.0009],[23.6836,0.8864,430.5515],[23.6622,0.8566,455.5634],[23.645,0.8387,445.3683],[23.6346,0.8171,461.0764],[23.6281,0.7821,485.783],[23.6301,0.7394,444.8162],[23.6355,0.7229,415.8481],[23.6441,0.7104,423.7712],[23.6526,0.7059,418.1335],[23.6755,0.6826,428.6544],[23.6799,0.6695,424.2874],[23.7095,0.6648,435.9036],[23.736,0.6655,435.2899],[23.7543,0.6623,425.2699],[23.7794,0.6682,414.9822],[23.7785,0.6599,428.1517],[23.7823,0.6452,437.4854],[23.7816,0.6395,424.442],[23.7927,0.6279,452.5104],[23.7966,0.6031,432.8982],[23.7858,0.533,459.5759],[23.7856,0.5035,443.3958],[23.7819,0.4812,456.9678],[23.7713,0.4469,452.8385],[23.7748,0.4279,448.429],[23.7949,0.4108,439.767],[23.8038,0.4001,455.3642],[23.8037,0.3879,438.4127],[23.7851,0.3638,431.778],[23.7891,0.3449,424.0291],[23.7836,0.327,426.4287],[23.7759,0.3155,424.7421],[23.7674,0.2793,454.8059],[23.7556,0.2669,454.4683],[23.7495,0.2579,436.6428],[23.7385,0.2298,445.2637],[23.7199,0.2003,441.0229],[23.6703,0.1047,426.6853],[23.6649,0.0912,442.4455],[23.6578,0.0819,419.8757],[23.655,0.0523,420.258],[23.6509,0.0465,426.0124],[23.6494,0.041,424.5455],[23.643,0.0379,427.9503],[23.6362,0.0271,438.6318],[23.6335,0.0262,432.5061],[23.6235,0.0144,449.3501],[23.6188,0.005,431.5469],[23.61,0.0,444.9059],[23.5876,-0.0232,462.1905],[23.5789,-0.0409,460.6483],[23.5762,-0.0436,466.2849],[23.6001,-0.0398,447.7892],[23.6239,-0.041,459.7719],[23.6607,-0.0365,441.6982],[23.681,-0.0282,435.8671],[23.7228,-0.0226,421.3998],[23.7258,-0.0335,420.9041],[23.7257,-0.0425,425.7927],[23.7164,-0.0922,422.6282],[23.7088,-0.0974,434.3589],[23.6874,-0.107,440.0987],[23.6763,-0.1177,426.3346],[23.673,-0.1432,438.9106],[23.6788,-0.1593,442.1538],[23.7081,-0.1901,428.1065],[23.7147,-0.1873,418.4564],[23.7188,-0.1873,424.4179],[23.7277,-0.1931,416.1813],[23.7414,-0.1915,431.4113],[23.7543,-0.2014,419.0735],[23.7524,-0.2119,415.5676],[23.7421,-0.214,412.5962],[23.6778,-0.2424,431.9468],[23.662,-0.2586,421.0909],[23.6754,-0.261,432.0507],[23.7189,-0.2599,443.4764],[23.7211,-0.2658,442.6268],[23.7202,-0.2771,440.0735],[23.7082,-0.3273,444.5226],[23.6882,-0.3896,426.0545],[23.7403,-0.3761,450.9371],[23.7538,-0.3655,447.9463],[23.7812,-0.3334,438.6317],[23.7965,-0.322,431.7973],[23.8175,-0.297,432.332],[23.8295,-0.2883,439.5012],[23.8392,-0.2894,446.4379],[23.8607,-0.2988,441.7964],[23.8691,-0.2991,436.5257],[23.889,-0.2952,445.0721],[23.9134,-0.286,437.7401],[23.9399,-0.2705,417.4129],[23.9501,-0.2723,428.9166],[23.9586,-0.2716,427.5553],[23.9743,-0.2666,421.3178],[23.9841,-0.2677,430.6215],[24.0323,-0.2579,422.942],[24.0478,-0.2563,423.6916],[24.0202,-0.1868,410.7796],[24.0219,-0.177,406.4317],[24.0377,-0.1651,407.4118],[24.0635,-0.1629,394.826],[24.0828,-0.1558,399.8482],[24.1113,-0.1726,424.3209],[24.1343,-0.1622,429.3612],[24.1485,-0.1496,437.3534],[24.1548,-0.1363,443.3107],[24.1665,-0.1271,442.1627],[24.1674,-0.1242,445.4289],[24.2728,-0.0411,455.7305],[24.2727,-0.0278,444.4311],[24.2681,-0.0099,461.5472],[24.2625,0.003,437.9957],[24.2419,0.0166,446.0931],[24.2305,0.0288,466.9251],[24.1895,0.0767,449.1918],[24.1772,0.0879,439.1269],[24.1696,0.105,442.9134],[24.1945,0.1285,448.9898],[24.2373,0.1759,456.7278],[24.2539,0.1896,434.1317],[24.2617,0.1925,434.3351],[24.2766,0.1852,443.6021],[24.2916,0.1702,448.2972],[24.2985,0.166,439.6641],[24.3047,0.1734,436.3701],[24.3017,0.181,440.1158],[24.3014,0.1964,438.4179],[24.3107,0.2072,434.8693],[24.3172,0.2311,435.4303],[24.3185,0.244,428.3729],[24.3174,0.25,424.7929],[24.3362,0.3524,417.2126],[24.3382,0.3727,427.8768],[24.3411,0.3822,421.2262],[24.3634,0.3371,434.2206],[24.4007,0.3008,430.639],[24.4143,0.2998,428.004],[24.4246,0.3705,426.3638],[24.4296,0.3937,400.3178],[24.4322,0.4206,447.6039],[24.4573,0.4792,450.34],[24.4978,0.4797,431.615],[24.5344,0.4864,457.4515],[24.5677,0.5093,444.6019],[24.6065,0.5396,442.4967],[24.6087,0.5169,442.757],[24.6163,0.5038,462.6346],[24.6154,0.4912,451.1369],[24.6231,0.4618,458.4527],[24.6238,0.454,454.9339],[24.5968,0.4281,445.7259],[24.5775,0.4221,454.0316],[24.5569,0.42,476.0612],[24.5402,0.415,456.9829],[24.516,0.3915,419.2885],[24.5015,0.3729,417.0587],[24.4964,0.3609,419.5532],[24.4942,0.3466,431.9685],[24.521,0.3432,441.9871],[24.5431,0.346,430.7299],[24.6382,0.4059,453.8193],[24.6564,0.4297,484.4914],[24.6862,0.4957,463.1205],[24.6998,0.509,452.7694],[24.7179,0.556,415.1038],[24.7217,0.5609,404.2288],[24.7296,0.5532,405.2424],[24.7579,0.5322,415.9224],[24.7631,0.5339,451.1355],[24.8642,0.4892,468.873],[24.862,0.5091,451.9054],[24.862,0.529,439.4955],[24.8731,0.5403,440.4063],[24.8962,0.5472,374.5],[24.9217,0.5377,375.0],[24.9333,0.5373,379.9701],[24.986,0.5504,385.2952],[25.0378,0.5557,376.5],[25.0438,0.5857,414.2057],[25.038,0.5931,403.5798],[25.0115,0.6133,417.5522],[25.0072,0.6278,427.3863],[24.985,0.6165,428.8883],[24.8986,0.9831,543.0039],[24.9005,1.0639,483.0056],[24.3022,1.0898,449.7149]],
[[24.2501,0.754,380.5474],[24.247,0.7517,372.1365],[24.236,0.7554,376.2651],[24.2317,0.7648,377.7595],[24.2303,0.7784,391.548],[24.236,0.7878,375.3455],[24.2405,0.7905,376.8076],[24.2535,0.7779,385.9341],[24.2656,0.773,377.1591],[24.2501,0.754,380.5474]],
[[24.5154,0.7708,488.5448],[24.5141,0.7659,473.0201],[24.4539,0.7676,446.8614],[24.4501,0.7747,432.8068],[24.4471,0.7862,455.1834],[24.4497,0.7979,457.0902],[24.4548,0.804,448.6219],[24.4648,0.8105,445.7035],[24.4817,0.8145,463.3473],[24.4941,0.8125,496.2638],[24.5003,0.8094,495.1542],[24.5096,0.7989,483.7874],[24.5156,0.7799,469.8885],[24.5154,0.7708,488.5448]]]]}}