{"type": "Feature","bbox": [25.8549,-3.0421,25.9742,-2.9081],"geometry": {"type": "MultiPolygon","coordinates": [[[[25.9119,-3.0232,482.6544],[25.9336,-3.0124,452.227],[25.9662,-3.0085,479.2111],[25.9742,-2.9259,479.6936],[25.9443,-2.9231,449.4341],[25.9306,-2.9081,458.1098],[25.8641,-2.912,498.8696],[25.867,-2.9878,494.9781],[25.8549,-3.0176,512.8057],[25.8685,-3.0339,486.5718],[25.9052,-3.0421,477.0966],[25.9119,-3.0232,482.6544]]]]}
,"properties": {"GID_2": "COD.17.7_1","GID_0": "COD","country": "DemocraticRepublicoftheCongo","GID_1": "COD.17_1","province": "Maniema","NL_NAME_1": "NA","county": "Kindu","VARNAME_2": "NA","NL_NAME_2": "NA","TYPE_2": "Territoire","ENGTYPE_2": "Territory","CC_2": "NA","HASC_2": "NA","name": "Kindu.county","area_km2": 143.7273,"hist_schema_id": "Elevation0-9000","hist_area_km2": {"450": 27.2082,"475": 85.7744,"500": 30.6811,"525": 0.0635}}}