{"type": "Feature","bbox": [17.278,-6.9829,19.3964,-5.6286],"geometry": {"type": "MultiPolygon","coordinates": [[[[19.3305,-6.3836,671.1157],[19.332,-6.3678,712.372],[19.3314,-6.3538,695.9146],[19.324,-6.3549,671.2373],[19.3207,-6.3348,667.0787],[19.3143,-6.3251,673.2342],[19.3133,-6.3026,832.031],[19.3108,-6.2973,828.4328],[19.3026,-6.2878,745.3967],[19.2992,-6.2807,812.9216],[19.2984,-6.263,814.9216],[19.2947,-6.2593,813.2527],[19.3048,-6.2322,812.7288],[19.3056,-6.2173,643.077],[19.3102,-6.2159,702.9382],[19.3136,-6.2113,651.1595],[19.3161,-6.2141,740.3877],[19.3191,-6.2144,805.1069],[19.3301,-6.1901,614.1286],[19.3347,-6.1848,629.0103],[19.3684,-6.1689,652.2488],[19.382,-6.1575,678.985],[19.3813,-6.1529,668.325],[19.3827,-6.1483,637.4827],[19.3943,-6.1415,724.3639],[19.3964,-6.1365,797.5527],[19.3957,-6.1323,777.411],[19.3911,-6.1298,653.8705],[19.3921,-6.1238,724.844],[19.3863,-6.1224,689.1539],[19.3652,-6.1245,644.276],[19.356,-6.1208,731.3882],[19.3372,-6.1202,659.2404],[19.3307,-6.1215,644.9464],[19.321,-6.1316,681.8973],[19.3153,-6.1341,687.9051],[19.3074,-6.1347,676.2855],[19.2639,-6.1174,827.0094],[19.2518,-6.1112,824.7619],[19.235,-6.1085,781.5719],[19.2244,-6.104,818.7717],[19.2172,-6.0932,819.1906],[19.2056,-6.1078,790.2514],[19.2059,-6.1228,827.9147],[19.2011,-6.1322,830.5295],[19.189,-6.148,830.0254],[19.1824,-6.1681,842.592],[19.1824,-6.1764,843.7652],[19.1786,-6.1824,844.1611],[19.1576,-6.1883,845.4272],[19.1446,-6.1962,846.8395],[19.1329,-6.1947,844.1899],[19.1114,-6.1754,840.5198],[19.1064,-6.1766,796.3562],[19.1011,-6.181,759.0288],[19.098,-6.189,765.9617],[19.0954,-6.2124,805.8706],[19.0822,-6.2159,826.2277],[19.0769,-6.2189,810.8062],[19.0696,-6.2337,796.6388],[19.0592,-6.2662,865.3864],[19.0554,-6.2701,867.8517],[19.0521,-6.2721,865.5462],[19.0242,-6.2744,814.3465],[19.0058,-6.2782,790.1986],[18.9934,-6.2847,844.5621],[18.9696,-6.3072,875.8895],[18.9556,-6.3119,835.3501],[18.9489,-6.3107,856.5462],[18.944,-6.3083,874.1918],[18.9318,-6.297,803.9908],[18.932,-6.2942,791.9173],[18.9361,-6.2905,839.6143],[18.933,-6.282,803.6802],[18.9334,-6.2772,818.8952],[18.9309,-6.2738,822.4976],[18.9315,-6.2655,785.4291],[18.9301,-6.2616,783.4857],[18.9347,-6.2556,829.2205],[18.9263,-6.2423,853.1228],[18.9228,-6.24,829.358],[18.9251,-6.232,811.4958],[18.9234,-6.2278,810.1791],[18.9165,-6.2263,793.6908],[18.909,-6.2274,785.0944],[18.9014,-6.2309,824.8138],[18.8943,-6.2365,865.9412],[18.879,-6.2436,855.6224],[18.8734,-6.246,800.4784],[18.8673,-6.2463,862.1204],[18.8417,-6.2128,808.797],[18.8347,-6.2009,835.4827],[18.8318,-6.189,859.4676],[18.8328,-6.184,862.6001],[18.8386,-6.1843,854.0181],[18.8486,-6.1903,868.5651],[18.8603,-6.2001,866.6402],[18.8655,-6.2013,862.9285],[18.87,-6.1965,864.2849],[18.872,-6.1243,828.5408],[18.8689,-6.1201,779.2842],[18.8639,-6.1219,778.7113],[18.8527,-6.1397,856.4811],[18.8456,-6.1459,850.2286],[18.8379,-6.1423,791.442],[18.833,-6.1372,850.0486],[18.8289,-6.1289,840.7206],[18.8293,-6.123,837.6547],[18.8383,-6.1133,859.8627],[18.8416,-6.1074,858.5023],[18.8417,-6.1047,858.0846],[18.8346,-6.0973,853.7432],[18.8279,-6.0982,853.2386],[18.7972,-6.1182,852.661],[18.7793,-6.1223,856.524],[18.771,-6.1309,854.5365],[18.7476,-6.138,758.6297],[18.7294,-6.1225,753.0399],[18.7279,-6.1117,752.3357],[18.7306,-6.1078,755.2271],[18.7249,-6.103,750.3109],[18.7246,-6.0981,780.9232],[18.7269,-6.0938,804.8214],[18.7208,-6.0855,766.9659],[18.7122,-6.066,743.2526],[18.7101,-6.0564,736.6348],[18.7063,-6.0502,632.549],[18.7047,-6.0396,649.9258],[18.7003,-6.0383,617.0109],[18.6982,-6.0312,648.1861],[18.6933,-6.0266,579.6725],[18.6963,-6.022,634.0547],[18.6955,-6.0181,634.9482],[18.7028,-6.0091,645.8774],[18.7021,-5.9976,585.3622],[18.7032,-5.9946,579.6318],[18.7069,-5.9922,611.0696],[18.7054,-5.9812,572.3467],[18.7002,-5.9786,631.092],[18.6669,-5.9773,823.0311],[18.6443,-5.9731,821.4125],[18.5767,-5.9925,849.1485],[18.5602,-5.9892,843.5543],[18.5474,-5.9901,805.1434],[18.5357,-5.9939,804.99],[18.5328,-5.9912,857.9129],[18.535,-5.9871,854.0555],[18.5462,-5.9791,815.589],[18.5463,-5.974,793.7094],[18.5484,-5.971,794.6009],[18.5488,-5.9586,784.7418],[18.5459,-5.9416,824.2125],[18.5391,-5.9241,767.8797],[18.5411,-5.914,763.3943],[18.5486,-5.9089,759.3937],[18.5525,-5.8967,747.8951],[18.5632,-5.8856,742.9376],[18.5713,-5.8565,728.6439],[18.5698,-5.8548,728.4565],[18.5594,-5.8533,754.8817],[18.5546,-5.8572,782.8618],[18.5433,-5.8808,847.2925],[18.5394,-5.8853,851.3895],[18.535,-5.8867,848.657],[18.526,-5.8755,800.983],[18.5224,-5.8684,767.7375],[18.519,-5.8663,778.5826],[18.4902,-5.8659,744.4442],[18.4804,-5.8526,831.5632],[18.4779,-5.844,833.9197],[18.4705,-5.8389,802.7482],[18.461,-5.8351,765.4948],[18.4466,-5.8161,737.96],[18.442,-5.8146,775.8615],[18.4298,-5.8155,734.5953],[18.4127,-5.8141,703.2885],[18.4048,-5.8077,699.9955],[18.3995,-5.7951,708.5832],[18.3968,-5.7801,693.7579],[18.3922,-5.7813,694.0372],[18.3827,-5.7996,701.4836],[18.3685,-5.7978,707.6974],[18.3495,-5.8166,703.8098],[18.3412,-5.8342,703.9808],[18.3267,-5.8354,737.7061],[18.3221,-5.8371,768.4656],[18.3161,-5.8573,726.3088],[18.3092,-5.8635,852.9493],[18.2943,-5.869,855.0609],[18.285,-5.8693,848.3694],[18.2746,-5.8652,854.6544],[18.2757,-5.8557,814.6323],[18.28,-5.8465,834.6948],[18.2748,-5.8405,768.7987],[18.2693,-5.8446,754.6638],[18.2639,-5.8608,775.3251],[18.2543,-5.8684,782.1862],[18.2497,-5.8701,780.118],[18.2469,-5.8689,802.5844],[18.2442,-5.8609,861.0935],[18.2453,-5.8266,848.436],[18.2417,-5.8082,844.3074],[18.2329,-5.7842,683.2338],[18.2234,-5.7697,580.1918],[18.2164,-5.7728,527.2341],[18.211,-5.7804,473.0705],[18.2043,-5.7818,469.3614],[18.2043,-5.785,504.3558],[18.2074,-5.7905,509.8709],[18.1981,-5.8076,530.4718],[18.1857,-5.813,503.7944],[18.1882,-5.8182,522.6323],[18.1844,-5.8268,537.2777],[18.1856,-5.8332,577.986],[18.1806,-5.8381,545.1608],[18.1781,-5.847,535.3047],[18.1788,-5.8505,528.8521],[18.1829,-5.8484,533.8818],[18.1839,-5.8509,577.111],[18.1798,-5.8576,533.0454],[18.1814,-5.8634,550.1211],[18.1731,-5.8812,636.2218],[18.169,-5.8836,761.6112],[18.1631,-5.8836,736.04],[18.1489,-5.8729,783.3708],[18.1394,-5.8687,821.936],[18.1234,-5.8693,800.4333],[18.1126,-5.8722,788.6426],[18.1041,-5.8722,776.1426],[18.097,-5.8651,865.286],[18.0974,-5.8606,829.6552],[18.1016,-5.8574,873.2985],[18.1168,-5.8542,802.8256],[18.1347,-5.8438,756.7328],[18.1393,-5.837,819.6343],[18.1397,-5.8199,778.0886],[18.1392,-5.8145,763.1231],[18.1351,-5.8065,732.559],[18.1328,-5.8033,795.2469],[18.1294,-5.8018,818.8997],[18.1142,-5.8151,788.0834],[18.1048,-5.8204,878.5544],[18.0997,-5.8142,839.2446],[18.0999,-5.7943,766.3344],[18.1191,-5.7686,785.0934],[18.1193,-5.7615,803.9194],[18.1188,-5.7562,866.3245],[18.1163,-5.7523,849.4021],[18.0932,-5.7446,813.2323],[18.0901,-5.7419,781.2498],[18.0929,-5.7236,869.3947],[18.0889,-5.7203,869.7765],[18.0828,-5.7197,822.08],[18.0319,-5.7182,742.8605],[18.0282,-5.6909,733.2092],[18.0015,-5.7023,833.4755],[17.9861,-5.7059,795.5187],[17.964,-5.7061,868.5446],[17.9573,-5.7034,868.8105],[17.9505,-5.6987,797.3976],[17.9218,-5.6696,800.5897],[17.914,-5.6663,783.1977],[17.9125,-5.6572,737.9988],[17.9138,-5.6531,780.4533],[17.9131,-5.6478,775.0924],[17.9165,-5.6411,790.7148],[17.913,-5.6388,784.8832],[17.8767,-5.6366,762.0789],[17.8554,-5.6286,836.0345],[17.8496,-5.6286,775.9342],[17.8458,-5.639,812.4191],[17.8309,-5.654,795.3928],[17.8202,-5.6688,831.3905],[17.8159,-5.6806,841.3823],[17.8,-5.709,782.5563],[17.7954,-5.7133,801.7287],[17.789,-5.7164,828.8142],[17.7828,-5.7173,825.1465],[17.778199999999998,-5.7153,873.85],[17.767,-5.7144,818.2403],[17.7535,-5.7089,783.9081],[17.7328,-5.7097,831.0884],[17.7101,-5.7026,812.303],[17.698,-5.7019,760.0243],[17.6847,-5.6937,725.2656],[17.6728,-5.6933,777.0593],[17.6643,-5.6978,780.589],[17.6416,-5.7197,847.2446],[17.6374,-5.7119,787.244],[17.6357,-5.705,777.2012],[17.6314,-5.703,772.1306],[17.6304,-5.6975,728.945],[17.6274,-5.6968,741.7755],[17.6245,-5.6998,697.4608],[17.6196,-5.6968,746.2706],[17.615,-5.6966,671.0003],[17.6134,-5.692,661.4666],[17.606,-5.6934,735.2098],[17.5999,-5.7036,576.7579],[17.5935,-5.7027,719.7144],[17.5797,-5.7046,576.9592],[17.5735,-5.7077,545.0432],[17.5655,-5.7063,547.9306],[17.5574,-5.7082,533.6182],[17.5517,-5.7066,525.319],[17.5402,-5.7078,512.7625],[17.5348,-5.72,441.1422],[17.5306,-5.7238,440.1274],[17.5291,-5.7311,511.7644],[17.5021,-5.7468,499.4558],[17.4946,-5.7498,546.3763],[17.4666,-5.7551,742.3264],[17.4317,-5.7573,755.4967],[17.4116,-5.7624,754.6863],[17.3986,-5.7625,741.1846],[17.3608,-5.7409,824.1316],[17.3424,-5.7359,785.5726],[17.3391,-5.7376,752.4149],[17.3384,-5.7443,761.4863],[17.3482,-5.7578,787.8629],[17.3562,-5.7733,778.3821],[17.3556,-5.7782,767.2881],[17.3534,-5.7815,785.0956],[17.3398,-5.7872,737.5757],[17.3236,-5.7904,776.9065],[17.2862,-5.7929,737.1514],[17.2815,-5.7959,646.1135],[17.2782,-5.8065,673.8924],[17.278,-5.8131,670.8955],[17.2831,-5.8232,643.492],[17.2891,-5.825,658.1937],[17.2948,-5.8312,697.4048],[17.296,-5.837,648.9946],[17.3018,-5.8475,697.3819],[17.3014,-5.8505,691.3426],[17.305,-5.8512,699.1779],[17.3092,-5.8581,675.4156],[17.3079,-5.8608,694.6129],[17.3134,-5.8642,754.6653],[17.3086,-5.8696,694.8925],[17.3158,-5.8808,724.0599],[17.3195,-5.8812,766.6517],[17.3243,-5.8863,713.5201],[17.3314,-5.8899,726.9286],[17.3358,-5.8906,777.4286],[17.3368,-5.9046,740.4471],[17.3398,-5.9073,788.9955],[17.3366,-5.9097,777.7323],[17.3371,-5.9133,780.1817],[17.3426,-5.9218,738.8535],[17.3463,-5.9234,778.1201],[17.3455,-5.9354,783.9538],[17.3508,-5.9462,802.7778],[17.3506,-5.9503,774.4205],[17.3562,-5.9574,739.89],[17.3605,-5.9569,795.3438],[17.3619,-5.9583,775.937],[17.3668,-5.9668,809.7097],[17.3776,-5.9778,796.4874],[17.3858,-5.9917,731.3451],[17.3911,-5.9963,764.0679],[17.3902,-6.0005,793.4663],[17.392,-6.0069,810.3718],[17.3889,-6.0113,736.2928],[17.3898,-6.0136,738.0154],[17.3932,-6.0152,727.8817],[17.3965,-6.0211,727.7532],[17.3988,-6.0174,730.5005],[17.4011,-6.0181,734.2919],[17.402,-6.0239,774.2864],[17.4064,-6.0294,775.6618],[17.4048,-6.0314,725.4622],[17.4092,-6.0376,760.3571],[17.409,-6.0413,734.1378],[17.4146,-6.0454,795.7506],[17.4192,-6.0613,830.1696],[17.4163,-6.0647,812.9047],[17.42,-6.0842,742.1649],[17.4253,-6.0835,773.8574],[17.4281,-6.0888,744.7885],[17.4323,-6.0899,772.353],[17.4352,-6.089,760.5944],[17.4362,-6.0929,788.4099],[17.4332,-6.0952,796.2464],[17.4321,-6.0989,766.0291],[17.4337,-6.1058,770.2878],[17.4374,-6.1046,797.4581],[17.4402,-6.1071,783.339],[17.4363,-6.1101,783.2712],[17.437,-6.1154,815.0664],[17.4347,-6.1191,760.1881],[17.4394,-6.1267,787.9323],[17.4419,-6.1267,809.6586],[17.4428,-6.1303,802.4846],[17.441,-6.1329,786.0428],[17.4435,-6.1361,756.4394],[17.4406,-6.1407,778.6353],[17.4427,-6.1504,807.5366],[17.4418,-6.1552,758.7172],[17.4434,-6.1584,751.9355],[17.4501,-6.162,809.2954],[17.4538,-6.1671,799.1163],[17.4539,-6.1788,779.4308],[17.4574,-6.1848,838.2374],[17.4533,-6.2013,807.0432],[17.461,-6.2116,770.05],[17.4656,-6.2119,775.0492],[17.4686,-6.2199,832.3868],[17.4668,-6.2229,829.099],[17.4673,-6.2259,851.2017],[17.4643,-6.2266,784.5422],[17.4636,-6.2289,776.3579],[17.4703,-6.2316,813.3567],[17.4768,-6.2467,779.2539],[17.4761,-6.2502,774.5531],[17.483,-6.2527,774.8256],[17.4904,-6.2607,783.1055],[17.4937,-6.2664,848.0736],[17.4905,-6.2683,830.3667],[17.4944,-6.2745,780.2223],[17.4988,-6.2751,790.0386],[17.5064,-6.2809,846.0237],[17.5032,-6.2832,798.9864],[17.5025,-6.2878,780.239],[17.5046,-6.2912,785.2404],[17.5071,-6.2905,781.5665],[17.5087,-6.2873,786.4613],[17.5162,-6.2974,785.8323],[17.5189,-6.2948,786.1102],[17.521,-6.2957,788.3677],[17.5277,-6.3143,802.1665],[17.5248,-6.3212,792.6705],[17.526,-6.3247,789.821],[17.5299,-6.3281,787.6379],[17.5366,-6.3304,793.5723],[17.5393,-6.3345,820.0804],[17.5401,-6.3377,843.8018],[17.5369,-6.3421,794.2311],[17.5417,-6.348,839.7485],[17.543,-6.3623,794.7666],[17.5453,-6.3657,802.0383],[17.5503,-6.3655,853.7596],[17.5515,-6.371,803.5403],[17.5538,-6.3737,800.0096],[17.5525,-6.3772,805.941],[17.5585,-6.379,805.8871],[17.5603,-6.3843,846.5312],[17.5638,-6.3872,855.5466],[17.5608,-6.3923,811.1587],[17.5631,-6.3964,854.3268],[17.5616,-6.4006,810.8606],[17.5632,-6.4033,806.3618],[17.5699,-6.4074,822.627],[17.5704,-6.4111,833.9144],[17.5668,-6.4304,857.2977],[17.5632,-6.438,831.8651],[17.5634,-6.4424,810.2218],[17.572,-6.4594,842.8965],[17.5739,-6.4688,824.487],[17.5767,-6.4711,816.3423],[17.5837,-6.4922,808.4405],[17.5897,-6.4938,855.0499],[17.5913,-6.4963,897.6829],[17.6045,-6.5047,922.311],[17.6165,-6.5063,932.5358],[17.668,-6.4805,900.7593],[17.6785,-6.4798,933.4707],[17.6842,-6.4817,921.2023],[17.6951,-6.4943,941.5651],[17.6975,-6.5065,935.0789],[17.6959,-6.5119,910.0223],[17.6891,-6.5179,926.3513],[17.6823,-6.5211,910.2314],[17.6588,-6.5268,932.6063],[17.6523,-6.5342,882.7093],[17.6529,-6.5424,936.1601],[17.6558,-6.5463,896.8677],[17.6655,-6.5476,879.8787],[17.67,-6.5459,872.3752],[17.6779,-6.5387,891.1],[17.6879,-6.5386,862.1478],[17.7079,-6.552,936.2978],[17.7145,-6.5581,949.5042],[17.7536,-6.6016,931.2245],[17.7691,-6.6147,949.6636],[17.7808,-6.6211,868.5652],[17.7865,-6.6224,884.973],[17.7928,-6.621,880.9603],[17.7987,-6.6169,861.8346],[17.8125,-6.6026,842.4124],[17.8297,-6.5899,870.3959],[17.8479,-6.5843,836.1399],[17.8597,-6.5737,826.5872],[17.8667,-6.5575,821.6708],[17.8703,-6.5561,821.6273],[17.8733,-6.5579,820.3937],[17.8786,-6.5581,837.3778],[17.8829,-6.5459,831.5026],[17.8878,-6.5473,849.2278],[17.894,-6.5525,849.8011],[17.9002,-6.5532,840.0308],[17.9087,-6.5499,843.1109],[17.9156,-6.5494,859.2454],[17.9194,-6.5455,895.9346],[17.9217,-6.5404,924.6722],[17.9216,-6.5342,955.4803],[17.9235,-6.5288,972.1588],[17.9255,-6.5276,954.8742],[17.9289,-6.5276,960.1387],[17.9715,-6.5458,877.7304],[17.9735,-6.548,892.1435],[17.973,-6.5585,923.3848],[17.9659,-6.5705,871.8419],[17.9703,-6.5756,881.5754],[17.9751,-6.5781,880.1573],[17.9871,-6.5731,983.8318],[17.9925,-6.573,982.9711],[18.0014,-6.5763,987.6066],[18.0043,-6.5797,987.864],[18.0021,-6.588,981.9816],[18.0066,-6.6121,1001.833],[18.0141,-6.63,1003.9445],[18.0184,-6.6345,1007.9606],[18.0224,-6.635,1003.5587],[18.0281,-6.6318,996.5707],[18.032,-6.6264,1006.0082],[18.0433,-6.6166,1005.1332],[18.0518,-6.6123,962.3051],[18.0575,-6.6122,936.9008],[18.0729,-6.6168,928.7704],[18.066,-6.626,930.2787],[18.064,-6.6334,940.2224],[18.0612,-6.6364,933.8087],[18.0567,-6.638,932.1058],[18.05,-6.6468,936.1157],[18.0462,-6.6581,936.9108],[18.0467,-6.6634,948.9404],[18.0426,-6.6682,943.3261],[18.0415,-6.6721,949.3125],[18.0455,-6.6877,961.5565],[18.0423,-6.702,959.5162],[18.0437,-6.7141,975.6178],[18.0469,-6.7222,1002.2944],[18.0607,-6.743,1035.5623],[18.0652,-6.7625,1003.9718],[18.0678,-6.767,999.4399],[18.0715,-6.7704,976.3164],[18.0824,-6.7717,1015.7249],[18.0909,-6.7761,1031.8167],[18.1042,-6.7989,959.0602],[18.1061,-6.8099,1036.0947],[18.1057,-6.8283,1049.5876],[18.1086,-6.8325,1049.6311],[18.1209,-6.8417,1045.7732],[18.1252,-6.8468,1048.4514],[18.1322,-6.8617,1052.1022],[18.1725,-6.8808,1026.7922],[18.1796,-6.8858,1036.397],[18.1903,-6.8995,1028.8879],[18.2138,-6.9528,1043.1155],[18.2238,-6.9807,1060.52],[18.2284,-6.9829,1052.1917],[18.233,-6.9794,1026.4689],[18.2338,-6.9704,1015.9548],[18.2216,-6.9317,974.4381],[18.2086,-6.9171,970.6891],[18.2033,-6.9051,969.7413],[18.2041,-6.8943,963.6993],[18.201,-6.8812,956.5275],[18.1947,-6.8661,960.6979],[18.1967,-6.8632,959.1289],[18.2047,-6.8609,991.8639],[18.2405,-6.865,1031.9319],[18.2443,-6.8683,1037.6119],[18.2521,-6.8813,1042.5609],[18.2555,-6.8841,1041.8162],[18.2609,-6.8843,1034.6521],[18.2638,-6.8834,1031.9316],[18.2654,-6.8791,1010.139],[18.2661,-6.8624,1013.9388],[18.2686,-6.8593,1028.6151],[18.2885,-6.8582,1011.938],[18.2968,-6.864,974.0552],[18.3027,-6.8728,943.0067],[18.3165,-6.8746,948.7911],[18.3333,-6.8807,932.3568],[18.3496,-6.8787,921.4355],[18.3601,-6.8633,916.8495],[18.3596,-6.8568,918.1034],[18.3642,-6.8561,916.5532],[18.369,-6.848,908.2209],[18.3746,-6.8595,921.4455],[18.3783,-6.8615,917.634],[18.3825,-6.8679,919.4203],[18.3842,-6.8615,917.245],[18.3861,-6.8608,924.556],[18.3898,-6.8663,919.507],[18.3928,-6.8677,927.1585],[18.3942,-6.8716,932.5234],[18.3919,-6.8762,917.7726],[18.395,-6.8798,918.2841],[18.3952,-6.8846,919.3951],[18.3987,-6.8897,928.5003],[18.4026,-6.8924,919.5231],[18.4127,-6.891,957.2437],[18.427,-6.8927,1018.2202],[18.4363,-6.8835,1025.7545],[18.4439,-6.8657,1022.4631],[18.4447,-6.8597,1002.5361],[18.4406,-6.8556,1013.6069],[18.437,-6.8396,1021.5654],[18.4222,-6.8328,987.5331],[18.4178,-6.8195,956.7424],[18.4212,-6.8109,951.0835],[18.4371,-6.808,968.093],[18.4628,-6.7996,1009.5016],[18.4828,-6.7969,1019.2995],[18.5187,-6.7888,1001.173],[18.5211,-6.7901,1003.2491],[18.528,-6.8166,978.7549],[18.5333,-6.8214,967.2419],[18.54,-6.8199,974.6786],[18.5459,-6.8171,972.9907],[18.5505,-6.8125,985.6207],[18.5516,-6.809,973.7993],[18.546,-6.7939,990.8152],[18.5478,-6.7842,989.8708],[18.5978,-6.7386,954.1956],[18.6038,-6.7387,928.5308],[18.6133,-6.7423,886.7147],[18.6227,-6.7421,863.1462],[18.6259,-6.7388,889.3271],[18.6825,-6.7159,975.8218],[18.6902,-6.7179,961.2084],[18.7051,-6.7287,966.2833],[18.724,-6.7462,976.3364],[18.7312,-6.7585,981.6962],[18.7313,-6.7689,986.4661],[18.729,-6.7736,968.598],[18.7151,-6.7906,927.8209],[18.7092,-6.8013,985.4763],[18.7082,-6.8109,982.061],[18.7097,-6.8152,976.4385],[18.7172,-6.8218,973.1318],[18.7211,-6.8224,982.9932],[18.7292,-6.8176,987.988],[18.7338,-6.8127,982.9182],[18.7461,-6.7906,919.6143],[18.7507,-6.7848,948.7877],[18.7541,-6.7838,969.2463],[18.7677,-6.7875,977.4695],[18.7899,-6.8046,910.923],[18.7958,-6.8032,898.7987],[18.7979,-6.8052,900.4018],[18.8096,-6.7992,905.5039],[18.8191,-6.8026,898.6743],[18.823,-6.8023,900.4664],[18.8248,-6.7982,896.6657],[18.8303,-6.7974,898.67],[18.8333,-6.794,913.7663],[18.8443,-6.7953,895.284],[18.8482,-6.7936,895.2019],[18.8507,-6.7899,894.6329],[18.85,-6.7803,886.5161],[18.8531,-6.7771,895.355],[18.8508,-6.7709,889.4634],[18.8533,-6.7649,893.3678],[18.8656,-6.7528,871.5669],[18.8684,-6.7574,869.9434],[18.8714,-6.7523,881.9669],[18.8748,-6.7539,886.0312],[18.877,-6.7633,907.5208],[18.8733,-6.768,878.1567],[18.8759,-6.773,881.1537],[18.879,-6.7875,894.0228],[18.8852,-6.7909,894.0562],[18.8926,-6.7913,897.6569],[18.9015,-6.7839,904.3056],[18.9213,-6.7872,904.8633],[18.9234,-6.792,907.5084],[18.9193,-6.795,903.9852],[18.9189,-6.7982,895.8016],[18.9293,-6.8073,892.8762],[18.936,-6.8084,893.7714],[18.9413,-6.8123,895.8382],[18.945,-6.8231,902.554],[18.9494,-6.827,934.1402],[18.952,-6.8387,911.5789],[18.9754,-6.881,976.3723],[18.9789,-6.8909,979.0479],[18.9814,-6.9201,983.279],[18.986,-6.9197,959.8608],[18.9934,-6.9158,921.1833],[19.0305,-6.9095,931.9801],[19.0459,-6.9016,896.0747],[19.0544,-6.9014,910.3575],[19.0625,-6.8957,941.1813],[19.0692,-6.8949,949.9819],[19.0758,-6.9009,907.7347],[19.0864,-6.8987,941.1452],[19.0892,-6.9003,932.5823],[19.0959,-6.8997,918.7454],[19.1014,-6.9025,891.6733],[19.1106,-6.8984,903.0087],[19.1114,-6.8844,880.871],[19.1178,-6.8817,875.5868],[19.1218,-6.8729,872.1358],[19.1262,-6.8723,872.197],[19.1306,-6.8661,869.5687],[19.1338,-6.8643,869.1775],[19.1375,-6.8662,912.7637],[19.1398,-6.8634,924.7959],[19.145,-6.8471,925.3569],[19.1549,-6.841,898.5004],[19.1682,-6.8404,927.5134],[19.1703,-6.8388,891.9012],[19.1727,-6.8315,875.019],[19.1847,-6.8265,934.5891],[19.1879,-6.8187,930.458],[19.1967,-6.8119,924.4117],[19.2007,-6.7983,900.8888],[19.2033,-6.7963,900.62],[19.2068,-6.7878,880.5584],[19.2234,-6.7744,904.0762],[19.2292,-6.7622,863.5386],[19.2403,-6.7586,808.6487],[19.2491,-6.7518,856.0636],[19.2532,-6.7518,843.6767],[19.264,-6.7583,804.3566],[19.2665,-6.7583,810.7761],[19.2679,-6.7544,811.9638],[19.2766,-6.7575,891.8527],[19.2815,-6.7525,895.1157],[19.2843,-6.744,889.9599],[19.2836,-6.7403,888.1887],[19.2766,-6.7334,886.1283],[19.2718,-6.7216,882.2712],[19.2728,-6.7143,883.9002],[19.2756,-6.709,885.2164],[19.274,-6.7035,884.6661],[19.2789,-6.698,882.5655],[19.278199999999998,-6.6906,881.1857],[19.2813,-6.6718,859.6248],[19.2892,-6.664,756.8173],[19.2913,-6.6594,840.054],[19.2895,-6.6548,799.6218],[19.2988,-6.6305,888.4749],[19.2986,-6.6225,885.579],[19.3035,-6.6163,884.3761],[19.3054,-6.6051,882.5966],[19.3135,-6.5929,880.2515],[19.3196,-6.5877,862.2994],[19.3205,-6.581,760.5123],[19.3181,-6.5677,698.04],[19.3236,-6.562,727.7106],[19.3218,-6.5564,709.1615],[19.3237,-6.5509,745.5043],[19.3203,-6.5443,702.7327],[19.3229,-6.5355,723.1225],[19.3213,-6.527,708.8886],[19.3283,-6.5147,728.9258],[19.3304,-6.5025,689.7416],[19.3296,-6.4947,714.4355],[19.3375,-6.4775,861.1309],[19.3366,-6.4701,862.2031],[19.3424,-6.4633,779.2278],[19.3429,-6.4596,770.9161],[19.3374,-6.4513,724.3114],[19.3423,-6.4421,739.9348],[19.3429,-6.4253,691.2437],[19.3448,-6.4164,784.4432],[19.3405,-6.3996,681.1112],[19.333,-6.3903,672.4267],[19.3305,-6.3836,671.1157]]]]}
,"properties": {"GID_2": "COD.12.1_1","GID_0": "COD","country": "DemocraticRepublicoftheCongo","GID_1": "COD.12_1","province": "Kwango","NL_NAME_1": "NA","county": "Feshi","VARNAME_2": "NA","NL_NAME_2": "NA","TYPE_2": "Territoire","ENGTYPE_2": "Territory","CC_2": "NA","HASC_2": "NA","name": "Feshi.county","area_km2": 18888.98,"hist_schema_id": "Elevation0-9000","hist_area_km2": {"425": 0.93,"450": 3.86,"475": 10.84,"500": 19.68,"525": 31.64,"550": 41.44,"575": 53.4,"600": 76.68,"625": 92.14,"650": 118.41,"675": 120.34,"700": 149.72,"725": 255.97,"750": 438.24,"775": 878.03,"800": 1443.71,"825": 2003.1,"850": 2609.87,"875": 2804.27,"900": 2516.08,"925": 2116.15,"950": 1545.52,"975": 855.19,"1000": 458.54,"1025": 221.18,"1050": 24.06}}}