{"type":"Feature","properties":{"GID_2":"COD.19.6_1","GID_0":"COD","country":"DemocraticRepublicoftheCongo","GID_1":"COD.19_1","province":"Nord-Kivu","NL_NAME_1":"NA","county":"Nyiragongo","VARNAME_2":"NA","NL_NAME_2":"NA","TYPE_2":"Territoire","ENGTYPE_2":"Territory","CC_2":"NA","HASC_2":"NA","name":"Nyiragongo.county"},
"geometry":{"type": "MultiPolygon","coordinates": [[[[29.2524,-1.6623,1579.937],[29.256,-1.659,1594.5896],[29.2604,-1.6506,1617.2004],[29.2683,-1.629,1695.1029],[29.2818,-1.6212,1788.415],[29.2858,-1.6246,1749.9274],[29.2918,-1.626,1874.8292],[29.2921,-1.629,1871.5349],[29.2992,-1.6165,1879.1304],[29.2965,-1.6144,1888.4661],[29.2971,-1.6125,1891.0631],[29.2986,-1.6118,1891.2284],[29.3011,-1.6142,1888.6421],[29.309,-1.6131,1890.5566],[29.3122,-1.6144,1891.6152],[29.3108,-1.6019,1922.7466],[29.3143,-1.6002,1934.7683],[29.3135,-1.5961,1931.3311],[29.3193,-1.586,1952.7526],[29.3182,-1.5857,1952.7526],[29.3202,-1.5801,1950.6536],[29.3218,-1.5784,1951.4127],[29.3249,-1.5809,1969.9077],[29.326,-1.5799,1979.2888],[29.3284,-1.5743,1964.0422],[29.3252,-1.5729,1950.9363],[29.3264,-1.568,1956.7155],[29.3311,-1.5655,1968.2107],[29.337,-1.5562,2003.5771],[29.335,-1.5548,1988.467],[29.3367,-1.5472,2001.197],[29.3536,-1.5367,2157.2954],[29.3552,-1.5311,2153.5713],[29.3619,-1.5311,2213.7349],[29.3603,-1.525,2194.5432],[29.3571,-1.5245,2167.0786],[29.3607,-1.5118,2282.6006],[29.3626,-1.5123,2297.2341],[29.3674,-1.5087,2271.6338],[29.376,-1.5086,2307.1064],[29.3764,-1.5248,2376.6704],[29.3801,-1.5247,2413.187],[29.3796,-1.5085,2356.0757],[29.3832,-1.5084,2402.5164],[29.3836,-1.5247,2453.0793],[29.3872,-1.5246,2487.5203],[29.3873,-1.5284,2490.4038],[29.3981,-1.5289,2651.199],[29.3979,-1.5228,2605.0532],[29.3944,-1.5228,2582.2202],[29.3939,-1.508,2571.1973],[29.45,-1.5061,4467.2305],[29.4667,-1.5131,3857.0632],[29.4742,-1.4988,3476.1208],[29.4568,-1.4966,3834.6145],[29.4731,-1.4747,3186.3535],[29.4448,-1.4694,3184.3101],[29.3957,-1.4647,2857.7866],[29.3081,-1.4628,1927.8018],[29.2797,-1.4704,2068.519],[29.2541,-1.4688,2196.9995],[29.2182,-1.4378,2492.9802],[29.2236,-1.4666,2279.427],[29.2181,-1.4747,2261.1033],[29.1869,-1.5005,2102.3062],[29.1561,-1.5323,1879.6381],[29.1564,-1.5646,1689.1067],[29.1677,-1.5788,1675.5585],[29.1679,-1.5828,1665.318],[29.1606,-1.5993,1584.9666],[29.1531,-1.6104,1541.1167],[29.1687,-1.6132,1547.9918],[29.1986,-1.6399,1553.1169],[29.2179,-1.6536,1557.5436],[29.2393,-1.6558,1550.2231],[29.2524,-1.6623,1579.937]]]]}}