{"type":"Feature","properties":{"GID_2":"COD.25.8_1","GID_0":"COD","country":"DemocraticRepublicoftheCongo","GID_1":"COD.25_1","province":"Tshopo","NL_NAME_1":"NA","county":"Opala","VARNAME_2":"NA","NL_NAME_2":"NA","TYPE_2":"Territoire","ENGTYPE_2":"Territory","CC_2":"NA","HASC_2":"NA","name":"Opala.county"},
"geometry":{"type": "MultiPolygon","coordinates": [[[[25.0245,-1.9686,481.5561],[25.0166,-1.9595,484.8826],[25.0125,-1.9505,480.9985],[25.0139,-1.9464,472.3103],[25.0267,-1.9339,457.3388],[25.0326,-1.9208,472.5229],[25.0342,-1.907,469.1685],[25.0315,-1.8948,466.4817],[25.0328,-1.8872,466.1209],[25.0296,-1.882,472.5212],[25.0193,-1.8811,479.0698],[25.0145,-1.8753,477.0228],[25.009,-1.8633,472.0791],[25.0122,-1.8433,483.5748],[25.0115,-1.8305,471.5128],[25.0126,-1.8199,475.7304],[25.0216,-1.8047,475.4623],[25.0243,-1.796,470.3156],[25.0243,-1.7902,467.2253],[25.0293,-1.7769,464.7739],[25.0407,-1.7543,461.3382],[25.0446,-1.7369,473.5906],[25.051,-1.7201,464.0766],[25.0521,-1.7022,467.9922],[25.0494,-1.6955,469.4315],[25.0464,-1.6787,473.2177],[25.0341,-1.6602,471.0046],[25.0317,-1.6412,476.375],[25.0249,-1.6284,479.9603],[25.0261,-1.6185,467.5023],[25.0143,-1.6079,474.7998],[25.0125,-1.6024,479.0158],[25.0164,-1.59,479.8191],[25.0196,-1.5851,480.7888],[25.0363,-1.575,464.3976],[25.0381,-1.5716,463.0185],[25.0394,-1.544,463.4682],[25.046,-1.5366,470.5188],[25.0481,-1.5318,469.5981],[25.0463,-1.527,464.5659],[25.041,-1.5214,467.6272],[25.0246,-1.5175,473.1833],[25.0188,-1.512,466.6613],[25.0166,-1.5067,473.2831],[25.013,-1.4894,459.7244],[25.0063,-1.4798,472.1674],[25.0037,-1.4651,453.5433],[25.008,-1.4401,449.9143],[25.0068,-1.4347,445.9617],[25.0156,-1.4346,449.5382],[25.0325,-1.4302,455.7106],[25.0428,-1.4226,468.0336],[25.0617,-1.421,451.1708],[25.0745,-1.418,448.2866],[25.0901,-1.4076,457.1886],[25.1286,-1.3699,452.1],[25.1376,-1.3658,469.5454],[25.1487,-1.354,476.4574],[25.1154,-1.3218,462.589],[25.1037,-1.2736,473.8536],[25.0856,-1.2095,455.6699],[25.0657,-1.1734,471.2626],[25.0151,-1.1303,465.0825],[24.9681,-1.0934,470.1598],[24.9202,-1.052,454.8211],[24.875,-0.9949,454.617],[24.8144,-0.9272,451.6168],[24.7484,-0.8752,457.7274],[24.6679,-0.8277,476.7715],[24.6489,-0.8145,452.3377],[24.6363,-0.7846,470.1115],[24.6101,-0.7451,463.8361],[24.5621,-0.6914,487.3889],[24.5377,-0.6255,516.7404],[24.5233,-0.5816,470.0876],[24.5034,-0.5114,447.1339],[24.4663,-0.4692,487.1653],[24.4546,-0.4489,478.6628],[24.4229,-0.4138,459.6586],[24.4121,-0.3523,494.9284],[24.4094,-0.3462,482.3813],[24.3813,-0.3163,469.848],[24.3705,-0.2899,463.8216],[24.3994,-0.2882,456.5907],[24.4012,-0.2733,484.9734],[24.4564,-0.2664,464.4275],[24.4843,-0.2666,481.3397],[24.7448,-0.3065,483.551],[24.771,-0.3276,484.753],[24.955,0.0119,449.2811],[25.0205,0.1238,480.6017],[25.0269,0.1381,522.6976],[25.0327,0.2747,508.7523],[25.0255,0.3409,483.2646],[25.005,0.363,509.3478],[25.0028,0.3981,500.5929],[24.9943,0.421,516.9607],[24.9685,0.4583,473.5948],[24.9547,0.4622,449.6971],[24.9003,0.4675,501.5372],[24.8642,0.4892,468.873],[24.7631,0.5339,451.1355],[24.7579,0.5322,415.9224],[24.7296,0.5532,405.2424],[24.7217,0.5609,404.2288],[24.7179,0.556,415.1038],[24.6998,0.509,452.7694],[24.6862,0.4957,463.1205],[24.6564,0.4297,484.4914],[24.6382,0.4059,453.8193],[24.5431,0.346,430.7299],[24.521,0.3432,441.9871],[24.4942,0.3466,431.9685],[24.4964,0.3609,419.5532],[24.5015,0.3729,417.0587],[24.516,0.3915,419.2885],[24.5402,0.415,456.9829],[24.5569,0.42,476.0612],[24.5775,0.4221,454.0316],[24.5968,0.4281,445.7259],[24.6238,0.454,454.9339],[24.6231,0.4618,458.4527],[24.6154,0.4912,451.1369],[24.6163,0.5038,462.6346],[24.6087,0.5169,442.757],[24.6065,0.5396,442.4967],[24.5677,0.5093,444.6019],[24.5344,0.4864,457.4515],[24.4978,0.4797,431.615],[24.4573,0.4792,450.34],[24.4322,0.4206,447.6039],[24.4296,0.3937,400.3178],[24.4246,0.3705,426.3638],[24.4143,0.2998,428.004],[24.4007,0.3008,430.639],[24.3634,0.3371,434.2206],[24.3411,0.3822,421.2262],[24.3382,0.3727,427.8768],[24.3362,0.3524,417.2126],[24.3174,0.25,424.7929],[24.3185,0.244,428.3729],[24.3172,0.2311,435.4303],[24.3107,0.2072,434.8693],[24.3014,0.1964,438.4179],[24.3017,0.181,440.1158],[24.3047,0.1734,436.3701],[24.2985,0.166,439.6641],[24.2916,0.1702,448.2972],[24.2766,0.1852,443.6021],[24.2617,0.1925,434.3351],[24.2539,0.1896,434.1317],[24.2373,0.1759,456.7278],[24.1945,0.1285,448.9898],[24.1696,0.105,442.9134],[24.1772,0.0879,439.1269],[24.1895,0.0767,449.1918],[24.2305,0.0288,466.9251],[24.2419,0.0166,446.0931],[24.2625,0.003,437.9957],[24.2681,-0.0099,461.5472],[24.2727,-0.0278,444.4311],[24.2728,-0.0411,455.7305],[24.1674,-0.1242,445.4289],[24.1665,-0.1271,442.1627],[24.1548,-0.1363,443.3107],[24.1485,-0.1496,437.3534],[24.1343,-0.1622,429.3612],[24.1113,-0.1726,424.3209],[24.0828,-0.1558,399.8482],[24.0635,-0.1629,394.826],[24.0377,-0.1651,407.4118],[24.0219,-0.177,406.4317],[24.0202,-0.1868,410.7796],[24.0478,-0.2563,423.6916],[24.0323,-0.2579,422.942],[23.9841,-0.2677,430.6215],[23.9743,-0.2666,421.3178],[23.9586,-0.2716,427.5553],[23.9501,-0.2723,428.9166],[23.9399,-0.2705,417.4129],[23.9134,-0.286,437.7401],[23.889,-0.2952,445.0721],[23.8691,-0.2991,436.5257],[23.8607,-0.2988,441.7964],[23.8392,-0.2894,446.4379],[23.8295,-0.2883,439.5012],[23.8175,-0.297,432.332],[23.7965,-0.322,431.7973],[23.7812,-0.3334,438.6317],[23.7538,-0.3655,447.9463],[23.7403,-0.3761,450.9371],[23.6882,-0.3896,426.0545],[23.6498,-0.3925,428.7575],[23.5542,-0.3942,408.3022],[23.5352,-0.3887,418.7622],[23.5051,-0.3874,401.7597],[23.482,-0.3996,418.0045],[23.4719,-0.3998,427.9471],[23.4112,-0.4091,419.0166],[23.4187,-0.4135,408.969],[23.4235,-0.4186,413.1585],[23.4315,-0.4321,404.177],[23.4459,-0.4473,402.4444],[23.455,-0.4524,403.2411],[23.4567,-0.4919,401.6406],[23.4744,-0.5443,415.5509],[23.5024,-0.5702,426.0732],[23.5284,-0.5862,439.4907],[23.5393,-0.5946,434.0031],[23.5344,-0.6128,421.664],[23.5172,-0.6202,428.5902],[23.4965,-0.6245,434.0321],[23.4409,-0.6421,423.3997],[23.4271,-0.6492,410.9002],[23.3977,-0.6498,407.4204],[23.3931,-0.6556,413.6929],[23.3874,-0.6677,409.4661],[23.3824,-0.6728,406.4461],[23.3712,-0.6748,412.3169],[23.3472,-0.6833,412.3875],[23.3364,-0.6881,408.1228],[23.3335,-0.6915,422.4977],[23.3284,-0.703,411.8707],[23.327,-0.7198,405.3815],[23.3222,-0.7315,413.5161],[23.3227,-0.7384,418.4782],[23.3208,-0.7453,420.2586],[23.3151,-0.751,403.2136],[23.3131,-0.7568,400.4967],[23.3096,-0.7574,399.6508],[23.2968,-0.7483,400.7578],[23.2777,-0.7456,408.193],[23.257,-0.7513,423.8398],[23.2553,-0.7611,406.4406],[23.2823,-0.7824,403.9546],[23.2986,-0.7904,404.8205],[23.3081,-0.8197,399.1487],[23.344,-0.8425,423.6964],[23.3558,-0.8532,424.3584],[23.3687,-0.8672,425.2558],[23.3855,-0.8979,448.9357],[23.4016,-0.9007,429.3301],[23.4392,-0.9272,427.0479],[23.4693,-0.9537,405.1778],[23.5097,-0.9858,443.3411],[23.5609,-0.9968,434.535],[23.5812,-1.0094,446.609],[23.6385,-1.0106,421.4807],[23.6655,-1.0469,433.8251],[23.6706,-1.0749,439.7174],[23.6483,-1.138,401.5068],[23.651,-1.1492,449.9377],[23.6582,-1.1534,450.9658],[23.6775,-1.1491,459.4639],[23.7024,-1.1502,419.346],[23.7287,-1.1602,438.556],[23.739,-1.1601,436.4385],[23.7681,-1.1751,448.3],[23.8,-1.1879,427.2805],[23.8043,-1.1921,451.6988],[23.8037,-1.2145,410.991],[23.8224,-1.237,407.7912],[23.8367,-1.2467,423.513],[23.8417,-1.2788,436.3872],[23.8503,-1.2886,404.6486],[23.8909,-1.3095,447.2148],[23.8983,-1.3109,405.5803],[23.9054,-1.3193,466.7189],[23.9093,-1.3389,468.4911],[23.9344,-1.3788,405.5185],[23.9554,-1.3742,443.6527],[23.9577,-1.3701,441.2393],[23.9639,-1.3655,414.329],[23.9689,-1.3563,415.0262],[23.9748,-1.3524,419.3548],[23.9984,-1.3531,410.6591],[24.005,-1.3517,408.3142],[24.0102,-1.3428,404.2291],[24.0176,-1.335,417.3322],[24.0244,-1.3317,431.8598],[24.0468,-1.3267,450.1274],[24.0603,-1.3187,425.17],[24.0719,-1.3074,428.6236],[24.126,-1.3228,451.2289],[24.2657,-1.3251,518.6622],[24.3599,-1.3248,481.4318],[24.3684,-1.3934,503.3122],[24.3853,-1.4214,588.3845],[24.4092,-1.6258,486.0133],[24.4056,-1.6524,546.1352],[24.4228,-1.6677,586.0637],[24.4894,-1.8187,490.3387],[24.5151,-1.904,481.64],[24.5325,-1.9124,484.5151],[24.5733,-1.9434,543.9327],[24.5984,-1.9808,611.1696],[24.9782,-1.9816,496.4962],[24.9839,-1.977,493.517],[24.9899,-1.9747,501.978],[25.0245,-1.9686,481.5561]]]]}}