{"type": "Feature","bbox": [26.8106,-4.0224,28.3773,-1.9912],"geometry": {"type": "MultiPolygon","coordinates": [[[[27.8378,-4.0224,1128.98],[27.8699,-4.0114,1252.3723],[27.9284,-3.9851,955.8167],[27.9559,-3.9777,766.8551],[27.981,-3.9652,752.5266],[27.9767,-3.9569,758.9631],[27.9798,-3.9332,807.0746],[27.9787,-3.9249,812.6002],[27.9809,-3.9157,896.6526],[27.993,-3.9026,1276.5588],[27.9987,-3.8926,1325.3197],[28.0128,-3.8783,1399.748],[28.0429,-3.8697,1426.9678],[28.0547,-3.8626,1469.1276],[28.0691,-3.8506,1446.0609],[28.0714,-3.8331,1452.5446],[28.0773,-3.8292,1514.4434],[28.0889,-3.8271,1316.5807],[28.1062,-3.8277,1267.6472],[28.1482,-3.825,1385.2383],[28.2035,-3.828,1336.3699],[28.2031,-3.8222,1338.8479],[28.2013,-3.8201,1337.3372],[28.2002,-3.822,1354.2119],[28.1946,-3.8207,1313.6516],[28.1939,-3.8162,1319.6584],[28.1842,-3.8171,1343.3855],[28.1798,-3.8103,1313.1947],[28.1797,-3.8045,1287.0214],[28.1784,-3.8037,1287.0214],[28.1805,-3.8025,1289.0042],[28.1782,-3.8,1293.5203],[28.174,-3.8001,1307.1816],[28.1686,-3.7968,1292.0054],[28.1658,-3.7978,1282.0599],[28.1647,-3.7962,1290.8213],[28.1663,-3.791,1335.3401],[28.1571,-3.7838,1307.0692],[28.1521,-3.7731,1276.8821],[28.1547,-3.7674,1274.4498],[28.1534,-3.7622,1288.2825],[28.1568,-3.7593,1262.5612],[28.1563,-3.7537,1253.0447],[28.155,-3.7507,1251.1899],[28.1493,-3.748,1254.7764],[28.1485,-3.7424,1247.1272],[28.1393,-3.7368,1245.0027],[28.1326,-3.7371,1244.6914],[28.1309,-3.7327,1251.0428],[28.1257,-3.7314,1232.006],[28.125,-3.7288,1236.8425],[28.1215,-3.7275,1239.4651],[28.1179,-3.7288,1253.2385],[28.1171,-3.7269,1243.521],[28.1142,-3.7262,1273.8503],[28.1052,-3.7273,1259.6084],[28.0978,-3.7238,1234.048],[28.0967,-3.7211,1247.3688],[28.095,-3.7219,1278.6559],[28.0944,-3.7192,1253.5071],[28.0911,-3.7201,1312.1193],[28.0835,-3.7171,1194.2316],[28.0839,-3.7148,1187.9114],[28.0855,-3.7144,1190.0352],[28.0846,-3.7111,1177.9717],[28.0864,-3.7104,1186.5664],[28.0867,-3.7082,1186.6245],[28.0845,-3.7063,1187.8641],[28.0787,-3.706,1244.621],[28.0785,-3.7034,1250.6228],[28.0739,-3.7,1240.4532],[28.0786,-3.6956,1275.7395],[28.0821,-3.6957,1195.5779],[28.0817,-3.6932,1187.9877],[28.0845,-3.6904,1196.6263],[28.0826,-3.6863,1175.875],[28.0789,-3.6859,1228.906],[28.0826,-3.6793,1216.603],[28.0817,-3.6771,1214.228],[28.0751,-3.6778,1195.2635],[28.0735,-3.6764,1199.6045],[28.0742,-3.6753,1186.5662],[28.0697,-3.6722,1177.3154],[28.0698,-3.6703,1178.2986],[28.064,-3.6687,1189.7019],[28.0653,-3.6643,1176.4019],[28.0644,-3.6616,1173.1079],[28.0622,-3.6611,1171.0024],[28.0625,-3.6583,1164.5757],[28.0581,-3.6585,1235.5857],[28.0583,-3.6543,1241.333],[28.0602,-3.6528,1169.0094],[28.0582,-3.6515,1219.5884],[28.0585,-3.6459,1137.8914],[28.0516,-3.6421,1060.4558],[28.0493,-3.6438,1022.7686],[28.0462,-3.6431,1026.6365],[28.0407,-3.6364,993.042],[28.0384,-3.6364,1014.7892],[28.0358,-3.6322,1000.1964],[28.0322,-3.6307,977.8845],[28.0336,-3.6286,984.5292],[28.0295,-3.6258,958.9961],[28.0274,-3.6215,947.6685],[28.0251,-3.6208,975.5092],[28.0269,-3.6204,941.8022],[28.0271,-3.6155,937.8816],[28.0308,-3.6161,940.0001],[28.032,-3.6144,945.5737],[28.0378,-3.6141,943.8143],[28.0361,-3.61,924.8391],[28.0384,-3.6101,924.6041],[28.0439,-3.5999,932.5739],[28.0474,-3.5981,925.111],[28.0467,-3.5964,919.1064],[28.0446,-3.5978,923.583],[28.0472,-3.5902,921.7654],[28.0462,-3.5881,916.845],[28.0494,-3.5891,924.1135],[28.0505,-3.5865,929.3268],[28.048,-3.5822,923.7551],[28.044,-3.5825,926.5083],[28.0434,-3.5801,937.4435],[28.041,-3.5789,952.2809],[28.0392,-3.582,955.9195],[28.0384,-3.5814,955.9195],[28.0394,-3.5765,947.0856],[28.036,-3.5757,932.8438],[28.0351,-3.5723,922.7139],[28.031,-3.5724,929.6914],[28.0284,-3.5695,929.3782],[28.0237,-3.5693,929.7537],[28.0232,-3.5676,960.5267],[28.0253,-3.5656,944.4012],[28.0233,-3.5648,976.3381],[28.0231,-3.5619,901.5607],[28.0155,-3.5628,900.0982],[28.0158,-3.5601,891.7426],[28.0139,-3.5591,904.4984],[28.0175,-3.5549,907.9543],[28.0153,-3.5542,861.5126],[28.0127,-3.556,858.5316],[28.0092,-3.554,876.0625],[28.0096,-3.5469,856.9856],[28.0088,-3.5458,825.4337],[28.0075,-3.5467,854.8548],[28.0094,-3.5407,832.9621],[28.0049,-3.533,804.765],[28.0148,-3.5286,797.2634],[28.0128,-3.5247,845.8574],[28.0159,-3.5154,743.9189],[28.0184,-3.512,725.5096],[28.0258,-3.5092,728.544],[28.0271,-3.5073,725.3032],[28.026,-3.5042,720.325],[28.0292,-3.504,723.7245],[28.0253,-3.4992,811.8771],[28.0253,-3.4955,734.0294],[28.0227,-3.4945,727.8215],[28.0231,-3.4919,718.2209],[28.0214,-3.4914,718.2209],[28.0172,-3.4955,734.6723],[28.0179,-3.49,703.4891],[28.0162,-3.4925,694.5307],[28.0143,-3.4924,741.2865],[28.0122,-3.4878,703.0922],[28.0061,-3.4858,719.2884],[28.0059,-3.4828,675.8958],[28.0031,-3.4814,703.0369],[28.0038,-3.4789,673.9833],[28.0014,-3.4781,680.1359],[28.0021,-3.4765,674.177],[27.9993,-3.4746,666.816],[27.9974,-3.4699,670.64],[27.9999,-3.4684,658.4852],[27.9984,-3.4613,696.2225],[28.0022,-3.4603,648.3931],[28.0001,-3.4543,665.6919],[28.0015,-3.4501,705.5248],[27.9996,-3.4498,694.8392],[27.9995,-3.4472,717.7974],[27.9946,-3.4489,676.7909],[27.9903,-3.4462,653.91],[27.9879,-3.4418,651.6795],[27.9888,-3.4361,631.8162],[27.9869,-3.4321,632.0054],[27.9818,-3.4303,620.1132],[27.9751,-3.4407,654.6191],[27.9646,-3.4437,615.1027],[27.9625,-3.4491,608.9247],[27.9599,-3.4508,611.8523],[27.9575,-3.4495,621.8705],[27.9587,-3.4448,625.3832],[27.9533,-3.4461,634.6486],[27.936,-3.4408,617.7782],[27.9295,-3.4454,628.3777],[27.9272,-3.4451,604.417],[27.9226,-3.4493,617.4442],[27.9208,-3.4547,623.9756],[27.9142,-3.458,611.655],[27.9074,-3.4535,604.9684],[27.9053,-3.4482,601.6974],[27.9035,-3.4474,600.6627],[27.9011,-3.4496,600.6928],[27.9019,-3.4554,600.4497],[27.8967,-3.4561,600.5421],[27.9002,-3.4602,601.3124],[27.9005,-3.4634,601.139],[27.8959,-3.4631,603.001],[27.8955,-3.4645,599.4807],[27.8968,-3.4676,598.5441],[27.9016,-3.465,599.4619],[27.9048,-3.4686,613.8188],[27.8984,-3.4724,608.4133],[27.8912,-3.4721,615.4772],[27.8878,-3.4692,600.1102],[27.8854,-3.4633,599.5651],[27.8836,-3.4656,598.2292],[27.8828,-3.4768,608.1655],[27.8751,-3.474,602.6045],[27.8711,-3.4745,597.7352],[27.8692,-3.4766,605.1407],[27.8709,-3.4827,595.0],[27.8699,-3.4846,625.2084],[27.8649,-3.4853,608.2864],[27.8589,-3.4826,597.5339],[27.8572,-3.4856,597.0519],[27.8598,-3.489,610.7541],[27.8565,-3.4911,600.2742],[27.8538,-3.4904,608.9308],[27.8474,-3.4844,595.4031],[27.8456,-3.4915,605.1011],[27.8404,-3.4868,596.3224],[27.840699999999998,-3.4926,600.3389],[27.8455,-3.4941,597.2432],[27.8461,-3.4958,596.6766],[27.84,-3.4967,595.3267],[27.8377,-3.4995,598.8632],[27.8297,-3.4987,595.1797],[27.8257,-3.5024,596.1466],[27.8206,-3.5031,604.1346],[27.8162,-3.5061,601.2422],[27.8145,-3.5047,595.7432],[27.8144,-3.4999,594.1014],[27.8128,-3.5069,605.86],[27.8032,-3.5088,608.6583],[27.7931,-3.5038,598.5717],[27.7885,-3.5098,599.3987],[27.7829,-3.5098,595.6835],[27.7814,-3.5145,598.0384],[27.7762,-3.5135,600.1973],[27.7739,-3.5106,594.5936],[27.7747,-3.5047,592.558],[27.7708,-3.5062,594.4974],[27.7661,-3.5122,596.481],[27.7626,-3.5104,591.8087],[27.7584,-3.5114,603.4512],[27.7549,-3.51,594.7029],[27.7537,-3.5108,609.4472],[27.7542,-3.5162,604.3284],[27.7494,-3.5188,592.7117],[27.7509,-3.5223,590.2108],[27.7556,-3.5246,603.446],[27.7552,-3.5261,603.446],[27.753,-3.5265,604.3404],[27.7464,-3.5217,594.4959],[27.7413,-3.5217,609.5392],[27.7408,-3.5192,602.5909],[27.7448,-3.516,594.5002],[27.7397,-3.5122,591.4745],[27.7358,-3.5134,595.2803],[27.7343,-3.5178,594.5457],[27.7314,-3.518,612.9528],[27.7271,-3.5162,587.7574],[27.7269,-3.5124,592.8737],[27.7222,-3.5144,600.1013],[27.7099,-3.5125,613.0883],[27.701,-3.505,640.4735],[27.697,-3.4928,704.4897],[27.6975,-3.4734,1024.1997],[27.7038,-3.4575,879.9648],[27.7137,-3.4388,980.8416],[27.7293,-3.4263,938.8797],[27.7352,-3.4063,808.2351],[27.7342,-3.3728,870.7519],[27.7421,-3.3601,1034.2218],[27.7426,-3.3448,1048.7456],[27.7407,-3.3302,1056.9957],[27.7294,-3.3206,1019.7157],[27.7315,-3.3101,1137.819],[27.7605,-3.3033,1127.2722],[27.7763,-3.2926,993.6343],[27.8004,-3.2226,996.2878],[27.8093,-3.2124,930.0413],[27.8166,-3.1925,842.804],[27.8111,-3.177,922.9537],[27.8106,-3.1713,1010.6076],[27.8159,-3.1516,891.7516],[27.8155,-3.1368,894.8674],[27.8219,-3.1243,1064.8248],[27.8672,-3.0735,996.704],[27.8759,-3.0588,1004.582],[27.8821,-3.0429,1029.6766],[27.8839,-3.0268,894.4639],[27.8808,-3.0057,826.4126],[27.8821,-2.9916,728.4322],[27.8757,-2.9833,719.9239],[27.8733,-2.9719,678.9401],[27.877,-2.9664,694.8265],[27.8917,-2.964,684.5639],[27.924,-2.9637,766.7839],[27.9469,-2.9616,811.2877],[27.9513,-2.9662,944.9243],[27.9589,-2.9918,1003.2521],[27.9666,-2.9953,1080.2639],[27.9736,-2.9862,1074.0876],[27.9883,-2.9879,1055.7405],[27.9945,-2.9715,1158.7229],[28.0143,-2.9475,1068.1881],[28.0294,-2.9467,1027.5454],[28.0283,-2.9317,1053.4457],[28.0386,-2.9159,1111.0851],[28.0408,-2.8953,982.0568],[28.0458,-2.8838,1007.1074],[28.0694,-2.8811,838.6125],[28.0915,-2.885,798.3924],[28.0963,-2.8872,754.9519],[28.1029,-2.8869,786.989],[28.1097,-2.8903,830.5978],[28.1153,-2.8897,782.578],[28.1199,-2.893,848.0251],[28.1308,-2.8945,801.8979],[28.1311,-2.8974,788.1817],[28.1389,-2.9025,793.8642],[28.1445,-2.903,839.932],[28.148,-2.905,844.8342],[28.1528,-2.9051,788.728],[28.1669,-2.9,791.2959],[28.169,-2.9009,797.9572],[28.1686,-2.9035,839.7068],[28.1706,-2.9032,827.2236],[28.175,-2.8978,821.2941],[28.1835,-2.8925,842.9629],[28.1847,-2.8895,825.7479],[28.1902,-2.8858,818.8628],[28.1948,-2.8793,803.3773],[28.2069,-2.8733,852.45],[28.2084,-2.869,900.194],[28.2069,-2.8646,834.748],[28.2077,-2.856,884.8665],[28.2147,-2.8454,868.2308],[28.2206,-2.8396,819.7589],[28.2234,-2.8391,829.3022],[28.2238,-2.8359,846.2327],[28.2271,-2.8378,854.8542],[28.2293,-2.8363,855.8405],[28.2312,-2.8369,855.8405],[28.2364,-2.8323,838.9409],[28.2417,-2.8317,863.4944],[28.2446,-2.8331,853.1984],[28.2468,-2.8366,860.588],[28.252,-2.8373,833.7384],[28.2534,-2.8405,886.4803],[28.261,-2.8427,876.6717],[28.2734,-2.8503,859.7151],[28.2809,-2.8489,879.8927],[28.2859,-2.8454,844.5234],[28.2904,-2.8462,840.2106],[28.2994,-2.8423,871.9277],[28.3073,-2.8342,862.5374],[28.3177,-2.8282,889.9118],[28.3134,-2.8283,958.2308],[28.321,-2.8156,939.7484],[28.3181,-2.7925,1240.9808],[28.3371,-2.7639,1037.7202],[28.3423,-2.7504,1102.9963],[28.3383,-2.7115,1490.5669],[28.3561,-2.698,1240.3076],[28.3759,-2.687,1442.4524],[28.3773,-2.6824,1473.7306],[28.3736,-2.6776,1453.3741],[28.3724,-2.6721,1406.0002],[28.3568,-2.6632,1321.7698],[28.3565,-2.6524,1292.1343],[28.3589,-2.6525,1285.6265],[28.3463,-2.6403,1290.436],[28.3411,-2.6329,1270.4204],[28.3356,-2.6308,1354.1848],[28.3296,-2.6251,1262.6104],[28.3181,-2.6245,1206.5963],[28.3157,-2.6275,1219.5879],[28.3162,-2.6314,1229.856],[28.3149,-2.6323,1231.7422],[28.315,-2.6304,1191.1544],[28.3129,-2.6307,1227.1207],[28.3138,-2.6233,1176.8894],[28.3097,-2.6247,1216.7789],[28.3053,-2.6188,1222.1667],[28.3007,-2.62,1180.9565],[28.3006,-2.6181,1143.9668],[28.2964,-2.6154,1150.549],[28.2941,-2.6113,1126.6367],[28.2913,-2.6107,1105.1814],[28.2906,-2.607,1102.6716],[28.2886,-2.609,1133.2694],[28.2853,-2.6081,1123.8435],[28.2805,-2.614,1128.8262],[28.2798,-2.6187,1098.5271],[28.2714,-2.6239,1096.7468],[28.2662,-2.6236,1099.0684],[28.2644,-2.6217,1107.1328],[28.255,-2.6231,1117.3461],[28.2435,-2.6328,1108.377],[28.2388,-2.6333,1109.7637],[28.2296,-2.64,1174.8914],[28.2207,-2.6383,1068.1064],[28.2168,-2.6434,1072.2777],[28.2057,-2.6446,1067.7461],[28.2069,-2.6388,1199.4314],[28.2354,-2.6034,1212.8274],[28.2471,-2.6022,1269.3756],[28.2565,-2.5935,1218.3817],[28.263,-2.5801,1197.4257],[28.2529,-2.5756,1253.6469],[28.2476,-2.551,1301.4563],[28.2172,-2.5335,1055.5029],[28.2075,-2.5247,1111.6685],[28.2103,-2.5122,1088.0785],[28.2371,-2.5068,1059.1085],[28.2486,-2.5208,1059.204],[28.2731,-2.5175,1056.2173],[28.2761,-2.4985,1068.4742],[28.2724,-2.4685,1072.4255],[28.2746,-2.4581,1130.292],[28.2686,-2.4391,1128.0787],[28.2681,-2.4246,1366.3596],[28.2798,-2.4013,1376.197],[28.2919,-2.3893,1297.4573],[28.3111,-2.3768,1236.0297],[28.3353,-2.3833,1316.6825],[28.3393,-2.3775,1524.728],[28.3336,-2.3664,1396.675],[28.3339,-2.3503,1360.42],[28.328,-2.3344,1421.1519],[28.3243,-2.3136,1316.6982],[28.3094,-2.2816,1346.4644],[28.2975,-2.2799,1298.4889],[28.2675,-2.2814,1209.683],[28.2634,-2.275,1195.4635],[28.2795,-2.2535,1182.0997],[28.2915,-2.2087,1106.4475],[28.2817,-2.2049,1084.4204],[28.2474,-2.2045,1281.9702],[28.2391,-2.2007,1238.5906],[28.2334,-2.1966,1271.2332],[28.2246,-2.1867,1284.1178],[28.2131,-2.1647,1248.6232],[28.2051,-2.1557,1139.6024],[28.1904,-2.1452,1172.7126],[28.1842,-2.1358,1220.4645],[28.1777,-2.1188,1253.7549],[28.1765,-2.1117,1240.3699],[28.179,-2.1006,1178.03],[28.1711,-2.0775,1172.0376],[28.1671,-2.046,1121.2317],[28.1586,-2.0478,1053.2526],[28.1475,-2.0469,1135.5555],[28.0998,-2.0658,1178.588],[28.1001,-2.0474,1141.3141],[28.0949,-2.0251,1090.3444],[28.1008,-2.0083,1098.1804],[28.0871,-1.9987,1122.3],[28.0777,-1.9986,1134.3143],[28.043,-2.004,1154.2064],[28.0116,-2.0118,1151.448],[27.9979,-2.0324,1166.619],[27.9906,-2.0252,1173.6018],[27.9886,-2.0085,1164.9568],[27.9847,-2.0068,1174.7661],[27.9737,-2.0092,1164.3087],[27.962,-2.0163,1264.722],[27.9498,-2.0002,1215.9884],[27.9087,-1.9992,1233.5955],[27.885,-2.0015,1056.9869],[27.8616,-2.0133,1064.2559],[27.8384,-2.0339,1142.4019],[27.8155,-2.0329,1079.7817],[27.7846,-2.0288,1084.5872],[27.7397,-2.0006,1126.5321],[27.3809,-1.9912,861.2607],[27.3749,-1.9999,812.6152],[27.3783,-2.0062,794.6337],[27.3936,-2.0169,870.834],[27.4351,-2.0291,933.3297],[27.4564,-2.0291,989.9122],[27.4724,-2.0339,1173.6101],[27.4736,-2.041,1159.7585],[27.4678,-2.0584,1026.0798],[27.453,-2.0843,1186.7323],[27.4461,-2.1072,1266.9749],[27.4534,-2.1205,1282.22],[27.4526,-2.1305,1251.0953],[27.4238,-2.1438,1246.818],[27.4087,-2.1557,928.1658],[27.3847,-2.1671,684.9468],[27.3688,-2.1642,698.8289],[27.353,-2.1653,603.3686],[27.3192,-2.196,595.7641],[27.2946,-2.2293,600.0555],[27.288,-2.2421,600.9805],[27.2789,-2.2389,595.8716],[27.2709,-2.2384,569.9266],[27.2686,-2.2338,550.0],[27.2688,-2.2293,559.86],[27.2642,-2.2266,552.3969],[27.2601,-2.2273,555.9791],[27.2558,-2.2306,565.8929],[27.2521,-2.2411,560.1685],[27.243,-2.2487,574.2808],[27.2412,-2.2538,579.1485],[27.2412,-2.2664,566.03],[27.24,-2.2701,554.3724],[27.2375,-2.2713,581.5054],[27.2314,-2.2693,555.6953],[27.2284,-2.2635,552.3561],[27.2292,-2.2496,576.5239],[27.2273,-2.2385,563.9773],[27.2201,-2.2348,547.0],[27.2124,-2.2333,547.0],[27.2092,-2.2362,572.6022],[27.2084,-2.2408,565.6023],[27.2065,-2.2427,552.6624],[27.2032,-2.2385,549.8784],[27.2038,-2.2258,546.5],[27.2025,-2.2237,561.2127],[27.1995,-2.2245,577.64],[27.1959,-2.2327,554.7079],[27.1937,-2.2343,549.4882],[27.1883,-2.2335,551.5224],[27.1873,-2.2277,546.0],[27.1974,-2.2222,549.7887],[27.1965,-2.2186,551.8639],[27.1908,-2.2191,560.5491],[27.183,-2.2227,578.1923],[27.1804,-2.2285,558.5374],[27.1804,-2.2389,550.2302],[27.1761,-2.2416,566.0753],[27.1726,-2.2394,545.0],[27.1711,-2.2353,554.0484],[27.1719,-2.2288,554.5869],[27.1757,-2.2196,574.5969],[27.1714,-2.2165,544.5],[27.1681,-2.2182,544.9358],[27.1683,-2.2215,546.325],[27.1662,-2.2247,562.1078],[27.159,-2.2218,544.5],[27.1548,-2.2226,574.4193],[27.1528,-2.2258,570.5331],[27.1523,-2.2344,548.2042],[27.15,-2.2349,557.3795],[27.1474,-2.2307,548.2725],[27.153,-2.219,564.3098],[27.153,-2.2138,565.1974],[27.1448,-2.2119,552.9335],[27.1401,-2.2127,563.3871],[27.1231,-2.2232,545.4376],[27.1224,-2.2272,546.8751],[27.1253,-2.2348,544.9613],[27.1236,-2.2366,547.6528],[27.1168,-2.2332,545.1036],[27.1108,-2.224,551.7405],[27.1168,-2.2132,548.7585],[27.116,-2.2104,555.1571],[27.1056,-2.2085,552.0685],[27.0987,-2.2037,549.1709],[27.0922,-2.2032,542.5],[27.0879,-2.2052,542.5],[27.079,-2.2006,557.1292],[27.0752,-2.2015,546.3043],[27.0713,-2.2084,559.263],[27.0662,-2.2105,546.361],[27.0624,-2.207,547.8632],[27.0604,-2.2021,568.1133],[27.0606,-2.1892,560.9144],[27.0565,-2.1784,548.4218],[27.0503,-2.1784,550.3682],[27.0433,-2.1761,541.0],[27.038,-2.1715,541.9354],[27.0372,-2.165,541.0],[27.0351,-2.1645,554.4945],[27.0291,-2.1676,546.5261],[27.0237,-2.1645,545.5711],[27.0208,-2.1614,554.1272],[27.0198,-2.1499,548.6611],[27.015,-2.1454,540.5],[27.0115,-2.1444,551.3105],[27.01,-2.1374,543.8011],[27.0057,-2.1405,556.5896],[27.004,-2.1499,540.0],[27.001,-2.1515,557.298],[26.9983,-2.1505,565.9522],[26.9957,-2.1482,555.2884],[26.9886,-2.1319,543.3339],[26.9769,-2.1239,546.1127],[26.9748,-2.125,543.5857],[26.9744,-2.1278,542.546],[26.9777,-2.1396,568.454],[26.9843,-2.1479,545.853],[26.9842,-2.1525,550.1771],[26.9826,-2.1546,559.6099],[26.9796,-2.1547,566.4738],[26.9715,-2.1488,565.2549],[26.9688,-2.1424,539.4138],[26.969,-2.1347,537.0],[26.9662,-2.1299,549.1472],[26.9633,-2.1291,546.2108],[26.9584,-2.1381,554.756],[26.9478,-2.144,536.1188],[26.9448,-2.1509,547.8804],[26.9376,-2.1504,535.3859],[26.9366,-2.154,554.6351],[26.9346,-2.1554,549.8878],[26.9396,-2.1613,534.8031],[26.9391,-2.1644,540.2938],[26.9343,-2.1678,560.7347],[26.932,-2.1723,540.0383],[26.9338,-2.1757,546.1753],[26.9369,-2.1761,558.5051],[26.9374,-2.1823,545.3212],[26.932,-2.181,535.8992],[26.9257,-2.1736,526.625],[26.919,-2.1702,530.7211],[26.9158,-2.1607,532.8575],[26.9131,-2.1584,532.361],[26.9061,-2.1614,533.3379],[26.8965,-2.1558,533.6402],[26.8928,-2.1555,535.3242],[26.8784,-2.1569,531.0154],[26.873,-2.1613,544.648],[26.8717,-2.1588,527.6603],[26.868,-2.1589,528.5783],[26.8656,-2.165,555.6122],[26.8645,-2.1856,563.6314],[26.8581,-2.2141,571.1389],[26.8512,-2.2887,648.6768],[26.8521,-2.2958,662.3107],[26.8578,-2.3022,588.4764],[26.862,-2.3133,582.7151],[26.8614,-2.3228,575.0119],[26.8567,-2.331,554.1591],[26.854,-2.3312,546.8438],[26.8512,-2.3338,572.41],[26.848,-2.3335,552.6018],[26.8446,-2.3388,566.3103],[26.8357,-2.3352,546.4736],[26.8325,-2.3396,565.401],[26.829,-2.3393,568.732],[26.8261,-2.3347,566.6821],[26.8235,-2.3352,560.827],[26.8206,-2.3405,558.5137],[26.8106,-2.3398,549.1139],[26.814,-2.3514,683.8459],[26.8214,-2.3656,579.2842],[26.8241,-2.3783,591.902],[26.8182,-2.3958,684.0184],[26.8202,-2.4465,659.525],[26.8269,-2.4632,627.6861],[26.856,-2.4942,620.0947],[26.8706,-2.5425,567.76],[26.871,-2.5632,562.1751],[26.8657,-2.5719,560.6243],[26.8549,-2.5798,571.048],[26.8544,-2.5917,563.0877],[26.8598,-2.6021,534.6735],[26.8563,-2.6062,535.9666],[26.8642,-2.6088,523.4848],[26.8816,-2.6449,566.9943],[26.8898,-2.6544,596.2563],[26.905,-2.6647,608.2236],[26.91,-2.6782,773.6276],[26.9007,-2.6861,744.3044],[26.9057,-2.6956,638.3285],[26.9429,-2.7124,659.7887],[26.9458,-2.7397,607.6439],[26.9383,-2.7497,596.5634],[26.9371,-2.7628,595.8159],[26.9333,-2.7683,600.6802],[26.9335,-2.7724,588.5587],[26.9317,-2.7764,592.1932],[26.927,-2.7824,582.8538],[26.9198,-2.7877,589.1671],[26.9187,-2.7913,581.7208],[26.9155,-2.7941,582.3574],[26.9183,-2.7978,583.4535],[26.9151,-2.8042,574.1376],[26.9162,-2.8075,578.8954],[26.9449,-2.8201,590.8533],[26.9571,-2.8368,598.8281],[26.9617,-2.863,657.5552],[26.9758,-2.9026,614.4119],[26.9798,-2.9288,576.5747],[26.9912,-2.9421,570.1018],[26.9984,-2.9455,588.3951],[27.0014,-2.959,534.7244],[27.0159,-2.9611,524.2006],[27.0208,-2.9507,527.2532],[27.0245,-2.9492,544.729],[27.0259,-2.952,540.4601],[27.0236,-2.9597,543.977],[27.029,-2.9685,546.4211],[27.034,-2.9722,542.7256],[27.049,-2.9786,546.5561],[27.0538,-2.9827,534.3103],[27.0577,-2.9893,547.7053],[27.0578,-2.9877,540.4082],[27.0582,-3.007,559.7736],[27.0606,-3.021,560.704],[27.054,-3.0289,530.5],[27.058,-3.0413,575.7756],[27.0622,-3.0447,557.4152],[27.0671,-3.0406,538.9001],[27.0729,-3.0411,559.9725],[27.0954,-3.0657,556.3907],[27.0988,-3.0675,554.4048],[27.1137,-3.069,550.1646],[27.1181,-3.0736,550.6026],[27.1199,-3.0796,541.5852],[27.1172,-3.0845,552.9534],[27.1225,-3.0974,578.0385],[27.1211,-3.1052,553.16],[27.1228,-3.1155,580.1018],[27.112,-3.1331,544.1057],[27.1117,-3.1365,559.9429],[27.115,-3.1407,558.9616],[27.1234,-3.1411,566.004],[27.1267,-3.1447,561.8049],[27.1298,-3.1448,551.4226],[27.1317,-3.1517,546.8027],[27.1312,-3.1566,573.2905],[27.1211,-3.17,545.5153],[27.1186,-3.1786,553.7383],[27.1202,-3.1879,560.1024],[27.1225,-3.1897,581.9322],[27.1229,-3.1926,580.2651],[27.1212,-3.2015,566.1304],[27.1255,-3.2022,539.7297],[27.1279,-3.2046,550.7592],[27.1275,-3.2084,546.8126],[27.1233,-3.2131,550.3641],[27.1208,-3.2194,552.8887],[27.1209,-3.2239,545.2448],[27.1167,-3.2294,562.0676],[27.1177,-3.2339,545.5573],[27.1105,-3.2456,554.914],[27.128,-3.2609,564.0334],[27.1374,-3.2623,551.7405],[27.142,-3.2653,551.327],[27.1381,-3.2717,583.0195],[27.1346,-3.2737,579.6183],[27.1347,-3.2826,561.7277],[27.1304,-3.2894,573.1461],[27.1237,-3.2934,548.5706],[27.1205,-3.3023,562.411],[27.1131,-3.3045,563.9514],[27.1109,-3.3081,580.1738],[27.1018,-3.314,557.1865],[27.0991,-3.318,557.8473],[27.0977,-3.3248,575.7924],[27.0954,-3.3272,582.5236],[27.0946,-3.3412,549.9169],[27.105,-3.3637,575.2043],[27.101,-3.3702,556.9444],[27.0919,-3.3788,551.7318],[27.0942,-3.3869,541.8502],[27.1006,-3.3928,547.4391],[27.103,-3.3923,546.7945],[27.104,-3.389,544.8311],[27.1082,-3.3846,552.6422],[27.1117,-3.3847,569.2828],[27.1145,-3.3872,574.6034],[27.1193,-3.4096,538.0],[27.1187,-3.413,571.6456],[27.1146,-3.4164,584.5865],[27.1133,-3.4216,556.8459],[27.1154,-3.4306,546.059],[27.1205,-3.4305,542.3842],[27.1286,-3.4237,538.5],[27.1326,-3.4287,559.5],[27.1298,-3.4431,556.9937],[27.1244,-3.4471,560.9388],[27.1231,-3.4532,563.1129],[27.1191,-3.4572,542.2998],[27.1209,-3.4628,540.798],[27.1202,-3.4714,544.3069],[27.1236,-3.474,543.9901],[27.1236,-3.4797,541.9046],[27.1297,-3.4839,541.7722],[27.1289,-3.4884,539.5],[27.1336,-3.4989,552.9074],[27.1279,-3.5125,572.981],[27.129,-3.5218,570.0714],[27.1269,-3.5279,570.3227],[27.1285,-3.5319,561.5202],[27.1259,-3.5314,548.2947],[27.1223,-3.5361,563.1152],[27.1189,-3.5369,551.6156],[27.1168,-3.5397,551.3873],[27.1183,-3.5414,553.9734],[27.1183,-3.5452,555.009],[27.1203,-3.5469,566.5544],[27.1236,-3.5396,554.5795],[27.1286,-3.5409,560.1489],[27.1352,-3.5388,559.3497],[27.1334,-3.5449,551.7467],[27.135,-3.5465,563.1049],[27.1323,-3.5531,563.9723],[27.1346,-3.5594,584.3309],[27.1311,-3.5597,574.2798],[27.1258,-3.5563,569.2263],[27.1215,-3.5584,574.6752],[27.1217,-3.5617,586.6843],[27.1251,-3.5644,564.6879],[27.1272,-3.5736,566.0422],[27.1228,-3.5739,569.4157],[27.1248,-3.58,563.4182],[27.1191,-3.5801,559.1794],[27.1168,-3.5821,561.5251],[27.1149,-3.5899,565.1146],[27.1164,-3.5929,581.0701],[27.1152,-3.5944,556.3348],[27.1112,-3.5948,565.0587],[27.1106,-3.6048,566.9176],[27.1068,-3.6066,565.3352],[27.1095,-3.6136,569.4471],[27.1029,-3.6169,576.0212],[27.104,-3.6234,594.6587],[27.0993,-3.6235,568.735],[27.0994,-3.6407,572.451],[27.0987,-3.6451,579.1063],[27.0967,-3.6468,567.379],[27.1001,-3.6508,571.4911],[27.0976,-3.6591,588.8838],[27.1002,-3.6625,578.2858],[27.1001,-3.6658,578.8606],[27.0995,-3.6698,596.1948],[27.0959,-3.6741,585.7716],[27.1001,-3.6787,574.0959],[27.0965,-3.6837,589.4591],[27.0927,-3.6855,578.7894],[27.0944,-3.6901,598.8403],[27.0978,-3.688,577.6702],[27.0999,-3.6892,594.2417],[27.097,-3.6913,571.6287],[27.0981,-3.6964,597.0352],[27.0961,-3.6983,580.5964],[27.0988,-3.6999,581.5319],[27.0974,-3.7022,589.439],[27.0922,-3.7,586.9949],[27.0893,-3.7027,577.7744],[27.0885,-3.7055,578.6566],[27.0918,-3.7078,585.8908],[27.0874,-3.7105,583.3119],[27.0876,-3.7138,587.0622],[27.0926,-3.7235,588.0602],[27.0885,-3.725,592.4616],[27.0906,-3.7262,594.9911],[27.0889,-3.728,599.666],[27.0856,-3.7281,600.6932],[27.0908,-3.7327,589.522],[27.0903,-3.735,596.7377],[27.0881,-3.7356,584.0656],[27.0959,-3.7404,594.6805],[27.0995,-3.7514,589.8264],[27.0964,-3.7519,581.985],[27.0966,-3.7534,585.4845],[27.1021,-3.7524,587.5488],[27.1023,-3.7604,590.7881],[27.109,-3.7586,579.9344],[27.1064,-3.7669,589.3148],[27.1125,-3.769,586.9036],[27.1111,-3.771,592.8856],[27.1167,-3.7749,585.3379],[27.1158,-3.7784,590.8368],[27.1122,-3.7802,590.6083],[27.1134,-3.7824,596.4783],[27.1123,-3.7846,598.8653],[27.1164,-3.7855,587.9361],[27.1171,-3.7872,589.3831],[27.1194,-3.7853,581.5292],[27.1216,-3.7863,595.7475],[27.1212,-3.7893,594.1537],[27.1244,-3.7961,597.5372],[27.1288,-3.7978,595.7961],[27.1286,-3.8054,601.795],[27.1321,-3.8048,593.1708],[27.1303,-3.811,619.515],[27.1356,-3.8078,599.219],[27.1431,-3.8116,592.6888],[27.1441,-3.8127,592.6888],[27.1411,-3.8171,601.1502],[27.1412,-3.8204,597.1012],[27.1442,-3.8185,597.7139],[27.1494,-3.819,597.2742],[27.1525,-3.8212,598.5156],[27.1544,-3.8229,596.0627],[27.1597,-3.8376,593.7803],[27.1652,-3.8373,598.3179],[27.1636,-3.839,591.2734],[27.1637,-3.8424,595.6656],[27.1672,-3.8456,602.5078],[27.1635,-3.8446,593.3525],[27.1642,-3.8481,597.3657],[27.1624,-3.8486,597.9005],[27.1624,-3.8502,598.491],[27.1663,-3.8485,605.8386],[27.1669,-3.8496,602.6838],[27.1644,-3.8504,595.9651],[27.1645,-3.8518,606.879],[27.1697,-3.8578,589.7443],[27.1714,-3.8561,602.2676],[27.174,-3.8579,597.0384],[27.1772,-3.8571,597.1807],[27.1758,-3.8611,602.9072],[27.1809,-3.87,595.0383],[27.1811,-3.8736,605.7787],[27.1861,-3.8769,608.1346],[27.1873,-3.8795,601.637],[27.1859,-3.8831,589.6772],[27.1879,-3.8842,589.6772],[27.1871,-3.8866,589.6662],[27.1887,-3.8893,592.6438],[27.1912,-3.8877,588.5719],[27.1912,-3.889,593.5322],[27.1933,-3.8877,590.9208],[27.1925,-3.8892,591.4573],[27.1946,-3.8891,592.2422],[27.1949,-3.8876,589.6112],[27.1975,-3.8884,591.042],[27.201,-3.8927,591.736],[27.202,-3.8913,591.736],[27.2039,-3.8946,605.9449],[27.2056,-3.8943,591.5158],[27.2064,-3.8973,604.6814],[27.2093,-3.8964,590.5803],[27.2101,-3.8988,598.2822],[27.2117,-3.8968,591.7343],[27.2109,-3.8979,591.7343],[27.2138,-3.8999,595.8094],[27.2143,-3.8985,590.0758],[27.2175,-3.8996,601.3024],[27.2177,-3.8977,601.0345],[27.2207,-3.8987,598.4994],[27.2201,-3.897,592.5178],[27.2218,-3.8952,592.6169],[27.2218,-3.8975,597.6945],[27.2247,-3.8955,596.1558],[27.2271,-3.898,606.4263],[27.2285,-3.8955,595.6241],[27.2317,-3.8972,595.7354],[27.2323,-3.8992,600.5139],[27.2342,-3.898,593.1818],[27.2347,-3.9011,602.9691],[27.236,-3.9,594.8068],[27.2376,-3.9015,604.2338],[27.2379,-3.8995,613.6342],[27.2391,-3.9016,604.2338],[27.2444,-3.9005,599.9644],[27.2497,-3.9045,598.8451],[27.2501,-3.9026,599.1245],[27.2523,-3.9019,596.7156],[27.2534,-3.9033,600.6404],[27.2607,-3.9031,611.2508],[27.2617,-3.9009,605.6954],[27.2604,-3.8994,601.2587],[27.2623,-3.899,608.229],[27.2637,-3.9043,603.5561],[27.2668,-3.9051,600.4209],[27.2689,-3.9085,609.6083],[27.2753,-3.908,609.7136],[27.2773,-3.9121,606.0469],[27.2806,-3.9133,609.4199],[27.2777,-3.9185,606.5331],[27.2803,-3.9167,598.1593],[27.2801,-3.9187,602.2363],[27.2816,-3.9186,600.566],[27.2814,-3.9171,597.9467],[27.2842,-3.9164,602.3652],[27.2882,-3.9176,602.6229],[27.2902,-3.9202,608.1624],[27.2915,-3.9187,602.0564],[27.2918,-3.9205,604.8467],[27.2961,-3.9171,606.1091],[27.2981,-3.918,610.0482],[27.3016,-3.916,601.2627],[27.304,-3.9162,605.179],[27.3034,-3.9187,604.4507],[27.3054,-3.9168,603.6941],[27.3097,-3.918,609.3566],[27.3125,-3.9154,603.6013],[27.3157,-3.9173,606.1895],[27.3164,-3.9156,602.9433],[27.3169,-3.917,606.1895],[27.3191,-3.9167,602.2844],[27.3184,-3.9186,607.7443],[27.3209,-3.9201,605.0814],[27.3203,-3.9219,610.3278],[27.3223,-3.9229,605.975],[27.324,-3.9215,608.0412],[27.3278,-3.9254,611.4226],[27.3295,-3.9223,612.5033],[27.3304,-3.9243,607.3254],[27.3346,-3.9243,606.9605],[27.3346,-3.9271,609.8887],[27.338,-3.9248,607.0474],[27.3368,-3.9277,607.55],[27.3388,-3.9305,613.9535],[27.3466,-3.9353,612.7668],[27.3592,-3.9354,618.7376],[27.3606,-3.9341,610.1984],[27.3613,-3.9354,612.8192],[27.3627,-3.9342,612.5342],[27.3651,-3.9381,627.9977],[27.3685,-3.9389,631.8296],[27.3703,-3.9355,617.0524],[27.3758,-3.9354,620.8699],[27.3791,-3.9379,625.3118],[27.3822,-3.9353,623.6647],[27.3866,-3.9353,624.6745],[27.386,-3.9395,625.4897],[27.3904,-3.9389,621.9465],[27.3953,-3.941,629.6022],[27.3995,-3.9452,624.8276],[27.4002,-3.9498,624.3839],[27.4031,-3.9497,625.2438],[27.4126,-3.9573,630.7402],[27.4143,-3.9564,645.8237],[27.4133,-3.9604,629.4965],[27.4184,-3.9617,633.2528],[27.4169,-3.9647,628.844],[27.4244,-3.9685,629.2384],[27.4226,-3.9737,638.0803],[27.426,-3.9744,635.3735],[27.4263,-3.9765,631.468],[27.4314,-3.9814,640.5382],[27.436,-3.98,628.9871],[27.4425,-3.9834,631.5302],[27.4472,-3.9902,633.1966],[27.4459,-3.9913,637.6318],[27.4469,-3.9944,635.7798],[27.4491,-3.992,635.4564],[27.4516,-3.9966,635.7681],[27.4594,-3.9799,642.1613],[27.4638,-3.9769,650.2177],[27.4772,-3.9769,665.6206],[27.5313,-3.9934,733.7865],[27.5806,-3.9949,939.8859],[27.5973,-4.0099,858.5458],[27.6185,-4.0204,1136.6938],[27.6364,-4.0219,848.835],[27.7672,-4.004,889.924],[27.7986,-4.004,1321.1727],[27.8183,-4.019,1022.549],[27.8378,-4.0224,1128.98]],
[[27.3702,-2.7147,593.6242],[27.3598,-2.7204,589.413],[27.3415,-2.7178,579.7031],[27.3306,-2.7115,588.0754],[27.3228,-2.6958,611.264],[27.3228,-2.6806,571.3622],[27.3285,-2.6722,585.1592],[27.3369,-2.667,590.8887],[27.3567,-2.6623,592.5553],[27.3681,-2.6664,597.4856],[27.3718,-2.6701,634.6738],[27.3765,-2.6795,602.2721],[27.3775,-2.6885,581.6096],[27.3759,-2.7078,580.5037],[27.3702,-2.7147,593.6242]]]]}
,"properties": {"GID_2": "COD.22.9_1","GID_0": "COD","country": "DemocraticRepublicoftheCongo","GID_1": "COD.22_1","province": "Sud-Kivu","NL_NAME_1": "NA","county": "Shabunda","VARNAME_2": "NA","NL_NAME_2": "NA","TYPE_2": "Territoire","ENGTYPE_2": "Territory","CC_2": "NA","HASC_2": "NA","name": "Shabunda.county","area_km2": 24864.87,"hist_schema_id": "Elevation0-9000","hist_area_km2": {"525": 16.24,"550": 295.07,"575": 1517.3,"600": 2422.22,"625": 2267.56,"650": 2075.2,"675": 1621.78,"700": 1266.23,"725": 1085.07,"750": 951.48,"775": 903.29,"800": 823.08,"825": 693.16,"850": 589.68,"875": 512.63,"900": 481.86,"925": 498.19,"950": 477.4,"975": 482.85,"1000": 473.06,"1025": 458.76,"1050": 419.92,"1075": 400.34,"1100": 367.87,"1125": 351.76,"1150": 340.19,"1175": 384.87,"1200": 410.71,"1225": 354.16,"1250": 292.85,"1275": 259.15,"1300": 215.0,"1325": 191.4,"1350": 188.73,"1375": 172.06,"1400": 148.0,"1425": 106.36,"1450": 81.23,"1475": 66.72,"1500": 55.8,"1525": 39.05,"1550": 26.45,"1575": 22.22,"1600": 17.18,"1625": 13.85,"1650": 10.0,"1675": 7.01,"1700": 4.96,"1725": 2.52,"1750": 0.97,"1775": 0.74,"1800": 0.36}}}