{"type":"Feature","properties":{"GID_2":"COD.15.3_1","GID_0":"COD","country":"DemocraticRepublicoftheCongo","GID_1":"COD.15_1","province":"Lualaba","NL_NAME_1":"NA","county":"Kasaji","VARNAME_2":"NA","NL_NAME_2":"NA","TYPE_2":"Ville","ENGTYPE_2":"Town","CC_2":"NA","HASC_2":"NA","name":"Kasaji.county"},
"geometry":{"type": "MultiPolygon","coordinates": [[[[23.4605,-10.3466,1073.4437],[23.4551,-10.3461,1057.5499],[23.4413,-10.3485,1083.5533],[23.4353,-10.3563,1091.6326],[23.434,-10.3619,1086.8043],[23.4391,-10.3718,1105.9412],[23.461,-10.3774,1092.2323],[23.4678,-10.3715,1079.2966],[23.4732,-10.3648,1074.873],[23.4745,-10.3595,1075.5145],[23.4737,-10.3541,1059.2562],[23.4667,-10.345,1074.6846],[23.4605,-10.3466,1073.4437]]]]}}