{"type":"Feature","properties":{"GID_2":"COD.13.10_1","GID_0":"COD","country":"DemocraticRepublicoftheCongo","GID_1":"COD.13_1","province":"Kwilu","NL_NAME_1":"NA","county":"Kikwit","VARNAME_2":"NA","NL_NAME_2":"NA","TYPE_2":"Ville","ENGTYPE_2":"Town","CC_2":"NA","HASC_2":"NA","name":"Kikwit.county"},
"geometry":{"type": "MultiPolygon","coordinates": [[[[18.8615,-5.0635,344.6304],[18.8469,-5.048,405.9547],[18.8398,-5.0459,365.4927],[18.8376,-5.0317,356.3321],[18.8293,-5.0267,348.9283],[18.8244,-5.021,357.0808],[18.8199,-5.0208,344.0],[18.8133,-5.0077,382.9964],[18.7916,-5.0177,392.3074],[18.7569,-5.0255,436.9405],[18.7512,-5.0306,458.5948],[18.7574,-5.0519,535.5397],[18.764,-5.0671,513.1582],[18.7642,-5.0762,507.3615],[18.7697,-5.0864,602.675],[18.7816,-5.1015,507.7607],[18.7991,-5.107,448.2314],[18.8252,-5.0947,501.8188],[18.8439,-5.0799,412.5753],[18.8501,-5.0808,442.9991],[18.8615,-5.0635,344.6304]]]]}}