{"type":"Feature","properties":{"GID_2":"COD.25.9_1","GID_0":"COD","country":"DemocraticRepublicoftheCongo","GID_1":"COD.25_1","province":"Tshopo","NL_NAME_1":"NA","county":"Ubundu","VARNAME_2":"NA","NL_NAME_2":"NA","TYPE_2":"Territoire","ENGTYPE_2":"Territory","CC_2":"NA","HASC_2":"NA","name":"Ubundu.county"},
"geometry":{"type": "MultiPolygon","coordinates": [[[[25.852,-1.7661,480.6796],[25.848,-1.7088,472.3462],[25.8494,-1.7003,466.6644],[25.8619,-1.669,476.5012],[25.8633,-1.6686,475.0853],[25.863,-1.6555,471.2058],[25.8687,-1.6394,481.4102],[25.8663,-1.5787,476.8904],[25.8548,-1.506,481.5645],[25.8568,-1.4925,476.2371],[25.8632,-1.4791,488.1025],[25.8663,-1.4649,476.9373],[25.8599,-1.4377,478.3427],[25.861,-1.4115,468.1844],[25.8655,-1.4138,481.3634],[25.8788,-1.4258,483.5218],[25.8896,-1.432,509.2167],[25.8928,-1.4543,465.8248],[25.9013,-1.4616,481.5495],[25.92,-1.4708,482.644],[25.929,-1.4786,485.041],[25.9285,-1.4908,494.5146],[25.9336,-1.4953,492.1257],[25.9583,-1.4942,435.5],[25.982,-1.5026,455.0479],[25.9852,-1.5013,451.8751],[25.9994,-1.5008,491.095],[26.0154,-1.4881,497.7267],[26.0167,-1.4833,484.7175],[26.0137,-1.4727,500.7109],[26.0142,-1.4686,494.5244],[26.0183,-1.4656,515.6345],[26.0279,-1.463,517.6467],[26.034,-1.4582,517.4344],[26.039,-1.4439,512.067],[26.0342,-1.4297,500.6735],[26.0264,-1.424,500.0486],[26.0173,-1.4113,497.58],[26.0173,-1.4076,463.2772],[26.0237,-1.3989,484.5508],[26.0301,-1.3945,486.8348],[26.0522,-1.3977,488.4542],[26.0616,-1.397,500.8615],[26.0659,-1.394,507.3292],[26.0696,-1.3848,455.5],[26.0674,-1.3471,481.4879],[26.0717,-1.3269,456.5],[26.0667,-1.3103,506.4645],[26.0692,-1.3014,501.7963],[26.0694,-1.288,487.9101],[26.0746,-1.2825,483.6238],[26.0819,-1.2813,464.9681],[26.0796,-1.2648,488.4078],[26.0589,-1.2596,500.4715],[26.0603,-1.2389,527.8293],[26.0743,-1.1917,530.8971],[26.0803,-1.1554,536.8212],[26.0869,-1.1477,534.3558],[26.1116,-1.1477,521.6138],[26.1323,-1.1413,508.111],[26.141,-1.1329,531.9069],[26.1323,-1.1167,537.1214],[26.0829,-1.0907,511.9659],[26.0736,-0.9625,512.3046],[26.1128,-0.9531,515.5195],[26.1263,-0.9545,520.3557],[26.1461,-0.9491,522.6376],[26.1634,-0.9326,507.9306],[26.1701,-0.9298,526.7533],[26.1851,-0.9291,514.303],[26.2096,-0.9227,526.9329],[26.2283,-0.9111,544.5096],[26.2437,-0.8943,530.59],[26.2597,-0.8555,507.0812],[26.249,-0.8399,502.474],[26.245,-0.8269,487.1188],[26.237,-0.7745,511.4155],[26.239,-0.7123,509.3381],[26.2376,-0.6877,530.8764],[26.2302,-0.668,513.9738],[26.2359,-0.6641,531.6079],[26.2407,-0.6491,515.2104],[26.2521,-0.6356,525.6514],[26.2566,-0.6248,519.0117],[26.2586,-0.5944,539.2032],[26.2579,-0.577,548.9062],[26.2674,-0.526,581.5206],[26.2737,-0.5041,551.9607],[26.2735,-0.4984,555.0478],[26.1883,-0.4371,537.2819],[26.1523,-0.415,529.0945],[26.1236,-0.3897,530.9887],[26.1091,-0.3726,529.0155],[26.1141,-0.3646,517.7088],[26.126,-0.3556,528.6621],[26.1312,-0.3496,513.5126],[26.151,-0.3218,512.3749],[26.1542,-0.3117,491.9396],[26.1649,-0.297,510.2963],[26.1708,-0.2841,512.1241],[26.1577,-0.2703,521.6189],[26.1422,-0.2626,516.2762],[26.1358,-0.2559,504.4683],[26.1246,-0.2373,490.4436],[26.115,-0.227,491.9601],[26.1042,-0.2243,490.6612],[26.0818,-0.1984,496.4947],[26.065,-0.1613,516.7734],[26.0482,-0.0859,507.68],[26.0356,-0.0606,498.2655],[26.0336,-0.049,505.5373],[26.0396,-0.0396,516.5542],[26.0516,-0.0363,484.8242],[26.0564,-0.0297,487.6297],[26.0582,-0.0235,506.0539],[26.0571,-0.0138,487.4752],[26.0643,-0.0143,491.1467],[26.0721,-0.0228,492.3456],[26.0736,-0.0274,477.0204],[26.0702,-0.0307,501.6277],[26.0641,-0.0308,487.2227],[26.065,-0.034,505.1695],[26.0795,-0.0369,523.3865],[26.0839,-0.0356,505.973],[26.0894,-0.0314,493.3324],[26.0911,-0.0321,493.3324],[26.0895,-0.0402,491.5098],[26.0865,-0.0443,503.5698],[26.0784,-0.0498,514.4355],[26.0806,-0.053,515.8551],[26.0918,-0.0507,512.2974],[26.095,-0.0542,514.5012],[26.0971,-0.0659,491.5269],[26.1014,-0.0765,507.3651],[26.1112,-0.0758,489.1538],[26.1169,-0.0828,485.9591],[26.1226,-0.0799,494.4855],[26.1236,-0.0852,497.711],[26.1322,-0.087,515.346],[26.1341,-0.0859,516.8225],[26.1364,-0.0766,513.0184],[26.1402,-0.0773,502.6123],[26.1448,-0.0828,495.556],[26.1432,-0.0933,492.8079],[26.1498,-0.0929,505.1502],[26.166,-0.0995,525.5222],[26.1706,-0.0942,518.9885],[26.1736,-0.0942,519.9687],[26.1832,-0.1109,505.3826],[26.1882,-0.1102,504.4116],[26.1945,-0.1063,508.0154],[26.1948,-0.1143,511.6445],[26.1978,-0.1205,500.8242],[26.1922,-0.1303,521.6678],[26.1926,-0.1323,516.8121],[26.1972,-0.1315,526.1415],[26.2057,-0.1342,503.146],[26.2092,-0.1329,499.2765],[26.2122,-0.1295,505.3273],[26.2128,-0.1397,498.6538],[26.215699999999998,-0.1428,501.8574],[26.2188,-0.1421,505.1738],[26.223,-0.1365,505.08],[26.2263,-0.137,508.9915],[26.2301,-0.1445,495.9917],[26.2435,-0.1589,498.7783],[26.2527,-0.1605,508.4899],[26.2546,-0.1623,514.6841],[26.2585,-0.1746,507.7559],[26.2649,-0.1769,526.96],[26.2679,-0.1809,525.083],[26.2702,-0.1945,506.6022],[26.273,-0.1995,527.1426],[26.2795,-0.2003,519.0327],[26.283,-0.1981,528.6802],[26.2949,-0.1958,510.7328],[26.3013,-0.192,509.5527],[26.3098,-0.2021,530.7352],[26.3091,-0.2074,512.7384],[26.3128,-0.2195,501.5696],[26.3167,-0.2248,541.6276],[26.3217,-0.2281,538.226],[26.3208,-0.2399,515.8391],[26.3265,-0.2587,518.9628],[26.3361,-0.2672,520.427],[26.3437,-0.2607,522.268],[26.3629,-0.2732,568.6764],[26.3698,-0.2791,567.192],[26.3701,-0.283,575.6652],[26.3798,-0.2955,565.8057],[26.3821,-0.3018,555.5106],[26.386,-0.3046,545.7882],[26.399,-0.3089,550.7501],[26.4051,-0.3069,548.6595],[26.4079,-0.3121,549.0524],[26.4187,-0.3196,531.7054],[26.4252,-0.3182,521.2328],[26.4307,-0.3192,509.7919],[26.4314,-0.3217,509.604],[26.4299,-0.3261,511.351],[26.4328,-0.3314,527.9645],[26.4317,-0.3364,521.8964],[26.4368,-0.3393,525.5418],[26.4425,-0.3469,529.1337],[26.4484,-0.3683,532.0901],[26.453,-0.3745,529.4854],[26.4544,-0.3798,530.251],[26.4574,-0.3818,540.9026],[26.4679,-0.3827,535.683],[26.4708,-0.3843,533.8229],[26.4902,-0.3817,533.9648],[26.4981,-0.3787,528.3311],[26.5151,-0.3831,517.0979],[26.5249,-0.3833,521.5668],[26.54,-0.3766,538.2889],[26.5599,-0.3784,533.6685],[26.5821,-0.3684,551.2509],[26.5922,-0.3609,536.7006],[26.6148,-0.3521,557.4232],[26.6254,-0.3309,550.3099],[26.6307,-0.3252,564.5953],[26.6297,-0.3119,572.442],[26.619,-0.2988,618.8312],[26.6103,-0.2917,567.3659],[26.6034,-0.269,625.9792],[26.6021,-0.2419,556.8422],[26.6033,-0.235,563.9419],[26.6089,-0.2237,626.7494],[26.6322,-0.2051,586.0978],[26.6383,-0.2067,604.8992],[26.6545,-0.2016,637.1449],[26.6614,-0.2023,574.1415],[26.6778,-0.1942,541.58],[26.6821,-0.1949,539.9986],[26.6912,-0.1875,558.4219],[26.6875,-0.1783,573.4045],[26.6875,-0.1746,588.9123],[26.6959,-0.1592,572.6382],[26.7011,-0.1438,577.1385],[26.7041,-0.139,597.6486],[26.7189,-0.1314,657.7333],[26.7305,-0.1178,955.439],[26.7544,-0.016,666.4062],[26.7551,0.0554,681.9965],[26.7586,0.1034,694.6765],[26.7514,0.1049,678.1909],[26.7555,0.1183,687.6059],[26.7548,0.1249,697.2415],[26.7596,0.1291,697.4179],[26.7637,0.1293,693.6605],[26.7578,0.1687,682.4185],[26.7488,0.1731,676.4073],[26.7178,0.1747,645.373],[26.7169,0.1715,657.8213],[26.7217,0.1662,664.7007],[26.7212,0.1614,672.9011],[26.7171,0.1549,673.329],[26.719,0.149,668.6788],[26.7178,0.1464,668.5424],[26.714,0.1453,668.5096],[26.7117,0.1393,666.7415],[26.662,0.1145,610.58],[26.6232,0.105,616.1085],[26.6152,0.0942,649.7411],[26.6196,0.0769,660.019],[26.6165,0.06,672.5614],[26.5996,0.0527,644.4011],[26.5962,0.0539,677.7777],[26.5859,0.0518,646.1767],[26.5748,0.0412,637.6938],[26.5743,0.038,642.0553],[26.5648,0.061,570.3571],[26.5644,0.084,633.5533],[26.5595,0.0952,616.5255],[26.5426,0.1026,596.0712],[26.5265,0.1044,633.171],[26.5189,0.1351,640.8389],[26.5123,0.1541,625.9065],[26.5065,0.1619,607.3755],[26.4922,0.1659,596.8701],[26.4717,0.1612,629.3336],[26.4641,0.162,625.9202],[26.4561,0.1681,651.4472],[26.4548,0.1785,675.1287],[26.4443,0.2107,671.918],[26.4334,0.2249,631.3414],[26.4278,0.2152,615.3094],[26.4266,0.2102,581.5993],[26.4218,0.2092,587.0538],[26.4193,0.2067,574.5352],[26.412,0.2081,587.2753],[26.407,0.2051,572.6133],[26.404,0.2051,579.1353],[26.3979,0.1966,581.5447],[26.3706,0.2252,569.4121],[26.3677,0.239,575.1227],[26.3596,0.2425,568.9993],[26.3498,0.2391,573.3544],[26.3371,0.2417,573.5997],[26.3222,0.2569,556.7562],[26.3215,0.2699,851.5128],[26.3092,0.2708,585.6442],[26.3047,0.2655,553.1597],[26.3001,0.265,560.3217],[26.2543,0.2767,528.306],[26.2474,0.2841,533.9694],[26.248,0.297,542.2697],[26.2589,0.31,550.8512],[26.2665,0.3245,563.2206],[26.2723,0.3588,572.027],[26.269,0.3751,707.9712],[26.2647,0.3798,672.241],[26.2614,0.3816,645.1129],[26.2534,0.3822,613.3242],[26.2226,0.3683,544.3781],[26.2039,0.3635,523.0969],[26.1836,0.3688,518.6794],[26.1698,0.3794,517.2697],[26.1382,0.3812,510.7845],[26.1184,0.4011,512.5408],[26.1112,0.4178,546.0541],[26.1095,0.4273,524.5192],[26.1039,0.433,538.9227],[26.0809,0.4435,552.2932],[26.0852,0.4529,581.5468],[26.0959,0.4642,657.5109],[26.1034,0.4624,642.6423],[26.1148,0.4541,634.13],[26.1208,0.4541,588.2789],[26.1248,0.4563,589.7017],[26.128,0.4638,656.2043],[26.1288,0.4876,533.0312],[26.1344,0.5235,538.6777],[26.1342,0.5348,523.8404],[26.1297,0.54,529.7805],[26.1197,0.5456,519.4872],[26.1228,0.556,502.622],[26.1264,0.5599,487.6726],[26.1317,0.591,479.3037],[26.1413,0.6038,480.3761],[26.1447,0.6204,487.5531],[26.1438,0.6626,480.3798],[26.147,0.7168,492.4242],[26.1438,0.7166,490.9913],[26.1404,0.7214,506.0798],[26.1372,0.7187,495.1028],[26.1297,0.7207,499.2426],[26.1267,0.7182,494.0473],[26.124,0.7186,495.2585],[26.1201,0.725,469.3676],[26.1055,0.7232,476.7014],[26.0989,0.7167,465.6588],[26.0927,0.7176,481.3932],[26.0922,0.7137,467.4521],[26.0948,0.7057,443.2406],[26.0923,0.7008,447.759],[26.0866,0.7004,460.9673],[26.0804,0.707,444.2902],[26.0868,0.7158,467.7961],[26.0856,0.7206,469.2663],[26.0785,0.7279,475.1806],[26.0676,0.7201,461.1157],[26.0557,0.7194,476.871],[26.0482,0.7214,480.9622],[26.0447,0.7246,469.4248],[26.0468,0.7288,464.0248],[26.0552,0.7256,457.7861],[26.0607,0.726,456.3427],[26.065,0.73,460.979],[26.0657,0.7385,465.7693],[26.0684,0.7422,462.2057],[26.0707,0.7424,467.7968],[26.078,0.7374,454.4173],[26.0844,0.7364,468.0432],[26.0903,0.7406,476.4457],[26.0901,0.7447,482.3135],[26.0874,0.7477,474.7327],[26.083,0.7479,467.6205],[26.0798,0.7431,470.9328],[26.0707,0.7527,469.6661],[26.0657,0.7529,466.9416],[26.0625,0.7488,462.3837],[26.0588,0.7493,461.3392],[26.057,0.7545,467.6894],[26.0615,0.7596,468.4591],[26.051,0.7651,448.6035],[26.0405,0.7646,456.8071],[26.0394,0.7657,461.6306],[26.0432,0.7701,458.7922],[26.0423,0.7731,467.3989],[26.0439,0.7752,477.6229],[26.043,0.7773,469.4281],[26.0377,0.7779,467.5967],[26.04,0.7851,474.2731],[26.0364,0.7855,480.1171],[26.0325,0.7823,466.4112],[26.0304,0.786,472.6817],[26.0311,0.7949,473.0678],[26.0329,0.7979,473.0629],[26.0375,0.8002,477.6521],[26.0436,0.7933,476.1393],[26.0459,0.7929,483.9207],[26.0498,0.7998,478.7639],[26.055,0.8021,485.2302],[26.0417,0.8234,486.6208],[26.0392,0.8369,488.3685],[26.0245,0.8768,485.1852],[25.9988,0.9154,494.5506],[25.9815,0.9215,515.8159],[25.969,0.9142,563.298],[25.9538,0.9003,569.1108],[25.9351,0.8865,565.2241],[25.9213,0.8784,575.3987],[25.9053,0.8736,589.6303],[25.8928,0.8741,571.6473],[25.8692,0.8707,507.4306],[25.8545,0.8469,483.6134],[25.8451,0.8374,476.6991],[25.8344,0.8426,523.9609],[25.8206,0.8405,511.824],[25.8095,0.8168,507.5776],[25.8059,0.8034,473.747],[25.7943,0.7878,471.3172],[25.7752,0.7857,472.0519],[25.732,0.7949,470.9005],[25.6932,0.7919,501.1916],[25.6883,0.7867,501.4645],[25.6887,0.763,477.8801],[25.6941,0.7521,466.6563],[25.6927,0.7443,483.6722],[25.6511,0.7536,474.7279],[25.6475,0.7529,473.2118],[25.6397,0.7465,464.3397],[25.6262,0.745,447.0545],[25.6249,0.7425,455.4431],[25.6256,0.7402,444.493],[25.6185,0.737,453.6872],[25.6219,0.7333,447.3197],[25.6156,0.7305,451.8519],[25.6101,0.7222,442.8647],[25.6071,0.7268,438.3652],[25.603,0.7208,439.5536],[25.6003,0.7224,447.6895],[25.5989,0.7332,445.2843],[25.593,0.7334,442.9258],[25.590699999999998,0.7311,440.2046],[25.5722,0.7239,430.9263],[25.5672,0.7195,446.2737],[25.5661,0.7166,440.2138],[25.5711,0.7046,442.3221],[25.5725,0.6934,450.3542],[25.5714,0.6862,452.0508],[25.5648,0.6768,457.6048],[25.5555,0.6694,446.8537],[25.5418,0.6632,436.7199],[25.5388,0.665,421.9536],[25.537,0.6689,440.6871],[25.5413,0.6797,434.272],[25.5406,0.6848,442.3463],[25.5333,0.6921,415.4867],[25.5319,0.6978,425.1506],[25.5328,0.7075,402.0],[25.5204,0.7104,422.2349],[25.5189,0.6983,435.1324],[25.521,0.6796,453.6438],[25.5108,0.6716,462.5573],[25.4923,0.6448,487.2586],[25.4769,0.6369,456.999],[25.4697,0.6289,476.4771],[25.461,0.6071,463.1394],[25.4436,0.5837,445.4761],[25.4151,0.5354,457.4718],[25.4003,0.5239,458.0094],[25.396,0.5156,452.8356],[25.3876,0.519,445.773],[25.3716,0.5171,461.3456],[25.3648,0.5026,434.0079],[25.3619,0.4748,432.2997],[25.3633,0.4695,427.0782],[25.3617,0.4652,407.9997],[25.3506,0.4582,428.4799],[25.3428,0.4584,406.6194],[25.3378,0.4566,419.8606],[25.325,0.4572,397.4624],[25.3223,0.4558,391.282],[25.3374,0.4345,396.0973],[25.3522,0.3971,407.9564],[25.3566,0.3726,418.4934],[25.3614,0.3714,399.9503],[25.3778,0.3591,412.8204],[25.395,0.3497,402.576],[25.4126,0.3436,423.5147],[25.4288,0.3292,399.2633],[25.3805,0.2922,463.0223],[25.3375,0.2803,424.0837],[25.3118,0.2874,461.3782],[25.3077,0.3003,466.5368],[25.3006,0.3103,463.4424],[25.3006,0.3391,426.5117],[25.1878,0.4081,431.1346],[25.1796,0.4001,436.4522],[25.1775,0.3743,419.5853],[25.1591,0.3106,432.4722],[25.1509,0.2937,450.2664],[25.1242,0.2987,455.6832],[25.1047,0.2958,458.0491],[25.0986,0.2649,515.3264],[25.0729,0.253,525.2034],[25.0699,0.1953,505.1915],[25.0641,0.1474,492.2409],[25.0429,0.1305,484.7796],[25.0205,0.1238,480.6017],[24.955,0.0119,449.2811],[24.771,-0.3276,484.753],[24.7448,-0.3065,483.551],[24.4843,-0.2666,481.3397],[24.4564,-0.2664,464.4275],[24.4012,-0.2733,484.9734],[24.3994,-0.2882,456.5907],[24.3705,-0.2899,463.8216],[24.3813,-0.3163,469.848],[24.4094,-0.3462,482.3813],[24.4121,-0.3523,494.9284],[24.4229,-0.4138,459.6586],[24.4546,-0.4489,478.6628],[24.4663,-0.4692,487.1653],[24.5034,-0.5114,447.1339],[24.5233,-0.5816,470.0876],[24.5377,-0.6255,516.7404],[24.5621,-0.6914,487.3889],[24.6101,-0.7451,463.8361],[24.6363,-0.7846,470.1115],[24.6489,-0.8145,452.3377],[24.6679,-0.8277,476.7715],[24.7484,-0.8752,457.7274],[24.8144,-0.9272,451.6168],[24.875,-0.9949,454.617],[24.9202,-1.052,454.8211],[24.9681,-1.0934,470.1598],[25.0151,-1.1303,465.0825],[25.0657,-1.1734,471.2626],[25.0856,-1.2095,455.6699],[25.1037,-1.2736,473.8536],[25.1154,-1.3218,462.589],[25.1487,-1.354,476.4574],[25.1376,-1.3658,469.5454],[25.1286,-1.3699,452.1],[25.0901,-1.4076,457.1886],[25.0745,-1.418,448.2866],[25.0617,-1.421,451.1708],[25.0428,-1.4226,468.0336],[25.0325,-1.4302,455.7106],[25.0156,-1.4346,449.5382],[25.0068,-1.4347,445.9617],[25.008,-1.4401,449.9143],[25.0037,-1.4651,453.5433],[25.0063,-1.4798,472.1674],[25.013,-1.4894,459.7244],[25.0166,-1.5067,473.2831],[25.0188,-1.512,466.6613],[25.0246,-1.5175,473.1833],[25.041,-1.5214,467.6272],[25.0463,-1.527,464.5659],[25.0481,-1.5318,469.5981],[25.046,-1.5366,470.5188],[25.0394,-1.544,463.4682],[25.0381,-1.5716,463.0185],[25.0363,-1.575,464.3976],[25.0196,-1.5851,480.7888],[25.0164,-1.59,479.8191],[25.0125,-1.6024,479.0158],[25.0143,-1.6079,474.7998],[25.0261,-1.6185,467.5023],[25.0249,-1.6284,479.9603],[25.0317,-1.6412,476.375],[25.0341,-1.6602,471.0046],[25.0464,-1.6787,473.2177],[25.0494,-1.6955,469.4315],[25.0521,-1.7022,467.9922],[25.051,-1.7201,464.0766],[25.0446,-1.7369,473.5906],[25.0407,-1.7543,461.3382],[25.0293,-1.7769,464.7739],[25.0243,-1.7902,467.2253],[25.0243,-1.796,470.3156],[25.0216,-1.8047,475.4623],[25.0126,-1.8199,475.7304],[25.0115,-1.8305,471.5128],[25.0122,-1.8433,483.5748],[25.009,-1.8633,472.0791],[25.0145,-1.8753,477.0228],[25.0193,-1.8811,479.0698],[25.0296,-1.882,472.5212],[25.0328,-1.8872,466.1209],[25.0315,-1.8948,466.4817],[25.0342,-1.907,469.1685],[25.0326,-1.9208,472.5229],[25.0267,-1.9339,457.3388],[25.0139,-1.9464,472.3103],[25.0125,-1.9505,480.9985],[25.0166,-1.9595,484.8826],[25.0245,-1.9686,481.5561],[25.0491,-1.9703,489.3928],[25.0557,-1.9806,483.2988],[25.0682,-1.9755,476.1995],[25.0867,-1.9749,466.1327],[25.1184,-1.9763,467.7899],[25.135,-1.9853,479.2314],[25.1601,-1.9853,458.0018],[25.1885,-1.9803,477.8994],[25.1971,-1.9828,453.1295],[25.2017,-1.9925,454.0424],[25.1971,-2.0098,463.2277],[25.1984,-2.0143,453.6042],[25.2076,-2.02,470.6336],[25.209,-2.0277,459.1686],[25.1786,-2.0514,473.0464],[25.1726,-2.0623,479.8484],[25.1753,-2.0687,464.3546],[25.1759,-2.0777,465.1466],[25.1852,-2.0835,458.0224],[25.2004,-2.088,465.8149],[25.2116,-2.0861,461.8017],[25.2321,-2.0759,453.3127],[25.2401,-2.112,460.7988],[25.3298,-2.0811,477.1966],[25.4226,-2.0547,496.9705],[25.4303,-2.0342,491.9113],[25.4399,-2.0199,487.1159],[25.4481,-2.0112,484.2098],[25.4577,-2.0054,490.4057],[25.4694,-1.9937,485.0456],[25.4783,-1.9803,481.3181],[25.4961,-1.9642,499.8439],[25.5011,-1.9619,501.0394],[25.5098,-1.9608,493.976],[25.518,-1.9557,492.3922],[25.5345,-1.9515,491.0288],[25.5564,-1.9299,467.9206],[25.5635,-1.9285,483.2856],[25.5715,-1.9237,487.4565],[25.6015,-1.9218,472.4101],[25.6131,-1.9112,467.0445],[25.6234,-1.9052,471.3649],[25.6565,-1.8923,471.4217],[25.6675,-1.8815,468.173],[25.6707,-1.8753,476.1556],[25.6743,-1.8546,477.9968],[25.6775,-1.8507,489.0645],[25.699,-1.8392,482.5079],[25.7133,-1.8247,479.992],[25.72,-1.8221,482.9828],[25.7302,-1.8216,480.4646],[25.7424,-1.8184,479.7341],[25.7604,-1.8177,472.1378],[25.7659,-1.8193,472.1223],[25.7723,-1.8239,468.6946],[25.7872,-1.8409,428.5],[25.7902,-1.8425,428.5],[25.8011,-1.8432,459.6173],[25.8233,-1.8339,483.4847],[25.8434,-1.833,489.9848],[25.852,-1.7661,480.6796]]]]}}