{"type": "Feature","bbox": [20.8556,-0.2313,20.8865,-0.2032],"geometry": {"type": "MultiPolygon","coordinates": [[[[20.8823,-0.2286,346.2769],[20.8865,-0.2203,346.1171],[20.884,-0.2118,344.4005],[20.8698,-0.2032,340.2991],[20.861,-0.2052,348.2175],[20.8576,-0.2077,348.4548],[20.8557,-0.2114,345.625],[20.8556,-0.2184,339.7018],[20.8623,-0.2293,321.0],[20.866,-0.2308,324.3085],[20.8776,-0.2313,339.9966],[20.8823,-0.2286,346.2769]]]]}
,"properties": {"GID_2": "COD.26.3_1","GID_0": "COD","country": "DemocraticRepublicoftheCongo","GID_1": "COD.26_1","province": "Tshuapa","NL_NAME_1": "NA","county": "Boende(ville)","VARNAME_2": "NA","NL_NAME_2": "NA","TYPE_2": "Ville","ENGTYPE_2": "Town","CC_2": "NA","HASC_2": "NA","name": "Boende(ville).county","area_km2": 8.014376,"hist_schema_id": "Elevation0-9000","hist_area_km2": {"325": 0.657264,"350": 7.357112}}}