{"type": "Feature","bbox": [26.494,-2.5855,26.6217,-2.4362],"geometry": {"type": "MultiPolygon","coordinates": [[[[26.4984,-2.5832,684.5354],[26.5267,-2.5855,657.8058],[26.5387,-2.582,599.9457],[26.5584,-2.569,616.717],[26.577,-2.5647,620.4517],[26.5873,-2.5598,630.782],[26.6071,-2.5316,605.7901],[26.6165,-2.5247,584.7548],[26.6197,-2.5169,553.6401],[26.6188,-2.5005,559.3774],[26.6217,-2.4882,527.9871],[26.6121,-2.4749,561.2938],[26.6054,-2.471,555.8217],[26.6036,-2.4669,559.9711],[26.6097,-2.4473,529.4823],[26.6108,-2.4362,518.244],[26.6015,-2.437,515.6094],[26.5967,-2.4411,532.2381],[26.5893,-2.4411,518.4854],[26.5866,-2.4437,568.0187],[26.582,-2.4421,539.0591],[26.5729,-2.4435,549.3948],[26.5521,-2.4506,558.5862],[26.5422,-2.4497,559.3877],[26.5352,-2.4527,568.0822],[26.5249,-2.4617,543.4013],[26.5226,-2.4677,556.184],[26.5254,-2.4748,556.1298],[26.5249,-2.4785,584.0061],[26.5213,-2.4841,574.9299],[26.5126,-2.4889,573.6557],[26.5096,-2.493,587.0687],[26.5009,-2.4912,589.1885],[26.4985,-2.5032,635.0277],[26.5044,-2.5172,632.8497],[26.5068,-2.5329,614.5828],[26.505,-2.5434,619.1963],[26.5011,-2.5517,631.4277],[26.4956,-2.5575,631.8906],[26.494,-2.5623,631.2599],[26.4984,-2.5832,684.5354]]]]}
,"properties": {"GID_2": "COD.17.3_1","GID_0": "COD","country": "DemocraticRepublicoftheCongo","GID_1": "COD.17_1","province": "Maniema","NL_NAME_1": "NA","county": "Kalima","VARNAME_2": "NA","NL_NAME_2": "NA","TYPE_2": "Ville","ENGTYPE_2": "Town","CC_2": "NA","HASC_2": "NA","name": "Kalima.county","area_km2": 157.8681,"hist_schema_id": "Elevation0-9000","hist_area_km2": {"500": 0.233,"525": 4.7025,"550": 21.1612,"575": 24.9739,"600": 18.3222,"625": 20.2918,"650": 20.0588,"675": 16.7122,"700": 12.01,"725": 8.9599,"750": 3.0502,"775": 2.3512,"800": 1.7369,"825": 1.4616,"850": 0.7414,"875": 0.5084,"900": 0.4025,"925": 0.1271,"950": 0.0635}}}