{"type":"Feature","properties":{"GID_2":"COD.17.12_1","GID_0":"COD","country":"DemocraticRepublicoftheCongo","GID_1":"COD.17_1","province":"Maniema","NL_NAME_1":"NA","county":"Punia","VARNAME_2":"NA","NL_NAME_2":"NA","TYPE_2":"Territoire","ENGTYPE_2":"Territory","CC_2":"NA","HASC_2":"NA","name":"Punia.county"},
"geometry":{"type": "MultiPolygon","coordinates": [[[[26.868,-2.1589,528.5783],[26.8717,-2.1588,527.6603],[26.873,-2.1613,544.648],[26.8784,-2.1569,531.0154],[26.8928,-2.1555,535.3242],[26.8965,-2.1558,533.6402],[26.9061,-2.1614,533.3379],[26.9131,-2.1584,532.361],[26.9158,-2.1607,532.8575],[26.919,-2.1702,530.7211],[26.9257,-2.1736,526.625],[26.932,-2.181,535.8992],[26.9374,-2.1823,545.3212],[26.9369,-2.1761,558.5051],[26.9338,-2.1757,546.1753],[26.932,-2.1723,540.0383],[26.9343,-2.1678,560.7347],[26.9391,-2.1644,540.2938],[26.9396,-2.1613,534.8031],[26.9346,-2.1554,549.8878],[26.9366,-2.154,554.6351],[26.9376,-2.1504,535.3859],[26.9448,-2.1509,547.8804],[26.9478,-2.144,536.1188],[26.9584,-2.1381,554.756],[26.9633,-2.1291,546.2108],[26.9662,-2.1299,549.1472],[26.969,-2.1347,537.0],[26.9688,-2.1424,539.4138],[26.9715,-2.1488,565.2549],[26.9796,-2.1547,566.4738],[26.9826,-2.1546,559.6099],[26.9842,-2.1525,550.1771],[26.9843,-2.1479,545.853],[26.9777,-2.1396,568.454],[26.9744,-2.1278,542.546],[26.9748,-2.125,543.5857],[26.9769,-2.1239,546.1127],[26.9886,-2.1319,543.3339],[26.9957,-2.1482,555.2884],[26.9983,-2.1505,565.9522],[27.001,-2.1515,557.298],[27.004,-2.1499,540.0],[27.0057,-2.1405,556.5896],[27.01,-2.1374,543.8011],[27.0115,-2.1444,551.3105],[27.015,-2.1454,540.5],[27.0198,-2.1499,548.6611],[27.0208,-2.1614,554.1272],[27.0237,-2.1645,545.5711],[27.0291,-2.1676,546.5261],[27.0351,-2.1645,554.4945],[27.0372,-2.165,541.0],[27.038,-2.1715,541.9354],[27.0433,-2.1761,541.0],[27.0503,-2.1784,550.3682],[27.0565,-2.1784,548.4218],[27.0606,-2.1892,560.9144],[27.0604,-2.2021,568.1133],[27.0624,-2.207,547.8632],[27.0662,-2.2105,546.361],[27.0713,-2.2084,559.263],[27.0752,-2.2015,546.3043],[27.079,-2.2006,557.1292],[27.0879,-2.2052,542.5],[27.0922,-2.2032,542.5],[27.0987,-2.2037,549.1709],[27.1056,-2.2085,552.0685],[27.116,-2.2104,555.1571],[27.1168,-2.2132,548.7585],[27.1108,-2.224,551.7405],[27.1168,-2.2332,545.1036],[27.1236,-2.2366,547.6528],[27.1253,-2.2348,544.9613],[27.1224,-2.2272,546.8751],[27.1231,-2.2232,545.4376],[27.1401,-2.2127,563.3871],[27.1448,-2.2119,552.9335],[27.153,-2.2138,565.1974],[27.153,-2.219,564.3098],[27.1474,-2.2307,548.2725],[27.15,-2.2349,557.3795],[27.1523,-2.2344,548.2042],[27.1528,-2.2258,570.5331],[27.1548,-2.2226,574.4193],[27.159,-2.2218,544.5],[27.1662,-2.2247,562.1078],[27.1683,-2.2215,546.325],[27.1681,-2.2182,544.9358],[27.1714,-2.2165,544.5],[27.1757,-2.2196,574.5969],[27.1719,-2.2288,554.5869],[27.1711,-2.2353,554.0484],[27.1726,-2.2394,545.0],[27.1761,-2.2416,566.0753],[27.1804,-2.2389,550.2302],[27.1804,-2.2285,558.5374],[27.183,-2.2227,578.1923],[27.1908,-2.2191,560.5491],[27.1965,-2.2186,551.8639],[27.1974,-2.2222,549.7887],[27.1873,-2.2277,546.0],[27.1883,-2.2335,551.5224],[27.1937,-2.2343,549.4882],[27.1959,-2.2327,554.7079],[27.1995,-2.2245,577.64],[27.2025,-2.2237,561.2127],[27.2038,-2.2258,546.5],[27.2032,-2.2385,549.8784],[27.2065,-2.2427,552.6624],[27.2084,-2.2408,565.6023],[27.2092,-2.2362,572.6022],[27.2124,-2.2333,547.0],[27.2201,-2.2348,547.0],[27.2273,-2.2385,563.9773],[27.2292,-2.2496,576.5239],[27.2284,-2.2635,552.3561],[27.2314,-2.2693,555.6953],[27.2375,-2.2713,581.5054],[27.24,-2.2701,554.3724],[27.2412,-2.2664,566.03],[27.2412,-2.2538,579.1485],[27.243,-2.2487,574.2808],[27.2521,-2.2411,560.1685],[27.2558,-2.2306,565.8929],[27.2601,-2.2273,555.9791],[27.2642,-2.2266,552.3969],[27.2688,-2.2293,559.86],[27.2686,-2.2338,550.0],[27.2709,-2.2384,569.9266],[27.2789,-2.2389,595.8716],[27.288,-2.2421,600.9805],[27.2946,-2.2293,600.0555],[27.3192,-2.196,595.7641],[27.353,-2.1653,603.3686],[27.3688,-2.1642,698.8289],[27.3847,-2.1671,684.9468],[27.4087,-2.1557,928.1658],[27.4238,-2.1438,1246.818],[27.4526,-2.1305,1251.0953],[27.4534,-2.1205,1282.22],[27.4461,-2.1072,1266.9749],[27.453,-2.0843,1186.7323],[27.4678,-2.0584,1026.0798],[27.4736,-2.041,1159.7585],[27.4724,-2.0339,1173.6101],[27.4564,-2.0291,989.9122],[27.4351,-2.0291,933.3297],[27.3936,-2.0169,870.834],[27.3783,-2.0062,794.6337],[27.3749,-1.9999,812.6152],[27.3809,-1.9912,861.2607],[27.7397,-2.0006,1126.5321],[27.7428,-1.9867,1124.4948],[27.7465,-1.9777,1085.8745],[27.7429,-1.9391,1163.0181],[27.7435,-1.9269,1072.6638],[27.7505,-1.9043,1124.5903],[27.7486,-1.8731,1039.8757],[27.7541,-1.8682,982.98],[27.7547,-1.8638,1039.0939],[27.7517,-1.8588,1035.1721],[27.7517,-1.8556,993.2538],[27.7562,-1.8448,1106.2327],[27.7555,-1.8415,1081.7833],[27.7491,-1.8388,1191.7632],[27.742,-1.831,1182.4454],[27.7413,-1.8269,1126.061],[27.7476,-1.794,979.6467],[27.7467,-1.7894,986.527],[27.7432,-1.7882,1004.2775],[27.7391,-1.7901,985.1212],[27.7366,-1.782,1073.7902],[27.7272,-1.7729,1093.4963],[27.7205,-1.7695,1098.9968],[27.7123,-1.7693,972.4275],[27.6974,-1.7741,1011.4802],[27.694,-1.7709,1028.152],[27.6846,-1.7717,1054.1548],[27.6807,-1.7641,981.0703],[27.6804,-1.7524,982.8751],[27.6738,-1.7459,1102.6841],[27.6733,-1.743,1091.8423],[27.6781,-1.7278,862.4004],[27.6774,-1.7252,856.8232],[27.6728,-1.7211,861.9174],[27.6684,-1.7087,876.9219],[27.659,-1.7106,916.4481],[27.6558,-1.7074,896.038],[27.6553,-1.7053,877.3812],[27.6581,-1.7007,844.6799],[27.6535,-1.6911,894.7244],[27.6454,-1.6867,876.548],[27.623,-1.685,993.8063],[27.618,-1.6813,984.484],[27.6154,-1.6728,1005.8596],[27.6061,-1.6694,946.8187],[27.5973,-1.6588,920.7252],[27.59,-1.6582,864.3378],[27.5873,-1.6564,933.1662],[27.5781,-1.6442,779.5647],[27.574,-1.6444,816.3656],[27.5715,-1.6472,827.8585],[27.5676,-1.6458,861.8312],[27.5607,-1.6369,811.3841],[27.5479,-1.6379,615.08],[27.544,-1.6349,654.505],[27.5408,-1.6271,692.3141],[27.5284,-1.6221,707.9082],[27.5263,-1.6189,681.0045],[27.5256,-1.609,664.7946],[27.5194,-1.6019,632.2139],[27.5153,-1.601,686.0309],[27.5082,-1.5897,733.3183],[27.5063,-1.5837,707.8143],[27.5079,-1.5752,658.4465],[27.4986,-1.5387,683.2171],[27.4722,-1.5075,620.5608],[27.4585,-1.4947,633.4408],[27.4545,-1.4848,641.0693],[27.4522,-1.4664,614.8807],[27.4494,-1.4593,617.9241],[27.4306,-1.4462,617.9148],[27.4115,-1.4581,691.7428],[27.4033,-1.4587,701.2425],[27.3914,-1.4501,624.7872],[27.3558,-1.3793,719.769],[27.3521,-1.3688,653.2141],[27.3469,-1.3608,633.671],[27.3458,-1.3496,616.7218],[27.3482,-1.3392,609.869],[27.3648,-1.3067,637.7637],[27.363,-1.3047,634.0278],[27.3559,-1.3045,620.9294],[27.3453,-1.2974,630.4589],[27.3415,-1.2969,632.6057],[27.3332,-1.2995,646.4557],[27.3264,-1.2977,635.1199],[27.3207,-1.2931,631.8839],[27.3092,-1.2791,614.2363],[27.2961,-1.2729,596.874],[27.2867,-1.2645,587.5281],[27.2824,-1.2521,597.6892],[27.2647,-1.2393,584.23],[27.2608,-1.2317,588.7806],[27.2397,-1.2122,577.8231],[27.2354,-1.2051,572.3401],[27.2271,-1.2049,575.2267],[27.2246,-1.2095,572.1636],[27.2194,-1.2123,578.8687],[27.213,-1.2125,578.1341],[27.1917,-1.1951,569.2573],[27.1602,-1.1908,578.7513],[27.1503,-1.1842,574.2769],[27.1444,-1.1727,575.807],[27.1393,-1.1675,572.1878],[27.1306,-1.1633,564.1743],[27.1112,-1.162,598.0042],[27.1059,-1.1602,586.2375],[27.1009,-1.1563,591.5287],[27.0933,-1.1425,537.9247],[27.0915,-1.1446,563.73],[27.0922,-1.1492,539.6782],[27.0897,-1.1577,561.9642],[27.0852,-1.1653,558.0647],[27.0774,-1.1711,561.999],[27.0738,-1.1709,616.0816],[27.0628,-1.161,555.9814],[27.0452,-1.1592,555.2847],[27.0308,-1.1613,563.4803],[27.0242,-1.1659,577.8577],[27.0141,-1.1696,555.0145],[27.0098,-1.1736,576.116],[26.9888,-1.1743,588.3035],[26.9838,-1.1769,528.5],[26.981,-1.1812,542.5295],[26.9754,-1.2022,541.6483],[26.9715,-1.2075,531.3269],[26.9597,-1.2178,544.842],[26.956,-1.2179,561.6403],[26.9496,-1.2149,549.7213],[26.9398,-1.2145,558.5782],[26.9361,-1.2106,560.2179],[26.9218,-1.2156,558.6494],[26.9131,-1.2138,522.5],[26.9051,-1.2224,547.3132],[26.8834,-1.2254,553.0462],[26.88,-1.2284,561.9206],[26.8823,-1.2364,558.9373],[26.8812,-1.2415,543.5955],[26.8709,-1.253,547.6472],[26.8718,-1.2583,517.0],[26.8705,-1.264,533.0077],[26.8675,-1.2673,521.271],[26.8532,-1.2744,531.7806],[26.8459,-1.2843,527.081],[26.8482,-1.3029,512.5],[26.8442,-1.3216,538.5212],[26.8371,-1.329,588.9667],[26.8092,-1.3208,539.7239],[26.7994,-1.3123,561.2363],[26.7966,-1.3116,543.4318],[26.7868,-1.3167,534.6608],[26.7818,-1.3358,567.7083],[26.778,-1.3399,546.6656],[26.7576,-1.3418,609.5161],[26.74,-1.3414,593.8391],[26.7293,-1.3462,546.2773],[26.6887,-1.3482,546.1996],[26.6784,-1.3512,527.5562],[26.675,-1.3537,512.0914],[26.6695,-1.3673,529.3792],[26.6583,-1.3657,536.4546],[26.6487,-1.3701,535.8286],[26.6385,-1.3841,497.5],[26.6246,-1.3906,530.3463],[26.618,-1.3987,516.6368],[26.6011,-1.4116,518.6204],[26.5871,-1.4118,492.625],[26.5792,-1.4174,524.0269],[26.5593,-1.4151,554.1403],[26.5458,-1.4106,544.0399],[26.5348,-1.4018,528.2043],[26.5298,-1.4009,519.3154],[26.5259,-1.3975,528.1411],[26.5197,-1.3973,489.9371],[26.5103,-1.404,539.5905],[26.4841,-1.4134,526.2529],[26.4749,-1.405,515.534],[26.4591,-1.3999,527.0827],[26.4506,-1.3891,545.9706],[26.451,-1.3865,532.9792],[26.4571,-1.3843,501.0971],[26.4586,-1.3786,501.7638],[26.4582,-1.373,531.5038],[26.4536,-1.3632,531.0757],[26.4499,-1.3606,535.3661],[26.4346,-1.3602,538.7501],[26.4269,-1.3551,518.4348],[26.4211,-1.3478,545.3397],[26.4168,-1.3492,514.2959],[26.4047,-1.3486,523.5671],[26.3942,-1.3534,581.4888],[26.3903,-1.3525,633.656],[26.3868,-1.3491,534.6031],[26.3781,-1.3325,527.3119],[26.3715,-1.325,524.2999],[26.3575,-1.3179,517.6677],[26.3449,-1.3,508.8226],[26.3403,-1.2827,512.2385],[26.335,-1.2777,507.1546],[26.3129,-1.2846,515.6372],[26.3006,-1.2849,503.6485],[26.2864,-1.2824,511.3817],[26.277,-1.2787,513.1375],[26.2608,-1.2682,507.7484],[26.2315,-1.2432,492.9741],[26.2242,-1.2404,480.5335],[26.2189,-1.2407,472.4415],[26.2153,-1.2453,464.0],[26.2144,-1.257,481.5197],[26.2098,-1.2701,486.6429],[26.2066,-1.2733,463.0],[26.1984,-1.2733,469.5742],[26.1922,-1.2669,463.0],[26.1915,-1.2536,517.3442],[26.1931,-1.243,491.6148],[26.1894,-1.2205,485.8574],[26.1859,-1.2177,469.0196],[26.1803,-1.218,495.0891],[26.1757,-1.2194,491.7504],[26.1524,-1.244,460.5],[26.1474,-1.2458,482.5178],[26.1412,-1.2454,514.2433],[26.1257,-1.2374,494.5914],[26.1198,-1.2381,483.6787],[26.117,-1.2436,467.3388],[26.1299,-1.2698,491.6636],[26.129,-1.2753,494.4632],[26.1258,-1.2808,493.5883],[26.1226,-1.282,492.2208],[26.1196,-1.2866,458.5],[26.105,-1.2861,458.0],[26.0959,-1.282,472.7764],[26.0819,-1.2813,464.9681],[26.0746,-1.2825,483.6238],[26.0694,-1.288,487.9101],[26.0692,-1.3014,501.7963],[26.0667,-1.3103,506.4645],[26.0717,-1.3269,456.5],[26.0674,-1.3471,481.4879],[26.0696,-1.3848,455.5],[26.0659,-1.394,507.3292],[26.0616,-1.397,500.8615],[26.0522,-1.3977,488.4542],[26.0301,-1.3945,486.8348],[26.0237,-1.3989,484.5508],[26.0173,-1.4076,463.2772],[26.0173,-1.4113,497.58],[26.0264,-1.424,500.0486],[26.0342,-1.4297,500.6735],[26.039,-1.4439,512.067],[26.034,-1.4582,517.4344],[26.0279,-1.463,517.6467],[26.0183,-1.4656,515.6345],[26.0142,-1.4686,494.5244],[26.0137,-1.4727,500.7109],[26.0167,-1.4833,484.7175],[26.0154,-1.4881,497.7267],[25.9994,-1.5008,491.095],[25.9852,-1.5013,451.8751],[25.982,-1.5026,455.0479],[25.9583,-1.4942,435.5],[25.9336,-1.4953,492.1257],[25.9306,-1.4937,496.2127],[25.9285,-1.4908,494.5146],[25.929,-1.4786,485.041],[25.92,-1.4708,482.644],[25.9013,-1.4616,481.5495],[25.8928,-1.4543,465.8248],[25.8896,-1.432,509.2167],[25.8788,-1.4258,483.5218],[25.8655,-1.4138,481.3634],[25.861,-1.4115,468.1844],[25.8599,-1.4377,478.3427],[25.8663,-1.4649,476.9373],[25.8632,-1.4791,488.1025],[25.8568,-1.4925,476.2371],[25.8548,-1.506,481.5645],[25.8663,-1.5787,476.8904],[25.8687,-1.6394,481.4102],[25.863,-1.6555,471.2058],[25.8633,-1.6686,475.0853],[25.8619,-1.669,476.5012],[25.8494,-1.7003,466.6644],[25.848,-1.7088,472.3462],[25.852,-1.7661,480.6796],[25.8591,-1.767,483.3364],[25.8634,-1.7695,499.416],[25.881,-1.7743,505.9579],[25.8854,-1.7778,503.3937],[25.8893,-1.7865,500.3059],[25.8978,-1.7947,503.325],[25.9035,-1.8088,509.0143],[25.9103,-1.8401,508.064],[25.9036,-1.863,506.969],[25.9076,-1.9136,508.0649],[25.9072,-1.9337,514.0518],[25.8886,-1.9505,509.8305],[25.8779,-1.9546,514.1848],[25.8546,-1.9747,499.9738],[25.8343,-1.9858,498.198],[25.8238,-2.0004,505.2412],[25.8159,-2.005,478.7495],[25.8086,-2.0067,469.2544],[25.81,-2.0175,480.6814],[25.8192,-2.0254,472.6526],[25.8283,-2.0277,490.1406],[25.8462,-2.0239,484.0585],[25.8837,-2.0022,511.2274],[25.8878,-1.9953,506.8603],[25.891,-1.9932,504.2735],[25.9082,-1.9872,508.0428],[25.9267,-1.9734,505.5522],[25.9578,-1.9777,517.6002],[25.9678,-1.986,516.4409],[25.9868,-1.9975,488.8821],[26.008,-2.0004,501.2488],[26.0784,-2.0337,553.1966],[26.1166,-2.0476,553.5243],[26.1278,-2.0495,567.9034],[26.1707,-2.0377,526.8367],[26.1924,-2.0161,514.4666],[26.2026,-2.0131,507.7364],[26.3049,-2.0105,528.2958],[26.3235,-2.0109,519.3088],[26.3358,-2.0137,532.2078],[26.3564,-2.0137,531.4021],[26.3779,-2.0255,522.9849],[26.4212,-2.0707,521.7193],[26.4276,-2.0748,546.8573],[26.4412,-2.093,528.9636],[26.4453,-2.1121,513.139],[26.4431,-2.1312,528.2005],[26.4438,-2.1457,529.8583],[26.4479,-2.1484,536.7543],[26.453,-2.1475,532.8899],[26.4582,-2.1525,525.1521],[26.4607,-2.1472,539.324],[26.463,-2.147,544.6035],[26.4642,-2.1514,547.6628],[26.4784,-2.1483,523.9367],[26.4827,-2.1525,559.2405],[26.4882,-2.1531,552.109],[26.4946,-2.1568,574.2618],[26.4967,-2.1467,563.0426],[26.5005,-2.1437,561.7882],[26.5044,-2.1434,547.7039],[26.5133,-2.1464,539.8297],[26.5243,-2.1386,544.7914],[26.5302,-2.1365,562.3653],[26.5316,-2.1314,530.5537],[26.5394,-2.1254,539.2955],[26.5446,-2.1188,525.4666],[26.5453,-2.1153,525.1046],[26.5425,-2.1056,518.0737],[26.5473,-2.0951,531.1255],[26.5493,-2.0801,531.996],[26.5518,-2.0748,534.8943],[26.5568,-2.0739,532.5231],[26.5699,-2.0817,526.1243],[26.5779,-2.0828,539.6579],[26.5818,-2.0849,534.0222],[26.5933,-2.1002,560.4907],[26.6031,-2.1025,572.6765],[26.6079,-2.1078,578.0779],[26.6139,-2.1062,555.3698],[26.6271,-2.0898,647.0078],[26.6277,-2.0752,689.0878],[26.6156,-2.0645,769.5234],[26.592,-2.0503,605.1976],[26.6033,-2.0425,908.8818],[26.6478,-2.0234,710.9698],[26.6683,-2.009,741.0604],[26.7542,-2.0055,674.5733],[26.7946,-2.0154,601.5892],[26.8052,-2.0269,731.1628],[26.8137,-2.0401,847.1971],[26.8263,-2.0653,591.3175],[26.8218,-2.1028,555.7144],[26.8439,-2.1093,558.2419],[26.8517,-2.114,553.0032],[26.8637,-2.1295,557.5488],[26.8721,-2.1367,557.5275],[26.8737,-2.142,554.9296],[26.873,-2.1467,554.6044],[26.868,-2.1589,528.5783]],
[[26.4644,-1.4792,585.5506],[26.4547,-1.4804,609.2495],[26.4388,-1.4774,557.4584],[26.4326,-1.4676,546.2],[26.4312,-1.4526,552.9214],[26.4346,-1.4438,531.1031],[26.4398,-1.437,522.2808],[26.4495,-1.4328,526.0958],[26.4632,-1.4322,519.6067],[26.475,-1.4354,538.5577],[26.4819,-1.4418,515.3885],[26.4839,-1.4564,530.787],[26.4809,-1.4652,542.1982],[26.4726,-1.4764,581.9503],[26.4644,-1.4792,585.5506]]]]}}