{"type": "Feature","bbox": [18.2987,-6.3913,20.2038,-5.144],"geometry": {"type": "MultiPolygon","coordinates": [[[[20.1907,-5.1456,392.4191],[20.1849,-5.1457,514.012],[20.1763,-5.1494,546.313],[20.169,-5.1529,538.3941],[20.1542,-5.1644,544.1624],[20.1319,-5.1699,490.6928],[20.1241,-5.1753,503.7799],[20.1101,-5.1893,527.5865],[20.0871,-5.2198,550.1097],[20.0767,-5.2422,567.5692],[20.0724,-5.2587,598.8209],[20.0696,-5.2649,540.9459],[20.0647,-5.2682,496.6121],[20.0595,-5.2838,530.1578],[20.0532,-5.2867,549.7135],[20.0378,-5.2873,571.8589],[20.0314,-5.2891,484.8387],[20.0259,-5.2929,525.9037],[20.0206,-5.3009,502.0555],[20.0128,-5.322,562.5016],[20.0077,-5.341,699.1641],[20.0079,-5.3514,631.7509],[20.0114,-5.3629,673.5919],[20.0195,-5.3797,511.9661],[20.0212,-5.381,501.7274],[20.0316,-5.378,499.8737],[20.0367,-5.3794,493.3325],[20.0398,-5.384,552.8297],[20.0405,-5.3882,520.4889],[20.0376,-5.4,592.118],[20.0269,-5.4129,629.9153],[20.0181,-5.4207,700.3407],[20.0021,-5.4326,632.7361],[19.9773,-5.4466,710.9402],[19.9735,-5.4505,710.7538],[19.971,-5.4603,714.1821],[19.9677,-5.4618,714.1674],[19.9208,-5.4416,515.8219],[19.9084,-5.438,537.1644],[19.8746,-5.4366,493.4048],[19.8688,-5.4479,569.0386],[19.8713,-5.4534,498.3079],[19.8676,-5.4623,496.9811],[19.8696,-5.4727,490.6475],[19.8668,-5.4835,486.7396],[19.8676,-5.4897,485.4939],[19.8653,-5.4989,509.7709],[19.8682,-5.5169,497.812],[19.8723,-5.522,513.1241],[19.8729,-5.5293,498.01],[19.8447,-5.53,611.0067],[19.8342,-5.5402,617.1619],[19.8217,-5.5624,723.8479],[19.8132,-5.5717,727.204],[19.8044,-5.5756,726.7597],[19.7934,-5.5774,726.918],[19.7774,-5.5877,730.8226],[19.7575,-5.5902,735.3946],[19.6852,-5.5884,739.0729],[19.6749,-5.5908,676.769],[19.6703,-5.5954,686.6101],[19.6638,-5.6108,705.2153],[19.6579,-5.6334,751.3749],[19.6528,-5.6464,745.6798],[19.6429,-5.657,730.1699],[19.6368,-5.6606,728.0852],[19.6189,-5.6655,723.2545],[19.5957,-5.6657,697.8785],[19.566,-5.6387,733.8629],[19.5602,-5.6381,715.5697],[19.5501,-5.64,681.4911],[19.5418,-5.6517,678.9794],[19.5403,-5.6634,683.2291],[19.5373,-5.6708,701.6586],[19.5322,-5.6751,719.1965],[19.5313,-5.6779,724.4086],[19.5333,-5.6834,736.3535],[19.5319,-5.6889,741.6217],[19.5355,-5.6944,743.1324],[19.532,-5.7034,748.2229],[19.5322,-5.7108,750.2224],[19.5261,-5.7275,746.9442],[19.5218,-5.7307,737.3131],[19.5183,-5.7392,725.2401],[19.5127,-5.7447,697.4951],[19.5072,-5.7465,706.3779],[19.4995,-5.7537,711.02],[19.4887,-5.7544,760.8865],[19.4786,-5.7499,755.6731],[19.4682,-5.7423,762.5222],[19.4548,-5.7036,759.7576],[19.4498,-5.6969,759.7345],[19.4491,-5.6732,756.4095],[19.4436,-5.6603,760.3951],[19.4453,-5.6397,755.6609],[19.444,-5.622,755.1075],[19.4335,-5.5801,745.6293],[19.4254,-5.5581,751.3643],[19.4055,-5.5511,751.7223],[19.3987,-5.5467,748.1648],[19.3789,-5.5315,742.3918],[19.3718,-5.5229,747.8634],[19.3628,-5.5071,748.4407],[19.3147,-5.4007,730.6403],[19.2881,-5.3633,723.6764],[19.2856,-5.3542,731.7224],[19.2765,-5.3434,723.2133],[19.2734,-5.3371,726.208],[19.2774,-5.3304,681.5779],[19.2862,-5.3278,671.0712],[19.3128,-5.3006,725.989],[19.3256,-5.283,637.3899],[19.3264,-5.2717,630.7915],[19.3203,-5.2588,629.6346],[19.3109,-5.2486,622.8533],[19.305,-5.2364,622.3622],[19.2985,-5.2138,619.6492],[19.2901,-5.2029,613.9591],[19.2865,-5.1863,617.355],[19.2833,-5.1824,616.735],[19.2676,-5.1712,606.6205],[19.2646,-5.1673,606.7949],[19.2596,-5.1544,601.4854],[19.262,-5.1445,605.8218],[19.2576,-5.144,624.4247],[19.2503,-5.1477,651.075],[19.2443,-5.1469,690.8463],[19.2216,-5.1491,700.3832],[19.2142,-5.1587,652.3896],[19.2066,-5.1853,633.9733],[19.1846,-5.1859,680.1028],[19.1746,-5.1893,720.6812],[19.1654,-5.1953,704.5418],[19.1503,-5.2126,714.9631],[19.1451,-5.2208,711.8782],[19.1414,-5.2311,699.3349],[19.1338,-5.266,703.7252],[19.1281,-5.266,714.6177],[19.1244,-5.2719,706.0509],[19.1181,-5.2758,688.6758],[19.1254,-5.2813,674.1911],[19.1287,-5.3145,729.1514],[19.1288,-5.3187,736.699],[19.1262,-5.3222,735.993],[19.1037,-5.3213,727.4396],[19.0752,-5.323,535.4565],[19.0719,-5.3261,516.2733],[19.0707,-5.3316,476.8344],[19.0743,-5.342,502.5546],[19.0715,-5.3544,539.4473],[19.0653,-5.3537,460.8154],[19.0594,-5.3483,453.3651],[19.049,-5.3284,538.4513],[19.0457,-5.3174,668.7084],[19.041,-5.3114,715.7029],[19.0343,-5.3093,739.7241],[19.0263,-5.3111,671.722],[19.0175,-5.3175,507.2956],[19.0002,-5.3218,464.2559],[18.9751,-5.3215,475.3719],[18.9609,-5.3167,461.3668],[18.9543,-5.3175,410.2029],[18.9449,-5.3224,463.8211],[18.943,-5.325,364.2575],[18.9364,-5.3257,419.1393],[18.9327,-5.329,438.7476],[18.9321,-5.3317,401.43],[18.9369,-5.34,408.6043],[18.9349,-5.3496,365.7281],[18.938,-5.3577,419.7747],[18.9387,-5.3664,430.5576],[18.9471,-5.3783,454.3474],[18.9531,-5.3797,446.1326],[18.9476,-5.39,406.6096],[18.9426,-5.3933,438.5933],[18.9353,-5.3943,467.929],[18.9206,-5.4036,487.0993],[18.9094,-5.402,524.4869],[18.9007,-5.4049,491.233],[18.8864,-5.4038,511.6395],[18.8603,-5.4111,522.3743],[18.8306,-5.4039,639.1898],[18.8038,-5.3944,698.4889],[18.7988,-5.3946,632.9291],[18.7961,-5.3981,677.9995],[18.793,-5.415,726.2763],[18.7891,-5.4151,753.3728],[18.7449,-5.387,686.1509],[18.7402,-5.3811,532.2439],[18.7312,-5.3572,485.0713],[18.7261,-5.3536,461.265],[18.7156,-5.3516,483.5508],[18.706,-5.3527,465.6245],[18.6991,-5.3575,505.6407],[18.6945,-5.3572,493.709],[18.6846,-5.3476,432.209],[18.6717,-5.3386,448.1395],[18.666,-5.3411,426.7888],[18.6615,-5.325,464.1089],[18.655,-5.3136,447.5279],[18.6447,-5.3109,446.0696],[18.6396,-5.3119,460.5024],[18.623,-5.3016,416.1147],[18.6191,-5.3051,401.2158],[18.6157,-5.301,438.3802],[18.6131,-5.3003,449.3213],[18.6118,-5.3047,396.9435],[18.6128,-5.315,397.9512],[18.607,-5.3137,448.4119],[18.6018,-5.3195,418.7012],[18.5979,-5.3206,453.9618],[18.5907,-5.3129,440.2194],[18.5877,-5.3127,434.0792],[18.585,-5.3166,412.6252],[18.5846,-5.3237,444.3224],[18.5865,-5.3281,440.9634],[18.5927,-5.3326,487.7975],[18.5936,-5.3352,470.7369],[18.5911,-5.3379,429.7191],[18.5875,-5.3377,415.3328],[18.5822,-5.341,444.7624],[18.5785,-5.3399,458.2027],[18.5737,-5.3353,450.2502],[18.5717,-5.3447,394.9234],[18.562,-5.3432,451.1389],[18.5619,-5.334,450.0511],[18.5605,-5.3308,422.1484],[18.5569,-5.3315,472.0223],[18.5476,-5.346,394.7843],[18.546,-5.3465,399.6042],[18.5534,-5.3649,412.4508],[18.5539,-5.3702,448.4131],[18.5498,-5.3789,419.9229],[18.5497,-5.3838,472.5177],[18.5559,-5.3892,454.2655],[18.5566,-5.3915,429.7753],[18.5559,-5.395,437.4429],[18.5496,-5.4047,422.178],[18.554,-5.4139,432.3274],[18.5481,-5.4183,458.6853],[18.5453,-5.4128,478.6464],[18.5397,-5.4121,469.5748],[18.5349,-5.4151,466.8589],[18.5278,-5.4122,453.9481],[18.5223,-5.4118,472.4679],[18.5049,-5.4211,458.4412],[18.4962,-5.4324,451.7653],[18.4954,-5.4402,463.1373],[18.4874,-5.4655,532.1276],[18.4861,-5.5019,707.1058],[18.4855,-5.5075,756.5757],[18.4822,-5.5125,800.0226],[18.4734,-5.5185,801.9344],[18.4627,-5.5213,673.2518],[18.4544,-5.5229,602.3253],[18.4429,-5.5219,586.8649],[18.4332,-5.5156,459.5212],[18.4297,-5.5116,440.7292],[18.4219,-5.4959,436.9337],[18.4151,-5.4937,445.8578],[18.4053,-5.494,422.0228],[18.4018,-5.4914,433.4728],[18.3995,-5.4917,448.9948],[18.3984,-5.4949,402.6736],[18.3996,-5.5,445.5563],[18.3941,-5.5007,437.4148],[18.3913,-5.5078,447.2597],[18.3893,-5.5095,462.9333],[18.3887,-5.5171,442.7866],[18.3829,-5.5159,435.563],[18.3771,-5.5093,443.6801],[18.3721,-5.5089,447.0053],[18.3689,-5.5114,406.3326],[18.3769,-5.516,412.1526],[18.3783,-5.5185,441.2241],[18.3774,-5.5206,434.3842],[18.3715,-5.522,433.8616],[18.3683,-5.5259,414.6717],[18.3704,-5.5291,424.6557],[18.377,-5.5284,419.5876],[18.3782,-5.5316,430.0677],[18.3725,-5.5365,407.5008],[18.3789,-5.541,462.7494],[18.3769,-5.5438,422.1941],[18.3693,-5.5427,430.7888],[18.3679,-5.5462,432.9764],[18.3705,-5.5524,439.8407],[18.3689,-5.5563,422.2144],[18.3627,-5.5549,442.5144],[18.3646,-5.5618,414.8297],[18.3628,-5.5671,439.0038],[18.3679,-5.5717,465.8442],[18.3651,-5.5736,458.1953],[18.3603,-5.5724,435.2604],[18.3585,-5.5812,427.4251],[18.3498,-5.5794,444.6808],[18.3508,-5.5872,453.2761],[18.3445,-5.5827,471.7658],[18.3429,-5.5831,440.1072],[18.3411,-5.5873,425.7928],[18.3425,-5.5939,433.0678],[18.34,-5.5972,443.6416],[18.3389,-5.6029,456.1631],[18.3314,-5.6071,423.4557],[18.3321,-5.6085,437.5587],[18.3403,-5.6082,441.5867],[18.3417,-5.6105,462.365],[18.3326,-5.6248,439.0292],[18.3214,-5.6307,431.1122],[18.3244,-5.6341,457.1437],[18.3231,-5.6467,444.251],[18.3211,-5.65,429.0108],[18.3223,-5.6543,479.9017],[18.3181,-5.6553,429.0899],[18.3154,-5.6601,429.6821],[18.311,-5.6606,476.689],[18.3095,-5.6639,435.4003],[18.3118,-5.6698,448.3759],[18.3088,-5.6708,442.5992],[18.3035,-5.6692,446.804],[18.3001,-5.6704,460.6129],[18.2987,-5.6729,424.8657],[18.3082,-5.6773,470.9152],[18.324,-5.6796,489.4382],[18.3411,-5.6864,560.9194],[18.3496,-5.6916,594.0374],[18.3612,-5.7148,760.5839],[18.3649,-5.7248,730.7844],[18.3666,-5.7422,833.3858],[18.3703,-5.7458,833.0973],[18.3735,-5.7455,830.4748],[18.3775,-5.7426,832.7578],[18.3879,-5.7249,769.1211],[18.3921,-5.7214,717.788],[18.4331,-5.7218,623.3044],[18.4603,-5.7151,829.7937],[18.4741,-5.7035,829.2986],[18.4829,-5.6984,829.253],[18.4987,-5.6932,743.5598],[18.5035,-5.6877,723.7001],[18.5166,-5.6898,816.5759],[18.5318,-5.6995,717.9686],[18.5387,-5.7011,722.2578],[18.5706,-5.6985,688.6442],[18.5739,-5.7024,702.7387],[18.5749,-5.7171,690.4922],[18.5713,-5.7238,700.3179],[18.5697,-5.7351,704.6277],[18.5719,-5.7464,709.7254],[18.5708,-5.7576,720.2355],[18.575,-5.7657,738.2859],[18.5755,-5.7703,703.3887],[18.5735,-5.776,710.8453],[18.5749,-5.7834,744.2123],[18.5722,-5.7866,718.3083],[18.5722,-5.7924,734.1244],[18.5764,-5.8048,767.3466],[18.5723,-5.8108,735.6382],[18.5713,-5.8565,728.6439],[18.5632,-5.8856,742.9376],[18.5525,-5.8967,747.8951],[18.5486,-5.9089,759.3937],[18.5411,-5.914,763.3943],[18.5391,-5.9241,767.8797],[18.5459,-5.9416,824.2125],[18.5488,-5.9586,784.7418],[18.5484,-5.971,794.6009],[18.5463,-5.974,793.7094],[18.5462,-5.9791,815.589],[18.535,-5.9871,854.0555],[18.5328,-5.9912,857.9129],[18.5357,-5.9939,804.99],[18.5474,-5.9901,805.1434],[18.5602,-5.9892,843.5543],[18.5767,-5.9925,849.1485],[18.6443,-5.9731,821.4125],[18.6669,-5.9773,823.0311],[18.7002,-5.9786,631.092],[18.7054,-5.9812,572.3467],[18.7069,-5.9922,611.0696],[18.7032,-5.9946,579.6318],[18.7021,-5.9976,585.3622],[18.7028,-6.0091,645.8774],[18.6955,-6.0181,634.9482],[18.6963,-6.022,634.0547],[18.6933,-6.0266,579.6725],[18.6982,-6.0312,648.1861],[18.7003,-6.0383,617.0109],[18.7047,-6.0396,649.9258],[18.7063,-6.0502,632.549],[18.7101,-6.0564,736.6348],[18.7122,-6.066,743.2526],[18.7208,-6.0855,766.9659],[18.7269,-6.0938,804.8214],[18.7246,-6.0981,780.9232],[18.7249,-6.103,750.3109],[18.7306,-6.1078,755.2271],[18.7279,-6.1117,752.3357],[18.7294,-6.1225,753.0399],[18.7476,-6.138,758.6297],[18.771,-6.1309,854.5365],[18.7793,-6.1223,856.524],[18.7972,-6.1182,852.661],[18.8279,-6.0982,853.2386],[18.8346,-6.0973,853.7432],[18.8417,-6.1047,858.0846],[18.8416,-6.1074,858.5023],[18.8383,-6.1133,859.8627],[18.8293,-6.123,837.6547],[18.8289,-6.1289,840.7206],[18.833,-6.1372,850.0486],[18.8379,-6.1423,791.442],[18.8456,-6.1459,850.2286],[18.8527,-6.1397,856.4811],[18.8639,-6.1219,778.7113],[18.8689,-6.1201,779.2842],[18.872,-6.1243,828.5408],[18.87,-6.1965,864.2849],[18.8655,-6.2013,862.9285],[18.8603,-6.2001,866.6402],[18.8486,-6.1903,868.5651],[18.8386,-6.1843,854.0181],[18.8328,-6.184,862.6001],[18.8318,-6.189,859.4676],[18.8347,-6.2009,835.4827],[18.8417,-6.2128,808.797],[18.8673,-6.2463,862.1204],[18.8734,-6.246,800.4784],[18.879,-6.2436,855.6224],[18.8943,-6.2365,865.9412],[18.9014,-6.2309,824.8138],[18.909,-6.2274,785.0944],[18.9165,-6.2263,793.6908],[18.9234,-6.2278,810.1791],[18.9251,-6.232,811.4958],[18.9228,-6.24,829.358],[18.9263,-6.2423,853.1228],[18.9347,-6.2556,829.2205],[18.9301,-6.2616,783.4857],[18.9315,-6.2655,785.4291],[18.9309,-6.2738,822.4976],[18.9334,-6.2772,818.8952],[18.933,-6.282,803.6802],[18.9361,-6.2905,839.6143],[18.932,-6.2942,791.9173],[18.9318,-6.297,803.9908],[18.944,-6.3083,874.1918],[18.9556,-6.3119,835.3501],[18.9696,-6.3072,875.8895],[18.9934,-6.2847,844.5621],[19.0058,-6.2782,790.1986],[19.0242,-6.2744,814.3465],[19.0521,-6.2721,865.5462],[19.0554,-6.2701,867.8517],[19.0592,-6.2662,865.3864],[19.0696,-6.2337,796.6388],[19.0769,-6.2189,810.8062],[19.0822,-6.2159,826.2277],[19.0954,-6.2124,805.8706],[19.098,-6.189,765.9617],[19.1011,-6.181,759.0288],[19.1064,-6.1766,796.3562],[19.1114,-6.1754,840.5198],[19.1329,-6.1947,844.1899],[19.1446,-6.1962,846.8395],[19.1576,-6.1883,845.4272],[19.1786,-6.1824,844.1611],[19.1824,-6.1764,843.7652],[19.1824,-6.1681,842.592],[19.189,-6.148,830.0254],[19.2011,-6.1322,830.5295],[19.2059,-6.1228,827.9147],[19.2056,-6.1078,790.2514],[19.2172,-6.0932,819.1906],[19.2244,-6.104,818.7717],[19.235,-6.1085,781.5719],[19.2518,-6.1112,824.7619],[19.2639,-6.1174,827.0094],[19.3074,-6.1347,676.2855],[19.3153,-6.1341,687.9051],[19.321,-6.1316,681.8973],[19.3307,-6.1215,644.9464],[19.3372,-6.1202,659.2404],[19.356,-6.1208,731.3882],[19.3652,-6.1245,644.276],[19.3863,-6.1224,689.1539],[19.3921,-6.1238,724.844],[19.3911,-6.1298,653.8705],[19.3957,-6.1323,777.411],[19.3964,-6.1365,797.5527],[19.3943,-6.1415,724.3639],[19.3827,-6.1483,637.4827],[19.3813,-6.1529,668.325],[19.382,-6.1575,678.985],[19.3684,-6.1689,652.2488],[19.3347,-6.1848,629.0103],[19.3301,-6.1901,614.1286],[19.3191,-6.2144,805.1069],[19.3161,-6.2141,740.3877],[19.3136,-6.2113,651.1595],[19.3102,-6.2159,702.9382],[19.3056,-6.2173,643.077],[19.3048,-6.2322,812.7288],[19.2947,-6.2593,813.2527],[19.2984,-6.263,814.9216],[19.2992,-6.2807,812.9216],[19.3026,-6.2878,745.3967],[19.3108,-6.2973,828.4328],[19.3133,-6.3026,832.031],[19.3143,-6.3251,673.2342],[19.3207,-6.3348,667.0787],[19.324,-6.3549,671.2373],[19.3314,-6.3538,695.9146],[19.332,-6.3678,712.372],[19.3305,-6.3836,671.1157],[19.3372,-6.3822,683.9435],[19.3425,-6.3831,691.0566],[19.3523,-6.3896,693.8859],[19.366,-6.3913,819.5198],[19.3827,-6.3867,811.9337],[19.3908,-6.3826,816.2169],[19.3985,-6.3711,837.4256],[19.4062,-6.3469,732.1057],[19.414,-6.3306,826.6421],[19.4234,-6.3038,706.3102],[19.4297,-6.2923,669.8757],[19.4405,-6.2864,591.9967],[19.4454,-6.2816,636.952],[19.4545,-6.2838,651.2436],[19.4568,-6.2826,671.8783],[19.4699,-6.2901,657.902],[19.4728,-6.2995,568.6979],[19.4758,-6.3021,544.0254],[19.4905,-6.3072,618.8129],[19.4997,-6.3036,581.8748],[19.5036,-6.3052,615.5716],[19.5174,-6.3211,650.5669],[19.5296,-6.3257,649.5857],[19.5524,-6.3399,577.2691],[19.5745,-6.3427,614.7612],[19.6103,-6.3543,558.78],[19.6345,-6.358,520.2286],[19.6472,-6.3542,546.8218],[19.6558,-6.3464,505.7776],[19.6604,-6.3444,582.1355],[19.6769,-6.3415,562.695],[19.6836,-6.3367,530.0822],[19.6878,-6.337,511.3446],[19.6947,-6.3273,520.3597],[19.6906,-6.3218,550.5345],[19.6865,-6.3204,496.1151],[19.6842,-6.3172,499.7711],[19.6884,-6.3087,489.9662],[19.6859,-6.2995,542.6929],[19.6873,-6.2956,496.856],[19.6956,-6.2954,489.6693],[19.6977,-6.2855,556.9352],[19.6895,-6.2779,491.2254],[19.6879,-6.2733,526.0246],[19.6887,-6.2684,488.6396],[19.697,-6.2554,492.0434],[19.6955,-6.2495,549.9552],[19.6959,-6.2398,577.7223],[19.689,-6.2333,553.0491],[19.687,-6.2291,547.5323],[19.682,-6.2279,483.0],[19.6801,-6.2245,497.4148],[19.6864,-6.2126,523.4567],[19.69,-6.1951,480.5],[19.6955,-6.1876,553.201],[19.6974,-6.1802,540.8867],[19.6936,-6.1696,532.6447],[19.6954,-6.1618,478.0],[19.7061,-6.1449,510.3615],[19.7089,-6.1426,508.1285],[19.7167,-6.1424,475.625],[19.7197,-6.1406,519.0172],[19.7253,-6.1254,523.6164],[19.7283,-6.1234,506.4197],[19.7382,-6.1227,475.0369],[19.74,-6.1209,473.0],[19.745,-6.1028,533.3269],[19.7493,-6.1001,608.9485],[19.7634,-6.0995,571.0225],[19.7735,-6.0883,568.1132],[19.7843,-6.0851,582.3743],[19.7902,-6.075,572.0482],[19.8044,-6.0717,523.7992],[19.81,-6.0659,558.9417],[19.8151,-6.0565,514.0766],[19.8183,-6.0557,536.4785],[19.8294,-6.0461,486.613],[19.8324,-6.0376,545.5705],[19.8354,-6.0346,554.1876],[19.841,-6.033,575.3728],[19.855,-6.0329,567.9028],[19.8688,-6.0242,472.5186],[19.884,-6.0114,574.8649],[19.8854,-6.0078,595.1095],[19.8839,-5.9972,601.4084],[19.8857,-5.9958,595.9193],[19.9004,-6.0101,571.0216],[19.9087,-5.9976,506.677],[19.9188,-5.9971,553.2654],[19.9303,-5.991,574.6107],[19.9384,-5.9915,579.0375],[19.9531,-5.9962,491.097],[19.9604,-5.9884,523.8021],[19.9688,-5.9726,573.6555],[19.9739,-5.9726,555.4051],[19.9764,-5.9706,567.3086],[19.9865,-5.9718,515.0025],[19.9934,-5.9656,487.6034],[20.0,-5.9666,451.0],[20.004,-5.962,455.9246],[20.0075,-5.9528,527.619],[20.0082,-5.9461,552.126],[20.0128,-5.9434,489.0768],[20.0204,-5.9428,456.8428],[20.0228,-5.9393,447.75],[20.0281,-5.9251,447.0],[20.0265,-5.9182,525.6151],[20.0335,-5.9127,446.0],[20.0369,-5.9072,498.6125],[20.0343,-5.8936,504.1973],[20.0414,-5.8868,456.0599],[20.05,-5.8677,443.5],[20.0496,-5.8631,450.7928],[20.0514,-5.859,526.9756],[20.0558,-5.8565,482.5628],[20.0657,-5.8575,506.6772],[20.079,-5.8541,486.6223],[20.085,-5.8502,453.1462],[20.0915,-5.8484,442.214],[20.0972,-5.84,525.9705],[20.1092,-5.8373,443.7351],[20.1124,-5.8336,438.5],[20.1107,-5.815,437.5],[20.1149,-5.7973,465.98],[20.1258,-5.7858,460.4317],[20.1396,-5.7756,524.304],[20.1493,-5.7717,439.1528],[20.1542,-5.766,433.0],[20.1521,-5.7625,433.0],[20.1558,-5.7534,455.1655],[20.1604,-5.7472,481.7695],[20.166,-5.7463,431.5],[20.1711,-5.7387,486.5066],[20.1686,-5.7265,430.5],[20.1716,-5.7217,457.3813],[20.1705,-5.7189,466.867],[20.173,-5.7157,493.2164],[20.1712,-5.7098,495.4045],[20.1717,-5.7006,433.4667],[20.1674,-5.6932,486.3048],[20.1681,-5.6906,529.9892],[20.1722,-5.6897,451.1835],[20.1764,-5.6928,427.5],[20.1803,-5.6926,467.9848],[20.1819,-5.6905,434.3896],[20.1805,-5.6817,444.2143],[20.1813,-5.6705,442.3699],[20.1763,-5.6642,425.5],[20.1761,-5.6613,425.5],[20.1777,-5.6594,425.0],[20.1841,-5.6578,501.3305],[20.1862,-5.6537,493.0192],[20.1826,-5.6422,434.3331],[20.1863,-5.6307,458.6105],[20.1898,-5.6268,509.6045],[20.1907,-5.6231,517.2286],[20.1818,-5.6139,477.0991],[20.1814,-5.6086,495.2455],[20.1734,-5.6017,535.8558],[20.1665,-5.6014,499.0352],[20.1654,-5.5998,495.9139],[20.1728,-5.5904,447.7258],[20.1634,-5.5807,535.1195],[20.1545,-5.5756,517.1636],[20.1531,-5.5691,526.261],[20.1554,-5.5643,548.5405],[20.1545,-5.5618,542.8279],[20.1566,-5.5528,509.2577],[20.1509,-5.5479,458.9344],[20.1558,-5.5369,503.0017],[20.1558,-5.5314,517.9307],[20.1536,-5.5305,514.2423],[20.1485,-5.5344,469.3399],[20.1453,-5.5348,478.41609999999997],[20.1448,-5.5327,488.232],[20.1474,-5.5148,464.0273],[20.1504,-5.5102,508.3427],[20.1564,-5.5068,539.2484],[20.153199999999998,-5.5008,491.5542],[20.1528,-5.4921,466.1025],[20.1503,-5.487,515.5129],[20.1517,-5.4845,540.0681],[20.1641,-5.4864,488.4777],[20.1765,-5.4858,527.6138],[20.1786,-5.4837,526.0945],[20.1738,-5.4821,550.2106],[20.1662,-5.4827,529.68],[20.1644,-5.4813,532.7753],[20.1553,-5.4825,553.8191],[20.1513,-5.4773,532.7607],[20.1468,-5.463,514.5049],[20.1492,-5.4458,529.1935],[20.146,-5.4281,430.5512],[20.1472,-5.426,466.8572],[20.1544,-5.4246,468.5378],[20.162,-5.4179,502.3135],[20.1673,-5.4157,510.1168],[20.1686,-5.4132,519.4012],[20.1655,-5.4127,519.1383],[20.1507,-5.4221,451.6661],[20.1452,-5.4219,490.1756],[20.1426,-5.4198,494.8729],[20.1402,-5.4131,513.0852],[20.1427,-5.4011,523.3912],[20.1416,-5.394,471.2745],[20.1453,-5.386,475.1988],[20.1481,-5.3837,486.4786],[20.1573,-5.3844,538.9728],[20.1497,-5.3791,530.3007],[20.15,-5.375,539.7036],[20.1446,-5.3531,407.9127],[20.1462,-5.3503,448.4758],[20.1575,-5.3502,486.5742],[20.155,-5.3467,518.6582],[20.149,-5.3464,487.5166],[20.1573,-5.3336,400.5],[20.1672,-5.3279,399.5],[20.1748,-5.3263,421.0342],[20.1812,-5.3312,466.6779],[20.184,-5.331,485.2864],[20.1776,-5.3257,452.599],[20.1753,-5.3215,402.2027],[20.1811,-5.3137,473.8916],[20.1711,-5.2985,397.375],[20.1729,-5.2904,402.6806],[20.1764,-5.2879,499.8381],[20.1835,-5.2891,464.8996],[20.1999,-5.2782,396.0],[20.2038,-5.2706,399.4814],[20.2015,-5.263,426.668],[20.1926,-5.2533,395.0],[20.1906,-5.2448,423.002],[20.1863,-5.239,438.6466],[20.1872,-5.2344,499.5511],[20.1946,-5.2314,394.0],[20.199,-5.2266,394.0],[20.1988,-5.219,393.5],[20.1965,-5.213,405.703],[20.1982,-5.2059,422.6873],[20.1899,-5.1939,463.0039],[20.1994,-5.1908,423.8875],[20.2003,-5.1887,455.0358],[20.1994,-5.1859,443.4093],[20.1884,-5.1771,461.4553],[20.1875,-5.1746,430.2726],[20.1943,-5.1558,390.75],[20.1934,-5.1498,397.4727],[20.1907,-5.1456,392.4191]],
[[19.3474,-5.8151,674.3622],[19.3345,-5.8143,627.5797],[19.3266,-5.8099,706.5569],[19.321,-5.7997,746.7416],[19.3212,-5.7946,716.9665],[19.3256,-5.7879,667.5116],[19.3407,-5.7815,616.5038],[19.3494,-5.782,736.5032],[19.3535,-5.7834,747.2228],[19.3558,-5.7861,749.1704],[19.3591,-5.7938,749.9489],[19.3569,-5.808,609.7185],[19.3525,-5.8128,617.3123],[19.3474,-5.8151,674.3622]]]]}
,"properties": {"GID_2": "COD.13.6_1","GID_0": "COD","country": "DemocraticRepublicoftheCongo","GID_1": "COD.13_1","province": "Kwilu","NL_NAME_1": "NA","county": "Gungu","VARNAME_2": "NA","NL_NAME_2": "NA","TYPE_2": "Territoire","ENGTYPE_2": "Territory","CC_2": "NA","HASC_2": "NA","name": "Gungu.county","area_km2": 14855.84,"hist_schema_id": "Elevation0-9000","hist_area_km2": {"350": 1.06,"375": 16.23,"400": 60.77,"425": 151.84,"450": 264.35,"475": 389.17,"500": 503.57,"525": 636.35,"550": 747.21,"575": 728.37,"600": 643.71,"625": 567.09,"650": 539.87,"675": 576.4,"700": 823.35,"725": 1275.48,"750": 1856.9,"775": 2050.51,"800": 1568.16,"825": 957.75,"850": 436.02,"875": 61.69}}}