{"type": "Feature","bbox": [26.1036,-5.8656,27.7321,-4.9995],"geometry": {"type": "MultiPolygon","coordinates": [[[[26.1843,-5.7618,682.1345],[26.1919,-5.77,675.5552],[26.2025,-5.7875,661.5087],[26.2103,-5.7921,670.3824],[26.2255,-5.793,651.3431],[26.2384,-5.7999,644.5671],[26.2471,-5.8001,643.8992],[26.2604,-5.7954,637.8809],[26.2707,-5.7947,636.6462],[26.2857,-5.7952,632.6758],[26.2988,-5.7979,631.9449],[26.3229,-5.791,623.0881],[26.3348,-5.7914,619.5134],[26.3509,-5.7948,615.8855],[26.3665,-5.7913,613.306],[26.3968,-5.7908,615.8496],[26.4065,-5.794,608.6406],[26.4347,-5.794,609.6295],[26.4483,-5.7907,621.2744],[26.4579,-5.7916,603.6528],[26.4717,-5.7849,603.7499],[26.4924,-5.7814,601.3763],[26.5312,-5.785,597.2492],[26.5339,-5.795,604.3524],[26.5332,-5.806,612.5369],[26.5284,-5.819,616.5364],[26.5194,-5.8291,637.6654],[26.5168,-5.8392,642.0851],[26.5189,-5.8526,651.4663],[26.5553,-5.8656,703.9482],[26.5736,-5.8599,735.4369],[26.6172,-5.8591,645.8983],[26.6595,-5.8502,613.1715],[26.6899,-5.8328,601.3323],[26.7187,-5.8109,589.2087],[26.7388,-5.8012,590.8384],[26.7676,-5.7914,571.7031],[26.7751,-5.7732,577.6199],[26.7876,-5.7225,576.8267],[26.7921,-5.7165,580.2398],[26.7944,-5.7165,581.8445],[26.8084,-5.7432,583.1437],[26.8105,-5.7513,585.9758],[26.8092,-5.7716,588.5388],[26.8036,-5.783,589.2076],[26.8022,-5.7988,588.2065],[26.8162,-5.8146,574.0502],[26.8451,-5.8069,560.2139],[26.8675,-5.7891,558.3168],[26.8762,-5.7846,556.3555],[26.8873,-5.7846,555.7603],[26.8971,-5.7825,548.2566],[26.9003,-5.7772,547.1938],[26.908,-5.7485,547.9799],[26.9096,-5.7358,548.2128],[26.9091,-5.7264,547.7862],[26.9012,-5.696,548.0781],[26.9021,-5.6868,547.8291],[26.906,-5.6783,547.0293],[26.9071,-5.6643,548.6709],[26.9133,-5.6634,546.0],[26.9135,-5.6595,546.0],[26.9226,-5.6699,548.8014],[26.9228,-5.6763,548.735],[26.9319,-5.6747,547.9117],[26.9331,-5.6773,548.3147],[26.9297,-5.6851,550.4066],[26.9356,-5.6842,547.6209],[26.9419,-5.6913,548.9443],[26.9435,-5.6998,547.2454],[26.9502,-5.7031,550.1268],[26.9712,-5.7023,560.8152],[26.9858,-5.7108,559.4419],[27.0283,-5.747,572.6222],[27.0486,-5.7539,582.0423],[27.0999,-5.7245,573.3147],[27.1939,-5.6609,607.4739],[27.2433,-5.6199,587.7116],[27.2806,-5.6125,603.8718],[27.3062,-5.5895,621.4688],[27.3265,-5.5788,627.7448],[27.3435,-5.5782,625.2731],[27.367,-5.5697,652.4031],[27.3843,-5.5619,650.3141],[27.4164,-5.5437,653.722],[27.4867,-5.5108,948.6081],[27.4997,-5.511,940.9459],[27.5067,-5.5154,1010.9012],[27.5125,-5.5292,784.231],[27.5177,-5.5302,757.2239],[27.5246,-5.5222,753.6301],[27.5368,-5.5194,734.4583],[27.5516,-5.5205,760.3147],[27.5634,-5.5259,712.1454],[27.5729,-5.5141,742.1707],[27.5837,-5.5062,738.036],[27.5958,-5.4906,721.4072],[27.5956,-5.4662,679.1454],[27.5999,-5.4552,694.4713],[27.6086,-5.4494,707.2971],[27.6288,-5.422,804.8151],[27.6434,-5.3919,744.1874],[27.6512,-5.3805,804.3362],[27.6625,-5.3748,814.4554],[27.6698,-5.3672,767.7398],[27.6657,-5.3426,747.6404],[27.659,-5.3183,823.4949],[27.6672,-5.3035,1077.0776],[27.681,-5.2918,1037.4874],[27.7321,-5.264,1015.8497],[27.7298,-5.261,1076.9293],[27.7289,-5.2553,1161.1498],[27.7161,-5.2337,808.9368],[27.7134,-5.2339,812.1562],[27.7034,-5.2182,771.9736],[27.7026,-5.2096,829.9291],[27.7153,-5.1941,951.4598],[27.7196,-5.186,925.6185],[27.7193,-5.1799,865.236],[27.716,-5.171,793.8708],[27.7151,-5.1463,730.9595],[27.6869,-5.1184,639.0054],[27.6847,-5.1112,645.952],[27.6874,-5.0868,828.1005],[27.6935,-5.0663,752.0529],[27.6937,-5.0589,712.434],[27.684,-5.035,714.1733],[27.6719,-5.0224,716.256],[27.6717,-5.013,718.3561],[27.6736,-5.01,723.5604],[27.6021,-5.0166,625.573],[26.9684,-4.9995,523.7717],[26.2798,-5.0011,560.1158],[26.2705,-5.0,553.8535],[26.2651,-5.0171,556.9882],[26.253,-5.0359,559.6649],[26.2019,-5.0841,575.719],[26.198,-5.0924,568.7112],[26.1912,-5.1295,582.6285],[26.1917,-5.1359,578.0894],[26.1945,-5.1409,575.983],[26.1918,-5.1658,579.3477],[26.1973,-5.1768,579.5351],[26.198,-5.1876,582.353],[26.1962,-5.1989,586.9047],[26.1912,-5.2136,595.8755],[26.1816,-5.2325,603.933],[26.1763,-5.2385,598.8712],[26.1694,-5.2413,605.6487],[26.1653,-5.2459,599.6502],[26.1547,-5.251,605.8663],[26.1458,-5.2602,607.7527],[26.1415,-5.2692,603.1368],[26.139,-5.2899,610.1756],[26.1337,-5.303,612.919],[26.1338,-5.3117,617.2058],[26.1289,-5.3173,614.2206],[26.1267,-5.3249,620.7007],[26.1164,-5.3332,624.4429],[26.1087,-5.3488,636.9745],[26.1119,-5.3762,620.6577],[26.1177,-5.4008,602.3662],[26.1228,-5.4187,618.1999],[26.1329,-5.4401,647.6703],[26.1328,-5.4551,637.3137],[26.1369,-5.5048,636.6407],[26.1505,-5.5194,641.7148],[26.1516,-5.5409,631.81],[26.1613,-5.554,639.4417],[26.1737,-5.5545,640.054],[26.1757,-5.5585,651.6642],[26.1721,-5.5685,665.9672],[26.1569,-5.5829,679.1221],[26.151,-5.599,664.5065],[26.1475,-5.6011,673.9109],[26.1244,-5.5995,661.7292],[26.1191,-5.608,654.5803],[26.1177,-5.6343,673.9045],[26.1036,-5.6598,691.954],[26.1265,-5.6919,721.0519],[26.1236,-5.7249,770.6501],[26.131,-5.7332,763.0229],[26.1537,-5.7478,698.2841],[26.1604,-5.7476,686.9635],[26.1675,-5.7535,680.6349],[26.1843,-5.7618,682.1345]],
[[27.003,-5.4002,553.0009],[26.9982,-5.4149,557.7661],[26.9842,-5.4076,572.0524],[26.9791,-5.4004,571.2775],[26.9747,-5.3837,599.8209],[26.9766,-5.3688,595.23],[26.9852,-5.361,610.7027],[26.9909,-5.3579,600.2272],[26.9942,-5.3527,604.1579],[27.0036,-5.3491,561.9818],[27.0086,-5.3655,557.6245],[27.003,-5.4002,553.0009]]]]}
,"properties": {"GID_2": "COD.24.5_1","GID_0": "COD","country": "DemocraticRepublicoftheCongo","GID_1": "COD.24_1","province": "Tanganyika","NL_NAME_1": "NA","county": "Kongolo","VARNAME_2": "NA","NL_NAME_2": "NA","TYPE_2": "Territoire","ENGTYPE_2": "Territory","CC_2": "NA","HASC_2": "NA","name": "Kongolo.county","area_km2": 13095.08,"hist_schema_id": "Elevation0-9000","hist_area_km2": {"500": 29.8,"525": 118.47,"550": 648.43,"575": 1404.85,"600": 2217.1,"625": 2811.08,"650": 2215.17,"675": 1309.34,"700": 760.75,"725": 434.08,"750": 280.53,"775": 209.98,"800": 172.95,"825": 134.72,"850": 99.63,"875": 74.83,"900": 64.44,"925": 39.01,"950": 20.1,"975": 9.56,"1000": 8.68,"1025": 7.9,"1050": 7.56,"1075": 5.83,"1100": 5.38,"1125": 3.5,"1150": 1.14,"1175": 0.27}}}