{"type": "Feature","bbox": [23.5309,-6.1725,23.6839,-6.0503],"geometry": {"type": "MultiPolygon","coordinates": [[[[23.6682,-6.0987,505.5923],[23.6637,-6.0886,510.2421],[23.6577,-6.0849,515.6515],[23.6426,-6.0835,525.5137],[23.6313,-6.0881,544.5978],[23.6148,-6.0892,541.0343],[23.6058,-6.0867,552.657],[23.5792,-6.0699,556.7881],[23.5769,-6.0593,567.3002],[23.5734,-6.054,573.0118],[23.5549,-6.0503,610.1221],[23.5472,-6.0506,637.0404],[23.5421,-6.0527,637.9844],[23.5368,-6.0645,663.7965],[23.5354,-6.0805,697.543],[23.5348,-6.1006,718.4615],[23.5388,-6.1192,726.2047],[23.5385,-6.1297,718.593],[23.5309,-6.1579,601.5731],[23.5464,-6.1652,607.0004],[23.5533,-6.1655,589.7289],[23.574,-6.1538,605.2516],[23.6041,-6.1552,556.8693],[23.6135,-6.1573,561.4241],[23.6286,-6.1717,537.8046],[23.6457,-6.1725,516.8571],[23.656,-6.1705,515.9236],[23.6682,-6.1599,515.2092],[23.6726,-6.1581,514.1019],[23.6672,-6.1501,519.2617],[23.6613,-6.1495,556.0313],[23.6482,-6.1516,521.6964],[23.6413,-6.1465,512.5887],[23.6408,-6.1438,511.5133],[23.6452,-6.1414,526.7623],[23.6395,-6.1402,512.4496],[23.6389,-6.1369,513.1391],[23.642,-6.13,510.6151],[23.6446,-6.1285,509.4768],[23.6466,-6.1304,510.0253],[23.6483,-6.1373,527.2173],[23.6509,-6.1386,518.6548],[23.6522,-6.1374,511.5495],[23.6609,-6.1157,541.3231],[23.6694,-6.116,508.1075],[23.6717,-6.1181,509.3502],[23.6683,-6.1197,548.2441],[23.6678,-6.1217,567.2502],[23.6701,-6.1238,563.3496],[23.6752,-6.1233,529.1548],[23.6816,-6.1176,509.3251],[23.6839,-6.1133,507.0754],[23.6825,-6.1089,509.2643],[23.6689,-6.1023,506.0941],[23.6682,-6.0987,505.5923]]]]}
,"properties": {"GID_2": "COD.8.5_1","GID_0": "COD","country": "DemocraticRepublicoftheCongo","GID_1": "COD.8_1","province": "Kasaï-Oriental","NL_NAME_1": "NA","county": "Mbuji-Mayi","VARNAME_2": "NA","NL_NAME_2": "NA","TYPE_2": "Ville","ENGTYPE_2": "Town","CC_2": "NA","HASC_2": "NA","name": "Mbuji-Mayi.county","area_km2": 138.2526,"hist_schema_id": "Elevation0-9000","hist_area_km2": {"500": 3.2676,"525": 12.0161,"550": 18.341,"575": 19.6691,"600": 23.1479,"625": 19.0577,"650": 16.4012,"675": 11.9322,"700": 9.4868,"725": 4.8488,"750": 0.0843}}}