{"type": "Feature","bbox": [15.9021,-4.2229,17.3809,-3.0154],"geometry": {"type": "MultiPolygon","coordinates": [[[[16.4834,-4.2229,415.0928],[16.4935,-4.2056,365.7025],[16.4975,-4.2048,334.6649],[16.4978,-4.2014,344.3323],[16.4945,-4.1928,330.0],[16.4962,-4.1847,330.0],[16.502,-4.1838,339.722],[16.5128,-4.1779,341.6909],[16.547,-4.1673,418.2084],[16.5534,-4.1606,351.7707],[16.5665,-4.153,409.7722],[16.5786,-4.1481,425.3515],[16.5857,-4.143,357.8962],[16.5965,-4.1422,369.8327],[16.6086,-4.1348,386.0264],[16.6127,-4.1343,369.7083],[16.6177,-4.1366,393.9969],[16.634,-4.1333,333.5236],[16.6623,-4.1431,372.1901],[16.6749,-4.1428,351.6673],[16.6808,-4.1481,411.8373],[16.6884,-4.1511,442.1091],[16.693,-4.1503,416.2097],[16.6971,-4.1476,469.9767],[16.7026,-4.1399,422.1738],[16.7105,-4.1229,397.353],[16.7153,-4.1192,407.7689],[16.7305,-4.1173,502.2251],[16.7474,-4.1016,417.5311],[16.7611,-4.0962,491.3289],[16.773,-4.0872,493.8574],[16.7847,-4.0841,430.1832],[16.7954,-4.0841,329.4],[16.8173,-4.0969,425.7275],[16.8218,-4.0971,435.71],[16.8273,-4.0945,478.1783],[16.8547,-4.0737,385.5106],[16.8634,-4.0651,458.7588],[16.8728,-4.0617,465.8759],[16.8783,-4.057,453.7067],[16.9104,-4.0215,379.9076],[16.9154,-4.0035,395.8566],[16.9325,-3.9868,363.2644],[16.9469,-3.9833,384.533],[16.9593,-3.9833,362.97],[16.9737,-3.9804,352.7187],[16.9841,-3.9857,382.6322],[16.9902,-3.9815,390.0709],[17.0148,-3.9818,363.4397],[17.0224,-3.9841,333.2504],[17.0327,-3.996,399.3794],[17.0438,-4.0038,392.1251],[17.0596,-4.0072,344.581],[17.081,-4.0234,350.1072],[17.0991,-4.0282,428.2703],[17.1083,-4.0254,401.9738],[17.1268,-4.011,407.3552],[17.1341,-3.9995,419.369],[17.1381,-3.981,359.4558],[17.1548,-3.9655,383.4399],[17.17,-3.9441,342.3382],[17.1743,-3.941,339.2173],[17.1881,-3.9401,320.1188],[17.192,-3.9366,335.7324],[17.1992,-3.9205,321.4728],[17.207,-3.9126,316.757],[17.2174,-3.8909,312.5338],[17.2191,-3.87,309.9994],[17.2174,-3.8458,311.7824],[17.2192,-3.8403,310.1079],[17.2337,-3.8259,322.8741],[17.2363,-3.8216,328.6767],[17.2344,-3.8124,324.344],[17.2357,-3.7972,308.0],[17.2409,-3.7856,308.397],[17.2592,-3.7678,308.0829],[17.2673,-3.7399,307.0295],[17.2782,-3.7185,306.6528],[17.2841,-3.7125,306.374],[17.2978,-3.7062,305.7997],[17.3019,-3.7025,305.6333],[17.3058,-3.6958,305.5187],[17.3069,-3.6903,305.3719],[17.3036,-3.6755,304.9677],[17.3036,-3.6677,305.1633],[17.3079,-3.6638,304.9878],[17.3138,-3.6615,304.5085],[17.3292,-3.6586,304.5495],[17.3321,-3.6533,313.0404],[17.3326,-3.6494,312.9838],[17.3288,-3.6379,303.7485],[17.3183,-3.6315,304.1545],[17.3148,-3.6272,304.8528],[17.305,-3.5945,302.9937],[17.2958,-3.5872,302.7075],[17.2868,-3.5744,303.7079],[17.2865,-3.5705,301.9833],[17.2913,-3.553,301.0],[17.2908,-3.547,301.9995],[17.2868,-3.5396,301.7723],[17.2822,-3.5355,300.833],[17.2799,-3.53,301.1411],[17.2786,-3.5061,310.6819],[17.2733,-3.4895,299.5],[17.2744,-3.4787,299.0],[17.2801,-3.4716,299.0],[17.2863,-3.4583,298.5],[17.3015,-3.4467,298.5],[17.3085,-3.4431,298.0],[17.3202,-3.4329,298.0],[17.3265,-3.4175,297.5],[17.3303,-3.3961,298.1911],[17.3344,-3.391,297.5342],[17.3484,-3.3911,296.5],[17.3531,-3.3863,296.5],[17.3559,-3.3788,296.5],[17.3592,-3.3635,296.0],[17.358,-3.3589,296.0],[17.3522,-3.3492,297.1421],[17.3421,-3.338,295.0],[17.3386,-3.3325,295.0],[17.3391,-3.3293,295.1868],[17.3466,-3.3219,294.5],[17.3603,-3.3126,294.0],[17.366,-3.3054,294.0],[17.3809,-3.2649,295.7657],[17.3776,-3.2481,292.5],[17.3562,-3.2141,292.5],[17.3537,-3.1985,307.4682],[17.3427,-3.1926,294.6094],[17.3386,-3.188,299.2043],[17.331,-3.1837,291.0],[17.3282,-3.1844,291.0],[17.3204,-3.1803,291.4241],[17.3188,-3.1805,292.4986],[17.3195,-3.1849,293.254],[17.3108,-3.1838,293.0106],[17.3101,-3.1773,290.5],[17.306,-3.1774,290.5],[17.2978,-3.1806,290.5],[17.2812,-3.177,302.085],[17.2391,-3.177,290.6912],[17.2275,-3.1732,288.0],[17.2224,-3.1735,288.0],[17.197,-3.1535,293.0225],[17.1925,-3.1556,290.1144],[17.1811,-3.1543,287.5],[17.179,-3.1511,287.5],[17.1849,-3.1485,288.7611],[17.1794,-3.1418,287.5],[17.1734,-3.1391,292.7058],[17.169,-3.132,293.7155],[17.1667,-3.1323,287.125],[17.1506,-3.1225,287.0],[17.1353,-3.1329,287.0],[17.1287,-3.1317,287.0],[17.1205,-3.126,286.5],[17.1149,-3.1194,289.8495],[17.1005,-3.1114,289.4915],[17.0988,-3.1027,289.0288],[17.0798,-3.0982,288.4965],[17.0713,-3.0897,289.1491],[17.0591,-3.0821,288.4545],[17.054,-3.0769,287.9747],[17.0483,-3.0762,288.3737],[17.0432,-3.0714,287.8703],[17.0416,-3.0657,288.2543],[17.0356,-3.0583,285.5],[17.0257,-3.0505,289.9817],[17.0242,-3.0531,288.7717],[17.0191,-3.0538,287.9954],[17.0141,-3.052,286.9544],[17.006,-3.0428,287.2521],[16.9986,-3.0297,286.7817],[16.9904,-3.0254,287.061],[16.9723,-3.0243,285.6924],[16.9633,-3.0195,285.9413],[16.9631,-3.0172,284.0],[16.9566,-3.0154,284.0],[16.9112,-3.0315,284.0],[16.894,-3.0298,286.468],[16.8828,-3.0316,283.5],[16.872,-3.0418,283.5],[16.8583,-3.046,283.0],[16.8473,-3.0433,285.9527],[16.8359,-3.0454,282.5],[16.8194,-3.0421,282.5],[16.8011,-3.0417,282.0],[16.7951,-3.0403,282.0],[16.7861,-3.0323,290.5795],[16.7664,-3.0276,285.4674],[16.7545,-3.0278,281.5],[16.7492,-3.024,286.0231],[16.7387,-3.0268,284.3912],[16.7293,-3.0266,283.009],[16.7137,-3.0186,283.9002],[16.7078,-3.0228,281.0],[16.6947,-3.0251,280.5],[16.684,-3.0217,280.5],[16.6608,-3.0197,282.8699],[16.6366,-3.0226,280.0],[16.6243,-3.0291,280.2891],[16.6142,-3.0321,280.7079],[16.5934,-3.0377,279.5],[16.5808,-3.038,279.0],[16.5589,-3.0576,280.1602],[16.5426,-3.0591,278.5],[16.525,-3.055,278.5],[16.5117,-3.0578,278.0],[16.4934,-3.0519,278.0],[16.4835,-3.0531,278.0],[16.4767,-3.0559,277.75],[16.4664,-3.0675,277.5],[16.4562,-3.0827,285.0353],[16.4495,-3.0825,296.8495],[16.441,-3.0765,294.3347],[16.4298,-3.0757,282.9385],[16.419,-3.0658,283.787],[16.3952,-3.0666,276.5],[16.3735,-3.0816,276.0],[16.3648,-3.0856,276.0],[16.3353,-3.0841,330.8891],[16.3284,-3.0859,299.3462],[16.3035,-3.1003,291.7881],[16.2859,-3.104,291.9919],[16.2578,-3.115,274.5],[16.2338,-3.119,278.599],[16.2246,-3.1298,274.0],[16.2206,-3.1482,273.5],[16.2094,-3.1626,277.0424],[16.191,-3.179,273.0],[16.1927,-3.1989,273.0],[16.1864,-3.2224,287.2347],[16.1841,-3.2505,273.0],[16.1893,-3.2673,273.0],[16.1979,-3.2763,273.0],[16.2194,-3.2901,273.0],[16.2224,-3.2963,273.0],[16.2112,-3.3396,274.5429],[16.2043,-3.3581,274.216],[16.1871,-3.3954,276.0918],[16.1649,-3.431,273.0],[16.1449,-3.4548,273.0],[16.1324,-3.4768,289.7145],[16.1253,-3.5042,273.0],[16.1129,-3.5363,292.8022],[16.1102,-3.5384,277.4562],[16.0866,-3.5765,300.6338],[16.0581,-3.6089,294.0748],[16.0468,-3.6322,304.3036],[16.0372,-3.6603,281.3183],[16.0236,-3.6823,302.7348],[16.001,-3.7386,297.6848],[15.9817,-3.7679,289.7994],[15.9575,-3.8173,284.3264],[15.9437,-3.8411,273.0],[15.9263,-3.8838,275.8012],[15.9213,-3.9103,272.5],[15.918,-3.9191,281.448],[15.9138,-3.9263,280.5929],[15.9104,-3.9281,274.7463],[15.9112,-3.9342,272.5],[15.9059,-3.9379,272.9091],[15.9021,-3.9486,272.5],[15.9107,-3.9496,280.3057],[15.9152,-3.9541,278.2705],[15.9186,-3.9531,284.4355],[15.9198,-3.9498,283.4362],[15.9233,-3.9497,293.3152],[15.9277,-3.9419,297.1335],[15.9339,-3.9413,297.4996],[15.939,-3.9351,287.4519],[15.9382,-3.933,327.6065],[15.9397,-3.9311,321.2964],[15.9459,-3.9276,287.4221],[15.9535,-3.9321,290.7446],[15.9579,-3.937,306.9321],[15.9639,-3.9381,290.823],[15.972,-3.9459,288.7692],[15.98,-3.9488,292.905],[15.9818,-3.9519,295.7001],[15.9856,-3.9517,304.4916],[15.9907,-3.956,300.8736],[15.9964,-3.9564,295.8993],[15.999,-3.9584,299.1909],[15.9992,-3.9639,296.8635],[16.0025,-3.965,294.4407],[16.0029,-3.968,295.978],[16.0095,-3.9696,350.9986],[16.0105,-3.9714,417.0835],[16.0251,-3.9684,566.842],[16.0344,-3.9637,512.9471],[16.0429,-3.9485,583.6755],[16.0475,-3.9433,607.0242],[16.0559,-3.9423,597.8938],[16.0758,-3.9479,636.2448],[16.1852,-4.0007,613.5236],[16.2299,-4.0245,595.1875],[16.3131,-4.0709,604.5834],[16.3816,-4.1117,581.1353],[16.4139,-4.1336,566.0388],[16.427,-4.145,546.7229],[16.4298,-4.1528,544.7628],[16.4351,-4.1567,545.2079],[16.442,-4.1567,557.3829],[16.4507,-4.1626,576.1315],[16.454,-4.1716,551.0419],[16.4693,-4.1736,578.4575],[16.4716,-4.1766,575.4729],[16.471,-4.1796,561.4147],[16.4673,-4.184,553.1806],[16.4609,-4.1831,548.2495],[16.4568,-4.1858,536.2719],[16.455,-4.1911,506.8031],[16.4559,-4.1957,545.9471],[16.4637,-4.2035,548.7546],[16.4707,-4.2189,551.3397],[16.4834,-4.2229,415.0928]]]]}
,"properties": {"GID_2": "COD.16.7_1","GID_0": "COD","country": "DemocraticRepublicoftheCongo","GID_1": "COD.16_1","province": "Mai-Ndombe","NL_NAME_1": "NA","county": "Kwamouth","VARNAME_2": "NA","NL_NAME_2": "NA","TYPE_2": "Territoire","ENGTYPE_2": "Territory","CC_2": "NA","HASC_2": "NA","name": "Kwamouth.county","area_km2": 14563.66,"hist_schema_id": "Elevation0-9000","hist_area_km2": {"275": 351.44,"300": 1296.37,"325": 1607.41,"350": 1197.11,"375": 1064.85,"400": 1220.05,"425": 1067.89,"450": 914.07,"475": 949.81,"500": 1116.69,"525": 1044.75,"550": 763.76,"575": 669.46,"600": 805.24,"625": 485.86,"650": 8.9}}}