{"type": "Feature","bbox": [18.0653,1.9023,20.9163,4.7769],"geometry": {"type": "MultiPolygon","coordinates": [[[[19.3144,2.0776,344.8071],[19.5119,2.022,341.3031],[19.6003,2.0052,342.2619],[19.7213,2.0037,343.06],[19.9051,2.0069,325.4977],[19.9077,2.015,329.5864],[19.9191,2.0253,339.3183],[19.9189,2.0179,334.4078],[19.9294,2.0201,329.7149],[19.9317,2.0229,325.5],[19.9334,2.0279,327.7],[19.9256,2.0322,329.1178],[19.9231,2.0352,329.8708],[19.9223,2.0407,332.4149],[19.9259,2.0518,332.9992],[19.932,2.0558,332.528],[19.9396,2.0563,331.5222],[19.942,2.06,326.1318],[19.9397,2.066,327.7054],[19.937,2.0857,330.8317],[19.9426,2.0931,341.4168],[19.9513,2.1137,343.4211],[19.9556,2.1193,335.4974],[19.9622,2.1228,346.9707],[19.9638,2.127,348.6853],[19.9628,2.1325,332.8132],[19.9575,2.1359,326.5],[19.9543,2.1411,336.7753],[19.9538,2.145,340.8544],[19.9587,2.1511,343.3319],[19.9637,2.1539,338.9782],[19.9754,2.1567,345.3937],[19.9819,2.1715,327.8082],[19.9864,2.1769,336.2101],[19.9955,2.182,341.5939],[20.0048,2.1851,342.4053],[20.015,2.1767,348.4066],[20.0193,2.1772,350.2157],[20.0227,2.1807,351.0235],[20.0268,2.201,352.3149],[20.0382,2.2071,352.061],[20.0412,2.2103,352.9655],[20.0418,2.2142,351.1953],[20.0378,2.2246,351.8833],[20.0424,2.2419,341.1243],[20.0452,2.2453,346.6675],[20.0572,2.2528,328.4304],[20.0609,2.2526,333.1],[20.0689,2.2483,350.0498],[20.0728,2.2491,348.9746],[20.0825,2.2644,349.121],[20.0854,2.2669,350.1216],[20.0968,2.2709,350.0178],[20.1011,2.2747,347.2978],[20.1015,2.2779,348.8027],[20.0976,2.2845,349.2],[20.0994,2.2903,350.6075],[20.1023,2.2933,350.6627],[20.1101,2.295,350.991],[20.1128,2.2987,351.0223],[20.1065,2.3076,335.7986],[20.1103,2.3169,349.542],[20.1091,2.3215,348.3633],[20.0978,2.3285,348.7835],[20.0962,2.3324,345.3995],[20.0978,2.3368,350.2762],[20.103,2.341,328.5],[20.1082,2.3424,338.1995],[20.1325,2.3424,347.5564],[20.1423,2.3476,340.301],[20.1585,2.3477,339.0913],[20.1626,2.3496,353.0535],[20.1705,2.3591,351.2996],[20.1883,2.3687,354.4529],[20.1939,2.3754,352.2449],[20.1973,2.3847,346.1377],[20.2212,2.3948,350.5718],[20.2327,2.4057,329.7602],[20.2392,2.4044,342.6847],[20.2498,2.3937,354.3655],[20.256,2.3933,351.5531],[20.2587,2.3947,352.4559],[20.2612,2.3991,351.4725],[20.2581,2.4117,352.5453],[20.2651,2.4173,331.2602],[20.2804,2.4193,342.0571],[20.2846,2.4161,351.4309],[20.2892,2.4061,352.7587],[20.2929,2.4022,352.5397],[20.297,2.4025,359.5566],[20.3095,2.4175,352.8698],[20.3145,2.4203,340.279],[20.337,2.4139,345.3252],[20.3434,2.4146,354.1897],[20.3647,2.4319,339.6236],[20.3759,2.4308,349.14],[20.3833,2.4235,330.0],[20.3877,2.4215,349.5449],[20.3913,2.4225,356.4224],[20.4002,2.4306,339.2672],[20.4068,2.4304,335.225],[20.4279,2.4214,333.9004],[20.4348,2.421,348.1604],[20.4459,2.4333,352.2779],[20.4704,2.4262,343.1478],[20.4796,2.4261,348.3782],[20.4896,2.4328,335.1661],[20.4939,2.434,343.0146],[20.4962,2.432,355.9445],[20.4993,2.423,333.0767],[20.5096,2.4192,352.9229],[20.5106,2.4162,349.0183],[20.5056,2.404,356.2621],[20.5075,2.3985,347.0455],[20.5112,2.3953,336.7834],[20.5165,2.3956,340.4308],[20.5208,2.3981,342.7756],[20.526,2.409,342.3269],[20.5353,2.4165,331.0],[20.5426,2.4163,356.2489],[20.5465,2.4143,356.7615],[20.5537,2.4049,356.6482],[20.5555,2.4045,359.0818],[20.5625,2.4105,333.3036],[20.5671,2.4174,332.0656],[20.5668,2.4209,339.9753],[20.5716,2.4207,348.2345],[20.5802,2.4104,342.6118],[20.5882,2.4107,351.7524],[20.5966,2.4151,354.3584],[20.6062,2.4176,346.4265],[20.6235,2.4276,337.2822],[20.6377,2.4259,355.2065],[20.6402,2.4283,353.989],[20.6378,2.434,354.7398],[20.6392,2.4363,332.0],[20.6513,2.4357,350.304],[20.6593,2.4397,332.0],[20.6657,2.4405,355.6732],[20.6686,2.4391,359.2188],[20.6707,2.4352,357.4119],[20.671,2.4306,355.1949],[20.6665,2.4218,353.5274],[20.6707,2.4138,333.5],[20.676,2.4127,359.676],[20.6903,2.4207,335.9815],[20.6995,2.421,359.2077],[20.7036,2.4238,360.6408],[20.7101,2.439,354.0814],[20.7132,2.4413,334.5],[20.7229,2.4401,354.6574],[20.7288,2.4431,341.6677],[20.7352,2.4439,357.5744],[20.7391,2.4393,359.967],[20.7372,2.4271,356.8059],[20.7397,2.4193,357.1715],[20.7441,2.4142,350.8237],[20.7483,2.4138,338.7922],[20.7642,2.4181,350.555],[20.7682,2.4161,356.156],[20.7743,2.4159,356.6196],[20.7773,2.4189,350.2538],[20.7788,2.427,361.1129],[20.7766,2.4364,362.81],[20.7785,2.4387,357.1094],[20.7839,2.4411,349.5758],[20.7943,2.434,357.6996],[20.8018,2.4348,362.4765],[20.8045,2.4383,354.1687],[20.8071,2.4535,359.3143],[20.8123,2.4655,337.3683],[20.8191,2.4734,354.8623],[20.842,2.4922,360.3143],[20.8457,2.4943,362.8801],[20.8612,2.4947,367.4675],[20.8739,2.5054,363.7949],[20.8843,2.5269,359.3989],[20.8883,2.5311,359.9007],[20.9036,2.5604,366.0466],[20.9163,2.5778,361.4547],[20.91,2.5946,363.8599],[20.9092,2.6067,363.7744],[20.9071,2.6099,362.2544],[20.9027,2.612,362.4555],[20.8962,2.6214,362.6127],[20.8923,2.6321,363.4247],[20.8816,2.6422,366.7112],[20.8725,2.6612,362.4762],[20.8585,2.6733,358.7191],[20.8522,2.6822,361.889],[20.8423,2.692,355.7361],[20.8333,2.6977,365.9878],[20.8326,2.7029,356.4034],[20.8282,2.7096,356.9027],[20.823,2.7238,356.2559],[20.8244,2.7277,364.3866],[20.8204,2.733,360.6111],[20.8133,2.7373,364.1829],[20.8047,2.7453,363.6842],[20.8022,2.7526,343.2179],[20.8025,2.7632,347.1024],[20.7976,2.7737,365.0331],[20.7966,2.7806,366.4701],[20.8004,2.7966,367.3768],[20.7964,2.8083,366.1697],[20.7974,2.8228,348.4319],[20.7932,2.828,349.8148],[20.7868,2.8287,362.2205],[20.7798,2.8258,345.8925],[20.7665,2.8278,359.2263],[20.7611,2.8351,357.2264],[20.762,2.8386,359.7233],[20.7681,2.8446,365.0751],[20.7679,2.8469,361.9281],[20.764,2.851,361.4971],[20.7564,2.8537,351.542],[20.7538,2.858,351.5401],[20.7585,2.8698,364.9507],[20.7601,2.8705,362.4605],[20.7576,2.8749,363.9792],[20.7523,2.8776,365.7935],[20.7367,2.8781,346.5219],[20.7346,2.8827,356.8224],[20.736,2.8864,358.3218],[20.7437,2.892,361.0706],[20.7457,2.8994,364.6213],[20.7426,2.906,366.7051],[20.7358,2.9069,350.8165],[20.7282,2.9119,348.5706],[20.7283,2.9181,364.1477],[20.7335,2.9267,361.0725],[20.7394,2.9309,367.8826],[20.7417,2.935,360.9299],[20.7385,2.9391,364.6879],[20.7288,2.9404,361.0679],[20.7233,2.9438,340.0],[20.7148,2.9449,356.9836],[20.7187,2.9491,347.197],[20.7243,2.9609,362.0133],[20.724,2.9662,367.7314],[20.7194,2.971,362.0573],[20.7227,2.9814,362.165],[20.7181,2.9889,364.0816],[20.7185,2.9944,363.743],[20.7286,2.9936,368.4389],[20.7327,2.9957,363.1073],[20.7336,2.9989,363.369],[20.7287,3.0053,360.1988],[20.7273,3.0115,351.9597],[20.7284,3.0169,362.2335],[20.7251,3.021,363.1596],[20.7189,3.0228,346.0536],[20.718,3.0248,343.2708],[20.7215,3.0361,361.8142],[20.7027,3.0686,358.6705],[20.7043,3.0719,356.357],[20.7079,3.0712,359.9291],[20.7151,3.0621,368.3103],[20.7183,3.0619,365.0076],[20.7208,3.0674,365.4391],[20.7199,3.0713,367.0051],[20.7131,3.0802,351.6907],[20.7269,3.1057,350.3186],[20.7284,3.1158,345.7469],[20.7189,3.1263,357.5435],[20.7241,3.1294,353.9492],[20.7252,3.1365,348.2049],[20.7281,3.1421,358.6365],[20.7235,3.1519,365.6918],[20.7248,3.1586,363.2434],[20.7322,3.1725,364.1932],[20.7334,3.1884,366.8222],[20.701,3.1651,360.1868],[20.6471,3.112,362.9949],[20.6297,3.0934,373.3368],[20.5929,3.0442,396.5317],[20.5515,2.9988,394.5614],[20.4884,2.934,391.9363],[20.4447,2.8834,390.6029],[20.411,2.8473,399.7167],[20.3947,2.8269,384.6404],[20.3823,2.8168,370.8544],[20.3719,2.8248,368.43],[20.337,2.8419,401.2652],[20.3235,2.8504,408.5178],[20.2757,2.8853,394.5103],[20.2618,2.9004,387.1514],[20.2312,2.9188,377.01],[20.2221,2.9267,390.7655],[20.2086,2.9518,399.8281],[20.2099,2.9586,387.1377],[20.2047,2.9744,401.303],[20.1953,2.9912,400.491],[20.1804,3.0101,374.9309],[20.1796,3.0199,393.5988],[20.1753,3.0278,404.6836],[20.1746,3.0352,370.2776],[20.1783,3.0456,399.2127],[20.198,3.0848,419.7933],[20.2217,3.1185,400.0986],[20.2256,3.135,444.1029],[20.2285,3.14,445.9007],[20.248,3.1607,436.8915],[20.2774,3.1821,448.8475],[20.2844,3.189,446.6632],[20.2857,3.2367,463.3828],[20.2784,3.2571,439.4529],[20.278199999999998,3.262,435.9252],[20.2823,3.2952,400.9046],[20.2812,3.3032,425.4702],[20.2727,3.3194,414.9171],[20.2495,3.3383,408.4374],[20.2274,3.3526,395.5586],[20.2201,3.3723,401.8203],[20.2113,3.383,396.5514],[20.2091,3.4015,421.0938],[20.2102,3.4097,413.614],[20.22,3.4335,492.8763],[20.2233,3.4489,485.0205],[20.2225,3.4564,478.363],[20.2173,3.4683,440.3521],[20.2092,3.4765,424.7751],[20.1807,3.4932,408.7911],[20.1385,3.5232,400.1848],[20.1267,3.5343,391.3033],[20.1165,3.5497,399.297],[20.1118,3.5614,397.6905],[20.1113,3.5671,390.0935],[20.1145,3.5835,382.0055],[20.1254,3.5963,385.4258],[20.15,3.6395,387.4406],[20.134,3.655,381.8478],[20.132,3.6741,377.2974],[20.1373,3.6882,374.8822],[20.135,3.6974,371.1968],[20.1371,3.7108,373.4189],[20.131,3.731,381.0455],[20.1413,3.7322,375.7768],[20.1923,3.7613,390.942],[20.2183,3.7714,376.6671],[20.2136,3.7833,375.1456],[20.2027,3.7973,370.1928],[20.197,3.8004,373.5479],[20.1678,3.8084,387.7515],[20.1467,3.8096,383.3156],[20.1359,3.8139,395.7437],[20.1241,3.8241,385.876],[20.1161,3.8236,385.91],[20.1118,3.8262,382.6175],[20.1057,3.8372,388.6918],[20.0999,3.8412,395.7546],[20.0583,3.852,404.3518],[20.0216,3.8703,415.1916],[19.9961,3.8739,440.4547],[19.9808,3.8823,425.9921],[19.9359,3.9178,502.8548],[19.8938,3.9632,451.1287],[19.8896,3.97,509.4474],[19.8879,3.9797,471.2524],[19.8913,3.9988,412.3262],[19.901,4.0171,440.3028],[19.9029,4.0378,406.2547],[19.9069,4.0432,388.5657],[19.9156,4.0474,394.3418],[19.9172,4.0507,401.4396],[19.9169,4.0548,408.9771],[19.9192,4.0578,382.5485],[19.9138,4.0631,389.6581],[19.9065,4.0653,379.9062],[19.9035,4.0701,392.1945],[19.8975,4.0705,388.5103],[19.8938,4.0737,387.7599],[19.8801,4.0728,392.1612],[19.8699,4.0771,386.5536],[19.8631,4.0768,377.9213],[19.858,4.0807,382.2678],[19.8477,4.0783,382.861],[19.8305,4.0802,381.8064],[19.8282,4.0778,377.991],[19.825,4.0785,387.3599],[19.8203,4.0844,383.184],[19.8155,4.0848,384.9266],[19.8133,4.0827,382.7629],[19.8084,4.085,384.817],[19.7931,4.0848,382.2832],[19.7888,4.079,381.5082],[19.7831,4.0774,385.6623],[19.7787,4.0725,391.5792],[19.7751,4.0718,371.0196],[19.7711,4.0759,373.7299],[19.7652,4.0751,374.157],[19.7617,4.0799,384.5066],[19.7544,4.0791,376.0591],[19.7496,4.0743,362.7379],[19.74,4.0705,374.5342],[19.7389,4.0663,361.9189],[19.731,4.0609,378.9176],[19.7202,4.0641,375.32],[19.7152,4.0578,365.0408],[19.7037,4.0554,366.4974],[19.6984,4.0625,366.1797],[19.6951,4.0735,364.0128],[19.6865,4.0798,370.8969],[19.6815,4.0802,363.8783],[19.6774,4.0774,366.981],[19.6759,4.0664,367.5699],[19.6731,4.0663,364.9755],[19.6671,4.0718,367.132],[19.6637,4.0722,371.6251],[19.6619,4.0678,367.3389],[19.6603,4.0678,373.464],[19.6559,4.0719,371.9241],[19.6547,4.0786,360.4538],[19.6517,4.0788,361.4225],[19.6474,4.075,359.5954],[19.6428,4.0736,366.6773],[19.638,4.0763,373.8037],[19.6281,4.0751,371.0804],[19.6234,4.0704,371.342],[19.6131,4.0666,369.0558],[19.609,4.0622,380.2282],[19.6042,4.0647,357.2593],[19.5996,4.0637,371.9304],[19.5962,4.0598,377.5325],[19.5932,4.06,374.2011],[19.589,4.0641,360.3405],[19.5813,4.0638,373.0041],[19.5753,4.0596,383.6097],[19.5687,4.0593,375.729],[19.5606,4.064,364.0447],[19.5519,4.0646,377.6359],[19.5499,4.0579,369.4671],[19.5523,4.0473,373.6181],[19.5503,4.0429,377.329],[19.5466,4.0436,375.2956],[19.5406,4.0502,370.0126],[19.5376,4.0502,370.5315],[19.5326,4.0462,375.9707],[19.5289,4.0469,385.5749],[19.5222,4.0581,366.1068],[19.516,4.061,380.9299],[19.5118,4.06,358.8907],[19.5096,4.0575,379.1227],[19.509,4.0469,374.1651],[19.5026,4.0424,391.3688],[19.4995,4.038,376.8505],[19.4986,4.0304,367.6466],[19.4905,4.0232,363.4114],[19.482,4.0238,354.437],[19.4795,4.0164,386.6489],[19.4752,4.0148,367.5557],[19.4697,4.0154,354.9109],[19.4681,4.0121,354.747],[19.471,4.0034,375.1776],[19.4706,3.9747,383.4654],[19.4683,3.9716,366.238],[19.4587,3.9738,353.161],[19.4571,3.9708,372.0964],[19.4618,3.9621,354.4314],[19.4591,3.9538,352.4459],[19.4601,3.9511,353.1986],[19.4692,3.95,392.6435],[19.4693,3.9472,403.8396],[19.4563,3.9418,358.0966],[19.4556,3.9358,364.0389],[19.4522,3.9337,380.2793],[19.4485,3.9351,380.6797],[19.4447,3.9502,361.3947],[19.442,3.9499,352.774],[19.4359,3.9414,370.287],[19.4342,3.9482,353.6431],[19.4323,3.9498,365.6568],[19.4262,3.9491,368.9783],[19.4205,3.9446,365.5838],[19.4207,3.9412,368.3164],[19.4249,3.9385,367.6259],[19.4311,3.9381,360.4473],[19.4296,3.9319,351.2328],[19.431,3.9266,368.4662],[19.4246,3.9235,371.5729],[19.4228,3.9191,358.9706],[19.4298,3.9134,369.6004],[19.4305,3.91,381.1444],[19.4258,3.8994,356.5579],[19.418,3.8963,373.155],[19.4174,3.9076,364.2573],[19.4149,3.9112,364.7316],[19.3955,3.9241,366.5614],[19.3885,3.9328,363.8871],[19.384,3.9532,380.085],[19.3809,3.9592,386.2992],[19.368,3.9678,372.4073],[19.364,3.9719,378.8375],[19.3596,3.9811,364.7207],[19.3538,3.9865,372.8762],[19.349,3.9878,367.1278],[19.345,3.9926,384.141],[19.327,4.0056,366.8958],[19.3172,4.0032,370.5818],[19.3117,4.0049,373.9955],[19.305,4.0042,373.6386],[19.2867,4.0233,381.118],[19.2731,4.0287,392.8874],[19.2664,4.0335,397.1402],[19.2659,4.0362,403.812],[19.27,4.0399,418.2088],[19.2744,4.0572,421.9272],[19.2729,4.066,407.0373],[19.2683,4.0701,410.2949],[19.2692,4.0757,434.4131],[19.2724,4.0782,453.122],[19.3025,4.081,417.0043],[19.3077,4.0857,430.1637],[19.3343,4.1578,391.3113],[19.3386,4.1602,394.3264],[19.3426,4.1664,391.52],[19.3512,4.1902,418.1343],[19.357,4.1974,399.4293],[19.3762,4.2498,445.287],[19.4189,4.3519,420.6519],[19.4542,4.4319,600.4702],[19.4596,4.4504,608.4579],[19.4768,4.4828,638.0705],[19.4877,4.509,643.2745],[19.4893,4.5177,632.9398],[19.5086,4.557,626.4993],[19.5102,4.5646,627.0933],[19.5165,4.569,618.9911],[19.5186,4.5732,629.1925],[19.5186,4.5872,622.8477],[19.5124,4.5971,611.278],[19.5091,4.5993,613.612],[19.5018,4.5997,610.4745],[19.4914,4.6038,603.3235],[19.4845,4.6081,592.9668],[19.4831,4.612,589.6454],[19.474,4.619,584.9846],[19.4697,4.6385,540.2613],[19.4712,4.648,521.5539],[19.475,4.6556,516.9451],[19.4749,4.6632,513.4513],[19.4707,4.6708,523.5396],[19.4585,4.6775,515.4949],[19.4271,4.6793,501.0914],[19.4209,4.6776,512.2828],[19.4153,4.6686,509.0359],[19.4046,4.6574,500.5908],[19.3936,4.6513,498.831],[19.3922,4.6377,503.0015],[19.3881,4.634,500.7683],[19.3847,4.6268,500.4719],[19.3799,4.6251,494.2664],[19.3736,4.6347,505.4351],[19.3581,4.6336,483.9536],[19.3539,4.6357,495.4513],[19.3508,4.6425,526.1248],[19.3465,4.6455,526.9607],[19.3343,4.6447,481.4823],[19.3302,4.6465,483.0606],[19.3282,4.6593,488.9786],[19.3109,4.6642,478.6228],[19.3086,4.6667,468.7916],[19.312,4.6711,477.866],[19.3062,4.6743,470.5357],[19.3041,4.6816,486.5384],[19.2983,4.6843,485.4778],[19.2915,4.6815,468.457],[19.2904,4.6766,469.3928],[19.2883,4.675,471.0602],[19.2854,4.6754,464.8007],[19.2825,4.6805,483.0585],[19.2784,4.6839,469.6612],[19.2758,4.6905,472.8237],[19.2554,4.6919,458.0243],[19.2504,4.6875,459.6597],[19.2423,4.686,461.5508],[19.238,4.6855,467.6989],[19.2345,4.6878,472.9257],[19.2302,4.688,460.7497],[19.2293,4.6804,468.1395],[19.2263,4.681,454.7857],[19.2237,4.6923,464.461],[19.215699999999998,4.6929,454.8332],[19.2108,4.6997,474.3415],[19.2056,4.693,450.5857],[19.1895,4.6903,455.3115],[19.187,4.6928,490.0318],[19.1879,4.6967,515.2181],[19.1862,4.6999,457.6265],[19.1796,4.6987,442.6003],[19.1635,4.7031,484.2177],[19.1618,4.7054,463.4654],[19.1622,4.7118,440.1224],[19.1587,4.7166,441.2614],[19.1539,4.7184,433.1716],[19.1523,4.7347,443.9279],[19.1498,4.7343,434.5653],[19.1451,4.7298,450.0989],[19.1354,4.7304,438.6064],[19.1246,4.7347,419.7445],[19.1243,4.7416,423.5912],[19.1141,4.7663,377.7917],[19.0951,4.7673,384.7614],[19.0873,4.7644,372.2986],[19.0825,4.7692,379.137],[19.075,4.7615,380.1485],[19.0724,4.7617,382.4498],[19.0751,4.7714,373.4197],[19.0723,4.7769,369.1062],[19.068,4.7734,368.8232],[19.0624,4.774,367.2487],[19.0579,4.7724,364.9398],[19.0584,4.7687,391.7955],[19.0522,4.7642,380.4255],[19.0422,4.7616,390.2856],[19.0407,4.7657,367.7803],[19.0364,4.7659,372.1641],[19.0334,4.7689,388.021],[19.014,4.768,347.0],[19.01,4.753,347.0],[18.9942,4.7383,357.7385],[18.9853,4.7336,349.4821],[18.9475,4.6961,355.4276],[18.9377,4.6728,350.5242],[18.932,4.6661,345.0],[18.906,4.656,362.3489],[18.9026,4.6451,354.1183],[18.895,4.64,350.443],[18.891,4.634,355.3318],[18.8899,4.6246,352.0351],[18.8844,4.6142,343.0],[18.8747,4.6024,345.0531],[18.8561,4.5903,342.0],[18.8398,4.5708,380.6689],[18.8318,4.5583,371.0989],[18.8226,4.5318,359.2812],[18.8176,4.4945,391.4228],[18.811,4.461,405.4032],[18.8,4.439,420.8109],[18.794,4.423,380.3197],[18.7801,4.4196,337.5],[18.774,4.398,348.5713],[18.763,4.387,355.3822],[18.7405,4.3689,348.6828],[18.7333,4.3833,337.0],[18.7331,4.3867,348.0539],[18.7139,4.3752,353.3897],[18.6989,4.3702,347.6869],[18.6761,4.3531,409.4895],[18.6374,4.3466,368.9323],[18.6259,4.3474,358.0998],[18.6178,4.351,379.8788],[18.6127,4.3561,387.5889],[18.6068,4.3576,385.2506],[18.5782,4.3441,336.0],[18.549,4.316,344.674],[18.546,4.308,335.5],[18.546,4.302,335.5],[18.551,4.289,335.125],[18.5711,4.2474,335.0],[18.5776,4.2382,345.0098],[18.595,4.2045,334.5],[18.6184,4.1667,367.3523],[18.6266,4.1416,348.3813],[18.6408,4.109,346.7959],[18.6488,4.0764,349.5978],[18.6478,4.058,333.5],[18.6516,4.0094,333.0],[18.652,3.978,333.0],[18.6476,3.9617,333.6627],[18.6361,3.9391,332.5],[18.6201,3.9238,333.0789],[18.608,3.909,332.0],[18.602,3.896,332.0],[18.5952,3.8407,332.5154],[18.5984,3.8145,350.5209],[18.5978,3.803,355.9158],[18.587,3.751,351.071],[18.5914,3.7037,324.5],[18.5947,3.6904,324.5],[18.6016,3.6757,351.0936],[18.6109,3.6325,353.6896],[18.616,3.5888,356.677],[18.6184,3.5334,350.1025],[18.623,3.5081,345.4121],[18.6347,3.4732,328.2115],[18.6399,3.4486,324.5],[18.639,3.417,324.5],[18.632,3.397,324.5],[18.633,3.386,324.5],[18.645,3.359,328.712],[18.649,3.344,334.4041],[18.65,3.331,346.6363],[18.645,3.305,324.0],[18.638,3.29,329.0212],[18.635,3.26,331.2838],[18.6426,3.2207,324.0],[18.6417,3.2089,324.0],[18.6256,3.1589,323.5],[18.6014,3.1145,323.5],[18.5848,3.0976,323.5],[18.576,3.095,323.5],[18.5439,3.0796,323.5],[18.533,3.07,338.0641],[18.529,3.062,323.5],[18.5216,3.0253,323.5],[18.5169,3.014,323.0],[18.5049,2.9962,336.6405],[18.497,2.991,325.1453],[18.475,2.97,322.5],[18.468,2.958,322.0],[18.463,2.942,322.0],[18.453,2.927,324.8838],[18.4389,2.8766,321.5],[18.4393,2.8555,321.0],[18.4458,2.8367,321.0],[18.4455,2.8224,321.0],[18.4383,2.8047,320.5],[18.433,2.7779,320.0],[18.421,2.752,320.0],[18.4113,2.7398,320.0],[18.401,2.733,319.625],[18.394,2.71,346.8264],[18.384,2.699,319.5],[18.343,2.622,316.5],[18.3388,2.5989,316.25],[18.33,2.5845,347.1729],[18.3124,2.5736,319.2826],[18.2952,2.5525,316.1401],[18.2769,2.5445,315.5],[18.268,2.538,315.375],[18.242,2.507,342.6948],[18.237,2.495,338.5096],[18.2281,2.4639,332.7329],[18.229,2.452,314.5],[18.227,2.44,314.5],[18.214,2.417,314.5],[18.212,2.399,314.0],[18.203,2.384,314.0],[18.193,2.376,314.0],[18.19,2.37,314.0],[18.19,2.359,314.0],[18.185,2.345,314.0],[18.168,2.325,314.0],[18.1538,2.3045,322.0023],[18.1442,2.2991,331.9431],[18.1235,2.2794,333.2847],[18.1165,2.2757,322.7803],[18.106,2.2666,314.0],[18.095,2.238,318.2719],[18.092,2.211,314.0],[18.0908,2.1273,321.5749],[18.0888,2.0896,338.3099],[18.0787,2.0639,314.0],[18.0751,2.0607,315.4047],[18.0708,2.0514,323.3198],[18.0716,2.0388,324.6884],[18.0653,2.027,314.0],[18.0672,2.0213,314.0],[18.0842,2.0048,314.0],[18.0864,1.9841,314.0],[18.0977,1.988,331.3825],[18.2941,1.983,340.869],[18.319,1.9807,336.1194],[18.4092,1.9776,328.9438],[18.5139,1.9754,337.0717],[18.5907,1.977,333.7937],[18.5935,1.976,331.1742],[18.6012,1.9653,332.748],[18.6028,1.9586,325.4122],[18.6018,1.9522,333.3457],[18.6043,1.9495,326.828],[18.6144,1.9487,329.1185],[18.623,1.9396,329.0463],[18.6291,1.9387,328.4341],[18.6342,1.9351,326.1918],[18.6425,1.934,328.4302],[18.6457,1.9315,325.4527],[18.6497,1.9235,326.6247],[18.6639,1.9207,316.3456],[18.6676,1.9178,315.6353],[18.6727,1.9095,315.72],[18.6865,1.9023,315.6655],[18.6894,1.9063,315.9333],[18.6952,1.9045,319.619],[18.699,1.9069,321.8625],[18.7031,1.9069,321.5315],[18.7087,1.9028,329.804],[18.7132,1.9047,328.1513],[18.7197,1.9124,329.1006],[18.7252,1.9143,328.6087],[18.735,1.9367,316.4903],[18.7531,1.9526,323.2859],[18.7554,1.9558,322.6038],[18.7573,1.9664,321.0683],[18.7627,1.9722,316.9637],[18.7723,1.9728,323.3341],[18.7784,1.9802,316.4454],[18.7803,1.9747,318.8244],[18.7824,1.9732,322.4201],[18.7976,1.9784,316.6576],[18.8001,1.9819,316.0443],[18.8059,1.9796,316.5365],[18.8104,1.9813,316.6874],[18.8148,1.9772,316.5037],[18.818,1.977,317.59],[18.8215,1.972,325.2373],[18.8246,1.9771,316.4749],[18.8313,1.9744,325.1628],[18.8335,1.977,320.5109],[18.8429,1.9768,317.035],[18.8468,1.9796,317.0428],[18.8491,1.9767,325.4995],[18.8523,1.9774,330.4824],[18.8539,1.9818,326.2898],[18.8568,1.9837,327.6094],[18.8609,1.9821,326.0276],[18.8664,1.9829,333.3489],[18.8718,1.9896,316.8829],[18.8803,1.9899,318.8951],[18.8869,1.9944,316.8584],[18.8946,1.9944,318.4475],[18.8971,1.9965,317.0188],[18.8973,1.9989,317.0845],[18.903,2.0033,316.6075],[18.9186,2.0,317.0463],[18.9392,2.012,317.3214],[18.9411,2.0099,316.9783],[18.9468,2.01,318.3716],[18.9502,2.014,317.3525],[18.9582,2.0138,318.6126],[18.9643,2.0215,316.6208],[18.9713,2.0268,317.8714],[18.9893,2.034,326.9105],[18.9911,2.0363,328.3417],[18.9888,2.0418,329.8906],[18.9937,2.0478,330.9691],[19.0045,2.0482,331.3821],[19.0115,2.0519,326.6823],[19.0222,2.0527,334.9516],[19.0283,2.0588,340.5608],[19.0308,2.0662,332.9887],[19.0371,2.0741,330.4554],[19.0419,2.0743,333.8394],[19.0491,2.0834,330.773],[19.0573,2.0888,330.2041],[19.0609,2.0962,332.9642],[19.0647,2.0997,332.2569],[19.0734,2.1012,327.0294],[19.0945,2.1157,328.577],[19.1107,2.12,332.8151],[19.1255,2.1264,331.2203],[19.3144,2.0776,344.8071]]]]}
,"properties": {"GID_1": "COD.23_1","GID_0": "COD","country": "DemocraticRepublicoftheCongo","province": "Sud-Ubangi","VARNAME_1": "NA","NL_NAME_1": "NA","TYPE_1": "Province","ENGTYPE_1": "Province","CC_1": "NA","HASC_1": "CD.SU","ISO_1": "NA","name": "Sud-Ubangi.province","area_km2": 52269.22,"hist_schema_id": "Elevation0-9000","hist_area_km2": {"325": 3454.22,"350": 16173.67,"375": 13573.15,"400": 7652.37,"425": 4551.0,"450": 2573.12,"475": 1170.12,"500": 681.42,"525": 670.14,"550": 453.76,"575": 290.61,"600": 385.82,"625": 578.13,"650": 61.33}}}