{"type":"Feature","properties":{"ISO3166-1-Alpha-3":"COD","country":"Democratic Republic of the Congo","fill":"#F00","id":"1559","name":"Orientale"},
"geometry":{"type": "Polygon","coordinates": [[[25.56183,5.37301,559.9631],[25.54374,5.37528,564.9421],[25.53279,5.37223,561.2784],[25.54085,5.35443,579.0536],[25.52896,5.3519,570.7209],[25.50447,5.34228,558.7039],[25.49558,5.34453,560.1101],[25.48493,5.35531,558.6395],[25.48199,5.35686,558.009],[25.47992,5.35319,559.979],[25.43507,5.32869,558.7734],[25.41336,5.32355,566.0588],[25.39569,5.33396,554.5748],[25.38535,5.32149,558.9536],[25.37068,5.31683,556.4766],[25.36365,5.31056,558.0947],[25.37647,5.29301,556.5005],[25.3559,5.28645,556.7789],[25.34339,5.27193,553.3976],[25.33719,5.25175,561.3099],[25.33554,5.22844,561.4479],[25.32892,5.21601,552.2271],[25.31621,5.20224,553.0118],[25.30774,5.18529,552.2],[25.31445,5.16325,563.7166],[25.32148,5.15917,551.8914],[25.34122,5.1556,556.9462],[25.34856,5.14901,555.6169],[25.34928,5.14168,556.5496],[25.34381,5.12188,551.0173],[25.34236,5.11147,550.7922],[25.33916,5.10517,551.7416],[25.325,5.08811,555.808],[25.3219,5.077,553.9196],[25.32097,5.05225,556.5149],[25.31683,5.04225,556.789],[25.30763,5.03228,556.0645],[25.29234,5.02827,557.7361],[25.24852,5.02414,551.3976],[25.23932,5.01553,551.3301],[25.22753,5.00957,550.1464],[25.16366,5.00564,557.9119],[25.15457,5.00931,572.4634],[25.14764,5.01414,568.3245],[25.1402,5.01796,549.7099],[25.12945,5.01864,550.1227],[25.1217,5.00864,555.2056],[25.11426,5.00184,571.9224],[25.10527,4.99877,594.0646],[25.10093,4.99455,568.6585],[25.09049,4.97448,556.6627],[25.0848,4.95422,555.5233],[25.07612,4.95184,547.6714],[25.04057,4.9621,578.4396],[25.00646,4.98094,572.0009],[24.96936,4.9914,551.1811],[24.95809,4.99135,552.3661],[24.95086,4.98768,544.5823],[24.93236,4.97443,551.9807],[24.92709,4.97148,546.5409],[24.90435,4.9668,554.0578],[24.86818,4.94438,554.8566],[24.84833,4.93673,548.8484],[24.83686,4.93771,552.6866],[24.82766,4.94192,544.463],[24.8195,4.94448,543.5303],[24.81102,4.94045,551.6155],[24.80007,4.9289,552.7675],[24.78942,4.91986,555.2238],[24.77826,4.91854,541.9641],[24.76637,4.92988,576.0265],[24.74984,4.91874,557.0235],[24.73061,4.9175,542.8696],[24.66436,4.9244,544.9562],[24.65424,4.92942,591.7012],[24.65744,4.93978,595.7756],[24.67077,4.95722,541.2251],[24.65692,4.96727,542.4163],[24.62747,4.97691,551.2456],[24.61548,4.9851,601.8648],[24.61,4.99672,596.0624],[24.6101,5.01672,572.2622],[24.60122,5.0261,545.5452],[24.58861,5.03106,535.4055],[24.56339,5.03489,539.5789],[24.55347,5.0391,552.511],[24.54737,5.04649,591.0064],[24.53869,5.06556,571.8436],[24.533,5.07326,559.4935],[24.51368,5.08724,543.2394],[24.48722,5.1007999999999996,541.3451],[24.48084,5.10233,540.1158],[24.45962,5.10744,543.8716],[24.43668,5.10059,579.8223],[24.43306,5.08933,574.035],[24.43347,5.07553,554.8142],[24.43068,5.06742,547.0095],[24.41694,5.07326,591.8934],[24.41146,5.08186,599.0642],[24.40164,5.11147,542.0487],[24.39637,5.1223,575.1865],[24.38252,5.10785,542.4302],[24.36785,5.08455,540.5835],[24.36123,5.06295,571.1313],[24.37198,5.05339,542.8325],[24.39689,5.04819,536.4951],[24.39864,5.03602,531.55],[24.38614,5.02236,540.1957],[24.36847,5.01243,552.6443],[24.29664,5.00326,530.2414],[24.28651,4.99507,532.2683],[24.28465,4.99244,538.6457],[24.27297,4.96401,536.8557],[24.26966,4.95246,577.0806],[24.26956,4.94319,541.5045],[24.2677,4.93572,530.1356],[24.25922,4.92988,574.893],[24.25302,4.92988,547.6147],[24.2462,4.95407,542.3344],[24.22977,4.96117,555.9632],[24.20961,4.95618,565.5691],[24.19091,4.94417,544.466],[24.1629,4.90779,566.0829],[24.15277,4.9026,539.1371],[24.13923,4.90544,550.4965],[24.1199,4.9189,532.0071],[24.10843,4.92306,541.856],[24.08962,4.92022,537.0824],[24.07246,4.91027,573.8508],[24.04693,4.88893,558.7789],[23.99578,4.86505,520.0258],[23.978,4.85415,532.0335],[23.96312,4.8687,513.5817],[23.95712,4.87081,574.5372],[23.95082,4.86779,560.5865],[23.94648,4.86164,535.868],[23.94317,4.85169,569.8105],[23.94276,4.84051,549.5674],[23.94741,4.83058,569.6934],[23.94834,4.81769,568.1875],[23.92436,4.81779,504.5],[23.88188,4.82689,501.875],[23.87475,4.82498,512.4157],[23.86441,4.81609,500.625],[23.85522,4.81322,500.5],[23.84788,4.814,520.5225],[23.82824,4.81935,505.3853],[23.81666,4.82061,500.0],[23.79847,4.81475,507.4495],[23.76003,4.78743,519.5068],[23.73791,4.77906,568.9357],[23.69285,4.7734,495.5],[23.67269,4.7672,507.1005],[23.63404,4.74514,525.9908],[23.58805,4.73395,520.894],[23.56655,4.72444,524.4468],[23.50609,4.67643,522.7056],[23.48842,4.66985,557.0708],[23.46506,4.66721,511.3965],[23.44832,4.65941,488.7997],[23.43715,4.64657,492.1774],[23.43002,4.62884,488.3181],[23.42826,4.61734,502.2385],[23.42837,4.60861,503.1521],[23.42744,4.60135,495.1704],[23.42258,4.59406,483.5],[23.41452,4.59083,488.4761],[23.39602,4.59161,497.8599],[23.38837,4.58727,514.662],[23.37121,4.59727,484.6543],[23.35395,4.60357,605.0967],[23.33587,4.6068,483.3713],[23.31644,4.60773,496.614],[23.31303,4.61021,495.3058],[23.30197,4.62171,495.4724],[23.29959,4.62512,490.2539],[23.29515,4.6276,486.9515],[23.27313,4.63202,495.3767],[23.26486,4.63507,497.0884],[23.25184,4.66297,494.2221],[23.22425,4.68005,489.8204],[23.22084,4.68351,488.0126],[23.20864,4.69054,493.855],[23.18373,4.72527,485.176],[23.16875,4.73811,487.2501],[23.12389,4.71563,477.5],[23.0994,4.71165,507.6332],[23.07738,4.72106,479.7111],[23.06663,4.73018,477.5],[23.05516,4.7378,477.125],[23.04276,4.74297,477.0],[23.02932,4.74493,509.2945],[23.01733,4.75051,495.7108],[23.01113,4.76364,488.6756],[23.00721,4.77844,486.3919],[22.99625,4.7995,482.0176],[22.98571,4.82642,486.9734],[22.97744,4.83431,476.0],[22.96504,4.83529,480.5362],[22.95305,4.83079,480.1001],[22.94147,4.82472,482.2758],[22.92969,4.82061,479.7781],[22.91522,4.82115,482.4886],[22.90592,4.8242,500.7633],[22.89837,4.82358,500.1638],[22.88876,4.81322,536.6801],[22.88287,4.80074,500.2444],[22.88235,4.78849,487.0637],[22.8868,4.77669,473.0],[22.89558,4.76539,474.7578],[22.88732,4.7555,503.3076],[22.8653,4.73868,481.3601],[22.85383,4.71126,479.3818],[22.83729,4.71424,479.9694],[22.81807,4.7246,470.0],[22.80288,4.73064,476.4812],[22.78603,4.72465,497.6086],[22.77642,4.7101,473.2418],[22.76515,4.67602,471.5255],[22.7574,4.6608,468.0],[22.74872,4.64827,467.5],[22.73787,4.63775,469.3017],[22.7236,4.62884,485.1537],[22.72381,4.61703,490.5314],[22.72981,4.59675,466.5],[22.73115,4.58727,466.5],[22.72867,4.58029,469.3188],[22.71895,4.56277,479.2338],[22.71678,4.55652,470.7148],[22.71368,4.55122,472.884],[22.70014,4.54107,487.9008],[22.69704,4.53574,495.5629],[22.69715,4.51203,468.5078],[22.69508,4.50148,474.2526],[22.6895,4.49166,532.3326],[22.67565,4.48474,456.2644],[22.65436,4.48283,451.9235],[22.61033,4.48422,442.375],[22.59245,4.47371,450.1438],[22.58697,4.44939,493.1075],[22.58904,4.42195,445.2783],[22.594,4.40232,457.5321],[22.61126,4.38185,420.6703],[22.61374,4.37436,418.9496],[22.6093,4.36335,429.6581],[22.59989,4.35255,410.2682],[22.58801,4.34418,420.9166],[22.57653,4.34085,407.2236],[22.56858,4.33155,415.1275],[22.53933,4.27816,402.1288],[22.53974,4.26692,395.0],[22.54573,4.24594,411.5158],[22.54615,4.23718,408.6209],[22.54046,4.22726,422.7713],[22.52217,4.21135,430.766],[22.51824,4.2068,420.6124],[22.51049,4.19127,395.0682],[22.49271,4.17404,401.5839],[22.45737,4.14908,402.5483],[22.45153,4.14667,405.8137],[22.45375,4.14484,402.1888],[22.47458,4.13171,403.6422],[22.49427,4.12272,412.5771],[22.53633,4.11319,424.1089],[22.54672,4.10916,433.8727],[22.56269,4.09975,428.2648],[22.68578,3.99983,485.6787],[22.69136,3.99681,496.0946],[22.70144,3.99306,468.3283],[22.71322,3.98989,506.8878],[22.73632,3.98942,517.3961],[22.7466,3.9881,508.6507],[22.75497,3.98268,506.0836],[22.76753,3.9179,458.8735],[22.77885,3.90183,443.4101],[22.7911,3.89129,467.2262],[22.80339,3.88452,437.0313],[22.83564,3.87266,405.0],[22.83967,3.86591,405.0],[22.8867,3.85537,408.5],[22.90892,3.85449,421.477],[22.97718,3.8787,455.4987],[22.98602,3.88927,462.1136],[23.00602,3.88261,447.426],[23.03925,3.86072,455.6919],[23.07242,3.88555,463.5832],[23.08395,3.88865,463.6148],[23.11852,3.89051,459.5264],[23.13412,3.89462,458.7854],[23.14911,3.90229,441.1951],[23.16105,3.89361,453.1235],[23.17045,3.88958,468.8015],[23.18012,3.88857,469.2414],[23.19288,3.88865,458.2238],[23.2042,3.88547,467.8589],[23.21582,3.87134,438.5],[23.24202,3.86281,451.4303],[23.27262,3.83938,443.0],[23.28905,3.83403,475.8008],[23.30016,3.83294,525.0986],[23.31489,3.82829,511.3978],[23.33375,3.82501,478.7237],[23.34042,3.82036,468.1949],[23.34548,3.81571,467.4584],[23.35085,3.81354,477.1491],[23.37302,3.81943,490.6961],[23.39147,3.83062,457.0],[23.40842,3.83752,467.1255],[23.42594,3.83062,462.5396],[23.43106,3.83015,462.3388],[23.47064,3.81974,478.7172],[23.48196,3.81928,459.5],[23.49265,3.82036,460.0],[23.50273,3.823,470.3159],[23.51002,3.82145,460.5],[23.51219,3.81687,488.4564],[23.51064,3.80122,493.1507],[23.50382,3.7746,498.3097],[23.49731,3.75822,520.0609],[23.49203,3.74861,522.6891],[23.48521,3.73835,504.7034],[23.47545,3.72773,513.2634],[23.44191,3.69972,534.0422],[23.43137,3.6883,543.9389],[23.3924,3.63681,521.1888],[23.38139,3.62531,481.7967],[23.36961,3.61725,474.2262],[23.3569,3.6119,456.9099],[23.34522,3.61136,460.9595],[23.33375,3.61585,463.558],[23.31298,3.63316,465.3991],[23.30088,3.63867,464.7578],[23.28905,3.64084,473.5536],[23.27742,3.64161,480.4582],[23.25448,3.64022,497.3743],[23.24254,3.64154,475.1117],[23.23009,3.64572,470.8247],[23.21784,3.65456,494.6671],[23.20652,3.66451,478.1704],[23.19427,3.67226,490.1841],[23.1828,3.67551,523.9958],[23.17128,3.67497,511.019],[23.15981,3.66947,485.9428],[23.13733,3.65192,497.9077],[23.04963,3.55766,550.1677],[23.03785,3.5496,562.5637],[23.01609,3.54004,557.4876],[23.00648,3.5371,531.8666],[22.9978,3.53578,502.1303],[22.98695,3.53524,501.3371],[22.96928,3.5364,556.7471],[22.92907,3.54415,513.5083],[22.91682,3.54059,542.8229],[22.90437,3.53345,547.5293],[22.89088,3.52407,566.3447],[22.86329,3.50917,566.562],[22.85088,3.50452,543.5571],[22.77621,3.48612,470.2376],[22.67865,3.45284,551.7526],[22.66821,3.44609,549.4957],[22.65844,3.43741,536.2534],[22.651,3.427,516.2672],[22.64154,3.41646,507.6726],[22.63395,3.40232,535.3044],[22.62744,3.38605,538.7208],[22.62759,3.36501,541.6959],[22.63162,3.34778,540.0592],[22.6434,3.33018,547.1935],[22.65565,3.31985,528.0243],[22.6679,3.31326,515.6573],[22.67968,3.30946,511.0873],[22.72996,3.30008,521.6774],[22.75327,3.29285,484.611],[22.76458,3.28734,468.4754],[22.77606,3.28014,448.4628],[22.78644,3.26766,497.3766],[22.79409,3.25096,527.8316],[22.79781,3.22396,548.1781],[22.79766,3.20526,522.3604],[22.77947,3.08896,563.3974],[22.78009,3.06343,565.8959],[22.78319,3.04793,560.4791],[22.7883,3.03279,558.8989],[22.79967,3.0131,563.2265],[22.80649,3.00408,562.736],[22.81161,2.9992,557.0037],[22.81797,2.99641,543.6177],[22.82789,2.99493,545.1887],[22.83766,2.99563,544.4806],[22.84577,2.99858,555.4482],[22.85026,3.00106,570.7382],[22.85554,3.00509,571.1442],[22.87429,3.02325,571.6202],[22.95419,3.12232,575.0054],[22.97641,3.14265,564.3375],[22.99734,3.15864,553.1801],[23.00431,3.16268,548.5929],[23.01475,3.16709,544.5962],[23.02607,3.17035,567.8433],[23.03847,3.17198,550.2988],[23.05025,3.17066,525.1207],[23.06141,3.16616,472.0007],[23.07139,3.1549,464.5351],[23.07821,3.13893,483.1537],[23.07991,3.1127,517.2967],[23.07821,3.09431,524.7414],[23.07464,3.07733,548.7338],[23.06358,3.04607,485.3665],[23.03506,2.98873,538.6852],[23.03056,2.977,549.7775],[23.02746,2.96429,544.2311],[23.0239,2.92781,463.6903],[23.02002,2.91633,473.2647],[23.01444,2.90463,508.4704],[22.99579,2.87902,408.6199],[22.98974,2.86853,447.4561],[22.98602,2.85745,483.5889],[22.98524,2.83789,514.4577],[22.99625,2.74913,522.7271],[22.99346,2.73167,530.7654],[22.9716,2.69599,550.9216],[22.96555,2.68382,506.3764],[22.96431,2.66953,522.2328],[22.96897,2.65309,537.2307],[22.98261,2.62943,522.5288],[23.03894,2.55811,409.0594],[23.06405,2.53258,483.0855],[23.07712,2.52313,466.0771],[23.08891,2.51615,487.5247],[23.09976,2.51111,475.1791],[23.1165,2.50551,460.7833],[23.1271,2.50357,483.1756],[23.13841,2.50287,525.182],[23.15112,2.50341,484.642],[23.29391,2.53344,484.2481],[23.31034,2.53507,429.3214],[23.33158,2.53406,424.8717],[23.34135,2.53165,357.0],[23.34899,2.52848,380.802],[23.36,2.52204,383.3783],[23.37023,2.51383,381.9564],[23.3786,2.50566,380.8404],[23.38264,2.50093,386.9252],[23.3907,2.48869,390.2072],[23.40935,2.46579,399.3562],[23.42237,2.45391,444.5927],[23.44702,2.43732,473.8212],[23.54201,2.39301,536.6979],[23.61492,2.34001,548.0583],[23.62531,2.32963,539.6951],[23.63311,2.31045,518.8863],[23.63916,2.28586,501.6826],[23.64784,2.21395,449.9474],[23.64691,2.19493,407.4553],[23.63869,2.18648,433.0082],[23.62846,2.18354,431.5657],[23.61647,2.18408,444.4562],[23.60515,2.18617,440.3351],[23.59384,2.1895,427.712],[23.53348,2.21658,438.7014],[23.51002,2.22317,451.0941],[23.35468,2.25048,401.0755],[23.34321,2.24917,395.5871],[23.33049,2.2442,418.2389],[23.22513,2.16491,438.7218],[23.12989,2.10835,399.5112],[23.10518,2.09773,397.7717],[23.09139,2.09594,407.876],[23.07867,2.09726,392.3569],[23.06684,2.10207,378.6993],[23.05506,2.11028,378.1143],[22.99268,2.17695,369.6241],[22.98772,2.18098,366.9414],[22.98261,2.18346,358.9072],[22.97749,2.18392,349.5],[22.97439,2.18268,358.6267],[22.97238,2.17951,358.493],[22.97207,2.17336,351.1171],[22.97253,2.16444,370.6744],[22.9716,2.16049,369.902],[22.96881,2.15739,354.9177],[22.964,2.15692,360.5914],[22.95372,2.15762,361.6989],[22.94985,2.15669,354.6378],[22.94783,2.15584,350.1396],[22.94519,2.15382,359.2066],[22.93682,2.14933,366.0656],[22.93574,2.14561,349.0],[22.93512,2.13876,366.9221],[22.93667,2.12581,369.7319],[22.9362,2.12,372.4553],[22.93434,2.11517,371.7648],[22.92566,2.10432,370.7382],[22.92209,2.10122,371.2457],[22.91775,2.09889,370.012],[22.91248,2.09835,352.7499],[22.90706,2.09905,353.1107],[22.90189,2.10029,347.625],[22.89677,2.10091,357.7453],[22.89197,2.10013,357.1271],[22.88856,2.09812,371.5125],[22.88732,2.09571,372.1333],[22.8867,2.09036,371.996],[22.88716,2.076,365.9418],[22.88654,2.07235,363.3069],[22.88453,2.06902,348.1548],[22.8822,2.06755,368.1719],[22.88034,2.06677,363.0861],[22.8698,2.06538,362.4342],[22.86623,2.06329,347.0],[22.86499,2.06096,352.0083],[22.86391,2.05636,347.0],[22.86344,2.0514,358.1262],[22.86143,2.04768,364.428],[22.85957,2.04636,360.3383],[22.85306,2.04566,348.3902],[22.84928,2.04458,349.2892],[22.84618,2.04179,363.9453],[22.84153,2.0344,364.1245],[22.83921,2.03238,369.8788],[22.83595,2.03109,368.6052],[22.81843,2.0314,362.2811],[22.81254,2.03075,350.8873],[22.80804,2.02889,349.9469],[22.79936,2.02362,360.532],[22.78861,2.01913,351.8757],[22.77234,2.01564,350.2663],[22.76241,2.01184,355.1241],[22.75885,2.01107,353.54],[22.75637,2.01122,358.387],[22.75234,2.01246,361.0844],[22.74862,2.01494,358.7612],[22.7449,2.01804,358.8223],[22.73823,2.02502,360.4598],[22.73435,2.02796,356.3719],[22.72981,2.03037,360.2597],[22.72469,2.03176,355.5891],[22.71911,2.03238,362.2082],[22.71368,2.03218,356.8475],[22.70965,2.03156,358.8074],[22.70702,2.03156,360.8039],[22.70376,2.03326,356.6531],[22.69834,2.03768,356.9414],[22.69089,2.04659,345.0],[22.67146,2.07832,353.6294],[22.6648,2.08669,362.8508],[22.65844,2.09184,351.9623],[22.6524,2.09548,351.25],[22.60909,2.11385,344.5],[22.59591,2.11718,351.2356],[22.58491,2.11636,359.2938],[22.57607,2.11013,344.5],[22.57421,2.09874,344.5],[22.57529,2.08561,344.5],[22.58243,2.05925,347.0492],[22.58181,2.0445,364.7559],[22.57979,2.033,363.1102],[22.51788,1.91702,378.9653],[22.51101,1.89717,429.7716],[22.48667,1.73416,439.4019],[22.47783,1.70723,485.0681],[22.4721,1.69442,445.4482],[22.46512,1.68202,472.7932],[22.45613,1.67039,476.9005],[22.43313,1.64695,480.8891],[22.40802,1.62561,446.8094],[22.3349,1.57928,475.5032],[22.31288,1.55758,412.8182],[22.30482,1.54585,386.1431],[22.29846,1.53438,381.5118],[22.29366,1.5235,373.8658],[22.29087,1.51342,372.5216],[22.28994,1.5059,396.639],[22.29319,1.50179,389.7798],[22.29474,1.50048,386.1279],[22.2966,1.50032,387.1956],[22.3228,1.50443,377.2741],[22.32575,1.50428,375.2636],[22.33009,1.50319,382.8701],[22.34347,1.49867,382.5167],[22.34513,1.49851,382.7316],[22.34719,1.49877,380.6549],[22.34952,1.49944,384.937],[22.35185,1.50037,381.641],[22.35293,1.50099,373.5349],[22.35929,1.50397,365.9849],[22.36316,1.50435,381.9308],[22.36564,1.50397,382.2372],[22.37758,1.49735,385.2841],[22.38177,1.4965,389.4766],[22.38502,1.49634,390.166],[22.39386,1.49696,378.3083],[22.39701,1.49681,372.5569],[22.40135,1.49572,375.6648],[22.41592,1.49053,374.3588],[22.42755,1.48968,379.3505],[22.43406,1.4882,372.8655],[22.43964,1.48472,384.9735],[22.44631,1.4782,388.0916],[22.45148,1.4741,384.3603],[22.46124,1.46888,387.4965],[22.46605,1.46709,389.668],[22.47117,1.46578,391.8951],[22.48264,1.46547,378.3838],[22.48806,1.46446,380.3336],[22.49256,1.46206,388.174],[22.50341,1.45167,379.1347],[22.50698,1.44919,382.4703],[22.53462,1.43599,388.4583],[22.54284,1.4304,384.2245],[22.56098,1.40852,402.7332],[22.56517,1.40449,403.2085],[22.57374,1.39937,407.4638],[22.57979,1.39464,408.6511],[22.58677,1.38782,407.9394],[22.59839,1.37346,406.2576],[22.60646,1.36757,401.6591],[22.6139,1.36439,402.4992],[22.6217,1.35832,403.4994],[22.62992,1.34723,408.6328],[22.65627,1.28442,394.4423],[22.66526,1.27026,405.0646],[22.67896,1.23512,415.7576],[22.68764,1.22442,400.6725],[22.69849,1.21414,412.9412],[22.70314,1.20804,408.4854],[22.7295,1.16412,394.2888],[22.73694,1.14272,418.1427],[22.74583,1.12298,402.8067],[22.75203,1.10314,403.2891],[22.75451,1.09818,403.9818],[22.75807,1.09384,401.2151],[22.76458,1.08841,402.0115],[22.76924,1.0819,402.6714],[22.77327,1.06939,402.5653],[22.77482,1.06071,404.8203],[22.77807,1.05084,414.2966],[22.78319,1.04107,405.3149],[22.8082,1.00764,405.9128],[22.81177,0.99978,405.3093],[22.81626,0.98475,421.4196],[22.81766,0.97529,421.9274],[22.81766,0.96738,411.2692],[22.81316,0.95147,425.5008],[22.81254,0.94558,410.4514],[22.8127,0.93953,411.2381],[22.81952,0.91348,432.6715],[22.8189,0.90687,440.0896],[22.81766,0.90139,432.9651],[22.81719,0.89669,419.5527],[22.81874,0.89147,427.3404],[22.83099,0.86377,422.3591],[22.83781,0.84289,424.3749],[22.85399,0.8092,421.7704],[22.85848,0.79401,407.1456],[22.85383,0.76331,434.6741],[22.85104,0.70854,443.4122],[22.85321,0.69691,422.8966],[22.85895,0.67846,440.1582],[22.87088,0.66006,410.3251],[22.89755,0.62585,431.229],[22.91403,0.60823,420.5135],[22.91837,0.60074,440.8365],[22.93062,0.56612,427.9052],[22.93884,0.5101,506.5987],[22.94643,0.47889,516.3646],[22.97315,0.41372,491.949],[22.99718,0.37595,545.78],[23.0717,0.28887,450.163],[23.08364,0.27177,501.5898],[23.12301,0.18402,536.1945],[23.14229,0.15379,547.5001],[23.24735,0.0323,445.5452],[23.3969,-0.18981,437.2033],[23.40666,-0.21482,431.785],[23.40915,-0.23234,424.2643],[23.40563,-0.24815,426.8056],[23.39488,-0.25952,426.8189],[23.38341,-0.26515,435.7262],[23.37147,-0.26856,418.9231],[23.34693,-0.27306,414.8415],[23.33483,-0.27781,414.6128],[23.32383,-0.28675,420.6516],[23.31484,-0.2975,432.7379],[23.30476,-0.30753,424.5772],[23.29308,-0.31373,429.0792],[23.2799,-0.31512,421.0203],[23.26626,-0.31357,428.3819],[23.25324,-0.31016,422.1433],[23.1904,-0.28567,434.937],[23.16694,-0.279,446.7651],[23.15516,-0.27766,453.9749],[23.14198,-0.27843,440.9694],[23.12999,-0.28215,441.7343],[23.11743,-0.28846,434.6412],[23.09216,-0.30587,435.7432],[22.98416,-0.39693,406.8619],[22.97935,-0.40349,414.5283],[22.98462,-0.407,414.2212],[22.99361,-0.40917,413.8262],[23.19272,-0.42256,404.552],[23.20559,-0.42654,418.9906],[23.21799,-0.43444,423.0956],[23.23944,-0.46938,395.8579],[23.24967,-0.48302,410.0539],[23.26657,-0.49046,401.733],[23.28114,-0.4917,402.1104],[23.29525,-0.48994,390.4086],[23.43338,-0.44002,400.495],[23.44516,-0.43801,410.2613],[23.46113,-0.44592,400.9115],[23.47994,-0.46354,398.0529],[23.57461,-0.58627,431.013],[23.61771,-0.62539,453.7519],[23.6236,-0.63593,436.2555],[23.62112,-0.64673,437.0703],[23.61291,-0.65588,432.9251],[23.60159,-0.6628,422.618],[23.58903,-0.66714,432.3373],[23.56092,-0.67241,427.2444],[23.51141,-0.68631,408.2956],[23.49451,-0.69391,417.9906],[23.3724,-0.78662,417.0725],[23.36589,-0.79897,418.7091],[23.36729,-0.81396,403.6473],[23.38264,-0.83695,430.066],[23.40687,-0.86491,422.6257],[23.56867,-0.99942,451.155],[23.65373,-1.0372,412.6691],[23.70572,-1.06882,458.1816],[23.7192,-1.07952,431.5146],[23.73176,-1.09197,436.9807],[23.74587,-1.1144,451.5204],[23.76127,-1.15631,462.7211],[23.76793,-1.16727,463.3178],[23.77801,-1.17745,435.2519],[23.82349,-1.19652,394.0125],[23.83589,-1.20365,461.4683],[23.98425,-1.32545,410.0805],[24.07004,-1.37232,416.7272],[24.09319,-1.38085,428.1738],[24.11706,-1.38638,417.76369999999997],[24.14099,-1.38906,487.588],[24.26759,-1.38162,507.3398],[24.28015,-1.38296,456.5406],[24.29302,-1.38953,536.3596],[24.30511,-1.40157,501.014],[24.33958,-1.47459,575.7822],[24.36423,-1.51376,508.422],[24.37126,-1.53019,442.5421],[24.39002,-1.59298,496.9516],[24.42154,-1.78676,591.8519],[24.43286,-1.81736,571.1772],[24.45068,-1.93869,581.8555],[24.83583,-1.95621,491.3992],[24.88843,-1.94577,477.6388],[24.98481,-1.93564,468.9275],[25.00434,-1.93626,463.8026],[25.01349,-1.93962,469.1299],[25.01225,-1.94691,480.9536],[25.01582,-1.94954,470.2177],[25.04191,-1.96479,480.5446],[25.06765,-1.9837,466.1708],[25.07137,-1.9913,467.3586],[25.07323,-2.00008,471.1801],[25.07385,-2.02189,469.324],[25.0707,-2.0328,468.6771],[25.05654,-2.05378,468.452],[25.05339,-2.06313,473.1391],[25.05633,-2.07517,491.9066],[25.06346,-2.08334,480.7067],[25.08129,-2.09357,492.5655],[25.09116,-2.09698,481.0811],[25.09519,-2.09517,481.5674],[25.09891,-2.0962,478.7274],[25.11188,-2.10132,487.0161],[25.1401,-2.10685,475.3629],[25.18852,-2.11088,494.7697],[25.23275,-2.10917,467.3105],[25.26211,-2.10545,431.5943],[25.28598,-2.0993,462.1325],[25.3097,-2.09052,476.7551],[25.32107,-2.08401,469.8788],[25.33208,-2.07465,473.9332],[25.49362,-1.89642,493.856],[25.52462,-1.87182,498.5055],[25.5408,-1.86237,477.2574],[25.55863,-1.85462,496.414],[25.58374,-1.84821,503.3869],[25.60162,-1.84738,493.5419],[25.62053,-1.85058,498.4111],[25.66663,-1.86893,458.456],[25.69268,-1.87492,446.4813],[25.71257,-1.8742,469.2681],[25.76657,-1.86087,461.7492],[25.79665,-1.8587,455.0072],[25.80921,-1.8556,466.3996],[25.81411,-1.84898,493.6201],[25.83453,-1.81865,500.461],[25.84228,-1.79937,489.0203],[25.84445,-1.7787,501.0869],[25.84228,-1.71369,478.64],[25.84517,-1.69199,442.5833],[25.85881,-1.64977,457.0989],[25.86336,-1.62807,475.3452],[25.86347,-1.60533,481.352],[25.85701,-1.56218,480.736],[25.85654,-1.43438,468.7425],[25.86083,-1.39878,488.3379],[25.85964,-1.3917,472.5099],[25.86212,-1.39366,480.7783],[25.87173,-1.40431,490.4295],[25.8893,-1.42089,480.9899],[25.8924,-1.42477,511.1098],[25.89892,-1.43883,477.4961],[25.9014,-1.44306,475.149],[25.90419,-1.44709,476.004],[25.91132,-1.45392,483.2778],[25.9155,-1.45655,493.7057],[25.92982,-1.4628,497.5894],[25.93323,-1.46559,488.906],[25.93395,-1.46947,432.5],[25.93364,-1.47412,469.5462],[25.93385,-1.47862,485.7208],[25.93571,-1.48265,484.9366],[25.94021,-1.48456,482.8677],[25.94625,-1.48528,485.4765],[25.9523,-1.48534,474.1231],[25.95803,-1.48606,469.6141],[25.96997,-1.48962,497.0677],[25.97819,-1.49081,504.7634],[25.99235,-1.49097,480.6414],[25.99855,-1.4904,492.2815],[26.00428,-1.48849,493.0922],[26.00769,-1.4859,491.1471],[26.01374,-1.48006,503.6077],[26.01684,-1.47536,510.559],[26.0187,-1.47009,500.9055],[26.0201,-1.45919,503.6449],[26.02242,-1.45355,517.9523],[26.03234,-1.4412,509.8365],[26.03513,-1.43547,496.1066],[26.0356,-1.42973,498.4598],[26.03389,-1.42467,495.9055],[26.0249,-1.40622,466.5812],[26.02754,-1.3994,486.2678],[26.03482,-1.39056,493.2432],[26.05643,-1.3765,484.5645],[26.06526,-1.36834,507.9262],[26.06976,-1.36116,487.5729],[26.07038,-1.34281,456.5],[26.07596,-1.32183,466.3181],[26.07611,-1.31708,457.0],[26.07487,-1.31243,457.0],[26.07069,-1.30302,466.0125],[26.06945,-1.2977,486.7054],[26.06898,-1.29201,484.1594],[26.07115,-1.28586,477.0349],[26.07844,-1.27899,488.205],[26.09286,-1.26974,495.8027],[26.11446,-1.26147,513.3791],[26.12329,-1.25491,459.5],[26.12717,-1.24897,492.1257],[26.12609,-1.24375,489.8643],[26.12422,-1.23863,488.892],[26.12283,-1.23367,463.7472],[26.12438,-1.22783,497.4785],[26.12857,-1.22489,495.1769],[26.13508,-1.22313,490.3476],[26.13802,-1.21791,495.0925],[26.1388,-1.21279,490.9101],[26.13725,-1.18199,495.7025],[26.13864,-1.16964,498.9582],[26.14283,-1.156,500.171],[26.15399,-1.13848,521.1249],[26.15864,-1.12531,513.6989],[26.15451,-1.11409,526.4342],[26.14717,-1.10365,519.2437],[26.14159,-1.09259,514.8153],[26.1388,-1.08123,514.9996],[26.1467,-0.99704,512.3019],[26.15151,-0.97761,531.9255],[26.15668,-0.96609,527.6205],[26.17203,-0.95116,528.1234],[26.24897,-0.90961,540.5244],[26.27321,-0.89261,514.4753],[26.28778,-0.87741,515.8756],[26.29135,-0.8646,539.0915],[26.29212,-0.85116,508.9417],[26.29166,-0.83742,510.0078],[26.26292,-0.63464,528.2443],[26.26416,-0.62229,527.3191],[26.26758,-0.6102,536.8813],[26.27383,-0.59784,533.4897],[26.28251,-0.58549,533.6245],[26.29274,-0.57387,539.6789],[26.38054,-0.49568,611.4322],[26.39454,-0.47806,585.4666],[26.40261,-0.46163,578.1971],[26.40261,-0.44933,583.0033],[26.39982,-0.43718,560.6683],[26.39392,-0.42478,568.6306],[26.38648,-0.4132,567.9586],[26.36597,-0.39114,545.769],[26.25827,-0.31698,547.343],[26.21435,-0.26903,514.4677],[26.16613,-0.22546,508.3201],[26.11647,-0.18965,514.2458],[26.11136,-0.17384,545.2561],[26.11198,-0.1526,514.7117],[26.13585,-0.11219,519.2709],[26.14655,-0.09803,506.4496],[26.15699,-0.09043,510.8986],[26.16226,-0.09012,506.3235],[26.16753,-0.09054,515.2464],[26.17203,-0.0924,511.9975],[26.17575,-0.09524,504.2513],[26.17885,-0.09881,515.2801],[26.18303,-0.10129,506.1209],[26.1928,-0.10433,496.7526],[26.19606,-0.10775,508.0154],[26.19854,-0.11219,508.0974],[26.20024,-0.11715,503.0309],[26.20334,-0.12103,497.5419],[26.20737,-0.12371,504.7162],[26.21735,-0.12754,521.7235],[26.2282,-0.13038,501.9819],[26.23238,-0.13312,500.6014],[26.25347,-0.15265,498.0822],[26.26122,-0.15756,509.4605],[26.26499,-0.16051,504.9486],[26.26809,-0.16438,504.9284],[26.27037,-0.16888,521.7147],[26.27445,-0.17859,511.7004],[26.27739,-0.18237,525.1932],[26.28127,-0.18495,522.5402],[26.29755,-0.18479,518.0651],[26.30235,-0.18634,516.0594],[26.30623,-0.18903,505.9204],[26.30995,-0.19224,503.9496],[26.31274,-0.19622,511.8676],[26.31507,-0.20076,529.0953],[26.33016,-0.24066,531.1254],[26.33326,-0.24469,536.115],[26.33744,-0.24722,540.0548],[26.34488,-0.24737,533.6864],[26.34953,-0.24799,519.1116],[26.35325,-0.25079,512.1127],[26.36085,-0.26401,626.5308],[26.38555,-0.28737,636.8347],[26.38974,-0.28985,593.7538],[26.39485,-0.29171,573.0013],[26.41222,-0.29471,541.8171],[26.41718,-0.29667,549.6047],[26.42105,-0.29952,542.3912],[26.42384,-0.30365,544.736],[26.42571,-0.30861,526.775],[26.43113,-0.33063,518.2958],[26.43304,-0.33564,522.3502],[26.43532,-0.34019,523.2198],[26.44979,-0.36013,530.8975],[26.4532,-0.36354,535.55],[26.45692,-0.36659,529.6733],[26.46157,-0.36881,530.142],[26.46668,-0.37052,538.5991],[26.47258,-0.3714,529.3759],[26.47893,-0.37145,529.0494],[26.49102,-0.37,521.1069],[26.50844,-0.36623,522.1612],[26.5441,-0.36416,529.854],[26.55546,-0.36561,531.814],[26.56539,-0.36339,546.6576],[26.57779,-0.35863,547.9004],[26.60078,-0.34577,556.4822],[26.61226,-0.33729,543.1168],[26.62125,-0.32892,554.6768],[26.63055,-0.31848,564.8116],[26.6366,-0.31306,569.0505],[26.64233,-0.30923,587.1664],[26.64745,-0.30742,597.3394],[26.65303,-0.30618,625.6954],[26.69788,-0.30365,538.5134],[26.70967,-0.29869,618.4744],[26.77643,-0.25766,656.4794],[26.7876,-0.25228,661.7393],[26.79287,-0.25228,664.3547],[26.79798,-0.25352,670.2736],[26.80713,-0.25787,693.9614],[26.81287,-0.25936,630.8885],[26.82,-0.25921,581.844],[26.8293,-0.25647,559.6417],[26.83462,-0.25285,562.0684],[26.83788,-0.24815,563.6447],[26.83896,-0.24329,558.7525],[26.8385,-0.23807,603.5599],[26.83664,-0.23353,619.4843],[26.83178,-0.22459,663.5359],[26.83054,-0.21921,654.5688],[26.83137,-0.21285,685.6121],[26.83617,-0.20526,720.9523],[26.84129,-0.20195,708.9509],[26.84687,-0.20133,690.6851],[26.85152,-0.20304,687.433],[26.85539,-0.20588,694.5255],[26.86609,-0.21575,684.8203],[26.87818,-0.22422,672.1708],[26.88335,-0.22639,659.226],[26.88986,-0.22753,554.4294],[26.90071,-0.22588,558.9685],[26.90769,-0.22676,562.1361],[26.9125,-0.22918,563.0136],[26.92722,-0.24252,601.8085],[26.93513,-0.24841,626.9007],[26.95286,-0.25802,640.684],[26.96324,-0.26097,641.4526],[26.96898,-0.26159,630.7902],[26.99161,-0.26019,650.5033],[26.99632,-0.26138,647.827],[26.99952,-0.26298,655.7391],[27.00205,-0.26484,680.0012],[27.01058,-0.27518,672.5232],[27.01756,-0.2821,664.0181],[27.02159,-0.28474,683.51],[27.02608,-0.28711,691.791],[27.036,-0.29078,703.8607],[27.04484,-0.29564,697.2543],[27.05275,-0.30132,690.4724],[27.05616,-0.30463,712.0153],[27.06241,-0.31244,723.2596],[27.06458,-0.31709,708.2623],[27.06505,-0.32241,676.8109],[27.06334,-0.33249,664.1142],[27.0635,-0.3375,692.9553],[27.0652,-0.34199,688.3638],[27.07032,-0.35068,702.5879],[27.07636,-0.35832,724.4716],[27.09063,-0.37145,711.3989],[27.09497,-0.37372,736.4391],[27.10959,-0.37967,728.5306],[27.11362,-0.38256,739.5797],[27.11657,-0.38644,709.088],[27.12292,-0.40065,737.1227],[27.12571,-0.40483,741.4143],[27.12912,-0.4083,753.2958],[27.13285,-0.41134,763.9066],[27.14246,-0.41537,720.5405],[27.14804,-0.41646,713.2136],[27.153,-0.41853,733.2746],[27.16561,-0.42638,759.2422],[27.18003,-0.43227,752.7704],[27.2239,-0.44013,737.1591],[27.29315,-0.44561,741.4203],[27.31826,-0.45455,765.7833],[27.32276,-0.45697,767.897],[27.33909,-0.46783,758.4213],[27.34234,-0.47155,765.2958],[27.34668,-0.481,767.2785],[27.34932,-0.48534,778.3055],[27.35242,-0.48901,772.3054],[27.35939,-0.49537,750.973],[27.36296,-0.49785,787.751],[27.36575,-0.4993,780.4963],[27.36746,-0.50007,748.0968],[27.3797,-0.5024,785.3894],[27.4058,-0.49759,788.7807],[27.46259,-0.47899,819.3447],[27.46864,-0.47868,801.6013],[27.47453,-0.47925,803.4792],[27.47996,-0.48049,804.7964],[27.48476,-0.4825,806.0243],[27.48895,-0.48519,814.103],[27.49236,-0.48855,804.0875],[27.49515,-0.49232,810.7596],[27.50182,-0.50741,810.3347],[27.50419,-0.51118,846.4091],[27.50714,-0.51501,832.5161],[27.51101,-0.51816,818.544],[27.51551,-0.52017,807.0388],[27.52078,-0.52121,833.1319],[27.56316,-0.51738,862.3854],[27.583,-0.51816,865.3709],[27.59478,-0.52043,890.0381],[27.66852,-0.55237,877.0003],[27.71348,-0.56575,944.7764],[27.73028,-0.56705,1050.2743],[27.78438,-0.53604,923.5079],[27.81637,-0.51134,880.9204],[27.87177,-0.45207,844.0123],[27.89456,-0.41693,816.3278],[27.91833,-0.37005,781.9951],[27.93988,-0.34003,777.4534],[27.95559,-0.32489,751.2599],[27.97016,-0.31481,760.5442],[28.00897,-0.30132,736.5715],[28.02463,-0.29419,741.6705],[28.07925,-0.25833,747.1202],[28.09522,-0.24257,745.0609],[28.1056,-0.22872,749.2922],[28.11382,-0.20629,739.011],[28.11987,-0.182,792.5199],[28.1224,-0.16087,765.2327],[28.12131,-0.15451,764.2287],[28.11211,-0.12914,737.3451],[28.10979,-0.11762,736.6377],[28.10839,-0.09276,760.7279],[28.10762,-0.08671,751.7935],[28.10033,-0.06563,749.3899],[28.09785,-0.05426,745.3213],[28.09413,0.00016,766.2628],[28.09041,0.014,782.8706],[28.08979,0.01938,764.8716],[28.09382,0.0416,747.4418],[28.09413,0.0478,750.7928],[28.09878,0.06971,743.4186],[28.09878,0.08134,738.9504],[28.10002,0.08811,740.1837],[28.10498,0.10547,711.7511],[28.10839,0.11095,741.2527],[28.11273,0.11493,717.0609],[28.12426,0.12082,720.7045],[28.13216,0.12883,729.2804],[28.13635,0.13798,722.4514],[28.14085,0.15327,728.6343],[28.14069,0.1617,697.4278],[28.13945,0.16841,711.9217],[28.13713,0.17286,711.3992],[28.13418,0.17699,722.8881],[28.13092,0.18051,700.8901],[28.12364,0.18681,713.8676],[28.121,0.19043,717.2059],[28.12049,0.19622,708.6321],[28.12255,0.21394,728.3396],[28.121,0.22014,754.4471],[28.1179,0.22464,806.7902],[28.11366,0.22722,847.768],[28.09754,0.23146,718.7565],[28.09274,0.23342,778.9603],[28.08839,0.23595,763.7402],[28.08142,0.24257,708.6659],[28.07832,0.24645,722.193],[28.07475,0.2497,753.6429],[28.07181,0.25368,791.6248],[28.06948,0.25807,724.4012],[28.06323,0.2727,725.2336],[28.05424,0.31187,681.5536],[28.05346,0.31812,691.1141],[28.0561,0.36199,683.1508],[28.05532,0.36954,686.9984],[28.05362,0.37476,681.6999],[28.05098,0.37894,744.4667],[28.04214,0.38504,731.3452],[28.03889,0.39036,679.9617],[28.03858,0.40153,627.699],[28.04075,0.40876,666.8895],[28.04447,0.41563,752.078],[28.0454,0.4209,744.175],[28.04431,0.42566,718.1382],[28.04121,0.42938,679.5597],[28.0285,0.43692,664.5765],[28.02571,0.44111,683.0375],[28.02432,0.44654,664.4794],[28.02339,0.45243,623.812],[28.02168,0.4577,621.1877],[28.01873,0.46157,654.211],[28.01455,0.464,613.125],[28.00959,0.46524,640.9395],[28.00504,0.46695,651.2328],[28.00209,0.46974,664.5156],[27.99853,0.47558,636.6583],[27.99558,0.47796,638.3214],[27.99109,0.47842,641.5467],[27.96287,0.47408,738.0234],[27.95698,0.47465,719.2677],[27.95171,0.47594,695.7008],[27.93802,0.48276,631.9756],[27.92747,0.48581,628.9411],[27.92282,0.48788,638.7087],[27.91879,0.49036,632.1704],[27.91507,0.49191,633.5152],[27.9112,0.49082,631.3029],[27.90779,0.48834,634.1063],[27.90437,0.48643,631.4257],[27.90065,0.48695,625.2958],[27.89724,0.48907,620.349],[27.89321,0.49036,597.5],[27.88913,0.48943,620.9652],[27.88153,0.484,628.2009],[27.87735,0.48219,625.4112],[27.87239,0.4825,611.6123],[27.86355,0.48674,621.1304],[27.85843,0.48839,635.5881],[27.84169,0.49201,605.743],[27.8372,0.49429,629.8898],[27.83373,0.49687,637.7505],[27.83001,0.50028,629.0347],[27.81807,0.50927,622.0573],[27.78862,0.52777,621.2169],[27.75291,0.53935,637.5737],[27.74795,0.54389,623.6465],[27.74392,0.55066,584.0],[27.74159,0.56539,611.8789],[27.74407,0.5719,608.1965],[27.74873,0.57573,607.9175],[27.76082,0.57748,608.5626],[27.7664,0.57924,615.9855],[27.77741,0.5842,634.5446],[27.78314,0.58441,633.6737],[27.81652,0.58208,635.2392],[27.86789,0.58916,634.5529],[27.8806,0.59247,653.5057],[27.89363,0.59753,654.939],[27.9067,0.60425,654.0278],[27.91864,0.61355,628.3099],[27.96194,0.65944,644.9869],[27.9731,0.6674,653.0211],[28.00959,0.68404,656.2501],[28.06261,0.70047,646.6342],[28.33525,0.73965,744.0105],[28.34988,0.73985,794.4087],[28.36367,0.73809,814.9062],[28.37701,0.7336,775.8082],[28.38987,0.72642,786.7997],[28.4138,0.70528,795.2646],[28.4816,0.62854,787.5075],[28.50036,0.61314,821.0023],[28.52118,0.5995,818.485],[28.53374,0.59361,828.9852],[28.54583,0.58937,844.6877],[28.55793,0.58679,853.5694],[28.57085,0.5858,888.7679],[28.58371,0.58735,910.2266],[28.73668,0.62467,880.3848],[28.81677,0.63133,865.2063],[28.92881,0.62399,873.7216],[28.97087,0.61567,892.4673],[29.01366,0.61386,938.1086],[29.03092,0.61965,904.5619],[29.052,0.63009,916.1406],[29.10663,0.66456,847.3997],[29.13598,0.67918,869.5415],[29.14885,0.68383,848.6006],[29.16869,0.68652,806.6058],[29.18636,0.68533,865.7634],[29.19789,0.68254,954.6755],[29.2106,0.67784,898.1016],[29.22393,0.66999,843.3466],[29.24615,0.65174,905.5614],[29.24863,0.65014,907.5117],[29.25406,0.64926,918.0165],[29.26491,0.64952,943.895],[29.29437,0.65779,1007.2911],[29.3076,0.65794,939.8126],[29.32015,0.65422,932.0758],[29.33302,0.64802,927.8856],[29.37199,0.62389,954.5176],[29.38516,0.61841,954.3691],[29.40129,0.61821,988.3081],[29.42025,0.62368,994.1063],[29.45048,0.63965,1038.4443],[29.46738,0.65335,1047.0138],[29.47813,0.66735,1061.5762],[29.47704,0.67898,1050.7007],[29.4696,0.68973,1032.5428],[29.45854,0.6966,1022.9823],[29.40857,0.71091,963.2223],[29.39663,0.71639,948.8636],[29.38501,0.72404,936.4446],[29.37478,0.73417,938.0947],[29.36702,0.74502,937.5262],[29.36191,0.75634,958.7811],[29.36036,0.76812,970.8225],[29.36253,0.78109,980.6073],[29.36656,0.79365,950.3786],[29.37943,0.8184,930.6241],[29.39524,0.84258,947.3007],[29.40439,0.85282,1037.2662],[29.41545,0.85757,1002.124],[29.42878,0.85752,987.1431],[29.44227,0.85323,958.3679],[29.51239,0.82166,1039.6653],[29.52329,0.81902,1061.1244],[29.53756,0.81768,1047.1859],[29.55244,0.81871,1034.787],[29.56872,0.82548,1056.0686],[29.576,0.83628,1038.2],[29.57962,0.86098,1033.256],[29.58753,0.87473,1060.4995],[29.59807,0.8801,1069.5459],[29.60908,0.88196,1081.3728],[29.63951,0.88,1307.6848],[29.67703,0.88356,1150.3901],[29.70406,0.87948,1340.4043],[29.71863,0.88062,1291.4929],[29.73553,0.88744,1117.649],[29.74938,0.89757,1133.9729],[29.78224,0.93209,1148.614],[29.79279,0.93865,1150.118],[29.83857,0.95772,1277.0808],[29.84927,0.96061,1352.8584],[29.85909,0.95834,1409.2582],[29.86684,0.94893,1415.7153],[29.88684,0.91044,937.5858],[29.89521,0.89871,838.347],[29.90575,0.88806,837.9003],[29.91728,0.88052,848.1495],[29.98182,0.8492,678.5034],[29.98219,0.84902,678.5034],[29.99639,0.85995,697.7269],[30.03835,0.87891,668.9053],[30.14512,0.90315,651.652],[30.15483,0.90868,650.0474],[30.16568,0.92144,647.7185],[30.18348,0.9546,645.1053],[30.18377,0.95514,645.1053],[30.18687,0.95875,645.8854],[30.19152,0.97488,644.7306],[30.21405,0.99854,641.094],[30.22098,1.0171,639.2535],[30.2156,1.05777,635.3606],[30.21529,1.07709,633.5823],[30.228,1.08903,632.959],[30.23152,1.09776,632.4038],[30.2341,1.1081,632.413],[30.23617,1.12949,632.7573],[30.23886,1.136,633.212],[30.26935,1.16727,642.6225],[30.27798,1.17161,632.1636],[30.2865,1.1743,629.616],[30.2957,1.17264,629.0464],[30.30655,1.16391,628.9287],[30.32381,1.15585,627.1978],[30.33606,1.16887,626.0326],[30.3482,1.18902,626.2294],[30.36495,1.20205,626.35],[30.37663,1.20308,624.1068],[30.39926,1.2006,623.197],[30.4127,1.20205,623.1483],[30.43161,1.20701,622.2897],[30.44556,1.2128,620.243],[30.45827,1.22168,620.0],[30.47827,1.23863,620.0],[30.5537,1.33563,620.0],[30.59728,1.39167,620.0],[30.68172,1.50035,620.0],[30.81701,1.60952,620.0],[30.95442,1.72067,620.0],[31.02584,1.77824,620.0],[31.07554,1.84065,620.0],[31.09602,1.86636,620.0],[31.11911,1.89536,620.0],[31.1833,1.97621,620.0],[31.24283,2.05117,620.0],[31.27146,2.103,620.0],[31.2801,2.15144,620.0],[31.28045,2.15341,620.0],[31.27874,2.15602,620.0],[31.26748,2.17325,630.1141],[31.21089,2.20534,979.5202],[31.19012,2.22152,1001.7603],[31.18247,2.23873,1020.6898],[31.17906,2.25976,1032.8708],[31.17756,2.30291,1021.8315],[31.12924,2.28467,1374.2241],[31.1126,2.28208,1386.2656],[31.09906,2.2827,1413.7771],[31.05524,2.29025,1543.2617],[31.04067,2.2979,1541.9801],[31.0355,2.30694,1589.3641],[31.03881,2.31097,1565.2488],[31.04439,2.31392,1504.9766],[31.04594,2.31965,1482.9042],[31.04356,2.32704,1463.0562],[31.04129,2.33123,1478.1798],[30.98486,2.39464,1480.7524],[30.96801,2.40544,1512.795],[30.93091,2.40559,1583.5579],[30.91447,2.37815,1616.5924],[30.90057,2.34596,1676.0706],[30.87179,2.33206,1672.4021],[30.85494,2.3397,1665.7615],[30.83634,2.35634,1577.9843],[30.8198,2.37598,1564.7599],[30.80967,2.39236,1598.7666],[30.80699,2.40699,1577.4426],[30.80714,2.42218,1558.2437],[30.80492,2.43437,1617.1697],[30.795,2.44011,1594.6927],[30.72493,2.44078,1669.613],[30.71056,2.44512,1619.3735],[30.70767,2.46228,1618.5558],[30.71676,2.48311,1596.1409],[30.72937,2.50347,1607.2856],[30.73702,2.51954,1596.8036],[30.73784,2.53747,1608.4843],[30.73402,2.57447,1594.0057],[30.73526,2.59307,1565.4479],[30.73939,2.6033,1550.7183],[30.75893,2.63379,1478.9575],[30.76125,2.6416,1500.4932],[30.76201,2.64578,1520.1407],[30.7643,2.65839,1494.5541],[30.77078,2.67585,1473.2271],[30.79769,2.74836,1447.8317],[30.79893,2.75353,1381.5554],[30.79913,2.76345,1395.0399],[30.80161,2.76908,1407.5741],[30.80585,2.77187,1402.5614],[30.81794,2.7742,1418.2764],[30.82187,2.77616,1418.1072],[30.82869,2.78608,1388.7524],[30.85339,2.85337,1332.8313],[30.85484,2.89321,1335.5001],[30.84399,2.93279,1304.3337],[30.82094,2.97315,1286.5295],[30.80363,2.98907,1271.314],[30.75707,3.02147,1269.4471],[30.74508,3.0363,1279.8077],[30.74384,3.05547,1287.3533],[30.74787,3.07671,1277.929],[30.76342,3.12344,1263.269],[30.8042,3.246,1242.0974],[30.82213,3.2814,1220.7073],[30.82575,3.28368,1214.4828],[30.83779,3.28642,1237.6619],[30.84244,3.28874,1231.0742],[30.84564,3.29391,1215.5833],[30.84688,3.3044,1218.6162],[30.84869,3.30926,1206.8221],[30.86848,3.34334,1229.3975],[30.89732,3.37501,1216.396],[30.90493,3.38604,1241.4253],[30.91003,3.39341,1225.9587],[30.91633,3.41481,1240.1158],[30.91447,3.42648,1239.4919],[30.90445,3.44747,1247.108],[30.9029,3.45891,1239.1912],[30.90962,3.48718,1227.5183],[30.90931,3.49614,1247.2805],[30.89639,3.51997,1181.9272],[30.88016,3.51441,1158.9167],[30.86125,3.49821,1187.0277],[30.83954,3.4902,1214.7705],[30.82766,3.5111,1229.1213],[30.83768,3.56268,1222.925],[30.82321,3.58043,1230.7139],[30.7921,3.5927,1211.7627],[30.77908,3.6026,1176.9255],[30.77226,3.61756,1204.9731],[30.76916,3.65185,1184.5005],[30.76513,3.66172,1189.1006],[30.74694,3.67487,1099.2599],[30.73133,3.6635,1162.2435],[30.71464,3.64381,1196.243],[30.69335,3.63195,1215.0881],[30.66539,3.63205,1221.6403],[30.65377,3.63061,1190.0739],[30.63646,3.6241,1185.7854],[30.60493,3.60668,1180.9301],[30.59243,3.60353,1169.5695],[30.57263,3.60105,1187.2126],[30.56225,3.60136,1196.5123],[30.55346,3.60451,1197.072],[30.54302,3.61291,1181.6952],[30.54344,3.61787,1191.936],[30.54933,3.6241,1207.1906],[30.55491,3.63639,1200.0602],[30.56225,3.67533,1180.1323],[30.56287,3.69487,1181.8076],[30.53889,3.84155,1085.0178],[30.52525,3.86754,1053.7933],[30.51553,3.87085,1022.572],[30.50551,3.86976,986.6125],[30.49548,3.86708,957.0261],[30.48587,3.86558,933.0376],[30.46572,3.8661,970.1215],[30.45683,3.86759,955.3987],[30.41895,3.87971,938.5472],[30.33792,3.92788,935.7744],[30.27095,3.94945,940.2889],[30.20589,3.95038,1023.885],[30.18935,3.95609,926.2385],[30.18212,3.96552,960.6425],[30.18046,3.97565,907.4144],[30.18036,3.98622,905.608],[30.17809,3.9971,891.7228],[30.17157,4.00818,895.5189],[30.14749,4.03665,881.9604],[30.1385,4.0597,869.7792],[30.13302,4.0828,889.0962],[30.12269,4.10246,908.2712],[30.0998,4.1151,891.7569],[30.05778,4.12365,865.90239999999994],[30.0429,4.13311,864.1432],[30.02791,4.15445,870.3348],[30.00476,4.19928,877.025],[29.98936,4.21778,895.6457],[29.96601,4.23181,876.2237],[29.95417,4.23383,894.2416],[29.94265,4.23377,879.0488],[29.93216,4.23615,893.1987],[29.92415,4.24558,889.4377],[29.92322,4.25775,871.8606],[29.92931,4.26837,879.7885],[29.93686,4.27832,870.315],[29.94012,4.28834,877.2618],[29.93035,4.30865,886.7214],[29.90849,4.32919,883.552],[29.8827,4.34403,878.2783],[29.86069,4.34728,859.9312],[29.81485,4.34676,847.0754],[29.78782,4.3688,884.0189],[29.7762,4.40562,851.144],[29.77677,4.44934,868.3672],[29.78565,4.47937,864.9586],[29.787,4.48968,863.901],[29.78545,4.49856,872.7311],[29.77852,4.5151,905.1018],[29.7777,4.52386,908.0309],[29.78369,4.53383,928.4194],[29.7883,4.53937,933.9036],[29.7933,4.54538,943.4207],[29.79671,4.55603,958.4343],[29.78462,4.56329,940.8652],[29.77449,4.5675,940.3378],[29.75175,4.58127,922.6379],[29.74514,4.58391,909.8931],[29.72292,4.5782,993.9609],[29.71532,4.57967,952.7698],[29.7008,4.5883,892.4937],[29.67186,4.61398,908.8262],[29.66029,4.62212,930.3497],[29.61853,4.64158,895.8013],[29.60675,4.6439,890.0485],[29.57667,4.64445,881.7271],[29.54639,4.65737,905.1885],[29.53502,4.6607,903.2464],[29.52882,4.65987,914.4695],[29.51327,4.65215,896.3491],[29.50846,4.65535,893.0698],[29.49813,4.66561,875.3474],[29.4941,4.66829,877.3512],[29.4726,4.6722,872.6663],[29.45761,4.66954,880.6946],[29.44924,4.65706,870.6434],[29.44676,4.62212,814.1794],[29.44366,4.60471,804.5609],[29.44459,4.59448,813.671],[29.44273,4.58344,809.0725],[29.42392,4.56605,846.8665],[29.4173,4.55549,810.5044],[29.4109,4.53228,790.395],[29.40263,4.51208,782.1862],[29.39023,4.49376,764.9648],[29.33886,4.44955,777.9541],[29.32894,4.43492,755.5897],[29.31871,4.41108,755.291],[29.30393,4.38715,796.2415],[29.28739,4.38358,800.838],[29.26744,4.38787,815.4401],[29.24285,4.38736,780.6554],[29.23158,4.37555,784.811],[29.22869,4.35671,775.3301],[29.2213,4.34069,798.9942],[29.19613,4.33707,786.827],[29.1735,4.348,782.977],[29.10983,4.41237,771.9032],[29.09856,4.42053,781.6982],[29.05888,4.43769,778.3704],[29.05598,4.4365,784.4294],[29.05319,4.45079,786.8701],[29.04234,4.45534,781.5531],[28.99407,4.48745,821.8553],[28.98622,4.49593,787.6852],[28.92555,4.48081,801.2159],[28.90364,4.47859,790.9975],[28.8562,4.48247,799.1498],[28.82571,4.47838,779.8162],[28.81527,4.47828,787.7171],[28.78995,4.48859,768.4646],[28.7851,4.50799,772.7505],[28.78365,4.53037,765.1703],[28.76918,4.54978,751.3987],[28.75543,4.55399,730.3336],[28.74685,4.54931,746.2389],[28.73817,4.54089,755.3796],[28.72453,4.53399,762.8933],[28.70407,4.53399,720.0746],[28.69518,4.53259,739.4921],[28.65373,4.4527,710.8634],[28.63864,4.43208,735.9512],[28.62366,4.42237,747.252],[28.58242,4.41263,739.9784],[28.57053,4.40511,730.0521],[28.56671,4.39413,745.4079],[28.56428,4.3826,765.1417],[28.55731,4.37353,754.092],[28.54821,4.37082,761.2057],[28.5385,4.37183,770.4962],[28.52878,4.37384,762.5464],[28.51927,4.37441,775.4728],[28.49684,4.36901,767.0781],[28.48243,4.35899,775.445],[28.44393,4.3085,751.8093],[28.42543,4.29082,776.7317],[28.40414,4.27783,761.9874],[28.3815,4.2753,757.6685],[28.35742,4.28287,746.4372],[28.3491,4.29235,753.8447],[28.34585,4.30638,740.3306],[28.33685,4.32749,729.9249],[28.30316,4.35224,729.014],[28.26104,4.35038,722.5244],[28.21696,4.34204,706.7874],[28.17759,4.34723,703.3217],[28.15873,4.36079,705.874],[28.14023,4.37932,725.8404],[28.11237,4.41464,713.7873],[28.10834,4.43399,717.454],[28.10173,4.44213,728.7167],[28.08555,4.44332,716.9834],[28.0763,4.43769,712.8744],[28.05976,4.42007,720.3815],[28.04974,4.41914,723.3079],[28.01904,4.46275,710.2924],[28.01419,4.47221,722.855],[28.01124,4.48014,709.2515],[28.00959,4.48838,710.0312],[28.00892,4.49908,723.4413],[28.01212,4.52177,756.556],[28.01708,4.53905,758.662],[28.01403,4.55003,724.9542],[27.96251,4.55745,746.1907],[27.95124,4.55595,734.3036],[27.94453,4.55729,734.3021],[27.93429,4.56817,739.0666],[27.92923,4.56998,726.3802],[27.92034,4.56528,725.291],[27.9161,4.56215,720.8309],[27.91786,4.56076,720.1888],[27.91703,4.55843,713.826],[27.91641,4.55357,729.0837],[27.91404,4.54931,735.9489],[27.90794,4.54869,713.5859],[27.89099,4.55585,706.1958],[27.88551,4.55667,710.7732],[27.85693,4.55246,706.0539],[27.84913,4.55321,711.5861],[27.83766,4.55998,711.8082],[27.81947,4.57957,708.1403],[27.80924,4.58799,717.8708],[27.80138,4.59057,714.2355],[27.77689,4.59574,728.286],[27.77244,4.59582,724.2579],[27.76521,4.61207,715.1351],[27.76077,4.636,729.4],[27.7588,4.67716,751.6136],[27.76686,4.73545,728.8386],[27.76314,4.7571,726.7817],[27.75921,4.76627,712.4779],[27.7526,4.77767,726.37],[27.74423,4.78785,714.3886],[27.73482,4.7932,729.5637],[27.72583,4.79278,728.2427],[27.7065,4.78743,731.752],[27.69906,4.78743,709.0734],[27.68594,4.7979,732.4818],[27.67974,4.81449,740.4031],[27.67188,4.85591,718.648],[27.65876,4.87965,714.6188],[27.64098,4.89094,728.6289],[27.55272,4.90053,716.5253],[27.53256,4.90758,709.3676],[27.51458,4.92244,741.512],[27.5092,4.93244,726.0238],[27.50502,4.95386,723.1839],[27.50135,4.96329,707.9601],[27.49282,4.97303,723.0935],[27.46156,4.99688,715.4502],[27.45453,4.9998,723.2864],[27.44786,5.00347,726.5752],[27.44182,5.00796,709.5751],[27.43634,5.01316,741.8744],[27.44306,5.05778,720.4457],[27.4413,5.07073,703.3916],[27.41484,5.08072,707.9126],[27.40533,5.08284,702.6646],[27.39138,5.09222,693.2108],[27.38032,5.09439,698.6028],[27.3612,5.09548,693.905],[27.35138,5.09734,697.7224],[27.34275,5.10059,690.3015],[27.32865,5.1108,683.038],[27.31573,5.1224,684.5434],[27.30188,5.13199,665.7136],[27.28441,5.13597,668.4183],[27.26281,5.13845,682.0247],[27.23971,5.14488,690.5933],[27.15749,5.18542,667.7354],[27.11636,5.2003,656.9799],[27.07368,5.20333,646.5903],[27.02748,5.18997,644.962],[26.99172,5.17129,633.5582],[26.96164,5.15119,632.3065],[26.93368,5.12659,638.8616],[26.90397,5.09439,631.4931],[26.89922,5.086,629.599],[26.8896,5.06212,625.2479],[26.88413,5.05339,626.0264],[26.87265,5.04179,627.4352],[26.86707,5.03755,615.4266],[26.8493,5.0391,625.6647],[26.84837,5.04137,624.2638],[26.84496,5.04628,624.3536],[26.83948,5.05117,623.455],[26.83266,5.05339,624.546],[26.82615,5.05075,622.2937],[26.81571,5.04018,634.7184],[26.80837,5.0391,626.5382],[26.80186,5.04453,620.2451],[26.76062,5.08811,642.2062],[26.75369,5.09227,625.1844],[26.73943,5.09439,644.1447],[26.69168,5.09439,613.3169],[26.68124,5.08928,615.2236],[26.6676,5.07835,610.3065],[26.65758,5.07326,634.5962],[26.64404,5.07835,634.5201],[26.63567,5.07762,627.2697],[26.62967,5.06706,610.2556],[26.62347,5.06706,615.9815],[26.61551,5.07824,610.0369],[26.59836,5.08062,604.3063],[26.57986,5.07434,614.956],[26.56818,5.05964,613.2489],[26.56136,5.06706,603.358],[26.55422,5.05985,620.2769],[26.54151,5.05313,601.1002],[26.52828,5.04809,621.1646],[26.51981,5.04597,605.1036],[26.50255,5.04747,597.9924],[26.47516,5.05726,610.8743],[26.46265,5.05964,610.1998],[26.46069,5.06602,607.2946],[26.44188,5.10429,614.6825],[26.42937,5.1138,595.4439],[26.41428,5.12271,597.1442],[26.40012,5.13364,592.7562],[26.39062,5.14901,602.484],[26.36943,5.14057,600.7778],[26.36271,5.13597,592.033],[26.35331,5.14777,601.0604],[26.33636,5.1486,603.3573],[26.31734,5.14643,591.4607],[26.29181,5.15098,598.7139],[26.27248,5.15907,603.2247],[26.25398,5.17232,593.73],[26.24665,5.18997,594.5181],[26.2421,5.18806,591.9497],[26.23073,5.18516,610.6893],[26.22618,5.18315,620.556],[26.22566,5.19904,605.8032],[26.22618,5.20426,599.6929],[26.21357,5.19914,584.9736],[26.20716,5.20769,589.414],[26.19828,5.23839,590.0156],[26.19518,5.23477,582.9735],[26.18453,5.22534,581.9763],[26.18174,5.22958,587.3521],[26.17533,5.23369,599.3057],[26.17089,5.23839,593.4111],[26.15735,5.23247,619.0666],[26.15084,5.23997,597.5911],[26.14422,5.2518,598.6002],[26.12996,5.25888,590.5047],[26.1251,5.2486,585.6287],[26.11962,5.24154,585.3439],[26.11249,5.23839,579.712],[26.10454,5.2386,593.069],[26.09844,5.23958,588.98],[26.09337,5.24144,586.0208],[26.08841,5.24459,581.879],[26.09172,5.21906,582.262],[26.09523,5.21105,599.2427],[26.08604,5.21524,586.1381],[26.07715,5.21632,585.2618],[26.07053,5.21224,582.5935],[26.06785,5.20085,592.6757],[26.06268,5.20012,580.3472],[26.051,5.20023,603.2566],[26.03736,5.19795,625.1966],[26.02692,5.18997,648.4647],[26.01389,5.19924,627.4217],[25.99663,5.21924,593.0134],[25.98599,5.22534,599.389],[25.97193,5.22767,588.8996],[25.96284,5.22451,576.482],[25.95839,5.21482,578.8036],[25.9586,5.19738,579.3708],[25.9432,5.2041,582.2686],[25.92563,5.20178,576.0875],[25.91251,5.19038,581.0343],[25.91085,5.1701,597.5677],[25.89297,5.18521,592.0868],[25.88357,5.20353,577.2062],[25.8724,5.2171,581.9923],[25.84936,5.21787,575.0936],[25.84605,5.21167,574.55],[25.83623,5.20002,571.9543],[25.8261,5.1947,571.757],[25.81897,5.21457,581.0935],[25.81422,5.22162,574.4285],[25.81143,5.23092,589.3006],[25.81463,5.24459,577.0394],[25.81019,5.24268,574.4949],[25.79944,5.24009,581.9957],[25.79468,5.23839,578.4501],[25.79231,5.26283,569.4111],[25.77835,5.26914,573.5939],[25.76926,5.26516,567.9874],[25.78114,5.25888,569.1578],[25.77174,5.24547,589.3851],[25.75799,5.24444,575.5012],[25.74373,5.25061,592.5793],[25.73278,5.25888,581.2676],[25.70508,5.2896,573.7515],[25.69112,5.29981,567.3226],[25.6689,5.30614,565.6118],[25.66756,5.30725,564.5572],[25.66312,5.30916,560.4272],[25.65578,5.31776,569.0999],[25.65009,5.3203,575.733],[25.6379,5.31797,562.7227],[25.63108,5.31182,562.9026],[25.62343,5.30994,558.0755],[25.60917,5.3203,563.4812],[25.60917,5.32652,564.0369],[25.61423,5.32993,566.3745],[25.61723,5.33355,564.7949],[25.61981,5.33722,565.4944],[25.62291,5.34076,565.0586],[25.60048,5.34045,566.5029],[25.59232,5.34918,560.4246],[25.58901,5.36228,564.4082],[25.58126,5.37492,557.549],[25.57506,5.37492,558.8727],[25.56183,5.37301,559.9631]]]}}