{"type": "Feature","bbox": [24.4471,0.7659,24.5156,0.8145],"geometry": {"type": "MultiPolygon","coordinates": [[[[24.5154,0.7708,488.5448],[24.5156,0.7799,469.8885],[24.5096,0.7989,483.7874],[24.5003,0.8094,495.1542],[24.4941,0.8125,496.2638],[24.4817,0.8145,463.3473],[24.4648,0.8105,445.7035],[24.4548,0.804,448.6219],[24.4497,0.7979,457.0902],[24.4471,0.7862,455.1834],[24.4501,0.7747,432.8068],[24.4539,0.7676,446.8614],[24.5141,0.7659,473.0201],[24.5154,0.7708,488.5448]]]]}
,"properties": {"GID_2": "COD.25.11_1","GID_0": "COD","country": "DemocraticRepublicoftheCongo","GID_1": "COD.25_1","province": "Tshopo","NL_NAME_1": "NA","county": "Yangambi","VARNAME_2": "NA","NL_NAME_2": "NA","TYPE_2": "Ville","ENGTYPE_2": "Town","CC_2": "NA","HASC_2": "NA","name": "Yangambi.county","area_km2": 33.28432,"hist_schema_id": "Elevation0-9000","hist_area_km2": {"375": 0.40281,"400": 4.34605,"425": 8.75569,"450": 11.85091,"475": 6.89005,"500": 1.0388}}}