{"type": "Feature","bbox": [24.5159,-6.3203,26.2705,-4.8353],"geometry": {"type": "MultiPolygon","coordinates": [[[[26.1165,-6.2955,854.7132],[26.1335,-6.2596,849.5133],[26.1432,-6.2426,832.1937],[26.1637,-6.232,808.0594],[26.1902,-6.2134,813.5526],[26.2015,-6.194,831.572],[26.2178,-6.1543,830.468],[26.2178,-6.1478,834.7632],[26.191,-6.1113,787.1393],[26.1873,-6.0975,798.423],[26.1876,-6.085,774.9954],[26.1947,-6.076,735.946],[26.205,-6.0696,733.7298],[26.2344,-6.0675,777.2413],[26.255,-6.0355,790.7406],[26.2226,-6.038,758.6394],[26.2126,-6.0355,759.1866],[26.2022,-6.0266,747.688],[26.186,-6.0157,726.7265],[26.1826,-6.0148,730.5414],[26.1824,-5.999,710.8854],[26.1861,-5.9938,737.6767],[26.2029,-5.9889,762.7618],[26.212,-5.9836,773.4181],[26.215,-5.9796,779.8853],[26.2059,-5.9549,812.7222],[26.197,-5.9411,790.2257],[26.1927,-5.9366,782.0618],[26.184,-5.9394,772.0723],[26.1778,-5.9334,745.6579],[26.1732,-5.8997,767.0054],[26.177,-5.8709,755.2166],[26.1868,-5.858,728.2144],[26.2052,-5.8462,691.7529],[26.2082,-5.8379,696.2283],[26.2073,-5.8251,677.8094],[26.2029,-5.815,679.2539],[26.1894,-5.7969,677.0381],[26.1844,-5.7783,682.7585],[26.1843,-5.7618,682.1345],[26.1675,-5.7535,680.6349],[26.1604,-5.7476,686.9635],[26.1537,-5.7478,698.2841],[26.131,-5.7332,763.0229],[26.1236,-5.7249,770.6501],[26.1265,-5.6919,721.0519],[26.1036,-5.6598,691.954],[26.1177,-5.6343,673.9045],[26.1191,-5.608,654.5803],[26.1244,-5.5995,661.7292],[26.1475,-5.6011,673.9109],[26.151,-5.599,664.5065],[26.1569,-5.5829,679.1221],[26.1721,-5.5685,665.9672],[26.1757,-5.5585,651.6642],[26.1737,-5.5545,640.054],[26.1613,-5.554,639.4417],[26.1516,-5.5409,631.81],[26.1505,-5.5194,641.7148],[26.1369,-5.5048,636.6407],[26.1328,-5.4551,637.3137],[26.1329,-5.4401,647.6703],[26.1228,-5.4187,618.1999],[26.1177,-5.4008,602.3662],[26.1119,-5.3762,620.6577],[26.1087,-5.3488,636.9745],[26.1164,-5.3332,624.4429],[26.1267,-5.3249,620.7007],[26.1289,-5.3173,614.2206],[26.1338,-5.3117,617.2058],[26.1337,-5.303,612.919],[26.139,-5.2899,610.1756],[26.1415,-5.2692,603.1368],[26.1458,-5.2602,607.7527],[26.1547,-5.251,605.8663],[26.1653,-5.2459,599.6502],[26.1694,-5.2413,605.6487],[26.1763,-5.2385,598.8712],[26.1816,-5.2325,603.933],[26.1912,-5.2136,595.8755],[26.1962,-5.1989,586.9047],[26.198,-5.1876,582.353],[26.1973,-5.1768,579.5351],[26.1918,-5.1658,579.3477],[26.1945,-5.1409,575.983],[26.1917,-5.1359,578.0894],[26.1912,-5.1295,582.6285],[26.198,-5.0924,568.7112],[26.2019,-5.0841,575.719],[26.253,-5.0359,559.6649],[26.2651,-5.0171,556.9882],[26.2705,-5.0,553.8535],[26.2252,-5.0011,568.7893],[26.1001,-4.9992,576.4761],[25.6585,-4.9989,576.5684],[25.0614,-4.9866,534.2867],[25.0609,-4.9837,530.3258],[25.0527,-4.9786,515.5507],[25.0416,-4.9676,505.4266],[25.0398,-4.9526,513.5197],[25.0308,-4.9411,508.1988],[25.0288,-4.9271,510.6017],[25.0205,-4.9227,517.0004],[25.0148,-4.917,508.3806],[25.0127,-4.9082,509.4174],[25.0164,-4.891,515.153],[25.0111,-4.8742,525.8753],[24.9867,-4.85,508.6219],[24.9844,-4.8449,503.3464],[24.9837,-4.8353,505.519],[24.9536,-4.8432,597.0889],[24.9464,-4.8473,634.5703],[24.9336,-4.8608,653.6192],[24.9205,-4.8657,559.5958],[24.8953,-4.8666,605.2023],[24.8529,-4.8587,623.9545],[24.8466,-4.8588,620.9832],[24.8412,-4.8612,581.7913],[24.8221,-4.8847,619.553],[24.8265,-4.8943,684.8362],[24.8402,-4.9147,638.8018],[24.8483,-4.9478,604.6295],[24.8443,-4.9549,593.8818],[24.8404,-4.9556,606.8673],[24.8333,-4.9524,584.5781],[24.8144,-4.9392,671.8084],[24.8055,-4.9365,671.395],[24.7958,-4.9369,660.247],[24.7713,-4.9273,670.1115],[24.7644,-4.9281,655.9839],[24.7568,-4.9356,623.5502],[24.7178,-4.9967,660.5919],[24.713,-5.0,631.8691],[24.675,-5.0002,535.4537],[24.6661,-5.0043,535.7054],[24.6594,-5.0103,634.1152],[24.6468,-5.0161,610.5089],[24.6137,-5.03,564.6964],[24.5891,-5.0382999999999996,620.9993],[24.58,-5.0396,638.7404],[24.5754,-5.0447,665.0966],[24.5773,-5.0552,608.2892],[24.5832,-5.0643,629.8906],[24.5847,-5.0776,637.0712],[24.5751,-5.0955,625.6831],[24.5789,-5.1202,643.2413],[24.5635,-5.1508,685.7783],[24.5597,-5.168,681.5468],[24.5611,-5.1723,675.2876],[24.5593,-5.1721,658.0219],[24.5543,-5.1652,676.0979],[24.54,-5.1634,674.2987],[24.532,-5.165,684.4209],[24.518,-5.165,630.1052],[24.5159,-5.1684,576.755],[24.5182,-5.185,595.2845],[24.5279,-5.2117,625.2441],[24.529,-5.2244,636.6622],[24.546,-5.2734,682.9828],[24.5536,-5.301,711.8193],[24.5573,-5.3291,685.3414],[24.5564,-5.3368,657.1703],[24.5525,-5.3453,669.8693],[24.5625,-5.3491,663.4789],[24.5735,-5.3589,669.1082],[24.5826,-5.3645,693.7878],[24.6309,-5.3917,644.1383],[24.6425,-5.3963,665.6171],[24.6475,-5.4005,691.1145],[24.6494,-5.4045,692.1102],[24.6448,-5.4344,690.631],[24.6389,-5.443,680.557],[24.6417,-5.4531,662.6227],[24.6293,-5.4801,716.066],[24.6271,-5.4867,713.5449],[24.6271,-5.4957,733.6058],[24.6312,-5.5063,746.1519],[24.6381,-5.5116,751.9326],[24.6438,-5.5118,713.438],[24.6557,-5.5202,750.9114],[24.675,-5.5389,720.8784],[24.68,-5.5475,708.5776],[24.6799,-5.5511,711.4728],[24.6677,-5.5582,702.1638],[24.6559,-5.572,720.7592],[24.6216,-5.5928,759.1361],[24.618,-5.5966,741.5853],[24.6175,-5.6016,741.0443],[24.6478,-5.6515,695.6227],[24.6703,-5.682,649.6395],[24.6864,-5.6997,635.0096],[24.7126,-5.7057,710.1792],[24.7172,-5.7098,713.5087],[24.7207,-5.7165,695.1438],[24.7209,-5.7253,690.0754],[24.731,-5.737,682.1661],[24.7461,-5.7412,644.9177],[24.7514,-5.7554,639.1499],[24.7516,-5.7672,636.5859],[24.7618,-5.7879,680.2338],[24.7526,-5.8256,629.7824],[24.7487,-5.8329,664.8927],[24.748,-5.8417,622.4594],[24.7554,-5.8654,654.3655],[24.7561,-5.8753,638.2026],[24.7528,-5.8911,651.9347],[24.7561,-5.9176,687.251],[24.7664,-5.9373,690.0361],[24.7699,-5.939,708.0779],[24.7761,-5.9383,704.4364],[24.7784,-5.9396,699.0342],[24.7809,-5.9452,723.4247],[24.785,-5.9481,736.2091],[24.8086,-5.954,778.4183],[24.8173,-5.9671,783.9296],[24.8287,-5.9767,757.7828],[24.8361,-5.9808,769.7474],[24.8522,-5.9861,763.1875],[24.9002,-5.9876,742.5255],[24.9099,-5.9908,731.7288],[24.9247,-6.0062,709.377],[24.9277,-6.0142,672.1969],[24.9282,-6.0246,675.0246],[24.9246,-6.0331,637.3067],[24.9195,-6.0364,657.7091],[24.9289,-6.0486,672.3262],[24.9342,-6.0523,640.3577],[24.9374,-6.0578,656.0059],[24.9429,-6.0608,659.9236],[24.9779,-6.0628,671.1839],[24.9848,-6.0599,691.1974],[25.002,-6.0442,670.3131],[25.0171,-6.0356,665.7308],[25.027,-6.0322,667.834],[25.0367,-6.0343,651.5654],[25.0394,-6.0479,668.2689],[25.0489,-6.0658,659.845],[25.0663,-6.0789,659.5817],[25.077,-6.0779,704.97],[25.093,-6.0849,690.0912],[25.1555,-6.1187,743.4605],[25.1732,-6.1218,777.8314],[25.219,-6.1159,838.6797],[25.2557,-6.1023,815.1703],[25.2585,-6.0986,799.0338],[25.2564,-6.0952,797.0045],[25.2603,-6.0929,774.8241],[25.2706,-6.091,778.2275],[25.2805,-6.0774,752.2167],[25.3046,-6.0708,758.4021],[25.3283,-6.0592,745.8256],[25.3539,-6.056,721.7693],[25.3603,-6.0524,717.9727],[25.3572,-6.1,754.426],[25.3615,-6.1626,769.5529],[25.3615,-6.191,749.6909],[25.3533,-6.1972,742.7069],[25.365,-6.2006,712.7156],[25.3645,-6.2043,694.854],[25.3668,-6.2077,724.4351],[25.3721,-6.2094,710.4554],[25.3744,-6.2121,712.9169],[25.3744,-6.2204,720.223],[25.3793,-6.2342,730.9232],[25.3756,-6.2434,744.5208],[25.3703,-6.25,749.4686],[25.3609,-6.2547,732.9495],[25.3563,-6.2632,770.5618],[25.3529,-6.2744,753.9465],[25.3543,-6.2783,762.645],[25.373,-6.2957,754.4611],[25.3757,-6.2999,761.3606],[25.3859,-6.2995,813.183],[25.4153,-6.3193,847.2149],[25.4278,-6.3203,838.1149],[25.4399,-6.318,847.2675],[25.4868,-6.2943,894.8457],[25.4929,-6.299,894.9868],[25.4959,-6.3092,879.9231],[25.5037,-6.3118,873.0609],[25.5115,-6.309,847.2424],[25.5368,-6.3065,824.847],[25.5421,-6.2986,831.9882],[25.5614,-6.2864,918.6238],[25.5793,-6.2827,874.7982],[25.5873,-6.2793,870.0404],[25.5984,-6.2804,869.1217],[25.6013,-6.279,884.2598],[25.6059,-6.2733,850.7846],[25.6131,-6.2772,834.8594],[25.636,-6.2753,742.1831],[25.6432,-6.2693,762.2704],[25.671,-6.2656,655.4155],[25.6811,-6.2615,673.1571],[25.6847,-6.2569,672.8102],[25.6912,-6.238,731.3677],[25.6992,-6.238,668.6479],[25.7031,-6.2357,661.527],[25.7061,-6.2297,670.6877],[25.7093,-6.2276,670.964],[25.7219,-6.2274,684.0889],[25.7281,-6.2249,683.3355],[25.7359,-6.217,663.309],[25.7398,-6.2152,660.7789],[25.7527,-6.2127,637.2405],[25.761,-6.2069,670.0482],[25.7777,-6.2041,656.1404],[25.7913,-6.199,641.0062],[25.7973,-6.1947,636.5542],[25.8034,-6.1834,650.8743],[25.8115,-6.1767,641.275],[25.814,-6.1641,633.4125],[25.8029,-6.1567,652.8175],[25.8034,-6.1514,689.5991],[25.8259,-6.1468,662.902],[25.8291,-6.144,647.7457],[25.8471,-6.1489,622.8717],[25.8657,-6.1626,661.849],[25.883,-6.1684,690.7796],[25.8942,-6.1774,733.3972],[25.9117,-6.1862,728.3516],[25.9255,-6.1972,747.3553],[25.9393,-6.2055,738.4361],[25.9522,-6.2186,732.1602],[25.9489,-6.2341,734.5976],[25.949,-6.2475,753.4821],[25.9598,-6.2649,784.9553],[25.9711,-6.2756,758.2745],[25.9771,-6.2732,771.4319],[25.9822,-6.2493,782.9151],[25.9859,-6.2195,767.8383],[26.0057,-6.2055,781.9988],[26.0165,-6.2044,789.4768],[26.0199,-6.2104,788.8094],[26.028,-6.2626,790.9602],[26.0366,-6.2648,808.4988],[26.0461,-6.2641,803.703],[26.0552,-6.2664,815.9617],[26.0604,-6.2711,827.4382],[26.0652,-6.2842,782.6695],[26.0722,-6.2961,788.7888],[26.0851,-6.2967,799.4397],[26.1127,-6.2857,830.2737],[26.1165,-6.2955,854.7132]],
[[25.7607,-5.3848,655.6727],[25.75,-5.3848,686.0223],[25.7392,-5.3813,687.3197],[25.7349,-5.3751,672.0598],[25.7298,-5.3615,623.0865],[25.7345,-5.3455,639.2381],[25.7551,-5.3384,599.6061],[25.7641,-5.338,608.1351],[25.7726,-5.3418,606.4531],[25.7807,-5.3596,608.6144],[25.7805,-5.373,612.8667],[25.7743,-5.3786,619.7164],[25.7607,-5.3848,655.6727]]]]}
,"properties": {"GID_2": "COD.14.4_1","GID_0": "COD","country": "DemocraticRepublicoftheCongo","GID_1": "COD.14_1","province": "Lomami","NL_NAME_1": "NA","county": "Lubao","VARNAME_2": "NA","NL_NAME_2": "NA","TYPE_2": "Territoire","ENGTYPE_2": "Territory","CC_2": "NA","HASC_2": "NA","name": "Lubao.county","area_km2": 22111.02,"hist_schema_id": "Elevation0-9000","hist_area_km2": {"500": 14.93,"525": 281.02,"550": 1032.23,"575": 2154.65,"600": 2779.94,"625": 2722.84,"650": 3069.31,"675": 3182.69,"700": 2742.93,"725": 1887.57,"750": 1109.15,"775": 543.79,"800": 243.87,"825": 141.18,"850": 98.1,"875": 49.13,"900": 24.34,"925": 17.22,"950": 13.68,"975": 2.47}}}