{"type": "Feature","bbox": [12.9347,-5.3874,12.9802,-5.337],"geometry": {"type": "MultiPolygon","coordinates": [[[[12.9643,-5.3874,122.9742],[12.968,-5.3871,124.563],[12.9713,-5.3846,151.7606],[12.9802,-5.3715,157.3072],[12.9751,-5.3602,182.4157],[12.9765,-5.3544,178.4603],[12.9736,-5.3443,141.984],[12.9707,-5.3403,131.2011],[12.965,-5.3374,124.349],[12.9566,-5.337,129.4204],[12.9535,-5.3377,147.8043],[12.9453,-5.3507,98.8881],[12.9347,-5.3771,101.5383],[12.946,-5.3845,117.1359],[12.9643,-5.3874,122.9742]]]]}
,"properties": {"GID_2": "COD.11.8_1","GID_0": "COD","country": "DemocraticRepublicoftheCongo","GID_1": "COD.11_1","province": "Kongo-Central","NL_NAME_1": "NA","county": "Lukula(ville)","VARNAME_2": "NA","NL_NAME_2": "NA","TYPE_2": "Ville","ENGTYPE_2": "Town","CC_2": "NA","HASC_2": "NA","name": "Lukula(ville).county","area_km2": 19.35729,"hist_schema_id": "Elevation0-9000","hist_area_km2": {"100": 1.83651,"125": 5.78394,"150": 6.9872,"175": 3.94747,"200": 0.75995,"225": 0.04222}}}