{"type":"Feature","properties":{"GID_2":"COD.24.9_1","GID_0":"COD","country":"DemocraticRepublicoftheCongo","GID_1":"COD.24_1","province":"Tanganyika","NL_NAME_1":"NA","county":"Moba","VARNAME_2":"NA","NL_NAME_2":"NA","TYPE_2":"Territoire","ENGTYPE_2":"Territory","CC_2":"NA","HASC_2":"NA","name":"Moba.county"},
"geometry":{"type": "MultiPolygon","coordinates": [[[[29.6018,-8.4076,987.608],[29.6077,-8.417,977.1045],[29.6111,-8.4187,972.823],[29.6192,-8.419,966.1495],[29.6269,-8.4165,962.4816],[29.6381,-8.4077,959.8026],[29.6445,-8.4047,952.9272],[29.6624,-8.4028,943.8504],[29.6705,-8.3999,942.9587],[29.6811,-8.3917,943.5139],[29.6923,-8.3738,945.4128],[29.6979,-8.3696,945.7537],[30.4295,-8.2733,1338.1333],[30.4358,-8.28,1331.6785],[30.4401,-8.2815,1336.8719],[30.4578,-8.2735,1225.7369],[30.4644,-8.272,1225.3448],[30.4694,-8.273,1184.151],[30.4955,-8.2916,1164.0518],[30.5019,-8.2936,1175.5453],[30.5132,-8.2859,1077.7085],[30.5258,-8.2877,1047.9681],[30.5333,-8.2803,1012.6893],[30.537,-8.279,1047.0038],[30.5439,-8.2831,1000.8735],[30.5504,-8.2921,1100.4883],[30.5571,-8.2964,1058.9656],[30.564,-8.2972,967.9613],[30.7951,-8.2768,770.0],[30.7742,-8.2244,770.0],[30.7564,-8.1847,770.0],[30.7567,-8.179,770.0],[30.7487,-8.1419,770.0],[30.7387,-8.1098,770.0],[30.733,-8.1031,770.0],[30.6852,-8.018,770.0],[30.6612,-7.9872,770.0],[30.6516,-7.9807,770.0],[30.6391,-7.9333,770.0],[30.6271,-7.897,770.0],[30.5752,-7.7509,770.0],[30.5413,-7.6675,770.0],[30.5402,-7.6614,770.0],[30.5222,-7.62,770.0],[30.423,-7.418,770.0],[30.399,-7.361,770.0],[30.375,-7.292,770.0],[30.3693,-7.2822,770.0],[30.3589,-7.2478,770.0],[30.3093,-7.1548,770.0],[30.3032,-7.1361,770.0],[30.2705,-7.075,770.0],[30.2386,-7.0218,770.0],[30.2323,-7.0163,770.0],[30.2214,-6.9952,770.0],[30.1836,-6.9402,770.0],[30.1408,-6.8899,770.0],[30.095,-6.8479,770.0],[30.0851,-6.8361,770.0],[29.906,-6.708,770.0],[29.827,-6.643,770.0],[29.792,-6.609,770.0],[29.7466,-6.5535,770.0],[29.655,-6.413,770.0],[29.6156,-6.4277,770.0],[29.6007,-6.4426,770.0],[29.5398,-6.4683,770.0],[29.5114,-6.4927,770.0],[29.4992,-6.4981,770.0],[29.4831,-6.5083,776.4651],[29.4797,-6.5079,770.0],[29.4798,-6.5172,770.0],[29.4776,-6.5222,771.5959],[29.4673,-6.523,772.8752],[29.46,-6.527,802.8547],[29.4516,-6.5254,774.6881],[29.4291,-6.528,782.9471],[29.4261,-6.5239,794.336],[29.4208,-6.5234,789.5291],[29.4172,-6.531,849.8826],[29.4146,-6.5306,912.7695],[29.4124,-6.5426,905.4504],[29.4062,-6.5467,1127.6344],[29.4014,-6.5537,1008.4478],[29.3932,-6.5585,1100.8789],[29.3875,-6.559,1175.5881],[29.3845,-6.5616,1122.5569],[29.3783,-6.5623,1197.1036],[29.373,-6.5653,1145.3285],[29.3637,-6.5826,1169.9958],[29.3656,-6.5959,1211.0603],[29.3645,-6.5975,1241.847],[29.3587,-6.5976,1186.4612],[29.3545,-6.5937,1302.4904],[29.3518,-6.5944,1320.0325],[29.3491,-6.5972,1197.7528],[29.3457,-6.6064,1212.1273],[29.3471,-6.613,1197.8367],[29.3398,-6.6186,1288.0793],[29.3389,-6.6225,1264.3821],[29.3361,-6.6244,1267.9827],[29.3283,-6.6256,1277.8597],[29.3272,-6.6288,1272.4907],[29.3235,-6.6295,1288.1329],[29.3231,-6.6332,1271.3145],[29.3261,-6.6348,1278.1282],[29.3265,-6.6371,1280.871],[29.3222,-6.644,1305.1072],[29.3268,-6.6485,1280.825],[29.3227,-6.6525,1307.2811],[29.322,-6.6562,1316.5287],[29.3113,-6.667,1360.7113],[29.3086,-6.6725,1357.2987],[29.3091,-6.6852,1348.4934],[29.2959,-6.7034,1392.093],[29.2872,-6.7078,1401.9313],[29.2575,-6.7105,1403.6421],[29.2522,-6.7138,1436.6389],[29.2326,-6.7327,1440.9507],[29.2259,-6.736,1439.4001],[29.2204,-6.7411,1447.235],[29.206,-6.7471,1502.9846],[29.1907,-6.7642,1528.941],[29.1822,-6.7794,1498.942],[29.1575,-6.8016,1575.5383],[29.1487,-6.824,1653.3146],[29.1309,-6.8342,1481.8008],[29.1168,-6.8937,1628.959],[29.091,-6.9244,1484.127],[29.0778,-6.9495,1477.9609],[29.0717,-6.9531,1379.8885],[29.0597,-6.9448,1280.8162],[29.0493,-6.9343,1262.6122],[29.0168,-6.9256,1385.3755],[28.9954,-6.9229,1335.7385],[28.9571,-6.9145,1164.1432],[28.9348,-6.9078,1127.9385],[28.9367,-6.9218,1152.9258],[28.9425,-6.9268,1131.4958],[28.9397,-6.931,1158.3977],[28.9393,-6.9349,1142.9911],[28.9487,-6.9633,1155.0271],[28.9533,-6.9725,1174.6652],[28.9628,-6.9821,1165.3187],[28.9739,-6.9896,1188.0914],[28.967,-6.9993,1217.0339],[28.9646,-7.0101,1197.5699],[28.9655,-7.0136,1192.2427],[28.9609,-7.015,1212.0916],[28.9584,-7.0141,1216.2195],[28.9556,-7.0159,1218.051],[28.948,-7.015,1221.684],[28.9434,-7.0171,1237.1333],[28.9393,-7.0222,1238.0009],[28.9373,-7.0298,1255.9805],[28.9386,-7.0512,1300.943],[28.9354,-7.0606,1318.8264],[28.9354,-7.065,1321.5416],[28.9389,-7.0672,1317.2506],[28.9295,-7.0804,1368.5239],[28.9287,-7.0914,1402.0366],[28.9294,-7.0969,1382.9023],[28.9368,-7.1086,1432.8741],[28.9375,-7.115,1453.8949],[28.933,-7.1212,1443.415],[28.8992,-7.1011,1400.1162],[28.8438,-7.0999,1145.6566],[28.8379,-7.105,1139.5132],[28.8236,-7.1108,1115.075],[28.8165,-7.1104,1111.4849],[28.81,-7.1058,1088.2798],[28.8013,-7.1049,1088.2092],[28.7928,-7.1077,1074.4602],[28.7861,-7.1119,1076.7267],[28.7838,-7.1066,1058.6434],[28.7808,-7.1057,1059.9606],[28.7762,-7.1092,1060.2756],[28.7707,-7.1062,1045.0305],[28.7649,-7.1065,1048.5421],[28.7621,-7.1023,1026.4515],[28.7585,-7.1019,1034.3927],[28.757,-7.0959,1037.3788],[28.7522,-7.0946,1021.0865],[28.7476,-7.0981,1016.8374],[28.7366,-7.0986,1014.042],[28.7286,-7.1037,1021.3123],[28.7223,-7.1025,1023.5297],[28.7178,-7.1062,1004.7886],[28.7081,-7.1074,985.4408],[28.7017,-7.1132,985.5535],[28.6987,-7.1139,997.2098],[28.6935,-7.1238,980.555],[28.6893,-7.127,977.5087],[28.6783,-7.1276,965.5778],[28.67,-7.1327,932.7344],[28.6604,-7.1297,916.2978],[28.6608,-7.1358,946.6362],[28.6831,-7.1468,993.8817],[28.703,-7.1504,1027.2908],[28.7139,-7.1589,1037.8589],[28.7229,-7.1607,1052.3347],[28.7351,-7.154,1037.8064],[28.7508,-7.1564,1060.5059],[28.7646,-7.1643,1120.1276],[28.7737,-7.1746,1236.4248],[28.7767,-7.1819,1195.4761],[28.7694,-7.2045,1100.4758],[28.7611,-7.2011,1072.4661],[28.7555,-7.2028,1072.0334],[28.7509,-7.1984,1054.4567],[28.7472,-7.1994,1074.7672],[28.7445,-7.2076,1051.4207],[28.7349,-7.2082,1024.6812],[28.7236,-7.2146,1002.3061],[28.7043,-7.2134,963.4396],[28.699,-7.2079,963.6953],[28.6907,-7.21,989.5313],[28.6874,-7.2068,961.6309],[28.6729,-7.2045,940.0564],[28.6761,-7.1986,982.7714],[28.674,-7.1965,992.0953],[28.6665,-7.2,928.5812],[28.6603,-7.1984,927.1805],[28.6557,-7.1998,939.4199],[28.6469,-7.195,914.197],[28.6391,-7.1978,909.4279],[28.6422,-7.2148,1037.7876],[28.6579,-7.2276,1057.9016],[28.6808,-7.2506,1045.6473],[28.6867,-7.2658,1054.2939],[28.6921,-7.2713,1092.0229],[28.7163,-7.2798,1171.0886],[28.7404,-7.2943,1242.5389],[28.744,-7.2986,1240.4366],[28.7446,-7.3064,1258.9263],[28.7378,-7.3368,1232.7162],[28.7287,-7.3511,1194.2693],[28.7246,-7.3506,1191.178],[28.7145,-7.3603,1177.6927],[28.7094,-7.3608,1164.209],[28.7041,-7.3636,1164.5413],[28.6926,-7.3629,1147.3508],[28.6839,-7.3575,1093.5093],[28.6809,-7.3584,1082.4014],[28.6797,-7.3623,1079.8345],[28.6758,-7.3616,1065.8864],[28.6745,-7.3658,1065.0925],[28.6687,-7.3647,1039.8442],[28.6628,-7.3727,1025.0311],[28.6457,-7.3703,1014.7596],[28.6471,-7.3756,1025.3911],[28.6451,-7.3825,1018.6361],[28.6466,-7.4024,1037.6207],[28.6512,-7.4077,1078.6938],[28.6518,-7.4304,1100.3468],[28.658,-7.4375,1156.047],[28.6681,-7.468,1220.1384],[28.6704,-7.4698,1219.5825],[28.679,-7.4863,1305.0396],[28.6794,-7.5118,1371.6694],[28.6703,-7.5172,1363.7793],[28.6486,-7.5209,1266.2981],[28.6353,-7.5124,1276.9553],[28.6075,-7.5155,1171.2406],[28.5966,-7.5216,1205.3649],[28.5881,-7.5228,1193.3438],[28.5688,-7.5174,1179.781],[28.5561,-7.518,1148.3927],[28.5379,-7.5277,1067.2881],[28.5215,-7.5326,1171.9703],[28.4973,-7.5326,1133.6888],[28.4835,-7.5253,1073.699],[28.475,-7.5278,1110.5192],[28.4677,-7.5333,1204.4597],[28.449,-7.5169,1095.8259],[28.4363,-7.5181,1243.0249],[28.4224,-7.5266,1345.9054],[28.3967,-7.5813,1327.7676],[28.3954,-7.5922,1172.7272],[28.399,-7.6031,1146.0791],[28.4335,-7.608,1123.5991],[28.4491,-7.628,1073.798],[28.4593,-7.6456,1010.3945],[28.4715,-7.6556,940.8336],[28.474,-7.6547,942.787],[28.4804,-7.6475,933.8015],[28.4793,-7.6439,951.3746],[28.4806,-7.6404,948.7833],[28.4857,-7.6372,940.2852],[28.4933,-7.6369,962.2029],[28.5061,-7.6286,972.4449],[28.5197,-7.6318,1088.4479],[28.5222,-7.6272,1064.1436],[28.5481,-7.6227,1129.5188],[28.5623,-7.6355,1222.5967],[28.571,-7.6404,1206.8903],[28.5806,-7.6421,1236.4182],[28.5958,-7.6518,1253.5018],[28.6,-7.6514,1250.9976],[28.6034,-7.6529,1256.61],[28.6099,-7.6612,1241.5532],[28.6127,-7.6733,1223.55],[28.619,-7.6756,1226.2985],[28.6328,-7.6847,1213.8116],[28.6291,-7.7066,1217.1277],[28.623,-7.7244,1184.6853],[28.6228,-7.748,1145.276],[28.6379,-7.7732,1101.9089],[28.6446,-7.7904,1095.0458],[28.651,-7.8105,814.9785],[28.6487,-7.8208,805.2769],[28.6586,-7.8262,969.1896],[28.6685,-7.8282,856.4174],[28.6855,-7.8354,1004.4783],[28.6873,-7.8456,1013.6261],[28.6824,-7.8558,894.9176],[28.6585,-7.878,782.5565],[28.6565,-7.8926,752.666],[28.671,-7.8932,761.5258],[28.6788,-7.8957,794.8304],[28.6909,-7.893,827.0634],[28.7049,-7.8999,789.6625],[28.7124,-7.9081,778.8373],[28.7208,-7.9139,810.8376],[28.7263,-7.9159,827.0367],[28.7474,-7.9156,881.2007],[28.7584,-7.9266,890.15239999999994],[28.771,-7.9702,906.4595],[28.7791,-7.9757,900.5322],[28.7905,-7.978,906.9494],[28.83,-7.9765,1271.7948],[28.8426,-7.9703,1218.1946],[28.854,-7.9584,1072.6675],[28.8594,-7.943,978.6357],[28.8624,-7.9416,968.301],[28.8589,-7.9376,977.9689],[28.8611,-7.9357,986.5366],[28.8616,-7.9325,973.9976],[28.8644,-7.9306,968.6821],[28.8663,-7.9336,971.4082],[28.87,-7.9308,994.5981],[28.8704,-7.9296,994.5981],[28.8666,-7.9273,974.9198],[28.8667,-7.9243,973.657],[28.8687,-7.9236,979.1635],[28.8702,-7.9257,974.0812],[28.8726,-7.925,979.8511],[28.8739,-7.9224,973.2739],[28.8784,-7.9214,998.4085],[28.8726,-7.9183,973.7531],[28.8753,-7.9139,1046.1843],[28.8739,-7.9065,978.8199],[28.8768,-7.9034,996.1093],[28.8756,-7.9015,991.3768],[28.8783,-7.8966,995.3986],[28.8816,-7.8932,1064.8268],[28.8832,-7.8875,987.0197],[28.8828,-7.8793,983.4963],[28.8846,-7.8773,996.1386],[28.8836,-7.8758,990.1591],[28.8894,-7.8715,1027.0719],[28.8874,-7.8659,1001.502],[28.8899,-7.8598,1036.1145],[28.8959,-7.8578,1125.4009],[28.8968,-7.8517,1062.4436],[28.8986,-7.8518,1122.7784],[28.8989,-7.8485,1079.3096],[28.904,-7.8469,1107.7751],[28.9052,-7.8398,1120.4235],[28.9082,-7.8353,1093.6819],[28.9026,-7.8286,1149.08],[28.9033,-7.8225,1139.4579],[28.9094,-7.8234,1160.1714],[28.9375,-7.8463,1405.021],[28.9443,-7.8496,1220.9915],[28.962,-7.8698,1159.8896],[28.9676,-7.8723,1215.3673],[28.9738,-7.8728,1218.8816],[29.0169,-7.8702,1238.0723],[29.0278,-7.8725,1201.2903],[29.0259,-7.8801,1227.0808],[29.0204,-7.8897,1243.2015],[29.0245,-7.8936,1227.3252],[29.0397,-7.8923,1211.0101],[29.0543,-7.8843,1145.6243],[29.0702,-7.873,1177.7268],[29.08,-7.8697,1133.532],[29.0894,-7.869,1078.3474],[29.0968,-7.8706,1065.0742],[29.1086,-7.8691,1040.2999],[29.1128,-7.8653,1023.1658],[29.1113,-7.8534,1056.1135],[29.109,-7.8527,1063.7377],[29.1092,-7.8476,1054.1934],[29.1131,-7.8462,1067.4994],[29.1112,-7.8433,1051.1351],[29.1071,-7.8449,1054.5034],[29.1064,-7.8412,1053.0459],[29.1084,-7.8366,1057.1605],[29.1169,-7.8315,1054.1458],[29.1132,-7.8283,1055.5862],[29.1148,-7.8253,1055.1541],[29.1139,-7.8221,1062.3422],[29.1093,-7.8215,1058.426],[29.1099,-7.8171,1066.9386],[29.1081,-7.8155,1076.5103],[29.1026,-7.8155,1063.5916],[29.1005,-7.81,1060.7009],[29.0958,-7.8068,1064.3625],[29.0983,-7.7999,1078.257],[29.1091,-7.7916,1077.7759],[29.1123,-7.7859,1084.1562],[29.113,-7.7804,1074.6868],[29.1058,-7.7714,1087.7589],[29.0949,-7.7681,1082.0576],[29.0967,-7.7602,1090.0714],[29.0983,-7.7586,1084.2666],[29.1046,-7.7602,1113.8118],[29.1089,-7.7576,1117.1345],[29.1109,-7.751,1105.72],[29.1139,-7.7507,1112.6711],[29.1177,-7.7555,1089.3213],[29.1225,-7.7562,1087.8129],[29.1229,-7.7491,1124.3253],[29.133,-7.7497,1088.9844],[29.1427,-7.7403,1100.0209],[29.148,-7.7398,1117.0916],[29.1609,-7.7603,1183.0056],[29.1714,-7.7708,1163.6233],[29.2067,-7.7819,1452.2368],[29.2259,-7.7615,1490.2264],[29.263,-7.7292,1427.2095],[29.2737,-7.7282,1451.1377],[29.3153,-7.7348,1585.0574],[29.3266,-7.7401,1590.3947],[29.3377,-7.7506,1608.542],[29.3593,-7.7574,1583.0259],[29.4171,-7.7325,1796.9771],[29.4196,-7.7328,1799.1283],[29.4236,-7.7366,1738.4788],[29.4298,-7.7348,1739.3562],[29.435,-7.7292,1741.3989],[29.4387,-7.7297,1715.7124],[29.4431,-7.7349,1718.0272],[29.445,-7.7416,1731.4486],[29.4434,-7.7475,1716.2579],[29.4398,-7.7501,1714.0917],[29.4377,-7.7545,1699.6172],[29.4382,-7.7632,1701.0302],[29.4432,-7.7801,1699.8496],[29.4487,-7.7881,1669.0272],[29.4529,-7.7886,1658.3455],[29.4579,-7.7865,1658.0276],[29.4635,-7.7933,1662.8567],[29.4548,-7.8079,1691.5708],[29.4537,-7.8144,1664.9382],[29.4742,-7.8073,1688.9357],[29.4813,-7.8097,1669.9969],[29.4836,-7.8128,1667.41],[29.4855,-7.8276,1650.0859],[29.4843,-7.8479,1631.9364],[29.4858,-7.8588,1602.2036],[29.4937,-7.8708,1606.3444],[29.4975,-7.874,1599.3069],[29.5037,-7.8755,1581.7367],[29.5179,-7.8711,1568.1082],[29.5213,-7.8676,1586.988],[29.524,-7.8598,1574.7086],[29.5341,-7.851,1573.6565],[29.5366,-7.8441,1580.7073],[29.5554,-7.8369,1579.4124],[29.5609,-7.8318,1577.9858],[29.5668,-7.8203,1579.5864],[29.5731,-7.823,1579.8004],[29.5763,-7.8301,1584.0151],[29.5826,-7.8351,1581.353],[29.5879,-7.8492,1615.6615],[29.624,-7.912,1805.9526],[29.626,-7.9347,1896.2747],[29.6313,-7.9387,1854.9359],[29.6358,-7.9399,1833.9053],[29.6428,-7.9375,1849.1591],[29.6524,-7.9308,1820.04],[29.6602,-7.929,1815.2723],[29.6622,-7.9325,1820.5776],[29.6627,-7.9359,1817.3508],[29.6567,-7.941,1819.333],[29.6607,-7.9467,1792.9946],[29.6624,-7.9616,1777.8429],[29.6659,-7.9707,1746.3447],[29.663,-7.9818,1751.3749],[29.6686,-7.9958,1725.8658],[29.6668,-8.0097,1742.6708],[29.6602,-8.0204,1700.1013],[29.6564,-8.0343,1684.7018],[29.6486,-8.0517,1645.2498],[29.6499,-8.059,1667.6621],[29.6456,-8.0791,1627.0479],[29.639,-8.0924,1627.907],[29.6358,-8.0948,1621.4347],[29.6294,-8.0954,1612.4614],[29.619,-8.103,1608.8691],[29.6084,-8.1035,1609.776],[29.5927,-8.1101,1616.5654],[29.583,-8.1105,1584.5995],[29.5749,-8.1192,1574.8943],[29.5727,-8.1299,1563.6978],[29.5832,-8.1683,1620.0514],[29.5792,-8.1741,1621.5597],[29.5601,-8.1817,1664.2999],[29.5433,-8.1806,1607.6099],[29.541,-8.1719,1586.0063],[29.5317,-8.1527,1554.4241],[29.5265,-8.1539,1567.538],[29.5202,-8.1871,1557.4786],[29.5191,-8.2283,1548.9854],[29.5284,-8.2376,1591.0544],[29.5342,-8.2568,1519.021],[29.5389,-8.28,1440.5325],[29.5511,-8.2945,1362.4609],[29.5564,-8.3317,1346.3003],[29.5628,-8.3451,1206.3153],[29.575,-8.3596,1181.4951],[29.5907,-8.3677,1123.4973],[29.611,-8.3711,1060.7679],[29.6226,-8.3804,1010.065],[29.6284,-8.3955,966.8264],[29.6255,-8.4048,969.3362],[29.6018,-8.4076,987.608]],
[[29.7953,-7.059,825.9271],[29.7842,-7.064,1025.7638],[29.7693,-7.0635,938.9783],[29.7646,-7.0579,1007.5283],[29.7641,-7.0529,997.7683],[29.7587,-7.0508,977.9235],[29.7545,-7.0442,825.027],[29.7585,-7.0351,784.2616],[29.768,-7.0293,770.0],[29.7765,-7.0285,770.0],[29.7861,-7.0288,770.0],[29.7924,-7.0322,770.0],[29.7969,-7.0378,770.0],[29.7991,-7.0442,770.0],[29.7985,-7.0521,770.0],[29.7953,-7.059,825.9271]]]]}}