{"type": "Feature","bbox": [18.546,3.9687,18.868,4.3867],"geometry": {"type": "MultiPolygon","coordinates": [[[[18.5685,4.3354,360.8065],[18.549,4.316,344.674],[18.546,4.308,335.5],[18.546,4.302,335.5],[18.5711,4.2474,335.0],[18.5776,4.2382,345.0098],[18.595,4.2045,334.5],[18.6184,4.1667,367.3523],[18.6266,4.1416,348.3813],[18.6408,4.109,346.7959],[18.6488,4.0764,349.5978],[18.6478,4.058,333.5],[18.6516,4.0094,333.0],[18.652,3.978,333.0],[18.6691,3.9687,359.8597],[18.6782,3.9766,353.4121],[18.6775,4.0117,370.4854],[18.6947,4.0444,375.1147],[18.7327,4.1008,372.8174],[18.7638,4.1298,371.0961],[18.8098,4.1318,382.2837],[18.8232,4.1684,371.02],[18.868,4.2482,620.8604],[18.8657,4.265,579.7994],[18.8377,4.2698,503.469],[18.8047,4.2783,453.3128],[18.786,4.3039,453.2347],[18.7528,4.3034,434.5577],[18.7498,4.35,403.076],[18.7333,4.3833,337.0],[18.7331,4.3867,348.0539],[18.7139,4.3752,353.3897],[18.6989,4.3702,347.6869],[18.6761,4.3531,409.4895],[18.6374,4.3466,368.9323],[18.6259,4.3474,358.0998],[18.6178,4.351,379.8788],[18.6127,4.3561,387.5889],[18.6068,4.3576,385.2506],[18.5782,4.3441,336.0],[18.5685,4.3354,360.8065]]]]}
,"properties": {"GID_2": "COD.23.6_1","GID_0": "COD","country": "DemocraticRepublicoftheCongo","GID_1": "COD.23_1","province": "Sud-Ubangi","NL_NAME_1": "NA","county": "Zongo","VARNAME_2": "NA","NL_NAME_2": "NA","TYPE_2": "Territoire","ENGTYPE_2": "Territory","CC_2": "NA","HASC_2": "NA","name": "Zongo.county","area_km2": 761.6754,"hist_schema_id": "Elevation0-9000","hist_area_km2": {"325": 34.6574,"350": 160.2592,"375": 205.2421,"400": 105.6406,"425": 47.1714,"450": 40.2565,"475": 33.6176,"500": 26.6404,"525": 24.0609,"550": 25.7736,"575": 25.4354,"600": 17.2951,"625": 13.2358,"650": 2.3892}}}