{"type":"Feature","properties":{"GID_2":"COD.21.7_1","GID_0":"COD","country":"DemocraticRepublicoftheCongo","GID_1":"COD.21_1","province":"Sankuru","NL_NAME_1":"NA","county":"Lubefu","VARNAME_2":"NA","NL_NAME_2":"NA","TYPE_2":"Territoire","ENGTYPE_2":"Territory","CC_2":"NA","HASC_2":"NA","name":"Lubefu.county"},
"geometry":{"type": "MultiPolygon","coordinates": [[[[24.5525,-5.3453,669.8693],[24.5564,-5.3368,657.1703],[24.5573,-5.3291,685.3414],[24.5536,-5.301,711.8193],[24.546,-5.2734,682.9828],[24.529,-5.2244,636.6622],[24.5279,-5.2117,625.2441],[24.5182,-5.185,595.2845],[24.5159,-5.1684,576.755],[24.518,-5.165,630.1052],[24.5224,-5.164,646.42],[24.532,-5.165,684.4209],[24.54,-5.1634,674.2987],[24.5543,-5.1652,676.0979],[24.5593,-5.1721,658.0219],[24.5611,-5.1723,675.2876],[24.5597,-5.168,681.5468],[24.5635,-5.1508,685.7783],[24.5789,-5.1202,643.2413],[24.5751,-5.0955,625.6831],[24.5847,-5.0776,637.0712],[24.5832,-5.0643,629.8906],[24.5773,-5.0552,608.2892],[24.5754,-5.0447,665.0966],[24.58,-5.0396,638.7404],[24.5891,-5.0382999999999996,620.9993],[24.6137,-5.03,564.6964],[24.6468,-5.0161,610.5089],[24.6594,-5.0103,634.1152],[24.6661,-5.0043,535.7054],[24.675,-5.0002,535.4537],[24.713,-5.0,631.8691],[24.7178,-4.9967,660.5919],[24.7568,-4.9356,623.5502],[24.7644,-4.9281,655.9839],[24.7713,-4.9273,670.1115],[24.7958,-4.9369,660.247],[24.8055,-4.9365,671.395],[24.8144,-4.9392,671.8084],[24.8333,-4.9524,584.5781],[24.8404,-4.9556,606.8673],[24.8443,-4.9549,593.8818],[24.8483,-4.9478,604.6295],[24.8402,-4.9147,638.8018],[24.8265,-4.8943,684.8362],[24.8221,-4.8847,619.553],[24.8412,-4.8612,581.7913],[24.8466,-4.8588,620.9832],[24.8529,-4.8587,623.9545],[24.8953,-4.8666,605.2023],[24.9205,-4.8657,559.5958],[24.9336,-4.8608,653.6192],[24.9464,-4.8473,634.5703],[24.9536,-4.8432,597.0889],[24.9837,-4.8353,505.519],[24.9775,-4.8263,502.0085],[24.9764,-4.8173,508.9115],[24.9633,-4.8063,504.6428],[24.9603,-4.7992,506.546],[24.9491,-4.7992,504.2393],[24.9415,-4.793,506.0924],[24.9325,-4.7902,500.0668],[24.9296,-4.7868,503.1878],[24.9266,-4.7725,505.8555],[24.9236,-4.7688,502.7084],[24.9096,-4.7658,498.687],[24.9018,-4.7564,500.0689],[24.8953,-4.7444,500.5706],[24.8963,-4.7368,499.7232],[24.8901,-4.729,499.6955],[24.8882,-4.724,500.8968],[24.8898,-4.7194,505.4141],[24.8878,-4.7154,516.2423],[24.8804,-4.7145,497.7993],[24.8731,-4.7026,506.65],[24.8639,-4.6943,507.636],[24.8653,-4.6911,505.4077],[24.8735,-4.6862,514.5465],[24.8696,-4.6812,496.5],[24.8676,-4.6726,503.3076],[24.8593,-4.6655,499.2234],[24.8579,-4.6607,515.6025],[24.8597,-4.6542,500.8578],[24.8595,-4.6455,498.482],[24.8639,-4.6425,502.5116],[24.859,-4.6338,500.2446],[24.8639,-4.6271,499.4441],[24.868,-4.616,510.4775],[24.8723,-4.6128,498.5094],[24.8735,-4.6101,496.2994],[24.871,-4.6052,501.5062],[24.8721,-4.6027,506.6216],[24.8783,-4.6013,497.4446],[24.8801,-4.597,495.5],[24.8788,-4.5896,496.2203],[24.8831,-4.5871,495.0],[24.89,-4.5866,498.0406],[24.8973,-4.5838,497.8653],[24.9021,-4.5762,508.4616],[24.9058,-4.5652,504.4174],[24.9086,-4.5647,510.5089],[24.9122,-4.5673,506.7985],[24.9168,-4.567,507.7525],[24.9175,-4.5682,510.1232],[24.9205,-4.5615,505.3202],[24.9163,-4.5495,504.3838],[24.9177,-4.5463,512.6343],[24.9274,-4.5468,500.4538],[24.928,-4.5415,494.0],[24.9221,-4.5334,506.3419],[24.9274,-4.5277,495.5228],[24.9292,-4.5196,529.1607],[24.9537,-4.5019,506.5847],[24.9613,-4.4948,509.8763],[24.9652,-4.4821,510.8419],[24.9679,-4.4812,504.838],[24.9725,-4.483,513.1073],[24.9782,-4.472,497.9521],[24.9879,-4.4731,492.5],[24.9938,-4.4706,504.0469],[25.0,-4.466,502.4965],[25.0021,-4.4607,494.4893],[24.9984,-4.4536,504.7714],[24.9991,-4.4504,492.0],[25.005,-4.4478,499.6684],[25.0076,-4.4425,503.3613],[24.9924,-4.4283,495.4721],[24.9915,-4.4255,488.0],[24.9952,-4.4186,500.569],[24.9947,-4.4158,488.1536],[24.9791,-4.4025,486.6584],[24.9736,-4.3931,487.1408],[24.9729,-4.3855,490.3117],[24.9917,-4.3682,482.1214],[24.9937,-4.3597,482.1512],[24.991,-4.3351,483.438],[24.9946,-4.3118,492.2863],[25.0175,-4.2819,486.9879],[25.0205,-4.2732,486.6133],[25.0191,-4.2702,487.2827],[25.0132,-4.266,496.8268],[25.0086,-4.2568,493.9623],[25.0067,-4.2518,493.0907],[25.009,-4.2442,498.8441],[25.0079,-4.2412,486.3101],[25.0,-4.241,501.3819],[24.9948,-4.2444,494.6584],[24.9882,-4.2444,496.7985],[24.9581,-4.2559,496.5037],[24.9311,-4.2541,527.1051],[24.9251,-4.2557,515.5846],[24.916,-4.255,502.0085],[24.8983,-4.261,504.1682],[24.8949,-4.2592,518.2996],[24.8887,-4.2612,509.1515],[24.8722,-4.2615,517.2812],[24.8676,-4.2638,516.6662],[24.8605,-4.2631,511.4612],[24.8518,-4.2688,511.6689],[24.8332,-4.2739,516.7943],[24.8201,-4.2827,512.7184],[24.8176,-4.2868,506.995],[24.8089,-4.2902,517.3954],[24.8059,-4.3001,509.8021],[24.8029,-4.3013,512.4732],[24.7984,-4.3066,514.9802],[24.7928,-4.3089,517.6121],[24.7903,-4.3135,515.0685],[24.7855,-4.3169,523.8024],[24.7759,-4.333,530.3884],[24.7566,-4.3487,543.0417],[24.747,-4.3623,522.9582],[24.7349,-4.3664,529.6676],[24.7289,-4.3715,540.04],[24.7268,-4.377,530.1882],[24.7227,-4.3772,536.2107],[24.7039,-4.3844,551.0075],[24.6931,-4.3796,563.9598],[24.6817,-4.3715,579.0082],[24.6771,-4.3639,598.4269],[24.6744,-4.3537,564.5671],[24.6694,-4.3527,570.0996],[24.6522,-4.363,601.3575],[24.6137,-4.3687,570.2018],[24.5767,-4.3804,591.9916],[24.5673,-4.3807,606.3091],[24.5647,-4.373,647.2079],[24.5555,-4.2697,547.6355],[24.5482,-4.2153,564.5013],[24.535,-4.2115,547.9839],[24.5306,-4.2081,551.6442],[24.5259,-4.1944,560.0212],[24.5202,-4.1922,566.4692],[24.504,-4.191,524.8529],[24.4064,-4.1959,632.2787],[24.4018,-4.1882,589.2504],[24.3977,-4.1497,595.9769],[24.4007,-4.1193,570.8806],[24.4152,-4.0529,545.6515],[24.4209,-4.0062,521.0994],[24.4246,-3.9954,547.3826],[24.4115,-3.9899,549.9891],[24.3985,-3.9894,545.6819],[24.3852,-3.9828,562.4846],[24.3705,-3.9823,537.1084],[24.3609,-3.977,564.7533],[24.3375,-3.9747,554.0985],[24.3277,-3.9694,592.6204],[24.3153,-3.9671,550.1936],[24.305,-3.9708,575.9075],[24.2924,-3.9691,584.7515],[24.288,-3.9714,591.9313],[24.2763,-3.9852,552.9082],[24.2704,-3.9951,557.3807],[24.2655,-4.0126,551.0188],[24.2619,-4.014,569.1649],[24.2504,-4.0243,592.6315],[24.2437,-4.0183,595.4932],[24.223,-4.0094,588.5664],[24.2149,-4.0098,552.494],[24.2094,-4.0136,600.2414],[24.204,-4.0229,604.103],[24.2011,-4.0556,622.3412],[24.1739,-4.0893,585.7017],[24.1575,-4.128,561.0287],[24.1521,-4.1361,548.0087],[24.1471,-4.1387,579.7655],[24.1224,-4.1221,560.674],[24.0495,-4.2167,624.0174],[24.0219,-4.2601,547.3958],[24.0069,-4.2812,576.8721],[23.9944,-4.295,539.7598],[23.9894,-4.291,516.8356],[23.9844,-4.2922,532.3489],[23.9786,-4.2855,520.3405],[23.9715,-4.2867,488.5253],[23.9674,-4.2832,513.2192],[23.9578,-4.2839,512.3458],[23.9479,-4.2742,493.9274],[23.936,-4.2726,493.0988],[23.9248,-4.2659,529.8312],[23.9131,-4.2675,505.0295],[23.9083,-4.265,506.2236],[23.9011,-4.2643,558.5276],[23.8956,-4.2592,554.3906],[23.8858,-4.2622,505.6042],[23.8814,-4.2606,530.6779],[23.8762,-4.2615,522.6445],[23.8697,-4.2603,525.9164],[23.8658,-4.2569,529.101],[23.8585,-4.2559,534.0302],[23.8432,-4.244,526.2349],[23.8232,-4.2409,531.3403],[23.8211,-4.2393,536.8585],[23.8202,-4.2345,477.4344],[23.8124,-4.2359,521.6837],[23.8072,-4.232,509.2829],[23.8005,-4.2329,491.5495],[23.7941,-4.2283,481.8128],[23.7842,-4.2317,513.254],[23.7797,-4.2273,492.4362],[23.7673,-4.2232,522.223],[23.7618,-4.2248,508.1228],[23.7574,-4.2225,508.6157],[23.7528,-4.2234,545.5056],[23.7478,-4.2172,510.3881],[23.7402,-4.2135,522.7276],[23.7336,-4.2128,538.5125],[23.7272,-4.2047,531.6805],[23.7171,-4.207,533.212],[23.7179,-4.2455,513.5585],[23.7117,-4.2848,525.5617],[23.7168,-4.3092,516.3124],[23.7142,-4.3172,497.0045],[23.7151,-4.3207,512.3337],[23.7117,-4.3259,528.1273],[23.7158,-4.3342,529.1985],[23.7133,-4.3393,515.9178],[23.7149,-4.3437,521.7777],[23.7128,-4.3483,559.3395],[23.7144,-4.3519,581.0698],[23.7098,-4.3614,527.8221],[23.7074,-4.3752,535.866],[23.7006,-4.4289,530.7573],[23.7001,-4.4868,601.894],[23.7021,-4.5044,538.098],[23.7095,-4.5218,589.9616],[23.7251,-4.5438,567.0438],[23.7351,-4.5641,624.7294],[23.7379,-4.5743,609.3904],[23.783,-4.6743,638.669],[23.7905,-4.6847,561.9178],[23.8077,-4.7225,571.4051],[23.8154,-4.7327,554.8806],[23.8388,-4.7743,548.892],[23.8464,-4.7963,499.5259],[23.8564,-4.8169,534.6624],[23.8711,-4.8607,554.2914],[23.8838,-4.8707,533.8129],[23.8991,-4.8662,538.6422],[23.9455,-4.8722,595.3984],[23.9508,-4.8701,552.3055],[23.9595,-4.8697,531.5306],[23.9698,-4.8757,592.3947],[23.9739,-4.8764,589.2375],[23.9983,-4.8663,563.4072],[24.0116,-4.8651,624.8],[24.0182,-4.8619,639.5541],[24.023,-4.8628,655.0149],[24.0295,-4.867,641.7694],[24.04,-4.8694,661.8767],[24.0427,-4.8757,679.9208],[24.0269,-4.89,647.6575],[24.0109,-4.9084,628.0809],[23.9996,-4.9077,621.3206],[23.9897,-4.9132,638.963],[23.9762,-4.9238,616.7726],[23.9732,-4.9281,623.4554],[23.9757,-4.9366,579.1497],[23.9725,-4.9403,615.4861],[23.967,-4.9394,608.9875],[23.962,-4.9428,630.2089],[23.9381,-4.9463,614.2874],[23.9289,-4.949,539.8204],[23.9243,-4.9525,560.4437],[23.9147,-4.9656,551.915],[23.913,-4.9701,604.9957],[23.9133,-4.9788,597.6161],[23.9078,-4.9915,550.6231],[23.922,-5.0091,565.7819],[23.9234,-5.0276,531.1594],[23.9144,-5.036,483.9428],[23.9052,-5.0406,522.0465],[23.8926,-5.0417,546.5063],[23.8758,-5.0488,490.5395],[23.8745,-5.0507,538.4168],[23.8726,-5.0562,535.7908],[23.8726,-5.0632,550.4083],[23.8764,-5.0818,628.4061],[23.8812,-5.0933,608.1738],[23.9028,-5.1151,557.4497],[23.9644,-5.1662,531.4835],[23.9958,-5.1948,551.6453],[24.004,-5.195,552.1909],[24.0082,-5.2012,557.7084],[24.0145,-5.206,590.9077],[24.0527,-5.2313,608.4343],[24.0592,-5.2275,565.3752],[24.0749,-5.211,667.8884],[24.081,-5.2108,659.3691],[24.0903,-5.216,669.9149],[24.0823,-5.2336,627.4543],[24.0679,-5.2465,629.6374],[24.0486,-5.2675,558.3389],[24.0393,-5.2784,579.3807],[24.0377,-5.2824,590.2042],[24.0311,-5.2886,551.7269],[24.0305,-5.2936,491.9922],[24.0432,-5.3041,479.4008],[24.0552,-5.3085,529.2688],[24.0692,-5.3237,494.4008],[24.074,-5.3241,554.5177],[24.0827,-5.332,521.3821],[24.0896,-5.3423,514.2504],[24.0953,-5.3448,563.3124],[24.1112,-5.3474,604.1152],[24.1155,-5.352,577.842],[24.1263,-5.3716,527.2303],[24.1437,-5.3797,624.7566],[24.1492,-5.3811,639.5201],[24.1637,-5.3717,610.4527],[24.1828,-5.3777,577.5903],[24.2381,-5.389,638.5479],[24.2851,-5.4081,586.3219],[24.3053,-5.4105,666.0549],[24.3391,-5.404,656.7635],[24.3701,-5.39,653.306],[24.3828,-5.3816,549.7288],[24.3909,-5.3789,586.96],[24.4116,-5.3794,628.1036],[24.4164,-5.3777,642.1503],[24.4216,-5.3717,607.2542],[24.4238,-5.3514,647.3313],[24.4308,-5.3436,625.3203],[24.4362,-5.3419,625.5076],[24.44,-5.3457,602.1829],[24.4554,-5.3781,675.0762],[24.4604,-5.3819,656.8114],[24.479,-5.3907,734.4137],[24.4895,-5.3928,724.3275],[24.4995,-5.3928,731.508],[24.5185,-5.3816,738.3043],[24.5525,-5.3453,669.8693]]]]}}