{"type":"Feature","properties":{"GID_2":"COD.14.7_1","GID_0":"COD","country":"DemocraticRepublicoftheCongo","GID_1":"COD.14_1","province":"Lomami","NL_NAME_1":"NA","county":"Mwene-Ditu","VARNAME_2":"NA","NL_NAME_2":"NA","TYPE_2":"Territoire","ENGTYPE_2":"Territory","CC_2":"NA","HASC_2":"NA","name":"Mwene-Ditu.county"},
"geometry":{"type": "MultiPolygon","coordinates": [[[[23.4453,-6.9348,916.3553],[23.4333,-6.9314,899.0143],[23.4229,-6.9493,910.9163],[23.4102,-6.9822,928.6935],[23.4065,-7.0096,878.3777],[23.4082,-7.0296,885.0499],[23.4311,-7.0306,941.9612],[23.4548,-7.0339,965.5064],[23.4794,-7.0434,899.7703],[23.4942,-7.0407,872.695],[23.509,-7.026,838.1415],[23.5328,-7.0115,837.0156],[23.553,-7.0032,819.7483],[23.5508,-6.9801,853.9571],[23.5464,-6.9587,839.8572],[23.5291,-6.9409,845.5948],[23.5085,-6.9399,846.0972],[23.4749,-6.9417,908.8292],[23.4453,-6.9348,916.3553]]]]}}