{"type": "Feature","bbox": [25.4096,-10.8052,25.5591,-10.7017],"geometry": {"type": "MultiPolygon","coordinates": [[[[25.5591,-10.712,1432.1985],[25.55,-10.7017,1398.516],[25.536,-10.7026,1438.5149],[25.5202,-10.7081,1512.8831],[25.471,-10.713,1483.519],[25.4564,-10.7073,1434.4943],[25.4352,-10.7101,1400.6333],[25.4327,-10.7255,1475.4178],[25.4248,-10.7354,1467.3361],[25.4145,-10.7404,1477.2125],[25.4096,-10.7463,1474.0382],[25.4108,-10.7534,1507.0273],[25.432,-10.7634,1471.731],[25.4502,-10.7764,1527.2415],[25.4508,-10.8007,1543.9523],[25.5333,-10.8052,1420.0369],[25.5164,-10.7721,1522.4666],[25.5268,-10.7557,1514.8096],[25.5329,-10.7387,1505.533],[25.5469,-10.7361,1468.5703],[25.5511,-10.7326,1456.8003],[25.5591,-10.712,1432.1985]]]]}
,"properties": {"GID_2": "COD.15.4_1","GID_0": "COD","country": "DemocraticRepublicoftheCongo","GID_1": "COD.15_1","province": "Lualaba","NL_NAME_1": "NA","county": "Kolwezi","VARNAME_2": "NA","NL_NAME_2": "NA","TYPE_2": "Territoire","ENGTYPE_2": "Territory","CC_2": "NA","HASC_2": "NA","name": "Kolwezi.county","area_km2": 115.23216,"hist_schema_id": "Elevation0-9000","hist_area_km2": {"1350": 0.08333,"1375": 0.04167,"1400": 1.81245,"1425": 7.08276,"1450": 10.18641,"1475": 21.3516,"1500": 24.53832,"1525": 40.72167,"1550": 9.41396}}}