{"type":"Feature","properties":{"GID_2":"COD.2.8_1","GID_0":"COD","country":"DemocraticRepublicoftheCongo","GID_1":"COD.2_1","province":"Équateur","NL_NAME_1":"NA","county":"Makanza","VARNAME_2":"NA","NL_NAME_2":"NA","TYPE_2":"Territoire","ENGTYPE_2":"Territory","CC_2":"NA","HASC_2":"NA","name":"Makanza.county"},
"geometry":{"type": "MultiPolygon","coordinates": [[[[19.2129,1.3498,336.4638],[19.2101,1.4592,333.0912],[19.2163,1.5603,340.02],[19.2119,1.5651,337.2163],[19.2125,1.5669,338.4841],[19.2085,1.5775,331.6604],[19.2154,1.6224,324.0162],[19.2246,1.6319,317.8558],[19.2241,1.6335,320.7345],[19.2304,1.6428,321.0906],[19.2624,1.6701,322.2102],[19.2674,1.6715,321.7448],[19.2826,1.6838,322.6862],[19.2937,1.6906,325.0996],[19.3027,1.699,333.2458],[19.3118,1.7026,327.4032],[19.3184,1.7086,334.4165],[19.356,1.718,313.5],[19.3571,1.7199,313.5],[19.3861,1.7298,336.9361],[19.3933,1.737,330.5551],[19.4213,1.7491,325.6095],[19.4272,1.7537,329.1605],[19.4322,1.7538,328.663],[19.4688,1.7726,327.2412],[19.4767,1.7791,316.0466],[19.4804,1.7782,327.8621],[19.5082,1.7861,314.0],[19.5155,1.7896,329.6285],[19.5686,1.8026,331.6248],[19.5972,1.8052,331.0204],[19.6008,1.8025,331.9301],[19.6339,1.8109,339.0721],[19.682,1.8197,334.9686],[19.7008,1.8201,339.0164],[19.7127,1.817,339.8819],[19.7323,1.8172,338.0212],[19.749,1.8218,335.9307],[19.7999,1.8308,335.7704],[19.8221,1.8432,336.5288],[19.8246,1.8501,337.977],[19.8207,1.8676,337.225],[19.819,1.8862,314.5],[19.8136,1.9002,324.6397],[19.8241,1.9185,320.0386],[19.831,1.9383,324.892],[19.8385,1.9464,322.0644],[19.8485,1.9482,317.5],[19.8578,1.9579,328.8608],[19.8644,1.9582,337.5897],[19.8778,1.9473,337.0248],[19.8817,1.9467,325.7877],[19.8882,1.9529,323.1379],[19.8892,1.9675,321.8914],[19.8953,1.9742,328.7263],[19.9072,1.9803,323.9905],[19.9081,1.9842,329.0789],[19.9041,1.9922,324.25],[19.9051,2.0069,325.4977],[19.7213,2.0037,343.06],[19.6003,2.0052,342.2619],[19.5119,2.022,341.3031],[19.4498,2.0394,345.7154],[19.3374,1.958,341.8094],[19.255,1.8867,342.8382],[19.1144,1.7811,340.5414],[18.8464,1.613,339.3054],[18.768,1.5615,340.0405],[18.686,1.5012,332.8291],[18.6313,1.4444,333.7843],[18.6084,1.4048,336.4842],[18.5324,1.286,333.7354],[18.451,1.1639,329.1333],[18.3821,1.0535,328.8313],[18.2866,0.8888,329.7744],[18.2488,0.8104,330.1908],[18.1728,0.6656,321.3867],[18.171,0.4894,321.4341],[18.2795,0.5804,326.4722],[18.2938,0.5886,325.7155],[18.3243,0.6149,327.7393],[18.332,0.618,331.2265],[18.3566,0.6406,303.75],[18.3668,0.6467,306.0547],[18.3609,0.6866,304.5],[18.3635,0.6935,304.5],[18.3647,0.7064,304.5],[18.3681,0.7134,313.1021],[18.3697,0.7134,315.2773],[18.3821,0.7432,319.3627],[18.3849,0.7565,304.5],[18.4164,0.7776,324.6388],[18.428,0.7872,321.0003],[18.6849,1.0373,326.1348],[18.695,1.0423,327.9443],[18.7289,1.0505,325.9961],[18.7892,1.1103,326.3927],[18.8233,1.1199,327.459],[18.8304,1.1244,325.7565],[18.8659,1.1561,329.1363],[18.8902,1.1731,332.0542],[18.9009,1.1743,331.2225],[18.9106,1.1775,330.784],[18.9434,1.2025,332.057],[18.9776,1.2143,329.4662],[18.9992,1.2264,324.6171],[19.0337,1.2495,323.0285],[19.0468,1.2551,322.3237],[19.0636,1.2568,322.2676],[19.0944,1.2703,327.1634],[19.1507,1.3046,333.4642],[19.2129,1.3498,336.4638]]]]}}