{"type": "Feature","bbox": [21.4626,2.0991,21.590699999999998,2.1765],"geometry": {"type": "MultiPolygon","coordinates": [[[[21.590699999999998,2.1242,347.9728],[21.58,2.1455,336.5],[21.5693,2.1613,346.7151],[21.5489,2.1738,440.474],[21.5385,2.1765,427.9303],[21.5295,2.1765,379.1126],[21.5021,2.1714,460.966],[21.4846,2.1637,443.7905],[21.478,2.1566,408.5088],[21.4642,2.134,340.6406],[21.4626,2.1243,336.8398],[21.4629,2.1132,341.8915],[21.4642,2.1051,335.5],[21.4677,2.0991,335.5],[21.4985,2.1074,343.7481],[21.5024,2.1111,338.2987],[21.537,2.1243,346.6514],[21.590699999999998,2.1242,347.9728]]]]}
,"properties": {"GID_2": "COD.18.5_1","GID_0": "COD","country": "DemocraticRepublicoftheCongo","GID_1": "COD.18_1","province": "Mongala","NL_NAME_1": "NA","county": "Lisala(ville)","VARNAME_2": "NA","NL_NAME_2": "NA","TYPE_2": "Ville","ENGTYPE_2": "Town","CC_2": "NA","HASC_2": "NA","name": "Lisala(ville).county","area_km2": 73.83811,"hist_schema_id": "Elevation0-9000","hist_area_km2": {"325": 35.74339,"350": 15.33971,"375": 4.11032,"400": 7.05534,"425": 7.26719,"450": 4.04673,"475": 0.27543}}}