{"type":"Feature","properties":{"GID_2":"COD.26.1_1","GID_0":"COD","country":"DemocraticRepublicoftheCongo","GID_1":"COD.26_1","province":"Tshuapa","NL_NAME_1":"NA","county":"Befale","VARNAME_2":"NA","NL_NAME_2":"NA","TYPE_2":"Territoire","ENGTYPE_2":"Territory","CC_2":"NA","HASC_2":"NA","name":"Befale.county"},
"geometry":{"type": "MultiPolygon","coordinates": [[[[20.2951,0.3751,344.3822],[20.3399,0.3595,342.9605],[20.3535,0.3479,372.1114],[20.3578,0.33,374.3979],[20.3619,0.3241,379.2764],[20.3725,0.3161,371.9127],[20.3762,0.3095,352.0531],[20.379,0.3082,372.235],[20.379,0.3054,371.9244],[20.3919,0.2956,382.9843],[20.3985,0.2929,374.9294],[20.4225,0.2629,372.9261],[20.4265,0.2544,369.3884],[20.4306,0.2503,363.2056],[20.4471,0.242,366.3596],[20.4685,0.2017,367.974],[20.4952,0.176,365.2023],[20.5069,0.1665,374.0699],[20.5173,0.1606,376.5246],[20.531,0.1559,373.8214],[20.5483,0.1542,376.8109],[20.5633,0.145,381.7919],[20.571,0.1425,383.7382],[20.5747,0.1381,377.7478],[20.5767,0.1317,386.5687],[20.5769,0.1213,393.0188],[20.5701,0.1057,378.6544],[20.564,0.0992,367.0334],[20.5372,0.0853,372.6913],[20.4757,0.0456,372.0432],[20.4654,0.0351,352.1799],[20.4637,0.0302,367.1591],[20.4643,0.0194,349.016],[20.4648,0.0143,351.6594],[20.4682,0.0092,363.7558],[20.4722,0.0063,370.6319],[20.5279,0.0038,372.1366],[20.562,-0.0016,376.2872],[20.5666,-0.0041,371.4759],[20.5868,-0.0306,369.333],[20.6238,-0.0308,373.9205],[20.6457,-0.0255,372.1956],[20.6591,-0.0205,371.9912],[20.6722,-0.0121,375.2416],[20.6875,-0.0062,392.6879],[20.6938,-0.0084,391.8778],[20.6968,-0.0119,389.7766],[20.7057,-0.0133,377.5759],[20.7173,-0.0085,367.6785],[20.7301,-0.0075,367.4752],[20.7582,-0.0127,368.9916],[20.7843,-0.0256,359.1926],[20.7994,-0.0301,373.9337],[20.8105,-0.0439,363.8502],[20.8112,-0.0384,360.953],[20.8185,-0.0343,363.6946],[20.8211,-0.0251,355.484],[20.819,-0.0155,377.5586],[20.8145,-0.0127,365.2401],[20.8099,0.0,361.9465],[20.8129,0.0065,368.479],[20.8787,0.0408,366.1487],[20.9108,0.0548,379.298],[20.9252,0.0567,392.1058],[20.9342,0.0601,385.4664],[20.9473,0.0807,375.5591],[20.9559,0.0861,372.8343],[20.9603,0.0854,378.696],[20.9639,0.0889,364.8055],[20.9725,0.0897,365.3992],[20.978,0.0941,387.0472],[20.9819,0.0948,382.9901],[20.9871,0.0923,362.1271],[20.9912,0.0933,360.3046],[21.0149,0.0886,376.6096],[21.1067,0.1602,380.2094],[21.1314,0.1905,380.9248],[21.1415,0.1943,377.9548],[21.1536,0.2017,376.3592],[21.1611,0.2112,382.1657],[21.1677,0.2136,386.3165],[21.1696,0.2014,372.7032],[21.1742,0.1916,369.5268],[21.1891,0.1809,363.5918],[21.2065,0.1824,360.2913],[21.216,0.1905,365.5416],[21.2196,0.1917,369.0725],[21.2231,0.1897,362.3548],[21.2231,0.1858,368.3583],[21.216,0.1857,368.4491],[21.2147,0.1836,364.4232],[21.2191,0.1779,351.2182],[21.2266,0.1792,367.3705],[21.2318,0.1776,365.1193],[21.2333,0.1684,369.0856],[21.2322,0.1656,369.9182],[21.2265,0.1656,369.5509],[21.226,0.1628,370.0178],[21.2283,0.1585,372.0323],[21.2343,0.1581,370.9037],[21.2398,0.1556,373.0396],[21.2437,0.1478,367.9397],[21.2515,0.1488,369.5165],[21.2542,0.1477,368.6568],[21.2551,0.1452,371.3325],[21.2536,0.1371,384.1616],[21.2621,0.1296,382.868],[21.2647,0.1248,374.0956],[21.2645,0.1211,376.2544],[21.2562,0.1061,378.7116],[21.2617,0.1011,374.002],[21.2658,0.1,375.9734],[21.2714,0.1081,372.3083],[21.2787,0.1082,389.2826],[21.2888,0.1002,377.7292],[21.2973,0.1012,374.1683],[21.2912,0.0938,392.7835],[21.2981,0.0888,400.2513],[21.3056,0.087,379.0107],[21.3186,0.089,373.0139],[21.327,0.0861,367.9185],[21.3373,0.0866,369.3951],[21.3364,0.0829,374.1893],[21.3508,0.0844,370.6494],[21.3576,0.0893,366.6995],[21.361,0.0896,364.9227],[21.3635,0.088,356.7922],[21.3641,0.0786,356.0634],[21.3666,0.0747,374.83],[21.3712,0.074,372.086],[21.375,0.0759,392.219],[21.3782,0.0821,388.7839],[21.3807,0.083,389.9966],[21.3848,0.079,394.861],[21.3898,0.0788,395.6089],[21.3941,0.0843,391.358],[21.3991,0.086,384.6147],[21.4128,0.0854,378.8304],[21.4171,0.0877,373.1064],[21.4226,0.0843,374.2634],[21.4384,0.0815,373.9626],[21.4436,0.0852,374.2473],[21.4479,0.0861,377.1826],[21.4587,0.0789,372.387],[21.4623,0.0828,373.6964],[21.4655,0.0833,373.2544],[21.4704,0.0804,372.0896],[21.474,0.0802,373.2755],[21.4815,0.0841,369.6116],[21.4893,0.0835,374.6738],[21.4899,0.0865,375.2499],[21.4885,0.0897,374.9046],[21.483,0.0956,368.2186],[21.4825,0.0981,369.9352],[21.4864,0.103,369.9105],[21.4916,0.1021,369.8733],[21.5011,0.0914,374.062],[21.5081,0.0876,373.1543],[21.5118,0.0874,377.6475],[21.5166,0.092,372.7337],[21.5165,0.0982,371.5481],[21.5187,0.103,371.3385],[21.524,0.1024,370.1046],[21.5245,0.1006,372.2985],[21.5208,0.0975,374.2252],[21.5213,0.0948,373.5578],[21.5261,0.0935,373.6992],[21.5329,0.0953,376.8073],[21.5341,0.0937,377.528],[21.5348,0.0901,376.9784],[21.5306,0.0825,380.0851],[21.5313,0.0799,377.3958],[21.5371,0.0857,376.1612],[21.5435,0.0867,372.2635],[21.547,0.084,377.5342],[21.5493,0.0789,376.9396],[21.5482,0.0743,378.2346],[21.5503,0.0709,378.9678],[21.5623,0.0797,376.0083],[21.5787,0.0822,377.7422],[21.5853,0.0875,373.6397],[21.5886,0.0942,374.8798],[21.5969,0.0887,373.2258],[21.6039,0.0932,376.9119],[21.6053,0.0904,374.6609],[21.6078,0.09,376.7956],[21.6114,0.0932,374.9644],[21.6146,0.0928,376.3054],[21.6183,0.0869,376.8969],[21.6206,0.0869,376.34],[21.6201,0.0921,376.647],[21.6221,0.0961,376.3779],[21.6294,0.0968,373.9081],[21.6378,0.1003,373.3552],[21.6415,0.0974,371.49],[21.6375,0.0884,371.5466],[21.648,0.085,375.4087],[21.666,0.0918,372.5411],[21.6689,0.0907,368.5641],[21.6699,0.0822,375.1482],[21.6654,0.0748,376.0135],[21.6664,0.0714,376.8583],[21.668,0.0709,374.2679],[21.6784,0.0786,376.7915],[21.6836,0.0793,375.6076],[21.685,0.0835,373.3496],[21.687,0.0846,373.8216],[21.6923,0.0829,370.3588],[21.6982,0.0833,373.3611],[21.7063,0.0921,375.6106],[21.7107,0.0876,376.0451],[21.715699999999998,0.0851,368.7744],[21.7216,0.0943,371.6642],[21.7266,0.0939,370.428],[21.7287,0.0898,369.5672],[21.7265,0.0815,371.508],[21.7274,0.0781,370.351],[21.7315,0.0836,373.8033],[21.74,0.0782,376.6177],[21.7443,0.083,376.0775],[21.7486,0.081,378.7832],[21.7544,0.0675,382.2825],[21.7527,0.0599,383.8966],[21.7534,0.0567,386.7792],[21.7554,0.056,381.8776],[21.7633,0.0682,374.8699],[21.7706,0.0708,379.2921],[21.7739,0.0828,374.7735],[21.7764,0.0863,372.1897],[21.7796,0.0881,373.4333],[21.7862,0.088,374.2922],[21.7796,0.0835,372.0523],[21.7767,0.0785,380.1259],[21.7756,0.0693,379.6874],[21.7727,0.0621,381.9045],[21.7732,0.0578,377.9761],[21.7703,0.0541,380.1624],[21.7776,0.053,380.6349],[21.7829,0.0493,382.8647],[21.7879,0.043,384.1653],[21.7927,0.0476,383.2747],[21.7961,0.0446,382.8111],[21.7984,0.0485,382.8075],[21.8045,0.0486,379.7513],[21.8084,0.0532,379.1429],[21.8171,0.0492,372.2008],[21.8182,0.0556,370.4828],[21.8207,0.057,369.383],[21.8298,0.0536,387.7522],[21.836,0.0477,382.6114],[21.8408,0.05,378.4714],[21.8431,0.0496,384.5941],[21.8465,0.0446,384.6044],[21.8524,0.0474,379.2379],[21.8582,0.043,382.0739],[21.863,0.0422,386.2125],[21.8722,0.033,384.1617],[21.8831,0.032,384.7928],[21.8898,0.0261,385.1187],[21.9101,0.0189,387.5332],[21.9122,0.0168,387.2103],[21.9132,0.0113,385.7042],[21.9198,0.0132,380.9674],[21.9218,0.0105,382.544],[21.9284,0.0105,392.2025],[21.9326,0.0062,388.405],[21.9392,0.0095,383.1268],[21.9486,0.0042,385.1448],[21.9627,0.0053,380.7489],[21.9652,0.009,381.1791],[21.9686,0.0081,384.218],[21.9716,0.0049,384.9196],[21.9759,0.01,379.7462],[21.982,0.0121,385.2442],[21.985,0.0093,363.777],[21.9906,0.0206,422.042],[21.9952,0.023,417.6693],[21.9977,0.02,421.4615],[22.0056,0.0279,379.9832],[22.0148,0.0259,417.945],[22.0209,0.0326,401.2284],[22.0286,0.0354,394.9806],[22.0352,0.0355,398.8111],[22.0414,0.0385,398.5575],[22.0432,0.035,401.6831],[22.0476,0.0346,385.6716],[22.053,0.0418,395.8973],[22.0575,0.0443,395.0535],[22.0579,0.0521,381.9213],[22.0697,0.058,383.106],[22.0761,0.0582,380.7836],[22.0811,0.0633,383.603],[22.0866,0.0629,383.478],[22.0944,0.0559,380.7832],[22.1044,0.0566,387.1964],[22.1144,0.0622,388.4688],[22.1244,0.0648,390.0027],[22.1278,0.0674,388.8625],[22.1299,0.072,391.23],[22.1362,0.0725,393.3947],[22.1399,0.0697,387.619],[22.1462,0.0774,390.8286],[22.1576,0.0837,387.7077],[22.1775,0.0804,388.7458],[22.1878,0.1,388.688],[22.1914,0.1131,380.7232],[22.1979,0.12,376.081],[22.2067,0.1403,419.8841],[22.2135,0.1746,391.6942],[22.2183,0.1801,393.1679],[22.2268,0.1835,428.9366],[22.2409,0.1862,412.5671],[22.2701,0.2001,433.0511],[22.2783,0.2509,432.1608],[22.2713,0.2827,425.2303],[22.2261,0.3396,406.9452],[22.2079,0.3661,436.3783],[22.2052,0.3741,432.4371],[22.1899,0.4836,431.7993],[22.1872,0.494,437.3444],[22.1703,0.5214,455.6265],[22.1615,0.5432,462.0481],[22.1272,0.5571,451.369],[22.1155,0.56,455.5807],[22.1011,0.5597,450.1317],[22.0868,0.5548,448.9365],[22.0733,0.5558,444.785],[22.05,0.5625,398.0519],[22.0321,0.578,429.2881],[22.0226,0.5895,425.0781],[21.9717,0.59,421.3046],[21.9642,0.5925,411.8128],[21.959,0.5876,415.7656],[21.95,0.5905,403.336],[21.9405,0.5897,404.6056],[21.9206,0.5937,416.4703],[21.9126,0.593,418.9772],[21.9053,0.5959,401.5558],[21.8863,0.5951,409.2007],[21.8598,0.5995,423.364],[21.8516,0.5976,400.6265],[21.843,0.5931,399.337],[21.8313,0.5928,395.3419],[21.8238,0.5971,386.8954],[21.8197,0.5969,380.9407],[21.8156,0.5941,391.3978],[21.8039,0.5951,391.947],[21.7975,0.6004,387.8848],[21.7938,0.6013,393.4466],[21.7864,0.599,397.9608],[21.777,0.5987,409.0104],[21.7604,0.6006,409.5625],[21.7474,0.5944,404.9685],[21.7428,0.5947,410.1322],[21.7217,0.6099,405.1732],[21.6913,0.6034,386.489],[21.6856,0.6037,385.3318],[21.6761,0.6071,387.9917],[21.6381,0.6241,376.3009],[21.6279,0.6302,382.8093],[21.5901,0.6463,389.6499],[21.5803,0.6469,397.4089],[21.5686,0.6528,398.6366],[21.5641,0.6577,389.4382],[21.5668,0.6624,382.6053],[21.5717,0.6662,398.8825],[21.6022,0.6821,412.7499],[21.6079,0.6908,416.7981],[21.6249,0.6999,429.7216],[21.6322,0.7109,422.2185],[21.6339,0.7256,410.1392],[21.6059,0.7277,422.4883],[21.5808,0.7446,399.8873],[21.5698,0.7481,400.3011],[21.5312,0.7472,376.1746],[21.5113,0.7623,416.274],[21.5042,0.7722,400.6423],[21.4773,0.7939,434.5237],[21.4598,0.8035,423.4668],[21.4495,0.8041,389.8657],[21.4128,0.8002,411.5335],[21.4057,0.8029,403.3369],[21.3895,0.8165,430.7662],[21.3419,0.8188,405.9011],[21.2992,0.8479,410.3199],[21.2796,0.853,405.9315],[21.233,0.8586,400.562],[21.2113,0.8777,414.971],[21.1745,0.888,413.075],[21.1601,0.8961,399.9221],[21.1302,0.9174,427.9064],[21.1137,0.9098,427.375],[21.0454,0.9384,387.1583],[21.021,0.9508,365.9556],[21.0048,0.9636,368.1373],[20.9981,0.981,370.6133],[20.998,1.0005,410.7745],[21.0019,1.0177,374.242],[21.008,1.0343,433.1049],[21.0227,1.0617,444.1764],[21.0145,1.0795,395.8466],[21.0214,1.1002,424.1424],[21.0143,1.1802,359.0988],[21.0056,1.191,360.4043],[21.0024,1.1923,357.5143],[20.9999,1.1875,349.1097],[20.9971,1.1879,364.0701],[20.9899,1.1816,362.9001],[20.9842,1.1839,356.7691],[20.975,1.1836,361.6754],[20.9668,1.1798,359.9768],[20.9568,1.1795,360.4891],[20.9527,1.1735,355.6519],[20.949,1.1774,361.2092],[20.9468,1.1723,360.695],[20.939,1.1722,362.9147],[20.9358,1.1756,361.6403],[20.9285,1.1767,360.3402],[20.9253,1.179,361.0936],[20.9202,1.1783,347.4587],[20.9148,1.1729,362.9651],[20.91,1.1707,361.4495],[20.906,1.1714,358.2567],[20.9079,1.1768,362.7688],[20.896,1.178,356.811],[20.8929,1.175,359.7304],[20.891,1.1766,360.8947],[20.8872,1.175,360.4199],[20.8869,1.1787,357.3686],[20.8816,1.1814,352.0115],[20.8798,1.1818,350.268],[20.8766,1.179,359.4709],[20.8709,1.1786,361.8862],[20.8514,1.1862,360.1529],[20.8437,1.1794,352.7565],[20.8401,1.181,356.7761],[20.8344,1.1791,360.356],[20.8309,1.1798,359.3977],[20.8268,1.1777,359.1748],[20.8232,1.1719,353.614],[20.818,1.1709,355.1546],[20.8161,1.1732,355.1887],[20.812,1.1741,345.5241],[20.8072,1.1717,359.2457],[20.8038,1.1749,342.683],[20.8058,1.1765,345.3987],[20.8054,1.1786,360.8392],[20.8028,1.179,357.4748],[20.8008,1.176,358.9153],[20.7923,1.178,358.5834],[20.7847,1.1701,340.2748],[20.7822,1.1703,354.7762],[20.7816,1.1743,359.4789],[20.7768,1.1744,360.2144],[20.7725,1.1703,356.7711],[20.77,1.1698,358.2682],[20.7636,1.1745,356.064],[20.7606,1.175,357.0083],[20.7528,1.182,350.6606],[20.7436,1.184,355.335],[20.7341,1.1832,356.0819],[20.7284,1.1779,359.1667],[20.7174,1.178,359.2103],[20.7131,1.1741,345.1521],[20.7104,1.175,351.8938],[20.7067,1.1796,357.7173],[20.6923,1.1797,357.8875],[20.6909,1.1824,357.2611],[20.6801,1.1839,348.3301],[20.6661,1.193,356.1638],[20.6602,1.1909,357.2351],[20.6531,1.1947,349.4438],[20.6475,1.2018,338.6612],[20.6418,1.2047,356.2624],[20.6395,1.2095,354.5626],[20.6317,1.2088,355.5218],[20.6272,1.203,346.3369],[20.6238,1.2034,347.1918],[20.621,1.2086,355.5116],[20.6157,1.2091,354.1919],[20.6137,1.2077,356.376],[20.6073,1.2101,350.3488],[20.6011,1.2094,349.7575],[20.5986,1.213,353.3421],[20.5878,1.215,345.3911],[20.5866,1.223,353.8288],[20.583,1.2202,346.5502],[20.5795,1.2237,356.7609],[20.575,1.2213,347.4113],[20.574,1.2287,357.4095],[20.5594,1.2285,356.857],[20.5559,1.2356,358.078],[20.5049,1.1427,396.562],[20.4881,1.1088,388.248],[20.4794,1.1041,376.8065],[20.4756,1.1001,385.9884],[20.4702,1.0909,390.9337],[20.4584,1.0774,361.2674],[20.4478,1.0732,373.8088],[20.4378,1.0618,358.6639],[20.4348,1.0402,356.6188],[20.4324,1.0347,356.2135],[20.4312,1.0151,354.1207],[20.4326,0.9657,344.7566],[20.4402,0.958,350.8643],[20.4373,0.9441,347.9417],[20.4337,0.9402,343.6347],[20.4329,0.934,350.082],[20.4279,0.9305,344.4407],[20.4209,0.9187,353.2813],[20.4141,0.9108,364.2878],[20.4052,0.8933,359.2348],[20.404,0.8735,358.5181],[20.4,0.8585,360.3605],[20.406,0.8328,355.8274],[20.4056,0.7691,387.4602],[20.4099,0.7324,366.6835],[20.4201,0.7091,386.6291],[20.421,0.701,392.4283],[20.4255,0.695,387.7971],[20.4301,0.6734,381.6819],[20.4271,0.6641,371.9436],[20.4003,0.6277,395.6205],[20.3713,0.5927,375.0467],[20.3585,0.5743,397.9565],[20.3565,0.5673,392.9169],[20.357,0.5524,382.7729],[20.3638,0.535,385.8275],[20.3588,0.5122,382.0272],[20.3523,0.4995,380.0911],[20.3482,0.4953,379.8454],[20.3416,0.4918,361.5503],[20.3383,0.4858,361.7732],[20.3333,0.4607,351.9169],[20.3207,0.4425,368.8957],[20.3118,0.4387,377.7299],[20.3,0.4276,367.6768],[20.3026,0.4191,371.1157],[20.2977,0.4085,364.8691],[20.3017,0.3965,351.808],[20.2951,0.3751,344.3822]]]]}}