{"type": "Feature","bbox": [24.1663,2.1677,25.921,3.5028],"geometry": {"type": "MultiPolygon","coordinates": [[[[24.8666,2.2827,433.9605],[24.8696,2.2792,438.7083],[24.877,2.2756,447.4553],[24.8795,2.2708,445.3601],[24.8793,2.262,443.6107],[24.8873,2.254,436.9034],[24.8915,2.2441,439.5373],[24.897,2.24,439.942],[24.8995,2.2416,440.7517],[24.9025,2.2494,430.5189],[24.9057,2.2495,430.6829],[24.9123,2.2566,447.8975],[24.9187,2.2585,444.7421],[24.9225,2.2649,444.9381],[24.9259,2.2663,435.6196],[24.934,2.2608,433.2737],[24.9417,2.2609,446.692],[24.9488,2.2655,431.8925],[24.9509,2.2644,436.736],[24.953,2.2568,438.4098],[24.95,2.2508,438.2609],[24.9526,2.2471,441.6937],[24.9564,2.2471,442.6973],[24.9599,2.2492,450.4031],[24.9605,2.2568,438.4043],[24.9623,2.2598,451.3099],[24.9655,2.2603,450.5052],[24.9717,2.2534,459.7375],[24.9747,2.2525,446.2387],[24.9788,2.2571,448.0129],[24.9861,2.2601,451.6735],[24.9898,2.2595,443.144],[24.9937,2.2551,440.7629],[24.9992,2.2581,445.12],[25.006,2.2575,442.1239],[25.0126,2.2655,451.7174],[25.0149,2.2644,457.4803],[25.0179,2.2566,452.8455],[25.0232,2.2543,455.4378],[25.0234,2.2591,451.138],[25.0259,2.2624,442.7407],[25.0284,2.261,445.0599],[25.0323,2.2518,455.458],[25.0346,2.25,452.0028],[25.0367,2.2509,455.8593],[25.0394,2.256,460.519],[25.0417,2.2555,451.9155],[25.0447,2.2479,453.0176],[25.0465,2.2473,451.809],[25.0493,2.2486,457.0909],[25.0506,2.2546,458.8438],[25.0529,2.2572,455.4155],[25.0591,2.2567,457.1703],[25.0634,2.2538,465.4768],[25.0683,2.2391,457.752],[25.0717,2.2377,457.9405],[25.0825,2.2253,448.6393],[25.0867,2.2246,455.0608],[25.0908,2.2203,468.9085],[25.094,2.2196,449.5315],[25.0956,2.2178,447.7122],[25.0965,2.2106,470.162],[25.0988,2.2088,466.9835],[25.1071,2.2091,455.4865],[25.1123,2.2111,463.0793],[25.1189,2.2277,461.0028],[25.123,2.2314,458.083],[25.1225,2.2347,456.4911],[25.1259,2.2478,451.7386],[25.1295,2.2529,462.2505],[25.138,2.2563,457.5094],[25.1496,2.2647,457.8416],[25.1556,2.2654,459.114],[25.1642,2.2739,456.5669],[25.1679,2.2802,456.6876],[25.1697,2.2889,471.5127],[25.1717,2.2914,468.0955],[25.177,2.2935,463.2142],[25.1827,2.3002,458.9759],[25.1881,2.3021,470.3839],[25.192,2.3065,466.6245],[25.2114,2.3082,469.6687],[25.2492,2.2894,472.9251],[25.2632,2.2892,489.0874],[25.2827,2.2794,489.3057],[25.2859,2.279,469.1182],[25.295,2.2831,477.9149],[25.3053,2.2846,472.7059],[25.3119,2.283,473.2311],[25.3179,2.277,472.8798],[25.3277,2.2741,480.0201],[25.3332,2.275,473.5191],[25.3387,2.2702,468.3046],[25.3401,2.2654,474.1],[25.3466,2.2571,471.5056],[25.3468,2.2518,474.4863],[25.3532,2.2442,475.2457],[25.3619,2.2383,476.0665],[25.37,2.2372,471.2377],[25.3816,2.2291,473.4086],[25.3846,2.2241,479.66],[25.3977,2.2216,470.5603],[25.4025,2.2182,479.3214],[25.4128,2.2166,473.9651],[25.4155,2.2143,484.2405],[25.413,2.2092,477.1163],[25.4153,2.2067,484.7579],[25.4263,2.2061,476.9655],[25.4364,2.1992,496.82],[25.4513,2.1986,487.9645],[25.4568,2.2006,486.0627],[25.4627,2.1997,487.2648],[25.465699999999998,2.2016,487.9759],[25.4716,2.2018,488.4206],[25.4783,2.1991,487.6325],[25.4888,2.1998,485.4271],[25.4977,2.1964,485.3536],[25.5069,2.1953,485.2117],[25.5119,2.1912,489.0065],[25.5199,2.1778,489.1416],[25.5275,2.174,485.5683],[25.5408,2.1724,492.15],[25.5463,2.1749,498.7549],[25.5648,2.1771,482.1989],[25.5696,2.175,512.5298],[25.5842,2.1774,495.3652],[25.5874,2.1753,522.5254],[25.5934,2.1765,500.8835],[25.602,2.1744,540.0316],[25.607,2.1677,567.6176],[25.624,2.173,579.8641],[25.6419,2.1732,563.3687],[25.6598,2.1785,601.1713],[25.6931,2.1993,563.2032],[25.7289,2.2252,543.2126],[25.7405,2.2266,547.2873],[25.7622,2.2581,560.8369],[25.7776,2.2646,588.5659],[25.7923,2.2743,571.8177],[25.807,2.2783,588.7118],[25.8205,2.2644,605.031],[25.8403,2.2652,593.563],[25.8499,2.2627,575.322],[25.864,2.2539,554.4881],[25.88,2.2515,561.8644],[25.8941,2.2555,572.2646],[25.8915,2.2689,599.8312],[25.8774,2.2962,592.1122],[25.8749,2.3179,608.7699],[25.8416,2.3774,623.9857],[25.8288,2.3958,619.422],[25.8198,2.4168,621.3342],[25.8141,2.4417,647.8174],[25.8134,2.4813,627.1974],[25.8205,2.4967,610.9575],[25.8314,2.5102,616.3251],[25.8301,2.5243,607.4243],[25.8064,2.5806,599.9024],[25.7965,2.599,593.9325],[25.784,2.6146,587.2019],[25.7776,2.6295,569.4771],[25.7696,2.64,575.603],[25.7655,2.6518,595.9471],[25.777,2.6628,602.0878],[25.7824,2.6794,608.0995],[25.7821,2.6938,614.9265],[25.784,2.7044,608.0426],[25.7914,2.7153,631.913],[25.8013,2.7352,619.7122],[25.8093,2.7768,605.5278],[25.8084,2.7883,627.8173],[25.778,2.8232,633.6842],[25.7661,2.845,610.9937],[25.7841,2.8591,624.8575],[25.79,2.8822,610.1771],[25.825,2.8907,651.0051],[25.8417,2.8979,645.7836],[25.8522,2.9069,652.3326],[25.8567,2.9162,644.031],[25.8676,2.9297,638.5913],[25.8957,2.9546,627.7573],[25.9094,2.97,627.9709],[25.9019,2.9729,632.4958],[25.897,2.9791,621.3677],[25.8927,2.9819,611.3733],[25.8908,2.9862,603.5107],[25.892,2.9918,603.72],[25.903,2.9916,602.1321],[25.908,2.9879,600.4228],[25.9135,2.9884,611.6508],[25.921,2.9962,609.76],[25.9208,2.9992,605.6154],[25.9155,3.0033,613.2622],[25.9009,3.0047,604.0903],[25.8949,3.0086,604.0455],[25.8867,3.0092,602.9094],[25.8715,3.0182,602.7314],[25.8685,3.0232,603.9399],[25.8635,3.0223,615.6935],[25.8575,3.0271,613.9708],[25.8541,3.0336,622.4785],[25.855,3.043,601.4456],[25.8502,3.0432,606.6177],[25.8481,3.045,605.7793],[25.8437,3.0584,618.5345],[25.8458,3.0625,612.2803],[25.8531,3.0649,604.8928],[25.8554,3.0676,606.7106],[25.8531,3.0713,609.8306],[25.8537,3.0773,605.7803],[25.8674,3.0948,608.0984],[25.8692,3.0994,612.1445],[25.8637,3.1192,613.9116],[25.8646,3.1213,608.9832],[25.8717,3.1227,603.1195],[25.876,3.1271,600.9932],[25.8827,3.1252,609.5273],[25.8877,3.1312,623.1978],[25.8835,3.1349,600.6986],[25.8769,3.1351,600.7723],[25.8732,3.1372,608.5405],[25.87,3.1425,598.7428],[25.865,3.1448,609.8313],[25.8611,3.1493,603.4867],[25.8615,3.1576,602.9094],[25.8546,3.1647,605.7274],[25.8427,3.1672,608.9792],[25.839,3.1695,621.6874],[25.8358,3.1741,613.3365],[25.8349,3.1803,610.7229],[25.8362,3.1829,589.1984],[25.8408,3.1824,601.6544],[25.8452,3.1785,598.557],[25.8491,3.1792,602.6611],[25.8539,3.1862,630.4759],[25.8527,3.1891,605.7362],[25.8458,3.188,594.0363],[25.8442,3.19,590.0447],[25.8467,3.1972,587.6664],[25.8469,3.2057,587.1517],[25.8442,3.2133,604.7174],[25.8382,3.2123,595.194],[25.8203,3.2277,593.6719],[25.815,3.242,604.9097],[25.8088,3.2482,605.7225],[25.7923,3.2566,595.5826],[25.7831,3.2757,588.7865],[25.7796,3.278,590.6198],[25.7693,3.2794,594.1517],[25.7636,3.2883,597.3068],[25.7487,3.2979,581.3152],[25.7463,3.3129,601.5875],[25.7497,3.321,602.8698],[25.7486,3.323,608.1488],[25.7431,3.3202,578.0775],[25.7401,3.3209,586.2874],[25.7272,3.3421,603.4622],[25.7188,3.3453,596.3447],[25.718,3.3563,599.6722],[25.7135,3.3535,607.7672],[25.7085,3.3443,590.8922],[25.7062,3.3314,597.34],[25.703,3.328,591.42],[25.6943,3.3256,608.2828],[25.6934,3.3229,596.8649],[25.6969,3.3153,583.0844],[25.6962,3.3079,597.6357],[25.6994,3.3019,593.4652],[25.6976,3.2987,600.8071],[25.6871,3.2931,594.3921],[25.6928,3.2869,580.8953],[25.6968,3.2773,586.5944],[25.7002,3.2743,579.9869],[25.7011,3.2697,612.5928],[25.6993,3.2635,612.2036],[25.692,3.2568,588.2228],[25.6847,3.2554,587.2109],[25.6705,3.2579,593.951],[25.6659,3.2572,577.0138],[25.6579,3.2615,571.8461],[25.6563,3.2654,590.085],[25.6576,3.2721,597.1837],[25.6565,3.2746,613.65],[25.6537,3.2765,611.9944],[25.6368,3.278,597.6782],[25.6328,3.2854,600.3526],[25.6244,3.266,570.8689],[25.6157,3.2722,601.0431],[25.6121,3.2678,572.5479],[25.6052,3.269,592.3683],[25.5949,3.2735,584.1164],[25.5951,3.2648,588.1534],[25.5931,3.2627,596.9537],[25.5873,3.2673,630.3682],[25.5848,3.2717,596.743],[25.5821,3.2721,586.1113],[25.5773,3.2679,608.1637],[25.5676,3.2684,582.0094],[25.561,3.2713,617.3304],[25.5509,3.2713,583.7487],[25.5408,3.2763,595.3625],[25.5142,3.2972,585.7836],[25.5105,3.2981,589.3939],[25.5009,3.2969,596.5069],[25.4957,3.2937,582.8848],[25.4909,3.2879,581.1908],[25.4867,3.2888,585.7044],[25.4785,3.2996,578.2419],[25.4674,3.3086,581.5002],[25.4208,3.3593,580.2484],[25.4173,3.3708,594.6378],[25.4113,3.376,580.7339],[25.3974,3.3698,578.3032],[25.3915,3.3645,581.036],[25.3882,3.3651,578.9337],[25.3813,3.3723,580.6241],[25.3694,3.375,577.4346],[25.3477,3.3668,608.9169],[25.3377,3.3571,568.9609],[25.3279,3.338,578.1555],[25.3192,3.3338,567.5803],[25.3137,3.3278,572.8209],[25.3039,3.3223,561.968],[25.2892,3.3197,560.0919],[25.2828,3.3201,566.2448],[25.2791,3.327,554.4682],[25.2762,3.3293,560.1528],[25.2562,3.3331,565.658],[25.2528,3.3318,562.5817],[25.2489,3.3225,563.4308],[25.2462,3.3221,559.1738],[25.2377,3.3312,568.8484],[25.2287,3.3349,565.1861],[25.223,3.342,569.1107],[25.2152,3.3424,563.827],[25.2038,3.3318,561.3314],[25.1896,3.3347,566.6665],[25.1771,3.3579,561.2726],[25.1714,3.3621,559.2706],[25.1526,3.3701,563.7697],[25.1441,3.3785,559.0637],[25.1378,3.3803,558.2499],[25.1282,3.3882,565.0469],[25.1229,3.3999,561.6266],[25.1217,3.4151,561.7891],[25.1054,3.4189,562.0408],[25.0887,3.4163,559.7056],[25.0635,3.4233,562.3392],[25.0585,3.4231,563.5193],[25.0445,3.415,559.8618],[25.0322,3.4025,557.2717],[25.027,3.4004,584.4879],[25.0197,3.3942,540.8655],[25.01,3.3951,560.0835],[25.0027,3.3936,560.4524],[24.997,3.3954,557.5257],[24.9878,3.4072,538.7743],[24.9848,3.4141,545.7313],[24.9848,3.4191,561.4426],[24.9831,3.4203,543.8064],[24.9826,3.4341,583.8942],[24.9874,3.4428,563.7072],[24.986,3.4477,563.924],[24.9809,3.4536,552.5091],[24.9628,3.4577,533.9722],[24.958,3.4602,530.0],[24.9548,3.4625,537.4757],[24.9534,3.4676,550.4265],[24.9481,3.471,539.1136],[24.9451,3.4756,552.1674],[24.9424,3.4765,550.2722],[24.935,3.4845,553.8589],[24.9265,3.488,554.0885],[24.9174,3.487,541.0811],[24.914,3.4833,540.6644],[24.9115,3.4743,537.0217],[24.9083,3.4702,539.6975],[24.903199999999998,3.4697,546.8877],[24.8982,3.4717,540.5679],[24.8935,3.4772,535.1006],[24.8824,3.4783,551.707],[24.875,3.4841,549.0772],[24.8558,3.4881,540.6293],[24.842,3.4943,526.0],[24.8257,3.4924,525.0],[24.8147,3.4953,531.4899],[24.8049,3.4939,526.8704],[24.8012,3.5024,531.4154],[24.7893,3.5028,532.9489],[24.7849,3.5019,536.6682],[24.7662,3.4891,523.5741],[24.7513,3.4884,517.4482],[24.7431,3.4812,528.2362],[24.7316,3.483,535.6137],[24.7291,3.4791,540.7229],[24.7281,3.4648,509.0],[24.7237,3.4609,513.0985],[24.7116,3.4664,512.3521],[24.7033,3.4654,529.4084],[24.6981,3.4628,520.79],[24.6868,3.4674,528.3658],[24.6772,3.4763,523.4695],[24.6778,3.4846,530.2462],[24.6735,3.4871,520.7409],[24.6704,3.4933,518.8297],[24.6661,3.4947,508.0366],[24.6629,3.4979,517.1584],[24.6491,3.5004,517.0726],[24.6213,3.4793,505.5],[24.6126,3.4795,505.5],[24.6068,3.477,528.6747],[24.6046,3.4684,508.6614],[24.6025,3.4673,505.5],[24.6,3.4684,505.5],[24.5915,3.4672,505.5],[24.5792,3.4635,505.5],[24.593,3.4562,530.2987],[24.5978,3.4458,539.3966],[24.6036,3.4424,549.4553],[24.6159,3.4411,537.1084],[24.6286,3.4358,539.4244],[24.6504,3.4194,552.9272],[24.6672,3.4029,551.1163],[24.6713,3.3902,584.6572],[24.684,3.3788,569.3062],[24.6905,3.3643,579.3083],[24.699,3.3514,559.7629],[24.7043,3.3379,550.6656],[24.7009,3.3296,562.8716],[24.6955,3.3061,575.8542],[24.6954,3.2789,586.832],[24.698,3.2663,564.0999],[24.6967,3.2559,575.7033],[24.702,3.2354,569.1775],[24.7035,3.2193,593.4398],[24.7081,3.2078,560.8461],[24.7192,3.1904,591.1805],[24.719,3.1569,576.2029],[24.7164,3.1537,575.9901],[24.7047,3.1544,579.3243],[24.7005,3.1634,582.2744],[24.6965,3.1864,577.5475],[24.6924,3.1912,595.7371],[24.6832,3.185,549.5053],[24.678,3.1766,536.0937],[24.6755,3.1667,542.9387],[24.6691,3.1584,509.1752],[24.6696,3.1543,518.3365],[24.6765,3.147,523.5194],[24.677,3.1428,522.3616],[24.666,3.1336,510.8235],[24.6535,3.1305,506.4854],[24.6358,3.1309,506.5729],[24.628,3.1334,488.4597],[24.618,3.1301,499.7181],[24.61,3.1324,474.9803],[24.6049,3.131,469.7846],[24.5922,3.1183,471.6806],[24.5842,3.1194,461.3471],[24.5764,3.1118,469.1783],[24.5732,3.1115,463.9133],[24.5684,3.1159,465.8378],[24.5506,3.105,461.6612],[24.5437,3.1052,447.0597],[24.5302,3.0989,447.1573],[24.5154,3.0873,446.6499],[24.5133,3.0836,441.5291],[24.5024,3.0781,437.7858],[24.4969,3.0732,429.4159],[24.4951,3.067,432.388],[24.4977,3.0502,434.0422],[24.4937,3.0262,429.3871],[24.4907,3.0198,427.2484],[24.4912,3.0119,427.6532],[24.4949,3.0025,428.633],[24.4941,2.9924,424.1676],[24.4908,2.9768,420.6611],[24.4832,2.9574,418.8273],[24.482,2.9277,418.593],[24.4841,2.9192,411.8778],[24.4934,2.898,410.3107],[24.4998,2.8902,411.5081],[24.5124,2.8804,422.3822],[24.5221,2.8618,408.2861],[24.5226,2.8554,398.6791],[24.519,2.8406,412.567],[24.5131,2.83,413.3352],[24.5143,2.8222,412.1997],[24.513,2.8134,409.2927],[24.5061,2.8097,417.499],[24.5011,2.8092,409.3246],[24.4993,2.8,403.8035],[24.4906,2.8002,400.8273],[24.4654,2.7962,411.6929],[24.4586,2.7897,418.4964],[24.455,2.775,414.5094],[24.447,2.771,424.8963],[24.4427,2.7705,429.3267],[24.434,2.776,417.3876],[24.4266,2.7774,425.4796],[24.4229,2.7799,422.1306],[24.4222,2.787,411.9648],[24.4233,2.7935,394.7054],[24.4429,2.8142,397.955],[24.4422,2.8191,407.5823],[24.439,2.8223,402.3891],[24.431,2.8225,415.8315],[24.4198,2.8256,420.2986],[24.4159,2.8289,396.259],[24.4147,2.8319,391.9844],[24.417,2.8388,393.5514],[24.4163,2.8424,401.7121],[24.4135,2.8424,414.0121],[24.3998,2.8311,423.8475],[24.3806,2.8321,406.0846],[24.3696,2.8263,404.1725],[24.3619,2.8245,417.1107],[24.3582,2.8263,408.2192],[24.3533,2.8348,408.0034],[24.3504,2.8364,402.6705],[24.3463,2.8354,396.4252],[24.3412,2.831,415.7618],[24.3337,2.8181,432.5769],[24.3289,2.8183,420.0825],[24.3198,2.825,408.3501],[24.3174,2.8307,420.2953],[24.3162,2.8394,419.5627],[24.3174,2.8452,407.321],[24.323,2.8537,405.7676],[24.3224,2.8554,409.625],[24.3196,2.856,409.9034],[24.3139,2.8516,417.2865],[24.3061,2.8511,403.2742],[24.3022,2.855,403.4076],[24.2987,2.8628,392.2939],[24.2971,2.863,392.2939],[24.296,2.8603,414.8832],[24.2972,2.8525,416.9227],[24.2947,2.846,410.8068],[24.2892,2.8382,427.7498],[24.2769,2.8319,409.753],[24.265,2.8355,416.6877],[24.2618,2.8383,413.3275],[24.2595,2.8438,412.0735],[24.2608,2.8528,403.9561],[24.2594,2.8555,387.3651],[24.2532,2.8559,409.7449],[24.2457,2.8529,414.7861],[24.2393,2.8485,415.3772],[24.2304,2.8379,428.7418],[24.2222,2.8401,398.738],[24.2222,2.8422,412.361],[24.2164,2.8445,402.748],[24.2146,2.8475,405.6259],[24.2152,2.8624,408.7899],[24.2118,2.8638,387.2728],[24.1949,2.8543,424.3392],[24.1849,2.8397,428.1007],[24.1852,2.8326,432.9313],[24.1941,2.8186,440.2585],[24.1935,2.8119,440.1573],[24.1964,2.8009,461.2691],[24.1947,2.7644,455.258],[24.1897,2.7626,447.289],[24.175,2.7659,464.6741],[24.1674,2.7651,462.1605],[24.1663,2.7622,462.237],[24.1668,2.7434,455.9944],[24.172,2.7323,436.0427],[24.1867,2.7134,419.8667],[24.1928,2.7102,408.2953],[24.2029,2.7123,418.1837],[24.2116,2.705,413.8773],[24.221,2.7069,434.0537],[24.2267,2.7053,426.3367],[24.2297,2.703,416.5312],[24.2302,2.6952,412.4761],[24.2359,2.6931,394.6126],[24.2348,2.6964,411.5059],[24.2359,2.6996,422.3336],[24.2416,2.6975,432.1281],[24.2458,2.6941,427.1988],[24.2513,2.6847,418.1595],[24.2563,2.685,415.0356],[24.2635,2.6804,407.9859],[24.2664,2.6806,405.4056],[24.2673,2.6857,409.513],[24.2701,2.6887,406.409],[24.2769,2.689,423.7316],[24.2815,2.6853,397.4478],[24.2836,2.6858,409.4299],[24.2858,2.6897,424.1147],[24.2893,2.6902,421.2662],[24.3104,2.6792,427.8569],[24.3136,2.673,419.4347],[24.3202,2.674,436.2974],[24.3235,2.6724,426.1782],[24.3292,2.6738,422.8466],[24.3322,2.6708,426.1433],[24.3415,2.6718,423.8106],[24.3562,2.6631,415.29],[24.3649,2.6659,416.7411],[24.3956,2.6575,422.4903],[24.4007,2.6539,414.9124],[24.4045,2.6638,421.9473],[24.4081,2.667,425.7411],[24.4201,2.6611,420.3519],[24.4253,2.6618,411.6252],[24.4317,2.6669,416.2613],[24.4397,2.6674,420.9386],[24.4438,2.6713,417.6418],[24.4466,2.6716,428.4019],[24.4548,2.6663,444.7485],[24.458,2.6622,433.787],[24.4608,2.6528,421.3403],[24.4645,2.651,404.9014],[24.4716,2.6581,432.5949],[24.4752,2.657,424.6973],[24.484,2.6455,417.868],[24.4869,2.655,417.5178],[24.4899,2.6559,411.6707],[24.4926,2.6532,432.356],[24.4954,2.6458,426.7939],[24.4979,2.646,427.4213],[24.5009,2.653,421.2503],[24.5041,2.655,411.2372],[24.5086,2.6544,427.3808],[24.5107,2.6507,438.6302],[24.5082,2.6445,430.3448],[24.5089,2.6417,427.4374],[24.5119,2.6417,432.5593],[24.5167,2.645,461.7928],[24.5206,2.6445,445.5235],[24.5254,2.6358,438.2523],[24.528,2.634,440.3757],[24.5318,2.634,432.6216],[24.5396,2.6412,439.5108],[24.5421,2.6412,449.7411],[24.544,2.6368,438.7323],[24.5431,2.6345,416.8333],[24.5376,2.6336,428.7455],[24.5353,2.6306,423.5796],[24.5358,2.6246,427.4548],[24.5383,2.6179,424.8041],[24.5415,2.6145,428.4372],[24.5452,2.6189,441.5693],[24.5479,2.6184,451.1573],[24.5493,2.6154,420.0759],[24.5534,2.6128999999999998,423.5621],[24.5613,2.598,421.4177],[24.5689,2.5955,431.7543],[24.5702,2.5937,424.9715],[24.5684,2.5916,425.7588],[24.5629,2.5906,434.2521],[24.5595,2.5858,440.1248],[24.5639,2.5778,423.0966],[24.5666,2.5819,430.0038],[24.5774,2.5861,421.5097],[24.5815,2.5854,443.8384],[24.5854,2.5742,436.2764],[24.5928,2.5671,429.8314],[24.601,2.568,433.0517],[24.6015,2.5618,429.5807],[24.5985,2.5581,416.3974],[24.5999,2.5535,431.4717],[24.5979,2.5512,432.5301],[24.6018,2.5464,431.6542],[24.6011,2.5413,408.2171],[24.6041,2.5384,417.5874],[24.6085,2.5379,435.1803],[24.6169,2.5435,452.1487],[24.621,2.5428,448.2935],[24.6238,2.5378,436.0961],[24.622,2.5315,433.1176],[24.6264,2.5246,427.8962],[24.6259,2.5143,407.2279],[24.631,2.5136,426.6327],[24.6349,2.5173,427.9477],[24.639,2.5185,433.9201],[24.6417,2.5146,431.606],[24.6507,2.508,422.1125],[24.6525,2.5135,445.0614],[24.6555,2.5128,456.7361],[24.6589,2.508,438.6391],[24.6616,2.5149,440.1017],[24.6653,2.5151,431.7919],[24.6713,2.509,447.5401],[24.6715,2.5044,434.6772],[24.6665,2.4993,425.2714],[24.6681,2.4963,429.707],[24.6778,2.4883,434.4621],[24.6794,2.489,430.9461],[24.6809,2.4952,430.0063],[24.6839,2.4952,424.038],[24.6871,2.4927,427.8245],[24.6874,2.4872,431.6125],[24.6853,2.4819,428.6039],[24.689,2.4752,437.9834],[24.6941,2.4778,438.2871],[24.6964,2.4734,431.9535],[24.6961,2.4693,430.6694],[24.6987,2.4667,431.9561],[24.6976,2.461,437.6286],[24.7019,2.4601,439.1468],[24.7038,2.4564,430.4138],[24.7099,2.4555,429.3687],[24.7166,2.4509,428.8541],[24.7132,2.439,438.8908],[24.716,2.4344,432.7767],[24.721,2.4383,426.3419],[24.7228,2.4367,431.4821],[24.7222,2.422,439.7003],[24.7316,2.4174,437.9402],[24.7387,2.4076,433.7178],[24.7406,2.3993,445.8478],[24.7443,2.3949,437.4768],[24.7525,2.3924,436.5599],[24.7553,2.3876,434.1681],[24.7546,2.3784,437.218],[24.757,2.3708,447.2187],[24.7609,2.3667,437.8522],[24.7641,2.3669,440.8718],[24.7668,2.375,437.1639],[24.7709,2.3745,436.7352],[24.7833,2.3569,427.9247],[24.7909,2.3498,436.5218],[24.7959,2.347,436.2369],[24.8094,2.3446,429.5528],[24.8127,2.3377,437.0934],[24.8147,2.3372,435.2262],[24.8161,2.3414,436.4937],[24.8195,2.3425,449.2561],[24.8209,2.3391,434.2946],[24.8203,2.3306,440.4176],[24.8232,2.3257,432.9808],[24.8255,2.3287,433.7024],[24.8285,2.329,444.6349],[24.8301,2.3274,434.5361],[24.8331,2.3136,423.9593],[24.8363,2.3106,428.2025],[24.8368,2.3065,435.9076],[24.8421,2.3051,433.571],[24.8426,2.3017,443.2944],[24.8357,2.2915,429.2781],[24.8364,2.2883,429.8975],[24.8383,2.2872,436.8211],[24.852,2.2888,437.8816],[24.8536,2.2904,440.9777],[24.8499,2.2976,445.2875],[24.8529,2.3003,435.4799],[24.8556,2.2999,435.8203],[24.8609,2.2953,442.094],[24.8666,2.2827,433.9605]],
[[24.7736,2.8259,423.243],[24.7775,2.8175,419.9802],[24.777,2.7995,419.1248],[24.7676,2.7953,414.6302],[24.7627,2.795,411.9514],[24.7522,2.7986,400.5051],[24.7439,2.7972,404.9714],[24.7362,2.7912,397.3925],[24.6986,2.8024,392.871],[24.7055,2.8062,400.1041],[24.7107,2.8044,402.9361],[24.7167,2.8051,410.246],[24.721,2.8097,407.2004],[24.7233,2.8164,398.1673],[24.721,2.8196,399.8616],[24.7173,2.8196,394.1693],[24.7116,2.8164,399.4804],[24.7082,2.8173,407.4392],[24.701,2.8241,417.0585],[24.6985,2.8241,415.4447],[24.7007,2.8372,425.1182],[24.7144,2.8441,424.5433],[24.7442,2.8411,418.4908],[24.7565,2.8382,411.3262],[24.7736,2.8259,423.243]]]]}
,"properties": {"GID_2": "COD.1.7_1","GID_0": "COD","country": "DemocraticRepublicoftheCongo","GID_1": "COD.1_1","province": "Bas-Uele","NL_NAME_1": "NA","county": "Buta","VARNAME_2": "NA","NL_NAME_2": "NA","TYPE_2": "Territoire","ENGTYPE_2": "Territory","CC_2": "NA","HASC_2": "NA","name": "Buta.county","area_km2": 17581.83,"hist_schema_id": "Elevation0-9000","hist_area_km2": {"375": 3.58,"400": 164.97,"425": 1788.11,"450": 2282.96,"475": 1774.6,"500": 856.17,"525": 746.46,"550": 1168.77,"575": 2422.18,"600": 3413.14,"625": 2285.06,"650": 610.52,"675": 62.76,"700": 2.56}}}