{"type":"Feature","properties":{"featurecla":"River","scalerank":2,"rivernum":43,"dissolve":"43River","name":"Lualaba5","name_alt":"Congo","note":null,"min_zoom":2.1,"strokeweig":0.6,"name_en":"Congo","min_label":3.1},
"geometry":{"type": "LineString","coordinates": [[24.93359375,0.538592840619117,379.9701],[24.89892578125,0.54425690311912,374.5],[24.88671875,0.54779694218162,381.4622],[24.8408203125,0.57160065311912,374.0],[24.824462890625,0.574725653119117,373.5],[24.772607421875023,0.57843659061912,373.0],[24.7431640625,0.58954498905662,372.5],[24.699951171875,0.625360418744108,371.5],[24.658203125,0.63934967655662,371.0],[24.630761718750023,0.65448639530662,370.5],[24.604882812500023,0.67267487186912,370.5],[24.572265625,0.704852606244117,369.5],[24.560546875,0.71356842655662,378.0917],[24.5419921875,0.73407623905662,384.1987],[24.531396484375023,0.743182684369117,380.3636],[24.520751953125,0.747186590619108,374.5554],[24.435791015625,0.74225494999412,368.5],[24.401611328125,0.747821356244117,368.0],[24.3896484375,0.747821356244117,368.0],[24.344628906250023,0.742547918744108,377.1086],[24.320703125000023,0.744501043744108,368.0],[24.303369140625023,0.75433991093162,378.1127],[24.298095703125,0.76373932499412,367.5],[24.295654296875,0.77289459843162,367.5],[24.292236328125,0.78168366093162,367.5]]}}