{"type":"Feature","properties":{"featurecla":"Lake Centerline","scalerank":6,"rivernum":223,"dissolve":"223Lake Centerline","name":"Semliki1","name_alt":null,"note":null,"min_zoom":5.0,"strokeweig":0.2,"name_en":"Semliki","min_label":6.0},
"geometry":{"type": "LineString","coordinates": [[31.343164062500023,2.195917059369108,620.0],[31.323144531250023,2.13312409061912,620.0],[31.296484375,2.08759186405662,620.0],[31.246191406250006,2.010614324994108,620.0],[31.097363281250011,1.830682684369108,620.0],[31.004638671875,1.7375674499941169,620.0],[30.798095703125,1.5940127624941169,620.0],[30.636962890625,1.42597077030662,620.0],[30.587988281250006,1.3637881531191169,620.0],[30.5390625,1.2964053406191169,620.0],[30.499902343750023,1.25629303593162,620.0],[30.478125,1.2390322937441169,620.0]]}}