{"type":"Feature","properties":{"featurecla":"River","scalerank":7,"rivernum":477,"dissolve":"477River","name":"Ituri2","name_alt":null,"note":null,"min_zoom":6.0,"strokeweig":0.25,"name_en":"Ituri","min_label":7.0},
"geometry":{"type": "LineString","coordinates": [[27.290722656250011,1.57892487186912,547.546],[27.253173828125,1.58661530155662,533.9307],[27.191308593750023,1.606805731244108,533.3749],[27.171142578125,1.61078522343162,524.6143],[27.102783203125,1.614129949994108,524.8421],[27.086816406250023,1.6176944031191169,523.2354],[27.074316406250006,1.6240420593691169,513.1237],[27.048095703125,1.64252350468162,478.9894],[27.031152343750023,1.6516299499941169,506.9041],[27.011328125,1.65863678593162,502.8609],[26.974365234375,1.66486237186912,496.517],[26.931396484375,1.68878815311912,502.1534],[26.85986328125,1.70233795780662,501.5942],[26.848876953125,1.7124209656191169,491.5286],[26.837304687500023,1.7082705749941169,494.0976]]}}