{"type":"Feature","properties":{"featurecla":"River","scalerank":3,"rivernum":83,"dissolve":"83River","name":"Uele","name_alt":null,"note":null,"min_zoom":3.0,"strokeweig":0.2,"name_en":"Uele","min_label":4.0},
"geometry":{"type": "LineString","coordinates": [[28.5859375,3.59577057499412,700.3234],[28.56689453125,3.610467840619108,686.2549],[28.416406250000023,3.65534088749412,689.3462],[28.3974609375,3.655145574994108,688.7028],[28.37744140625,3.664667059369108,679.4213],[28.357324218750023,3.6628604187441169,689.3409],[28.341699218750023,3.65119049686912,707.9905],[28.335351562500023,3.631219793744108,712.4131],[28.326269531250006,3.616327215619108,708.3203],[28.3046875,3.60712311405662,676.3238],[28.27978515625,3.6040225281191169,697.4915],[28.260986328125,3.60736725468162,681.4425],[28.24765625,3.62042877811912,693.375],[28.228417968750023,3.66144440311912,667.875],[28.2158203125,3.6797061218691169,689.8956],[28.171777343750023,3.7238955749941169,677.2654],[28.1572265625,3.73151276249412,687.5421],[28.1357421875,3.73139069218162,683.4235],[28.11376953125,3.72687409061912,664.2062],[28.092382812500006,3.725458074994108,680.1051],[28.049707031250023,3.74567291874412,659.5],[28.030175781250023,3.7392764343691169,658.5],[27.993359375000011,3.70978424686912,667.6429],[27.973242187500006,3.70099518436912,666.6825],[27.952880859375,3.6970401062441169,674.2233],[27.883544921875,3.695428778119108,665.817],[27.865966796875,3.69257233280662,666.0127],[27.851171875,3.6865420593691169,666.3568],[27.801513671875,3.65643952030662,671.075],[27.763916015625,3.6443057312441169,671.0511],[27.725976562500023,3.64118073124412,700.5416],[27.691650390625,3.648309637494108,705.0405],[27.662109375,3.66522858280662,685.9342],[27.650146484375,3.668817449994108,670.6682],[27.63818359375,3.669061590619108,690.8481],[27.6171875,3.66400787968162,681.8018],[27.56396484375,3.6596865906191169,681.0267],[27.511328125,3.6438174499941169,692.8964],[27.491943359375,3.64264557499412,690.0136],[27.472558593750023,3.64704010624412,683.3242],[27.45556640625,3.65888092655662,681.5566],[27.449316406250006,3.6694522156191169,677.254],[27.446191406250023,3.69025299686912,659.8541],[27.441503906250006,3.699823309369108,656.2289],[27.434179687500006,3.706903387494108,656.8602],[27.37451171875,3.74042389530662,658.8963],[27.36279296875,3.744501043744108,672.4476],[27.3525390625,3.7439151062441169,662.0875],[27.34130859375,3.7417178406191169,683.6157],[27.332275390625,3.745233465619108,674.387],[27.325292968750006,3.78571198124412,651.613],[27.316162109375,3.807001043744108,650.4735],[27.302978515625,3.8252139343691169,648.4379],[27.287011718750023,3.84015534061912,652.4896],[27.2685546875,3.851190496869108,670.5959],[27.24853515625,3.856805731244108,678.5499],[27.232666015625,3.85333893436912,678.4378],[27.226171875,3.837030340619108,682.5453],[27.217187500000023,3.83527252811912,671.4101],[27.197167968750023,3.84198639530662,705.25],[27.176025390625,3.8454776062441169,675.5546],[27.164160156250006,3.83392975468162,644.8721],[27.165625,3.82807037968162,653.5366],[27.1748046875,3.808465887494108,651.8395],[27.177734375,3.79913971561912,665.1328],[27.185644531250006,3.65326569218162,704.7962],[27.179882812500011,3.63837311405662,669.004],[27.165136718750006,3.63031647343162,658.7895],[27.1396484375,3.62787506718162,663.0649],[27.121826171875,3.62409088749412,651.88],[27.109619140625,3.6145205749941169,648.0957],[27.08837890625,3.58685944218162,656.3563],[27.06591796875,3.56745026249412,658.6466],[27.061132812500006,3.558954168744108,655.8405],[27.067773437500023,3.53815338749412,703.8043],[27.069726562500023,3.524286199994108,695.8107],[27.064453125,3.517938543744108,693.5366],[27.061279296875,3.51593659061912,694.6558],[27.059326171875,3.5114932312441169,690.5902],[27.056396484375,3.506952215619108,712.4915],[27.050878906250006,3.50495026249412,695.3914],[27.044921875,3.50604889530662,678.2098],[27.042382812500023,3.50836823124412,671.4753],[27.040625,3.51068756718162,684.3691],[27.03759765625,3.51178619999412,694.4365],[27.033203125,3.51569244999412,705.6122],[27.0185546875,3.533807684369108,656.3777],[27.01328125,3.5390811218691169,650.0956],[26.99072265625,3.54511139530662,680.7795],[26.970117187500023,3.54205963749412,665.9215],[26.949462890625,3.53571198124412,659.6354],[26.905517578125,3.527215887494108,680.9816],[26.859472656250006,3.50702545780662,655.5142],[26.842041015625,3.50495026249412,661.3337],[26.8296875,3.51642487186912,652.6082],[26.816308593750023,3.53876373905662,667.2124],[26.805419921875,3.562127996869108,625.0],[26.801025390625,3.57697174686912,633.956],[26.802148437500023,3.588006903119108,636.3038],[26.806738281250006,3.60687897343162,637.9543],[26.807861328125,3.6179385437441169,649.079],[26.805761718750006,3.629266668744108,664.272],[26.796484375,3.6447940124941169,641.152],[26.793554687500006,3.655145574994108,655.814],[26.813720703125,3.7805361999941169,644.1169],[26.807861328125,3.81964752811912,640.2128],[26.796875,3.82819244999412,629.5742],[26.760839843750006,3.84552643436912,638.8131],[26.753173828125,3.85748932499412,637.5469],[26.751220703125,3.87787506718162,623.829],[26.739648437500023,3.92011139530662,626.4408],[26.732812500000023,3.93634674686912,622.6375],[26.711669921875,3.964227606244108,635.4274],[26.725683593750006,3.9817080749941169,621.3057],[26.716796875,3.99628327030662,627.6523],[26.7001953125,4.0058779968691169,630.6369],[26.691162109375,4.00836823124412,625.1718],[26.681738281250006,4.00519440311912,631.3438],[26.636132812500023,4.01752350468162,617.6375],[26.619140625,4.01544830936912,616.9613],[26.49560546875,3.91242096561912,630.7775],[26.469921875000011,3.88434479374412,632.6096],[26.458398437500023,3.874872137494108,625.6818],[26.454345703125,3.86908600468162,620.5109],[26.45263671875,3.8623233093691169,619.8326],[26.449609375000023,3.8567080749941169,620.2638],[26.441308593750023,3.854364324994108,622.601],[26.437597656250006,3.85150787968162,617.6768],[26.424218750000023,3.83392975468162,618.3894],[26.416894531250023,3.819452215619108,624.9214],[26.412353515625,3.80719635624412,624.9737],[26.40673828125,3.79621002811912,639.8944],[26.391503906250023,3.779901434369108,620.3409],[26.389746093750006,3.77582428593162,619.2157],[26.38525390625,3.773309637494108,618.7015],[26.352636718750006,3.77228424686912,626.9618],[26.343994140625,3.77020905155662,627.4099],[26.33544921875,3.765008856244108,613.4967]]}}