{"type":"Feature","properties":{"featurecla":"River","scalerank":2,"rivernum":43,"dissolve":"43River","name":"Lualaba6","name_alt":"Congo","note":null,"min_zoom":2.1,"strokeweig":0.6,"name_en":"Congo","min_label":3.1},
"geometry":{"type": "LineString","coordinates": [[25.681542968750023,-1.01238372188088,466.079],[25.663183593750006,-0.97698333125588,474.4499],[25.62158203125,-0.923858331255886,481.9992],[25.61865234375,-0.91497161250588,483.4345],[25.608642578125,-0.907061456255889,479.7392],[25.580761718750011,-0.853545831255886,480.3598],[25.558007812500023,-0.829131768755886,455.1874],[25.504003906250006,-0.78289153438088,415.0],[25.485253906250023,-0.750518487505886,414.0],[25.466796875,-0.692901300005886,439.205],[25.464746093750023,-0.678741143755886,436.1265],[25.4609375,-0.666827081255889,443.498],[25.436718750000011,-0.620147393755886,411.0],[25.402587890625,-0.47673919063088,407.5],[25.402441406250006,-0.43059661250588,429.0852],[25.40576171875,-0.40569426875588,418.9895],[25.418359375000023,-0.386553643755889,405.5],[25.457275390625,-0.339678643755889,404.0],[25.46142578125,-0.332549737505886,404.0],[25.466894531250006,-0.31853606563088,417.2546],[25.470898437500011,-0.312334893755889,409.2604],[25.487402343750006,-0.30144622188088,458.8672],[25.495361328125,-0.29363372188088,403.5889],[25.498779296875,-0.281573175005889,409.1105],[25.504492187500006,-0.27361419063088,428.5764],[25.531640625000023,-0.249834893755889,401.5],[25.540429687500023,-0.23723723750588,427.941],[25.56103515625,-0.15984465938088,399.5],[25.566162109375,-0.113750909380883,398.5],[25.560791015625,-0.07268645625588,397.5],[25.54931640625,-0.05046965938088,397.0],[25.535742187500006,-0.03252532344338,396.5],[25.524121093750011,-0.01311614375588,429.8166],[25.519238281250011,0.01361725468162,396.0],[25.519238281250011,0.184588934369117,393.0],[25.51611328125,0.19879791874412,392.5],[25.47412109375,0.272723699994117,397.6747],[25.454492187500023,0.300311590619117,388.0],[25.4326171875,0.324725653119117,397.7143],[25.409423828125,0.34564850468162,402.139]]}}