{"type":"Feature","properties":{"featurecla":"River","scalerank":2,"rivernum":43,"dissolve":"43River","name":"Lualaba7","name_alt":"Congo","note":null,"min_zoom":2.1,"strokeweig":0.6,"name_en":"Congo","min_label":3.1},
"geometry":{"type": "LineString","coordinates": [[25.409423828125,0.34564850468162,402.139],[25.382226562500023,0.36249420780662,406.3412],[25.365820312500006,0.369891668744117,406.097],[25.351806640625,0.372919012494108,383.5],[25.34716796875,0.37714264530662,383.5],[25.3369140625,0.396991278119117,382.5],[25.332763671875,0.41449616093162,382.0],[25.32666015625,0.417743231244117,382.0],[25.317773437500023,0.41828034061912,382.0],[25.307031250000023,0.42072174686912,382.0],[25.293212890625,0.428241278119117,395.6594],[25.234082031250011,0.47345612186912,381.0],[25.218505859375,0.478045965619117,386.0763],[25.21337890625,0.484247137494108,385.4748],[25.209570312500006,0.49152252811912,381.766],[25.204003906250023,0.497088934369117,379.4162],[25.183203125,0.502948309369117,381.8559],[25.136962890625,0.50910065311912,389.8175],[25.11865234375,0.52008698124412,377.5],[25.101806640625,0.53266022343162,377.5],[25.07861328125,0.54413483280662,377.0],[25.033300781250006,0.55853912968162,376.5],[25.016992187500023,0.55988190311912,376.0],[24.997949218750023,0.55890534061912,376.0],[24.980078125,0.554950262494117,375.75],[24.951269531250006,0.538934637494108,397.4957],[24.93359375,0.538592840619117,379.9701]]}}