{"type":"Feature","properties":{"featurecla":"River","scalerank":2,"rivernum":45,"dissolve":"45River","name":"Congo1","name_alt":null,"note":null,"min_zoom":2.1,"strokeweig":0.6,"name_en":"Congo","min_label":3.1},
"geometry":{"type": "LineString","coordinates": [[24.292236328125,0.78168366093162,367.5],[24.274072265625023,0.79877350468162,367.5],[24.225976562500023,0.86762116093162,379.5074],[24.217187500000023,0.90204498905662,383.9493],[24.211181640625,0.913446356244108,384.881],[24.202783203125023,0.923602606244117,381.302],[24.14013671875,0.971063543744108,365.5],[23.909912109375,1.07453034061912,360.0],[23.840576171875,1.08502838749412,375.9204],[23.825927734375,1.08563873905662,361.1577],[23.78466796875,1.0827822937441169,374.925],[23.771875,1.0862002624941169,378.6332],[23.770654296875023,1.09149811405662,360.0],[23.763085937500023,1.09540436405662,360.0],[23.7490234375,1.10553619999412,360.0],[23.741455078125,1.1096377624941169,360.0],[23.730224609375,1.113641668744108,360.0],[23.706689453125023,1.11810944218162,367.4557],[23.68408203125,1.11957428593162,360.0],[23.676660156250023,1.12225983280662,361.6086],[23.63330078125,1.15582916874412,371.9364],[23.607177734375,1.16791412968162,360.0],[23.59912109375,1.173211981244108,360.0],[23.59228515625,1.17975494999412,360.0],[23.54541015625,1.2385440124941169,360.0],[23.531396484375023,1.26459381718162,363.1773],[23.529052734375,1.2678408874941169,360.0436],[23.52294921875,1.27387116093162,359.0],[23.520410156250023,1.27741119999412,359.0],[23.518212890625023,1.283075262494108,359.0],[23.51513671875,1.294549871869108,373.4105],[23.512353515625023,1.299920965619108,381.3152],[23.505615234375,1.30744049686912,381.8177],[23.481591796875023,1.328241278119108,374.7469],[23.437890625000023,1.39130280155662,356.5],[23.379296875000023,1.44025299686912,368.2939],[23.35791015625,1.46466705936912,364.7071],[23.350488281250023,1.4702334656191169,363.7765],[23.332763671875,1.48065827030662,364.8419],[23.323486328125,1.4878115906191169,375.3505],[23.184326171875,1.64301178593162,350.0],[23.14453125,1.7004580749941169,361.5894],[23.140527343750023,1.71002838749412,348.5],[23.134765625,1.71124909061912,348.5],[23.134765625,1.71417877811912,348.5],[23.126367187500023,1.73175690311912,348.0],[23.121972656250023,1.73639557499412,348.0],[23.096582031250023,1.75739166874412,347.5],[23.08935546875,1.767206121869108,352.208],[23.075585937500023,1.79975006718162,346.5],[23.05126953125,1.84088776249412,345.5],[23.04541015625,1.8476748718691169,345.5],[23.0361328125,1.8537783874941169,345.5],[23.014892578125,1.8623233093691169,345.0],[23.004296875000023,1.868280340619108,366.6938],[22.999414062500023,1.87604401249412,345.0],[22.989648437500023,1.879754949994108,345.0],[22.965087890625,1.89838287968162,361.1523],[22.953369140625,1.90473053593162,345.0],[22.9423828125,1.90778229374412,355.233],[22.841943359375023,1.91474030155662,358.775],[22.81875,1.92059967655662,345.0],[22.80859375,1.92548248905662,345.0],[22.780517578125,1.94403717655662,360.9471],[22.769189453125023,1.9480166687441169,345.0],[22.73486328125,1.95001862186912,361.1549]]}}