{"type":"Feature","properties":{"featurecla":"River","scalerank":7,"rivernum":477,"dissolve":"477River","name":"Ituri1","name_alt":null,"note":null,"min_zoom":6.0,"strokeweig":0.2,"name_en":"Ituri","min_label":7.0},
"geometry":{"type": "LineString","coordinates": [[29.99658203125,1.784051824994108,990.1515],[29.993896484375,1.76874420780662,996.5638],[29.99365234375,1.754022528119108,948.0121],[29.995849609375,1.74079010624412,931.5524],[30.000683593750011,1.72980377811912,998.3972],[29.986718750000023,1.71991608280662,949.8579],[29.905029296875,1.60626862186912,922.8672],[29.890869140625,1.57550690311912,919.0168],[29.876855468750023,1.55329010624412,905.8232],[29.848388671875,1.478631903119108,904.9739],[29.8427734375,1.457147528119108,879.2091],[29.843017578125,1.4355654968691169,916.606],[29.803613281250023,1.462030340619108,882.9155],[29.783593750000023,1.46881744999412,858.7346],[29.76171875,1.462274481244108,856.4997],[29.74951171875,1.44916412968162,840.5682],[29.74658203125,1.43549225468162,847.2562],[29.745996093750023,1.42157623905662,858.2224],[29.7412109375,1.40766022343162,871.5902],[29.734765625000023,1.40167877811912,838.6356],[29.70703125,1.38715241093162,847.029],[29.714453125,1.373651434369108,842.3812],[29.719482421875,1.35883209843162,848.4733],[29.719140625000023,1.34357330936912,844.8805],[29.705322265625,1.3217959656191169,839.1027],[29.698144531250023,1.30524323124412,881.679],[29.692773437500023,1.297723699994108,889.0594],[29.686914062500023,1.295038153119108,868.3029],[29.672460937500006,1.29425690311912,860.4072],[29.666113281250006,1.29157135624412,829.5771],[29.658935546875,1.281610418744108,876.2267],[29.6533203125,1.27020905155662,878.4581],[29.64453125,1.2607608093691169,856.8234],[29.627685546875,1.2568545593691169,871.0836],[29.59765625,1.25604889530662,825.6417],[29.52294921875,1.23761627811912,859.3832],[29.504492187500006,1.2363467468691169,860.2578],[29.489501953125,1.23334381718162,858.6655],[29.481640625000011,1.226190496869108,839.7778],[29.4755859375,1.21723053593162,839.3119],[29.466210937500023,1.20905182499412,840.0139],[29.425048828125,1.19623444218162,833.1704],[29.417871093750023,1.19159577030662,837.1949],[29.413964843750023,1.17902252811912,837.3081],[29.406347656250006,1.16400787968162,847.3073],[29.401269531250023,1.1482119812441169,838.8528],[29.40478515625,1.1333194031191169,833.3375],[29.386474609375,1.124872137494108,822.5647],[29.380859375,1.106317449994108,855.5634],[29.3837890625,1.06159088749412,853.1917],[29.349609375,0.996112371869117,843.889],[29.34140625,0.99176666874412,837.4543],[29.3154296875,0.98309967655662,823.0011],[29.296484375,0.965350653119117,805.2919],[29.29150390625,0.96259186405662,838.1045],[29.2685546875,0.964862371869117,831.2604],[29.253320312500023,0.971454168744117,841.691],[29.242773437500006,0.98200104374412,873.041],[29.21484375,1.02924225468162,836.8011],[29.202050781250023,1.04474518436912,795.9193],[29.173925781250006,1.0586123718691169,817.8052],[29.154687500000023,1.0886416687441169,823.4963],[29.137939453125,1.09296295780662,815.5574],[29.086669921875,1.068963934369108,811.4426],[29.065673828125,1.06500885624412,802.985],[29.060791015625,1.06818268436912,794.443],[29.056396484375,1.07526276249412,801.6289],[29.049560546875,1.08234284061912,797.1025],[29.038183593750006,1.08551666874412,800.6888],[29.029882812500006,1.089471746869108,804.3923],[29.029882812500006,1.09845612186912,807.6368],[29.034765625,1.11347077030662,767.413],[29.021582031250006,1.1259951843691169,764.1028],[28.986328125,1.14435455936912,759.5943],[28.972753906250006,1.16058991093162,776.2816],[28.965576171875,1.19586823124412,767.841],[28.957421875000023,1.20307037968162,764.7073],[28.938720703125,1.187860418744108,770.0623],[28.9208984375,1.19843170780662,782.2164],[28.897216796875,1.19635651249412,763.0427],[28.875683593750011,1.18683502811912,779.8372],[28.863525390625,1.17487213749412,780.4035],[28.8453125,1.18268463749412,760.4883],[28.819921875,1.187372137494108,781.7543],[28.797460937500006,1.18488190311912,760.1546],[28.787841796875,1.1711611999941169,749.7159],[28.787353515625,1.14581940311912,761.9194],[28.7841796875,1.124383856244108,746.5491],[28.775976562500006,1.10492584843162,729.6202],[28.760498046875,1.08551666874412,736.8256],[28.718994140625,1.05133698124412,759.973],[28.714599609375,1.050409246869108,722.1717],[28.703320312500011,1.05219147343162,741.8415],[28.699121093750023,1.05133698124412,740.8556],[28.695410156250006,1.047479559369108,731.7203],[28.69296875,1.0393252624941169,766.7072],[28.673828125,1.0175967468691169,741.101],[28.66650390625,1.0058779968691169,750.4071],[28.65771484375,1.00238678593162,714.6688],[28.6376953125,1.00983307499412,769.8013],[28.63623046875,1.012079168744108,752.9987],[28.63232421875,1.021600653119108,727.9957],[28.630859375,1.024042059369108,733.109],[28.626220703125,1.0249209656191169,737.6178],[28.614990234375,1.02326080936912,709.4094],[28.6103515625,1.024042059369108,703.9761],[28.5927734375,1.035516668744108,711.7439],[28.545166015625,1.075555731244108,699.8322],[28.535400390625,1.07941315311912,703.0962],[28.511474609375,1.07782623905662,689.2963],[28.50048828125,1.0786319031191169,724.2297],[28.48876953125,1.08832428593162,716.7747],[28.465234375000023,1.11969635624412,704.6547],[28.43994140625,1.1296572937441169,674.3163],[28.434960937500023,1.1367373718691169,692.5209],[28.431738281250006,1.14374420780662,686.4462],[28.42822265625,1.1469912781191169,722.0111],[28.425048828125,1.148797918744108,713.3542],[28.424218750000023,1.153436590619108,690.8461],[28.4248046875,1.16400787968162,686.7482],[28.42236328125,1.1677432312441169,673.2723],[28.416748046875,1.167596746869108,644.5735],[28.410058593750023,1.16657135624412,689.5403],[28.404882812500006,1.16742584843162,676.3328],[28.37646484375,1.183710028119108,657.7673],[28.362402343750006,1.19403717655662,670.6428],[28.3564453125,1.20563385624412,681.084],[28.354736328125,1.214471746869108,680.2531],[28.35,1.219598699994108,671.1969],[28.342480468750011,1.22211334843162,689.7633],[28.332275390625,1.2226748718691169,654.3384],[28.32666015625,1.22077057499412,671.7268],[28.321044921875,1.21613190311912,671.3904],[28.311718750000011,1.20563385624412,695.4231],[28.305078125000023,1.201288153119108,698.5265],[28.300048828125,1.20294830936912,689.0524],[28.295019531250006,1.20905182499412,673.9405],[28.2705078125,1.225213934369108,643.5082],[28.244140625,1.28839752811912,641.2056],[28.21923828125,1.31146881718162,623.3173],[28.1787109375,1.32233307499412,578.4611],[28.130761718750023,1.3288760437441169,594.4455],[28.09326171875,1.34027741093162,567.5103],[28.069042968750011,1.3393740906191169,571.1175],[28.045507812500006,1.33258698124412,574.9769],[28.034423828125,1.331903387494108,566.1195],[28.034423828125,1.330682684369108,566.1195],[28.031347656250006,1.328241278119108,566.0578],[28.026562500000011,1.32611725468162,576.5767],[28.021240234375,1.3257022156191169,559.5905],[28.019433593750023,1.32794830936912,550.923],[28.013427734375,1.337274481244108,564.0831],[28.010351562500006,1.3393740906191169,588.6004],[27.999121093750006,1.34162018436912,586.5206],[27.98486328125,1.35138580936912,576.641],[27.976318359375,1.353631903119108,577.886],[27.938085937500006,1.3462100281191169,533.0],[27.892333984375,1.35211823124412,573.7681],[27.87158203125,1.3466983093691169,562.381],[27.856640625000011,1.30426666874412,570.4371],[27.841699218750023,1.29352448124412,571.9004],[27.823339843750006,1.28949616093162,558.8127],[27.807861328125,1.29157135624412,573.0177],[27.781494140625,1.30499909061912,559.9174],[27.768457031250023,1.30963776249412,555.7344],[27.749755859375,1.31146881718162,573.3171],[27.728515625,1.3176455749941169,551.1078],[27.691650390625,1.345819403119108,578.2715],[27.671142578125,1.353631903119108,553.4556],[27.6630859375,1.3525576843691169,575.1796],[27.640869140625,1.346551824994108,566.9491],[27.629638671875,1.3462100281191169,562.5739],[27.6220703125,1.34918854374412,550.194],[27.617089843750023,1.3537783874941169,543.5541],[27.610742187500023,1.35797760624412,556.2858],[27.59921875,1.35980866093162,534.6863],[27.593359375,1.35773346561912,540.8835],[27.576269531250006,1.34833405155662,549.2091],[27.5654296875,1.3462100281191169,561.3967],[27.4931640625,1.42475006718162,554.1745],[27.491113281250023,1.42987702030662,559.804],[27.486523437500011,1.43500397343162,542.046],[27.48203125,1.44196198124412,541.3572],[27.480078125,1.45233795780662,544.9858],[27.481640625000011,1.48663971561912,565.6179],[27.480078125,1.49701569218162,560.8729],[27.4580078125,1.5388369812441169,560.8334],[27.441503906250006,1.5620303406191169,550.4424],[27.427832031250006,1.572137762494108,547.1597],[27.386132812500023,1.56647369999412,548.0333],[27.370849609375,1.5715518249941169,542.8494],[27.37646484375,1.59259674686912,550.0761],[27.353271484375,1.5920596374941169,543.8396],[27.312597656250006,1.58161041874412,545.5884],[27.290722656250011,1.57892487186912,547.546]]}}