{"type":"Feature","properties":{"featurecla":"River","scalerank":7,"rivernum":477,"dissolve":"477River","name":"Ituri","name_alt":null,"note":null,"min_zoom":6.0,"strokeweig":0.2,"name_en":"Ituri","min_label":7.0},
"geometry":{"type": "LineString","coordinates": [[30.130957031250006,2.02460358280662,1252.0007],[30.104394531250023,1.983026434369108,1256.4227],[30.103417968750023,1.97662994999412,1184.2091],[30.105224609375,1.96210358280662,1196.088],[30.104394531250023,1.955682684369108,1181.2682],[30.099853515625,1.9494815124941169,1165.7136],[30.083251953125,1.9321475281191169,1175.5608],[30.076416015625,1.91022369999412,1160.7344],[30.041015625,1.854608465619108,1067.5634],[30.015527343750023,1.82562897343162,1020.2532],[30.00732421875,1.8130069031191169,1026.9165],[30.001074218750006,1.79889557499412,1041.152],[29.99658203125,1.784051824994108,990.1515]]}}