{"type":"Feature","properties":{"featurecla":"River","scalerank":7,"rivernum":501,"dissolve":"501River","name":"Lomami3","name_alt":null,"note":null,"min_zoom":6.0,"strokeweig":0.3,"name_en":"Lomami","min_label":7.0},
"geometry":{"type": "LineString","coordinates": [[24.12158203125,-0.11370208125588,426.8929],[24.079833984375,-0.117022393755889,405.165],[24.035302734375023,-0.113799737505886,391.9933],[24.008203125000023,-0.098467706255889,406.3673],[24.019189453125023,-0.065264581255889,388.7209],[24.042724609375,-0.04436614375588,404.8747],[24.04638671875,-0.03789641719338,402.1595],[24.041894531250023,-0.024786065630892,408.9427],[24.031884765625023,-0.02691008906838,395.4105],[24.0205078125,-0.03460051875588,401.6269],[24.01171875,-0.03789641719338,382.1577],[23.993066406250023,-0.02581145625588,401.4669],[23.992431640625,-0.010967706255883,404.343],[24.003173828125,0.00397369999412,407.245],[24.019189453125023,0.01666901249412,388.048],[24.001611328125023,0.03693268436912,401.8386],[24.01318359375,0.04987213749412,432.0718],[24.05322265625,0.06378815311912,384.4414],[24.0302734375,0.099872137494117,378.9663],[24.02197265625,0.12335846561912,394.7919],[24.029052734375,0.14362213749412,391.9559],[24.035791015625023,0.15204498905662,390.6339],[24.041259765625,0.162860418744117,399.8361],[24.044921875,0.17426178593162,379.3199],[24.04638671875,0.184588934369117,385.7627],[24.043115234375023,0.190545965619108,384.6556],[24.025390625,0.20844147343162,376.0],[24.033203125,0.23371002811912,385.0146],[24.054833984375023,0.25079987186912,395.9948],[24.0771484375,0.25617096561912,395.8512],[24.08740234375,0.246356512494117,379.4877],[24.090087890625,0.238641668744108,380.124],[24.096923828125,0.23773834843162,387.9321],[24.104736328125,0.241229559369117,394.6132],[24.111328125,0.246356512494117,378.6436],[24.11669921875,0.254657293744117,386.0486],[24.119042968750023,0.26337311405662,379.6526],[24.128662109375,0.329706121869108,374.5],[24.127685546875,0.340594793744117,385.8638],[24.12841796875,0.34564850468162,383.9437],[24.131738281250023,0.34992096561912,386.4969],[24.140771484375023,0.35260651249412,374.0],[24.142578125,0.355585028119108,375.7641],[24.155664062500023,0.441913153119117,396.5479],[24.173828125,0.500995184369117,373.0],[24.179833984375023,0.51007721561912,373.0],[24.18505859375,0.51447174686912,373.0],[24.195214843750023,0.533710028119117,372.5],[24.200585937500023,0.53803131718162,379.4167],[24.212060546875023,0.53681061405662,381.0031],[24.231835937500023,0.53156159061912,382.814],[24.23828125,0.53058502811912,378.0514],[24.247216796875023,0.52484772343162,372.0],[24.251611328125023,0.526239324994108,377.749],[24.25244140625,0.53803131718162,372.0],[24.24853515625,0.548211981244108,371.75],[24.234521484375023,0.564081121869108,380.1062],[24.2314453125,0.57501862186912,379.5768],[24.235498046875023,0.589960028119108,382.5006],[24.245263671875023,0.604999090619117,377.2342],[24.265527343750023,0.62616608280662,378.3681],[24.251123046875023,0.647577215619108,370.5],[24.23291015625,0.64435455936912,375.7179],[24.213769531250023,0.633807684369117,370.0],[24.197265625,0.633075262494117,370.0],[24.187744140625,0.65302155155662,383.2213],[24.1923828125,0.67804596561912,369.5],[24.2080078125,0.69269440311912,369.0],[24.2314453125,0.68146393436912,369.0],[24.236962890625023,0.69269440311912,368.5],[24.236328125,0.704364324994117,382.4069],[24.233300781250023,0.71735260624412,386.2539],[24.2314453125,0.732928778119117,376.3893],[24.238037109375,0.74701569218162,377.0741],[24.253808593750023,0.757342840619117,368.0],[24.271630859375023,0.766620184369117,369.6226],[24.285058593750023,0.777362371869117,367.5],[24.28466796875,0.77850983280662,367.5],[24.284423828125,0.778827215619117,367.5],[24.284326171875023,0.778192449994108,367.5],[24.284423828125,0.776727606244108,367.5]]}}