{"type":"Feature","properties":{"featurecla":"River","scalerank":3,"rivernum":79,"dissolve":"79River","name":"Kibali","name_alt":null,"note":null,"min_zoom":3.0,"strokeweig":0.15,"name_en":"Kibali","min_label":4.0},
"geometry":{"type": "LineString","coordinates": [[30.371191406250006,2.33307526249412,1425.2255],[30.372167968750006,2.349237371869108,1337.3317],[30.3818359375,2.3894229187441169,1271.2993],[30.38427734375,2.4116397156191169,1256.0247],[30.387304687500006,2.418085028119108,1252.4006],[30.399804687500023,2.43854401249412,1251.6259],[30.401562500000011,2.44293854374412,1248.8115],[30.4052734375,2.44843170780662,1227.7192],[30.398535156250006,2.48395416874412,1206.9935],[30.40673828125,2.50385162968162,1204.0966],[30.428320312500006,2.53925202030662,1200.5398],[30.439550781250006,2.62592194218162,1156.9501],[30.438574218750006,2.662713934369108,1117.8782]]}}