{"type":"Feature","properties":{"featurecla":"River","scalerank":3,"rivernum":79,"dissolve":"79River","name":"Kibali1","name_alt":null,"note":null,"min_zoom":3.0,"strokeweig":0.2,"name_en":"Kibali","min_label":4.0},
"geometry":{"type": "LineString","coordinates": [[30.438574218750006,2.662713934369108,1117.8782],[30.434960937500023,2.6989932312441169,1129.2959],[30.43017578125,2.715448309369108,1121.7238],[30.41748046875,2.73554108280662,1087.9205],[30.413818359375,2.758417059369108,1104.4009],[30.408398437500011,2.76788971561912,1096.3721],[30.39892578125,2.77814362186912,1062.4399],[30.392333984375,2.7885928406191169,1055.2831],[30.3876953125,2.799676824994108,1031.1663],[30.38427734375,2.8122744812441169,1040.9197],[30.384863281250006,2.81830475468162,1026.772],[30.391845703125,2.82684967655662,1042.7299],[30.392333984375,2.8327822937441169,1045.1461],[30.390234375,2.83331940311912,1038.3062],[30.378662109375,2.84015534061912,1033.5913],[30.370019531250023,2.85907623905662,1016.925],[30.36376953125,2.86517975468162,1014.09],[30.3544921875,2.86749909061912,1010.511],[30.348876953125,2.8696475281191169,1025.194],[30.344140625000023,2.87433502811912,1009.9282],[30.3375,2.879022528119108,1012.8843],[30.326904296875,2.88117096561912,1019.233],[30.296142578125,2.88117096561912,1007.2908],[30.2373046875,2.86859772343162,1001.7714],[30.227148437500006,2.8706240906191169,999.5182],[30.21630859375,2.8825869812441169,996.2116],[30.191162109375,2.88519928593162,1003.2849],[30.144628906250006,2.88117096561912,996.1329],[30.140039062500023,2.8818545593691169,989.6963],[30.133691406250023,2.88373444218162,981.6545],[30.12939453125,2.8860049499941169,968.8269],[30.130957031250006,2.88800690311912,975.6647],[30.125878906250023,2.88507721561912,970.5861],[30.114501953125,2.87579987186912,967.2916],[30.110595703125,2.87372467655662,969.1806],[30.099511718750023,2.874383856244108,983.6796],[30.091552734375,2.87702057499412,983.426],[30.085546875,2.87982819218162,979.8495],[30.069921875,2.88263580936912,973.1665],[30.059960937500023,2.88703034061912,949.0067],[30.05224609375,2.89447662968162,956.5492],[30.049072265625,2.9050479187441169,948.4508],[30.044042968750006,2.9165225281191169,952.9697],[30.0322265625,2.92243073124412,945.8374],[30.007421875,2.9289736999941169,963.4722],[29.898046875,2.99628327030662,912.9398],[29.863525390625,3.0114932312441169,921.4348],[29.837158203125,3.01691315311912,884.7748],[29.812890625000023,3.0183291687441169,867.1848],[29.797119140625,3.02387116093162,895.7784],[29.781835937500006,3.0368838562441169,874.5878],[29.75830078125,3.0630069031191169,849.5565],[29.73388671875,3.07416412968162,834.0588],[29.699804687500006,3.078973699994108,839.1622],[29.6044921875,3.0810733093691169,844.4777],[29.5888671875,3.08331940311912,826.5388],[29.564843750000023,3.090448309369108,797.8613],[29.563232421875,3.09369537968162,803.3641],[29.563085937500006,3.103387762494108,796.5515],[29.5595703125,3.10675690311912,802.3437],[29.5419921875,3.10578034061912,805.4472],[29.53515625,3.1064639343691169,788.5536],[29.52880859375,3.10529205936912,796.224],[29.52197265625,3.10089752811912,786.7446],[29.516357421875,3.10016510624412,792.5491],[29.514062500000023,3.11017487186912,799.986],[29.514746093750006,3.1196475281191169,831.3553],[29.51611328125,3.12555573124412,797.3937],[29.516210937500006,3.131708074994108,785.1593],[29.514062500000023,3.1418643249941169,782.4293],[29.49765625,3.172235418744108,771.5047],[29.49365234375,3.18768952030662,793.4813],[29.501074218750006,3.20331452030662,765.2045],[29.49365234375,3.21405670780662,760.2502],[29.503515625,3.23102448124412,758.5449],[29.49365234375,3.2380557312441169,759.5359],[29.511816406250006,3.25519440311912,753.0612],[29.506738281250023,3.26703522343162,760.7986],[29.49365234375,3.27948639530662,769.0947],[29.4873046875,3.29889557499412,759.8085],[29.471435546875,3.290399481244108,771.1092],[29.466210937500023,3.28522369999412,763.348],[29.453027343750023,3.29389069218162,757.0195],[29.43310546875,3.2929873718691169,753.3254],[29.394921875000023,3.28522369999412,771.2346],[29.351660156250006,3.284540106244108,750.0635],[29.333984375,3.28656647343162,744.6701],[29.3154296875,3.29266998905662,741.8347],[29.299707031250023,3.30426666874412,747.7617],[29.291259765625,3.3193545593691169,733.2809],[29.283935546875,3.33722565311912,740.3928],[29.271386718750023,3.35724518436912,739.9234],[29.243261718750006,3.38336823124412,732.2154],[29.228515625,3.392694403119108,738.8037],[29.223876953125,3.40412018436912,724.9836],[29.220458984375,3.42243073124412,727.4286],[29.206933593750023,3.4343447937441169,739.0],[29.188232421875,3.4458194031191169,738.2385],[29.171777343750023,3.45844147343162,736.9122],[29.164648437500006,3.47394440311912,725.6776],[29.160400390625,3.48004791874412,727.4553],[29.14208984375,3.49176666874412,723.9697],[29.137939453125,3.5012393249941169,717.1636],[29.1357421875,3.50446198124412,716.1032],[29.131738281250023,3.50665924686912,744.5192],[29.1298828125,3.5095401062441169,734.4274],[29.134179687500023,3.5149111999941169,735.0326],[29.139746093750006,3.52020905155662,725.6497],[29.143310546875,3.5254092468691169,727.4463],[29.144775390625,3.5315127624941169,722.2016],[29.144628906250006,3.5390811218691169,724.2154],[29.134863281250006,3.556024481244108,720.5098],[29.09814453125,3.581903387494108,708.0],[29.090039062500011,3.60394928593162,711.0744],[29.08056640625,3.6123233093691169,706.2549],[29.058984375000023,3.6054873718691169,720.0978],[29.016210937500006,3.5852236999941169,714.5809],[29.014257812500006,3.582635809369108,710.5067],[29.01220703125,3.58063385624412,711.6745],[29.007519531250011,3.58063385624412,706.1136],[29.002832031250023,3.583612371869108,703.3885],[29.0015625,3.58808014530662,709.0284],[29.001708984375,3.592157293744108,711.5878],[29.000683593750011,3.59430573124412,707.4565],[28.989160156250023,3.604852606244108,706.8273],[28.98291015625,3.604852606244108,721.2325],[28.980224609375,3.5905947937441169,713.013],[28.976806640625,3.5830264343691169,704.4271],[28.96923828125,3.58246491093162,712.3468],[28.9560546875,3.58685944218162,701.2191],[28.942480468750006,3.5849795593691169,707.3323],[28.932226562500006,3.58002350468162,701.5082],[28.898193359375,3.556268621869108,705.759],[28.89013671875,3.55316803593162,698.743],[28.8765625,3.5527529968691169,695.0],[28.8671875,3.55524323124412,703.307],[28.85205078125,3.56439850468162,697.615],[28.84619140625,3.5664248718691169,702.2847],[28.840576171875,3.5695986999941169,710.4753],[28.8359375,3.57660553593162,703.3108],[28.82958984375,3.58368561405662,701.368],[28.818945312500006,3.58685944218162,696.4845],[28.8125,3.58808014530662,695.1672],[28.803466796875,3.593133856244108,705.0826],[28.79833984375,3.59430573124412,713.3853],[28.791259765625,3.59223053593162,706.6994],[28.788671875,3.58759186405662,703.7041],[28.788476562500023,3.58295319218162,705.4985],[28.787841796875,3.58063385624412,705.6888],[28.7734375,3.580438543744108,703.3686],[28.74560546875,3.58551666874412,705.3224],[28.723046875000023,3.58685944218162,702.462],[28.701074218750023,3.59064362186912,699.9592],[28.662109375,3.60578034061912,696.0352],[28.64453125,3.60736725468162,694.0525],[28.609082031250011,3.59784577030662,694.0732],[28.5859375,3.59577057499412,700.3234]]}}