{"type":"Feature","properties":{"featurecla":"River","scalerank":7,"rivernum":605,"dissolve":"605River","name":"Aruwimi","name_alt":null,"note":null,"min_zoom":6.0,"strokeweig":0.25,"name_en":"Aruwimi","min_label":7.0},
"geometry":{"type": "LineString","coordinates": [[26.837304687500023,1.7082705749941169,494.0976],[26.773681640625,1.72296784061912,489.6286],[26.74658203125,1.721307684369108,506.3451],[26.729589843750006,1.710321356244108,497.7323],[26.715917968750006,1.695428778119108,503.0374],[26.697998046875,1.682001043744108,497.9645],[26.67236328125,1.6743350281191169,493.964],[26.651562500000011,1.67780182499412,493.6489],[26.633398437500006,1.6902041687441169,488.0588],[26.546972656250006,1.77387116093162,487.3084],[26.526562500000011,1.79865143436912,509.2625],[26.51318359375,1.8217959656191169,477.2249],[26.503662109375,1.83344147343162,490.3332],[26.499414062500023,1.8291201843691169,474.1842],[26.494238281250006,1.82514069218162,489.787],[26.458398437500023,1.81171295780662,480.5383],[26.450878906250011,1.82050202030662,455.5],[26.418212890625,1.842645574994108,451.0],[26.4072265625,1.84711334843162,450.5],[26.3916015625,1.851434637494108,468.6122],[26.376367187500023,1.862176824994108,483.8857],[26.3486328125,1.888055731244108,482.9252],[26.32275390625,1.9065127624941169,479.0985],[26.294335937500023,1.918573309369108,469.1976],[26.194921875,1.93268463749412,455.1188],[26.154882812500006,1.94599030155662,459.5499],[26.132910156250006,1.948846746869108,468.2284],[26.111914062500006,1.95526764530662,460.8486],[26.090039062500011,1.9682803406191169,462.0737],[26.068261718750023,1.97833893436912,455.2148],[26.046875,1.976190496869108,462.0044],[26.04150390625,1.97003815311912,460.7173],[26.0419921875,1.96332428593162,460.8669],[26.045019531250006,1.957879949994108,458.558],[26.046875,1.955682684369108,456.2025],[26.033203125,1.94269440311912,439.0],[26.024316406250023,1.93805573124412,439.6666],[25.998779296875,1.9314151062441169,438.0],[25.98876953125,1.9253115906191169,449.5055],[25.960205078125,1.889520574994108,459.5936],[25.943261718750023,1.87811920780662,432.0],[25.917236328125,1.8737979187441169,455.7167],[25.90576171875,1.874627996869108,441.375],[25.886132812500023,1.87897369999412,429.5],[25.86484375,1.88129303593162,448.8788],[25.745214843750006,1.8737979187441169,425.5],[25.723730468750006,1.87824127811912,461.2678],[25.683496093750023,1.89154694218162,444.6388],[25.659912109375,1.89423248905662,442.8953],[25.636816406250006,1.89142487186912,428.8572],[25.55419921875,1.85675690311912,420.5],[25.534082031250023,1.843133856244108,450.7719],[25.5185546875,1.8249697937441169,450.3056],[25.512451171875,1.8017764343691169,445.5447],[25.51220703125,1.777460028119108,457.5734],[25.509375,1.76215241093162,457.3359],[25.501367187500023,1.75202057499412,450.4158],[25.465722656250023,1.73407623905662,445.3863],[25.456152343750006,1.73102448124412,447.2141],[25.443457031250006,1.72980377811912,437.346],[25.406494140625,1.735223699994108,439.8278],[25.39892578125,1.733514715619108,428.4522],[25.38125,1.71491119999412,429.1117],[25.373925781250023,1.70184967655662,414.0],[25.373242187500011,1.686639715619108,430.0347],[25.3759765625,1.661493231244108,413.5],[25.370703125,1.617303778119108,434.0216],[25.35,1.58881256718162,433.8501],[25.293359375000023,1.5454287781191169,411.0],[25.2861328125,1.53473541874412,410.5],[25.277246093750023,1.51080963749412,420.1567],[25.27294921875,1.50324127811912,410.0],[25.261474609375,1.49518463749412,440.4146],[25.239648437500023,1.48700592655662,437.6782],[25.228515625,1.47968170780662,436.2553],[25.2109375,1.4707217468691169,435.9805],[25.188720703125,1.467889715619108,433.2382],[25.110595703125,1.4673037781191169,424.0721],[25.1015625,1.46906159061912,424.9468],[25.09375,1.47492096561912,415.1318],[25.085693359375,1.490594793744108,410.1604],[25.077392578125,1.500116278119108,430.3806],[25.055419921875,1.507928778119108,431.0093],[25.03515625,1.49945709843162,412.0233],[25.014550781250023,1.485467840619108,424.8568],[24.99169921875,1.4765811218691169,407.056],[24.973388671875,1.4782901062441169,414.3928],[24.931396484375,1.4878115906191169,406.0103],[24.919677734375,1.486444403119108,415.3483],[24.907470703125,1.46954987186912,413.9575],[24.878662109375,1.38361237186912,422.6335],[24.866455078125,1.364862371869108,420.2401],[24.830664062500006,1.32880280155662,402.0425],[24.81103515625,1.3159365906191169,387.0],[24.790673828125023,1.31037018436912,386.0],[24.745263671875023,1.30524323124412,388.0223],[24.688232421875,1.28717682499412,409.0011],[24.66650390625,1.28473541874412,410.2508],[24.65478515625,1.28790924686912,390.1919],[24.6416015625,1.30206940311912,380.5],[24.631982421875023,1.30524323124412,380.0],[24.600732421875023,1.29157135624412,416.0572],[24.560449218750023,1.26117584843162,411.7944],[24.543212890625,1.2568545593691169,410.8122],[24.517724609375023,1.25836823124412,401.6325],[24.4970703125,1.26325104374412,408.8737],[24.477929687500023,1.27191803593162,397.5222],[24.417236328125,1.314813543744108,380.0001],[24.395410156250023,1.32697174686912,404.4574],[24.330468750000023,1.3393740906191169,370.5],[24.3203125,1.33624909061912,370.5],[24.292236328125,1.31891510624412,390.084],[24.265283203125023,1.32062409061912,394.3483],[24.225244140625023,1.33844635624412,369.0],[24.197265625,1.3393740906191169,369.0],[24.177148437500023,1.32892487186912,369.1249],[24.163330078125,1.30963776249412,384.5608],[24.142578125,1.27045319218162,404.0946],[24.13037109375,1.28131744999412,403.5453],[24.120996093750023,1.31305573124412,394.1105],[24.10791015625,1.3257022156191169,366.5],[24.088134765625,1.31757233280662,376.5087],[24.048486328125023,1.3171572937441169,366.0],[24.029052734375,1.3083682312441169,391.7672],[24.021240234375,1.29938385624412,387.6064],[24.01416015625,1.289178778119108,365.4588],[24.006005859375023,1.28082916874412,365.0],[23.994873046875,1.27728912968162,365.0],[23.981835937500023,1.28168366093162,388.651],[23.976464843750023,1.29181549686912,385.4293],[23.972558593750023,1.3032412781191169,364.5],[23.9638671875,1.31146881718162,366.7617],[23.945068359375,1.31049225468162,385.7843],[23.934716796875023,1.29535553593162,385.1677],[23.93017578125,1.2756533874941169,375.1191],[23.927636718750023,1.251581121869108,374.5634],[23.923242187500023,1.2463565124941169,365.2356],[23.915917968750023,1.243768621869108,365.7997],[23.905908203125023,1.2431826843691169,386.1674],[23.892578125,1.24701569218162,363.5],[23.88818359375,1.25629303593162,377.3729],[23.886376953125023,1.2675967468691169,383.6353],[23.88134765625,1.27728912968162,387.1051],[23.867919921875,1.28388092655662,363.0],[23.826904296875,1.29083893436912,385.7082],[23.786035156250023,1.29071686405662,362.0],[23.769677734375023,1.28754303593162,363.1966],[23.756982421875023,1.281122137494108,361.5],[23.733642578125,1.26019928593162,377.7111],[23.720947265625,1.25153229374412,384.9027],[23.70556640625,1.24542877811912,361.0],[23.551904296875023,1.22675202030662,360.0]]}}