{"type":"Feature","properties":{"featurecla":"River","scalerank":2,"rivernum":45,"dissolve":"45River","name":"Congo2","name_alt":null,"note":null,"min_zoom":2.1,"strokeweig":0.8,"name_en":"Congo","min_label":3.1},
"geometry":{"type": "LineString","coordinates": [[22.73486328125,1.95001862186912,361.1549],[22.714599609375,1.95892975468162,361.3369],[22.62548828125,2.0437197937441169,345.0],[22.608154296875,2.07294342655662,362.4203],[22.60107421875,2.08222077030662,356.8888],[22.584228515625,2.096307684369108,357.4557],[22.546533203125023,2.118036199994108,348.6599],[22.529052734375,2.130975653119108,347.1924],[22.514794921875023,2.145624090619108,344.0],[22.508544921875,2.14911530155662,343.5],[22.497705078125023,2.1516299499941169,343.5],[22.464746093750023,2.15070221561912,352.415],[22.283349609375023,2.18183014530662,342.0],[22.26806640625,2.18146393436912,342.0],[22.260986328125,2.18012116093162,343.6204],[22.2421875,2.17255280155662,342.0],[22.234375,2.1714053406191169,341.5],[22.227294921875,2.17218659061912,348.1905],[22.19140625,2.1833682312441169,355.4925],[22.0927734375,2.18744537968162,358.2131],[21.5966796875,2.148065496869108,346.6921],[21.56875,2.14105866093162,336.0],[21.531396484375023,2.121210028119108,345.8409],[21.517822265625,2.11676666874412,346.654],[21.344384765625023,2.09149811405662,332.5],[21.319482421875023,2.081903387494108,347.9306],[21.241113281250023,2.03363678593162,352.108],[21.218408203125023,2.0112490906191169,351.051],[21.206787109375,2.00580475468162,353.2005],[21.164794921875,2.005731512494108,354.2738],[21.100488281250023,1.995477606244108,347.6658],[20.980712890625,2.00311920780662,342.6233],[20.907470703125,2.01691315311912,327.6967],[20.64306640625,1.9904971374941169,337.7736],[20.447265625,1.992792059369108,337.3435],[20.385400390625023,1.9804873718691169,334.1562],[20.338281250000023,1.963495184369108,336.3023],[20.326416015625,1.96173737186912,315.0],[20.3125,1.9624209656191169,338.3366],[20.306640625,1.96051666874412,325.6109],[20.30322265625,1.95416901249412,315.0],[20.2734375,1.96442291874412,338.1913],[20.266992187500023,1.96515534061912,315.0],[20.154931640625023,1.96137116093162,315.0],[19.918359375000023,1.8933291687441169,315.0],[19.846923828125,1.859979559369108,336.7013],[19.755859375,1.82977936405662,335.657],[19.740478515625,1.821405340619108,340.6633],[19.710839843750023,1.79743073124412,329.906],[19.6953125,1.78900787968162,341.1682],[19.545654296875,1.748895574994108,340.6483],[19.494384765625,1.724237371869108,339.935],[19.488671875000023,1.72321198124412,339.9954],[19.475976562500023,1.722528387494108,337.6874],[19.47021484375,1.72113678593162,339.2248],[19.46533203125,1.71857330936912,339.2127],[19.443505859375023,1.70319244999412,339.6009],[19.434326171875,1.699090887494108,336.3135],[19.340966796875023,1.66998932499412,334.2816],[19.142822265625,1.573602606244108,313.0]]}}