{"type":"Feature","properties":{"featurecla":"Lake","scalerank":3,"name":"Lac Moeru","name_abb":"L. Moeru","name_alt":"Lake Mweru","note":null,"delta":null,"dam_name":null,"year":-99,"admin":"admin-0 more","min_zoom":3.0,"min_label":4.0},
"geometry":{"type": "Polygon","coordinates": [[[29.127187209491922,-8.6212227773602876,920.0],[29.106581720592715,-8.6020891090967382,922.1588],[29.041821612623721,-8.5623499519339532,920.0],[29.001199363079564,-8.531736082712257,920.0],[28.979710781798957,-8.5196671534998529,926.0175],[28.956161651628406,-8.5146629633386226,920.0],[28.938499804000514,-8.5081869525417346,920.0],[28.909063391287361,-8.4831660017355262,920.0],[28.890812815405184,-8.4811054528456111,920.0],[28.869029869997433,-8.4949405668207874,920.0],[28.757171501687395,-8.6553690161075565,1102.9567],[28.665918622276592,-8.7477993520269024,996.8997],[28.613816171774289,-8.8131481882501248,1010.6161],[28.541402596499893,-8.8784970244733756,1027.8064],[28.520797107600686,-8.9061672524237281,1015.952],[28.486945232980531,-8.9644513495958051,986.395],[28.466339744081324,-8.98829484389347,987.1465],[28.42836677168134,-9.0086059686655631,1037.6635],[28.423068217392967,-9.0124327023182786,1035.8956],[28.401285271985216,-9.0395142020143737,1030.2437],[28.341823718304624,-9.0824913645756169,933.4142],[28.329166060837963,-9.1036855817290814,932.1779],[28.322984414168189,-9.1254685271368317,932.6281],[28.320923865278274,-9.14872329318024,934.3637],[28.32563369131239,-9.1708006027151043,928.59],[28.339468805287567,-9.18963990685154,925.4108],[28.345061723703083,-9.2073017544794311,924.7911],[28.339468805287567,-9.232911433539897,925.0641],[28.327988604329448,-9.2585211126003628,925.5249],[28.315036582735644,-9.2755942319739972,928.5604],[28.326222419566648,-9.2850138840422,948.1799],[28.318863316388359,-9.3168052097724114,946.2095],[28.329166060837963,-9.3377050627987614,941.1928],[28.315036582735644,-9.3612541929693123,925.9137],[28.32386750654959,-9.379210404724347,924.4944],[28.340057533541824,-9.3980497088607535,924.4554],[28.34888845735577,-9.423070659666962,925.5573],[28.352420826881371,-9.4433817844390262,925.9412],[28.352126462754228,-9.4578056266684882,925.4503],[28.346239180211597,-9.4707576482622926,924.8535],[28.325928055439505,-9.4875364035087841,924.4657],[28.322395685913932,-9.4957785990684727,925.7108],[28.329166060837963,-9.5090249847893915,924.8578],[28.315036582735644,-9.5219770063831959,925.2765],[28.330049153219363,-9.5284530171800839,925.2928],[28.3574250170426,-9.5146179032049076,925.6003],[28.373320679907721,-9.51903336511188,924.4139],[28.384212152611582,-9.5249206476545112,926.9497],[28.397164174205386,-9.5278642889258265,927.2351],[28.424834402155767,-9.5293361095614841,932.0065],[28.454565178996063,-9.5237431911459964,920.0],[28.503723988227051,-9.5034320663739038,922.2551],[28.527861846651831,-9.5090249847893915,922.9276],[28.526095661889059,-9.48135475683901,924.5776],[28.506961993625481,-9.4737012895336079,920.0],[28.480763586310758,-9.473406925406465,920.0],[28.458980640903036,-9.4675196428638344,920.0],[28.482529771073558,-9.44455924094757,920.0],[28.483118499327816,-9.3865695079026352,920.0],[28.500485982828593,-9.364492198367742,927.9397],[28.500485982828593,-9.3780329482158038,929.2515],[28.515498553312312,-9.3783273123429467,920.0],[28.524329477126258,-9.3918680621910084,920.0],[28.526684390143316,-9.4104130022003,924.9761],[28.5210914717278,-9.4263086650653918,926.3926],[28.541402596499893,-9.4221875672855617,920.0],[28.580258661281277,-9.40364262727627,920.0],[28.607634525104515,-9.3968722523522388,920.0],[28.616171084791347,-9.39275115457238,920.0],[28.625002008605293,-9.3909849698096082,920.0],[28.634421660673496,-9.3956947958436956,925.9102],[28.640897671470412,-9.402170806640612,924.8076],[28.6473736822673,-9.4059975402933276,923.009],[28.654732785445589,-9.4054088120390418,920.0],[28.665035529895192,-9.3992271653692967,921.5411],[28.702419774040919,-9.4377888660235385,920.0],[28.720375985795954,-9.44544233332897,920.0],[28.732739279135473,-9.4195382901413609,935.8108],[28.71419433912618,-9.41365100759873,920.0],[28.71419433912618,-9.397755344733639,920.0],[28.727146360719985,-9.364492198367742,920.0],[28.723908355321527,-9.3474190789941076,920.0],[28.712428154363408,-9.3327008726375311,920.0],[28.712722518490523,-9.316510845645297,920.0],[28.718315436906039,-9.3035588240514926,920.0],[28.7274407248471,-9.2926673513476317,920.0],[28.746868757237792,-9.2755942319739972,920.0],[28.754522224543223,-9.2652914875243653,920.0],[28.765413697247084,-9.2408592649724426,920.0],[28.774244621061058,-9.2279072433786666,920.0],[28.802209213138553,-9.2081848468608314,920.0],[28.81604432711373,-9.19464409701277,920.0],[28.830173805216049,-9.1525500268329552,920.0],[28.849013109352484,-9.13194453793372,920.0],[28.890812815405184,-9.0975039350593363,920.0],[28.902587380490445,-9.077781538541501,920.0],[28.910535211923019,-9.0554098648794934,920.0],[28.919660499864079,-9.0368649248702013,920.0],[28.935261798602056,-9.02921145756477,920.0],[28.953512374484234,-9.0236185391492825,920.0],[28.996489537045449,-8.99742013183456,920.0],[29.007675373876452,-8.98829484389347,920.0],[29.023571036741572,-8.96062461594309,920.0],[29.046237074530694,-8.8943926873384669,920.0],[29.086270595820622,-8.8266889380981866,920.0],[29.146909606009729,-8.67568014087965,949.7444],[29.149264519026787,-8.6577239291246144,920.0],[29.143377236484156,-8.6412395380052374,920.0],[29.127187209491922,-8.6212227773602876,920.0]]]}}