{"type":"Feature","properties":{"featurecla":"Lake Centerline","scalerank":8,"rivernum":702,"dissolve":"702Lake Centerline","name":"Luvua","name_alt":null,"note":null,"min_zoom":7.0,"strokeweig":0.25,"name_en":"Luvua","min_label":8.0},
"geometry":{"type": "LineString","coordinates": [[28.88720703125,-8.48357512813088,939.4832],[28.90576171875,-8.4946591125058859,920.0],[28.911035156250023,-8.5657528625058887,920.0],[28.88046875,-8.68816497188088,920.0],[28.823144531250023,-8.80339934688088,920.0],[28.748144531250006,-8.92962005000588,920.0],[28.69287109375,-9.05095794063088,920.0],[28.654052734375,-9.1098934875058859,920.0],[28.608154296875,-9.1616513000058859,920.0],[28.557226562500006,-9.2524716125058859,920.0],[28.533203125,-9.30169036250588,920.0],[28.515527343750023,-9.3782528625058887,920.0]]}}