{"type":"Feature","properties":{"featurecla":"Lake Centerline","scalerank":8,"rivernum":682,"dissolve":"682Lake Centerline","name":"Lukuga1","name_alt":null,"note":null,"min_zoom":7.0,"strokeweig":0.25,"name_en":"Lukuga","min_label":8.0},
"geometry":{"type": "LineString","coordinates": [[29.549414062500006,-5.4477841125058859,770.0],[29.547460937500006,-5.47551848750588,770.0],[29.557373046875,-5.65447356563088,770.0],[29.539306640625,-5.80974700313088,770.0],[29.481640625000011,-5.8779598937558859,770.0],[29.4052734375,-5.89421965938088,770.0],[29.331445312500023,-5.92327239375588,770.0],[29.276123046875,-5.9339169250058887,770.0],[29.230566406250006,-5.92498137813088,770.0],[29.189843750000023,-5.9124325500058887,770.1049]]}}