{"type":"Feature","properties":{"featurecla":"River","scalerank":7,"rivernum":501,"dissolve":"501River","name":"Lomami","name_alt":null,"note":null,"min_zoom":6.0,"strokeweig":0.15,"name_en":"Lomami","min_label":7.0},
"geometry":{"type": "LineString","coordinates": [[24.724853515625,-8.74065520625588,1114.7928],[24.687402343750023,-8.70281340938088,1093.8135],[24.6650390625,-8.6860653625058859,1104.783],[24.64599609375,-8.67913176875588,1079.9143],[24.60595703125,-8.6777645812558859,1080.1042],[24.589599609375,-8.6719052062558859,1069.2275],[24.580224609375023,-8.6587216125058859,1088.6992],[24.58642578125,-8.6346005187558887,1085.1599],[24.587646484375,-8.6245419250058859,1056.3546],[24.580224609375023,-8.5867489562558887,1077.8068],[24.587158203125,-8.56878020625588,1061.3651],[24.635400390625023,-8.5146786437558859,1047.0822],[24.696044921875,-8.4004208312558859,1028.3162],[24.724853515625,-8.3774716125058859,1049.9192]]}}