{"type":"Feature","properties":{"featurecla":"River","scalerank":8,"rivernum":665,"dissolve":"665River","name":"Lufira3","name_alt":null,"note":null,"min_zoom":7.0,"strokeweig":0.25,"name_en":"Lufira","min_label":8.0},
"geometry":{"type": "LineString","coordinates": [[27.050878906250006,-9.53630950313088,869.7864],[27.038964843750023,-9.52996184688088,873.2734],[27.007080078125,-9.4817684875058887,851.7355],[27.016357421875,-9.4668270812558859,831.612],[27.004150390625,-9.45964934688088,965.7037],[26.972900390625,-9.45378997188088,837.9167],[26.9677734375,-9.4378231750058887,861.0568],[26.967187500000023,-9.4173153625058887,817.1295],[26.961523437500006,-9.39983489375588,886.5632],[26.941308593750023,-9.3924130187558887,820.5982],[26.930419921875,-9.38543059688088,888.9528],[26.85107421875,-9.31389739375588,834.7817],[26.838623046875,-9.30974700313088,807.0004],[26.833251953125,-9.3052059875058859,841.4122],[26.801171875000023,-9.2874325500058887,756.4625],[26.793554687500006,-9.2859677062558887,818.5316],[26.789160156250006,-9.27410247188088,826.3281],[26.7705078125,-9.24651458125588,777.5521],[26.766845703125,-9.2278622375058887,1104.3246],[26.769238281250011,-9.22478606563088,1059.2632],[26.774511718750006,-9.2215145812558887,898.2708],[26.779296875,-9.21624114375588,879.7891],[26.780517578125,-9.20745208125588,800.1107],[26.776269531250023,-9.19695403438088,873.6179],[26.762451171875,-9.1848934875058887,712.1],[26.759375,-9.1761044250058887,728.2736],[26.756591796875,-9.1572567687558859,751.0058],[26.749414062500023,-9.14470794063088,690.4926],[26.74072265625,-9.13323333125588,715.8488],[26.732812500000023,-9.1179989562558887,707.4511],[26.739013671875,-9.1059872375058859,675.942],[26.734277343750023,-9.0960263000058887,673.5397],[26.725195312500006,-9.08660247188088,669.9199],[26.719140625000023,-9.07634856563088,717.2059],[26.722265625,-9.02337005000588,661.7558],[26.71533203125,-9.01555755000588,675.1017],[26.701171875,-9.00872161250588,668.6503],[26.689697265625,-8.9922177062558859,669.2109],[26.681542968750023,-8.97210051875588,676.9025],[26.677441406250011,-8.9541317687558859,645.9178],[26.677148437500023,-8.9348934875058887,650.7545],[26.683691406250006,-8.8811825500058887,640.6848],[26.690332031250023,-8.8662411437558859,629.7377],[26.71875,-8.8406552062558887,640.5469],[26.725341796875,-8.81975676875588,618.7117],[26.723242187500006,-8.8022763000058859,630.3452],[26.713964843750006,-8.77971770625588,606.4669],[26.711669921875,-8.7617489562558859,613.5942],[26.719140625000023,-8.68914153438088,615.8328],[26.724609375,-8.6748348937558859,606.8073],[26.737060546875,-8.6702450500058887,592.5771],[26.750585937500006,-8.67424895625588,595.7957],[26.759375,-8.68596770625588,609.9517],[26.766845703125,-8.68596770625588,594.0786],[26.7578125,-8.6601864562558859,609.1176],[26.75625,-8.64495208125588,619.4911],[26.76318359375,-8.63811614375588,618.4595],[26.775390625,-8.63054778438088,581.5099],[26.772705078125,-8.6140927062558887,578.6582],[26.764257812500006,-8.59856536250588,583.2656],[26.759375,-8.5935848937558887,574.5414],[26.758691406250023,-8.5618466125058887,598.9089],[26.754003906250006,-8.52800872188088,576.3589],[26.742089843750023,-8.4969052062558887,575.3867],[26.719140625000023,-8.4736630187558859,571.0076],[26.685644531250006,-8.46624114375588,570.1806],[26.65087890625,-8.47478606563088,568.5983],[26.61669921875,-8.48796965938088,568.0364],[26.584716796875,-8.49480559688088,566.9381],[26.563867187500023,-8.48259856563088,567.8127],[26.53955078125,-8.4541317687558859,567.496],[26.521240234375,-8.42205169063088,565.3921],[26.519238281250011,-8.39861419063088,564.8311],[26.50341796875,-8.39812590938088,565.1904],[26.494384765625,-8.3909481750058887,564.2322],[26.487890625,-8.38079192500588,564.8663],[26.4794921875,-8.37127044063088,564.5422],[26.467187500000023,-8.3655575500058887,564.2044],[26.453857421875,-8.36174895625588,564.6117],[26.44140625,-8.35588958125588,564.3778],[26.431054687500023,-8.3432919250058859,564.6418],[26.42626953125,-8.3193661437558859,565.2752],[26.432714843750006,-8.29851653438088,561.5],[26.451562500000023,-8.2688778625058887,561.5]]}}