{"type":"Feature","properties":{"featurecla":"River","scalerank":2,"rivernum":37,"dissolve":"37River","name":"Lualaba1","name_alt":null,"note":null,"min_zoom":2.1,"strokeweig":0.2,"name_en":"Lualaba","min_label":3.1},
"geometry":{"type": "LineString","coordinates": [[25.938232421875,-11.65349700313088,1378.8854],[25.903222656250023,-11.63640715938088,1363.4597],[25.8876953125,-11.62395598750588,1387.3826],[25.876220703125,-11.605010675005886,1383.3674],[25.86875,-11.61248137813088,1367.7616],[25.855224609375,-11.54021575313088,1366.2286],[25.845458984375,-11.52996184688088,1380.9272],[25.83203125,-11.522295831255889,1359.7258],[25.818261718750023,-11.504229425005889,1369.172],[25.811718750000011,-11.483721612505889,1349.9686],[25.821044921875,-11.468584893755889,1333.5811],[25.821044921875,-11.46111419063088,1357.392],[25.785839843750011,-11.42253997188088,1332.677],[25.780517578125,-11.40984465938088,1344.7006],[25.77783203125,-11.398955987505886,1343.6897],[25.771582031250006,-11.394366143755889,1341.9856],[25.764404296875,-11.391436456255889,1324.3975],[25.758886718750006,-11.38591887813088,1320.2024],[25.75625,-11.376495050005886,1344.6023],[25.755761718750023,-11.358916925005886,1329.4506],[25.753320312500023,-11.35125090938088,1352.1476],[25.745214843750006,-11.35125090938088,1371.6874],[25.742919921875,-11.36028411250588,1342.3458],[25.73984375,-11.364776300005886,1326.2487],[25.734375,-11.364288018755886,1339.3716],[25.724707031250006,-11.358721612505889,1348.8269],[25.732177734375,-11.35125090938088,1337.9711],[25.6982421875,-11.33294036250588,1341.7319],[25.685449218750023,-11.320635675005889,1308.8875],[25.677001953125,-11.30339934688088,1338.4374],[25.662207031250006,-11.309600518755886,1342.4834],[25.6572265625,-11.30242278438088,1339.3334],[25.656152343750023,-11.28997161250588,1319.8086],[25.653076171875,-11.28045012813088,1323.8745],[25.64609375,-11.27703215938088,1314.2906],[25.638427734375,-11.274932550005886,1313.4429],[25.63037109375,-11.26970794063088,1307.3866],[25.622314453125,-11.25628020625588,1338.5488],[25.620019531250023,-11.26091887813088,1330.4374],[25.61474609375,-11.26751067500588,1308.9226],[25.608007812500006,-11.27190520625588,1331.7917],[25.601171875,-11.26995208125588,1305.8864],[25.5966796875,-11.261553643755889,1307.9979],[25.59716796875,-11.25261809688088,1339.3793],[25.599707031250006,-11.242998956255889,1305.7378],[25.6064453125,-11.19378020625588,1340.6715],[25.605371093750023,-11.17717864375588,1308.3137],[25.595117187500023,-11.167510675005886,1331.5554],[25.59375,-11.171416925005886,1306.804],[25.5888671875,-11.181182550005886,1316.6993],[25.577734375,-11.16643645625588,1330.1388],[25.574609375000023,-11.16008880000588,1339.7156],[25.567138671875,-11.16008880000588,1317.396],[25.564697265625,-11.16619231563088,1324.2058],[25.561914062500023,-11.16887786250588,1320.4177],[25.558349609375,-11.17058684688088,1307.149],[25.553320312500006,-11.17376067500588,1321.2797],[25.544677734375,-11.144561456255886,1345.269],[25.553320312500006,-11.06072356563088,1318.1168],[25.55908203125,-11.03972747188088,1297.1619],[25.573632812500023,-11.02337005000588,1299.3041],[25.593359375,-11.011260675005886,1302.0033],[25.61484375,-11.00310637813088,1307.2855],[25.621484375000023,-11.002764581255889,1292.9441],[25.637451171875,-11.004424737505886,1300.2629],[25.643457031250023,-11.00310637813088,1311.8718],[25.6484375,-10.997881768755889,1311.3921],[25.653417968750006,-10.985870050005886,1310.481],[25.656494140625,-10.98186614375588,1308.145],[25.676513671875,-10.96892669063088,1307.5906],[25.688378906250023,-10.96355559688088,1284.6667],[25.700878906250011,-10.961455987505886,1289.6813],[25.72119140625,-10.951495050005889,1272.7004],[25.724707031250006,-10.92742278438088,1273.8282],[25.72421875,-10.897979425005886,1274.6255],[25.732177734375,-10.87200286250588,1292.9529],[25.726953125000023,-10.859698175005889,1277.4036],[25.731835937500023,-10.854034112505886,1266.5911],[25.739990234375,-10.850616143755886,1265.5786],[25.745214843750006,-10.844756768755886,1273.9016],[25.745361328125,-10.832549737505886,1267.0657],[25.73486328125,-10.77971770625588,1273.1873],[25.735253906250023,-10.770049737505886,1261.0],[25.742089843750023,-10.75872161250588,1286.147],[25.759179687500023,-10.74456145625588,1283.6058],[25.764404296875,-10.736651300005889,1295.4888],[25.766357421875,-10.72185637813088,1290.095],[25.734619140625,-10.669952081255886,1305.9426],[25.735595703125,-10.66033294063088,1297.9861],[25.73984375,-10.657256768755886,1277.5657],[25.734277343750023,-10.650225518755889,1264.5868],[25.72421875,-10.643096612505886,1277.9448],[25.71484375,-10.639971612505889,1285.2371],[25.677001953125,-10.61882903438088,1272.2056],[25.681054687500023,-10.61785247188088,1271.0677],[25.684472656250023,-10.617510675005889,1285.4761],[25.6875,-10.616045831255889,1283.23],[25.690673828125,-10.61199309688088,1262.1055],[25.680908203125,-10.60711028438088,1261.0],[25.677001953125,-10.605791925005889,1276.3116],[25.690673828125,-10.564288018755889,1278.3514],[25.684472656250023,-10.554229425005886,1267.5732],[25.677734375,-10.55144622188088,1267.5419],[25.6689453125,-10.549834893755886,1265.818],[25.656494140625,-10.54363372188088,1270.4973],[25.650781250000023,-10.53533294063088,1267.8083],[25.64013671875,-10.50896575313088,1289.4448],[25.635986328125,-10.50212981563088,1270.0002],[25.625244140625,-10.50017669063088,1287.3945],[25.599853515625,-10.503741143755889,1276.9611],[25.5888671875,-10.50212981563088,1274.0164],[25.582763671875,-10.49578215938088,1271.8959],[25.578320312500011,-10.476592706255886,1281.8157],[25.574609375000023,-10.46795012813088,1300.4833],[25.566308593750023,-10.45720794063088,1266.2567],[25.565039062500006,-10.45769622188088,1266.2567],[25.563232421875,-10.46502044063088,1261.0],[25.553320312500006,-10.47478606563088,1261.0],[25.54248046875,-10.479522393755886,1261.0],[25.533203125,-10.480498956255886,1304.4004],[25.523828125000023,-10.48040130000588,1281.4657],[25.512451171875,-10.48162200313088,1318.1091],[25.500097656250006,-10.485674737505889,1261.0],[25.489648437500023,-10.490752862505886,1263.9725],[25.478515625,-10.49480559688088,1287.0365],[25.464746093750023,-10.495928643755889,1377.9702],[25.421875,-10.46990325313088,1303.4929],[25.401269531250023,-10.450713800005886,1163.0575],[25.402587890625,-10.42644622188088,1221.0422],[25.4125,-10.420928643755886,1189.9492],[25.426171875000023,-10.41985442500588,1302.8514],[25.438378906250023,-10.416045831255886,1244.0916],[25.443457031250006,-10.403155206255889,1141.5632],[25.441015625,-10.38811614375588,1197.7546],[25.434814453125,-10.37786223750588,1279.0784],[25.425878906250006,-10.370635675005886,1101.3123],[25.416259765625,-10.36492278438088,1245.4617],[25.421875,-10.353545831255886,1170.9644],[25.419921875,-10.34465911250588,1170.7812],[25.416113281250006,-10.335772393755889,1107.8984],[25.416259765625,-10.32390715938088,1201.057],[25.421875,-10.31267669063088,1202.3104],[25.429882812500011,-10.305498956255889,1208.2817],[25.438574218750006,-10.29973723750588,1174.4597],[25.446679687500023,-10.293291925005889,1102.6482],[25.453857421875,-10.275713800005889,1089.1873],[25.450097656250023,-10.256866143755886,1104.3459],[25.4404296875,-10.23992278438088,1121.402],[25.430566406250023,-10.227862237505889,1051.9082],[25.423925781250006,-10.22405364375588,1006.7083],[25.40771484375,-10.219268487505886,929.2084],[25.402587890625,-10.21404387813088,952.3471],[25.400976562500006,-10.202666925005886,874.0417],[25.403710937500023,-10.19158294063088,923.9584],[25.41171875,-10.16887786250588,1024.6562],[25.415722656250011,-10.16082122188088,1000.2097],[25.41748046875,-10.152178643755889,996.5372],[25.397558593750006,-10.11467864375588,792.7955],[25.395117187500006,-10.11174895625588,798.4641],[25.3994140625,-10.091143487505889,788.8197],[25.418554687500006,-10.04924895625588,828.9091],[25.428320312500006,-10.00798919063088,810.9014],[25.441015625,-9.9929989562558887,779.4888],[25.513671875,-9.9292294250058859,747.9383],[25.519238281250011,-9.91619231563088,735.218],[25.526123046875,-9.90935637813088,734.9106],[25.557714843750006,-9.8862606750058859,743.7778],[25.567138671875,-9.87151458125588,730.3409],[25.567138671875,-9.86467864375588,732.855],[25.543212890625,-9.7971981750058887,717.6536],[25.540429687500023,-9.77898528438088,738.9585],[25.545166015625,-9.74431731563088,715.5897],[25.546630859375,-9.74114348750588,721.4129],[25.541259765625,-9.7295223937558859,710.2934],[25.525146484375,-9.7146786437558887,711.4456],[25.519238281250011,-9.70696380000588,715.2062],[25.537695312500006,-9.69548919063088,702.1033],[25.529052734375,-9.67229583125588,723.0866],[25.5068359375,-9.64739348750588,692.316],[25.485253906250023,-9.63128020625588,693.9792],[25.485253906250023,-9.6250302062558859,692.0248],[25.501074218750006,-9.62957122188088,697.2372],[25.519238281250011,-9.63128020625588,716.6595],[25.519238281250011,-9.6250302062558859,708.3434],[25.503662109375,-9.60759856563088,687.2811],[25.494726562500006,-9.58416106563088,698.4164],[25.4912109375,-9.5552059875058859,700.1266],[25.49267578125,-9.50481536250588,695.4449],[25.501953125,-9.45501067500588,701.1604]]}}