{"type":"Feature","properties":{"featurecla":"River","scalerank":8,"rivernum":833,"dissolve":"833River","name":"Sankuru","name_alt":null,"note":null,"min_zoom":7.0,"strokeweig":0.2,"name_en":"Sankuru","min_label":8.0},
"geometry":{"type": "LineString","coordinates": [[24.08740234375,-10.00872161250588,1081.5259],[24.086572265625023,-9.9624325500058859,1055.1311],[24.089257812500023,-9.93767669063088,1053.165],[24.099755859375023,-9.92351653438088,1033.7595],[24.0927734375,-9.91643645625588,1040.8851],[24.081298828125,-9.9095028625058887,1021.213],[24.033349609375023,-9.8960263000058859,1015.9731],[24.025390625,-9.8926083312558859,1014.9413],[24.010888671875023,-9.86638762813088,1040.0631],[24.012451171875,-9.83001067500588,1011.4244],[24.02392578125,-9.79412200313088,1049.9453],[24.038964843750023,-9.7690731750058859,1042.5565],[24.091943359375023,-9.72185637813088,1027.3533],[24.1044921875,-9.7138973937558859,1008.1885],[24.110107421875,-9.70232512813088,1007.3422],[24.12158203125,-9.63128020625588,1026.842]]}}