{"type":"Feature","properties":{"featurecla":"River","scalerank":8,"rivernum":682,"dissolve":"682River","name":"Lukuga2","name_alt":null,"note":null,"min_zoom":7.0,"strokeweig":0.25,"name_en":"Lukuga","min_label":8.0},
"geometry":{"type": "LineString","coordinates": [[29.189843750000023,-5.9124325500058887,770.1049],[29.1421875,-5.89788176875588,801.8198],[29.014404296875,-5.89666106563088,848.2952],[28.91845703125,-5.8813778625058859,943.9704],[28.898193359375,-5.8721005187558859,787.7457],[28.887451171875,-5.8699520812558887,805.7944],[28.853417968750023,-5.87102630000588,795.4351],[28.7568359375,-5.85515715938088,790.5615],[28.715039062500011,-5.8543270812558887,763.5049],[28.671777343750023,-5.86248137813088,755.9144],[28.572021484375,-5.90129973750588,770.8222],[28.52783203125,-5.9041317687558887,743.5677],[28.508691406250023,-5.90227630000588,747.1624],[28.5029296875,-5.9023739562558859,746.3893],[28.49365234375,-5.9041317687558887,739.695],[28.4833984375,-5.90837981563088,733.4344],[28.4619140625,-5.9217098937558887,774.6323],[28.4462890625,-5.9285458312558887,842.9911],[28.43515625,-5.93645598750588,786.5981],[28.423925781250006,-5.94280364375588,800.8138],[28.414794921875,-5.94158294063088,720.7584],[28.39306640625,-5.9173153625058887,715.6899],[28.3837890625,-5.9109677062558887,739.0922],[28.36572265625,-5.9055966125058887,749.0747],[28.294677734375,-5.9053036437558859,678.8319],[28.28369140625,-5.90691497188088,668.0768],[28.273046875,-5.9062802062558859,676.4874],[28.264062500000023,-5.90032317500588,660.3607],[28.23974609375,-5.8699520812558887,661.4686],[28.22705078125,-5.8618466125058859,672.5011],[28.2197265625,-5.8601864562558887,684.5442],[28.198828125,-5.86248137813088,707.2418],[28.175537109375,-5.86809661250588,649.8073],[28.162841796875,-5.86785247188088,642.6461],[28.151757812500023,-5.84978606563088,640.1816],[28.103271484375,-5.79241301875588,628.3038],[28.041748046875,-5.73943450313088,624.9534],[27.992773437500006,-5.67717864375588,606.9613],[27.986523437500011,-5.67131926875588,598.3417],[27.974023437500023,-5.67376067500588,597.3669],[27.91455078125,-5.69524505000588,591.7085],[27.863037109375,-5.73211028438088,598.9712],[27.831640625,-5.7464169250058887,618.1245],[27.819921875,-5.7554013000058859,625.1599],[27.815332031250023,-5.7703427062558887,632.5739],[27.809326171875,-5.77483489375588,604.0758],[27.769775390625,-5.8157528625058887,595.5292],[27.75830078125,-5.85198333125588,633.4183],[27.753173828125,-5.86248137813088,641.3851],[27.703027343750023,-5.8808895812558859,577.308],[27.68798828125,-5.8836239562558887,581.3371],[27.67578125,-5.8784481750058859,582.7755],[27.672753906250023,-5.8689755187558887,589.759],[27.666113281250006,-5.86321380000588,589.1326],[27.643310546875,-5.8699520812558887,576.6388],[27.625,-5.88152434688088,572.0067],[27.593994140625,-5.90911223750588,584.3073],[27.575585937500023,-5.9178036437558887,572.0114],[27.543701171875,-5.91106536250588,568.4023],[27.508056640625,-5.9238583312558859,566.9929],[27.4521484375,-5.95867278438088,574.8873],[27.417578125,-5.9619442687558859,563.4043],[27.393945312500023,-5.9673153625058859,565.2499],[27.38330078125,-5.97600676875588,564.502],[27.374267578125,-5.98650481563088,563.7437],[27.353613281250006,-5.99578215938088,561.747],[27.27880859375,-6.0149716125058887,560.4426],[27.23583984375,-6.0208309875058887,558.6411],[27.216210937500023,-6.01482512813088,557.3698],[27.13720703125,-5.9632138000058887,554.7305],[27.126220703125,-5.95208098750588,555.5646],[27.119042968750023,-5.93645598750588,555.2394],[27.116308593750006,-5.9143856750058887,554.2397],[27.109619140625,-5.89544036250588,577.0533],[27.09326171875,-5.8823544250058859,553.6752],[27.054296875,-5.86248137813088,552.61],[27.030371093750006,-5.83855559688088,554.2335],[26.983496093750006,-5.7788388000058859,548.989],[26.952734375,-5.7615536437558887,573.9287],[26.94873046875,-5.7485653625058859,570.2569],[26.945068359375,-5.71843840938088,547.6797],[26.938574218750006,-5.7026669250058859,565.9598],[26.923095703125,-5.6733700500058859,547.5553],[26.917724609375,-5.65764739375588,549.4848]]}}