{"type":"Feature","properties":{"featurecla":"River","scalerank":2,"rivernum":41,"dissolve":"41River","name":"Congo","name_alt":null,"note":null,"min_zoom":2.1,"strokeweig":0.3,"name_en":"Congo","min_label":3.1},
"geometry":{"type": "LineString","coordinates": [[26.441308593750023,-8.2720028625058859,561.5],[26.465234375000023,-8.2610653625058887,561.5],[26.491113281250023,-8.26311614375588,561.5],[26.539648437500006,-8.27507903438088,561.5],[26.559814453125,-8.27190520625588,561.5],[26.584375,-8.2622372375058859,564.1512],[26.605371093750023,-8.2485653625058859,564.4305],[26.615478515625,-8.2334286437558859,564.2056],[26.640527343750023,-8.2461239562558859,564.6],[26.670019531250006,-8.2298153625058887,564.0485],[26.699951171875,-8.2085263000058859,564.9939],[26.725341796875,-8.2068661437558887,563.6653],[26.731347656250023,-8.1933895812558859,564.0902],[26.742919921875,-8.18767669063088,563.4078],[26.75439453125,-8.18377044063088,563.9489],[26.759375,-8.1758114562558859,562.7434],[26.76328125,-8.16301848750588,564.4352],[26.772851562500023,-8.16130950313088,563.7029],[26.7841796875,-8.16082122188088,561.95],[26.793554687500006,-8.15154387813088,563.6539],[26.794042968750006,-8.13787200313088,562.5816],[26.78671875,-8.1264950500058859,562.9788],[26.773681640625,-8.1140927062558887,563.1933],[26.777929687500006,-8.10295989375588,562.4588],[26.784912109375,-8.09295012813088,562.277],[26.7861328125,-8.0825497375058859,563.573],[26.773681640625,-8.0696591125058887,560.9979],[26.780371093750006,-8.06682708125588,561.2544],[26.794335937500023,-8.05828215938088,561.6987],[26.801025390625,-8.05535247188088,562.5632],[26.797949218750006,-8.05144622188088,561.2998],[26.793554687500006,-8.04168059688088,573.1803],[26.812255859375,-8.03728606563088,562.5288],[26.83251953125,-8.00994231563088,569.9072],[26.848876953125,-8.01506926875588,561.2715],[26.855566406250006,-8.00017669063088,561.8821],[26.8642578125,-7.9897763000058859,561.8302],[26.883544921875,-7.9734677062558887,560.8544],[26.886328125,-7.9726864562558859,561.3129],[26.894433593750023,-7.9739559875058887,562.1041],[26.897216796875,-7.9734677062558887,562.4383],[26.897851562500023,-7.97087981563088,561.9222],[26.896582031250006,-7.96233489375588,561.5917],[26.897216796875,-7.9597958312558887,560.4344],[26.90380859375,-7.95378997188088,561.599],[26.906640625000023,-7.9492489562558859,559.2694],[26.91064453125,-7.94646575313088,560.614],[26.934667968750006,-7.94475676875588,560.597],[26.947363281250006,-7.9422177062558887,561.2727],[26.959082031250006,-7.93718840938088,561.7768],[26.969482421875,-7.92913176875588,560.2234],[26.972363281250011,-7.91838958125588,560.8356],[26.963964843750006,-7.9085263000058887,561.1161],[26.9521484375,-7.89959075313088,561.1333],[26.945068359375,-7.89153411250588,570.7772],[26.96630859375,-7.88469817500588,560.6227],[26.975341796875,-7.86565520625588,561.1974],[26.9736328125,-7.8455380187558887,561.2629],[26.96240234375,-7.8362606750058887,558.0],[26.943115234375,-7.8330380187558859,561.8565],[26.925683593750023,-7.8247372375058859,564.5397],[26.91171875,-7.8137997375058887,562.7578],[26.903417968750006,-7.80217864375588,567.0386],[26.889892578125,-7.76555755000588,560.3049],[26.878808593750023,-7.7524716125058859,561.1818],[26.841210937500023,-7.7441708312558859,558.0],[26.827880859375,-7.73528411250588,561.7997],[26.798925781250006,-7.6951473937558887,558.877],[26.79541015625,-7.68840911250588,562.2656],[26.793554687500006,-7.67864348750588,563.6765],[26.79541015625,-7.6655575500058859,561.4198],[26.805419921875,-7.64470794063088,558.9686],[26.812255859375,-7.61321380000588,572.7225],[26.823339843750006,-7.5971981750058859,560.5331],[26.85498046875,-7.5693661437558859,559.9778],[26.862890625,-7.5388973937558887,559.4417],[26.85888671875,-7.4973934875058887,558.0],[26.863671875000023,-7.4609677062558859,580.5314],[26.897216796875,-7.4458309875058859,566.9214],[26.91015625,-7.4500302062558887,565.7846],[26.9208984375,-7.4568661437558887,558.5136],[26.931738281250006,-7.4580380187558859,559.7379],[26.945068359375,-7.4458309875058859,561.4644],[26.950878906250011,-7.4300106750058887,558.0],[26.951904296875,-7.36736419063088,560.2771],[26.958740234375,-7.3484677062558887,559.2072],[27.019433593750023,-7.26433684688088,556.9837],[27.023193359375,-7.2573544250058859,560.0001],[27.026953125,-7.24724700313088,556.0734],[27.02890625,-7.23528411250588,557.1821],[27.029052734375,-7.22380950313088,558.4956],[27.03076171875,-7.2129208312558859,559.631],[27.03759765625,-7.20281340938088,560.5709],[27.0400390625,-7.1943661437558859,560.798],[27.036035156250023,-7.1836239562558859,555.5],[27.030029296875,-7.1721981750058887,555.5],[27.026953125,-7.16155364375588,560.0259],[27.0322265625,-7.1553036437558859,559.8795],[27.058496093750023,-7.14934661250588,555.5],[27.06787109375,-7.1448544250058887,571.0402],[27.072021484375,-7.1382138000058859,573.0635],[27.073974609375,-7.13079192500588,573.6879],[27.07470703125,-7.11003997188088,557.2944],[27.072656250000023,-7.10564544063088,555.0],[27.063085937500006,-7.09392669063088,558.0903],[27.061132812500006,-7.08953215938088,558.0541],[27.064453125,-7.08416106563088,555.9052],[27.0712890625,-7.0830380187558859,558.9646],[27.078027343750023,-7.0828427062558887,558.91],[27.080957031250023,-7.0794247375058887,556.7072],[27.077734375,-7.06389739375588,575.431],[27.061425781250023,-7.03362395625588,558.6675],[27.054296875,-7.0144833312558887,557.318],[27.047460937500006,-6.98040130000588,574.0448],[27.033789062500006,-6.9490536437558887,576.2471],[27.030664062500023,-6.9438778625058859,569.0113],[27.016503906250023,-6.9331356750058859,557.113],[27.01328125,-6.92815520625588,557.032],[27.014257812500006,-6.91594817500588,557.8242],[27.020751953125,-6.88347747188088,557.1271],[27.012109375000023,-6.83635833125588,557.9529],[26.960693359375,-6.77385833125588,556.2891],[26.951904296875,-6.7270809875058859,557.0164],[26.972900390625,-6.55510833125588,558.9628],[26.989648437500023,-6.48528411250588,552.5],[26.98974609375,-6.4731747375058859,552.0],[26.972900390625,-6.3974911437558859,553.874],[26.973876953125,-6.38689544063088,553.3818],[26.978417968750023,-6.3640927062558887,554.398],[26.979101562500006,-6.35588958125588,554.3359],[26.9765625,-6.34661223750588,553.4244],[26.968017578125,-6.3313778625058887,553.328],[26.966064453125,-6.3252255187558859,553.5667],[26.958740234375,-6.3137997375058887,551.0],[26.923242187500023,-6.28655364375588,551.0],[26.91162109375,-6.26775481563088,550.5],[26.912109375,-6.2503231750058887,550.5],[26.918359375000023,-6.22722747188088,552.3004],[26.926855468750006,-6.20745208125588,552.4933],[26.934472656250023,-6.19890715938088,552.2756],[26.93359375,-6.1889950500058859,551.3793],[26.917724609375,-6.1306942687558887,550.3353],[26.903417968750006,-5.9661434875058887,549.618],[26.89111328125,-5.90960051875588,549.3288],[26.889746093750006,-5.8870419250058887,548.4428],[26.892675781250006,-5.8640927062558887,548.0],[26.91162109375,-5.8011044250058887,550.2126],[26.91162109375,-5.7600888000058887,548.4148],[26.917724609375,-5.7153622375058859,555.4772],[26.91455078125,-5.6582333312558859,546.1063],[26.917724609375,-5.63713958125588,551.4136],[26.923095703125,-5.6230770812558859,552.4788],[26.930419921875,-5.61028411250588,554.3607]]}}