{"type":"Feature","properties":{"featurecla":"River","scalerank":8,"rivernum":665,"dissolve":"665River","name":"Lufira2","name_alt":null,"note":null,"min_zoom":7.0,"strokeweig":0.2,"name_en":"Lufira","min_label":8.0},
"geometry":{"type": "LineString","coordinates": [[27.21875,-10.80999114375588,1125.0974],[27.221435546875,-10.802569268755889,1123.0],[27.226318359375,-10.794463800005886,1123.0],[27.23984375,-10.73821380000588,1019.6506],[27.239160156250023,-10.72503020625588,1045.8385],[27.240820312500006,-10.721514581255889,1009.5156],[27.24462890625,-10.721709893755886,1008.0],[27.249267578125,-10.72283294063088,1009.5283],[27.2529296875,-10.72185637813088,1020.1678],[27.25390625,-10.724444268755889,1043.2075],[27.259765625,-10.726397393755889,1011.153],[27.270263671875,-10.728057550005886,1070.6024],[27.2744140625,-10.726397393755889,1017.1525],[27.274023437500006,-10.72258880000588,1013.6114],[27.272705078125,-10.718291925005886,985.8423],[27.274023437500006,-10.71502044063088,1092.4934],[27.279199218750023,-10.710479425005886,1001.8334],[27.287109375,-10.69939544063088,948.8365],[27.29443359375,-10.69451262813088,948.9755],[27.302441406250011,-10.69329192500588,954.8053],[27.320410156250006,-10.695342706255886,943.4868],[27.32861328125,-10.69451262813088,939.0747],[27.346923828125,-10.68401458125588,931.8755],[27.35986328125,-10.668487237505886,931.859],[27.385498046875,-10.60637786250588,920.5016],[27.396240234375,-10.58953215938088,921.4733],[27.399804687500023,-10.585479425005886,918.5504],[27.42724609375,-10.567413018755886,924.3633],[27.434814453125,-10.563799737505889,914.3796],[27.437402343750023,-10.55852630000588,915.7227],[27.4384765625,-10.54363372188088,923.0312],[27.436279296875,-10.538604425005886,925.4358],[27.432714843750006,-10.535967706255889,923.2634],[27.433691406250006,-10.53191497188088,919.8853],[27.444726562500023,-10.52263762813088,910.4899],[27.453320312500011,-10.519366143755889,905.3163],[27.473046875000023,-10.51824309688088,897.4236],[27.480078125,-10.51580169063088,893.3848],[27.488378906250006,-10.50408294063088,889.655],[27.4921875,-10.488116143755889,895.3643],[27.491601562500023,-10.470733331255886,886.8632],[27.486328125,-10.454424737505889,886.137],[27.480078125,-10.454424737505889,885.486],[27.464257812500023,-10.45794036250588,886.4998],[27.452050781250023,-10.432940362505889,883.7165],[27.440673828125,-10.40154387813088,882.0289],[27.427832031250006,-10.386065362505889,883.3479],[27.420800781250023,-10.38176848750588,883.7129],[27.40087890625,-10.36174895625588,882.4956],[27.39453125,-10.351397393755889,882.3879],[27.3896484375,-10.34661223750588,883.8436],[27.384863281250006,-10.34002044063088,881.9694],[27.38330078125,-10.330889581255889,880.7186],[27.38671875,-10.32195403438088,882.1846],[27.400781250000023,-10.305987237505889,882.6717],[27.404296875,-10.296709893755889,882.0685],[27.389404296875,-10.286455987505889,879.4575],[27.382519531250011,-10.279327081255886,880.0679],[27.38671875,-10.276202081255889,880.6027],[27.3955078125,-10.25969817500588,880.3459],[27.396875,-10.255694268755889,880.6672],[27.388671875,-10.24504973750588,879.4383],[27.36181640625,-10.237823175005886,879.658],[27.355859375000023,-10.231280206255889,879.6042],[27.3505859375,-10.21770598750588,880.0082],[27.3271484375,-10.20671965938088,879.6943],[27.32177734375,-10.190264581255889,878.616],[27.3212890625,-10.180498956255889,878.4208],[27.31494140625,-10.159502862505889,878.0],[27.310302734375,-10.149932550005886,878.7256],[27.3046875,-10.143389581255889,878.3094],[27.302441406250011,-10.138213800005886,877.7987],[27.30810546875,-10.132842706255886,878.46],[27.301025390625,-10.122881768755889,877.4174],[27.295996093750006,-10.10759856563088,877.1141],[27.294335937500023,-10.09197356563088,877.023],[27.297558593750011,-10.08098723750588,876.5667],[27.304785156250006,-10.06853606563088,877.0916],[27.30517578125,-10.05632903438088,877.15],[27.300683593750023,-10.02605559688088,876.9702],[27.292089843750006,-10.00652434688088,876.3652],[27.254638671875,-9.97503020625588,875.8354],[27.24609375,-9.9510067687558887,875.4597],[27.243896484375,-9.90862395625588,875.2589],[27.24609375,-9.8926083312558859,875.3256],[27.2509765625,-9.8779598937558859,875.24],[27.263769531250006,-9.8538388000058887,874.0752],[27.2666015625,-9.8447567687558859,874.1548],[27.2646484375,-9.8354794250058859,874.0298],[27.255126953125,-9.8271786437558859,873.4533],[27.2529296875,-9.82024505000588,873.3464],[27.2529296875,-9.7827450500058859,873.6893],[27.249414062500023,-9.76751067500588,872.6495],[27.232421875,-9.72747161250588,872.3358],[27.244140625,-9.7261044250058859,872.3824],[27.249414062500023,-9.7221981750058859,872.191],[27.247949218750023,-9.71575286250588,873.0387],[27.239160156250023,-9.70696380000588,872.1121],[27.232421875,-9.7138973937558859,872.4407],[27.228613281250006,-9.7026669250058859,871.7585],[27.225683593750006,-9.68865325313088,872.7739],[27.221093750000023,-9.6804989562558887,872.2417],[27.2119140625,-9.6865536437558859,871.7714],[27.202246093750006,-9.6806942687558859,872.0873],[27.194580078125,-9.67424895625588,872.3202],[27.188574218750006,-9.66716887813088,872.3369],[27.1845703125,-9.6592098937558859,871.6897],[27.176513671875,-9.67302825313088,871.9782],[27.165625,-9.6775692687558887,872.0916],[27.1591796875,-9.67278411250588,871.8054],[27.164160156250006,-9.6592098937558859,871.724],[27.150146484375,-9.65520598750588,871.3183],[27.135156250000023,-9.64324309688088,872.472],[27.12255859375,-9.6289364562558859,871.4304],[27.116308593750006,-9.61760833125588,871.6443],[27.116308593750006,-9.6057919250058887,871.3275],[27.121484375000023,-9.6001278625058859,871.58],[27.12744140625,-9.59685637813088,871.4636],[27.1298828125,-9.5916317687558887,870.8303],[27.126220703125,-9.5838192687558887,871.3455],[27.112060546875,-9.57048919063088,870.7792],[27.10888671875,-9.56023528438088,870.3931],[27.102148437500006,-9.55120208125588,870.8632],[27.086181640625,-9.54363372188088,870.6968],[27.06689453125,-9.5384091125058887,869.7195],[27.050878906250006,-9.53630950313088,869.7864]]}}