{"type":"Feature","properties":{"featurecla":"River","scalerank":8,"rivernum":702,"dissolve":"702River","name":"Luvua1","name_alt":null,"note":null,"min_zoom":7.0,"strokeweig":0.25,"name_en":"Luvua","min_label":8.0},
"geometry":{"type": "LineString","coordinates": [[28.886816406250006,-8.48357512813088,939.4832],[28.8642578125,-8.4905575500058887,929.7057],[28.844628906250023,-8.49334075313088,930.8919],[28.836328125000023,-8.47747161250588,1001.7966],[28.835058593750006,-8.46575286250588,1198.0981],[28.829980468750023,-8.45208098750588,1006.7545],[28.828857421875,-8.44329192500588,961.5692],[28.831933593750023,-8.43499114375588,1069.0498],[28.838281250000023,-8.4285458312558887,1063.7277],[28.84326171875,-8.42180755000588,947.374],[28.842480468750011,-8.4129208312558887,903.8418],[28.834228515625,-8.40471770625588,961.5176],[28.8115234375,-8.3979794250058859,1016.7246],[28.802148437500023,-8.39177825313088,887.0],[28.798925781250006,-8.3836239562558887,1170.7329],[28.794677734375,-8.34710051875588,879.125],[28.801513671875,-8.32610442500588,882.1375],[28.817773437500023,-8.31267669063088,884.9532],[28.838134765625,-8.30193450313088,888.808],[28.856835937500023,-8.28875090938088,906.0956],[28.865625,-8.2757138000058887,897.545],[28.867089843750023,-8.2627255187558859,872.5],[28.863525390625,-8.2239559875058887,871.5619],[28.85888671875,-8.20769622188088,876.963],[28.847753906250006,-8.19670989375588,867.0573],[28.822021484375,-8.17888762813088,870.7961],[28.808496093750023,-8.15520598750588,861.7032],[28.808349609375,-8.15154387813088,844.5],[28.797558593750011,-8.1518856750058859,872.457],[28.77197265625,-8.1585263000058887,863.0436],[28.766699218750006,-8.1553036437558859,813.7599],[28.765380859375,-8.11809661250588,787.0],[28.761621093750023,-8.09587981563088,806.597],[28.753662109375,-8.07586028438088,784.0],[28.727148437500006,-8.0400692687558859,789.2216],[28.718359375,-8.01604583125588,802.5373],[28.72705078125,-7.9939755187558887,782.4877],[28.71337890625,-7.97625090938088,780.6176],[28.70751953125,-7.9653622375058859,774.189],[28.706298828125,-7.9524716125058887,780.9263],[28.70654296875,-7.92913176875588,742.75],[28.695703125000023,-7.91521575313088,732.0],[28.670800781250023,-7.9109677062558887,758.4141],[28.642822265625,-7.90984465938088,729.5972],[28.623437500000023,-7.9057919250058859,724.8726],[28.619140625,-7.8979794250058859,725.2816],[28.62158203125,-7.88982512813088,720.6558],[28.621826171875,-7.8826473937558887,720.0166],[28.6103515625,-7.87786223750588,716.5427],[28.603759765625,-7.8808895812558859,714.875],[28.58056640625,-7.89666106563088,720.1827],[28.575585937500023,-7.90203215938088,722.8286],[28.567480468750006,-7.92083098750588,711.3834],[28.548828125,-7.9134091125058887,714.5939],[28.51416015625,-7.88469817500588,844.9853],[28.491601562500023,-7.88079192500588,1039.1052],[28.47265625,-7.8813778625058859,707.7961],[28.4546875,-7.8794247375058859,713.9224],[28.435302734375,-7.86760833125588,707.4882],[28.40771484375,-7.8442684875058859,685.9882],[28.3921875,-7.8367489562558887,963.7242],[28.335351562500023,-7.8232723937558859,680.6216],[28.329492187500023,-7.81829192500588,679.5837],[28.323632812500023,-7.8113583312558887,676.4943],[28.316015625,-7.8050106750058887,676.0263],[28.283935546875,-7.7986630187558887,658.6078],[28.272705078125,-7.78997161250588,656.8594],[28.264746093750006,-7.77898528438088,658.9171],[28.25341796875,-7.76799895625588,657.47],[28.195068359375,-7.72332122188088,646.3967],[28.1890625,-7.7158505187558859,650.5973],[28.1806640625,-7.69744231563088,656.4584],[28.17431640625,-7.68914153438088,655.1107],[28.169335937500023,-7.6870419250058859,648.3445],[28.1591796875,-7.68547942500588,649.0087],[28.1572265625,-7.68230559688088,646.1632],[28.156982421875,-7.6694638000058859,640.7241],[28.155371093750006,-7.6638973937558887,651.2974],[28.151757812500023,-7.65813567500588,637.2515],[28.138574218750023,-7.6463192687558887,638.7347],[28.123046875,-7.63738372188088,653.2704],[28.107177734375,-7.6346005187558887,621.1025],[28.074316406250006,-7.65007903438088,616.2075],[28.074609375000023,-7.6326473937558887,605.0581],[28.089599609375,-7.58928801875588,608.7029],[28.099023437500023,-7.5469052062558859,614.1623],[28.103271484375,-7.5042294250058887,629.5743],[28.100976562500023,-7.48406340938088,600.4807],[28.082128906250006,-7.43840911250588,593.8025],[28.080322265625,-7.4300106750058887,594.2259],[28.078857421875,-7.41301848750588,594.0834],[28.075878906250011,-7.40422942500588,583.7513],[28.0693359375,-7.39666106563088,585.8558],[28.051660156250023,-7.3813778625058859,573.75],[28.047949218750006,-7.37420012813088,580.3915],[28.006933593750006,-7.31609465938088,610.8519],[27.982421875,-7.30071380000588,612.6449],[27.92578125,-7.2749325500058859,578.8906],[27.845703125,-7.21648528438088,588.6956],[27.836181640625,-7.20378997188088,598.8453],[27.831640625,-7.18084075313088,595.663],[27.8037109375,-7.1333309875058859,596.756],[27.794042968750006,-7.1243466125058887,604.2153],[27.781005859375,-7.1191708312558859,611.5351],[27.766357421875,-7.1167294250058859,606.5964],[27.751953125,-7.11272551875588,597.8943],[27.739501953125,-7.10320403438088,580.8918],[27.73388671875,-7.0926083312558887,579.6221],[27.700439453125,-7.0039364562558859,602.4295],[27.691650390625,-6.99334075313088,599.1066],[27.662109375,-7.00383880000588,563.0],[27.644775390625,-6.99285247188088,578.0639],[27.62939453125,-6.97527434688088,567.0436],[27.6064453125,-6.9661434875058887,576.1259],[27.560937500000023,-6.9643856750058859,571.017],[27.540722656250011,-6.96038176875588,571.4179],[27.520410156250023,-6.9524716125058887,573.899],[27.462011718750006,-6.91594817500588,587.8679],[27.448339843750006,-6.91082122188088,596.6534],[27.439843750000023,-6.90862395625588,596.5199],[27.423828125,-6.89934661250588,583.8559],[27.384960937500011,-6.8935848937558859,570.9718],[27.37646484375,-6.8909481750058887,570.9411],[27.363378906250006,-6.8823544250058859,567.2316],[27.352294921875,-6.87322356563088,586.923],[27.3388671875,-6.8660458312558887,590.9047],[27.25732421875,-6.8603817687558859,562.1047],[27.239160156250023,-6.8562802062558887,561.2949],[27.1884765625,-6.8379208312558859,559.5043],[27.1578125,-6.8340145812558859,558.3876],[27.145898437500023,-6.8296200500058859,559.073],[27.134375,-6.8240536437558887,556.5],[27.126220703125,-6.8186825500058887,556.5],[27.116601562500023,-6.8144833312558859,565.427],[27.092187500000023,-6.81585051875588,559.6399],[27.080957031250023,-6.8152645812558887,556.62],[27.063867187500023,-6.80779387813088,557.9584],[27.020751953125,-6.77483489375588,557.7883],[26.967480468750011,-6.7571591125058887,562.3367],[26.951904296875,-6.74700286250588,554.0]]}}