{"type":"Feature","properties":{"featurecla":"River","scalerank":2,"rivernum":37,"dissolve":"37River","name":"Lualaba2","name_alt":null,"note":null,"min_zoom":2.1,"strokeweig":0.25,"name_en":"Lualaba","min_label":3.1},
"geometry":{"type": "LineString","coordinates": [[25.501953125,-9.45501067500588,701.1604],[25.519238281250011,-9.3992489562558887,680.4604],[25.528417968750006,-9.40349700313088,666.869],[25.52978515625,-9.3984677062558859,684.9629],[25.526123046875,-9.3855770812558887,671.7296],[25.532324218750006,-9.3513973937558887,718.87],[25.5341796875,-9.3509091125058887,708.9031],[25.538671875,-9.3474911437558887,667.6624],[25.543554687500006,-9.3426083312558887,648.9927],[25.546630859375,-9.3377255187558887,652.8225],[25.54541015625,-9.33171965938088,711.6515],[25.539794921875,-9.3289364562558887,649.8622],[25.5341796875,-9.32708098750588,648.9219],[25.532324218750006,-9.32341887813088,643.701],[25.537353515625,-9.31609465938088,653.8438],[25.550683593750023,-9.3079403625058887,650.9157],[25.553320312500006,-9.29949309688088,645.7296],[25.548730468750023,-9.28972747188088,641.5302],[25.53271484375,-9.27947356563088,653.0953],[25.536376953125,-9.27190520625588,637.2446],[25.57080078125,-9.23772551875588,716.4228],[25.573632812500023,-9.2309872375058859,636.2233],[25.580761718750011,-9.2036434875058859,627.7079],[25.58447265625,-9.20256926875588,649.7926],[25.608642578125,-9.2278622375058887,641.7861],[25.61376953125,-9.2283505187558887,649.9479],[25.623242187500011,-9.22087981563088,640.5304],[25.629150390625,-9.22039153438088,640.043],[25.633691406250023,-9.22332122188088,650.3172],[25.638085937500023,-9.2307919250058887,626.2005],[25.670654296875,-9.24773528438088,638.1438],[25.673242187500023,-9.2549130187558859,627.2684],[25.674218750000023,-9.27337005000588,627.5945],[25.677001953125,-9.2825497375058887,630.9368],[25.69091796875,-9.2971981750058887,618.3665],[25.7001953125,-9.3032528625058859,619.7971],[25.704345703125,-9.29949309688088,618.5757],[25.708398437500023,-9.29827239375588,628.4593],[25.725830078125,-9.28020598750588,611.7073],[25.728515625,-9.2757138000058887,613.8954],[25.751367187500023,-9.2641903625058859,636.1972],[25.762597656250023,-9.2620419250058887,621.2489],[25.7744140625,-9.2524716125058859,631.3372],[25.799902343750006,-9.20769622188088,580.869],[25.814160156250011,-9.19304778438088,577.4224],[25.825097656250023,-9.20037200313088,602.7306],[25.839599609375,-9.19988372188088,594.3538],[25.86875,-9.19304778438088,575.1838],[25.8857421875,-9.19255950313088,574.8085],[25.899658203125,-9.19475676875588,574.7579],[25.93017578125,-9.20745208125588,583.2736],[25.932373046875,-9.18377044063088,575.5007],[25.938232421875,-9.1689755187558859,575.1618],[25.958105468750006,-9.1385067687558887,574.894],[25.953320312500011,-9.13543059688088,574.0197],[25.948828125,-9.1292294250058887,578.4305],[25.94384765625,-9.12420012813088,575.0191],[25.963964843750006,-9.11101653438088,574.7297],[25.98876953125,-9.0906552062558887,573.0186],[26.004785156250023,-9.06829192500588,573.9294],[25.998437500000023,-9.0491513000058887,572.4019],[26.020605468750006,-9.02874114375588,572.8174],[26.029296875,-9.00750090938088,573.5088],[26.03466796875,-8.9834286437558859,572.0784],[26.046875,-8.9541317687558859,571.3712],[26.052441406250011,-8.94817473750588,571.0336],[26.063378906250023,-8.94524505000588,569.5],[26.0673828125,-8.9404598937558859,572.2535],[26.072021484375,-8.9248348937558859,571.5861],[26.07421875,-8.90886809688088,570.7762],[26.069238281250023,-8.90154387813088,570.6888],[26.0400390625,-8.8784481750058859,570.9781],[26.02587890625,-8.85198333125588,570.8795],[26.014404296875,-8.8218075500058859,569.7059],[26.008886718750006,-8.79070403438088,571.3776],[26.01220703125,-8.7617489562558859,571.9811],[26.01708984375,-8.74749114375588,570.3593],[26.0234375,-8.73650481563088,570.2563],[26.03369140625,-8.72942473750588,573.7062],[26.05029296875,-8.72698333125588,568.6732],[26.061279296875,-8.7234677062558887,570.2656],[26.07470703125,-8.7143856750058859,569.2657],[26.087011718750006,-8.7031552062558859,570.9351],[26.094628906250023,-8.6922177062558887,569.1597],[26.113525390625,-8.69841887813088,570.1458],[26.13134765625,-8.6878231750058887,569.6478],[26.15673828125,-8.6587216125058859,568.7835],[26.163476562500023,-8.65545012813088,569.3273],[26.182861328125,-8.6497372375058887,568.3864],[26.19091796875,-8.6450497375058859,568.8571],[26.19384765625,-8.6365536437558887,568.6699],[26.194433593750006,-8.62517669063088,568.0296],[26.197509765625,-8.61516692500588,568.5551],[26.207910156250023,-8.6108700500058859,568.3692],[26.230566406250006,-8.6096981750058887,567.0035],[26.240966796875,-8.6064755187558859,567.0374],[26.2568359375,-8.5950497375058887,566.4741],[26.291601562500006,-8.57854583125588,565.0],[26.29453125,-8.5681942687558887,567.7626],[26.2939453125,-8.5454403625058859,565.5],[26.296875,-8.5405575500058859,568.1992],[26.314355468750023,-8.5215145812558859,567.7269],[26.299560546875,-8.5054013000058859,566.6066],[26.25830078125,-8.4868466125058859,566.2059],[26.246191406250006,-8.4736630187558859,566.5056],[26.25244140625,-8.4541317687558859,566.3538],[26.259667968750023,-8.4387997375058887,567.3717],[26.270117187500006,-8.42571380000588,567.7148],[26.286523437500023,-8.4129208312558887,567.4451],[26.298095703125,-8.41008880000588,567.0372],[26.310302734375,-8.39251067500588,567.4454],[26.32275390625,-8.37835051875588,562.077],[26.33544921875,-8.38494231563088,566.2822],[26.347900390625,-8.36419036250588,564.6791],[26.343164062500023,-8.33416106563088,564.7048],[26.335351562500023,-8.30730559688088,565.4626],[26.338623046875,-8.29558684688088,564.9077],[26.353613281250006,-8.29314544063088,563.3073],[26.376855468750023,-8.28045012813088,564.5887],[26.39013671875,-8.27507903438088,564.5734],[26.4306640625,-8.27629973750588,562.5117],[26.441308593750023,-8.2720028625058859,561.5]]}}