{"type":"Feature","properties":{"featurecla":"River","scalerank":2,"rivernum":43,"dissolve":"43River","name":"Lualaba3","name_alt":"Congo","note":null,"min_zoom":2.1,"strokeweig":0.4,"name_en":"Congo","min_label":3.1},
"geometry":{"type": "LineString","coordinates": [[26.930419921875,-5.61028411250588,554.3607],[26.959716796875,-5.5688778625058859,545.3608],[26.966064453125,-5.55462005000588,545.0],[26.96875,-5.5330380187558887,548.461],[26.964257812500023,-5.48699309688088,558.8782],[26.966064453125,-5.46526458125588,567.2069],[26.97607421875,-5.4427059875058887,573.4575],[27.004492187500006,-5.40007903438088,553.0009],[27.01328125,-5.3764950500058859,542.5],[27.014257812500006,-5.33245208125588,531.2827],[27.0166015625,-5.31438567500588,529.3348],[27.026953125,-5.30071380000588,550.0647],[26.982519531250006,-5.2529598937558859,519.4822],[26.974609375,-5.24138762813088,517.8016],[26.979394531250023,-5.21575286250588,542.0886],[26.993359375000011,-5.1772763000058859,520.7961],[26.99365234375,-5.15349700313088,509.063],[26.986230468750023,-5.1355770812558887,507.0],[26.977294921875,-5.1204403625058887,515.9702],[26.972900390625,-5.1054989562558859,509.6106],[26.970703125,-5.08953215938088,518.1956],[26.9580078125,-5.0540341125058887,505.3138],[26.951904296875,-5.0413388000058887,517.4248],[26.946875,-5.03582122188088,529.4865],[26.941650390625,-5.0317684875058859,507.2729],[26.937890625000023,-5.0257138000058887,501.5],[26.937597656250006,-5.01336028438088,505.7053],[26.94140625,-5.00579192500588,506.8111],[26.95556640625,-4.99285247188088,501.7108],[26.958740234375,-4.98259856563088,501.8281],[26.95458984375,-4.96184661250588,517.3885],[26.945214843750023,-4.9477841125058859,499.6955],[26.933837890625,-4.93645598750588,491.053],[26.924560546875,-4.92400481563088,488.0],[26.919042968750006,-4.8867489562558859,488.9254],[26.927001953125,-4.8015927062558887,483.0],[26.91162109375,-4.76628997188088,496.3287],[26.901123046875,-4.75945403438088,490.4062],[26.890527343750023,-4.7571591125058887,483.6742],[26.879785156250023,-4.75603606563088,487.7695],[26.869238281250006,-4.75261809688088,490.0664],[26.849707031250006,-4.73406340938088,480.0],[26.840429687500006,-4.7229794250058887,480.0],[26.807861328125,-4.64959075313088,495.649],[26.78076171875,-4.62664153438088,547.4432],[26.7177734375,-4.59002044063088,519.1196],[26.574951171875,-4.5266903625058887,486.6229],[26.547119140625,-4.50628020625588,485.1624],[26.474609375,-4.4189755187558859,529.7611],[26.437890625000023,-4.39641692500588,528.4854],[26.303466796875,-4.34880950313088,480.0984],[26.266015625000023,-4.32073333125588,469.0935],[26.25732421875,-4.3052059875058859,468.9359],[26.245019531250023,-4.2646786437558859,519.0329],[26.2353515625,-4.2493466125058887,466.6641],[26.205078125,-4.22527434688088,493.1373],[26.13037109375,-4.1814755187558887,494.8074],[26.058691406250006,-4.1221005187558859,488.3681],[26.012597656250023,-4.06804778438088,481.1795],[25.998242187500011,-4.0395809875058859,475.8842],[25.992773437500006,-4.0063778625058859,472.1768],[26.0537109375,-3.7146786437558892,471.1725],[26.050048828125,-3.6924130187558859,481.622],[25.99755859375,-3.60076262813088,455.7352],[25.933349609375,-3.5325497375058892,464.131],[25.903564453125,-3.4915341125058892,454.3856],[25.888769531250006,-3.45378997188088,453.0],[25.881738281250023,-3.41057708125588,452.5],[25.883056640625,-3.32073333125588,452.0],[25.887304687500006,-3.3001278625058892,452.6866],[25.900781250000023,-3.27141692500588,451.0],[25.9072265625,-3.23528411250588,461.2995],[25.938232421875,-3.1699520812558859,482.2725],[25.932031250000023,-3.1567684875058859,451.1679],[25.92626953125,-3.13836028438088,459.5622],[25.92724609375,-3.1219052062558892,478.9873],[25.941015625,-3.11467864375588,459.2285],[25.94970703125,-3.1067684875058892,447.0],[25.950439453125,-3.0887020812558892,484.875],[25.946386718750006,-3.0691708312558892,478.8058],[25.926025390625,-3.02678801875588,448.655],[25.92529296875,-2.9971005187558859,453.791],[25.938232421875,-2.9365536437558859,446.3904],[25.94384765625,-2.82390715938088,442.0],[25.939453125,-2.81292083125588,451.8975],[25.929296875,-2.80193450313088,441.5],[25.892578125,-2.7700497375058859,451.4787],[25.88427734375,-2.7596005187558892,452.3929],[25.876220703125,-2.74480559688088,453.7263]]}}