{"type":"Feature","properties":{"featurecla":"River","scalerank":8,"rivernum":965,"dissolve":"965River","name":"Luapula","name_alt":null,"note":null,"min_zoom":7.0,"strokeweig":0.25,"name_en":"Luapula","min_label":8.0},
"geometry":{"type": "LineString","coordinates": [[29.788671875,-11.899737237505889,1161.8091],[29.778417968750006,-11.910186456255886,1163.047],[29.773046875,-11.92473723750588,1163.0068],[29.774804687500023,-11.943194268755889,1161.4408],[29.781494140625,-11.975616143755886,1161.479],[29.777929687500006,-12.020342706255889,1160.5],[29.781494140625,-12.03777434688088,1162.5685],[29.789648437500006,-12.052080987505889,1160.5],[29.809472656250023,-12.07293059688088,1160.8562],[29.816308593750023,-12.085479425005886,1160.6475],[29.816015625,-12.097002862505889,1160.4406],[29.812890625000023,-12.11052825313088,1161.2429],[29.811279296875,-12.12371184688088,1160.0586],[29.816308593750023,-12.133330987505886,1160.1852],[29.813232421875,-12.140166925005886,1159.8506],[29.809960937500023,-12.14568450313088,1160.3239],[29.806396484375,-12.15032317500588,1160.1309],[29.802636718750023,-12.15374114375588,1159.5356],[29.75546875,-12.15740325313088,1161.4158],[29.734375,-12.164580987505886,1160.9686],[29.70078125,-12.18889739375588,1160.5094],[29.648339843750023,-12.212725518755889,1159.886],[29.63134765625,-12.215850518755886,1159.6593],[29.62060546875,-12.21013762813088,1159.2596],[29.602636718750006,-12.19280364375588,1158.9366],[29.589746093750023,-12.18792083125588,1158.5952],[29.576269531250006,-12.188018487505886,1159.1968],[29.567138671875,-12.19158294063088,1158.7816],[29.552441406250011,-12.20501067500588,1158.4172],[29.532958984375,-12.216631768755889,1161.903],[29.489013671875,-12.23137786250588,1189.4434],[29.4736328125,-12.24260833125588,1196.0809],[29.467480468750011,-12.255205987505889,1193.9818],[29.455322265625,-12.294268487505889,1186.3656],[29.451269531250006,-12.317705987505889,1183.0739],[29.447656250000023,-12.32659270625588,1199.5356],[29.445898437500006,-12.33489348750588,1199.4014],[29.449804687500006,-12.34270598750588,1200.3091],[29.479882812500023,-12.38030364375588,1158.5677],[29.495507812500023,-12.38616301875588,1161.8506],[29.510986328125,-12.387237237505886,1158.1573],[29.52294921875,-12.392413018755889,1157.0],[29.527734375000023,-12.410479425005889,1157.6282],[29.524121093750011,-12.429034112505889,1157.0],[29.51416015625,-12.44378020625588,1159.7834],[29.499121093750006,-12.452959893755889,1159.4109],[29.479882812500023,-12.45476653438088,1161.1367],[29.472363281250011,-12.45232512813088,1161.1824],[29.46826171875,-12.448272393755886,1162.2565],[29.46484375,-12.44402434688088,1170.2792],[29.45947265625,-12.44109465938088,1164.4851],[29.452734375,-12.440752862505889,1171.3601],[29.438720703125,-12.441924737505886,1159.7598],[29.43212890625,-12.44109465938088,1158.4542],[29.405517578125,-12.43157317500588,1158.8752],[29.36376953125,-12.40911223750588,1159.778],[29.356054687500006,-12.40740325313088,1159.6895],[29.31591796875,-12.40642669063088,1158.5997],[29.304443359375,-12.40471770625588,1158.9879],[29.294921875,-12.40081145625588,1176.8466],[29.282470703125,-12.39031340938088,1175.7933],[29.264550781250023,-12.37078215938088,1157.0889],[29.254492187500006,-12.366045831255889,1153.1732],[29.1728515625,-12.367510675005889,1153.312],[29.148535156250006,-12.373565362505886,1157.9594],[29.127685546875,-12.382647393755889,1139.5067],[29.110595703125,-12.393389581255889,1153.9713],[29.099707031250006,-12.373858331255889,1141.548],[29.083886718750023,-12.376299737505889,1131.3116],[29.066650390625,-12.38469817500588,1074.3278],[29.05224609375,-12.38372161250588,1062.651],[29.042236328125,-12.37859465938088,1144.0312],[29.034570312500023,-12.378741143755889,1056.0],[29.02978515625,-12.376006768755886,1108.6995],[29.028076171875,-12.36296965938088,1117.5057],[29.025488281250006,-12.352862237505889,1130.3131],[28.944238281250023,-12.205889581255889,1055.1754],[28.918212890625,-12.17424895625588,1054.4244],[28.858984375,-12.141631768755886,1052.0],[28.85,-12.129913018755886,1056.4979],[28.845458984375,-12.111163018755889,1054.7506],[28.83447265625,-12.09197356563088,1070.2809],[28.820898437500006,-12.07561614375588,1062.8945],[28.808349609375,-12.06438567500588,1058.2546],[28.773046875,-12.04583098750588,1052.572],[28.75927734375,-12.03508880000588,1071.1003],[28.753662109375,-12.020049737505886,1076.5267],[28.750585937500006,-11.992217706255886,1070.3708],[28.741455078125,-11.984209893755889,1054.2209],[28.70654296875,-11.989288018755886,1058.1426],[28.685546875,-11.983916925005886,1075.0861],[28.636474609375,-11.95745208125588,1077.0774],[28.623437500000023,-11.94768645625588,1065.0396],[28.605712890625,-11.91008880000588,1053.4413],[28.592187500000023,-11.90032317500588,1054.6155],[28.56875,-11.913604425005886,1066.0159],[28.565527343750006,-11.904327081255886,1048.6549],[28.5537109375,-11.884795831255886,1066.1138],[28.548828125,-11.879424737505886,1069.3905],[28.5400390625,-11.871905206255889,1068.3361],[28.531005859375,-11.866241143755886,1074.4742],[28.520605468750006,-11.86565520625588,1073.1228],[28.50732421875,-11.872588800005886,1057.1875],[28.496679687500006,-11.857256768755889,1056.3298],[28.488378906250006,-11.80852630000588,1107.8995],[28.476171875,-11.798174737505889,1083.9617],[28.460058593750006,-11.793291925005889,1067.5751],[28.451904296875,-11.780596612505889,1045.5],[28.442138671875,-11.711455987505886,1079.782],[28.43896484375,-11.70134856563088,1048.8813],[28.424707031250023,-11.68792083125588,1047.3152],[28.41796875,-11.678741143755886,1045.7388],[28.421630859375,-11.674639581255889,1046.6537],[28.422265625000023,-11.66448333125588,1048.3878],[28.404882812500006,-11.605010675005886,1066.8328],[28.399121093750011,-11.59587981563088,1063.1982],[28.384375,-11.58123137813088,1043.125],[28.376953125,-11.57097747188088,1051.149],[28.365136718750023,-11.54143645625588,1059.1633],[28.35986328125,-11.53337981563088,1077.5503],[28.355078125,-11.51799895625588,1061.5031],[28.35400390625,-11.46453215938088,1109.9368],[28.3564453125,-11.446807550005886,1102.9556],[28.407958984375,-11.372393487505889,1057.4067],[28.411523437500023,-11.36834075313088,1051.2122],[28.433691406250006,-11.351104425005886,1059.0295],[28.43896484375,-11.348174737505886,1047.7543],[28.431542968750023,-11.310870050005889,1038.0865],[28.435546875,-11.28899505000588,1061.8951],[28.445068359375,-11.27434661250588,1042.9996],[28.454492187500023,-11.26360442500588,1044.1908],[28.47314453125,-11.22551848750588,1030.8903],[28.471923828125,-11.19182708125588,1047.6725],[28.47314453125,-11.181182550005886,1035.5825],[28.475830078125,-11.17522551875588,1033.4216],[28.484277343750023,-11.162627862505886,1030.7506],[28.48681640625,-11.15325286250588,1030.3198],[28.486425781250006,-11.14080169063088,1025.4858],[28.475683593750006,-11.08757903438088,1023.4545],[28.476171875,-11.07781340938088,1025.494],[28.490332031250006,-11.05852630000588,1024.1152],[28.503515625,-11.034209893755886,1015.3265],[28.50732421875,-11.023467706255886,1014.0],[28.508056640625,-11.01336028438088,1018.2308],[28.506103515625,-10.99187590938088,1025.3926],[28.50732421875,-10.98186614375588,1013.8945],[28.51318359375,-10.972686456255886,1016.175],[28.530859375,-10.954913018755889,1013.0],[28.53466796875,-10.944366143755886,1022.1157],[28.536865234375,-10.93401458125588,1053.3652],[28.546630859375,-10.913604425005886,1012.0],[28.548828125,-10.90276458125588,1012.0],[28.548828125,-10.858428643755886,1011.4822],[28.553808593750006,-10.83489348750588,1008.5],[28.56298828125,-10.811846612505889,1018.0098],[28.576074218750023,-10.79045989375588,1030.4487],[28.593017578125,-10.772784112505889,1023.5433],[28.600488281250023,-10.76311614375588,1017.1968],[28.607421875,-10.741241143755886,1005.5],[28.622802734375,-10.71672942500588,1009.8894],[28.627050781250006,-10.71160247188088,1013.586],[28.633056640625,-10.708819268755889,1024.6018],[28.645751953125,-10.709795831255889,1009.5109],[28.651269531250023,-10.70818450313088,1002.4487],[28.665429687500023,-10.697295831255886,1003.1568],[28.681054687500023,-10.68181731563088,995.3332],[28.69375,-10.663116143755886,979.6835],[28.699121093750023,-10.64299895625588,1017.7377],[28.69375,-10.63665130000588,985.3568],[28.670312500000023,-10.618975518755889,986.2756],[28.664941406250023,-10.608916925005886,974.6187],[28.666601562500006,-10.597198175005886,964.2466],[28.672265625000023,-10.576006768755889,945.5187],[28.671777343750023,-10.564288018755889,944.0103],[28.647558593750006,-10.53753020625588,930.4294],[28.63427734375,-10.519366143755889,929.3077],[28.63427734375,-10.50554778438088,928.1001],[28.63828125,-10.49602630000588,925.5],[28.629980468750006,-10.48088958125588,930.218],[28.63427734375,-10.47136809688088,927.453],[28.64013671875,-10.462432550005886,927.8254],[28.643945312500023,-10.451006768755889,927.661],[28.6455078125,-10.438311456255889,924.0],[28.64453125,-10.42644622188088,924.4248],[28.63720703125,-10.40691497188088,928.1285],[28.628173828125,-10.390948175005889,927.7941],[28.620361328125,-10.37322356563088,928.5868],[28.6171875,-10.348174737505886,946.582],[28.620214843750006,-10.327178643755886,927.1354],[28.6259765625,-10.31121184688088,927.7195],[28.628808593750023,-10.29583098750588,927.9244],[28.623437500000023,-10.276202081255889,927.8698],[28.62158203125,-10.27581145625588,927.8391],[28.61279296875,-10.270538018755886,928.3101],[28.6103515625,-10.26873137813088,923.95],[28.607519531250006,-10.26336028438088,923.0],[28.60546875,-10.252764581255889,928.231],[28.603515625,-10.24822356563088,929.0165],[28.569433593750006,-10.21941497188088,927.0496],[28.578857421875,-10.201006768755889,927.1825],[28.603515625,-10.17253997188088,927.3892],[28.619042968750023,-10.14177825313088,927.6439],[28.628027343750006,-10.102569268755886,927.1008],[28.630859375,-10.022979425005886,926.9314],[28.623437500000023,-9.9510067687558887,923.0],[28.627539062500006,-9.92937590938088,939.8546],[28.658105468750023,-9.86467864375588,922.5],[28.66796875,-9.82146575313088,925.8087],[28.677636718750023,-9.80364348750588,925.3376],[28.695898437500006,-9.7964169250058859,926.1178],[28.697998046875,-9.7918270812558887,926.0774],[28.671777343750023,-9.76531340938088,925.7522],[28.66943359375,-9.7508114562558887,922.9578],[28.6630859375,-9.74504973750588,926.6266],[28.654394531250006,-9.7417294250058859,926.0067],[28.64453125,-9.7348934875058859,925.4702],[28.630859375,-9.71550872188088,925.5362],[28.624755859375,-9.69548919063088,925.3577],[28.623437500000023,-9.6489559875058859,924.7574],[28.621337890625,-9.63811614375588,925.6147],[28.6123046875,-9.61736419063088,924.8896],[28.6103515625,-9.6077450500058887,921.5],[28.606054687500006,-9.59417083125588,925.5641],[28.587011718750006,-9.5730770812558887,924.8833],[28.5830078125,-9.56365325313088,925.459],[28.588134765625,-9.55828215938088,926.2594],[28.610742187500023,-9.55095794063088,924.8649],[28.6171875,-9.54314544063088,924.8284],[28.585839843750023,-9.54387786250588,924.6976],[28.57373046875,-9.53899505000588,925.1358],[28.56875,-9.52581145625588,920.5],[28.568359375,-9.5088192687558859,924.4955],[28.56640625,-9.4959286437558887,924.5445],[28.562255859375,-9.48479583125588,921.211],[28.555078125000023,-9.47429778438088,920.5],[28.531005859375,-9.45671965938088,925.1769],[28.519140625,-9.44548919063088,925.0361],[28.51416015625,-9.42986419063088,921.3142],[28.515722656250006,-9.41545989375588,925.3456],[28.517675781250006,-9.3972958312558887,920.0],[28.515527343750023,-9.3782528625058887,920.0]]}}