{"type":"Feature","properties":{"featurecla":"River","scalerank":8,"rivernum":665,"dissolve":"665River","name":"Lufira1","name_alt":null,"note":null,"min_zoom":7.0,"strokeweig":0.15,"name_en":"Lufira","min_label":8.0},
"geometry":{"type": "LineString","coordinates": [[26.47216796875,-11.57097747188088,1407.2986],[26.487548828125,-11.553057550005889,1405.0833],[26.564160156250011,-11.506377862505886,1353.0796],[26.5712890625,-11.50750090938088,1324.1196],[26.598876953125,-11.520049737505886,1326.3831],[26.6123046875,-11.52312590938088,1328.3435],[26.726953125000023,-11.52263762813088,1212.4221],[26.747949218750023,-11.513018487505889,1174.1794],[26.766845703125,-11.489092706255889,1181.4075],[26.785400390625,-11.49285247188088,1165.7485],[26.7939453125,-11.49260833125588,1165.4043],[26.801025390625,-11.489092706255889,1164.515],[26.809472656250023,-11.47966887813088,1174.6086],[26.80908203125,-11.47527434688088,1173.2253],[26.8046875,-11.470733331255886,1171.2197],[26.801025390625,-11.46111419063088,1169.9399],[26.799414062500006,-11.454620050005886,1167.3035],[26.79453125,-11.442413018755886,1165.6733],[26.793554687500006,-11.43743255000588,1176.7522],[26.796777343750023,-11.430694268755886,1175.6464],[26.803808593750006,-11.42595794063088,1173.8765],[26.81103515625,-11.422881768755886,1169.717],[26.814697265625,-11.420733331255889,1166.3616],[26.819433593750006,-11.393389581255889,1182.0527],[26.820410156250006,-11.378741143755889,1169.1326],[26.818115234375,-11.372393487505889,1191.8936],[26.823632812500023,-11.34612395625588,1153.583],[26.810644531250006,-11.28826262813088,1158.5917],[26.80419921875,-11.229815362505889,1174.1171],[26.829003906250023,-11.20159270625588,1142.5967],[26.83056640625,-11.22332122188088,1142.6328],[26.842675781250023,-11.232256768755889,1146.6621],[26.8564453125,-11.230010675005886,1163.363],[26.863037109375,-11.21868255000588,1161.3706],[26.864990234375,-11.210284112505889,1172.4575],[26.874121093750006,-11.19622161250588,1158.6453],[26.876708984375,-11.18743255000588,1153.0154],[26.876220703125,-11.17669036250588,1146.2473],[26.87060546875,-11.159698175005886,1139.3972],[26.869238281250006,-11.15007903438088,1136.145],[26.874609375,-11.13860442500588,1157.0918],[26.943261718750023,-11.046416925005886,1131.0272],[26.958740234375,-11.037139581255886,1132.9209],[26.958740234375,-11.02971770625588,1138.3218],[26.951562500000023,-11.011748956255886,1129.5421],[26.96337890625,-10.980303643755889,1129.5601],[26.981640625000011,-10.94451262813088,1128.8214],[26.993359375000011,-10.913604425005886,1126.0374]]}}