{"type":"Feature","properties":{"featurecla":"River","scalerank":2,"rivernum":37,"dissolve":"37River","name":"Lualaba","name_alt":null,"note":null,"min_zoom":2.1,"strokeweig":0.15,"name_en":"Lualaba","min_label":3.1},
"geometry":{"type": "LineString","coordinates": [[26.249267578125,-11.74285247188088,1445.5465],[26.225,-11.73772551875588,1425.0798],[26.20849609375,-11.724639581255886,1413.0961],[26.173925781250006,-11.68279387813088,1392.8344],[26.167871093750023,-11.66668059688088,1417.9099],[26.16357421875,-11.66033294063088,1392.0603],[26.156152343750023,-11.65520598750588,1422.3523],[26.147216796875,-11.65081145625588,1421.2301],[26.137792968750006,-11.64788176875588,1408.5947],[26.129492187500006,-11.64666106563088,1424.0565],[26.12265625,-11.648467706255886,1408.2068],[26.068457031250006,-11.681963800005889,1403.1392],[26.060546875,-11.688311456255889,1382.3447],[26.05419921875,-11.68010833125588,1389.2261],[26.046142578125,-11.67449309688088,1411.4192],[26.03671875,-11.67034270625588,1419.2484],[26.026464843750006,-11.66716887813088,1391.0536],[26.008056640625,-11.67205169063088,1380.1399],[25.982519531250006,-11.668780206255889,1391.1941],[25.956738281250011,-11.661163018755886,1418.8932],[25.938232421875,-11.65349700313088,1378.8854]]}}