{"type": "Feature","bbox": [27.3,-11.8303,27.6361,-11.4816],"geometry": {"type": "MultiPolygon","coordinates": [[[[27.5347,-11.5196,1247.9307],[27.5273,-11.5342,1259.4771],[27.5171,-11.5395,1256.2014],[27.504,-11.5349,1270.6987],[27.4984,-11.5347,1275.2975],[27.4906,-11.5377,1280.1101],[27.4856,-11.5368,1282.8593],[27.4764,-11.5314,1302.3278],[27.4465,-11.5211,1332.4733],[27.4269,-11.5315,1352.2975],[27.4186,-11.5456,1299.0959],[27.4173,-11.5757,1255.9756],[27.4082,-11.5935,1252.1147],[27.3967,-11.5869,1253.2319],[27.3701,-11.5775,1258.8622],[27.3338,-11.6076,1293.6844],[27.3004,-11.6405,1298.5828],[27.3,-11.6659,1313.9949],[27.3117,-11.6903,1321.2969],[27.327,-11.7505,1254.6962],[27.3426,-11.7786,1262.0424],[27.3821,-11.7711,1257.9067],[27.3898,-11.7815,1253.033],[27.3968,-11.7984,1274.4019],[27.4354,-11.7965,1288.7184],[27.4454,-11.8237,1265.7899],[27.4625,-11.8303,1275.1521],[27.4974,-11.8303,1274.9304],[27.5076,-11.8181,1272.3336],[27.5215,-11.8068,1263.0188],[27.5466,-11.7815,1226.4183],[27.5629,-11.743,1195.6561],[27.5579,-11.7326,1199.9714],[27.5473,-11.7176,1198.6013],[27.558,-11.6838,1238.2799],[27.6032,-11.6791,1275.8064],[27.628,-11.6415,1238.6969],[27.6139,-11.6433,1232.3838],[27.5922,-11.6424,1285.5939],[27.5937,-11.6236,1265.2122],[27.608,-11.5794,1275.8881],[27.6361,-11.5238,1220.0262],[27.5691,-11.5117,1271.7966],[27.5772,-11.4929,1238.2983],[27.5591,-11.4816,1236.4689],[27.5441,-11.4955,1216.9711],[27.5437,-11.5125,1227.1893],[27.5347,-11.5196,1247.9307]]]]}
,"properties": {"GID_2": "COD.3.6_1","GID_0": "COD","country": "DemocraticRepublicoftheCongo","GID_1": "COD.3_1","province": "Haut-Katanga","NL_NAME_1": "NA","county": "Lubumbashi","VARNAME_2": "NA","NL_NAME_2": "NA","TYPE_2": "Territoire","ENGTYPE_2": "Territory","CC_2": "NA","HASC_2": "NA","name": "Lubumbashi.county","area_km2": 825.1199,"hist_schema_id": "Elevation0-9000","hist_area_km2": {"1175": 0.4982,"1200": 62.4463,"1225": 142.1114,"1250": 240.1542,"1275": 231.871,"1300": 101.9701,"1325": 38.4666,"1350": 6.5845,"1375": 0.9138,"1400": 0.1038}}}