{"type":"Feature","properties":{"GID_2":"COD.13.4_1","GID_0":"COD","country":"DemocraticRepublicoftheCongo","GID_1":"COD.13_1","province":"Kwilu","NL_NAME_1":"NA","county":"Bulungu(ville)","VARNAME_2":"NA","NL_NAME_2":"NA","TYPE_2":"Ville","ENGTYPE_2":"Town","CC_2":"NA","HASC_2":"NA","name":"Bulungu(ville).county"},
"geometry":{"type": "MultiPolygon","coordinates": [[[[18.6172,-4.532,379.0872],[18.5982,-4.5292,338.3629],[18.5943,-4.5348,375.5819],[18.5854,-4.5381,378.0178],[18.5813,-4.5468,392.4494],[18.5813,-4.5523,338.1419],[18.5862,-4.5624,408.573],[18.5944,-4.5667,370.754],[18.6,-4.5666,393.1243],[18.6136,-4.5648,417.8233],[18.6185,-4.5604,429.072],[18.6226,-4.5552,446.3888],[18.6242,-4.5493,411.5782],[18.6218,-4.5417,403.4486],[18.6178,-4.5371,395.0392],[18.6172,-4.532,379.0872]]]]}}