{"type": "Feature","bbox": [29.7545,-7.064,29.7991,-7.0285],"geometry": {"type": "MultiPolygon","coordinates": [[[[29.7953,-7.059,825.9271],[29.7985,-7.0521,770.0],[29.7991,-7.0442,770.0],[29.7969,-7.0378,770.0],[29.7924,-7.0322,770.0],[29.7861,-7.0288,770.0],[29.7765,-7.0285,770.0],[29.768,-7.0293,770.0],[29.7585,-7.0351,784.2616],[29.7545,-7.0442,825.027],[29.7587,-7.0508,977.9235],[29.7641,-7.0529,997.7683],[29.7646,-7.0579,1007.5283],[29.7693,-7.0635,938.9783],[29.7842,-7.064,1025.7638],[29.7953,-7.059,825.9271]]]]}
,"properties": {"GID_2": "COD.24.4_1","GID_0": "COD","country": "DemocraticRepublicoftheCongo","GID_1": "COD.24_1","province": "Tanganyika","NL_NAME_1": "NA","county": "Kaoze","VARNAME_2": "NA","NL_NAME_2": "NA","TYPE_2": "Ville","ENGTYPE_2": "Town","CC_2": "NA","HASC_2": "NA","name": "Kaoze.county","area_km2": 14.81364,"hist_schema_id": "Elevation0-9000","hist_area_km2": {"775": 8.01714,"800": 1.07314,"825": 1.0521,"850": 0.84167,"875": 0.92584,"900": 0.505,"925": 0.58917,"950": 0.42083,"975": 0.505,"1000": 0.52604,"1025": 0.3577}}}