{"type": "Feature","bbox": [22.439,2.114,22.5465,2.206],"geometry": {"type": "MultiPolygon","coordinates": [[[[22.439,2.1465,343.5],[22.491,2.1329,343.5],[22.5169,2.1229,347.5634],[22.5192,2.1197,344.0],[22.5465,2.114,360.2636],[22.5465,2.139,344.0],[22.544,2.1503,357.4294],[22.5332,2.1675,357.9196],[22.5224,2.1805,360.9715],[22.4895,2.1993,360.7305],[22.4737,2.2039,362.2426],[22.4569,2.206,352.6191],[22.4575,2.2006,354.5056],[22.4551,2.1885,357.7721],[22.4465,2.1839,349.2642],[22.439,2.1465,343.5]]]]}
,"properties": {"GID_2": "COD.18.3_1","GID_0": "COD","country": "DemocraticRepublicoftheCongo","GID_1": "COD.18_1","province": "Mongala","NL_NAME_1": "NA","county": "Bumba(ville)","VARNAME_2": "NA","NL_NAME_2": "NA","TYPE_2": "Ville","ENGTYPE_2": "Town","CC_2": "NA","HASC_2": "NA","name": "Bumba(ville).county","area_km2": 73.62531,"hist_schema_id": "Elevation0-9000","hist_area_km2": {"350": 69.40915,"375": 4.21615}}}