{"type":"Feature","properties":{"GID_2":"COD.20.1_1","GID_0":"COD","country":"DemocraticRepublicoftheCongo","GID_1":"COD.20_1","province":"Nord-Ubangi","NL_NAME_1":"NA","county":"Bosobolo","VARNAME_2":"NA","NL_NAME_2":"NA","TYPE_2":"Territoire","ENGTYPE_2":"Territory","CC_2":"NA","HASC_2":"NA","name":"Bosobolo.county"},
"geometry":{"type": "MultiPolygon","coordinates": [[[[19.1158,4.934,348.5],[19.106,4.929,348.5],[19.098,4.922,348.5],[19.077,4.895,348.0],[19.0681,4.8778,350.1243],[19.0594,4.8439,348.0],[19.0433,4.8205,347.5],[19.0347,4.8012,357.7773],[19.0226,4.7914,359.0907],[19.0191,4.7865,363.6482],[19.014,4.768,347.0],[19.0334,4.7689,388.021],[19.0364,4.7659,372.1641],[19.0407,4.7657,367.7803],[19.0422,4.7616,390.2856],[19.0522,4.7642,380.4255],[19.0584,4.7687,391.7955],[19.0579,4.7724,364.9398],[19.0624,4.774,367.2487],[19.068,4.7734,368.8232],[19.0723,4.7769,369.1062],[19.0751,4.7714,373.4197],[19.0724,4.7617,382.4498],[19.075,4.7615,380.1485],[19.0825,4.7692,379.137],[19.0873,4.7644,372.2986],[19.0951,4.7673,384.7614],[19.1141,4.7663,377.7917],[19.1243,4.7416,423.5912],[19.1246,4.7347,419.7445],[19.1354,4.7304,438.6064],[19.1451,4.7298,450.0989],[19.1498,4.7343,434.5653],[19.1523,4.7347,443.9279],[19.1539,4.7184,433.1716],[19.1587,4.7166,441.2614],[19.1622,4.7118,440.1224],[19.1618,4.7054,463.4654],[19.1635,4.7031,484.2177],[19.1796,4.6987,442.6003],[19.1862,4.6999,457.6265],[19.1879,4.6967,515.2181],[19.187,4.6928,490.0318],[19.1895,4.6903,455.3115],[19.2056,4.693,450.5857],[19.2108,4.6997,474.3415],[19.215699999999998,4.6929,454.8332],[19.2237,4.6923,464.461],[19.2263,4.681,454.7857],[19.2293,4.6804,468.1395],[19.2302,4.688,460.7497],[19.2345,4.6878,472.9257],[19.238,4.6855,467.6989],[19.2423,4.686,461.5508],[19.2504,4.6875,459.6597],[19.2554,4.6919,458.0243],[19.2758,4.6905,472.8237],[19.2784,4.6839,469.6612],[19.2825,4.6805,483.0585],[19.2854,4.6754,464.8007],[19.2883,4.675,471.0602],[19.2904,4.6766,469.3928],[19.2915,4.6815,468.457],[19.2983,4.6843,485.4778],[19.3041,4.6816,486.5384],[19.3062,4.6743,470.5357],[19.312,4.6711,477.866],[19.3086,4.6667,468.7916],[19.3109,4.6642,478.6228],[19.3282,4.6593,488.9786],[19.3302,4.6465,483.0606],[19.3343,4.6447,481.4823],[19.3465,4.6455,526.9607],[19.3508,4.6425,526.1248],[19.3539,4.6357,495.4513],[19.3581,4.6336,483.9536],[19.3736,4.6347,505.4351],[19.3799,4.6251,494.2664],[19.3847,4.6268,500.4719],[19.3881,4.634,500.7683],[19.3922,4.6377,503.0015],[19.3936,4.6513,498.831],[19.4046,4.6574,500.5908],[19.4153,4.6686,509.0359],[19.4209,4.6776,512.2828],[19.4271,4.6793,501.0914],[19.4585,4.6775,515.4949],[19.4707,4.6708,523.5396],[19.4749,4.6632,513.4513],[19.475,4.6556,516.9451],[19.4712,4.648,521.5539],[19.4697,4.6385,540.2613],[19.474,4.619,584.9846],[19.4831,4.612,589.6454],[19.4845,4.6081,592.9668],[19.4914,4.6038,603.3235],[19.5018,4.5997,610.4745],[19.5091,4.5993,613.612],[19.5124,4.5971,611.278],[19.5186,4.5872,622.8477],[19.5186,4.5732,629.1925],[19.5165,4.569,618.9911],[19.5102,4.5646,627.0933],[19.5086,4.557,626.4993],[19.4893,4.5177,632.9398],[19.4877,4.509,643.2745],[19.4768,4.4828,638.0705],[19.4596,4.4504,608.4579],[19.4542,4.4319,600.4702],[19.4189,4.3519,420.6519],[19.3762,4.2498,445.287],[19.357,4.1974,399.4293],[19.3512,4.1902,418.1343],[19.3426,4.1664,391.52],[19.3386,4.1602,394.3264],[19.3343,4.1578,391.3113],[19.3077,4.0857,430.1637],[19.3025,4.081,417.0043],[19.2965,4.0797,442.2452],[19.2724,4.0782,453.122],[19.2682,4.0733,422.6394],[19.2683,4.0701,410.2949],[19.2729,4.066,407.0373],[19.2744,4.0572,421.9272],[19.27,4.0399,418.2088],[19.2659,4.0362,403.812],[19.2664,4.0335,397.1402],[19.2731,4.0287,392.8874],[19.2867,4.0233,381.118],[19.305,4.0042,373.6386],[19.3117,4.0049,373.9955],[19.3172,4.0032,370.5818],[19.327,4.0056,366.8958],[19.345,3.9926,384.141],[19.349,3.9878,367.1278],[19.3538,3.9865,372.8762],[19.3596,3.9811,364.7207],[19.364,3.9719,378.8375],[19.368,3.9678,372.4073],[19.3809,3.9592,386.2992],[19.384,3.9532,380.085],[19.3885,3.9328,363.8871],[19.3955,3.9241,366.5614],[19.4149,3.9112,364.7316],[19.4174,3.9076,364.2573],[19.418,3.8963,373.155],[19.4258,3.8994,356.5579],[19.4305,3.91,381.1444],[19.4298,3.9134,369.6004],[19.4228,3.9191,358.9706],[19.4246,3.9235,371.5729],[19.431,3.9266,368.4662],[19.4296,3.9319,351.2328],[19.4311,3.9381,360.4473],[19.4249,3.9385,367.6259],[19.4207,3.9412,368.3164],[19.4205,3.9446,365.5838],[19.4262,3.9491,368.9783],[19.4323,3.9498,365.6568],[19.4342,3.9482,353.6431],[19.4359,3.9414,370.287],[19.442,3.9499,352.774],[19.4447,3.9502,361.3947],[19.4485,3.9351,380.6797],[19.4522,3.9337,380.2793],[19.4556,3.9358,364.0389],[19.4563,3.9418,358.0966],[19.4693,3.9472,403.8396],[19.4692,3.95,392.6435],[19.4601,3.9511,353.1986],[19.4591,3.9538,352.4459],[19.4618,3.9621,354.4314],[19.4571,3.9708,372.0964],[19.4587,3.9738,353.161],[19.4683,3.9716,366.238],[19.4706,3.9747,383.4654],[19.471,4.0034,375.1776],[19.4681,4.0121,354.747],[19.4697,4.0154,354.9109],[19.4752,4.0148,367.5557],[19.4795,4.0164,386.6489],[19.482,4.0238,354.437],[19.4905,4.0232,363.4114],[19.4986,4.0304,367.6466],[19.4995,4.038,376.8505],[19.5026,4.0424,391.3688],[19.509,4.0469,374.1651],[19.5096,4.0575,379.1227],[19.5118,4.06,358.8907],[19.516,4.061,380.9299],[19.5222,4.0581,366.1068],[19.5289,4.0469,385.5749],[19.5326,4.0462,375.9707],[19.5376,4.0502,370.5315],[19.5406,4.0502,370.0126],[19.5466,4.0436,375.2956],[19.5503,4.0429,377.329],[19.5523,4.0473,373.6181],[19.5499,4.0579,369.4671],[19.5519,4.0646,377.6359],[19.5606,4.064,364.0447],[19.5687,4.0593,375.729],[19.5753,4.0596,383.6097],[19.5813,4.0638,373.0041],[19.589,4.0641,360.3405],[19.5932,4.06,374.2011],[19.5962,4.0598,377.5325],[19.5996,4.0637,371.9304],[19.6042,4.0647,357.2593],[19.609,4.0622,380.2282],[19.6131,4.0666,369.0558],[19.6234,4.0704,371.342],[19.6281,4.0751,371.0804],[19.638,4.0763,373.8037],[19.6428,4.0736,366.6773],[19.6474,4.075,359.5954],[19.6517,4.0788,361.4225],[19.6547,4.0786,360.4538],[19.6559,4.0719,371.9241],[19.6603,4.0678,373.464],[19.6619,4.0678,367.3389],[19.6637,4.0722,371.6251],[19.6671,4.0718,367.132],[19.6731,4.0663,364.9755],[19.6759,4.0664,367.5699],[19.6774,4.0774,366.981],[19.6815,4.0802,363.8783],[19.6865,4.0798,370.8969],[19.6951,4.0735,364.0128],[19.6984,4.0625,366.1797],[19.7037,4.0554,366.4974],[19.7152,4.0578,365.0408],[19.7202,4.0641,375.32],[19.731,4.0609,378.9176],[19.7389,4.0663,361.9189],[19.74,4.0705,374.5342],[19.7496,4.0743,362.7379],[19.7544,4.0791,376.0591],[19.7617,4.0799,384.5066],[19.7652,4.0751,374.157],[19.7711,4.0759,373.7299],[19.7751,4.0718,371.0196],[19.7787,4.0725,391.5792],[19.7831,4.0774,385.6623],[19.7888,4.079,381.5082],[19.7931,4.0848,382.2832],[19.8084,4.085,384.817],[19.8133,4.0827,382.7629],[19.8155,4.0848,384.9266],[19.8203,4.0844,383.184],[19.825,4.0785,387.3599],[19.8282,4.0778,377.991],[19.8305,4.0802,381.8064],[19.8477,4.0783,382.861],[19.858,4.0807,382.2678],[19.8631,4.0768,377.9213],[19.8699,4.0771,386.5536],[19.8801,4.0728,392.1612],[19.8938,4.0737,387.7599],[19.8975,4.0705,388.5103],[19.9035,4.0701,392.1945],[19.9065,4.0653,379.9062],[19.9138,4.0631,389.6581],[19.9192,4.0578,382.5485],[19.9228,4.0613,395.2094],[19.9272,4.0577,379.8154],[19.9352,4.058,394.4994],[19.9446,4.0613,384.1754],[19.9627,4.0606,378.4918],[19.9696,4.0576,372.6498],[19.9748,4.0623,374.2213],[19.9838,4.0617,379.0524],[19.992,4.0664,367.2063],[20.0,4.0665,378.7613],[20.0059,4.0693,379.2089],[20.0149,4.0671,382.3064],[20.0259,4.0667,377.09],[20.0349,4.064,403.439],[20.0577,4.0498,387.5538],[20.076,4.0481,384.0441],[20.0897,4.036,387.6195],[20.094,4.0354,386.1465],[20.1003,4.0304,375.6814],[20.1055,4.0323,375.8558],[20.1071,4.0376,383.9771],[20.107,4.0475,375.866],[20.1127,4.0528,371.9154],[20.1198,4.0522,371.7339],[20.133,4.0556,374.8123],[20.1633,4.031,388.405],[20.1953,4.0189,389.6643],[20.2022,4.0107,380.1519],[20.211,4.0059,391.7823],[20.2305,4.0008,379.4325],[20.2421,3.9943,387.9183],[20.2618,3.9921,396.7591],[20.2731,3.9853,395.637],[20.2837,3.9753,386.5912],[20.3001,3.966,408.2137],[20.3042,3.9654,407.8087],[20.3145,3.9683,398.6093],[20.3218,3.9681,394.5031],[20.3352,3.9609,384.4091],[20.3442,3.9579,389.701],[20.356,3.9657,385.8356],[20.3615,3.9655,408.3599],[20.3601,4.0671,446.8275],[20.3554,4.0888,452.9779],[20.3599,4.1033,491.6636],[20.3596,4.1254,534.2826],[20.3615,4.1504,550.3862],[20.3622,4.2505,394.6808],[20.3603,4.2908,403.2826],[20.3622,4.3109,401.2604],[20.3678,4.3362,393.7103],[20.3713,4.3845,403.4388],[20.3768,4.4258,397.3593],[20.3732,4.4476,389.582],[20.3824,4.4695,391.2011],[20.3855,4.5287,393.3405],[20.3852,4.5499,414.9495],[20.378,4.5641,409.4783],[20.3836,4.5856,391.77],[20.3832,4.5966,390.4138],[20.3789,4.6187,390.161],[20.382,4.6268,380.5665],[20.3839,4.6434,384.1895],[20.405,4.677,369.5],[20.3845,4.6945,370.9964],[20.3731,4.7092,386.1779],[20.3639,4.7285,379.5616],[20.3579,4.737,368.5],[20.343,4.751,368.5],[20.318,4.768,372.666],[20.308,4.773,368.9888],[20.281,4.775,368.0],[20.272,4.78,368.0],[20.2391,4.804,367.5],[20.2138,4.8193,369.2492],[20.1963,4.8273,367.0],[20.1698,4.8532,367.0],[20.1626,4.8702,366.5],[20.1568,4.8759,371.6461],[20.1375,4.888,368.3138],[20.123,4.894,366.5871],[20.1182,4.8939,366.0],[20.1081,4.897,366.0],[20.0963,4.9053,366.0],[20.0922,4.9064,366.0],[20.0682,4.9242,365.5],[20.0514,4.9462,365.5],[20.0368,4.9581,366.1582],[20.024,4.966,365.5654],[19.988,4.977,364.5],[19.972,4.979,364.125],[19.9493,4.9721,366.931],[19.9411,4.9721,368.3038],[19.931,4.974,363.0],[19.915,4.98,364.7045],[19.901,4.994,362.0],[19.8904,5.0013,362.0],[19.8738,5.0171,367.043],[19.8634,5.0366,361.5],[19.8547,5.0637,361.0],[19.8513,5.0693,360.5],[19.848,5.074,360.5],[19.825,5.093,364.9928],[19.7928,5.1009,359.5],[19.7756,5.1021,361.2246],[19.741,5.115,358.5],[19.725,5.119,358.5],[19.696,5.133,358.0],[19.682,5.133,364.151],[19.6352,5.128,364.9877],[19.613,5.128,356.5],[19.577,5.139,360.4323],[19.566,5.144,356.0],[19.5549,5.1457,355.5],[19.5267,5.1385,355.0],[19.5075,5.1252,363.3356],[19.4897,5.1223,354.5],[19.4752,5.1225,354.0],[19.4469,5.1285,354.0],[19.43,5.13,353.5],[19.423,5.128,353.5],[19.4034,5.1211,353.0],[19.3919,5.1128,353.0],[19.378,5.0986,352.5],[19.368,5.0818,352.0],[19.3589,5.073,352.0],[19.3378,5.0606,351.5],[19.3227,5.0543,351.5],[19.2846,5.0265,350.5],[19.2626,5.016,350.0],[19.2562,5.0148,350.0],[19.2413,5.0069,350.0],[19.231,4.997,349.5],[19.2282,4.992,349.5],[19.212,4.9498,352.4977],[19.2024,4.9422,349.0],[19.1875,4.9393,349.0],[19.1483,4.9418,370.1098],[19.1361,4.9406,351.4692],[19.1158,4.934,348.5]]]]}}