{"type":"Feature","properties":{"GID_1":"COD.14_1","GID_0":"COD","country":"DemocraticRepublicoftheCongo","province":"Lomami","VARNAME_1":"NA","NL_NAME_1":"NA","TYPE_1":"Province","ENGTYPE_1":"Province","CC_1":"NA","HASC_1":"CD.LM","ISO_1":"NA","name":"Lomami.province"},
"geometry":{"type": "MultiPolygon","coordinates": [[[[24.147,-6.9196,638.7974],[24.1471,-6.9031,628.0455],[24.1508,-6.9012,628.2669],[24.1598,-6.9019,625.414],[24.1775,-6.9063,631.4288],[24.1795,-6.9093,639.3799],[24.1874,-6.9109,629.6248],[24.191,-6.9224,646.033],[24.2012,-6.9258,632.9514],[24.2074,-6.9357,635.7426],[24.2106,-6.9447,640.1245],[24.217,-6.9504,635.7902],[24.2191,-6.9592,637.8239],[24.2281,-6.9741,638.7103],[24.2258,-6.9851,640.2203],[24.2287,-6.9932,642.7716],[24.2283,-6.9982,639.3268],[24.2264,-7.0021,640.6287],[24.2232,-7.0026,640.3716],[24.2198,-7.0058,641.2557],[24.2179,-7.0099,641.4404],[24.2255,-7.0171,651.1395],[24.231,-7.015,644.4568],[24.2324,-7.0182,652.863],[24.2359,-7.0196,660.8964],[24.2416,-7.0178,646.9866],[24.2448,-7.0203,656.3917],[24.2499,-7.0205,657.8767],[24.2538,-7.0166,648.1083],[24.2665,-7.0173,666.1248],[24.2715,-7.0205,662.7069],[24.2738,-7.0251,666.5944],[24.2796,-7.0249,666.1637],[24.2869,-7.0295,670.8969],[24.2922,-7.0284,659.7026],[24.2973,-7.0332,672.9524],[24.301,-7.0334,666.3299],[24.304,-7.0314,662.2869],[24.3067,-7.0323,664.9637],[24.3097,-7.0408,683.3174],[24.3164,-7.0422,673.5074],[24.3224,-7.0502,678.3232],[24.3451,-7.0587,686.8267],[24.3527,-7.0553,685.869],[24.3796,-7.0581,725.7015],[24.3974,-7.0463,760.8613],[24.4135,-7.0466,804.6591],[24.4315,-7.0518,823.2834],[24.452,-7.0539,809.1147],[24.483,-7.0541,787.1536],[24.5046,-7.0442,795.9464],[24.5162,-6.9959,778.6916],[24.5204,-6.9901,753.9778],[24.5241,-6.9876,737.4833],[24.5293,-6.9876,716.0382],[24.5471,-7.0091,765.6085],[24.5538,-7.0129,773.3516],[24.6195,-6.9833,785.9562],[24.644,-6.9802,679.387],[24.6426,-6.9754,664.6314],[24.6437,-6.9607,722.8577],[24.6527,-6.9573,684.0122],[24.6564,-6.9508,651.5754],[24.6612,-6.9506,666.7749],[24.669,-6.9552,657.1869],[24.6828,-6.9524,689.0978],[24.6904,-6.9531,663.8554],[24.695,-6.9485,685.2271],[24.698,-6.9483,683.0502],[24.6987,-6.9433,694.7308],[24.7049,-6.9419,674.2086],[24.7063,-6.9387,686.288],[24.7056,-6.9334,686.9926],[24.7102,-6.929,693.7892],[24.7148,-6.9288,682.5955],[24.7169,-6.9263,690.5984],[24.7217,-6.9265,679.056],[24.7206,-6.9212,683.8379],[24.7275,-6.9203,678.8174],[24.7281,-6.9184,679.1067],[24.7256,-6.9145,693.8702],[24.7355,-6.9109,691.3976],[24.7373,-6.9086,685.5601],[24.7341,-6.9028,700.4246],[24.7488,-6.8899,689.6924],[24.7769,-6.8918,692.5533],[24.7813,-6.8902,697.5283],[24.7843,-6.887,705.3898],[24.787,-6.8748,721.6581],[24.7902,-6.8688,719.9771],[24.8031,-6.8582,716.9681],[24.8169,-6.8417,743.8907],[24.8475,-6.8272,755.6956],[24.8461,-6.8153,748.9895],[24.8408,-6.7947,811.8151],[24.8481,-6.7835,868.6829],[24.8755,-6.7578,861.1695],[24.8945,-6.7506,871.3878],[24.9264,-6.7502,894.7215],[24.9324,-6.7461,886.7629],[24.931,-6.7255,887.0486],[24.9275,-6.7104,870.97],[24.9352,-6.7033,881.6365],[24.9442,-6.6993,878.6313],[25.0102,-6.6982,892.1779],[25.0218,-6.6858,909.6479],[25.029,-6.6645,933.083],[25.0342,-6.6582,926.0156],[25.0441,-6.6563,913.9012],[25.0493,-6.6585,907.4557],[25.0549,-6.6669,877.0212],[25.067,-6.6726,863.9662],[25.0968,-6.6764,899.6232],[25.1094,-6.6837,902.7904],[25.1375,-6.6917,843.3819],[25.1426,-6.6914,868.8369],[25.1594,-6.6799,877.1713],[25.1814,-6.6731,868.858],[25.1952,-6.6804,879.4803],[25.2225,-6.7094,893.5739],[25.2414,-6.7214,855.111],[25.2575,-6.7242,901.7828],[25.2662,-6.7302,910.4478],[25.284,-6.7565,934.9241],[25.3009,-6.7672,896.2718],[25.3015,-6.7912,926.6221],[25.2985,-6.805,877.121],[25.3102,-6.8086,872.2061],[25.3376,-6.8049,878.128],[25.3456,-6.799,870.0439],[25.3677,-6.7918,859.1255],[25.3774,-6.787,874.4835],[25.3941,-6.7702,879.8924],[25.4098,-6.7598,867.32],[25.4217,-6.749,854.5765],[25.4329,-6.7332,864.6746],[25.4483,-6.724,836.677],[25.4412,-6.7152,836.2999],[25.4382,-6.7077,854.539],[25.4437,-6.704,852.4972],[25.4449,-6.701,854.7925],[25.4407,-6.6895,864.9277],[25.4515,-6.6702,854.1715],[25.4616,-6.6601,831.9077],[25.4632,-6.6548,829.4778],[25.4632,-6.6426,835.6566],[25.4669,-6.6251,832.0372],[25.465699999999998,-6.6123,830.6934],[25.4583,-6.5934,847.8204],[25.4549,-6.5904,832.0082],[25.4475,-6.5895,835.1475],[25.4447,-6.5792,870.2967],[25.4399,-6.5766,867.1027],[25.4293,-6.5762,828.4088],[25.4233,-6.5672,829.8265],[25.4178,-6.5624,827.3915],[25.4111,-6.5617,829.086],[25.412,-6.5507,828.4321],[25.4084,-6.545,828.8249],[25.4047,-6.5443,828.4128],[25.4005,-6.5468,815.8151],[25.3964,-6.547,825.1171],[25.3911,-6.5351,838.0374],[25.3837,-6.5328,853.6652],[25.3799,-6.5341,839.9335],[25.3739,-6.5413,846.6834],[25.3683,-6.5408,842.5635],[25.3591,-6.5342,843.8875],[25.3566,-6.5301,843.6251],[25.3518,-6.5275,841.6866],[25.3292,-6.5066,783.7543],[25.3143,-6.4878,823.2505],[25.3145,-6.4804,795.7216],[25.309,-6.4735,841.9549],[25.3057,-6.4715,840.5029],[25.2968,-6.4722,779.6069],[25.2929,-6.4696,778.9919],[25.2887,-6.4621,800.8225],[25.2818,-6.4609,794.9904],[25.2797,-6.4517,787.3135],[25.2751,-6.4485,788.3874],[25.2724,-6.4416,792.4495],[25.2827,-6.4378,822.5129],[25.2869,-6.4316,847.3621],[25.3063,-6.4164,895.633],[25.3057,-6.3949,910.5751],[25.3009,-6.3793,867.167],[25.2933,-6.3363,818.0289],[25.2959,-6.3275,807.4326],[25.3682,-6.3026,768.2599],[25.3829,-6.299,785.654],[25.3885,-6.3008,815.7635],[25.4153,-6.3193,847.2149],[25.4278,-6.3203,838.1149],[25.4399,-6.318,847.2675],[25.4868,-6.2943,894.8457],[25.4929,-6.299,894.9868],[25.4959,-6.3092,879.9231],[25.5037,-6.3118,873.0609],[25.5115,-6.309,847.2424],[25.5368,-6.3065,824.847],[25.5421,-6.2986,831.9882],[25.5614,-6.2864,918.6238],[25.5793,-6.2827,874.7982],[25.5873,-6.2793,870.0404],[25.5984,-6.2804,869.1217],[25.6013,-6.279,884.2598],[25.6059,-6.2733,850.7846],[25.6131,-6.2772,834.8594],[25.636,-6.2753,742.1831],[25.6432,-6.2693,762.2704],[25.671,-6.2656,655.4155],[25.6811,-6.2615,673.1571],[25.6847,-6.2569,672.8102],[25.6912,-6.238,731.3677],[25.6992,-6.238,668.6479],[25.7031,-6.2357,661.527],[25.7061,-6.2297,670.6877],[25.7093,-6.2276,670.964],[25.7219,-6.2274,684.0889],[25.7281,-6.2249,683.3355],[25.7359,-6.217,663.309],[25.7398,-6.2152,660.7789],[25.7527,-6.2127,637.2405],[25.761,-6.2069,670.0482],[25.7777,-6.2041,656.1404],[25.7913,-6.199,641.0062],[25.7973,-6.1947,636.5542],[25.8034,-6.1834,650.8743],[25.8115,-6.1767,641.275],[25.814,-6.1641,633.4125],[25.8029,-6.1567,652.8175],[25.8034,-6.1514,689.5991],[25.8259,-6.1468,662.902],[25.8291,-6.144,647.7457],[25.8471,-6.1489,622.8717],[25.8657,-6.1626,661.849],[25.883,-6.1684,690.7796],[25.8942,-6.1774,733.3972],[25.9117,-6.1862,728.3516],[25.9255,-6.1972,747.3553],[25.9393,-6.2055,738.4361],[25.9522,-6.2186,732.1602],[25.9489,-6.2341,734.5976],[25.949,-6.2475,753.4821],[25.9598,-6.2649,784.9553],[25.9711,-6.2756,758.2745],[25.9771,-6.2732,771.4319],[25.9822,-6.2493,782.9151],[25.9859,-6.2195,767.8383],[26.0057,-6.2055,781.9988],[26.0165,-6.2044,789.4768],[26.0199,-6.2104,788.8094],[26.028,-6.2626,790.9602],[26.0366,-6.2648,808.4988],[26.0461,-6.2641,803.703],[26.0552,-6.2664,815.9617],[26.0604,-6.2711,827.4382],[26.0652,-6.2842,782.6695],[26.0722,-6.2961,788.7888],[26.0851,-6.2967,799.4397],[26.1127,-6.2857,830.2737],[26.1165,-6.2955,854.7132],[26.1335,-6.2596,849.5133],[26.1432,-6.2426,832.1937],[26.1637,-6.232,808.0594],[26.1902,-6.2134,813.5526],[26.2015,-6.194,831.572],[26.2178,-6.1543,830.468],[26.2178,-6.1478,834.7632],[26.191,-6.1113,787.1393],[26.1873,-6.0975,798.423],[26.1876,-6.085,774.9954],[26.1947,-6.076,735.946],[26.205,-6.0696,733.7298],[26.2344,-6.0675,777.2413],[26.255,-6.0355,790.7406],[26.2226,-6.038,758.6394],[26.2126,-6.0355,759.1866],[26.2022,-6.0266,747.688],[26.186,-6.0157,726.7265],[26.1826,-6.0148,730.5414],[26.1824,-5.999,710.8854],[26.1861,-5.9938,737.6767],[26.2029,-5.9889,762.7618],[26.212,-5.9836,773.4181],[26.215,-5.9796,779.8853],[26.2059,-5.9549,812.7222],[26.197,-5.9411,790.2257],[26.1927,-5.9366,782.0618],[26.184,-5.9394,772.0723],[26.1778,-5.9334,745.6579],[26.1732,-5.8997,767.0054],[26.177,-5.8709,755.2166],[26.1868,-5.858,728.2144],[26.2052,-5.8462,691.7529],[26.2082,-5.8379,696.2283],[26.2073,-5.8251,677.8094],[26.2029,-5.815,679.2539],[26.1894,-5.7969,677.0381],[26.1844,-5.7783,682.7585],[26.1843,-5.7618,682.1345],[26.1675,-5.7535,680.6349],[26.1604,-5.7476,686.9635],[26.1537,-5.7478,698.2841],[26.131,-5.7332,763.0229],[26.1236,-5.7249,770.6501],[26.1265,-5.6919,721.0519],[26.1036,-5.6598,691.954],[26.1177,-5.6343,673.9045],[26.1191,-5.608,654.5803],[26.1244,-5.5995,661.7292],[26.1475,-5.6011,673.9109],[26.151,-5.599,664.5065],[26.1569,-5.5829,679.1221],[26.1721,-5.5685,665.9672],[26.1757,-5.5585,651.6642],[26.1737,-5.5545,640.054],[26.1613,-5.554,639.4417],[26.1516,-5.5409,631.81],[26.1505,-5.5194,641.7148],[26.1369,-5.5048,636.6407],[26.1328,-5.4551,637.3137],[26.1329,-5.4401,647.6703],[26.1228,-5.4187,618.1999],[26.1177,-5.4008,602.3662],[26.1119,-5.3762,620.6577],[26.1087,-5.3488,636.9745],[26.1164,-5.3332,624.4429],[26.1267,-5.3249,620.7007],[26.1289,-5.3173,614.2206],[26.1338,-5.3117,617.2058],[26.1337,-5.303,612.919],[26.139,-5.2899,610.1756],[26.1415,-5.2692,603.1368],[26.1458,-5.2602,607.7527],[26.1547,-5.251,605.8663],[26.1653,-5.2459,599.6502],[26.1694,-5.2413,605.6487],[26.1763,-5.2385,598.8712],[26.1816,-5.2325,603.933],[26.1912,-5.2136,595.8755],[26.1962,-5.1989,586.9047],[26.198,-5.1876,582.353],[26.1973,-5.1768,579.5351],[26.1918,-5.1658,579.3477],[26.1945,-5.1409,575.983],[26.1917,-5.1359,578.0894],[26.1912,-5.1295,582.6285],[26.198,-5.0924,568.7112],[26.2019,-5.0841,575.719],[26.253,-5.0359,559.6649],[26.2651,-5.0171,556.9882],[26.2705,-5.0,553.8535],[26.2252,-5.0011,568.7893],[26.1001,-4.9992,576.4761],[25.6585,-4.9989,576.5684],[25.0614,-4.9866,534.2867],[25.0609,-4.9837,530.3258],[25.0527,-4.9786,515.5507],[25.0416,-4.9676,505.4266],[25.0398,-4.9526,513.5197],[25.0308,-4.9411,508.1988],[25.0288,-4.9271,510.6017],[25.0205,-4.9227,517.0004],[25.0148,-4.917,508.3806],[25.0127,-4.9082,509.4174],[25.0164,-4.891,515.153],[25.0111,-4.8742,525.8753],[24.9867,-4.85,508.6219],[24.9844,-4.8449,503.3464],[24.9837,-4.8353,505.519],[24.9536,-4.8432,597.0889],[24.9464,-4.8473,634.5703],[24.9336,-4.8608,653.6192],[24.9205,-4.8657,559.5958],[24.8953,-4.8666,605.2023],[24.8529,-4.8587,623.9545],[24.8466,-4.8588,620.9832],[24.8412,-4.8612,581.7913],[24.8221,-4.8847,619.553],[24.8265,-4.8943,684.8362],[24.8402,-4.9147,638.8018],[24.8483,-4.9478,604.6295],[24.8443,-4.9549,593.8818],[24.8404,-4.9556,606.8673],[24.8333,-4.9524,584.5781],[24.8144,-4.9392,671.8084],[24.8055,-4.9365,671.395],[24.7958,-4.9369,660.247],[24.7713,-4.9273,670.1115],[24.7644,-4.9281,655.9839],[24.7568,-4.9356,623.5502],[24.7178,-4.9967,660.5919],[24.713,-5.0,631.8691],[24.675,-5.0002,535.4537],[24.6661,-5.0043,535.7054],[24.6594,-5.0103,634.1152],[24.6468,-5.0161,610.5089],[24.6137,-5.03,564.6964],[24.5891,-5.0382999999999996,620.9993],[24.58,-5.0396,638.7404],[24.5754,-5.0447,665.0966],[24.5773,-5.0552,608.2892],[24.5832,-5.0643,629.8906],[24.5847,-5.0776,637.0712],[24.5751,-5.0955,625.6831],[24.5789,-5.1202,643.2413],[24.5635,-5.1508,685.7783],[24.5597,-5.168,681.5468],[24.5611,-5.1723,675.2876],[24.5593,-5.1721,658.0219],[24.5543,-5.1652,676.0979],[24.54,-5.1634,674.2987],[24.532,-5.165,684.4209],[24.5224,-5.164,646.42],[24.518,-5.165,630.1052],[24.5159,-5.1684,576.755],[24.5182,-5.185,595.2845],[24.5279,-5.2117,625.2441],[24.529,-5.2244,636.6622],[24.546,-5.2734,682.9828],[24.5536,-5.301,711.8193],[24.5573,-5.3291,685.3414],[24.5564,-5.3368,657.1703],[24.5525,-5.3453,669.8693],[24.5185,-5.3816,738.3043],[24.4995,-5.3928,731.508],[24.4947,-5.393,723.3676],[24.479,-5.3907,734.4137],[24.4604,-5.3819,656.8114],[24.4554,-5.3781,675.0762],[24.44,-5.3457,602.1829],[24.4362,-5.3419,625.5076],[24.4308,-5.3436,625.3203],[24.4238,-5.3514,647.3313],[24.4216,-5.3717,607.2542],[24.4164,-5.3777,642.1503],[24.4116,-5.3794,628.1036],[24.3909,-5.3789,586.96],[24.3828,-5.3816,549.7288],[24.3701,-5.39,653.306],[24.3391,-5.404,656.7635],[24.3053,-5.4105,666.0549],[24.2851,-5.4081,586.3219],[24.2381,-5.389,638.5479],[24.1828,-5.3777,577.5903],[24.1637,-5.3717,610.4527],[24.1492,-5.3811,639.5201],[24.1263,-5.3716,527.2303],[24.1258,-5.3856,582.2472],[24.1207,-5.3956,625.3956],[24.1185,-5.4111,613.385],[24.1084,-5.4222,651.3572],[24.1026,-5.4194,646.3394],[24.0909,-5.4181,644.0886],[24.089,-5.4098,596.8917],[24.086,-5.4103,632.1696],[24.0805,-5.4163,639.3239],[24.0777,-5.416,620.5798],[24.0734,-5.3965,653.027],[24.0664,-5.3852,640.1887],[24.0648,-5.39,642.2811],[24.057,-5.3975,637.1725],[24.0512,-5.4072,618.2424],[24.045,-5.4245,615.6259],[24.0446,-5.4666,649.6407],[24.0606,-5.5566,611.047],[24.0624,-5.5829,636.421],[24.066,-5.5919,690.5393],[24.0714,-5.5958,692.494],[24.1028,-5.6045,690.6245],[24.1147,-5.6104,694.3467],[24.1248,-5.613,719.9568],[24.1461,-5.6387,715.8386],[24.1501,-5.6469,713.8594],[24.1703,-5.6604,634.5858],[24.1703,-5.666,661.2364],[24.1724,-5.6692,670.2118],[24.1705,-5.6766,637.041],[24.1731,-5.6876,685.53],[24.1708,-5.6927,658.5117],[24.1731,-5.6977,662.2388],[24.171,-5.7016,668.8894],[24.1737,-5.7056,708.7427],[24.1747,-5.7111,728.4576],[24.1721,-5.718,665.1031],[24.1753,-5.7214,682.1802],[24.1763,-5.7263,746.6425],[24.1802,-5.7279,712.9125],[24.1836,-5.7456,682.9441],[24.1942,-5.7483,733.4653],[24.1951,-5.75,722.8043],[24.19,-5.7608,715.9429],[24.1923,-5.767,731.5035],[24.199,-5.773,759.9174],[24.1997,-5.7764,733.2642],[24.1903,-5.787,726.1628],[24.1877,-5.7987,710.6406],[24.179,-5.7994,722.865],[24.1574,-5.7911,738.2582],[24.144,-5.7896,740.523],[24.1252,-5.7903,772.9528],[24.0951,-5.7982,729.973],[24.0875,-5.7991,722.3884],[24.0666,-5.7975,678.9437],[24.0622,-5.7996,678.5319],[24.0553,-5.8101,690.4911],[24.0499,-5.8144,678.0656],[24.0242,-5.8121,639.9628],[24.013,-5.8168,620.0642],[24.0113,-5.8273,622.9575],[24.0076,-5.8315,616.2371],[23.9982,-5.8259,631.2294],[23.9929,-5.8257,645.5873],[23.9865,-5.8287,631.8396],[23.975,-5.8252,631.4426],[23.9715,-5.8213,607.8152],[23.9644,-5.8197,595.4482],[23.961,-5.8167,630.5227],[23.9575,-5.816,635.721],[23.9556,-5.8231,571.0356],[23.9576,-5.8409,670.4736],[23.9612,-5.845,644.7013],[23.9564,-5.853,646.1006],[23.9597,-5.8687,636.0008],[23.9645,-5.8772,675.3407],[23.9689,-5.8802,665.9094],[23.9705,-5.8861,689.6432],[23.9763,-5.9392,685.4484],[23.9815,-5.9433,678.3302],[24.005,-5.9426,682.2729],[24.0113,-5.9464,657.652],[24.0152,-5.9522,693.1677],[24.0152,-5.9613,684.6826],[24.0078,-5.9797,673.0612],[24.0026,-6.0062,673.7477],[23.9974,-6.0212,583.2242],[23.9896,-6.0255,576.5483],[23.9923,-6.0287,574.5976],[23.9965,-6.0304,578.618],[24.0087,-6.0246,584.5493],[24.0165,-6.0288,593.1444],[24.0245,-6.0373,612.4387],[24.03,-6.0398,593.6594],[24.0413,-6.0398,601.1879],[24.0523,-6.0355,610.7776],[24.0558,-6.0359,612.8658],[24.0578,-6.0373,626.6135],[24.062,-6.049,698.4064],[24.0714,-6.0569,662.3177],[24.076,-6.0573,664.2616],[24.0803,-6.0553,667.2831],[24.0884,-6.0548,707.5552],[24.0955,-6.0488,726.502],[24.1063,-6.0486,704.8381],[24.1118,-6.0514,749.1058],[24.1169,-6.0587,708.0417],[24.1189,-6.0654,741.8477],[24.1304,-6.0631,773.035],[24.1398,-6.0659,783.1169],[24.1454,-6.0624,811.6396],[24.1516,-6.0622,787.551],[24.1548,-6.0645,795.0821],[24.161,-6.0751,730.8615],[24.1633,-6.0852,743.8965],[24.1683,-6.088,731.9602],[24.1748,-6.1029,779.9208],[24.1727,-6.1071,772.8582],[24.1662,-6.113,775.0197],[24.1623,-6.114,787.2017],[24.1557,-6.1197,791.2209],[24.1428,-6.1259,796.6597],[24.1398,-6.1289,822.7701],[24.1391,-6.1362,806.9454],[24.1405,-6.1411,824.4856],[24.1392,-6.1459,821.0949],[24.114,-6.1769,836.7413],[24.1079,-6.1926,862.2167],[24.1003,-6.1928,849.7987],[24.0954,-6.1891,868.2863],[24.0904,-6.1914,824.4695],[24.0858,-6.1892,827.4885],[24.0814,-6.1894,800.7736],[24.0759,-6.1954,808.2783],[24.0658,-6.1954,825.9509],[24.0612,-6.2062,835.7168],[24.0581,-6.2085,831.9659],[24.0366,-6.2056,847.6459],[24.0295,-6.2097,865.7739],[24.008,-6.2175,833.9572],[24.0053,-6.2293,872.2302],[24.0012,-6.2762,905.2167],[24.0008,-6.2892,915.6549],[24.0041,-6.2965,853.1046],[24.0093,-6.3014,818.5865],[24.0202,-6.3053,825.8712],[24.077,-6.3368,717.7709],[24.0914,-6.355,623.1019],[24.0882,-6.3598,614.7718],[24.0833,-6.3586,623.4973],[24.0762,-6.3626,616.1729],[24.0765,-6.369,608.6906],[24.0676,-6.3749,610.3243],[24.0657,-6.3798,601.2772],[24.0565,-6.3793,607.2444],[24.0482,-6.3852,598.2265],[24.0427,-6.3855,599.4717],[24.0379,-6.3895,589.7591],[24.0216,-6.3874,584.7278],[24.0165,-6.395,587.5358],[23.9905,-6.3934,586.4761],[23.9845,-6.3996,572.595],[23.9799,-6.3996,570.4175],[23.9749,-6.3959,593.6889],[23.9701,-6.4003,566.8823],[23.9659,-6.3996,567.8522],[23.9487,-6.4062,614.8261],[23.9402,-6.4122,556.3284],[23.9351,-6.4103,554.4577],[23.9285,-6.4048,612.3203],[23.9271,-6.4064,598.5966],[23.9273,-6.4103,566.7526],[23.9234,-6.4083,591.7731],[23.917,-6.4082,553.843],[23.9126,-6.4046,546.9103],[23.9073,-6.403,546.6884],[23.9094,-6.3988,546.518],[23.9066,-6.3885,547.1329],[23.9046,-6.3866,549.8277],[23.8963,-6.3887,544.886],[23.8816,-6.385,553.3437],[23.8767,-6.391,556.3938],[23.862,-6.3905,548.1854],[23.8551,-6.3935,543.0042],[23.8526,-6.3925,542.8871],[23.8466,-6.3833,544.329],[23.8489,-6.3759,544.3378],[23.8432,-6.3695,538.0],[23.8393,-6.3677,541.3433],[23.8082,-6.3904,583.6907],[23.8087,-6.3939,608.9003],[23.814,-6.3978,552.3047],[23.8151,-6.4012,545.3538],[23.8133,-6.4035,559.3337],[23.8075,-6.4033,547.8031],[23.7993,-6.3941,575.9271],[23.796,-6.3936,610.3776],[23.7942,-6.3969,597.4448],[23.7935,-6.4125,557.8785],[23.7914,-6.4168,597.8883],[23.7986,-6.4235,556.8806],[23.8052,-6.4362,570.376],[23.8052,-6.4396,622.1068],[23.8031,-6.444,630.1027],[23.7985,-6.4454,624.0259],[23.7972,-6.4481,632.7108],[23.7997,-6.4539,559.8625],[23.7969,-6.4637,566.6836],[23.7928,-6.466,569.0083],[23.787,-6.4791,560.03],[23.7764,-6.4787,577.7668],[23.776,-6.4828,580.6403],[23.7803,-6.489,561.5345],[23.7808,-6.4929,559.3177],[23.779,-6.4977,562.409],[23.7656,-6.5078,572.1432],[23.7668,-6.5108,571.8037],[23.7732,-6.5125,563.0673],[23.7753,-6.5171,561.3965],[23.7849,-6.5201,576.3844],[23.7861,-6.5223,575.6459],[23.7828,-6.5249,561.6166],[23.7776,-6.5251,572.5442],[23.7718,-6.5389,574.2349],[23.7697,-6.5465,583.1439],[23.7704,-6.5529,580.732],[23.7667,-6.5653,577.4647],[23.7711,-6.5747,564.795],[23.7674,-6.5809,584.4637],[23.7623,-6.5842,603.6489],[23.7557,-6.5839,613.6385],[23.7483,-6.5811,608.5411],[23.7455,-6.5947,597.6873],[23.7483,-6.6085,607.6064],[23.7471,-6.6156,637.4404],[23.7487,-6.6211,619.1283],[23.7473,-6.625,639.1587],[23.7402,-6.6315,591.4133],[23.7437,-6.6381,588.1565],[23.7466,-6.6402,588.7977],[23.7577,-6.64,655.7712],[23.763,-6.643,613.1048],[23.7565,-6.6508,602.9259],[23.7607,-6.6529,597.0005],[23.7733,-6.654,629.3694],[23.7788,-6.6563,619.2543],[23.7839,-6.6616,589.6665],[23.7857,-6.6672,591.3522],[23.7774,-6.6722,598.5639],[23.7719,-6.6731,591.0377],[23.765,-6.6703,600.7389],[23.7595,-6.6719,620.2388],[23.7551,-6.6754,596.0242],[23.7468,-6.6919,602.9094],[23.7279,-6.7192,638.1774],[23.7289,-6.7216,606.2109],[23.7374,-6.7278,632.3334],[23.7091,-6.7487,681.8562],[23.7047,-6.7483,693.0499],[23.702,-6.7299,647.625],[23.6954,-6.7266,672.4148],[23.6909,-6.7271,676.4651],[23.6751,-6.7411,685.657],[23.6691,-6.7434,680.6617],[23.6484,-6.7463,715.9734],[23.6383,-6.7459,724.494],[23.628,-6.7486,723.498],[23.6242,-6.7533,737.9912],[23.6193,-6.7693,749.7916],[23.6164,-6.7714,744.0822],[23.599,-6.7704,751.694],[23.5867,-6.7655,791.0278],[23.5343,-6.7362,751.2118],[23.5145,-6.718,771.0496],[23.5072,-6.7167,757.921],[23.4957,-6.7063,758.1945],[23.4879,-6.6911,721.6492],[23.4805,-6.6854,723.4678],[23.4778,-6.6706,703.2666],[23.475,-6.666,722.2894],[23.4684,-6.6601,705.1215],[23.4578,-6.6566,687.5029],[23.4502,-6.6465,688.8814],[23.4461,-6.6448,697.3641],[23.442,-6.6455,684.5074],[23.4408,-6.6474,680.1605],[23.4341,-6.6416,677.6573],[23.4316,-6.623,648.0034],[23.427,-6.6156,652.3365],[23.4283,-6.6094,657.6729],[23.42,-6.6012,659.5579],[23.4197,-6.5906,643.6613],[23.4165,-6.5846,660.42],[23.4167,-6.5809,673.8186],[23.4211,-6.5807,671.4161],[23.4276,-6.5763,675.2458],[23.4303,-6.5704,661.0142],[23.4342,-6.5678,676.011],[23.4393,-6.5561,653.222],[23.4467,-6.549,634.4159],[23.4464,-6.5462,631.6299],[23.4409,-6.5474,642.6807],[23.4398,-6.5446,648.3726],[23.4426,-6.5327,645.9728],[23.4377,-6.5327,649.2473],[23.4322,-6.5359,647.4257],[23.429,-6.5283,663.1465],[23.4256,-6.5262,672.7369],[23.4134,-6.5342,681.2919],[23.4042,-6.5299,682.7548],[23.4007,-6.5301,678.5593],[23.3929,-6.5395,707.798],[23.386,-6.539,694.175],[23.3793,-6.5353,688.6899],[23.3692,-6.5259,699.597],[23.3642,-6.5247,696.7861],[23.3605,-6.5256,690.4608],[23.3402,-6.5383,721.9036],[23.3222,-6.5356,733.4219],[23.3082,-6.5496,742.5729],[23.276,-6.5771,782.6629],[23.2559,-6.5884,803.6349],[23.2465,-6.5925,830.6165],[23.2178,-6.5989,808.833],[23.2068,-6.5953,787.6481],[23.2024,-6.5963,772.7959],[23.1942,-6.6018,752.8605],[23.1807,-6.605,746.4724],[23.1799,-6.6069,754.6331],[23.1734,-6.6018,753.8298],[23.1732,-6.5986,754.8003],[23.1764,-6.5945,746.6412],[23.1739,-6.5796,726.6047],[23.1797,-6.5639,740.5284],[23.1714,-6.5575,723.4481],[23.1685,-6.5513,726.5275],[23.1696,-6.5469,721.2819],[23.1683,-6.5423,729.1563],[23.1719,-6.5336,723.3468],[23.1724,-6.5253,727.8779],[23.1662,-6.5225,718.56],[23.1651,-6.5175,720.4301],[23.1674,-6.5124,718.8984],[23.166,-6.5083,723.5132],[23.1679,-6.5037,732.4722],[23.1621,-6.5007,726.9029],[23.1607,-6.4966,729.5676],[23.1511,-6.4924,720.6862],[23.1476,-6.488,727.6947],[23.1536,-6.4844,729.1678],[23.1555,-6.4759,714.3132],[23.1518,-6.4604,726.2119],[23.1504,-6.4588,727.7667],[23.1399,-6.4584,716.4926],[23.1369,-6.4758,717.5851],[23.1269,-6.4905,734.757],[23.1272,-6.5038,713.6815],[23.1255,-6.5105,717.2911],[23.1129,-6.5231,735.5101],[23.1014,-6.5385,734.8368],[23.1004,-6.5507,725.9089],[23.1041,-6.5557,752.8459],[23.09,-6.5805,762.9001],[23.0914,-6.5854,758.2874],[23.0891,-6.5943,770.4878],[23.0923,-6.6003,767.0342],[23.0909,-6.6061,783.4478],[23.0932,-6.6107,770.4664],[23.0925,-6.6134,770.4184],[23.0734,-6.6354,775.7354],[23.0777,-6.643,775.9582],[23.0722,-6.6527,783.8716],[23.074,-6.6623,776.2126],[23.0613,-6.6913,790.2774],[23.0578,-6.7101,784.7239],[23.0461,-6.7282,791.4877],[23.0385,-6.7349,791.6141],[23.0334,-6.7422,789.1968],[23.0299,-6.7514,786.677],[23.02,-6.7666,789.2027],[23.0246,-6.776,790.0905],[23.0388,-6.7836,798.1594],[23.0505,-6.7943,820.8972],[23.0637,-6.8155,848.6115],[23.0694,-6.8332,856.7458],[23.0758,-6.8418,872.6496],[23.0846,-6.8494,893.6136],[23.094,-6.8539,883.1487],[23.1035,-6.8561,863.5219],[23.1235,-6.8579,823.4697],[23.1407,-6.8577,851.241],[23.1488,-6.861,865.374],[23.1559,-6.8678,859.0833],[23.1587,-6.8788,846.5062],[23.1624,-6.8837,848.8607],[23.1678,-6.8878,854.2585],[23.1743,-6.8901,876.933],[23.1776,-6.8935,890.7629],[23.1793,-6.9027,901.7109],[23.1831,-6.9058,924.5221],[23.2061,-6.9096,886.6415],[23.2203,-6.9174,867.0993],[23.2284,-6.9183,845.5823],[23.2363,-6.913,870.0914],[23.2614,-6.9123,870.4039],[23.2772,-6.9153,832.7537],[23.2765,-6.9171,826.2784],[23.279,-6.9201,811.6385],[23.2691,-6.9362,814.2498],[23.2709,-6.938,816.0277],[23.2758,-6.9346,815.5256],[23.2801,-6.936,815.2194],[23.2716,-6.9493,815.4297],[23.2737,-6.9585,813.8445],[23.2718,-6.9628,814.0136],[23.2651,-6.9674,814.4355],[23.2647,-6.9704,814.4011],[23.2702,-6.9748,815.5123],[23.263,-6.9768,815.2282],[23.258,-6.9888,814.6736],[23.2511,-6.9904,817.8065],[23.2494,-6.9927,824.8945],[23.2515,-7.0005,815.6854],[23.2467,-7.008,823.8352],[23.2471,-7.0106,817.6855],[23.2513,-7.0115,816.2631],[23.2513,-7.0147,816.3871],[23.2547,-7.0173,817.8922],[23.2519,-7.0207,818.3535],[23.26,-7.0258,815.678],[23.2591,-7.0301,815.9398],[23.2615,-7.04,822.0728],[23.2602,-7.0425,817.7303],[23.2554,-7.0407,820.5394],[23.254,-7.0492,816.5256],[23.2478,-7.045,822.1847],[23.2411,-7.051,820.6749],[23.2441,-7.054,816.7929],[23.2335,-7.0597,820.7171],[23.2353,-7.0627,818.5911],[23.2312,-7.0703,819.0385],[23.2323,-7.0747,819.1621],[23.2291,-7.0788,824.0352],[23.2304,-7.0834,822.994],[23.2275,-7.0936,826.1414],[23.2272,-7.1004,827.8522],[23.2318,-7.102,824.4812],[23.2311,-7.1082,842.9688],[23.2286,-7.1139,847.4752],[23.2251,-7.1144,846.4564],[23.2228,-7.1169,833.9529],[23.223,-7.1291,821.3113],[23.2198,-7.1332,834.6417],[23.2161,-7.1514,824.2225],[23.2163,-7.1592,835.7777],[23.2145,-7.1612,834.4161],[23.2165,-7.1635,830.7753],[23.2144,-7.167,831.7155],[23.219,-7.1693,831.1071],[23.2319,-7.17,827.7463],[23.2349,-7.1721,827.5427],[23.2314,-7.184,829.0008],[23.231,-7.1959,827.2866],[23.2326,-7.2035,828.8884],[23.2374,-7.2084,835.5079],[23.2339,-7.2139,832.7128],[23.2351,-7.2189,828.4556],[23.2335,-7.2279,831.5456],[23.2374,-7.2295,828.5942],[23.2307,-7.2511,833.3494],[23.232,-7.2529,831.8441],[23.2387,-7.247,830.0135],[23.2394,-7.2497,829.272],[23.2357,-7.2568,843.0785],[23.2347,-7.2892,836.6412],[23.2315,-7.3113,834.3664],[23.2273,-7.3209,852.8032],[23.2296,-7.3273,847.334],[23.2264,-7.337,840.0933],[23.2381,-7.3439,834.9261],[23.2475,-7.3441,831.5547],[23.2494,-7.3464,836.6738],[23.2475,-7.3575,841.6577],[23.2558,-7.3644,831.373],[23.2546,-7.3699,836.0184],[23.2491,-7.3795,838.6243],[23.2496,-7.385,834.8154],[23.2452,-7.3917,835.0231],[23.2452,-7.3944,835.2009],[23.236,-7.3995,849.9077],[23.2392,-7.4041,834.0564],[23.2323,-7.4137,851.2131],[23.2373,-7.4279,843.3298],[23.2403,-7.4286,835.4609],[23.2412,-7.425,840.649],[23.2449,-7.425,848.6588],[23.2465,-7.4277,840.3466],[23.2451,-7.4323,841.9307],[23.2465,-7.4372,846.4068],[23.2545,-7.4505,836.138],[23.2504,-7.4624,849.6033],[23.2448,-7.4665,860.2261],[23.2439,-7.4714,842.5291],[23.2453,-7.4746,838.4123],[23.243,-7.4773,843.7505],[23.2393,-7.4778,842.7933],[23.2344,-7.4867,844.2782],[23.2361,-7.4911,843.0146],[23.2319,-7.4948,867.2197],[23.2296,-7.5003,868.0183],[23.2275,-7.5028,851.537],[23.2204,-7.5012,853.4744],[23.2142,-7.5062,883.6954],[23.2142,-7.511,863.9849],[23.2077,-7.5113,863.2906],[23.2077,-7.5133,870.241],[23.2121,-7.5182,854.2877],[23.2086,-7.5358,844.6391],[23.2095,-7.5386,850.9576],[23.2148,-7.5414,847.2137],[23.2143,-7.5473,853.2891],[23.2187,-7.5501,868.6342],[23.2198,-7.5528,863.5411],[23.2189,-7.5584,877.2917],[23.2283,-7.5701,867.7091],[23.2276,-7.5733,864.442],[23.2235,-7.5779,885.3884],[23.2249,-7.5822,877.6377],[23.2191,-7.588,905.5139],[23.2184,-7.5916,897.0605],[23.2193,-7.5985,873.5912],[23.2251,-7.6008,873.7587],[23.2209,-7.6105,871.9219],[23.2227,-7.6181,869.4733],[23.2195,-7.6226,884.656],[23.22,-7.6249,879.007],[23.2264,-7.6305,860.0543],[23.2273,-7.6346,876.0975],[23.2262,-7.6392,876.3371],[23.2296,-7.6452,864.7234],[23.228,-7.6488,878.4567],[23.2294,-7.6566,876.5687],[23.2254,-7.667,875.2422],[23.219,-7.6695,872.2239],[23.2199,-7.6768,871.1407],[23.2148,-7.6793,870.7832],[23.2134,-7.6823,867.7434],[23.2164,-7.689,865.3704],[23.2132,-7.6894,862.9527],[23.2111,-7.692,868.3746],[23.2127,-7.6943,871.3413],[23.2196,-7.6964,872.6226],[23.2185,-7.7025,862.1279],[23.2139,-7.7062,863.8358],[23.2109,-7.7145,865.6215],[23.2069,-7.7174,869.4445],[23.2037,-7.7296,873.3523],[23.1933,-7.7496,870.3456],[23.1862,-7.7544,875.1814],[23.1838,-7.7601,870.2038],[23.1863,-7.7808,867.0725],[23.1817,-7.7817,867.7161],[23.1824,-7.7851,868.5477],[23.176,-7.7943,873.4241],[23.1794,-7.8115,870.9276],[23.1879,-7.8122,880.7975],[23.1844,-7.8242,869.7653],[23.1856,-7.832,869.9614],[23.1814,-7.8372,882.1078],[23.1817,-7.8395,875.7621],[23.1888,-7.8418,869.4822],[23.1853,-7.8522,870.9877],[23.1747,-7.8581,889.0527],[23.1731,-7.8652,883.2932],[23.177,-7.8705,872.4351],[23.1705,-7.8749,873.1422],[23.1749,-7.901,880.3412],[23.1783,-7.9082,874.7752],[23.1767,-7.9111,882.0975],[23.1808,-7.9237,891.5159],[23.2004,-7.9374,881.8774],[23.1978,-7.9422,886.1776],[23.1994,-7.947,891.947],[23.205,-7.9493,878.241],[23.2057,-7.9537,880.6458],[23.2098,-7.9573,880.933],[23.2146,-7.9567,883.0526],[23.2241,-7.9505,888.8753],[23.2282,-7.9507,891.6774],[23.237,-7.9611,889.4685],[23.2473,-7.9682,891.2994],[23.2554,-7.9689,892.8192],[23.2678,-7.9756,891.3148],[23.2798,-7.9704,902.7101],[23.2908,-7.9577,935.9006],[23.3095,-7.944,1003.2442],[23.3802,-7.9524,1003.0404],[23.3899,-7.9551,998.2516],[23.3993,-7.9549,1002.2234],[23.4423,-7.944,1023.7945],[23.46,-7.9588,1052.679],[23.4793,-7.9619,1001.1632],[23.4818,-7.9677,990.7908],[23.4885,-7.9707,975.7207],[23.4928,-7.9789,968.7783],[23.4974,-7.9796,961.3616],[23.5085,-7.9741,962.6453],[23.5184,-7.9728,951.2057],[23.526,-7.9673,940.5284],[23.5415,-7.948,923.6497],[23.5594,-7.9453,921.9012],[23.5673,-7.9393,917.2433],[23.5735,-7.9398,912.7924],[23.5749,-7.9382,912.2375],[23.5836,-7.9365,916.4411],[23.5921,-7.9472,940.4568],[23.6256,-7.9668,993.2964],[23.6477,-7.9689,1024.4521],[23.6884,-7.9675,957.4611],[23.6884,-7.9597,968.5666],[23.6916,-7.9526,960.6854],[23.6912,-7.9448,963.7744],[23.7064,-7.9278,946.9734],[23.7066,-7.9232,943.4453],[23.7133,-7.9168,947.0894],[23.7135,-7.9118,939.3896],[23.7177,-7.9079,940.0712],[23.7165,-7.9035,949.0765],[23.7184,-7.8957,952.0823],[23.7156,-7.884,952.0078],[23.7166,-7.8803,953.3088],[23.7253,-7.8686,934.8457],[23.7357,-7.8583,933.3337],[23.75,-7.8305,928.8652],[23.756,-7.8241,928.598],[23.7714,-7.8365,931.1977],[23.7744,-7.8441,938.5807],[23.7804,-7.8494,935.7764],[23.7972,-7.8593,937.0779],[23.8011,-7.8664,944.5127],[23.811,-7.9137,959.7786],[23.8107,-7.9229,955.3705],[23.8146,-7.9362,962.766],[23.8123,-7.9449,973.3292],[23.8139,-7.9486,959.7734],[23.8118,-7.9527,974.8273],[23.8118,-7.9576,989.0643],[23.8213,-7.9538,968.4987],[23.8223,-7.9252,972.5588],[23.8191,-7.8951,978.9131],[23.8241,-7.8867,973.9202],[23.8577,-7.8736,945.33],[23.9025,-7.8628,907.7655],[23.939,-7.8407,875.3174],[23.9549,-7.8333,843.1595],[23.9513,-7.8262,845.3536],[23.9584,-7.8195,833.0951],[23.9612,-7.8129,839.5586],[23.9598,-7.8002,839.736],[23.9575,-7.7936,829.3752],[23.952,-7.786,842.5336],[23.9529,-7.7796,844.0896],[23.9481,-7.7745,831.5604],[23.9223,-7.7281,824.1129],[23.9198,-7.7178,824.8095],[23.9205,-7.7114,827.6447],[23.9249,-7.7038,820.4567],[23.9281,-7.6914,824.3781],[23.9329,-7.6854,823.3657],[23.9311,-7.6834,819.8948],[23.9219,-7.6808,827.4948],[23.9297,-7.6723,824.9762],[23.9313,-7.668,822.9079],[23.9309,-7.6616,817.6857],[23.9231,-7.637,846.1859],[23.9277,-7.6266,828.611],[23.9258,-7.6172,836.706],[23.9364,-7.5952,820.9799],[23.9309,-7.5839,813.6522],[23.9316,-7.5754,812.4099],[23.93,-7.5715,810.3275],[23.9224,-7.5679,823.7295],[23.9215,-7.566,832.4067],[23.927,-7.5582,816.5689],[23.9326,-7.5529,818.8583],[23.9344,-7.5532,811.42],[23.9351,-7.5484,818.9042],[23.9273,-7.5295,805.4078],[23.9298,-7.5242,828.9656],[23.9386,-7.5167,819.7614],[23.9469,-7.5125,814.2474],[23.9487,-7.4976,806.5515],[23.9554,-7.4928,804.6404],[23.9575,-7.4887,802.5468],[23.9561,-7.4861,809.585],[23.9638,-7.4719,800.7292],[23.9618,-7.4625,800.5177],[23.966,-7.4584,797.4547],[23.9669,-7.4499,803.2361],[23.9718,-7.4453,797.0443],[23.9745,-7.4177,798.7035],[23.9768,-7.4117,794.9406],[23.9752,-7.4012,791.8165],[23.9794,-7.3883,786.2325],[23.9787,-7.3849,787.2661],[23.9835,-7.3835,783.2593],[23.9914,-7.378,782.7821],[24.0038,-7.3776,775.6769],[24.007,-7.3753,775.0898],[24.01,-7.3698,773.8655],[24.0093,-7.3645,776.0236],[24.0006,-7.3652,773.9523],[23.9962,-7.361,779.1406],[23.9946,-7.3548,796.8623],[23.9879,-7.3493,763.927],[23.9773,-7.3486,760.9282],[23.9697,-7.3458,761.2424],[23.9663,-7.3415,760.34],[23.9651,-7.3339,759.8101],[23.9617,-7.3265,760.6091],[23.9622,-7.3215,765.365],[23.9652,-7.3169,784.2782],[23.9744,-7.3114,759.6237],[23.9711,-7.302,766.8492],[23.977,-7.2958,762.4108],[23.973,-7.2896,754.0889],[23.979,-7.2743,749.9984],[23.9781,-7.2691,751.0308],[23.9799,-7.265,749.9517],[23.9857,-7.2622,749.2542],[23.9772,-7.2498,756.1438],[23.9654,-7.2367,758.8677],[23.962,-7.2268,742.5286],[23.9638,-7.2174,741.7979],[23.9611,-7.2103,741.6295],[23.9733,-7.1981,742.1262],[23.9793,-7.202,752.3086],[23.9825,-7.2009,742.4365],[23.9865,-7.1959,739.3015],[23.983,-7.1871,733.193],[23.9839,-7.1846,733.8017],[24.0027,-7.1747,730.25],[24.0067,-7.169,732.2389],[24.0145,-7.1635,726.875],[24.0267,-7.1311,740.211],[24.0306,-7.1288,707.1346],[24.0315,-7.1221,697.6444],[24.0451,-7.1148,691.541],[24.0504,-7.1098,677.4052],[24.0557,-7.0891,674.1678],[24.0605,-7.0836,675.1749],[24.0612,-7.0748,679.288],[24.0665,-7.068,672.9855],[24.0748,-7.0675,674.7703],[24.0808,-7.0696,680.0591],[24.0849,-7.0654,673.3653],[24.0898,-7.0645,676.1622],[24.0918,-7.0618,676.1793],[24.0971,-7.0613,675.4873],[24.0997,-7.0638,668.9059],[24.1086,-7.0627,670.3417],[24.1135,-7.065,671.7432],[24.1133,-7.072,663.7472],[24.1199,-7.0701,651.3516],[24.1217,-7.0673,653.9581],[24.1243,-7.0503,647.2051],[24.1266,-7.0482,636.3149],[24.1411,-7.0506,632.3969],[24.1418,-7.0402,637.7443],[24.1475,-7.017,632.7371],[24.1367,-7.0117,636.0242],[24.1321,-7.0078,633.8704],[24.1305,-7.0034,631.3311],[24.1314,-6.9995,634.0051],[24.1494,-6.9888,639.1597],[24.1524,-6.9846,633.2416],[24.1519,-6.9823,629.29],[24.1463,-6.9785,629.3499],[24.1418,-6.9727,628.3274],[24.14,-6.9593,627.6766],[24.1266,-6.9609,627.7441],[24.1241,-6.9589,627.3455],[24.1218,-6.9467,631.6108],[24.1252,-6.9439,626.4501],[24.1487,-6.9426,626.4476],[24.1575,-6.9322,627.1321],[24.1581,-6.9288,625.3016],[24.147,-6.9196,638.7974]]]]}}