{"type":"Feature","properties":{"GID_2":"COD.12.4_1","GID_0":"COD","country":"DemocraticRepublicoftheCongo","GID_1":"COD.12_1","province":"Kwango","NL_NAME_1":"NA","county":"Kasongo-Lunda","VARNAME_2":"NA","NL_NAME_2":"NA","TYPE_2":"Territoire","ENGTYPE_2":"Territory","CC_2":"NA","HASC_2":"NA","name":"Kasongo-Lunda.county"},
"geometry":{"type": "MultiPolygon","coordinates": [[[[17.885,-8.079,650.3666],[17.8863,-8.0704,752.3923],[17.8863,-8.0151,765.0729],[17.8912,-7.9873,741.8387],[17.8939,-7.9785,758.3853],[17.9015,-7.9669,834.9452],[17.9235,-7.9505,823.6168],[17.9228,-7.9423,823.8204],[17.9149,-7.9207,807.4888],[17.9149,-7.9156,829.0013],[17.9191,-7.9059,833.062],[17.9187,-7.9003,840.3647],[17.9135,-7.8913,778.5801],[17.9117,-7.8848,799.4625],[17.9134,-7.8783,856.8664],[17.9272,-7.8643,823.1891],[17.9372,-7.8424,791.523],[17.9864,-7.8119,771.7169],[18.0372,-7.7896,701.6154],[18.0507,-7.7904,636.0392],[18.0478,-7.7959,638.3381],[18.0483,-7.7987,639.4028],[18.0538,-7.797,683.4088],[18.061,-7.8039,642.237],[18.0628,-7.8036,651.7121],[18.0625,-7.7986,647.442],[18.0651,-7.7965,639.1354],[18.0687,-7.7974,649.7985],[18.0919,-7.8146,669.3595],[18.0967,-7.8154,724.0567],[18.1095,-7.8153,783.7487],[18.1328,-7.8068,645.9208],[18.1466,-7.8064,726.7617],[18.1522,-7.8123,661.3251],[18.1628,-7.8106,679.7443],[18.1741,-7.8117,665.2422],[18.1787,-7.8103,663.0022],[18.1819,-7.8025,661.1756],[18.1871,-7.7988,673.6607],[18.1875,-7.7903,661.7073],[18.1917,-7.7898,673.4622],[18.1928,-7.7877,654.7798],[18.19,-7.7831,689.7256],[18.1939,-7.7783,675.8409],[18.195,-7.7735,658.4817],[18.201,-7.775,694.3279],[18.2028,-7.7693,662.8647],[18.2081,-7.7667,707.4033],[18.2067,-7.7644,668.2036],[18.2033,-7.7651,705.6373],[18.2016,-7.7626,728.1455],[18.2039,-7.7599,679.4595],[18.2034,-7.7566,678.1565],[18.2092,-7.7552,702.2612],[18.2094,-7.7495,664.2228],[18.2138,-7.7495,670.2263],[18.2165,-7.7414,669.7289],[18.2206,-7.7412,667.5269],[18.2231,-7.7361,666.369],[18.2266,-7.7352,664.3311],[18.2291,-7.739,686.6544],[18.2316,-7.7351,672.3549],[18.2342,-7.7344,669.531],[18.2386,-7.7397,683.0238],[18.2416,-7.7401,676.8683],[18.2443,-7.7364,672.8297],[18.2436,-7.7339,700.8947],[18.2452,-7.7314,670.2242],[18.2486,-7.729,685.9044],[18.2461,-7.7263,694.0325],[18.2474,-7.7233,721.0422],[18.2548,-7.7224,674.5579],[18.258,-7.7171,693.7902],[18.2619,-7.715,700.5737],[18.2639,-7.7094,674.7318],[18.2724,-7.7025,681.285],[18.2788,-7.7009,707.0308],[18.2814,-7.6985,677.7385],[18.2906,-7.6999,743.9612],[18.2949,-7.6975,745.3597],[18.3019,-7.6989,691.3161],[18.3044,-7.6973,687.3286],[18.3048,-7.692,714.7931],[18.3116,-7.6823,682.534],[18.3075,-7.6768,687.1047],[18.3093,-7.6731,698.1824],[18.3088,-7.6704,689.6345],[18.3053,-7.6681,706.4725],[18.3051,-7.6658,682.8361],[18.3088,-7.6626,689.1151],[18.3123,-7.646,684.0981],[18.3121,-7.6423,686.5748],[18.3091,-7.64,688.604],[18.3088,-7.6375,689.4973],[18.3143,-7.635,694.3931],[18.3108,-7.629,688.7774],[18.3126,-7.621,689.9335],[18.3179,-7.6184,700.4552],[18.3219,-7.6021,685.6406],[18.3212,-7.5966,694.896],[18.3258,-7.5864,706.7112],[18.3218,-7.5738,692.7839],[18.3222,-7.5695,693.0422],[18.3274,-7.5619,698.8098],[18.3352,-7.5565,701.5649],[18.3391,-7.557,702.1227],[18.3417,-7.5542,705.1138],[18.3442,-7.5544,710.1718],[18.346,-7.5422,707.132],[18.345,-7.5317,703.5956],[18.3465,-7.5261,715.0858],[18.3584,-7.5141,779.9175],[18.3644,-7.5116,780.6904],[18.3706,-7.5113,772.8513],[18.3782,-7.5165,832.9847],[18.3822,-7.5167,795.9843],[18.3877,-7.522,801.3109],[18.4078,-7.5251,843.8724],[18.411,-7.5273,816.0765],[18.412,-7.5354,870.4243],[18.425,-7.5349,887.4029],[18.4439,-7.5236,1023.438],[18.47,-7.5191,1067.1404],[18.4845,-7.5124,1090.5085],[18.4993,-7.4936,1054.4027],[18.5063,-7.4771,1084.5184],[18.5105,-7.4745,1121.0933],[18.5139,-7.4745,1126.8394],[18.5188,-7.4772,1129.7068],[18.5446,-7.4967,1086.4443],[18.5675,-7.5086,1104.6174],[18.5723,-7.5086,1119.9655],[18.5875,-7.4942,1118.9945],[18.6306,-7.4278,1073.4481],[18.6373,-7.4122,1063.0254],[18.6377,-7.393,1019.3235],[18.6466,-7.3758,997.3027],[18.6394,-7.3695,998.1737],[18.6371,-7.3626,996.0429],[18.6325,-7.3592,996.791],[18.6329,-7.3564,995.8173],[18.6313,-7.3548,995.5573],[18.6156,-7.3568,995.3363],[18.611,-7.3559,1002.5026],[18.6066,-7.352,996.4938],[18.6,-7.3548,1001.2477],[18.5986,-7.3507,987.601],[18.5997,-7.3461,988.5474],[18.5955,-7.3417,992.0316],[18.6019,-7.338,996.2464],[18.5991,-7.3288,976.2637],[18.5961,-7.3256,996.5793],[18.5917,-7.3247,1002.1586],[18.5862,-7.3195,985.4009],[18.5847,-7.3117,974.6558],[18.5782,-7.3069,991.7248],[18.5775,-7.3035,970.5269],[18.5791,-7.2989,982.3235],[18.576,-7.2863,974.7609],[18.5679,-7.2813,989.1654],[18.5626,-7.2677,968.691],[18.5526,-7.2611,971.4684],[18.5422,-7.2585,972.7957],[18.538,-7.25,971.625],[18.5346,-7.2466,964.8673],[18.5324,-7.2406,960.684],[18.522,-7.2333,958.2581],[18.5206,-7.2264,961.1774],[18.5162,-7.2228,961.3256],[18.5081,-7.207,960.6151],[18.5068,-7.1987,954.0873],[18.5103,-7.1916,988.8626],[18.5098,-7.1879,948.6105],[18.5075,-7.1863,949.1052],[18.5056,-7.181,951.2833],[18.4985,-7.185,987.8453],[18.4909,-7.1571,950.9119],[18.4909,-7.1513,941.2237],[18.4941,-7.1439,945.4229],[18.4927,-7.1411,940.2026],[18.4878,-7.1437,961.9546],[18.485,-7.1361,946.9062],[18.4855,-7.1334,940.2944],[18.4909,-7.1274,952.4817],[18.4905,-7.1246,949.0614],[18.4819,-7.1196,933.0239],[18.481,-7.1157,932.5854],[18.4828,-7.1102,940.6871],[18.4901,-7.1081,944.8192],[18.4862,-7.1026,937.7832],[18.4873,-7.1001,935.0861],[18.4928,-7.0998,954.4578],[18.4926,-7.0952,950.3616],[18.4973,-7.0867,962.8237],[18.4952,-7.0814,923.6122],[18.4892,-7.0784,941.5934],[18.4857,-7.0716,923.5495],[18.4807,-7.0732,924.2089],[18.48,-7.0707,923.0359],[18.4832,-7.0656,926.5015],[18.4716,-7.0537,941.1843],[18.4743,-7.0409,932.0826],[18.4798,-7.0394,984.6281],[18.4777,-7.0353,926.8583],[18.4744,-7.0328,936.2357],[18.4716,-7.0273,932.2806],[18.4668,-7.0251,944.9941],[18.4665,-7.0198,922.381],[18.4635,-7.0191,921.2845],[18.4599,-7.0214,946.2688],[18.4483,-7.0203,939.4371],[18.4446,-7.0158,934.1791],[18.443,-7.008,931.1581],[18.4369,-7.0009,935.3894],[18.4381,-6.9979,932.5428],[18.4454,-6.9967,942.6617],[18.4447,-6.9946,925.0092],[18.4408,-6.9937,932.353],[18.4366,-6.9846,927.9512],[18.4283,-6.9803,929.6096],[18.4258,-6.9846,939.7657],[18.4232,-6.9824,923.5203],[18.4227,-6.9764,935.0807],[18.4193,-6.973,944.6833],[18.4245,-6.9617,941.4991],[18.4247,-6.9557,928.7693],[18.4228,-6.9454,935.9242],[18.4163,-6.9422,919.8226],[18.4209,-6.9392,926.3919],[18.4206,-6.9357,933.4451],[18.4142,-6.9355,919.9972],[18.4116,-6.9339,924.7243],[18.4125,-6.9316,922.5058],[18.4178,-6.9289,919.5532],[18.4129,-6.9246,922.1754],[18.4127,-6.9227,932.339],[18.4178,-6.919,933.7721],[18.4166,-6.9169,937.0637],[18.4131,-6.9172,935.8661],[18.4115,-6.9156,935.6486],[18.4136,-6.9128,928.1174],[18.4099,-6.9087,936.7233],[18.4126,-6.9029,930.9872],[18.4073,-6.8984,918.7258],[18.4105,-6.8937,933.0525],[18.4086,-6.8912,924.5228],[18.4026,-6.8924,919.5231],[18.3987,-6.8897,928.5003],[18.3952,-6.8846,919.3951],[18.395,-6.8798,918.2841],[18.3919,-6.8762,917.7726],[18.3942,-6.8716,932.5234],[18.3928,-6.8677,927.1585],[18.3898,-6.8663,919.507],[18.3861,-6.8608,924.556],[18.3842,-6.8615,917.245],[18.3825,-6.8679,919.4203],[18.3783,-6.8615,917.634],[18.3746,-6.8595,921.4455],[18.369,-6.848,908.2209],[18.3642,-6.8561,916.5532],[18.3596,-6.8568,918.1034],[18.3601,-6.8633,916.8495],[18.3496,-6.8787,921.4355],[18.3333,-6.8807,932.3568],[18.3165,-6.8746,948.7911],[18.3027,-6.8728,943.0067],[18.2968,-6.864,974.0552],[18.2885,-6.8582,1011.938],[18.2686,-6.8593,1028.6151],[18.2661,-6.8624,1013.9388],[18.2654,-6.8791,1010.139],[18.2638,-6.8834,1031.9316],[18.2609,-6.8843,1034.6521],[18.2555,-6.8841,1041.8162],[18.2521,-6.8813,1042.5609],[18.2443,-6.8683,1037.6119],[18.2405,-6.865,1031.9319],[18.2047,-6.8609,991.8639],[18.1967,-6.8632,959.1289],[18.1947,-6.8661,960.6979],[18.201,-6.8812,956.5275],[18.2041,-6.8943,963.6993],[18.2033,-6.9051,969.7413],[18.2086,-6.9171,970.6891],[18.2216,-6.9317,974.4381],[18.2338,-6.9704,1015.9548],[18.233,-6.9794,1026.4689],[18.2284,-6.9829,1052.1917],[18.2238,-6.9807,1060.52],[18.2138,-6.9528,1043.1155],[18.1903,-6.8995,1028.8879],[18.1796,-6.8858,1036.397],[18.1725,-6.8808,1026.7922],[18.1322,-6.8617,1052.1022],[18.1252,-6.8468,1048.4514],[18.1209,-6.8417,1045.7732],[18.1086,-6.8325,1049.6311],[18.1057,-6.8283,1049.5876],[18.1061,-6.8099,1036.0947],[18.1042,-6.7989,959.0602],[18.0909,-6.7761,1031.8167],[18.0824,-6.7717,1015.7249],[18.0715,-6.7704,976.3164],[18.0678,-6.767,999.4399],[18.0652,-6.7625,1003.9718],[18.0607,-6.743,1035.5623],[18.0469,-6.7222,1002.2944],[18.0437,-6.7141,975.6178],[18.0423,-6.702,959.5162],[18.0455,-6.6877,961.5565],[18.0415,-6.6721,949.3125],[18.0426,-6.6682,943.3261],[18.0467,-6.6634,948.9404],[18.0462,-6.6581,936.9108],[18.05,-6.6468,936.1157],[18.0567,-6.638,932.1058],[18.0612,-6.6364,933.8087],[18.064,-6.6334,940.2224],[18.066,-6.626,930.2787],[18.0729,-6.6168,928.7704],[18.0575,-6.6122,936.9008],[18.0518,-6.6123,962.3051],[18.0433,-6.6166,1005.1332],[18.032,-6.6264,1006.0082],[18.0281,-6.6318,996.5707],[18.0224,-6.635,1003.5587],[18.0184,-6.6345,1007.9606],[18.0141,-6.63,1003.9445],[18.0066,-6.6121,1001.833],[18.0021,-6.588,981.9816],[18.0043,-6.5797,987.864],[18.0014,-6.5763,987.6066],[17.9925,-6.573,982.9711],[17.9871,-6.5731,983.8318],[17.9751,-6.5781,880.1573],[17.9703,-6.5756,881.5754],[17.9659,-6.5705,871.8419],[17.973,-6.5585,923.3848],[17.9735,-6.548,892.1435],[17.9715,-6.5458,877.7304],[17.9289,-6.5276,960.1387],[17.9255,-6.5276,954.8742],[17.9235,-6.5288,972.1588],[17.9216,-6.5342,955.4803],[17.9217,-6.5404,924.6722],[17.9194,-6.5455,895.9346],[17.9156,-6.5494,859.2454],[17.9087,-6.5499,843.1109],[17.9002,-6.5532,840.0308],[17.894,-6.5525,849.8011],[17.8878,-6.5473,849.2278],[17.8829,-6.5459,831.5026],[17.8786,-6.5581,837.3778],[17.8733,-6.5579,820.3937],[17.8703,-6.5561,821.6273],[17.8667,-6.5575,821.6708],[17.8597,-6.5737,826.5872],[17.8479,-6.5843,836.1399],[17.8297,-6.5899,870.3959],[17.8125,-6.6026,842.4124],[17.7987,-6.6169,861.8346],[17.7928,-6.621,880.9603],[17.7865,-6.6224,884.973],[17.7808,-6.6211,868.5652],[17.7691,-6.6147,949.6636],[17.7536,-6.6016,931.2245],[17.7145,-6.5581,949.5042],[17.7079,-6.552,936.2978],[17.6879,-6.5386,862.1478],[17.6779,-6.5387,891.1],[17.67,-6.5459,872.3752],[17.6655,-6.5476,879.8787],[17.6558,-6.5463,896.8677],[17.6529,-6.5424,936.1601],[17.6523,-6.5342,882.7093],[17.6588,-6.5268,932.6063],[17.6823,-6.5211,910.2314],[17.6891,-6.5179,926.3513],[17.6959,-6.5119,910.0223],[17.6975,-6.5065,935.0789],[17.6951,-6.4943,941.5651],[17.6842,-6.4817,921.2023],[17.6785,-6.4798,933.4707],[17.668,-6.4805,900.7593],[17.6165,-6.5063,932.5358],[17.6045,-6.5047,922.311],[17.5913,-6.4963,897.6829],[17.5897,-6.4938,855.0499],[17.5837,-6.4922,808.4405],[17.5767,-6.4711,816.3423],[17.5739,-6.4688,824.487],[17.572,-6.4594,842.8965],[17.5634,-6.4424,810.2218],[17.5632,-6.438,831.8651],[17.5668,-6.4304,857.2977],[17.5704,-6.4111,833.9144],[17.5699,-6.4074,822.627],[17.5632,-6.4033,806.3618],[17.5616,-6.4006,810.8606],[17.5631,-6.3964,854.3268],[17.5608,-6.3923,811.1587],[17.5638,-6.3872,855.5466],[17.5603,-6.3843,846.5312],[17.5585,-6.379,805.8871],[17.5525,-6.3772,805.941],[17.5538,-6.3737,800.0096],[17.5515,-6.371,803.5403],[17.5503,-6.3655,853.7596],[17.5453,-6.3657,802.0383],[17.543,-6.3623,794.7666],[17.5417,-6.348,839.7485],[17.5369,-6.3421,794.2311],[17.5401,-6.3377,843.8018],[17.5393,-6.3345,820.0804],[17.5366,-6.3304,793.5723],[17.5299,-6.3281,787.6379],[17.526,-6.3247,789.821],[17.5248,-6.3212,792.6705],[17.5277,-6.3143,802.1665],[17.521,-6.2957,788.3677],[17.5189,-6.2948,786.1102],[17.5162,-6.2974,785.8323],[17.5087,-6.2873,786.4613],[17.5071,-6.2905,781.5665],[17.5046,-6.2912,785.2404],[17.5025,-6.2878,780.239],[17.5032,-6.2832,798.9864],[17.5064,-6.2809,846.0237],[17.4988,-6.2751,790.0386],[17.4944,-6.2745,780.2223],[17.4905,-6.2683,830.3667],[17.4937,-6.2664,848.0736],[17.4904,-6.2607,783.1055],[17.483,-6.2527,774.8256],[17.4761,-6.2502,774.5531],[17.4768,-6.2467,779.2539],[17.4703,-6.2316,813.3567],[17.4636,-6.2289,776.3579],[17.4643,-6.2266,784.5422],[17.4673,-6.2259,851.2017],[17.4668,-6.2229,829.099],[17.4686,-6.2199,832.3868],[17.4656,-6.2119,775.0492],[17.461,-6.2116,770.05],[17.4533,-6.2013,807.0432],[17.4574,-6.1848,838.2374],[17.4539,-6.1788,779.4308],[17.4538,-6.1671,799.1163],[17.4501,-6.162,809.2954],[17.4434,-6.1584,751.9355],[17.4418,-6.1552,758.7172],[17.4427,-6.1504,807.5366],[17.4406,-6.1407,778.6353],[17.4435,-6.1361,756.4394],[17.441,-6.1329,786.0428],[17.4428,-6.1303,802.4846],[17.4419,-6.1267,809.6586],[17.4394,-6.1267,787.9323],[17.4347,-6.1191,760.1881],[17.437,-6.1154,815.0664],[17.4363,-6.1101,783.2712],[17.4402,-6.1071,783.339],[17.4374,-6.1046,797.4581],[17.4337,-6.1058,770.2878],[17.4321,-6.0989,766.0291],[17.4332,-6.0952,796.2464],[17.4362,-6.0929,788.4099],[17.4352,-6.089,760.5944],[17.4323,-6.0899,772.353],[17.4281,-6.0888,744.7885],[17.4253,-6.0835,773.8574],[17.42,-6.0842,742.1649],[17.4163,-6.0647,812.9047],[17.4192,-6.0613,830.1696],[17.4146,-6.0454,795.7506],[17.409,-6.0413,734.1378],[17.4092,-6.0376,760.3571],[17.4048,-6.0314,725.4622],[17.4064,-6.0294,775.6618],[17.402,-6.0239,774.2864],[17.4011,-6.0181,734.2919],[17.3988,-6.0174,730.5005],[17.3965,-6.0211,727.7532],[17.3932,-6.0152,727.8817],[17.3898,-6.0136,738.0154],[17.3889,-6.0113,736.2928],[17.392,-6.0069,810.3718],[17.3902,-6.0005,793.4663],[17.3911,-5.9963,764.0679],[17.3858,-5.9917,731.3451],[17.3776,-5.9778,796.4874],[17.3668,-5.9668,809.7097],[17.3619,-5.9583,775.937],[17.3605,-5.9569,795.3438],[17.3562,-5.9574,739.89],[17.3506,-5.9503,774.4205],[17.3353,-5.9534,739.8672],[17.2937,-5.9732,840.1853],[17.2851,-5.9727,792.4626],[17.2722,-5.9638,792.692],[17.2572,-5.9485,783.4237],[17.2484,-5.9367,793.7408],[17.2353,-5.9255,761.3988],[17.2218,-5.9252,849.8665],[17.1927,-5.9301,622.2487],[17.1846,-5.9291,634.6931],[17.1568,-5.9078,527.046],[17.1449,-5.8945,469.9219],[17.132,-5.8922,443.6339],[17.1278,-5.8956,467.0215],[17.1262,-5.8999,462.721],[17.1269,-5.9167,603.4222],[17.1111,-5.9269,540.5695],[17.1129,-5.9314,505.1504],[17.1254,-5.9404,489.1114],[17.1263,-5.9493,461.8418],[17.1209,-5.9611,634.3329],[17.1308,-5.9608,552.7234],[17.1375,-5.973,616.2668],[17.1404,-5.973,569.7025],[17.141,-5.9698,593.7223],[17.1441,-5.9683,600.9214],[17.1487,-5.9706,524.4454],[17.1579,-5.9703,485.7701],[17.1598,-5.9735,520.654],[17.1546,-5.9839,447.56],[17.1541,-5.989,480.9659],[17.1569,-5.9931,519.1713],[17.1624,-5.9947,482.0063],[17.1643,-5.999,486.4636],[17.1636,-6.0043,480.2064],[17.1551,-6.009,462.9222],[17.1545,-6.0128,476.2438],[17.163,-6.0142,458.1977],[17.1671,-6.0177,528.2971],[17.171,-6.0186,452.2053],[17.1761,-6.0142,459.7102],[17.1798,-6.0137,564.8922],[17.1813,-6.0193,558.0341],[17.1734,-6.0312,472.6585],[17.1748,-6.0346,501.4391],[17.1785,-6.0369,489.4891],[17.1872,-6.036,519.6709],[17.1902,-6.0417,562.6526],[17.187,-6.0465,477.1143],[17.1756,-6.0542,536.9017],[17.1738,-6.0613,553.9379],[17.1699,-6.068,485.1106],[17.1562,-6.0736,601.0563],[17.1443,-6.0805,813.368],[17.1237,-6.1006,687.4795],[17.1113,-6.1073,860.0598],[17.0919,-6.1072,772.4658],[17.0811,-6.1051,847.024],[17.0634,-6.0985,822.1854],[17.0348,-6.0824,855.8165],[17.0217,-6.0769,849.1542],[16.9989,-6.0726,835.7516],[16.9918,-6.0775,777.2156],[16.9778,-6.0918,852.4181],[16.9667,-6.0917,757.8765],[16.961,-6.0951,754.3937],[16.9508,-6.0958,772.1951],[16.938,-6.1007999999999996,811.3286],[16.9293,-6.1097,800.9847],[16.9223,-6.1254,662.694],[16.9192,-6.1263,720.5329],[16.8865,-6.1196,652.2723],[16.871,-6.1129,591.7319],[16.8511,-6.1101,572.8596],[16.8222,-6.0915,499.8039],[16.8129,-6.0881,485.9781],[16.7817,-6.0832,500.6682],[16.7647,-6.084,586.8479],[16.7549,-6.0869,533.282],[16.7451,-6.0962,451.0825],[16.7392,-6.1049,579.7342],[16.7314,-6.1075,510.5277],[16.7222,-6.1176,425.1201],[16.714,-6.1188,447.0125],[16.7071,-6.1248,400.6815],[16.7032,-6.1258,422.751],[16.6973,-6.1327,442.4659],[16.6924,-6.1341,539.3231],[16.6886,-6.1394,584.5356],[16.6976,-6.1459,465.2309],[16.7026,-6.1534,520.9388],[16.7216,-6.1663,421.4027],[16.722,-6.1705,416.4131],[16.72,-6.1763,442.5506],[16.7211,-6.18,413.4051],[16.7295,-6.1882,432.593],[16.7303,-6.1955,462.2676],[16.7259,-6.2124,518.3004],[16.7233,-6.2171,535.3085],[16.7161,-6.2234,412.4972],[16.7104,-6.2357,411.4553],[16.7111,-6.2407,399.422],[16.7183,-6.2544,452.7361],[16.7185,-6.2595,440.7576],[16.7115,-6.2793,402.8514],[16.7095,-6.2908,406.8716],[16.7106,-6.2947,412.4662],[16.7167,-6.3029,404.3901],[16.7188,-6.3117,428.0006],[16.7181,-6.3262,412.1844],[16.7249,-6.3388,465.2824],[16.7249,-6.3441,473.4232],[16.7221,-6.3562,571.4861],[16.7197,-6.36,574.7054],[16.7139,-6.3612,579.4054],[16.6994,-6.3559,442.8455],[16.69,-6.3555,412.7151],[16.6875,-6.3611,411.2656],[16.6882,-6.3643,401.3316],[16.6905,-6.3661,401.839],[16.6976,-6.3672,486.6502],[16.7028,-6.3736,493.4233],[16.7007,-6.3828,487.7122],[16.6918,-6.3944,408.6785],[16.69,-6.4006,480.3051],[16.6907,-6.4056,458.0206],[16.6935,-6.4102,474.9471],[16.7004,-6.4111,448.2362],[16.7132,-6.4076,447.8543],[16.7243,-6.4142,417.1596],[16.7298,-6.4197,445.1361],[16.7323,-6.4257,441.4329],[16.7297,-6.4319,528.7595],[16.726,-6.4347,456.8798],[16.7161,-6.4375,504.933],[16.7132,-6.4398,406.3719],[16.7111,-6.4462,412.9503],[16.7137,-6.4534,427.0917],[16.7275,-6.4643,433.6191],[16.7334,-6.4725,429.8192],[16.7357,-6.4803,440.9596],[16.7331,-6.4866,467.3751],[16.7272,-6.4908,424.8405],[16.7251,-6.4958,409.1117],[16.7272,-6.5009,403.5],[16.7337,-6.5075,415.4315],[16.7558,-6.5187,470.4834],[16.7613,-6.5259,469.7067],[16.7631,-6.5327,476.035],[16.7621,-6.5383,453.5618],[16.7512,-6.5578,518.4891],[16.7491,-6.5659,594.934],[16.7494,-6.573,450.4073],[16.7513,-6.5792,452.3621],[16.7571,-6.5851,455.5367],[16.7637,-6.5844,463.8119],[16.7692,-6.5872,545.2546],[16.7766,-6.594,522.5147],[16.7796,-6.6048,516.1027],[16.78,-6.6273,442.3449],[16.7831,-6.6422,451.5446],[16.792,-6.6539,469.2495],[16.794,-6.6627,457.5461],[16.7923,-6.6716,482.5453],[16.7938,-6.6826,483.2166],[16.7978,-6.6947,468.1397],[16.8064,-6.7032,486.4698],[16.8167,-6.7092,468.6548],[16.8223,-6.7101,492.2271],[16.8259,-6.7137,479.1777],[16.8288,-6.7197,544.5162],[16.8307,-6.7336,471.1715],[16.8284,-6.7528,567.9872],[16.8299,-6.7604,499.1993],[16.8327,-6.7664,508.3934],[16.8507,-6.7893,494.0328],[16.8682,-6.8009,652.3027],[16.8717,-6.8053,656.0978],[16.8739,-6.8128,600.5963],[16.8763,-6.8469,461.6325],[16.8795,-6.8505,495.9283],[16.8841,-6.8515,544.6658],[16.8954,-6.858,608.5121],[16.9103,-6.8513,579.6703],[16.9154,-6.8529,647.5892],[16.9175,-6.8598,636.6896],[16.9205,-6.8632,524.6583],[16.9316,-6.866,650.0433],[16.9378,-6.87,664.2418],[16.9404,-6.8748,660.6799],[16.9418,-6.8879,643.1874],[16.9369,-6.9151,574.4766],[16.9438,-6.9215,549.9967],[16.9469,-6.9312,484.6675],[16.9455,-6.9387,429.6337],[16.9403,-6.9465,547.2546],[16.9371,-6.9578,616.8848],[16.9387,-6.9661,537.0411],[16.9501,-6.9807,561.0801],[16.9709,-6.9837,670.1697],[16.9739,-7.0001,627.9827],[16.9802,-7.0134,489.1472],[16.9827,-7.0233,529.107],[16.9805,-7.0307,554.4738],[16.9709,-7.044,427.7646],[16.9693,-7.0526,424.8486],[16.9705,-7.0691,422.7706],[16.9687,-7.0731,423.8423],[16.9616,-7.0792,421.0728],[16.9543,-7.0783,431.893],[16.9485,-7.0737,505.591],[16.9433,-7.0614,533.228],[16.939,-7.0607,528.8649],[16.9319,-7.0644,541.8351],[16.9289,-7.0686,534.5291],[16.928,-7.0842,437.5712],[16.9336,-7.0913,433.2127],[16.9404,-7.1131,424.922],[16.9482,-7.1202,429.6575],[16.9502,-7.1248,433.1666],[16.9504,-7.1443,436.5635],[16.9537,-7.1526,435.8336],[16.9627,-7.1574,435.239],[16.9689,-7.1635,443.1808],[16.9704,-7.1702,445.3102],[16.9685,-7.1757,436.9804],[16.9584,-7.1836,442.0574],[16.9548,-7.1886,435.4186],[16.9537,-7.2033,420.9554],[16.9558,-7.2075,419.5],[16.9803,-7.2221,444.9802],[16.9886,-7.2308,449.013],[16.9949,-7.2468,451.2384],[17.0039,-7.2633,457.6408],[17.0049,-7.2702,455.0111],[17.002,-7.2929,427.3604],[17.0055,-7.3,427.2569],[17.0305,-7.2979,426.725],[17.0367,-7.3012,442.8864],[17.0406,-7.3143,425.115],[17.0452,-7.3212,423.5],[17.0519,-7.325,435.4699],[17.0648,-7.3275,425.6367],[17.0765,-7.3428,424.0],[17.0919,-7.345,429.4485],[17.1036,-7.3435,471.5392],[17.1096,-7.3462,439.5284],[17.1164,-7.3576,448.9461],[17.1167,-7.3645,437.4325],[17.1117,-7.3765,436.2027],[17.1128,-7.3904,436.927],[17.1084,-7.4176,425.778],[17.1102,-7.4227,430.0815],[17.1136,-7.4254,426.0],[17.1279,-7.4263,432.9278],[17.133,-7.4249,435.956],[17.1373,-7.4209,435.4912],[17.1389,-7.4092,428.9584],[17.1432,-7.4058,432.468],[17.1483,-7.4078,451.3742],[17.153,-7.4193,428.8859],[17.1608,-7.4252,428.787],[17.1775,-7.4266,427.0],[17.1843,-7.4314,440.4337],[17.1885,-7.4377,538.1688],[17.1878,-7.4449,499.0246],[17.1851,-7.4487,444.8137],[17.1706,-7.449,428.7924],[17.1598,-7.4541,430.4237],[17.1537,-7.464,433.8364],[17.1562,-7.4751,430.8552],[17.1667,-7.4837,431.4899],[17.1747,-7.4878,428.7926],[17.1869,-7.4898,428.5],[17.1999,-7.4994,499.331],[17.2052,-7.5123,484.2868],[17.198,-7.533,438.1773],[17.1999,-7.5389,439.2655],[17.2061,-7.543,448.9346],[17.2154,-7.5606,448.307],[17.2175,-7.5737,437.8552],[17.2206,-7.5781,433.3858],[17.2326,-7.5855,455.2161],[17.2375,-7.5959,451.7294],[17.2451,-7.5968,466.317],[17.2499,-7.6034,451.8917],[17.257,-7.6019,477.6638],[17.2663,-7.6091,479.1063],[17.2728,-7.611,488.7116],[17.2799,-7.6178,486.9717],[17.2961,-7.6232,493.802],[17.3063,-7.6369,543.6461],[17.3004,-7.647,509.1983],[17.2988,-7.6567,529.2816],[17.2998,-7.6799,516.7605],[17.2925,-7.6859,523.1619],[17.2909,-7.6896,525.9576],[17.2923,-7.6937,542.8679],[17.2988,-7.6965,565.1945],[17.3064,-7.7033,565.0906],[17.3161,-7.7006,568.6075],[17.3195,-7.7062,586.1339],[17.3182,-7.7126,581.822],[17.3198,-7.7163,585.1625],[17.3233,-7.7181,586.87],[17.3303,-7.7168,583.1876],[17.3321,-7.722,587.5096],[17.3275,-7.7415,595.7772],[17.3202,-7.7494,586.5842],[17.3198,-7.7542,589.6985],[17.3214,-7.7585,588.1133],[17.3295,-7.7626,595.6185],[17.3441,-7.7782,597.4612],[17.3513,-7.7813,595.0464],[17.3787,-7.786,594.1102],[17.3853,-7.7893,592.426],[17.3884,-7.7924,599.8469],[17.391,-7.8,604.8771],[17.3855,-7.8135,596.2037],[17.3867,-7.8209,594.9186],[17.3918,-7.8234,596.0383],[17.4047,-7.8195,638.7336],[17.4113,-7.8247,635.8919],[17.4091,-7.8309,595.4014],[17.4027,-7.835,596.974],[17.4016,-7.8387,592.1848],[17.4053,-7.8431,594.9082],[17.4199,-7.8373,596.0485],[17.4261,-7.8376,597.2845],[17.4314,-7.844,597.4304],[17.424,-7.8581,597.4041],[17.4222,-7.865,595.7704],[17.4248,-7.8696,595.812],[17.4333,-7.8744,597.5877],[17.4455,-7.8727,597.8251],[17.4526,-7.8787,601.9422],[17.4555,-7.8883,621.8358],[17.4541,-7.8933,620.6279],[17.4473,-7.9025,597.4559],[17.4439,-7.9115,599.4016],[17.4414,-7.9223,593.4095],[17.4424,-7.9273,596.8616],[17.4529,-7.9366,614.5764],[17.4581,-7.944,609.1465],[17.4708,-7.9469,599.4874],[17.4676,-7.9559,597.0717],[17.4683,-7.9596,609.7831],[17.4725,-7.9616,606.4788],[17.4835,-7.9512,597.8112],[17.4888,-7.9523,599.9432],[17.4909,-7.9585,600.5928],[17.4885,-7.9813,601.104],[17.4893,-7.9934,601.3386],[17.492,-7.9985,601.8994],[17.4838,-8.0,600.6588],[17.4955,-8.0042,601.4852],[17.5075,-8.0132,600.4226],[17.5288,-8.0369,598.5],[17.5326,-8.0439,618.3768],[17.53,-8.0482,602.778],[17.5243,-8.045,601.6835],[17.5172,-8.0465,598.5],[17.514,-8.0581,601.9935],[17.5047,-8.0688,602.1119],[17.5035,-8.0755,602.4277],[17.5055,-8.0828,600.025],[17.5237,-8.0892,602.3334],[17.5283,-8.0929,602.8266],[17.5294,-8.1019,601.9166],[17.543,-8.1154,603.1591],[17.5603,-8.1274,605.5503],[17.583,-8.1291,606.8181],[17.6113,-8.1285,609.1135],[17.6306,-8.1231,610.6528],[17.6442,-8.1151,637.0444],[17.6612,-8.1109,614.3974],[17.6852,-8.1015,615.9896],[17.7191,-8.0971,642.0027],[17.7287,-8.0965,621.1229],[17.7573,-8.1014,632.9543],[17.7837,-8.1128,632.2276],[17.7968,-8.1109,630.1411],[17.8053,-8.108,631.3304],[17.8121,-8.1028,635.2994],[17.8179,-8.0953,639.9666],[17.8252,-8.0915,636.3594],[17.8479,-8.0853,645.9487],[17.8783,-8.0814,645.7923],[17.885,-8.079,650.3666]],
[[16.8095,-6.4807,478.3518],[16.8037,-6.4747,449.7514],[16.8015,-6.4637,496.0816],[16.8134,-6.454,493.4707],[16.8243,-6.4509,540.786],[16.8353,-6.4537,564.3827],[16.8411,-6.461,467.5248],[16.8435,-6.4671,462.6068],[16.8432,-6.4747,477.5606],[16.8395,-6.4826,492.9962],[16.8262,-6.4874,488.0374],[16.8095,-6.4807,478.3518]]]]}}