{"type": "Feature","bbox": [19.4334,-2.5324,24.444,1.7626],"geometry": {"type": "MultiPolygon","coordinates": [[[[19.4422,-1.4045,326.5142],[19.4388,-1.4096,329.2922],[19.4334,-1.4247,327.5531],[19.4344,-1.4366,325.4215],[19.4456,-1.4532,326.7069],[19.4571,-1.4796,334.4944],[19.4756,-1.5419,337.299],[19.4947,-1.5721,332.2613],[19.4946,-1.5859,337.6346],[19.4904,-1.6004,348.8477],[19.4919,-1.608,339.8717],[19.4884,-1.6339,330.4347],[19.489,-1.6434,330.6804],[19.4928,-1.6531,330.3474],[19.5099,-1.6672,332.4185],[19.5133,-1.673,332.0932],[19.5157,-1.6838,330.8692],[19.5152,-1.6957,337.4048],[19.5204,-1.71,335.952],[19.5178,-1.7199,328.9248],[19.519,-1.7381,328.8943],[19.5178,-1.7473,329.1302],[19.5102,-1.7573,320.1436],[19.5068,-1.7681,322.16],[19.5026,-1.7743,321.1413],[19.5313,-1.7954,335.6492],[19.5434,-1.8001,334.6336],[19.6013,-1.802,331.1118],[19.6074,-1.7945,336.8361],[19.6209,-1.7884,330.303],[19.6343,-1.7775,342.2826],[19.6383,-1.7722,346.7216],[19.6444,-1.7579,341.0722],[19.6467,-1.728,339.439],[19.6526,-1.6966,350.2849],[19.6604,-1.6836,377.8506],[19.6652,-1.6817,384.4398],[19.6797,-1.6674,369.9884],[19.6795,-1.6644,364.9294],[19.6852,-1.663,365.1534],[19.6896,-1.6582,365.1642],[19.7122,-1.6131,358.0679],[19.7187,-1.6076,353.3654],[19.7274,-1.6042,357.1664],[19.7297,-1.5897,348.4486],[19.7293,-1.5807,356.9559],[19.7322,-1.5784,349.2523],[19.7492,-1.5862,352.4561],[19.7672,-1.6,346.7215],[19.8007,-1.6367,358.4156],[19.807,-1.6408,352.0385],[19.8176,-1.6431,351.0303],[19.8243,-1.6466,351.8277],[19.8354,-1.6571,365.9327],[19.8396,-1.6635,348.2704],[19.8551,-1.7069,367.0648],[19.8735,-1.7729,368.6309],[19.8975,-1.8497,355.6575],[19.9014,-1.8791,364.289],[19.9137,-1.8918,380.5241],[19.9276,-1.8972,356.7302],[19.933,-1.895,356.3076],[19.9695,-1.8957,352.9772],[20.1215,-1.916,370.9075],[20.1436,-1.9162,366.1945],[20.1535,-1.9191,353.4724],[20.1613,-1.9245,348.3853],[20.1658,-1.9347,347.4515],[20.1761,-1.9451,347.0275],[20.1849,-1.9585,351.6196],[20.1895,-1.9617,365.2146],[20.2235,-1.975,370.9457],[20.2355,-1.9875,384.3438],[20.2419,-1.9992,384.952],[20.2386,-2.0064,372.3337],[20.2395,-2.0176,390.3429],[20.242,-2.0229,386.5874],[20.2474,-2.0289,388.9089],[20.2554,-2.0331,381.7196],[20.268,-2.0369,411.139],[20.2885,-2.0407,402.0927],[20.3157,-2.0528,369.5105],[20.3262,-2.065,417.2439],[20.3476,-2.0808,395.7511],[20.3588,-2.0852,364.7455],[20.3852,-2.1051,419.9456],[20.3977,-2.1195,373.6498],[20.4142,-2.1118,405.1829],[20.4276,-2.0994,386.1678],[20.433,-2.0965,411.432],[20.4708,-2.0895,412.5891],[20.4953,-2.074,405.7272],[20.5074,-2.0716,409.434],[20.5214,-2.0601,415.8857],[20.5379,-2.0348,419.288],[20.5433,-2.0313,425.527],[20.5835,-2.0249,455.119],[20.6136,-2.0178,427.7971],[20.6255,-2.0132,438.1872],[20.6299,-2.005,410.4309],[20.6379,-1.9997,440.4625],[20.6416,-1.9942,432.3853],[20.6465,-1.9731,413.5632],[20.6502,-1.9655,409.3287],[20.6575,-1.9605,382.1453],[20.6686,-1.9785,400.0369],[20.6832,-1.996,388.973],[20.6864,-2.0034,422.011],[20.7107,-2.027,387.8764],[20.7169,-2.036,379.1682],[20.7223,-2.051,373.3839],[20.7311,-2.0639,402.7133],[20.7395,-2.0807,383.4036],[20.7587,-2.0992,406.0275],[20.7675,-2.1119,372.6064],[20.7741,-2.1177,393.3019],[20.7803,-2.1207,384.8642],[20.786,-2.1265,381.2045],[20.7976,-2.1438,394.8128],[20.8112,-2.159,406.0253],[20.8242,-2.1683,385.3165],[20.8319,-2.1766,387.1488],[20.8435,-2.1932,406.2212],[20.8602,-2.203,397.4515],[20.878,-2.2054,412.9501],[20.8887,-2.2146,413.4769],[20.9055,-2.2471,405.2022],[20.921,-2.2656,465.422],[20.9278,-2.2769,477.5412],[20.9298,-2.2902,429.2926],[20.9548,-2.3244,468.3941],[20.9575,-2.3401,456.1841],[20.9609,-2.347,504.5691],[20.9869,-2.3712,447.2909],[21.0118,-2.3838,409.682],[21.015,-2.3922,412.7282],[21.0223,-2.4037,440.3784],[21.0231,-2.4088,402.1548],[21.0233,-2.417,434.4147],[21.0201,-2.4346,415.6746],[21.0198,-2.4653,418.6741],[21.0163,-2.4944,429.7685],[21.0387,-2.4985,441.5532],[21.0543,-2.4937,424.8242],[21.068,-2.4942,424.2471],[21.0845,-2.5046,417.7444],[21.0941,-2.5056,425.0161],[21.122,-2.4965,419.94],[21.1326,-2.4961,437.3248],[21.1383,-2.4978,440.0916],[21.1515,-2.5072,425.8812],[21.1748,-2.5142,495.3086],[21.2023,-2.5128,457.4041],[21.2446,-2.5028,397.8005],[21.251,-2.5054,387.4995],[21.2666,-2.5061,397.8082],[21.2746,-2.5041,403.5406],[21.3038,-2.4842,381.2537],[21.312,-2.4812,393.4252],[21.3227,-2.4801,400.2003],[21.3538,-2.4844,385.8581],[21.371,-2.4776,443.8676],[21.3914,-2.4731,436.6098],[21.4207,-2.4819,434.1208],[21.4277,-2.4889,423.1526],[21.4433,-2.4977,416.0336],[21.4127,-2.4459,416.7005],[21.4078,-2.3402,469.7198],[21.4101,-2.3096,462.686],[21.4165,-2.3163,463.4724],[21.4345,-2.3205,438.6047],[21.4553,-2.3293,410.0852],[21.4658,-2.3384,405.7723],[21.4857,-2.3476,464.3046],[21.4955,-2.35,434.7966],[21.5142,-2.3576,474.4353],[21.5368,-2.3738,443.7193],[21.5558,-2.376,445.7212],[21.5615,-2.3788,436.8789],[21.5665,-2.3834,466.8531],[21.5729,-2.4016,551.2363],[21.5952,-2.4194,447.0369],[21.608,-2.4213,461.37],[21.6341,-2.4312,466.7354],[21.6464,-2.4313,519.5306],[21.653,-2.4426,487.5612],[21.6644,-2.4514,479.2638],[21.6731,-2.4629,475.7803],[21.6811,-2.4689,476.8745],[21.6964,-2.4756,448.3862],[21.7314,-2.4834,489.8591],[21.7554,-2.4913,481.3529],[21.7688,-2.498,528.7978],[21.7761,-2.5063,520.4095],[21.8129,-2.5248,439.7024],[21.831,-2.5304,440.8152],[21.8441,-2.5324,516.1204],[21.8765,-2.5063,476.0489],[21.8927,-2.4899,542.718],[21.9089,-2.4765,464.2857],[21.9266,-2.455,564.4172],[21.9513,-2.4293,503.943],[21.9921,-2.3942,551.5493],[22.0054,-2.3754,559.3586],[22.0115,-2.3625,525.6957],[22.0425,-2.3157,544.2043],[22.0515,-2.3063,507.8447],[22.0612,-2.3008,486.831],[22.0835,-2.3019,490.9704],[22.0886,-2.303,493.2348],[22.0933,-2.3071,487.6649],[22.0945,-2.3222,518.3439],[22.0928,-2.3556,491.9981],[22.0937,-2.3625,496.4477],[22.1304,-2.3985,497.7716],[22.1312,-2.4337,485.3806],[22.1418,-2.4433,484.223],[22.1486,-2.4487,476.1252],[22.1551,-2.4491,478.9125],[22.183,-2.433,465.3509],[22.1917,-2.4289,486.7582],[22.2008,-2.4277,476.7921],[22.206,-2.4242,465.9857],[22.2212,-2.4104,462.4669],[22.2242,-2.4024,468.7167],[22.2205,-2.3949,442.1324],[22.213,-2.3875,462.0055],[22.2126,-2.3716,476.5529],[22.209,-2.3516,486.7988],[22.2101,-2.3408,490.9526],[22.2026,-2.3258,454.8911],[22.1954,-2.2761,499.3302],[22.1914,-2.2683,471.2029],[22.1921,-2.2598,443.4381],[22.188,-2.2476,447.5411],[22.1866,-2.2338,421.8522],[22.1929,-2.217,427.5268],[22.1833,-2.1956,464.0598],[22.1857,-2.1769,414.5115],[22.1818,-2.1645,427.5716],[22.1812,-2.1254,442.6823],[22.1772,-2.1095,437.114],[22.1624,-2.0789,456.6951],[22.1599,-2.0669,468.7567],[22.162,-2.0414,448.6882],[22.1463,-2.0046,433.587],[22.1445,-1.997,439.7024],[22.1471,-1.9731,400.5519],[22.151,-1.9646,394.6786],[22.1513,-1.9352,421.8611],[22.1389,-1.9059,400.2082],[22.1397,-1.8985,447.603],[22.1336,-1.8773,449.8306],[22.1348,-1.8734,438.7495],[22.152,-1.8599,402.4816],[22.1591,-1.8501,467.4742],[22.1688,-1.8469,435.3855],[22.1815,-1.8322,461.3355],[22.1854,-1.8228,472.8837],[22.1954,-1.8109,484.6113],[22.2328,-1.8221,501.1432],[22.3988,-1.8822,418.0921],[22.4804,-1.9142,441.5757],[22.4927,-1.9168,429.3865],[22.498,-1.913,391.6627],[22.5061,-1.8985,414.8774],[22.5227,-1.8603,390.0912],[22.5738,-1.7664,398.715],[22.5775,-1.7614,404.5514],[22.5843,-1.7582,406.5094],[22.5896,-1.7508,422.0193],[22.5928,-1.752,423.9026],[22.5964,-1.7598,400.5177],[22.6074,-1.7695,414.5414],[22.6095,-1.7769,405.5212],[22.6185,-1.7754,417.9318],[22.6225,-1.7771,410.8065],[22.6229,-1.779,414.2454],[22.6188,-1.7856,413.6914],[22.6217,-1.8023,377.5173],[22.6297,-1.8012,418.6586],[22.6381,-1.8156,384.1596],[22.6444,-1.8162,406.2896],[22.6488,-1.8108,399.8784],[22.6551,-1.8097,382.7418],[22.6631,-1.8059,392.0649],[22.6747,-1.8094,398.5981],[22.6903,-1.8083,396.0505],[22.6936,-1.8094,393.4868],[22.7002,-1.8155,420.4828],[22.7115,-1.8206,404.991],[22.716,-1.8211,422.2742],[22.7227,-1.8287,401.4592],[22.7388,-1.8336,410.286],[22.7478,-1.8389,403.9785],[22.7518,-1.8424,401.3138],[22.7593,-1.8555,407.4507],[22.7703,-1.8567,413.7179],[22.7765,-1.8601,426.5587],[22.7801,-1.8601,428.1575],[22.7887,-1.8563,416.6113],[22.7955,-1.8575,419.2275],[22.8078,-1.8611,401.5435],[22.8117,-1.8645,397.2854],[22.8249,-1.8628,426.4304],[22.8306,-1.8665,430.1698],[22.8291,-1.869,425.0425],[22.8304,-1.8749,418.3013],[22.8428,-1.8759,416.1956],[22.8684,-1.8849,414.8661],[22.8705,-1.8831,432.382],[22.878,-1.8817,428.6718],[22.8874,-1.8826,434.3942],[22.8938,-1.8787,408.8138],[22.9025,-1.8795,420.4911],[22.9096,-1.8769,448.8455],[22.9144,-1.8788,452.597],[22.9247,-1.8772,430.9882],[22.9316,-1.8781,409.6827],[22.9366,-1.883,405.3297],[22.9485,-1.8851,446.2404],[22.9608,-1.8945,435.6629],[22.9843,-1.9024,399.127],[22.99,-1.9063,392.5867],[23.0067,-1.9073,417.2152],[23.0156,-1.9114,433.8142],[23.0291,-1.9119,427.2999],[23.0383,-1.9145,393.2358],[23.0732,-1.915,437.3264],[23.1029,-1.9243,444.3902],[23.1077,-1.9282,434.3258],[23.1468,-1.9448,410.8978],[23.1781,-1.9614,454.9023],[23.2014,-1.9792,457.4833],[23.2108,-1.9889,455.9063],[23.2295,-2.0227,418.3758],[23.2377,-2.0333,431.1862],[23.2413,-2.0437,458.2755],[23.2516,-2.0552,431.3199],[23.2555,-2.0625,462.0976],[23.2669,-2.0715,476.644],[23.2744,-2.0798,468.4584],[23.2804,-2.0808,466.9271],[23.2875,-2.0878,456.0924],[23.303,-2.0739,440.7393],[23.3275,-2.0293,438.8976],[23.424,-1.9974,477.8157],[23.4353,-2.0107,483.881],[23.4459,-2.0276,441.3295],[23.4597,-2.0302,457.7372],[23.5855,-1.9904,494.7645],[23.5835,-1.9835,487.1252],[23.5844,-1.9748,498.6794],[23.5821,-1.9635,528.7179],[23.5824,-1.9389,520.2651],[23.586,-1.9373,519.7284],[23.5876,-1.9343,507.8933],[23.5867,-1.9295,501.4297],[23.5879,-1.9249,486.5981],[23.5854,-1.9177,490.9432],[23.5925,-1.8846,530.6361],[23.5884,-1.8718,460.4873],[23.5841,-1.8644,472.7857],[23.5761,-1.8391,487.395],[23.5649,-1.8207,524.0203],[23.5592,-1.8011,479.6501],[23.5623,-1.7933,471.9031],[23.5791,-1.7941,515.9087],[23.6612,-1.8245,448.8339],[23.6781,-1.8217,425.3759],[23.6854,-1.8151,443.9102],[23.6939,-1.7907,422.3409],[23.7025,-1.7812,445.8518],[23.714,-1.7735,499.421],[23.7676,-1.7651,436.3773],[23.7773,-1.7598,426.9175],[23.7973,-1.7409,454.5898],[23.8112,-1.7356,446.1838],[23.8743,-1.734,470.5461],[23.9182,-1.7351,483.8004],[23.947,-1.739,477.2216],[23.9547,-1.737,463.3326],[23.9558,-1.7158,455.5717],[23.9649,-1.7089,468.609],[23.9677,-1.6983,464.1588],[23.9879,-1.6975,521.6137],[23.9991,-1.7032,519.9695],[24.0107,-1.7026,495.5664],[24.0197,-1.7046,517.7874],[24.0279,-1.7028,520.3506],[24.0409,-1.7079,498.127],[24.0576,-1.7047,494.9819],[24.0853,-1.7091,528.4928],[24.091,-1.7052,524.0588],[24.0962,-1.7047,553.3705],[24.1024,-1.7091,547.8444],[24.1216,-1.7049,582.218],[24.125,-1.7061,576.4292],[24.1332,-1.7142,559.9493],[24.1476,-1.7149,515.2623],[24.1616,-1.7089,490.8329],[24.1669,-1.7089,498.6711],[24.1701,-1.7126,494.4785],[24.1883,-1.7126,477.9803],[24.1959,-1.7167,426.5983],[24.2672,-1.7091,496.3532],[24.3705,-1.7145,482.5605],[24.4397,-1.7165,583.3199],[24.444,-1.7153,563.1646],[24.4228,-1.6677,586.0637],[24.4056,-1.6524,546.1352],[24.4092,-1.6258,486.0133],[24.3853,-1.4214,588.3845],[24.3684,-1.3934,503.3122],[24.3599,-1.3248,481.4318],[24.2657,-1.3251,518.6622],[24.126,-1.3228,451.2289],[24.0719,-1.3074,428.6236],[24.0603,-1.3187,425.17],[24.0468,-1.3267,450.1274],[24.0244,-1.3317,431.8598],[24.0176,-1.335,417.3322],[24.0102,-1.3428,404.2291],[24.005,-1.3517,408.3142],[23.9984,-1.3531,410.6591],[23.9748,-1.3524,419.3548],[23.9689,-1.3563,415.0262],[23.9639,-1.3655,414.329],[23.9577,-1.3701,441.2393],[23.9554,-1.3742,443.6527],[23.9344,-1.3788,405.5185],[23.9093,-1.3389,468.4911],[23.9054,-1.3193,466.7189],[23.8983,-1.3109,405.5803],[23.8909,-1.3095,447.2148],[23.8503,-1.2886,404.6486],[23.8417,-1.2788,436.3872],[23.8367,-1.2467,423.513],[23.8224,-1.237,407.7912],[23.8037,-1.2145,410.991],[23.8043,-1.1921,451.6988],[23.8,-1.1879,427.2805],[23.7681,-1.1751,448.3],[23.739,-1.1601,436.4385],[23.7287,-1.1602,438.556],[23.7024,-1.1502,419.346],[23.6775,-1.1491,459.4639],[23.6582,-1.1534,450.9658],[23.651,-1.1492,449.9377],[23.6483,-1.138,401.5068],[23.6706,-1.0749,439.7174],[23.6655,-1.0469,433.8251],[23.6385,-1.0106,421.4807],[23.5812,-1.0094,446.609],[23.5609,-0.9968,434.535],[23.5097,-0.9858,443.3411],[23.4693,-0.9537,405.1778],[23.4392,-0.9272,427.0479],[23.4016,-0.9007,429.3301],[23.3855,-0.8979,448.9357],[23.3687,-0.8672,425.2558],[23.3558,-0.8532,424.3584],[23.344,-0.8425,423.6964],[23.3081,-0.8197,399.1487],[23.2986,-0.7904,404.8205],[23.2823,-0.7824,403.9546],[23.2553,-0.7611,406.4406],[23.257,-0.7513,423.8398],[23.2777,-0.7456,408.193],[23.2968,-0.7483,400.7578],[23.3096,-0.7574,399.6508],[23.3131,-0.7568,400.4967],[23.3151,-0.751,403.2136],[23.3208,-0.7453,420.2586],[23.3227,-0.7384,418.4782],[23.3222,-0.7315,413.5161],[23.327,-0.7198,405.3815],[23.3284,-0.703,411.8707],[23.3335,-0.6915,422.4977],[23.3364,-0.6881,408.1228],[23.3472,-0.6833,412.3875],[23.3712,-0.6748,412.3169],[23.3824,-0.6728,406.4461],[23.3874,-0.6677,409.4661],[23.3931,-0.6556,413.6929],[23.3977,-0.6498,407.4204],[23.4271,-0.6492,410.9002],[23.4409,-0.6421,423.3997],[23.4965,-0.6245,434.0321],[23.5172,-0.6202,428.5902],[23.5344,-0.6128,421.664],[23.5393,-0.5946,434.0031],[23.5284,-0.5862,439.4907],[23.5024,-0.5702,426.0732],[23.4744,-0.5443,415.5509],[23.4567,-0.4919,401.6406],[23.455,-0.4524,403.2411],[23.4459,-0.4473,402.4444],[23.4315,-0.4321,404.177],[23.4235,-0.4186,413.1585],[23.4187,-0.4135,408.969],[23.4112,-0.4091,419.0166],[23.3987,-0.411,411.1497],[23.3717,-0.4235,405.4698],[23.356,-0.4231,404.9311],[23.3496,-0.426,404.6094],[23.3384,-0.4347,415.7652],[23.3281,-0.4386,408.1686],[23.3101,-0.4391,403.7834],[23.2895,-0.4505,398.0248],[23.2448,-0.4575,397.6108],[23.2158,-0.4752,429.1461],[23.1954,-0.4972,406.0841],[23.1769,-0.5063,407.9482],[23.1591,-0.5238,411.1848],[23.1262,-0.5366,409.3382],[23.1175,-0.5444,410.3491],[23.107,-0.5572,418.2481],[23.1008,-0.5595,412.8125],[23.0981,-0.548,406.8992],[23.099,-0.5406,422.0914],[23.1075,-0.5227,414.2643],[23.1091,-0.5101,394.8184],[23.1137,-0.4979,411.537],[23.1137,-0.4881,412.7107],[23.1186,-0.4663,414.7902],[23.1289,-0.4488,417.4401],[23.1266,-0.438,414.8341],[23.1351,-0.4121,419.0691],[23.1107,-0.4072,420.2361],[23.0928,-0.4058,425.1292],[22.9436,-0.4037,408.5851],[22.9665,-0.3761,400.168],[22.9786,-0.3656,398.8847],[22.9852,-0.3544,406.683],[22.9923,-0.3505,407.4244],[22.9987,-0.3406,425.862],[23.0049,-0.3363,417.1271],[23.0102,-0.3289,417.1609],[23.0248,-0.3179,412.015],[23.0316,-0.3159,418.6851],[23.0419,-0.3095,429.7007],[23.0538,-0.2989,421.4276],[23.0579,-0.2976,423.8877],[23.0846,-0.2772,428.1407],[23.1384,-0.2895,452.7099],[23.1922,-0.2872,434.0161],[23.2756,-0.2952,425.5529],[23.277,-0.2854,428.0027],[23.2799,-0.2819,432.0219],[23.2884,-0.2785,419.9865],[23.2925,-0.2741,419.7274],[23.3053,-0.2542,422.0249],[23.3197,-0.2358,431.0947],[23.3275,-0.2186,442.7067],[23.3565,-0.1877,437.2839],[23.3474,-0.1707,450.547],[23.3458,-0.1638,468.8515],[23.3214,-0.1429,479.083],[23.3082,-0.1238,459.5443],[23.2934,-0.1208,463.1436],[23.2868,-0.1123,490.6877],[23.2804,-0.1093,490.7695],[23.2631,-0.0893,472.6703],[23.2549,-0.0849,500.378],[23.2426,-0.0741,519.6608],[23.2383,-0.0722,483.0343],[23.2294,-0.0729,464.8559],[23.2241,-0.0692,456.1693],[23.1584,0.0,424.885],[23.1535,0.0075,439.2873],[23.1411,0.0118,420.6064],[23.0935,0.0531,428.3639],[23.0869,0.0647,428.3489],[23.0682,0.0869,433.6946],[23.0526,0.1138,454.3033],[23.049,0.1509,443.4481],[23.0451,0.1573,486.979],[23.0378,0.1639,513.7206],[23.0348,0.1733,537.7116],[23.0315,0.1772,538.9271],[23.0292,0.1788,535.8635],[23.0181,0.1794,554.5322],[23.0139,0.1819,533.8965],[23.0057,0.191,523.3278],[22.996,0.2066,536.0948],[22.9868,0.2157,519.5018],[22.9773,0.252,439.4347],[22.9715,0.2654,457.7405],[22.9563,0.2805,512.4437],[22.9413,0.308,445.3509],[22.9302,0.3369,527.8872],[22.9301,0.3442,531.1668],[22.9588,0.3534,488.3759],[22.9629,0.358,475.1926],[22.9679,0.3603,475.0016],[22.9712,0.3688,495.1688],[22.9694,0.3775,541.3381],[22.9698,0.3844,542.0457],[22.9585,0.4048,497.4152],[22.9527,0.4117,516.8864],[22.9522,0.4149,525.0313],[22.9561,0.4225,517.555],[22.9523,0.4409,471.6493],[22.9534,0.4491,460.0677],[22.952,0.4549,472.7071],[22.9423,0.4642,498.3329],[22.9319,0.4869,522.6225],[22.9275,0.5025,539.1578],[22.9362,0.5363,439.4204],[22.9354,0.5432,444.0876],[22.9372,0.5515,433.5513],[22.9467,0.5683,440.7652],[22.9371,0.5738,440.4456],[22.937,0.5857,439.1043],[22.9324,0.5912,445.1996],[22.9246,0.593,441.3529],[22.9161,0.6033,426.6131],[22.9102,0.6056,419.8488],[22.9035,0.6172,444.8714],[22.8963,0.6257,432.3297],[22.8876,0.6302,428.604],[22.8752,0.6421,442.1133],[22.8745,0.6506,440.4367],[22.871,0.6625,415.4976],[22.8634,0.671,443.3837],[22.8461,0.6989,448.7203],[22.8502,0.7031,443.9709],[22.8499,0.7054,444.6654],[22.8463,0.7076,441.7719],[22.8478,0.712,445.7723],[22.8453,0.7148,447.1778],[22.848,0.724,425.4128],[22.8518,0.7298,419.7369],[22.8495,0.7373,437.8923],[22.8536,0.7438,434.9971],[22.8533,0.7481,432.877],[22.8498,0.7546,436.5918],[22.8528,0.7587,434.5007],[22.85,0.7642,421.6556],[22.8575,0.7771,407.34],[22.8535,0.7879,432.8443],[22.8546,0.7978,408.0988],[22.849,0.8106,428.7827],[22.8494,0.8166,424.7849],[22.8478,0.8191,425.3343],[22.8487,0.8253,420.7256],[22.8391,0.8299,428.5076],[22.84,0.8349,424.0592],[22.8309,0.8519,436.6112],[22.8329,0.8616,407.4509],[22.8286,0.8743,433.9146],[22.8263,0.8747,435.1403],[22.8223,0.8822,438.0477],[22.8208,0.8946,405.0957],[22.8219,0.9017,423.8093],[22.8328,0.913,428.6431],[22.8319,0.9156,425.9839],[22.8264,0.9153,437.9352],[22.8239,0.9176,436.4897],[22.8246,0.9203,436.8843],[22.8204,0.9279,413.7377],[22.8227,0.9311,425.3218],[22.8231,0.9364,432.5714],[22.8203,0.9419,430.1126],[22.8226,0.9463,421.0846],[22.8223,0.9555,410.2793],[22.8259,0.9603,403.4539],[22.8238,0.9643,417.1302],[22.8233,0.9721,419.3964],[22.8256,0.9764,408.522],[22.8181,0.9913,408.9103],[22.8117,0.997,413.588],[22.805,1.0062,410.4621],[22.7976,1.0245,403.1325],[22.7928,1.0261,405.4302],[22.7852,1.0373,406.0454],[22.7836,1.0442,402.0135],[22.7889,1.0608,384.2855],[22.7884,1.0659,392.2018],[22.7836,1.0677,399.2275],[22.7824,1.0752,398.2445],[22.7748,1.0851,400.5735],[22.7787,1.0892,397.4577],[22.7743,1.0966,398.5124],[22.7681,1.0958,410.5828],[22.7592,1.0988,400.7411],[22.7495,1.1141,402.03],[22.749,1.1247,400.6332],[22.7402,1.1334,418.4365],[22.7413,1.143,405.385],[22.7365,1.1474,416.5064],[22.7365,1.151,416.94],[22.7403,1.1626,389.531],[22.735,1.1731,392.3943],[22.7272,1.1698,397.1877],[22.7235,1.1716,395.689],[22.721,1.1801,401.5861],[22.7257,1.1848,389.2861],[22.726,1.1873,399.1159],[22.718,1.187,409.009],[22.712,1.1964,410.1285],[22.7149,1.2038,392.3931],[22.7142,1.2086,395.0977],[22.7107,1.2122,393.5318],[22.7055,1.2125,403.5149],[22.7027,1.2143,401.922],[22.7008,1.22,400.8746],[22.6906,1.2204,410.4356],[22.6871,1.2231,396.4378],[22.6905,1.2274,400.6786],[22.6875,1.2314,412.8322],[22.6818,1.2332,412.9173],[22.6831,1.2371,414.8798],[22.6808,1.241,415.769],[22.6868,1.2424,410.8111],[22.6865,1.2443,406.1694],[22.6815,1.2461,414.8727],[22.6748,1.2513,413.7692],[22.6807,1.2613,402.6728],[22.6814,1.2652,403.8393],[22.6784,1.2691,396.5539],[22.6729,1.2711,405.6421],[22.6735,1.2764,402.1504],[22.6694,1.2803,389.6055],[22.6695,1.2888,393.1575],[22.6586,1.2908,393.808],[22.6544,1.2935,398.5414],[22.6537,1.2963,394.5139],[22.6553,1.3,392.9731],[22.6498,1.3038,394.6628],[22.6491,1.307,392.4827],[22.655,1.3121,390.8733],[22.6552,1.316,394.0449],[22.6476,1.3217,400.1796],[22.6467,1.3252,398.4796],[22.6483,1.3284,391.2928],[22.6469,1.3302,391.3186],[22.6386,1.335,408.8711],[22.6379,1.3387,392.8628],[22.6399,1.3442,396.5992],[22.6273,1.3513,408.5154],[22.63,1.3568,398.079],[22.6245,1.3671,396.3319],[22.6213,1.3698,393.3648],[22.6176,1.3648,396.2366],[22.6066,1.3674,401.6591],[22.6046,1.3709,402.2114],[22.6052,1.3746,406.0204],[22.5988,1.3789,403.0038],[22.5988,1.3853,403.5717],[22.5944,1.3885,407.1575],[22.5944,1.3927,402.4409],[22.590699999999998,1.3963,400.3403],[22.5861,1.3984,393.2504],[22.5779,1.3951,407.2256],[22.5721,1.4031,405.6153],[22.5627,1.4095,399.3626],[22.5616,1.4127,396.1845],[22.5627,1.417,390.2093],[22.5597,1.4207,393.1103],[22.5603,1.4251,389.4995],[22.5569,1.4287,391.4406],[22.55,1.4305,391.7428],[22.5479,1.4347,390.451],[22.5413,1.436,376.2295],[22.5399,1.4387,380.8042],[22.5351,1.4412,389.321],[22.5275,1.4412,383.4365],[22.5241,1.4446,384.7084],[22.5229,1.4483,384.5486],[22.5145,1.4468,386.5896],[22.5105,1.4551,380.4156],[22.5025,1.4603,385.1044],[22.4979,1.4612,381.7247],[22.4952,1.4564,381.8208],[22.4925,1.4557,390.5262],[22.4916,1.4593,387.6118],[22.4895,1.4609,382.2076],[22.484,1.4616,385.1203],[22.484,1.4666,379.983],[22.4803,1.4685,380.8106],[22.4794,1.4726,387.8134],[22.4768,1.4739,391.1143],[22.4757,1.4682,381.1623],[22.4739,1.4663,382.8842],[22.4691,1.4658,394.8243],[22.4631,1.4734,388.0327],[22.4651,1.4796,371.4045],[22.463,1.484,378.811],[22.4612,1.4824,367.3885],[22.4601,1.4768,389.0897],[22.4572,1.4738,383.7233],[22.4485,1.4756,385.3054],[22.4446,1.4726,389.2739],[22.4419,1.4758,395.3016],[22.4345,1.4748,406.6529],[22.4297,1.4819,387.3167],[22.4231,1.4749,399.3832],[22.4197,1.4756,386.8382],[22.4132,1.4839,380.5302],[22.4066,1.4877,381.1628],[22.4,1.4851,385.929],[22.3956,1.486,384.6567],[22.3926,1.4895,385.7574],[22.3965,1.4971,371.5006],[22.3848,1.4991,385.6115],[22.3851,1.4903,387.1006],[22.3828,1.4876,388.0038],[22.3805,1.4873,388.8161],[22.3776,1.4893,388.1441],[22.3718,1.4989,383.0834],[22.3645,1.5015,383.8129],[22.3626,1.4987,381.6754],[22.3537,1.4981,385.7324],[22.3508,1.4908,385.9539],[22.3465,1.4903,384.9688],[22.3373,1.4946,388.2085],[22.3357,1.4999,385.6911],[22.3331,1.5024,382.9969],[22.3272,1.5003,383.4732],[22.3238,1.5034,376.5344],[22.3224,1.4988,389.3579],[22.3199,1.4984,388.9611],[22.3167,1.4933,380.2761],[22.3113,1.4928,380.5165],[22.3,1.4987,388.7196],[22.2905,1.4954,390.2809],[22.2877,1.5018,392.2474],[22.2854,1.5025,388.1892],[22.2813,1.499,391.661],[22.2772,1.4997,390.0451],[22.2739,1.5079,387.282],[22.27,1.5111,387.528],[22.2634,1.5106,389.0898],[22.2597,1.5143,387.3185],[22.2513,1.5119,386.6385],[22.2473,1.5264,386.5797],[22.2543,1.537,376.1195],[22.2572,1.5483,378.0455],[22.2534,1.565,397.2696],[22.2536,1.571,401.48],[22.2619,1.5849,383.8837],[22.2621,1.5945,390.7375],[22.2654,1.6038,399.9582],[22.2672,1.6185,400.0034],[22.2648,1.6281,409.5406],[22.2684,1.6408,387.8263],[22.2767,1.6531,389.6044],[22.2848,1.672,389.4241],[22.3091,1.6815,451.7645],[22.3338,1.6959,427.9685],[22.3724,1.7107,424.6578],[22.3341,1.7527,443.1412],[22.324,1.7574,477.2974],[22.3027,1.7507,465.7194],[22.2812,1.738,423.7724],[22.2713,1.7377,457.8956],[22.198,1.7592,417.666],[22.1778,1.7619,438.6848],[22.1274,1.7626,420.276],[22.0726,1.7614,443.513],[22.0519,1.7592,457.4472],[21.9963,1.7406,487.038],[21.9483,1.7223,449.705],[21.9218,1.7164,447.7285],[21.92,1.7146,438.2826],[21.8981,1.7117,432.2287],[21.8937,1.7096,446.7785],[21.8906,1.7038,457.7523],[21.8757,1.7012,477.8589],[21.8696,1.5554,390.5641],[21.8664,1.4206,486.5015],[21.8621,1.3952,458.2566],[21.861,1.3509,452.3529],[21.8631,1.3322,450.175],[21.8658,1.3289,441.9068],[21.8834,1.3237,397.0132],[21.891,1.3181,395.243],[21.8982,1.3093,431.054],[21.9054,1.2977,443.6093],[21.9133,1.2773,379.6509],[21.9347,1.232,382.3693],[21.9377,1.1429,408.6063],[22.0173,1.1231,402.8744],[22.0447,1.0939,407.0763],[22.054,1.0798,390.3635],[22.0662,1.0556,396.3016],[22.0681,1.0467,394.3607],[22.0779,1.0338,405.7495],[22.0859,1.0123,412.2895],[22.1022,0.957,449.2076],[22.1059,0.928,426.5869],[22.0902,0.935,446.2458],[22.0377,0.9464,403.3057],[22.0106,0.9502,437.9733],[21.9671,0.9511,463.8786],[21.9508,0.9451,453.9835],[21.91,0.9162,455.5345],[21.8636,0.8651,440.3767],[21.7957,0.8581,440.7965],[21.7636,0.8888,409.2484],[21.7425,0.8985,392.2791],[21.7277,0.9027,391.8279],[21.7094,0.9002,385.694],[21.6598,0.8862,442.8205],[21.6581,0.8825,425.532],[21.6644,0.8659,418.8045],[21.666,0.845,425.2322],[21.6642,0.8196,427.6526],[21.6486,0.757,394.5024],[21.6339,0.7256,410.1392],[21.6059,0.7277,422.4883],[21.5808,0.7446,399.8873],[21.5698,0.7481,400.3011],[21.5312,0.7472,376.1746],[21.5113,0.7623,416.274],[21.5042,0.7722,400.6423],[21.4773,0.7939,434.5237],[21.4598,0.8035,423.4668],[21.4495,0.8041,389.8657],[21.4128,0.8002,411.5335],[21.4057,0.8029,403.3369],[21.3895,0.8165,430.7662],[21.3419,0.8188,405.9011],[21.2992,0.8479,410.3199],[21.2796,0.853,405.9315],[21.233,0.8586,400.562],[21.2113,0.8777,414.971],[21.1745,0.888,413.075],[21.1601,0.8961,399.9221],[21.1302,0.9174,427.9064],[21.1137,0.9098,427.375],[21.0454,0.9384,387.1583],[21.021,0.9508,365.9556],[21.011,0.958,387.4125],[21.0048,0.9636,368.1373],[20.9994,0.9752,368.4035],[20.9981,0.981,370.6133],[20.998,1.0005,410.7745],[20.9991,1.0084,421.2967],[21.008,1.0343,433.1049],[21.0227,1.0617,444.1764],[21.0145,1.0795,395.8466],[21.0214,1.1002,424.1424],[21.0143,1.1802,359.0988],[21.0056,1.191,360.4043],[21.0024,1.1923,357.5143],[20.9999,1.1875,349.1097],[20.9971,1.1879,364.0701],[20.9899,1.1816,362.9001],[20.9842,1.1839,356.7691],[20.975,1.1836,361.6754],[20.9668,1.1798,359.9768],[20.9568,1.1795,360.4891],[20.9527,1.1735,355.6519],[20.949,1.1774,361.2092],[20.9468,1.1723,360.695],[20.939,1.1722,362.9147],[20.9358,1.1756,361.6403],[20.9285,1.1767,360.3402],[20.9253,1.179,361.0936],[20.9202,1.1783,347.4587],[20.9148,1.1729,362.9651],[20.91,1.1707,361.4495],[20.906,1.1714,358.2567],[20.9079,1.1768,362.7688],[20.896,1.178,356.811],[20.8929,1.175,359.7304],[20.891,1.1766,360.8947],[20.8872,1.175,360.4199],[20.8869,1.1787,357.3686],[20.8816,1.1814,352.0115],[20.8798,1.1818,350.268],[20.8766,1.179,359.4709],[20.8709,1.1786,361.8862],[20.8514,1.1862,360.1529],[20.8437,1.1794,352.7565],[20.8401,1.181,356.7761],[20.8344,1.1791,360.356],[20.8309,1.1798,359.3977],[20.8268,1.1777,359.1748],[20.8232,1.1719,353.614],[20.818,1.1709,355.1546],[20.8161,1.1732,355.1887],[20.812,1.1741,345.5241],[20.8072,1.1717,359.2457],[20.8038,1.1749,342.683],[20.8058,1.1765,345.3987],[20.8054,1.1786,360.8392],[20.8028,1.179,357.4748],[20.8008,1.176,358.9153],[20.7923,1.178,358.5834],[20.7847,1.1701,340.2748],[20.7822,1.1703,354.7762],[20.7816,1.1743,359.4789],[20.7768,1.1744,360.2144],[20.7725,1.1703,356.7711],[20.77,1.1698,358.2682],[20.7636,1.1745,356.064],[20.7606,1.175,357.0083],[20.7528,1.182,350.6606],[20.7436,1.184,355.335],[20.7341,1.1832,356.0819],[20.7284,1.1779,359.1667],[20.7174,1.178,359.2103],[20.7131,1.1741,345.1521],[20.7104,1.175,351.8938],[20.7067,1.1796,357.7173],[20.6923,1.1797,357.8875],[20.6909,1.1824,357.2611],[20.6801,1.1839,348.3301],[20.6661,1.193,356.1638],[20.6602,1.1909,357.2351],[20.6531,1.1947,349.4438],[20.6475,1.2018,338.6612],[20.6418,1.2047,356.2624],[20.6395,1.2095,354.5626],[20.6317,1.2088,355.5218],[20.6272,1.203,346.3369],[20.6238,1.2034,347.1918],[20.621,1.2086,355.5116],[20.6157,1.2091,354.1919],[20.6137,1.2077,356.376],[20.6073,1.2101,350.3488],[20.6011,1.2094,349.7575],[20.5986,1.213,353.3421],[20.5878,1.215,345.3911],[20.5866,1.223,353.8288],[20.583,1.2202,346.5502],[20.5795,1.2237,356.7609],[20.575,1.2213,347.4113],[20.574,1.2287,357.4095],[20.5594,1.2285,356.857],[20.5559,1.2356,358.078],[20.5049,1.1427,396.562],[20.4881,1.1088,388.248],[20.4794,1.1041,376.8065],[20.4756,1.1001,385.9884],[20.4702,1.0909,390.9337],[20.4584,1.0774,361.2674],[20.4478,1.0732,373.8088],[20.4378,1.0618,358.6639],[20.4348,1.0402,356.6188],[20.4324,1.0347,356.2135],[20.4312,1.0151,354.1207],[20.4326,0.9657,344.7566],[20.4402,0.958,350.8643],[20.4373,0.9441,347.9417],[20.4337,0.9402,343.6347],[20.4329,0.934,350.082],[20.4279,0.9305,344.4407],[20.4209,0.9187,353.2813],[20.4141,0.9108,364.2878],[20.4052,0.8933,359.2348],[20.404,0.8735,358.5181],[20.4,0.8585,360.3605],[20.406,0.8328,355.8274],[20.4056,0.7691,387.4602],[20.4099,0.7324,366.6835],[20.4201,0.7091,386.6291],[20.421,0.701,392.4283],[20.4255,0.695,387.7971],[20.4301,0.6734,381.6819],[20.4271,0.6641,371.9436],[20.4003,0.6277,395.6205],[20.3713,0.5927,375.0467],[20.3585,0.5743,397.9565],[20.3565,0.5673,392.9169],[20.357,0.5524,382.7729],[20.3638,0.535,385.8275],[20.3588,0.5122,382.0272],[20.3523,0.4995,380.0911],[20.3482,0.4953,379.8454],[20.3416,0.4918,361.5503],[20.3383,0.4858,361.7732],[20.3333,0.4607,351.9169],[20.3207,0.4425,368.8957],[20.3118,0.4387,377.7299],[20.3,0.4276,367.6768],[20.3026,0.4191,371.1157],[20.2977,0.4085,364.8691],[20.3017,0.3965,351.808],[20.2951,0.3751,344.3822],[20.3399,0.3595,342.9605],[20.3535,0.3479,372.1114],[20.3578,0.33,374.3979],[20.3619,0.3241,379.2764],[20.3725,0.3161,371.9127],[20.3762,0.3095,352.0531],[20.379,0.3082,372.235],[20.379,0.3054,371.9244],[20.3919,0.2956,382.9843],[20.3985,0.2929,374.9294],[20.4225,0.2629,372.9261],[20.4265,0.2544,369.3884],[20.4306,0.2503,363.2056],[20.4471,0.242,366.3596],[20.4685,0.2017,367.974],[20.4952,0.176,365.2023],[20.5069,0.1665,374.0699],[20.5173,0.1606,376.5246],[20.531,0.1559,373.8214],[20.5483,0.1542,376.8109],[20.5633,0.145,381.7919],[20.571,0.1425,383.7382],[20.5747,0.1381,377.7478],[20.5767,0.1317,386.5687],[20.5761,0.1173,397.5278],[20.5701,0.1057,378.6544],[20.564,0.0992,367.0334],[20.5372,0.0853,372.6913],[20.4757,0.0456,372.0432],[20.4654,0.0351,352.1799],[20.4637,0.0302,367.1591],[20.4648,0.0143,351.6594],[20.4682,0.0092,363.7558],[20.4722,0.0063,370.6319],[20.5279,0.0038,372.1366],[20.562,-0.0016,376.2872],[20.5666,-0.0041,371.4759],[20.5764,-0.0187,353.7394],[20.5543,-0.0519,350.8644],[20.549,-0.0635,350.7067],[20.5275,-0.0627,349.7999],[20.4734,-0.0711,343.6135],[20.4579,-0.0749,347.1887],[20.4556,-0.0706,343.5079],[20.4476,-0.0724,347.3636],[20.4369,-0.0778,351.3485],[20.4247,-0.0897,338.6954],[20.4135,-0.0933,340.6036],[20.3996,-0.1029,339.9985],[20.387,-0.1079,347.0961],[20.3806,-0.1122,348.9669],[20.3746,-0.1193,349.4371],[20.3469,-0.1373,354.2717],[20.339,-0.1629,348.7756],[20.3355,-0.1944,353.136],[20.3388,-0.2244,329.7039],[20.3437,-0.2424,329.6253],[20.3389,-0.249,329.5256],[20.3307,-0.2419,330.2589],[20.3259,-0.2402,330.6744],[20.3218,-0.2411,331.1938],[20.3154,-0.2471,333.426],[20.3108,-0.2546,334.9312],[20.3043,-0.2594,335.9443],[20.2948,-0.2603,333.254],[20.2882,-0.2584,343.7954],[20.2727,-0.245,339.1016],[20.2686,-0.2445,333.7903],[20.2572,-0.2527,342.3354],[20.2535,-0.2587,333.2672],[20.2505,-0.2683,329.8202],[20.2443,-0.2745,329.6978],[20.2358,-0.2735,330.806],[20.2299,-0.2712,330.3007],[20.2267,-0.2677,330.2999],[20.2229,-0.2505,333.5154],[20.2248,-0.2445,336.3109],[20.2199,-0.2396,333.1776],[20.2198,-0.2322,331.3276],[20.2135,-0.2217,335.6705],[20.2064,-0.2198,330.5621],[20.196,-0.2085,330.308],[20.1922,-0.2016,331.9128],[20.1897,-0.1913,344.2493],[20.1923,-0.1814,353.7561],[20.2068,-0.1558,346.3913],[20.2091,-0.1409,348.3339],[20.2082,-0.1344,355.234],[20.1989,-0.1227,352.8242],[20.194,-0.1199,352.7894],[20.1887,-0.1199,358.5351],[20.1734,-0.1258,360.6655],[20.1638,-0.1243,354.3091],[20.1442,-0.118,352.5678],[20.1387,-0.1182,352.3033],[20.1259,-0.1236,366.0936],[20.1173,-0.1224,373.7009],[20.0865,-0.1253,366.1551],[20.0787,-0.1273,357.5953],[20.0728,-0.1323,347.5908],[20.0702,-0.1382,353.5747],[20.0706,-0.1428,346.175],[20.0729,-0.1463,345.3534],[20.0788,-0.1459,344.0366],[20.0802,-0.1427,345.5729],[20.085,-0.1473,348.6562],[20.0904,-0.1494,344.9728],[20.0941,-0.1538,346.7244],[20.0908,-0.1677,350.5128],[20.0833,-0.1714,346.1343],[20.0746,-0.1723,342.7382],[20.0675,-0.1685,344.6869],[20.0501,-0.1496,342.5764],[20.0394,-0.1468,340.9852],[20.025,-0.1506,341.2025],[20.0202,-0.1504,341.9131],[20.0145,-0.146,339.6582],[20.0113,-0.14,343.1052],[20.0073,-0.1246,347.3932],[20.0026,-0.1167,349.7997],[19.9958,-0.11,333.0674],[19.9878,-0.1075,336.0748],[19.9697,-0.1074,343.9981],[19.9636,-0.1048,344.6484],[19.9545,-0.105,333.773],[19.9472,-0.1012,336.2476],[19.9422,-0.1019,327.0534],[19.9321,-0.1092,333.0811],[19.9227,-0.1098,331.8073],[19.9182,-0.107,332.9669],[19.9176,-0.0979,337.1736],[19.91,-0.0967,350.7651],[19.9041,-0.0932,351.1809],[19.897,-0.0938,348.0873],[19.8907,-0.0911,336.6632],[19.8662,-0.096,340.0332],[19.864,-0.0975,340.5716],[19.8497,-0.1225,337.8597],[19.8358,-0.1203,341.5853],[19.8273,-0.1251,346.693],[19.8245,-0.1311,347.7621],[19.8252,-0.1361,342.8214],[19.8282,-0.1391,335.4013],[19.833,-0.1362,340.8109],[19.8373,-0.1375,337.9037],[19.823,-0.1666,330.3433],[19.8318,-0.1699,330.6225],[19.8432,-0.1778,327.9757],[19.8539,-0.1774,325.3039],[19.8585,-0.1804,323.538],[19.8602,-0.1956,324.7524],[19.8638,-0.1995,325.2383],[19.8716,-0.2005,324.9087],[19.875,-0.1991,325.0697],[19.8838,-0.186,325.4325],[19.886,-0.1855,325.3969],[19.8883,-0.1885,325.5541],[19.893,-0.2049,325.7727],[19.898,-0.2057,325.213],[19.9017,-0.2029,325.6629],[19.9077,-0.1896,335.4995],[19.9118,-0.1901,334.4595],[19.9181,-0.206,324.9323],[19.9208,-0.2175,332.2052],[19.9287,-0.229,335.1353],[19.9275,-0.2361,335.7819],[19.9227,-0.2425,331.8029],[19.9254,-0.2485,329.0609],[19.9242,-0.2556,340.2163],[19.9254,-0.2577,338.1411],[19.9333,-0.2585,326.4835],[19.9393,-0.2615,320.4422],[19.9435,-0.2739,329.206],[19.9602,-0.2756,323.8186],[19.9658,-0.283,328.4676],[19.9683,-0.2841,327.3976],[19.9748,-0.2762,328.2189],[19.9784,-0.2782,327.5725],[19.987,-0.2932,333.9852],[19.9911,-0.2971,330.2144],[19.9952,-0.2967,332.8326],[19.9952,-0.3011,330.5771],[20.0109,-0.3113,328.5151],[20.0166,-0.3125,328.2021],[20.0257,-0.3068,328.7876],[20.0307,-0.3068,329.1595],[20.0382,-0.3116,329.509],[20.0408,-0.3116,329.4213],[20.0439,-0.3112,329.6349],[20.0497,-0.3067,330.0247],[20.0524,-0.3071,329.8992],[20.0542,-0.312,330.4102],[20.0548,-0.3253,330.7164],[20.0673,-0.3348,331.9708],[20.0643,-0.3426,331.7982],[20.0701,-0.3501,331.0993],[20.0715,-0.3637,331.4913],[20.0863,-0.3737,330.7964],[20.1088,-0.3924,333.6494],[20.1114,-0.4094,338.0237],[20.1054,-0.4188,338.2234],[20.0999,-0.4388,335.9959],[20.0928,-0.4452,328.2488],[20.0962,-0.458,330.5928],[20.0941,-0.4667,327.5455],[20.0974,-0.4815,330.4723],[20.101,-0.4838,331.4681],[20.1095,-0.4797,333.212],[20.1142,-0.4848,336.9976],[20.1211,-0.4883,337.9236],[20.1194,-0.4956,336.4743],[20.1205,-0.506,335.9338],[20.1235,-0.5099,337.077],[20.1298,-0.5152,336.6785],[20.1414,-0.5212,336.1309],[20.1464,-0.5263,337.5546],[20.1555,-0.5285,337.7297],[20.1535,-0.5372,337.9149],[20.155,-0.5427,327.7227],[20.1639,-0.551,333.1218],[20.1563,-0.5576,339.1471],[20.1574,-0.5611,335.5423],[20.1749,-0.5768,337.1926],[20.1737,-0.5933,337.6175],[20.176,-0.5975,339.9274],[20.1805,-0.6,334.3754],[20.1837,-0.5996,321.453],[20.1883,-0.5934,325.6676],[20.1914,-0.5934,323.0524],[20.1956,-0.596,340.1439],[20.2038,-0.5979,338.9977],[20.2181,-0.6115,341.439],[20.2209,-0.6106,342.7141],[20.2246,-0.603,342.6543],[20.2264,-0.6028,342.9055],[20.2342,-0.614,341.9163],[20.2399,-0.617,340.065],[20.2467,-0.6244,350.9386],[20.2495,-0.6353,340.7296],[20.255,-0.6402,343.9149],[20.2556,-0.6482,343.9234],[20.2601,-0.6503,344.4214],[20.2713,-0.6506,345.9667],[20.2809,-0.6603,345.1227],[20.2838,-0.6656,348.4835],[20.277,-0.6698,341.7618],[20.2752,-0.6726,343.2848],[20.2726,-0.6841,338.1725],[20.2724,-0.6938,342.1456],[20.2665,-0.7055,344.0601],[20.2648,-0.7197,343.5192],[20.2544,-0.758,353.0535],[20.244,-0.772,344.9597],[20.2254,-0.7877,350.7176],[20.2234,-0.7912,348.5709],[20.2206,-0.8059,363.9283],[20.2176,-0.8109,363.927],[20.201,-0.8262,356.4571],[20.1918,-0.8397,367.7076],[20.1945,-0.8487,364.5432],[20.1904,-0.8588,357.416],[20.1924,-0.8666,350.272],[20.1919,-0.8721,349.3976],[20.1873,-0.8808,346.9777],[20.1668,-0.9032,353.89],[20.1599,-0.9232,340.8769],[20.1539,-0.9312,341.6749],[20.1374,-0.9451,341.4362],[20.1362,-0.95009999999999994,332.3922],[20.1375,-0.9616,343.9278],[20.135,-0.9717,339.3271],[20.1349,-0.9786,339.2492],[20.1376,-0.9874,340.4182],[20.1444,-0.9987,344.0541],[20.1594,-1.0132,340.8398],[20.1619,-1.0185,348.5757],[20.1566,-1.0265,342.2251],[20.1488,-1.0327,344.8638],[20.1346,-1.0391,341.4609],[20.1186,-1.0438,348.2081],[20.0922,-1.0655,349.9965],[20.0808,-1.0666,385.1075],[20.0497,-1.0809,355.4106],[20.0126,-1.0921,351.1331],[20.005,-1.0958,371.3182],[19.9854,-1.0947,382.5232],[19.9719,-1.0983,372.265],[19.9571,-1.0971,369.4088],[19.9482,-1.098,377.582],[19.9285,-1.1075,352.4409],[19.9155,-1.1063,365.5512],[19.9093,-1.1074,373.4843],[19.9015,-1.1115,344.9028],[19.8822,-1.1307,344.4973],[19.863,-1.1393,342.9031],[19.848,-1.1576,337.0062],[19.8098,-1.1565,331.5331],[19.7612,-1.1578,338.2926],[19.7248,-1.1713,347.7836],[19.7113,-1.1705,338.2494],[19.7036,-1.1629,353.7688],[19.6956,-1.159,343.679],[19.682,-1.1559,348.0388],[19.6845,-1.1449,350.8344],[19.6798,-1.1306,350.1163],[19.6794,-1.1246,349.7317],[19.6845,-1.1095,345.7455],[19.6843,-1.1037,348.2008],[19.6787,-1.0904,346.9832],[19.6716,-1.0597,341.9411],[19.6712,-1.0499,344.0416],[19.6733,-1.0359,345.418],[19.6876,-1.0081,351.7507],[19.6886,-0.9921,341.1432],[19.6786,-0.9853,342.1691],[19.6521,-0.978,337.5482],[19.6109,-0.9755,330.2891],[19.6017,-0.978,331.931],[19.6097,-1.0139,315.5],[19.6107,-1.0339,337.724],[19.6077,-1.0368,338.3302],[19.6061,-1.0421,338.9759],[19.6072,-1.0456,337.9816],[19.612,-1.0467,336.2686],[19.607,-1.0814,337.6113],[19.6153,-1.109,332.7493],[19.6106,-1.1352,334.0941],[19.6125,-1.1596,337.9174],[19.6104,-1.1711,336.7981],[19.5987,-1.1767,347.1399],[19.5895,-1.1833,357.3746],[19.5569,-1.2098,346.0576],[19.5452,-1.2263,342.1297],[19.5388,-1.2292,344.0636],[19.5339,-1.2368,334.0031],[19.5243,-1.2452,333.9342],[19.5144,-1.2571,353.4493],[19.5043,-1.2828,350.0928],[19.4836,-1.3207,356.9755],[19.4422,-1.4045,326.5142]]]]}
,"properties": {"GID_1": "COD.26_1","GID_0": "COD","country": "DemocraticRepublicoftheCongo","province": "Tshuapa","VARNAME_1": "NA","NL_NAME_1": "NA","TYPE_1": "Province","ENGTYPE_1": "Province","CC_1": "NA","HASC_1": "CD.TP","ISO_1": "NA","name": "Tshuapa.province","area_km2": 133519.4,"hist_schema_id": "Elevation0-9000","hist_area_km2": {"300": 7.91,"325": 2284.17,"350": 18280.24,"375": 27477.67,"400": 30022.51,"425": 23629.47,"450": 15669.17,"475": 9297.46,"500": 4715.99,"525": 1590.16,"550": 430.39,"575": 105.38,"600": 8.88}}}