{"type":"Feature","properties":{"ISO3166-1-Alpha-3":"COD","country":"Democratic Republic of the Congo","fill":"#000","id":"1883","name":"Bas-Congo"},
"geometry":{"type": "MultiPolygon","coordinates": [[[[12.99459,-5.86824,3.4417],[12.97252,-5.86828,2.0],[12.95378,-5.8716,1.5],[12.93394,-5.87382,1.5],[12.90529,-5.86949,3.0746],[12.8546,-5.86847,1.0],[12.82816,-5.87179,1.0],[12.79516,-5.89703,0.5],[12.76546,-5.92007,0.5],[12.74513,-5.9402,0.5],[12.76112,-5.95841,8.7668],[12.78315,-5.96057,6.5206],[12.80737,-5.95397,2.0519],[12.83928,-5.92764,2.0933],[12.87011,-5.91774,1.2416],[12.88442,-5.90786,2.2174],[12.94063,-5.89682,4.1066],[12.9693,-5.88801,3.2865],[12.99459,-5.86824,3.4417]]],
[[[14.43574,-4.4867,442.1643],[14.45248,-4.46799,437.1086],[14.46654,-4.44805,437.3106],[14.46974,-4.42934,452.5127],[14.46323,-4.42262,445.1357],[14.42861,-4.4004,462.2968],[14.40907,-4.37756,463.8915],[14.39274,-4.35276,511.8713],[14.38603,-4.33829,570.4293],[14.38572,-4.33291,565.4669],[14.38913,-4.32754,566.7986],[14.39347,-4.31317,549.8418],[14.39522,-4.30036,499.1404],[14.39533,-4.28971,485.2318],[14.39285,-4.28175,507.8167],[14.38706,-4.2771,431.8137],[14.36856,-4.27845,418.0728],[14.32546,-4.3018,551.2446],[14.27999,-4.31276,417.0116],[14.25963,-4.32692,523.5638],[14.22221,-4.35978,547.6574],[14.18469,-4.37746,584.7446],[14.14635,-4.38986,605.9294],[14.0584,-4.40051,595.8544],[14.02109,-4.41539,611.7713],[13.99163,-4.45508,641.761],[13.98987,-4.45797,633.8193],[13.9877,-4.46014,639.4261],[13.97179,-4.47161,625.9081],[13.95494,-4.49187,615.9679],[13.9445,-4.49807,624.6826],[13.93458,-4.49848,621.3008],[13.90544,-4.4901,655.0443],[13.9044,-4.4898,655.7123],[13.87629,-4.49166,671.213],[13.86709,-4.48929,666.9006],[13.85614,-4.47967,675.3378],[13.84208,-4.45342,728.3964],[13.83288,-4.44123,714.6417],[13.81045,-4.42665,783.8653],[13.78999,-4.42459,760.316],[13.72653,-4.4467,730.3309],[13.71496,-4.45301,627.7575],[13.71103,-4.46448,761.0085],[13.72178,-4.56101,548.6714],[13.71816,-4.58034,433.913],[13.70261,-4.62075,382.879],[13.69909,-4.64266,340.8635],[13.71248,-4.68566,308.947],[13.70586,-4.69434,312.5818],[13.69837,-4.69351,311.2159],[13.6901,-4.69113,318.5315],[13.68193,-4.69537,323.2548],[13.6778,-4.70633,379.2141],[13.68059,-4.72472,327.6823],[13.67532,-4.73175,323.9814],[13.66653,-4.73268,341.5641],[13.64369,-4.72627,331.9437],[13.63398,-4.72565,350.6346],[13.6131,-4.73919,354.0194],[13.5914,-4.7794,472.3792],[13.57986,-4.78303,445.8376],[13.57073,-4.78591,463.0433],[13.55863,-4.78043,582.7946],[13.53889,-4.75997,480.7582],[13.52618,-4.75428,598.968],[13.51471,-4.75594,440.0585],[13.48226,-4.77485,415.7153],[13.49239,-4.78353,418.4289],[13.49642,-4.79211,405.7525],[13.49352,-4.79965,421.3326],[13.48226,-4.80555,446.263],[13.43079,-4.84337,508.1441],[13.40319,-4.87686,784.9534],[13.39265,-4.88533,555.0445],[13.37136,-4.84172,527.3368],[13.36412,-4.80689,396.4943],[13.35875,-4.7948,394.7958],[13.34934,-4.7856,388.6187],[13.33457,-4.77754,388.5277],[13.274,-4.75583,368.2014],[13.25581,-4.74395,365.2846],[13.20879,-4.70312,373.1957],[13.18212,-4.68607,349.6706],[13.1724,-4.67615,351.6011],[13.16,-4.64338,347.1207],[13.14212,-4.61734,340.8139],[13.13406,-4.60235,338.6098],[13.11236,-4.57693,338.7795],[13.08797,-4.57951,345.9588],[13.07153,-4.60163,362.8004],[13.0737,-4.63532,380.5916],[13.06533,-4.66395,486.788],[13.02957,-4.67687,381.7158],[12.8332,-4.72266,169.162],[12.80292,-4.73981,213.5477],[12.78618,-4.75842,227.1657],[12.77481,-4.7795,225.813],[12.7683,-4.80193,190.8293],[12.76623,-4.82518,180.5664],[12.75693,-4.83727,150.5793],[12.71197,-4.86332,147.0176],[12.69698,-4.87562,331.239],[12.6883,-4.89701,208.4664],[12.68623,-4.91283,168.8165],[12.67889,-4.9243,266.9776],[12.6544,-4.93257,206.0277],[12.61585,-4.93546,45.559],[12.60696,-4.94223,31.8803],[12.60396,-4.96259,72.6714],[12.58774,-5.00031,47.672],[12.55043,-5.02419,48.9513],[12.4665,-5.05313,9.1143],[12.45813,-5.05416,78.2737],[12.45069,-5.05313,68.002],[12.44439,-5.05509,18.9232],[12.43943,-5.06481,67.4972],[12.43891,-5.07328,82.4727],[12.44077,-5.08403,63.2306],[12.4447,-5.09354,41.0875],[12.45038,-5.09881,8.7061],[12.51198,-5.12051,18.4611],[12.52407,-5.12909,42.2275],[12.53069,-5.16268,14.3632],[12.52769,-5.23947,41.2518],[12.52438,-5.32474,35.1583],[12.51973,-5.44421,170.4551],[12.51498,-5.56875,182.3402],[12.5125,-5.63366,99.8857],[12.50898,-5.72626,119.3332],[12.4355,-5.72554,129.9611],[12.34445,-5.72461,112.9485],[12.25897,-5.7367,20.0592],[12.21055,-5.76346,2.4152],[12.24928,-5.82879,5.1194],[12.26661,-5.85084,2.9872],[12.33416,-5.91839,26.446],[12.35515,-5.945,19.9859],[12.3589,-5.94769,10.3765],[12.3711,-5.9542,7.3397],[12.37623,-5.95867,0.0],[12.37957,-5.96608,1.0661],[12.38478,-5.98431,1.3946],[12.39656,-6.00596,0.0],[12.40428,-5.99061,0.0],[12.4109,-5.98622,0.4626],[12.4142,-5.97854,0.6095],[12.43075,-5.97523,16.9142],[12.44727,-5.97631,9.5974],[12.45719,-5.98177,0.5],[12.45737,-5.98968,6.9818],[12.4572,-6.01355,0.0],[12.43626,-6.02673,0.0],[12.43185,-6.03441,0.0],[12.43516,-6.05085,0.0],[12.4495,-6.05193,3.2152],[12.47595,-6.04531,11.0928],[12.55638,-6.02547,3.1893],[12.60701,-5.99802,0.0],[12.67198,-6.00013,4.035],[12.72261,-5.97926,10.4774],[12.71754,-5.93133,9.4144],[12.74341,-5.90038,4.7941],[12.75439,-5.88175,6.5488],[12.76648,-5.86531,19.0119],[12.78924,-5.84922,11.9279],[12.79713,-5.84539,39.146],[12.82244,-5.82977,10.4078],[12.85873,-5.81951,7.4983],[12.89617,-5.81455,15.8268],[12.92433,-5.81463,4.564],[12.94093,-5.81911,20.5114],[12.97584,-5.83278,148.9053],[12.98927,-5.83571,39.493899999999996],[13.03635,-5.85721,6.6604],[13.06723,-5.86263,15.8247],[13.08985,-5.86061,16.2345],[13.10776,-5.86297,16.8522],[13.12289,-5.86248,81.9173],[13.1548,-5.85215,136.0511],[13.17066,-5.84987,162.12],[13.18434,-5.85622,136.4232],[13.18391,-5.85643,111.6342],[13.18491,-5.85639,111.6342],[13.26935,-5.86352,152.3745],[13.311,-5.87396,163.0631],[13.34252,-5.8906,15.3488],[13.35358,-5.88264,155.0055],[13.37384,-5.86093,8.6223],[13.38045,-5.85639,52.5757],[13.41332,-5.85701,134.6416],[13.49321,-5.85845,412.8723],[13.52267,-5.86755,96.0095],[13.53476,-5.86703,160.7326],[13.55305,-5.85938,189.5433],[13.56256,-5.85742,156.5061],[13.64152,-5.86579,220.2647],[13.80715,-5.85246,319.7946],[13.94357,-5.84161,301.6063],[13.98233,-5.85329,320.3837],[14.00631,-5.86693,334.7606],[14.02119,-5.87251,332.5797],[14.14015,-5.86352,504.7749],[14.16309,-5.8661,379.5392],[14.22221,-5.88698,363.3806],[14.24185,-5.88956,503.2609],[14.34613,-5.89153,721.0884],[14.43667,-5.89339,565.5997],[14.48214,-5.88553,619.2062],[14.54571,-5.90165,549.0859],[14.57661,-5.90465,491.154],[14.70373,-5.8814,480.0586],[14.75965,-5.88047,451.6781],[14.79716,-5.87985,452.6732],[14.88842,-5.8783,647.7292],[14.97958,-5.87675,690.9606],[15.07084,-5.8753,635.8347],[15.1621,-5.87375,793.9456],[15.25336,-5.8722,771.0262],[15.34452,-5.87075,753.4486],[15.43578,-5.8692,776.8814],[15.52704,-5.86775,808.8304],[15.6183,-5.8662,931.9136],[15.70956,-5.86476,752.5221],[15.80072,-5.86321,724.129],[15.89208,-5.86166,622.7643],[15.98324,-5.86011,602.459],[16.0745,-5.85856,565.7264],[16.10086,-5.85811,719.5709],[16.10096,-5.85794,719.5709],[16.11543,-5.83432,584.3282],[16.17362,-5.7921,533.8309],[16.18375,-5.78254,518.88],[16.19057,-5.77169,539.1956],[16.22235,-5.70038,553.1765],[16.22674,-5.67826,577.5626],[16.22964,-5.64792,594.0948],[16.22953,-5.51625,813.2509],[16.2208,-5.4359,603.3917],[16.22746,-5.38241,691.3156],[16.25465,-5.25777,647.8151],[16.25837,-5.22092,649.0957],[16.25031,-5.10212,652.8614],[16.25589,-5.06718,638.3577],[16.27868,-4.99995,633.0792],[16.0343,-4.98729,637.4916],[15.98836,-4.9661,661.778],[15.94474,-4.95138,751.9671],[15.9173,-4.92807,735.9484],[15.90552,-4.92001,744.0472],[15.89529,-4.9166,752.906],[15.88909,-4.92414,728.6088],[15.88718,-4.93727,710.7644],[15.88609,-4.96688,767.8854],[15.88299,-4.99055,760.0322],[15.87927,-5.00186,696.8508],[15.8757,-5.00776,761.7156],[15.86904,-5.01592,763.3409],[15.85865,-5.02393,741.8916],[15.84625,-5.0292,744.6147],[15.83317,-5.03199,682.3151],[15.80806,-5.03153,757.1815],[15.7584,-5.02104,738.0555],[15.73313,-5.0122,784.1437],[15.70176,-4.9952,785.2331],[15.67525,-4.97722,437.1906],[15.649,-4.95437,412.7799],[15.63582,-4.93897,466.3122],[15.62342,-4.91613,454.8787],[15.62218,-4.90099,430.7015],[15.62807,-4.88962,435.4544],[15.63892,-4.88482,414.1259],[15.67587,-4.87965,454.4708],[15.6875,-4.87686,546.8196],[15.6985,-4.87185,491.5724],[15.70936,-4.86399,438.3423],[15.71773,-4.85392,503.5255],[15.723,-4.84244,569.8837],[15.72538,-4.83004,470.6118],[15.72941,-4.78084,446.7676],[15.73468,-4.75764,450.838],[15.7522,-4.71243,716.5048],[15.75328,-4.70121,706.6172],[15.74305,-4.68628,619.6624],[15.72507,-4.6684,721.8187],[15.68145,-4.63992,683.5767],[15.66812,-4.6223,448.6828],[15.66481,-4.60721,418.312],[15.68037,-4.58329,353.4868],[15.68548,-4.57197,413.309],[15.68285,-4.56179,373.7649],[15.67168,-4.55352,338.5205],[15.64528,-4.55104,367.8677],[15.60135,-4.55295,723.6213],[15.4949,-4.53502,369.8009],[15.46591,-4.53269,321.5533],[15.44477,-4.53404,362.9344],[15.43346,-4.53977,311.0852],[15.42276,-4.54778,326.9836],[15.41361,-4.55776,338.5695],[15.40726,-4.56871,313.5226],[15.40493,-4.58019,331.9352],[15.4085,-4.60401,336.9006],[15.40803,-4.6162,347.521],[15.40509,-4.62799,380.066],[15.39981,-4.63899,338.2073],[15.39222,-4.64855,355.441],[15.38193,-4.65522,335.7119],[15.37031,-4.65889,352.6368],[15.35853,-4.66003,346.7648],[15.3469,-4.6578,330.8691],[15.33512,-4.65289,366.4684],[15.32297,-4.64504,354.4383],[15.27579,-4.60132,443.2366],[15.15068,-4.42515,295.1423],[15.09792,-4.49993,335.0912],[15.07611,-4.52008,393.2321],[15.02278,-4.54706,235.7615],[15.01462,-4.55802,224.5],[15.00821,-4.57104,250.209],[14.93101,-4.6469,340.1787],[14.84905,-4.78374,374.0965],[14.8414,-4.80017,376.5256],[14.83117,-4.81505,352.3555],[14.81546,-4.82797,312.8872],[14.76843,-4.84823,200.0],[14.70218,-4.88957,406.589],[14.67273,-4.89991,309.0232],[14.63449,-4.90363,367.8525],[14.62332,-4.89949,424.7744],[14.59211,-4.88058,359.461],[14.57961,-4.87634,254.619],[14.57506,-4.87365,287.9947],[14.56689,-4.86053,234.5973],[14.56214,-4.85588,315.9364],[14.55387,-4.85515,198.5521],[14.53248,-4.85619,223.617],[14.52803,-4.85216,208.899],[14.51987,-4.84131,299.8648],[14.50147,-4.84069,237.7397],[14.48194,-4.84585,179.5],[14.47005,-4.85216,178.375],[14.44948,-4.87396,175.5],[14.43729,-4.88017,174.0],[14.41817,-4.88316,249.3475],[14.4007,-4.88626,223.6132],[14.39646,-4.85588,349.7555],[14.41259,-4.77816,365.9387],[14.40876,-4.76782,397.8228],[14.4037,-4.75883,440.5285],[14.39967,-4.74932,492.0407],[14.39905,-4.73754,538.0759],[14.40153,-4.72813,629.7288],[14.40918,-4.71056,606.9675],[14.41093,-4.70106,587.6647],[14.4069,-4.67604,597.1246],[14.39584,-4.66013,552.958],[14.38096,-4.64618,583.2919],[14.36577,-4.62726,561.6827],[14.3575,-4.58912,580.6892],[14.34996,-4.5669,564.6619],[14.35078,-4.55905,595.0641],[14.35895,-4.54458,558.8853],[14.37476,-4.53021,591.4507],[14.41259,-4.5145,465.7619],[14.42458,-4.50231,461.8962],[14.43574,-4.4867,442.1643]]]]}}