{"type":"Feature","properties":{"featurecla":"River","scalerank":8,"rivernum":836,"dissolve":"836River","name":"Inkisi2","name_alt":null,"note":null,"min_zoom":7.0,"strokeweig":0.25,"name_en":"Inkisi","min_label":8.0},
"geometry":{"type": "LineString","coordinates": [[15.218652343750023,-5.34392669063088,557.5973],[15.204003906250023,-5.3247372375058859,528.2302],[15.197998046875,-5.3137997375058887,514.7679],[15.181396484375,-5.2549130187558859,543.9568],[15.171630859375,-5.2376278625058887,510.2706],[15.154443359375023,-5.22161223750588,532.4808],[15.095117187500023,-5.18914153438088,503.1884],[15.078027343750023,-5.17351653438088,519.3013],[15.063720703125,-5.1470028625058859,498.2969],[15.065576171875023,-5.12761809688088,497.2383],[15.073388671875023,-5.10808684688088,502.3061],[15.0771484375,-5.08123137813088,498.9686],[15.074853515625023,-5.07732512813088,500.9087],[15.0595703125,-5.06951262813088,501.5202],[15.056787109375023,-5.06414153438088,495.198],[15.059960937500023,-5.05852630000588,522.7646],[15.064843750000023,-5.0522763000058859,499.1537],[15.06689453125,-5.0447567687558887,499.7734],[15.068603515625,-5.04070403438088,496.3547],[15.077392578125,-5.0332333312558859,493.8582],[15.079345703125,-5.0281552062558887,495.1322],[15.075830078125023,-5.0254208312558859,503.6298],[15.060546875,-5.0210263000058859,524.7634],[15.057763671875023,-5.0166317687558859,507.7905],[15.062158203125023,-5.0068661437558859,505.5182],[15.075439453125,-4.99871184688088,529.8331],[15.08154296875,-4.99065520625588,536.2031],[15.080810546875,-4.97698333125588,501.0946],[15.073388671875023,-4.9588192687558887,499.0377],[15.0537109375,-4.92864348750588,476.7327],[15.042236328125,-4.9197567687558887,464.5641],[15.015380859375,-4.9090145812558887,487.7037],[15.004638671875,-4.90300872188088,478.167],[14.991455078125,-4.88811614375588,452.9099],[14.9609375,-4.8357723937558887,488.4476],[14.915673828125023,-4.7915341125058859,467.9563],[14.887109375000023,-4.7700497375058859,380.5343],[14.863183593750023,-4.7602841125058859,245.89]]}}