{"type":"Feature","properties":{"GID_2":"COD.2.2_1","GID_0":"COD","country":"DemocraticRepublicoftheCongo","GID_1":"COD.2_1","province":"Équateur","NL_NAME_1":"NA","county":"Basankusu(ville)","VARNAME_2":"NA","NL_NAME_2":"NA","TYPE_2":"Ville","ENGTYPE_2":"Town","CC_2":"NA","HASC_2":"NA","name":"Basankusu(ville).county"},
"geometry":{"type": "MultiPolygon","coordinates": [[[[19.8547,1.1798,337.8905],[19.8661,1.1944,343.087],[19.879,1.2318,346.0859],[19.8805,1.2495,340.7326],[19.8774,1.2661,342.5859],[19.8697,1.2781,340.0689],[19.8588,1.2864,342.4791],[19.8408,1.2947,340.2791],[19.8232,1.2989,340.4266],[19.7896,1.2854,342.7917],[19.7752,1.2687,340.5137],[19.7679,1.2511,334.8582],[19.7628,1.2308,341.604],[19.77,1.2053,344.845],[19.784,1.1887,343.2323],[19.8031,1.1778,333.2261],[19.8268,1.1731,346.9874],[19.8547,1.1798,337.8905]]]]}}