{"type": "Feature","bbox": [30.2193,1.4843,30.2995,1.5978],"geometry": {"type": "MultiPolygon","coordinates": [[[[30.2995,1.5865,1297.2622],[30.2835,1.594,1306.4871],[30.2684,1.5978,1283.0505],[30.2505,1.5972,1256.5426],[30.2279,1.5914,1225.3342],[30.2193,1.5822,1210.068],[30.2298,1.5801,1224.6323],[30.2328,1.5548,1256.4528],[30.2236,1.5158,1226.8008],[30.2235,1.4953,1201.068],[30.2216,1.4843,1197.7144],[30.2326,1.4872,1228.6683],[30.2412,1.4926,1229.9554],[30.2489,1.4934,1231.3372],[30.2571,1.4969,1239.8064],[30.2705,1.4913,1338.4285],[30.2817,1.4887,1282.975],[30.2759,1.5215,1316.7454],[30.2791,1.5328,1348.4862],[30.2961,1.5514,1386.9351],[30.2985,1.5602,1371.6996],[30.2963,1.5779,1307.7476],[30.2995,1.5865,1297.2622]]]]}
,"properties": {"GID_2": "COD.6.4_1","GID_0": "COD","country": "DemocraticRepublicoftheCongo","GID_1": "COD.6_1","province": "Ituri","NL_NAME_1": "NA","county": "Bunia","VARNAME_2": "NA","NL_NAME_2": "NA","TYPE_2": "Ville","ENGTYPE_2": "Town","CC_2": "NA","HASC_2": "NA","name": "Bunia.county","area_km2": 77.69898,"hist_schema_id": "Elevation0-9000","hist_area_km2": {"1200": 1.86515,"1225": 8.52023,"1250": 16.99797,"1275": 20.41023,"1300": 19.20222,"1325": 6.73984,"1350": 3.20036,"1375": 0.72061,"1400": 0.04239}}}