{"type": "Feature","bbox": [19.0714,2.7851,20.2857,4.085],"geometry": {"type": "MultiPolygon","coordinates": [[[[19.418,3.8963,373.155],[19.41,3.875,351.9187],[19.4103,3.8667,356.7387],[19.4078,3.8628,367.4279],[19.4036,3.8687,349.7008],[19.3978,3.8618,352.668],[19.3946,3.8603,357.3859],[19.3853,3.8662,349.4406],[19.3769,3.8618,355.9589],[19.3719,3.8631,349.9214],[19.3655,3.8603,349.8111],[19.3648,3.858,352.3879],[19.3662,3.8557,350.5422],[19.375,3.8489,353.4384],[19.3759,3.8459,370.9362],[19.3741,3.8426,378.5917],[19.3698,3.8421,357.5522],[19.363,3.8499,376.0327],[19.3546,3.8525,349.0196],[19.3521,3.8502,350.0574],[19.3521,3.8463,356.6545],[19.3598,3.837,350.4361],[19.3586,3.8342,348.5094],[19.3513,3.835,354.1899],[19.3516,3.8302,347.2261],[19.3546,3.827,348.935],[19.369,3.8265,368.1905],[19.3723,3.8233,375.881],[19.3712,3.8191,378.7451],[19.3667,3.814,353.3313],[19.3731,3.8113,358.2814],[19.3736,3.809,354.7433],[19.3675,3.8,348.068],[19.3634,3.8004,350.266],[19.3592,3.8061,348.1892],[19.3532,3.8065,367.5815],[19.3464,3.8023,350.0045],[19.3471,3.8007,362.0278],[19.3618,3.7958,364.6465],[19.3623,3.7923,380.3257],[19.3533,3.7816,360.7112],[19.3524,3.7779,348.9518],[19.3547,3.7741,347.1529],[19.3619,3.7704,357.7142],[19.3635,3.7668,352.6715],[19.3627,3.7555,361.7952],[19.3597,3.7538,348.501],[19.3544,3.7561,349.8272],[19.3543,3.7519,351.0916],[19.3573,3.7437,348.7385],[19.3555,3.7391,350.2576],[19.3487,3.7385,348.5645],[19.3388,3.7405,343.7326],[19.3326,3.7381,348.0119],[19.3205,3.741,347.4067],[19.3178,3.7373,346.553],[19.3136,3.7382,350.5179],[19.3014,3.7488,355.4689],[19.2963,3.7506,346.6221],[19.2927,3.7492,360.5594],[19.2998,3.7449,348.8399],[19.3003,3.7426,350.122],[19.2978,3.7403,346.064],[19.2896,3.7395,356.6351],[19.283,3.7346,345.8429],[19.2809,3.7357,344.3778],[19.279,3.7405,362.447],[19.2739,3.7437,359.2053],[19.2664,3.7429,345.0438],[19.2663,3.7335,354.0187],[19.2595,3.7205,357.6586],[19.2659,3.7192,361.5956],[19.2667,3.7174,360.7083],[19.2642,3.7134,359.8067],[19.2647,3.7105,361.9739],[19.2681,3.7105,369.5664],[19.2688,3.7087,358.6455],[19.2659,3.7008,359.6512],[19.2686,3.6907,353.0247],[19.2632,3.6743,353.3185],[19.2544,3.6682,344.8642],[19.2565,3.6641,345.1515],[19.2551,3.662,350.114],[19.2474,3.6596,343.4839],[19.2426,3.6561,341.8367],[19.2492,3.6392,354.5214],[19.2485,3.6355,356.0417],[19.2423,3.6359,346.7264],[19.2426,3.6326,345.7397],[19.2463,3.6285,342.6187],[19.2548,3.6268,354.1374],[19.2729,3.6272,356.0898],[19.2769,3.6217,356.7361],[19.2708,3.6141,351.8345],[19.2708,3.6106,343.9682],[19.2754,3.6065,352.53],[19.2807,3.6061,355.2312],[19.2828,3.6011,354.701],[19.2848,3.5825,344.0269],[19.2833,3.5748,361.5139],[19.2813,3.5718,360.2111],[19.2749,3.5685,349.5743],[19.2761,3.5607,346.0626],[19.2803,3.5562,341.816],[19.2806,3.552,348.3633],[19.2766,3.5389,348.1023],[19.2719,3.5342,349.058],[19.2575,3.5281,340.7432],[19.2557,3.5255,339.9101],[19.2585,3.5186,359.5757],[19.2574,3.5161,353.0477],[19.2496,3.5155,361.392],[19.2483,3.5137,363.0541],[19.2508,3.511,359.1826],[19.2561,3.5096,347.2786],[19.2589,3.506,352.291],[19.2578,3.4972,349.469],[19.2671,3.4883,348.7093],[19.2655,3.4863,345.3315],[19.2563,3.4885,346.6481],[19.2523,3.4829,367.0779],[19.247,3.4791,341.3879],[19.2385,3.4841,342.0763],[19.2308,3.4739,357.7857],[19.2337,3.4657,347.072],[19.2322,3.4573,351.3655],[19.2262,3.4575,354.6087],[19.2009,3.4683,342.2089],[19.1952,3.468,349.0563],[19.1922,3.4654,358.675],[19.1955,3.4595,337.1214],[19.2039,3.4626,344.9895],[19.2088,3.4532,351.4951],[19.2073,3.4428,343.8636],[19.2046,3.4384,347.7607],[19.1752,3.4335,344.5948],[19.1695,3.43,341.9792],[19.1663,3.4255,341.2533],[19.1804,3.414,340.287],[19.1821,3.4101,339.762],[19.1809,3.4071,341.9983],[19.1722,3.407,345.8846],[19.1695,3.4053,345.0546],[19.161,3.4103,347.1993],[19.1575,3.4098,341.3703],[19.1503,3.3984,363.1848],[19.1401,3.3907,362.888],[19.1375,3.3785,359.493],[19.1337,3.3748,340.0067],[19.1299,3.3658,350.4471],[19.1244,3.3625,350.3289],[19.11,3.3589,356.4529],[19.1025,3.3526,348.9124],[19.0884,3.3508,348.5643],[19.0797,3.3468,353.853],[19.0763,3.3435,359.4685],[19.0772,3.3412,362.8089],[19.0944,3.341,344.7626],[19.0979,3.332,341.5517],[19.0909,3.3276,360.1009],[19.0971,3.3242,347.2305],[19.0988,3.3208,355.6801],[19.0918,3.3059,342.1141],[19.0771,3.2933,364.229],[19.0714,3.2908,361.8744],[19.0721,3.288,346.7559],[19.0769,3.286,350.031],[19.08,3.2816,360.2599],[19.0835,3.2713,352.6885],[19.0822,3.2665,354.084],[19.0747,3.2618,355.4182],[19.0748,3.2533,363.3997],[19.0769,3.2471,361.5639],[19.0876,3.2286,356.4387],[19.0899,3.235,355.698],[19.0958,3.2337,362.9296],[19.0977,3.2284,350.5108],[19.0953,3.2183,347.4597],[19.0906,3.2139,360.025],[19.0891,3.2003,359.3576],[19.0846,3.1954,334.5017],[19.0856,3.1697,341.7128],[19.0811,3.1389,343.7012],[19.0856,3.1267,346.1734],[19.0939,3.12,346.8583],[19.0989,3.1205,348.5264],[19.1057,3.1263,356.242],[19.113,3.1269,350.993],[19.1206,3.1235,358.1759],[19.1272,3.1114,353.7182],[19.1408,3.1009,352.6522],[19.1527,3.085,351.5116],[19.1549,3.0673,352.9189],[19.1756,3.072,359.0871],[19.2061,3.0722,357.8903],[19.2116,3.0704,357.893],[19.2164,3.0712,359.386],[19.2237,3.0795,360.2009],[19.2441,3.0802,361.8419],[19.2466,3.0772,361.7545],[19.2497,3.0681,362.6501],[19.25,3.0596,364.8584],[19.2537,3.0561,363.8436],[19.2578,3.056,362.8495],[19.2674,3.0614,364.6629],[19.281,3.048,362.6426],[19.2908,3.0347,370.5053],[19.3049,3.0039,366.6736],[19.3093,2.9906,373.3127],[19.3137,2.9701,392.6309],[19.3128,2.9638,381.2397],[19.2371,2.9145,380.0219],[19.226,2.9067,381.2662],[19.2256,2.9041,384.3343],[19.2484,2.8602,425.7169],[19.2935,2.7867,389.9297],[19.3012,2.7851,376.3549],[19.3103,2.7875,370.6384],[19.5141,2.8551,386.6635],[19.5257,2.8554,389.5085],[19.5409,2.8484,385.849],[19.5466,2.848,379.1775],[19.557,2.8396,381.789],[19.568,2.8388,380.8113],[19.5766,2.8476,378.7427],[19.5964,2.8471,412.9655],[19.6259,2.8378,380.2023],[19.6379,2.8322,369.3037],[19.6426,2.8216,381.1597],[19.6479,2.8175,377.7745],[19.6602,2.817,366.0494],[19.6644,2.8147,376.9946],[19.6872,2.8177,373.3604],[19.6958,2.8137,371.8084],[19.7165,2.8189,371.428],[19.7194,2.8252,366.2917],[19.722,2.8448,371.2563],[19.7247,2.851,374.1169],[19.722,2.8639,371.7249],[19.7233,2.8694,371.378],[19.7276,2.8754,371.6192],[19.739,2.8838,374.3895],[19.7432,2.8917,375.2478],[19.7456,2.9053,380.3914],[19.7488,2.9088,376.3639],[19.7582,2.9096,380.2614],[19.7618,2.9124,379.2416],[19.7948,2.9132,387.0426],[19.8117,2.9101,388.9766],[19.8264,2.9096,389.5712],[19.8309,2.9108,384.161],[19.84,2.9171,400.5768],[19.8441,2.9176,395.3564],[19.8598,2.9129,398.2521],[19.8808,2.9129,406.8821],[19.8873,2.9086,395.1005],[19.8978,2.9101,410.0302],[19.9063,2.909,407.7861],[19.9172,2.9007,457.0201],[19.9239,2.8873,448.0724],[19.9344,2.8778,396.8234],[19.9407,2.8751,398.3292],[19.9531,2.8757,400.3012],[19.9677,2.8733,391.6966],[19.9778,2.8782,391.9872],[19.9924,2.8814,386.3502],[20.0026,2.8854,387.4003],[20.0192,2.8964,386.3113],[20.0359,2.8968,391.3143],[20.0626,2.9099,371.2559],[20.0817,2.917,373.8219],[20.1162,2.924,364.9809],[20.1364,2.9226,349.666],[20.1387,2.9192,349.5266],[20.1578,2.9541,366.6193],[20.1765,2.9502,382.8025],[20.1923,2.9489,379.7615],[20.2021,2.9496,407.9688],[20.2086,2.9518,399.8281],[20.2099,2.9586,387.1377],[20.2047,2.9744,401.303],[20.1953,2.9912,400.491],[20.1804,3.0101,374.9309],[20.1796,3.0199,393.5988],[20.1753,3.0278,404.6836],[20.1746,3.0352,370.2776],[20.1783,3.0456,399.2127],[20.198,3.0848,419.7933],[20.2217,3.1185,400.0986],[20.2256,3.135,444.1029],[20.2285,3.14,445.9007],[20.248,3.1607,436.8915],[20.2774,3.1821,448.8475],[20.2844,3.189,446.6632],[20.2857,3.2367,463.3828],[20.2784,3.2571,439.4529],[20.278199999999998,3.262,435.9252],[20.2823,3.2952,400.9046],[20.2812,3.3032,425.4702],[20.2727,3.3194,414.9171],[20.2495,3.3383,408.4374],[20.2274,3.3526,395.5586],[20.2201,3.3723,401.8203],[20.2113,3.383,396.5514],[20.2091,3.4015,421.0938],[20.2102,3.4097,413.614],[20.22,3.4335,492.8763],[20.2233,3.4489,485.0205],[20.2225,3.4564,478.363],[20.2173,3.4683,440.3521],[20.2092,3.4765,424.7751],[20.1807,3.4932,408.7911],[20.1385,3.5232,400.1848],[20.1267,3.5343,391.3033],[20.1165,3.5497,399.297],[20.1118,3.5614,397.6905],[20.1113,3.5671,390.0935],[20.1145,3.5835,382.0055],[20.1254,3.5963,385.4258],[20.15,3.6395,387.4406],[20.134,3.655,381.8478],[20.132,3.6741,377.2974],[20.1373,3.6882,374.8822],[20.135,3.6974,371.1968],[20.1371,3.7108,373.4189],[20.131,3.731,381.0455],[20.1413,3.7322,375.7768],[20.1923,3.7613,390.942],[20.2183,3.7714,376.6671],[20.2136,3.7833,375.1456],[20.2027,3.7973,370.1928],[20.197,3.8004,373.5479],[20.1678,3.8084,387.7515],[20.1467,3.8096,383.3156],[20.1359,3.8139,395.7437],[20.1241,3.8241,385.876],[20.1161,3.8236,385.91],[20.1118,3.8262,382.6175],[20.1057,3.8372,388.6918],[20.0999,3.8412,395.7546],[20.0583,3.852,404.3518],[20.0216,3.8703,415.1916],[19.9961,3.8739,440.4547],[19.9808,3.8823,425.9921],[19.9474,3.9082,450.8298],[19.9359,3.9178,502.8548],[19.9107,3.9445,401.7381],[19.8938,3.9632,451.1287],[19.8896,3.97,509.4474],[19.8879,3.9797,471.2524],[19.8913,3.9988,412.3262],[19.901,4.0171,440.3028],[19.9029,4.0378,406.2547],[19.9069,4.0432,388.5657],[19.9156,4.0474,394.3418],[19.9169,4.0548,408.9771],[19.9192,4.0578,382.5485],[19.9138,4.0631,389.6581],[19.9065,4.0653,379.9062],[19.9035,4.0701,392.1945],[19.8975,4.0705,388.5103],[19.8938,4.0737,387.7599],[19.8801,4.0728,392.1612],[19.8699,4.0771,386.5536],[19.8631,4.0768,377.9213],[19.858,4.0807,382.2678],[19.8477,4.0783,382.861],[19.8305,4.0802,381.8064],[19.8282,4.0778,377.991],[19.825,4.0785,387.3599],[19.8203,4.0844,383.184],[19.8155,4.0848,384.9266],[19.8133,4.0827,382.7629],[19.8084,4.085,384.817],[19.7931,4.0848,382.2832],[19.7888,4.079,381.5082],[19.7831,4.0774,385.6623],[19.7787,4.0725,391.5792],[19.7751,4.0718,371.0196],[19.7711,4.0759,373.7299],[19.7652,4.0751,374.157],[19.7617,4.0799,384.5066],[19.7544,4.0791,376.0591],[19.7496,4.0743,362.7379],[19.74,4.0705,374.5342],[19.7389,4.0663,361.9189],[19.731,4.0609,378.9176],[19.7202,4.0641,375.32],[19.7152,4.0578,365.0408],[19.7037,4.0554,366.4974],[19.6984,4.0625,366.1797],[19.6951,4.0735,364.0128],[19.6865,4.0798,370.8969],[19.6815,4.0802,363.8783],[19.6774,4.0774,366.981],[19.6759,4.0664,367.5699],[19.6731,4.0663,364.9755],[19.6671,4.0718,367.132],[19.6637,4.0722,371.6251],[19.6619,4.0678,367.3389],[19.6603,4.0678,373.464],[19.6559,4.0719,371.9241],[19.6547,4.0786,360.4538],[19.6517,4.0788,361.4225],[19.6474,4.075,359.5954],[19.6428,4.0736,366.6773],[19.638,4.0763,373.8037],[19.6281,4.0751,371.0804],[19.6234,4.0704,371.342],[19.6131,4.0666,369.0558],[19.609,4.0622,380.2282],[19.6042,4.0647,357.2593],[19.5996,4.0637,371.9304],[19.5962,4.0598,377.5325],[19.5932,4.06,374.2011],[19.589,4.0641,360.3405],[19.5813,4.0638,373.0041],[19.5753,4.0596,383.6097],[19.5687,4.0593,375.729],[19.5606,4.064,364.0447],[19.5519,4.0646,377.6359],[19.5499,4.0579,369.4671],[19.5523,4.0473,373.6181],[19.5503,4.0429,377.329],[19.5466,4.0436,375.2956],[19.5406,4.0502,370.0126],[19.5376,4.0502,370.5315],[19.5326,4.0462,375.9707],[19.5289,4.0469,385.5749],[19.5222,4.0581,366.1068],[19.516,4.061,380.9299],[19.5118,4.06,358.8907],[19.5096,4.0575,379.1227],[19.509,4.0469,374.1651],[19.5026,4.0424,391.3688],[19.4995,4.038,376.8505],[19.4986,4.0304,367.6466],[19.4905,4.0232,363.4114],[19.482,4.0238,354.437],[19.4795,4.0164,386.6489],[19.4752,4.0148,367.5557],[19.4697,4.0154,354.9109],[19.4681,4.0121,354.747],[19.471,4.0034,375.1776],[19.4706,3.9747,383.4654],[19.4683,3.9716,366.238],[19.4587,3.9738,353.161],[19.4571,3.9708,372.0964],[19.4618,3.9621,354.4314],[19.4591,3.9538,352.4459],[19.4601,3.9511,353.1986],[19.4692,3.95,392.6435],[19.4693,3.9472,403.8396],[19.4563,3.9418,358.0966],[19.4556,3.9358,364.0389],[19.4522,3.9337,380.2793],[19.4485,3.9351,380.6797],[19.4447,3.9502,361.3947],[19.442,3.9499,352.774],[19.4359,3.9414,370.287],[19.4342,3.9482,353.6431],[19.4323,3.9498,365.6568],[19.4262,3.9491,368.9783],[19.4205,3.9446,365.5838],[19.4207,3.9412,368.3164],[19.4249,3.9385,367.6259],[19.4311,3.9381,360.4473],[19.4296,3.9319,351.2328],[19.431,3.9266,368.4662],[19.4246,3.9235,371.5729],[19.4228,3.9191,358.9706],[19.4298,3.9134,369.6004],[19.4305,3.91,381.1444],[19.4258,3.8994,356.5579],[19.418,3.8963,373.155]],
[[19.799,3.2244,414.9471],[19.789,3.2231,416.8314],[19.7675,3.226,395.4704],[19.7553,3.2302,413.0247],[19.7476,3.2406,385.3572],[19.7431,3.257,401.8846],[19.7438,3.2706,513.4066],[19.7521,3.287,529.6898],[19.7736,3.2993,508.0393],[19.7839,3.3003,511.3354],[19.7993,3.2977,479.8727],[19.8077,3.2919,424.8219],[19.8131,3.2828,426.853],[19.8189,3.2596,402.7133],[19.8173,3.2502,425.8937],[19.8138,3.238,416.3587],[19.799,3.2244,414.9471]]]]}
,"properties": {"GID_2": "COD.23.2_1","GID_0": "COD","country": "DemocraticRepublicoftheCongo","GID_1": "COD.23_1","province": "Sud-Ubangi","NL_NAME_1": "NA","county": "Gemena","VARNAME_2": "NA","NL_NAME_2": "NA","TYPE_2": "Territoire","ENGTYPE_2": "Territory","CC_2": "NA","HASC_2": "NA","name": "Gemena.county","area_km2": 13114.41,"hist_schema_id": "Elevation0-9000","hist_area_km2": {"325": 6.82,"350": 1979.18,"375": 4651.27,"400": 3262.5,"425": 1722.06,"450": 849.08,"475": 310.5,"500": 145.04,"525": 132.68,"550": 50.71,"575": 4.19,"600": 0.38}}}