{"type": "Feature","bbox": [27.2207,-11.7995,27.2747,-11.7235],"geometry": {"type": "MultiPolygon","coordinates": [[[[27.2629,-11.7985,1349.218],[27.2641,-11.7932,1344.736],[27.2679,-11.7936,1343.9335],[27.2706,-11.7892,1337.5579],[27.2747,-11.7719,1309.9526],[27.27,-11.7575,1319.5657],[27.2618,-11.746,1304.0325],[27.2507,-11.7362,1318.7335],[27.2443,-11.7333,1344.2555],[27.2274,-11.7339,1367.2982],[27.2272,-11.7235,1368.3491],[27.2241,-11.7295,1370.0717],[27.2248,-11.7318,1370.5605],[27.2207,-11.7478,1366.0447],[27.2275,-11.7547,1360.1581],[27.2305,-11.7623,1361.9333],[27.2325,-11.7779,1358.4806],[27.2312,-11.7826,1359.3367],[27.2339,-11.7865,1358.3115],[27.2469,-11.7931,1352.4073],[27.2524,-11.7977,1348.7255],[27.2574,-11.7995,1355.7842],[27.2629,-11.7985,1349.218]]]]}
,"properties": {"GID_2": "COD.3.4_1","GID_0": "COD","country": "DemocraticRepublicoftheCongo","GID_1": "COD.3_1","province": "Haut-Katanga","NL_NAME_1": "NA","county": "Kipushi(ville)","VARNAME_2": "NA","NL_NAME_2": "NA","TYPE_2": "Ville","ENGTYPE_2": "Town","CC_2": "NA","HASC_2": "NA","name": "Kipushi(ville).county","area_km2": 28.56139,"hist_schema_id": "Elevation0-9000","hist_area_km2": {"1300": 2.98893,"1325": 10.73124,"1350": 13.2013,"1375": 1.63992}}}