{"type": "Feature","bbox": [29.1425,-1.7013,29.2523,-1.6104],"geometry": {"type": "MultiPolygon","coordinates": [[[[29.2495,-1.6752,1539.5359],[29.25,-1.673,1549.6443],[29.2484,-1.6728,1545.9331],[29.2479,-1.675,1539.5359],[29.2495,-1.6752,1539.5359]]],
[[[29.2523,-1.6624,1579.937],[29.2393,-1.6558,1550.2231],[29.2179,-1.6536,1557.5436],[29.1986,-1.6399,1553.1169],[29.1687,-1.6132,1547.9918],[29.1531,-1.6104,1541.1167],[29.1439,-1.6259,1482.1592],[29.1425,-1.6308,1475.218],[29.1457,-1.64,1461.0],[29.1526,-1.6378,1497.7073],[29.1539,-1.6359,1507.9999],[29.1572,-1.6365,1461.0],[29.1579,-1.634,1467.7965],[29.1594,-1.6351,1471.1172],[29.1602,-1.6401,1461.5776],[29.1651,-1.6442,1461.5992],[29.1631,-1.6467,1461.0],[29.1636,-1.65,1461.0],[29.1659,-1.6512,1467.0977],[29.169,-1.6634,1461.0],[29.1791,-1.6687,1462.1208],[29.1897,-1.6689,1466.6144],[29.1946,-1.6707,1468.547],[29.2137,-1.6818,1461.9564],[29.2184,-1.683,1461.0],[29.2219,-1.6815,1467.6718],[29.2238,-1.6836,1467.9275],[29.2216,-1.6867,1463.1514],[29.2265,-1.6863,1461.0],[29.2263,-1.6879,1461.0],[29.2298,-1.6911,1471.6409],[29.2309,-1.6962,1462.8912],[29.2352,-1.6972,1462.4751],[29.2396,-1.7006,1465.072],[29.2424,-1.7001,1461.8865],[29.2425,-1.7013,1461.0],[29.2443,-1.6988,1461.0],[29.2448,-1.6835,1514.9144],[29.2466,-1.6842,1519.3213],[29.2476,-1.6821,1523.1722],[29.2445,-1.6816,1516.165],[29.2435,-1.6688,1536.7183],[29.2507,-1.6696,1552.9337],[29.2523,-1.6624,1579.937]]]]}
,"properties": {"GID_2": "COD.19.3_1","GID_0": "COD","country": "DemocraticRepublicoftheCongo","GID_1": "COD.19_1","province": "Nord-Kivu","NL_NAME_1": "NA","county": "Goma","VARNAME_2": "NA","NL_NAME_2": "NA","TYPE_2": "Ville","ENGTYPE_2": "Town","CC_2": "NA","HASC_2": "NA","name": "Goma.county","area_km2": 44.48489,"hist_schema_id": "Elevation0-9000","hist_area_km2": {"1450": 0.44506,"1475": 7.33288,"1500": 13.09748,"1525": 15.87387,"1550": 7.22696,"1575": 0.44506,"1600": 0.02119,"1625": 0.04239}}}