{"type": "Feature","bbox": [14.1864,-5.9096,15.2954,-4.7682],"geometry": {"type": "MultiPolygon","coordinates": [[[[15.2938,-5.8743,765.6638],[15.2906,-5.8725,782.3155],[15.2778,-5.8714,753.741],[15.2734,-5.8696,739.9449],[15.2695,-5.8643,745.2542],[15.2623,-5.8632,745.2366],[15.2596,-5.8549,760.4115],[15.2559,-5.8561,744.7969],[15.2527,-5.8637,778.0486],[15.2442,-5.8667,765.4492],[15.2387,-5.8667,751.4157],[15.2359,-5.8628,738.5511],[15.2442,-5.8549,736.3365],[15.2449,-5.8508,738.1901],[15.2435,-5.846,738.4346],[15.2448,-5.8423,734.4773],[15.248,-5.8407,736.0906],[15.2471,-5.8375,734.5083],[15.2437,-5.8382,738.2323],[15.2386,-5.8428,738.6235],[15.231,-5.843,747.2242],[15.2345,-5.8497,757.0325],[15.2327,-5.8522,763.7104],[15.2258,-5.8555,760.3325],[15.2235,-5.8545,732.4104],[15.2216,-5.8474,733.0345],[15.2175,-5.8419,737.0406],[15.2124,-5.8433,752.0547],[15.2124,-5.8348,734.3566],[15.2103,-5.8295,737.4271],[15.2032,-5.8307,742.4225],[15.194,-5.8243,744.3795],[15.1848,-5.8234,751.2602],[15.174,-5.8144,724.7542],[15.1747,-5.8105,732.0714],[15.1774,-5.8091,750.7135],[15.1765,-5.8061,731.1362],[15.1717,-5.8057,774.2421],[15.1682,-5.7999,731.1443],[15.1641,-5.7995,717.9072],[15.159,-5.8018,754.3961],[15.1565,-5.7977,722.5706],[15.1604,-5.7894,722.035],[15.1606,-5.785,750.7973],[15.1585,-5.78,720.8694],[15.1498,-5.7788,756.1888],[15.1465,-5.7738,706.7736],[15.1431,-5.7731,734.35],[15.141,-5.7701,690.411],[15.144,-5.7662,766.2983],[15.1341,-5.7513,580.5396],[15.132,-5.7421,573.5947],[15.1288,-5.7393,554.7224],[15.1184,-5.7363,559.4787],[15.112,-5.7313,580.6958],[15.1119,-5.7221,563.434],[15.1048,-5.7219,565.8748],[15.1014,-5.7263,555.1444],[15.0917,-5.7155,574.3212],[15.0912,-5.704,586.263],[15.0928,-5.7008,552.7948],[15.0884,-5.698,575.5629],[15.0873,-5.6952,547.4811],[15.0889,-5.692,546.8406],[15.0935,-5.6927,597.6204],[15.0958,-5.6897,620.6709],[15.0992,-5.6632,558.1052],[15.103,-5.6591,560.2016],[15.1127,-5.6547,552.7104],[15.1085,-5.6494,550.5634],[15.1094,-5.6446,547.9431],[15.1182,-5.646,544.1958],[15.1209,-5.6395,545.8304],[15.1267,-5.64,621.712],[15.128,-5.6291,547.7374],[15.1314,-5.6252,563.1125],[15.1298,-5.61,554.0177],[15.1316,-5.5988,556.5899],[15.1348,-5.5992,555.5403],[15.138,-5.6029,557.6447],[15.1396,-5.602,557.6447],[15.1408,-5.5971,548.5798],[15.1447,-5.5944,554.4211],[15.1428,-5.5912,548.282],[15.1387,-5.5942,535.4861],[15.1346,-5.5935,547.4363],[15.1359,-5.5884,542.5248],[15.1346,-5.5857,545.6581],[15.139099999999999,-5.5776,534.6101],[15.1478,-5.5762,535.8137],[15.1518,-5.5794,537.6057],[15.1582,-5.5746,551.8166],[15.1616,-5.5686,541.6284],[15.1662,-5.5686,540.332],[15.166,-5.5644,533.0689],[15.1689,-5.5596,532.4088],[15.1788,-5.5616,537.7115],[15.1799,-5.5531,534.976],[15.1859,-5.5444,531.0962],[15.193,-5.5418,533.1719],[15.1978,-5.5372,536.6932],[15.2008,-5.5243,556.5573],[15.2045,-5.5261,529.954],[15.2052,-5.5316,534.2645],[15.2076,-5.531,542.3145],[15.2113,-5.5229,530.0304],[15.2304,-5.5203,535.5612],[15.2324,-5.5187,536.9878],[15.2317,-5.5162,580.6663],[15.2235,-5.5121,551.4875],[15.2294,-5.5038,529.1813],[15.2264,-5.4978,528.1683],[15.2291,-5.492,592.5535],[15.236,-5.4957,536.2465],[15.2393,-5.4952,534.4874],[15.2424,-5.4863,527.7502],[15.2496,-5.4803,563.8022],[15.2456,-5.4752,530.8981],[15.2385,-5.4702,529.6064],[15.2445,-5.4662,563.6919],[15.2511,-5.4678,529.1157],[15.2575,-5.4595,560.6134],[15.2564,-5.4565,556.4425],[15.2479,-5.4584,525.1633],[15.2465,-5.4566,523.4235],[15.2474,-5.4533,535.9647],[15.2511,-5.4506,522.1661],[15.2561,-5.4494,524.5815],[15.2589,-5.4455,524.7841],[15.2774,-5.4326,520.2496],[15.2765,-5.4298,521.0928],[15.2737,-5.4294,521.3437],[15.2689,-5.4319,520.9343],[15.2655,-5.4305,522.5767],[15.2556,-5.4144,521.411],[15.2542,-5.4096,519.5848],[15.2592,-5.3993,537.0791],[15.2511,-5.3793,517.27],[15.2431,-5.3763,529.7322],[15.2341,-5.366,521.5103],[15.2203,-5.363,519.0978],[15.2136,-5.3531,518.2303],[15.2207,-5.3531,523.8965],[15.2219,-5.3506,535.3235],[15.2175,-5.3467,518.9951],[15.2131,-5.3462,514.0841],[15.211,-5.3414,517.9913],[15.2133,-5.3356,516.5808],[15.2126,-5.3338,531.6826],[15.2073,-5.3318,516.2886],[15.2043,-5.3272,526.7548],[15.2062,-5.323,534.6722],[15.2045,-5.3161,517.7524],[15.1983,-5.3136,514.7679],[15.196,-5.3104,520.8671],[15.1969,-5.3067,528.1222],[15.2006,-5.3035,546.6968],[15.2006,-5.2998,553.6809],[15.1946,-5.2936,512.212],[15.1939,-5.2906,516.7422],[15.2012,-5.2777,513.2854],[15.2014,-5.2747,514.3526],[15.1948,-5.2692,511.6635],[15.1931,-5.2628,518.0176],[15.1906,-5.2609,537.8992],[15.1883,-5.2623,511.3198],[15.1884,-5.2717,513.1472],[15.1771,-5.2561,512.2478],[15.1709,-5.2532,512.1013],[15.1786,-5.2474,543.0049],[15.18,-5.2437,558.9011],[15.1756,-5.2375,509.5627],[15.1745,-5.2292,518.0802],[15.1692,-5.2272,533.3187],[15.1644,-5.2313,509.8588],[15.1586,-5.23,514.3689],[15.1547,-5.2346,513.8782],[15.1511,-5.236,511.0934],[15.148,-5.2311,514.7722],[15.1456,-5.2378,507.3399],[15.1375,-5.2268,508.6554],[15.1393,-5.2247,506.4707],[15.1448,-5.2247,529.4003],[15.1448,-5.2194,535.0743],[15.1363,-5.2215,506.5006],[15.1333,-5.2208,509.9749],[15.129,-5.2158,509.089],[15.1251,-5.2192,543.8298],[15.1182,-5.2158,506.7029],[15.1152,-5.2084,503.4565],[15.1104,-5.2114,506.8635],[15.1081,-5.2209,514.8549],[15.1037,-5.219,506.775],[15.0998,-5.2069,514.4039],[15.1041,-5.1997,522.7549],[15.1027,-5.1967,512.3754],[15.0986,-5.1949,504.9315],[15.0968,-5.1908,505.0426],[15.0986,-5.1841,504.1372],[15.0973,-5.1827,507.3512],[15.0883,-5.1864,514.5918],[15.0834,-5.1857,512.953],[15.0731,-5.1736,508.8785],[15.0724,-5.1655,516.0895],[15.062,-5.1547,501.1995],[15.0615,-5.149,498.735],[15.064,-5.1411,498.0936],[15.0679,-5.1368,507.4175],[15.0736,-5.1197,502.7476],[15.0755,-5.1177,499.3841],[15.0833,-5.1176,516.8073],[15.0844,-5.1135,534.4139],[15.0782,-5.1098,498.1109],[15.0766,-5.1052,522.5044],[15.0779,-5.1004,508.2101],[15.0869,-5.0958,524.6385],[15.0914,-5.0868,547.4567],[15.0887,-5.0817,520.2213],[15.0841,-5.0815,502.2965],[15.0793,-5.0845,509.5337],[15.0761,-5.0845,511.7913],[15.0714,-5.0774,496.6846],[15.0627,-5.0776,513.7115],[15.0584,-5.0747,527.4265],[15.0572,-5.071,496.6984],[15.0615,-5.0657,498.8531],[15.0694,-5.0673,504.9128],[15.0804,-5.0627,503.1309],[15.0824,-5.0601,515.9472],[15.0815,-5.0562,508.3144],[15.0721,-5.053,495.2319],[15.0766,-5.0452,501.5601],[15.0771,-5.0376,495.5204],[15.0835,-5.0382999999999996,496.244],[15.0911,-5.0355,497.1384],[15.086,-5.0309,495.0849],[15.0821,-5.0311,498.0728],[15.08,-5.033,494.0612],[15.0716,-5.0332,502.5512],[15.0674,-5.0291,492.8288],[15.0663,-5.024,497.012],[15.0676,-5.0157,494.8923],[15.0717,-5.0095,501.3573],[15.0775,-5.0074,520.6105],[15.0892,-5.0109,522.613],[15.0976,-5.0021,591.6709],[15.0988,-4.9982,563.7494],[15.0974,-4.9931,558.901],[15.0797,-4.9775,495.001],[15.0774,-4.9734,487.5752],[15.0734,-4.9416,487.3705],[15.0564,-4.9286,461.3918],[15.0483,-4.9291,467.4987],[15.0481,-4.9178,479.7969],[15.0419,-4.9196,464.5641],[15.0389,-4.9162,464.5096],[15.0327,-4.9153,457.3961],[15.0247,-4.9167,501.469],[15.0192,-4.9137,461.9436],[15.0132,-4.9146,480.9116],[15.01,-4.91,479.6137],[15.0097,-4.9034,483.2986],[15.0072,-4.9004,456.264],[15.0028,-4.9015,454.588],[14.9973,-4.9002,464.9299],[14.9918,-4.8894,460.6614],[14.9936,-4.8855,471.7554],[14.9931,-4.8822,483.0694],[14.9793,-4.8685,453.0759],[14.9853,-4.8627,455.0055],[14.9818,-4.8542,456.2208],[14.9758,-4.8485,468.7565],[14.9687,-4.8448,444.6279],[14.9653,-4.8439,441.0088],[14.96,-4.8462,453.8815],[14.9513,-4.8322,469.3192],[14.9444,-4.8278,452.0356],[14.9437,-4.8216,431.7257],[14.9344,-4.8028,457.8724],[14.9296,-4.7989,463.0823],[14.9234,-4.8005,486.3516],[14.9179,-4.7996,435.1296],[14.9078,-4.7803,394.3144],[14.9025,-4.7819,363.9926],[14.8963,-4.7729,350.0861],[14.8903,-4.7702,361.379],[14.8728,-4.7682,306.5203],[14.8706,-4.7838,278.4568],[14.8562,-4.8034,367.2489],[14.8552,-4.8088,361.8224],[14.8497,-4.8178,328.5109],[14.8438,-4.8245,348.0085],[14.826599999999999,-4.8363,333.4695],[14.8129,-4.843,307.8531],[14.8007,-4.8429,338.2194],[14.7718,-4.8582,376.5453],[14.7616,-4.8651,325.5083],[14.7394,-4.8758,198.0],[14.7252,-4.8865,196.5],[14.6937,-4.9144,272.5959],[14.6879,-4.9176,329.1242],[14.6462,-4.9232,191.5],[14.6286,-4.9166,198.5011],[14.612,-4.9075,189.0],[14.592,-4.9034,188.0],[14.5867,-4.8997,187.5],[14.5763,-4.8834,186.5],[14.5576,-4.8654,184.75],[14.5427,-4.8622,183.5],[14.5283,-4.8625,183.0],[14.5085,-4.858,181.5],[14.497,-4.8507,181.0],[14.4899,-4.8482,210.6128],[14.4828,-4.8498,220.1117],[14.4776,-4.853,254.2912],[14.471,-4.863,218.9093],[14.4605,-4.8736,281.547],[14.45,-4.8807,238.1268],[14.4458,-4.8798,195.5844],[14.4355,-4.8858,239.4925],[14.43,-4.8964,263.3742],[14.3982,-4.9199,275.3198],[14.3812,-4.9229,237.6217],[14.3745,-4.922,219.3546],[14.3479,-4.9326,245.9511],[14.3316,-4.9412,241.0833],[14.3165,-4.9432,277.5829],[14.3115,-4.9396,277.6066],[14.2968,-4.9423,270.2994],[14.2874,-4.9467,270.5865],[14.283,-4.9513,255.5983],[14.2715,-4.9523,278.5947],[14.2681,-4.9507,253.052],[14.2649,-4.9452,238.3739],[14.2607,-4.9442,239.5632],[14.2555,-4.9396,239.5895],[14.2428,-4.9374,256.2315],[14.2392,-4.9399,263.5322],[14.2279,-4.9388,263.198],[14.2229,-4.9408,254.5419],[14.2098,-4.9379,190.2421],[14.2075,-4.9404,179.1243],[14.1942,-4.9427,184.5688],[14.1924,-4.9466,190.6331],[14.1864,-4.9508,188.3385],[14.1864,-4.9545,186.4664],[14.1912,-4.9657,188.5481],[14.1933,-4.9655,187.8468],[14.196,-4.9613,187.5943],[14.1986,-4.9643,188.316],[14.2055,-4.965,193.5537],[14.2062,-4.9673,190.1201],[14.2032,-4.9694,184.4927],[14.2066,-4.9747,185.0002],[14.2032,-4.9823,218.5311],[14.1981,-4.985,219.652],[14.1993,-4.9887,219.1028],[14.2071,-4.983,211.0584],[14.2117,-4.9744,186.6417],[14.2199,-4.9795,187.5777],[14.2209,-4.982,187.7035],[14.2183,-4.9873,217.7312],[14.219,-4.9894,232.9971],[14.2232,-4.9871,192.2272],[14.2275,-4.9901,188.5223],[14.2333,-4.9898,187.9622],[14.234,-4.9924,188.398],[14.2319,-4.9981,201.7301],[14.2337,-5.0009,207.1947],[14.2483,-5.0,224.2012],[14.2581,-5.005,221.4789],[14.2719,-5.0031,201.6703],[14.282,-5.0125,199.0181],[14.2827,-5.0146,198.0285],[14.2806,-5.0188,194.1069],[14.2818,-5.0222,208.1897],[14.2873,-5.0208,195.1349],[14.2981,-5.0298,214.5067],[14.3045,-5.0302,196.8994],[14.3079,-5.0334,196.529],[14.31,-5.0305,197.547],[14.3178,-5.0334,197.5834],[14.319,-5.0378,200.2435],[14.3231,-5.0401,199.8553],[14.3236,-5.0442,203.5217],[14.3286,-5.0525,214.2886],[14.3289,-5.0576,204.9588],[14.3227,-5.0578,203.617],[14.322,-5.0601,211.2093],[14.3247,-5.0638,203.0985],[14.3323,-5.0682,207.5924],[14.3353,-5.0624,217.6382],[14.3383,-5.0688,209.9374],[14.3376,-5.0718,212.1329],[14.3344,-5.0723,203.8878],[14.3339,-5.0774,205.6913],[14.33,-5.0778,204.0582],[14.3298,-5.0813,202.7057],[14.3323,-5.0827,202.6245],[14.333,-5.0886,206.5457],[14.3388,-5.0856,209.7775],[14.3409,-5.0916,228.2134],[14.339,-5.0953,234.4781],[14.3319,-5.0944,209.0679],[14.328,-5.1018,208.5375],[14.3317,-5.1045,209.8109],[14.3377,-5.1149,212.3133],[14.3457,-5.1146,220.2132],[14.3519,-5.1217,209.16309999999999],[14.3478,-5.127,214.7754],[14.3487,-5.1284,219.8403],[14.351,-5.1298,233.7431],[14.3561,-5.1289,214.296],[14.357,-5.1266,219.3454],[14.3597,-5.127,215.7357],[14.3611,-5.1298,211.7742],[14.3604,-5.1325,211.4272],[14.3644,-5.139,213.8013],[14.3671,-5.1394,215.4756],[14.3692,-5.1357,213.368],[14.3712,-5.1353,225.6272],[14.3724,-5.1383,232.6921],[14.3692,-5.1413,226.2654],[14.3678,-5.1459,225.1225],[14.3621,-5.1463,213.6647],[14.3589,-5.1496,214.982],[14.355,-5.1491,210.7954],[14.3485,-5.1567,215.6911],[14.3492,-5.1585,239.7744],[14.355,-5.1585,217.3434],[14.3564,-5.1664,246.1324],[14.3623,-5.1659,216.8957],[14.3639,-5.168,217.7374],[14.3633,-5.1714,218.331],[14.366,-5.1728,217.5935],[14.3724,-5.1677,216.9888],[14.3734,-5.1698,217.0771],[14.3665,-5.1781,218.226],[14.3663,-5.1808,217.8313],[14.3715,-5.1852,222.7614],[14.3722,-5.1882,219.3147],[14.3691,-5.2181,224.0302],[14.3645,-5.2177,221.2433],[14.3622,-5.2119,220.6027],[14.3601,-5.2133,219.9565],[14.3624,-5.2239,224.8675],[14.367,-5.2252,227.5948],[14.3712,-5.2227,225.7876],[14.3716,-5.225,225.113],[14.3677,-5.2326,223.9166],[14.373,-5.2337,225.2068],[14.3739,-5.24,225.3249],[14.3806,-5.2399,230.3561],[14.3808,-5.2485,231.3044],[14.3877,-5.2528,235.0083],[14.3923,-5.2593,227.9318],[14.3933,-5.2659,235.0281],[14.399,-5.2684,248.5249],[14.3988,-5.2705,240.2475],[14.3953,-5.2721,230.7397],[14.394,-5.2781,229.0542],[14.391,-5.2813,234.2696],[14.391,-5.291,247.7799],[14.3947,-5.2958,249.0513],[14.3954,-5.3007,237.5677],[14.391,-5.3007,240.8507],[14.3871,-5.3085,233.7731],[14.3876,-5.311,236.72],[14.383,-5.3115,250.2826],[14.3745,-5.3168,242.6018],[14.3832,-5.3189,266.5711],[14.3873,-5.3233,268.4604],[14.3886,-5.3322,269.8112],[14.3879,-5.3573,258.8359],[14.3991,-5.3811,530.1436],[14.4029,-5.4006,603.3582],[14.4071,-5.4128,629.1837],[14.4288,-5.4068,700.1467],[14.4498,-5.3942,668.1856],[14.4686,-5.3888,730.6076],[14.4799,-5.383,670.0023],[14.5234,-5.3805,379.626],[14.5287,-5.3833,384.2777],[14.5095,-5.398,368.9518],[14.5017,-5.4091,353.4275],[14.4952,-5.4047,352.2863],[14.4925,-5.4228,372.5239],[14.496,-5.4269,373.5748],[14.5046,-5.4321,374.5428],[14.5109,-5.4391,363.5415],[14.4882,-5.4545,374.7253],[14.4859,-5.4632,342.8165],[14.486,-5.4755,359.587],[14.4826,-5.482,356.6613],[14.481,-5.4908,337.076],[14.4828,-5.5007,352.6125],[14.4916,-5.5123,370.639],[14.4933,-5.5184,370.1366],[14.4917,-5.5336,369.0756],[14.4861,-5.5547,375.6525],[14.4586,-5.5672,334.3415],[14.4607,-5.5727,375.8439],[14.4671,-5.5805,369.0287],[14.4623,-5.5893,360.219],[14.4651,-5.595,379.8011],[14.4575,-5.607,348.7938],[14.4568,-5.6109,339.2905],[14.4603,-5.612,345.6608],[14.4623,-5.6173,343.1565],[14.4676,-5.6168,360.1622],[14.4727,-5.6214,365.2693],[14.4773,-5.6221,372.273],[14.4837,-5.6198,359.9424],[14.4986,-5.6205,377.6563],[14.4957,-5.6272,391.6187],[14.4991,-5.643,378.4318],[14.4969,-5.6497,373.0064],[14.4987,-5.6536,374.0211],[14.5051,-5.6591,393.6897],[14.5113,-5.6602,388.8533],[14.5157,-5.6711,378.9479],[14.5231,-5.6759,401.6064],[14.524,-5.6802,397.2198],[14.5222,-5.683,395.5806],[14.5139,-5.6885,397.3253],[14.5137,-5.6924,406.2484],[14.5096,-5.6961,392.5672],[14.5107,-5.6987,397.2915],[14.5179,-5.7014,410.1],[14.516,-5.7062,410.5972],[14.5165,-5.7111,405.334],[14.5202,-5.7219,422.3952],[14.5227,-5.7223,426.6149],[14.5264,-5.72,421.8701],[14.5319,-5.723,418.5536],[14.5491,-5.7262,418.2989],[14.563,-5.7414,436.4113],[14.568,-5.7423,420.8192],[14.5722,-5.7397,417.5984],[14.5866,-5.7203,446.387],[14.6103,-5.7035,411.7537],[14.626,-5.7017,416.1579],[14.6288,-5.707,388.2374],[14.6288,-5.7139,379.5648],[14.6318,-5.7171,382.3805],[14.6348,-5.7288,375.1997],[14.6342,-5.735,376.2473],[14.6257,-5.7479,382.0314],[14.6303,-5.7509,397.8918],[14.634,-5.7619,402.3719],[14.6315,-5.7659,382.4955],[14.6326,-5.7693,381.0366],[14.6356,-5.7693,380.776],[14.6377,-5.7663,390.5867],[14.6418,-5.7773,381.0839],[14.6464,-5.7769,399.5864],[14.6473,-5.7796,398.6021],[14.6464,-5.7822,391.9928],[14.6428,-5.784,387.7906],[14.6432,-5.7909,386.7337],[14.6412,-5.793,380.1146],[14.6363,-5.7909,394.1289],[14.6318,-5.7955,382.5678],[14.6288,-5.7964,392.5815],[14.6256,-5.8027,383.3518],[14.6357,-5.8098,416.2958],[14.6486,-5.8275,421.7131],[14.6514,-5.8275,434.3188],[14.6532,-5.8364,424.4668],[14.6562,-5.8408,419.5481],[14.6553,-5.8426,400.9294],[14.6592,-5.8451,423.8269],[14.6599,-5.8477,416.4075],[14.6585,-5.85,420.2599],[14.656,-5.8504,413.2995],[14.6549,-5.8544,415.5518],[14.6572,-5.859,411.5122],[14.6533,-5.861,399.0415],[14.6494,-5.858,426.9238],[14.6461,-5.8629,412.8103],[14.6436,-5.8601,446.672],[14.6397,-5.8654,449.8764],[14.6344,-5.8647,450.0181],[14.6312,-5.8733,439.8187],[14.6221,-5.8825,457.3602],[14.6202,-5.8864,446.4018],[14.6161,-5.8878,485.1521],[14.6145,-5.8921,462.9467],[14.6092,-5.8945,461.7693],[14.6072,-5.9016,478.9713],[14.611,-5.9096,461.4277],[14.6441,-5.8974,454.5225],[14.6557,-5.895,478.7526],[14.7003,-5.881,453.2265],[14.8045,-5.8812,466.0001],[14.9106,-5.8771,675.4923],[14.9622,-5.8734,713.2018],[15.11,-5.8731,662.7289],[15.1199,-5.8717,829.8312],[15.125,-5.873,845.3374],[15.241,-5.8734,772.5017],[15.2954,-5.8799,782.144],[15.2938,-5.8743,765.6638]],
[[14.8409,-5.2136,601.9625],[14.8513,-5.2104,574.8181],[14.868,-5.2095,579.6268],[14.8739,-5.2107,576.424],[14.8813,-5.2214,583.3679],[14.8995,-5.2294,589.5237],[14.9024,-5.2342,588.4482],[14.9042,-5.244,588.819],[14.9125,-5.2503,581.6841],[14.9143,-5.2577,580.2103],[14.911,-5.2673,581.3662],[14.9015,-5.2702,602.153],[14.8894,-5.2777,662.4081],[14.8754,-5.2804,695.5364],[14.8552,-5.2774,689.9056],[14.8365,-5.2675,742.2112],[14.8329,-5.2574,698.4128],[14.8314,-5.236,716.9752],[14.8326,-5.2226,700.4142],[14.8409,-5.2136,601.9625]]]]}
,"properties": {"GID_2": "COD.11.12_1","GID_0": "COD","country": "DemocraticRepublicoftheCongo","GID_1": "COD.11_1","province": "Kongo-Central","NL_NAME_1": "NA","county": "Mbanza-Ngungu","VARNAME_2": "NA","NL_NAME_2": "NA","TYPE_2": "Territoire","ENGTYPE_2": "Territory","CC_2": "NA","HASC_2": "NA","name": "Mbanza-Ngungu.county","area_km2": 8741.282,"hist_schema_id": "Elevation0-9000","hist_area_km2": {"175": 8.978,"200": 49.742,"225": 54.95,"250": 40.105,"275": 51.048,"300": 46.973,"325": 45.369,"350": 105.853,"375": 317.418,"400": 591.593,"425": 749.544,"450": 653.098,"475": 468.611,"500": 476.33,"525": 583.331,"550": 716.969,"575": 817.339,"600": 693.115,"625": 555.765,"650": 477.294,"675": 342.335,"700": 235.255,"725": 184.867,"750": 162.021,"775": 148.99,"800": 107.693,"825": 46.378,"850": 8.819,"875": 1.498}}}