{"type":"Feature","properties":{"GID_2":"COD.26.2_1","GID_0":"COD","country":"DemocraticRepublicoftheCongo","GID_1":"COD.26_1","province":"Tshuapa","NL_NAME_1":"NA","county":"Boende","VARNAME_2":"NA","NL_NAME_2":"NA","TYPE_2":"Territoire","ENGTYPE_2":"Territory","CC_2":"NA","HASC_2":"NA","name":"Boende.county"},
"geometry":{"type": "MultiPolygon","coordinates": [[[[19.823,-0.1666,330.3433],[19.8318,-0.1699,330.6225],[19.8432,-0.1778,327.9757],[19.8539,-0.1774,325.3039],[19.8585,-0.1804,323.538],[19.8602,-0.1956,324.7524],[19.8638,-0.1995,325.2383],[19.8716,-0.2005,324.9087],[19.875,-0.1991,325.0697],[19.8838,-0.186,325.4325],[19.886,-0.1855,325.3969],[19.8883,-0.1885,325.5541],[19.893,-0.2049,325.7727],[19.898,-0.2057,325.213],[19.9017,-0.2029,325.6629],[19.9077,-0.1896,335.4995],[19.9118,-0.1901,334.4595],[19.9181,-0.206,324.9323],[19.9208,-0.2175,332.2052],[19.9287,-0.229,335.1353],[19.9275,-0.2361,335.7819],[19.9227,-0.2425,331.8029],[19.9254,-0.2485,329.0609],[19.9242,-0.2556,340.2163],[19.9254,-0.2577,338.1411],[19.9333,-0.2585,326.4835],[19.9393,-0.2615,320.4422],[19.9435,-0.2739,329.206],[19.9602,-0.2756,323.8186],[19.9658,-0.283,328.4676],[19.9683,-0.2841,327.3976],[19.9748,-0.2762,328.2189],[19.9784,-0.2782,327.5725],[19.987,-0.2932,333.9852],[19.9911,-0.2971,330.2144],[19.9952,-0.2967,332.8326],[19.9952,-0.3011,330.5771],[20.0109,-0.3113,328.5151],[20.0166,-0.3125,328.2021],[20.0257,-0.3068,328.7876],[20.0307,-0.3068,329.1595],[20.0382,-0.3116,329.509],[20.0408,-0.3116,329.4213],[20.0439,-0.3112,329.6349],[20.0497,-0.3067,330.0247],[20.0524,-0.3071,329.8992],[20.0542,-0.312,330.4102],[20.0548,-0.3253,330.7164],[20.0673,-0.3348,331.9708],[20.0643,-0.3426,331.7982],[20.0701,-0.3501,331.0993],[20.0715,-0.3637,331.4913],[20.0863,-0.3737,330.7964],[20.1088,-0.3924,333.6494],[20.1114,-0.4094,338.0237],[20.1054,-0.4188,338.2234],[20.0999,-0.4388,335.9959],[20.0928,-0.4452,328.2488],[20.0962,-0.458,330.5928],[20.0941,-0.4667,327.5455],[20.0974,-0.4815,330.4723],[20.101,-0.4838,331.4681],[20.1095,-0.4797,333.212],[20.1142,-0.4848,336.9976],[20.1211,-0.4883,337.9236],[20.1194,-0.4956,336.4743],[20.1205,-0.506,335.9338],[20.1235,-0.5099,337.077],[20.1298,-0.5152,336.6785],[20.1414,-0.5212,336.1309],[20.1464,-0.5263,337.5546],[20.1555,-0.5285,337.7297],[20.1535,-0.5372,337.9149],[20.155,-0.5427,327.7227],[20.1639,-0.551,333.1218],[20.1563,-0.5576,339.1471],[20.1574,-0.5611,335.5423],[20.1749,-0.5768,337.1926],[20.1737,-0.5933,337.6175],[20.176,-0.5975,339.9274],[20.1805,-0.6,334.3754],[20.1837,-0.5996,321.453],[20.1883,-0.5934,325.6676],[20.1914,-0.5934,323.0524],[20.1956,-0.596,340.1439],[20.2038,-0.5979,338.9977],[20.2181,-0.6115,341.439],[20.2209,-0.6106,342.7141],[20.2246,-0.603,342.6543],[20.2264,-0.6028,342.9055],[20.2342,-0.614,341.9163],[20.2399,-0.617,340.065],[20.2467,-0.6244,350.9386],[20.2495,-0.6353,340.7296],[20.255,-0.6402,343.9149],[20.2556,-0.6482,343.9234],[20.2601,-0.6503,344.4214],[20.2713,-0.6506,345.9667],[20.2809,-0.6603,345.1227],[20.2838,-0.6656,348.4835],[20.2939,-0.665,352.6879],[20.3048,-0.6733,351.2039],[20.3082,-0.6837,362.3581],[20.3132,-0.6885,363.6741],[20.3186,-0.6977,346.9886],[20.3234,-0.6984,346.4974],[20.3256,-0.701,347.7283],[20.3229,-0.7067,344.8555],[20.3245,-0.7092,343.3732],[20.3314,-0.7091,351.7603],[20.3351,-0.7036,353.2286],[20.3455,-0.7027,357.7014],[20.3503,-0.6954,348.3014],[20.3556,-0.6945,347.6633],[20.3649,-0.6971,348.742],[20.3679,-0.7026,364.0663],[20.3658,-0.7113,365.8534],[20.3687,-0.7171,360.3281],[20.3765,-0.7194,366.8985],[20.3785,-0.7219,359.2055],[20.3794,-0.7252,359.9632],[20.3771,-0.733,358.5879],[20.3795,-0.7451,348.8107],[20.3825,-0.7502,347.8837],[20.3866,-0.7507,346.5099],[20.3882,-0.7525,355.6738],[20.3884,-0.759,346.2343],[20.3959,-0.7652,357.7252],[20.402,-0.7689,348.3039],[20.4187,-0.7637,350.2627],[20.4265,-0.7668,354.7446],[20.4297,-0.7656,350.429],[20.4322,-0.762,350.7678],[20.4356,-0.7615,353.828],[20.4409,-0.7632,358.3344],[20.4613,-0.7628,376.0515],[20.4632,-0.7637,375.448],[20.4673,-0.7711,377.66],[20.4785,-0.7732,366.1753],[20.4801,-0.7776,367.228],[20.4874,-0.774,360.4377],[20.4894,-0.7747,354.5739],[20.4913,-0.7779,356.9061],[20.4843,-0.7912,351.1678],[20.4852,-0.7937,349.8884],[20.5008,-0.7954,357.4992],[20.5205,-0.792,360.2567],[20.5298,-0.7959,351.3238],[20.5494,-0.7959,363.0256],[20.5518,-0.7993,359.7833],[20.5507,-0.8029,370.1791],[20.5366,-0.8143,372.3338],[20.5488,-0.8136,372.2307],[20.5527,-0.8166,362.3588],[20.5571,-0.8162,362.9411],[20.5591,-0.8178,358.2163],[20.5586,-0.827,356.5374],[20.5643,-0.8355,358.7557],[20.5641,-0.8375,356.6186],[20.5719,-0.8376,350.96],[20.5831,-0.8443,359.997],[20.5802,-0.8506,360.2802],[20.5923,-0.8554,358.597],[20.6,-0.8564,365.5041],[20.6121,-0.8618,351.2085],[20.62,-0.8703,361.0538],[20.6256,-0.8676,356.7875],[20.6306,-0.8682,368.5552],[20.6335,-0.8784,362.1298],[20.6399,-0.8835,373.1934],[20.6353,-0.8908,358.0333],[20.6391,-0.8942,352.0216],[20.6408,-0.9003,359.7385],[20.6446,-0.8995,357.9109],[20.6475,-0.9013,347.3609],[20.6533,-0.9011,354.5846],[20.655,-0.9109,346.7337],[20.6598,-0.9169,347.8244],[20.661,-0.913,354.9512],[20.6646,-0.9095,347.4578],[20.6685,-0.9118,353.8525],[20.671,-0.9158,356.104],[20.6744,-0.9112,365.5154],[20.6831,-0.9131,356.5385],[20.6866,-0.9087,370.7388],[20.69,-0.909,369.0274],[20.6929,-0.9113,362.5371],[20.6965,-0.9173,370.733],[20.7014,-0.9134,358.7394],[20.7062,-0.9127,380.8815],[20.7129,-0.9186,360.6759],[20.7176,-0.9199,362.7584],[20.7182,-0.9252,362.7268],[20.7298,-0.9386,359.6215],[20.7311,-0.9443,357.8081],[20.7343,-0.9475,352.355],[20.748,-0.9488,365.5269],[20.753,-0.9525,358.9683],[20.7649,-0.9574,387.0405],[20.7703,-0.952,376.4162],[20.773,-0.9522,366.8496],[20.7753,-0.9606,369.1169],[20.7811,-0.964,378.5428],[20.7927,-0.9623,356.4598],[20.7962,-0.9603,354.7123],[20.8014,-0.961,357.7694],[20.8032,-0.9674,371.8447],[20.8057,-0.9686,374.3983],[20.8137,-0.9597,371.1992],[20.8169,-0.9592,367.8718],[20.8192,-0.9652,379.8705],[20.8226,-0.9682,380.0315],[20.8332,-0.9703,381.7405],[20.8519,-0.9634,392.911],[20.8517,-0.9614,388.3705],[20.8463,-0.9607,379.1769],[20.8483,-0.9561,377.7428],[20.8535,-0.9514,382.6617],[20.8608,-0.9482,393.313],[20.8659,-0.95,376.774],[20.8734,-0.9466,391.1719],[20.8821,-0.946,378.4061],[20.8905,-0.9626,363.1038],[20.9021,-0.9785,366.7533],[20.9084,-0.9822,380.3681],[20.9128,-0.987,382.8596],[20.9175,-0.9889,393.3481],[20.9237,-0.9864,382.9965],[20.9313,-0.9807,390.6576],[20.9402,-0.9849,383.6029],[20.9502,-0.9835,388.9673],[20.9564,-0.9845,381.3365],[20.9628,-0.9751,393.0269],[20.9701,-0.9714,376.0181],[20.9758,-0.9712,394.0426],[20.9788,-0.9733,383.8594],[20.9812,-0.9831,394.8165],[20.9859,-0.9853,388.5375],[20.9904,-0.9854,390.0397],[21.0064,-0.9952,372.6395],[21.0085,-1.0071,394.2092],[21.012,-1.0125,376.6426],[21.0293,-1.0213,383.388],[21.0436,-1.0354,364.8067],[21.0475,-1.0361,355.5602],[21.0603,-1.0332,376.6117],[21.0631,-1.0393,388.4682],[21.0674,-1.0396,384.578],[21.0721,-1.0448,390.7002],[21.0827,-1.0488,396.8532],[21.0858,-1.0517,381.4254],[21.0922,-1.0529,388.7893],[21.1119,-1.0502,395.9385],[21.1183,-1.0512,377.3906],[21.1223,-1.0595,394.168],[21.1265,-1.0606,402.3478],[21.1317,-1.0579,417.1628],[21.1349,-1.0602,391.0444],[21.1408,-1.071,375.7789],[21.1508,-1.0782,390.7971],[21.1645,-1.0815,389.48],[21.1725,-1.0879,393.6401],[21.1823,-1.0921,381.1433],[21.187,-1.0981,387.9621],[21.1932,-1.1011,379.4137],[21.198,-1.1009,365.9431],[21.2071,-1.0971,379.5078],[21.222,-1.1008,360.8896],[21.2395,-1.1144,382.6924],[21.2434,-1.1218,372.4586],[21.2527,-1.1216,379.054],[21.2621,-1.1251,370.6876],[21.2747,-1.1238,396.0664],[21.2934,-1.1264,402.4779],[21.3064,-1.1317,368.506],[21.3104,-1.1428,359.0389],[21.3233,-1.1345,392.6266],[21.3287,-1.1347,394.057],[21.3315,-1.1373,388.57],[21.3306,-1.1394,379.3982],[21.3321,-1.1435,359.4938],[21.3477,-1.1512,398.9418],[21.3492,-1.1537,392.4035],[21.3469,-1.1563,384.4938],[21.3474,-1.1588,383.8591],[21.3567,-1.1653,393.0659],[21.3682,-1.1611,405.224],[21.3736,-1.1637,387.2115],[21.3855,-1.1599,411.2283],[21.3933,-1.1592,388.8262],[21.3949,-1.1679,403.0442],[21.404,-1.1744,409.4995],[21.4071,-1.1872,386.1904],[21.4095,-1.1873,394.0345],[21.4122,-1.1835,401.1067],[21.4144,-1.1832,412.0197],[21.4172,-1.1851,407.0558],[21.418,-1.1968,424.0844],[21.4234,-1.1967,379.4203],[21.4266,-1.2005,402.6702],[21.4297,-1.1933,395.5906],[21.4356,-1.1902,402.1661],[21.4572,-1.1946,400.15],[21.4703,-1.194,420.3257],[21.5118,-1.1859,383.3692],[21.5382,-1.1665,392.7424],[21.5447,-1.1666,417.5325],[21.5549,-1.1705,420.555],[21.565,-1.1699,415.4409],[21.589,-1.1501,383.7514],[21.6139,-1.1325,405.4726],[21.6326,-1.1215,392.2774],[21.6766,-1.0891,413.6145],[21.7058,-1.0734,380.6824],[21.7122,-1.0681,339.8984],[21.7163,-1.0614,345.6546],[21.7176,-1.0274,357.9178],[21.7195,-1.0159,360.5549],[21.7234,-1.0061,361.9122],[21.7156,-1.0118,359.4061],[21.7127,-1.0115,358.7108],[21.7083,-1.0085,358.2994],[21.7022,-0.9975,353.2827],[21.6995,-0.9975,351.4343],[21.6878,-1.0085,360.0089],[21.6821,-1.0098,360.9202],[21.6757,-1.0054,361.3024],[21.6613,-0.9891,357.7706],[21.6554,-0.9865,354.8591],[21.6469,-0.9859,356.6075],[21.6456,-0.9844,354.2392],[21.6477,-0.9759,358.6426],[21.6457,-0.9699,356.0707],[21.6318,-0.9568,359.1671],[21.6199,-0.9521,384.0961],[21.6151,-0.9477,381.2166],[21.6136,-0.9425,395.7723],[21.6154,-0.9339,388.5945],[21.6119,-0.919,378.2873],[21.6161,-0.9119,352.1556],[21.6016,-0.9089,347.9321],[21.5963,-0.9052,374.3471],[21.5906,-0.8852,338.9338],[21.5903,-0.8734,358.0203],[21.6063,-0.8721,356.807],[21.6179,-0.8772,354.4099],[21.646,-0.8753,360.5287],[21.6654,-0.8694,361.0807],[21.6897,-0.8563,363.7448],[21.7052,-0.8514,397.6581],[21.7123,-0.8459,407.7944],[21.7194,-0.8447,412.6258],[21.7372,-0.8333,395.902],[21.7517,-0.821,374.64],[21.7839,-0.8096,377.5126],[21.8008,-0.8069,381.2784],[21.8216,-0.806,423.3528],[21.8295,-0.7957,386.7816],[21.8708,-0.7211,407.1346],[21.8847,-0.714,441.1846],[21.9299,-0.6996,386.1805],[21.9459,-0.6908,388.8629],[21.8906,-0.6462,425.3883],[21.8889,-0.6418,423.7962],[21.889,-0.625,425.6866],[21.8936,-0.5712,361.4868],[21.892,-0.5573,363.8114],[21.8843,-0.5446,364.9778],[21.8638,-0.5319,336.0],[21.8624,-0.528,350.5656],[21.8675,-0.5168,353.8108],[21.8672,-0.5119,352.6505],[21.8643,-0.5078,356.0283],[21.8572,-0.5048,358.4266],[21.8511,-0.4983,358.5976],[21.8382,-0.476,355.4965],[21.8363,-0.4758,362.2085],[21.8313,-0.4868,358.7915],[21.8283,-0.4898,359.4095],[21.8233,-0.4911,362.8369],[21.8137,-0.4902,359.4138],[21.8066,-0.5039,364.1376],[21.8044,-0.5058,364.2972],[21.7976,-0.5072,361.3575],[21.7914,-0.505,360.7927],[21.7876,-0.5013,358.9954],[21.7815,-0.4811,357.905],[21.7772,-0.4806,357.8253],[21.7653,-0.487,354.4143],[21.7577,-0.4871,342.0847],[21.7541,-0.4837,360.3343],[21.7514,-0.4775,356.7417],[21.751,-0.4704,333.5],[21.7556,-0.4488,360.7682],[21.7545,-0.4433,360.5808],[21.752,-0.4408,356.2349],[21.7449,-0.4403,361.1045],[21.7337,-0.4442,354.5477],[21.7301,-0.449,352.1319],[21.7298,-0.465,356.3402],[21.7275,-0.4712,352.0066],[21.7263,-0.4726,357.4508],[21.7218,-0.4726,350.5254],[21.7131,-0.4643,358.2529],[21.7104,-0.4542,358.4716],[21.7125,-0.4386,361.1973],[21.7107,-0.4305,351.3442],[21.708,-0.4275,352.4501],[21.6989,-0.4256,360.1888],[21.6653,-0.4283,351.5322],[21.6566,-0.4262,354.3414],[21.6484,-0.4209,357.0762],[21.6409,-0.425,355.625],[21.6379,-0.4247,349.9045],[21.6199,-0.4118,356.9842],[21.6028,-0.4072,353.1681],[21.5997,-0.398,353.118],[21.6048,-0.383,357.6266],[21.6041,-0.378,357.3995],[21.5991,-0.375,351.0795],[21.5916,-0.3724,357.9952],[21.5884,-0.3731,354.5009],[21.587,-0.3765,351.3394],[21.5899,-0.3892,349.8925],[21.5878,-0.3938,352.511],[21.5844,-0.3967,352.171],[21.5645,-0.3969,351.6826],[21.5517,-0.4042,352.1047],[21.5433,-0.3931,351.3752],[21.5367,-0.3871,357.5386],[21.5322,-0.3858,354.3202],[21.529,-0.3871,355.2214],[21.5223,-0.396,359.6647],[21.52,-0.3974,359.5445],[21.5157,-0.3967,359.4913],[21.5116,-0.3896,355.0309],[21.5158,-0.374,343.3481],[21.5108,-0.3625,351.5266],[21.5083,-0.3604,346.436],[21.4974,-0.3592,348.8565],[21.485,-0.3706,349.1098],[21.4793,-0.3713,351.9568],[21.4743,-0.3701,354.4367],[21.4702,-0.3669,341.6532],[21.4625,-0.3529,349.71],[21.4593,-0.3501,349.5198],[21.4549,-0.3491,347.9928],[21.4351,-0.3589,328.5],[21.4207,-0.3515,348.9324],[21.3876,-0.3482,357.5984],[21.3792,-0.3493,356.113],[21.3769,-0.3543,353.5798],[21.3739,-0.3546,353.3453],[21.3691,-0.3495,353.88],[21.3664,-0.3375,353.9318],[21.3537,-0.323,352.8242],[21.3551,-0.3187,353.9106],[21.3629,-0.309,348.9533],[21.3654,-0.3024,348.859],[21.384,-0.2343,408.2734],[21.3934,-0.2262,417.3315],[21.4019,-0.2255,387.9967],[21.4232,-0.2162,411.2375],[21.4346,-0.208,370.6039],[21.4467,-0.1957,408.4644],[21.466,-0.1458,381.945],[21.4869,-0.1141,412.1989],[21.5006,-0.0874,420.7444],[21.5088,-0.0766,426.6218],[21.5497,-0.0327,406.3244],[21.5608,-0.0226,417.2723],[21.5624,-0.0164,404.881],[21.6105,0.0401,384.442],[21.6143,0.0439,384.2286],[21.6307,0.0488,379.8183],[21.6343,0.0527,380.6561],[21.6404,0.0638,378.963],[21.648,0.085,375.4087],[21.6375,0.0884,371.5466],[21.6415,0.0974,371.49],[21.6378,0.1003,373.3552],[21.6294,0.0968,373.9081],[21.6221,0.0961,376.3779],[21.6201,0.0921,376.647],[21.6206,0.0869,376.34],[21.6183,0.0869,376.8969],[21.6146,0.0928,376.3054],[21.6114,0.0932,374.9644],[21.6078,0.09,376.7956],[21.6053,0.0904,374.6609],[21.6039,0.0932,376.9119],[21.5969,0.0887,373.2258],[21.5886,0.0942,374.8798],[21.5853,0.0875,373.6397],[21.5787,0.0822,377.7422],[21.5623,0.0797,376.0083],[21.5503,0.0709,378.9678],[21.5482,0.0743,378.2346],[21.5493,0.0789,376.9396],[21.547,0.084,377.5342],[21.5435,0.0867,372.2635],[21.5371,0.0857,376.1612],[21.5313,0.0799,377.3958],[21.5306,0.0825,380.0851],[21.5348,0.0901,376.9784],[21.5341,0.0937,377.528],[21.5329,0.0953,376.8073],[21.5261,0.0935,373.6992],[21.5213,0.0948,373.5578],[21.5208,0.0975,374.2252],[21.5245,0.1006,372.2985],[21.524,0.1024,370.1046],[21.5187,0.103,371.3385],[21.5165,0.0982,371.5481],[21.5166,0.092,372.7337],[21.5118,0.0874,377.6475],[21.5081,0.0876,373.1543],[21.5011,0.0914,374.062],[21.4916,0.1021,369.8733],[21.4864,0.103,369.9105],[21.4825,0.0981,369.9352],[21.483,0.0956,368.2186],[21.4885,0.0897,374.9046],[21.4899,0.0865,375.2499],[21.4893,0.0835,374.6738],[21.4815,0.0841,369.6116],[21.474,0.0802,373.2755],[21.4704,0.0804,372.0896],[21.4655,0.0833,373.2544],[21.4623,0.0828,373.6964],[21.4587,0.0789,372.387],[21.4479,0.0861,377.1826],[21.4436,0.0852,374.2473],[21.4384,0.0815,373.9626],[21.4226,0.0843,374.2634],[21.4171,0.0877,373.1064],[21.4128,0.0854,378.8304],[21.3991,0.086,384.6147],[21.3941,0.0843,391.358],[21.3898,0.0788,395.6089],[21.3848,0.079,394.861],[21.3807,0.083,389.9966],[21.3782,0.0821,388.7839],[21.375,0.0759,392.219],[21.3712,0.074,372.086],[21.3666,0.0747,374.83],[21.3641,0.0786,356.0634],[21.3635,0.088,356.7922],[21.361,0.0896,364.9227],[21.3576,0.0893,366.6995],[21.3508,0.0844,370.6494],[21.3364,0.0829,374.1893],[21.3373,0.0866,369.3951],[21.327,0.0861,367.9185],[21.3186,0.089,373.0139],[21.3056,0.087,379.0107],[21.2981,0.0888,400.2513],[21.2912,0.0938,392.7835],[21.2973,0.1012,374.1683],[21.2888,0.1002,377.7292],[21.2787,0.1082,389.2826],[21.2714,0.1081,372.3083],[21.2658,0.1,375.9734],[21.2617,0.1011,374.002],[21.2562,0.1061,378.7116],[21.2645,0.1211,376.2544],[21.2647,0.1248,374.0956],[21.2621,0.1296,382.868],[21.2536,0.1371,384.1616],[21.2551,0.1452,371.3325],[21.2542,0.1477,368.6568],[21.2515,0.1488,369.5165],[21.2437,0.1478,367.9397],[21.2398,0.1556,373.0396],[21.2343,0.1581,370.9037],[21.2283,0.1585,372.0323],[21.226,0.1628,370.0178],[21.2265,0.1656,369.5509],[21.2322,0.1656,369.9182],[21.2333,0.1684,369.0856],[21.2318,0.1776,365.1193],[21.2266,0.1792,367.3705],[21.2191,0.1779,351.2182],[21.2147,0.1836,364.4232],[21.216,0.1857,368.4491],[21.2231,0.1858,368.3583],[21.2231,0.1897,362.3548],[21.2196,0.1917,369.0725],[21.216,0.1905,365.5416],[21.2065,0.1824,360.2913],[21.1891,0.1809,363.5918],[21.1742,0.1916,369.5268],[21.1696,0.2014,372.7032],[21.1677,0.2136,386.3165],[21.1611,0.2112,382.1657],[21.1536,0.2017,376.3592],[21.1415,0.1943,377.9548],[21.1314,0.1905,380.9248],[21.1067,0.1602,380.2094],[21.0149,0.0886,376.6096],[20.9912,0.0933,360.3046],[20.9871,0.0923,362.1271],[20.9819,0.0948,382.9901],[20.978,0.0941,387.0472],[20.9725,0.0897,365.3992],[20.9639,0.0889,364.8055],[20.9603,0.0854,378.696],[20.9559,0.0861,372.8343],[20.9473,0.0807,375.5591],[20.9342,0.0601,385.4664],[20.9252,0.0567,392.1058],[20.9108,0.0548,379.298],[20.8787,0.0408,366.1487],[20.8129,0.0065,368.479],[20.8099,0.0,361.9465],[20.8145,-0.0127,365.2401],[20.819,-0.0155,377.5586],[20.8211,-0.0251,355.484],[20.8185,-0.0343,363.6946],[20.8112,-0.0384,360.953],[20.8105,-0.0439,363.8502],[20.7994,-0.0301,373.9337],[20.7843,-0.0256,359.1926],[20.7582,-0.0127,368.9916],[20.7301,-0.0075,367.4752],[20.7173,-0.0085,367.6785],[20.7057,-0.0133,377.5759],[20.6968,-0.0119,389.7766],[20.6938,-0.0084,391.8778],[20.6875,-0.0062,392.6879],[20.6722,-0.0121,375.2416],[20.6591,-0.0205,371.9912],[20.6457,-0.0255,372.1956],[20.6238,-0.0308,373.9205],[20.5868,-0.0306,369.333],[20.5764,-0.0187,353.7394],[20.5543,-0.0519,350.8644],[20.549,-0.0635,350.7067],[20.5275,-0.0627,349.7999],[20.4734,-0.0711,343.6135],[20.4579,-0.0749,347.1887],[20.4556,-0.0706,343.5079],[20.4476,-0.0724,347.3636],[20.4369,-0.0778,351.3485],[20.4247,-0.0897,338.6954],[20.4135,-0.0933,340.6036],[20.3996,-0.1029,339.9985],[20.387,-0.1079,347.0961],[20.3806,-0.1122,348.9669],[20.3746,-0.1193,349.4371],[20.3469,-0.1373,354.2717],[20.339,-0.1629,348.7756],[20.3355,-0.1944,353.136],[20.3388,-0.2244,329.7039],[20.3437,-0.2424,329.6253],[20.3389,-0.249,329.5256],[20.3307,-0.2419,330.2589],[20.3259,-0.2402,330.6744],[20.3218,-0.2411,331.1938],[20.3154,-0.2471,333.426],[20.3108,-0.2546,334.9312],[20.3043,-0.2594,335.9443],[20.2948,-0.2603,333.254],[20.2882,-0.2584,343.7954],[20.2727,-0.245,339.1016],[20.2686,-0.2445,333.7903],[20.2572,-0.2527,342.3354],[20.2535,-0.2587,333.2672],[20.2505,-0.2683,329.8202],[20.2443,-0.2745,329.6978],[20.2358,-0.2735,330.806],[20.2299,-0.2712,330.3007],[20.2267,-0.2677,330.2999],[20.2229,-0.2505,333.5154],[20.2248,-0.2445,336.3109],[20.2199,-0.2396,333.1776],[20.2198,-0.2322,331.3276],[20.2135,-0.2217,335.6705],[20.2064,-0.2198,330.5621],[20.196,-0.2085,330.308],[20.1922,-0.2016,331.9128],[20.1897,-0.1913,344.2493],[20.1923,-0.1814,353.7561],[20.2068,-0.1558,346.3913],[20.2091,-0.1409,348.3339],[20.2082,-0.1344,355.234],[20.1989,-0.1227,352.8242],[20.194,-0.1199,352.7894],[20.1887,-0.1199,358.5351],[20.1734,-0.1258,360.6655],[20.1638,-0.1243,354.3091],[20.1442,-0.118,352.5678],[20.1387,-0.1182,352.3033],[20.1259,-0.1236,366.0936],[20.1173,-0.1224,373.7009],[20.0865,-0.1253,366.1551],[20.0787,-0.1273,357.5953],[20.0728,-0.1323,347.5908],[20.0702,-0.1382,353.5747],[20.0706,-0.1428,346.175],[20.0729,-0.1463,345.3534],[20.0788,-0.1459,344.0366],[20.0802,-0.1427,345.5729],[20.085,-0.1473,348.6562],[20.0904,-0.1494,344.9728],[20.0941,-0.1538,346.7244],[20.0908,-0.1677,350.5128],[20.0833,-0.1714,346.1343],[20.0746,-0.1723,342.7382],[20.0675,-0.1685,344.6869],[20.0501,-0.1496,342.5764],[20.0394,-0.1468,340.9852],[20.025,-0.1506,341.2025],[20.0202,-0.1504,341.9131],[20.0145,-0.146,339.6582],[20.0113,-0.14,343.1052],[20.0073,-0.1246,347.3932],[20.0026,-0.1167,349.7997],[19.9958,-0.11,333.0674],[19.9878,-0.1075,336.0748],[19.9697,-0.1074,343.9981],[19.9636,-0.1048,344.6484],[19.9545,-0.105,333.773],[19.9472,-0.1012,336.2476],[19.9422,-0.1019,327.0534],[19.9321,-0.1092,333.0811],[19.9227,-0.1098,331.8073],[19.9182,-0.107,332.9669],[19.9176,-0.0979,337.1736],[19.91,-0.0967,350.7651],[19.9041,-0.0932,351.1809],[19.897,-0.0938,348.0873],[19.8907,-0.0911,336.6632],[19.8662,-0.096,340.0332],[19.864,-0.0975,340.5716],[19.8497,-0.1225,337.8597],[19.8358,-0.1203,341.5853],[19.8273,-0.1251,346.693],[19.8245,-0.1311,347.7621],[19.8252,-0.1361,342.8214],[19.8282,-0.1391,335.4013],[19.833,-0.1362,340.8109],[19.8373,-0.1375,337.9037],[19.823,-0.1666,330.3433]],
[[20.8823,-0.2286,346.2769],[20.8776,-0.2313,339.9966],[20.866,-0.2308,324.3085],[20.8623,-0.2293,321.0],[20.8556,-0.2184,339.7018],[20.8557,-0.2114,345.625],[20.8576,-0.2077,348.4548],[20.861,-0.2052,348.2175],[20.8698,-0.2032,340.2991],[20.884,-0.2118,344.4005],[20.8865,-0.2203,346.1171],[20.8823,-0.2286,346.2769]]]]}}