{"type": "Feature","bbox": [25.4872,-12.0011,27.541,-10.461],"geometry": {"type": "MultiPolygon","coordinates": [[[[27.0731,-10.5634,1192.8123],[27.0658,-10.5621,1222.3306],[27.0437,-10.5511,1182.6929],[27.0324,-10.5524,1179.1125],[27.029,-10.5559,1154.9353],[27.022,-10.5594,1193.7178],[26.9997,-10.5569,1180.1997],[26.9804,-10.5576,1198.4453],[26.965699999999998,-10.5646,1132.6738],[26.961,-10.5688,1100.7189],[26.9563,-10.5755,1112.2568],[26.9465,-10.6069,1139.8647],[26.9389,-10.6073,1133.8335],[26.9283,-10.6013,1154.5762],[26.9205,-10.5632,1131.9099],[26.9197,-10.5495,1174.7888],[26.9235,-10.5368,1117.7238],[26.9236,-10.5304,1165.7476],[26.9178,-10.5174,1085.4984],[26.9096,-10.5107,1040.2444],[26.897,-10.5047,1152.1749],[26.8816,-10.4892,1129.2939],[26.8571,-10.481,1230.6693],[26.834,-10.4696,1294.3829],[26.8138,-10.464,1366.9565],[26.7838,-10.4679,1355.8811],[26.7362,-10.4699,1359.6223],[26.718,-10.4649,1347.1345],[26.706,-10.4677,1345.926],[26.6993,-10.4678,1381.7297],[26.6804,-10.4659,1445.335],[26.6644,-10.461,1385.3508],[26.6549,-10.461,1337.432],[26.6464,-10.4624,1371.5408],[26.6316,-10.4697,1484.1322],[26.6121,-10.4715,1448.2073],[26.5756,-10.4703,1398.8097],[26.5685,-10.4712,1383.136],[26.5599,-10.4753,1313.2505],[26.5362,-10.4794,1235.4327],[26.5083,-10.4741,1163.9015],[26.4956,-10.4748,1152.0095],[26.4849,-10.4797,1119.7439],[26.4538,-10.5015,1091.3629],[26.4561,-10.5013,1095.6874],[26.4639,-10.5083,1090.6833],[26.4713,-10.5091,1092.6965],[26.4751,-10.5118,1092.2664],[26.4755,-10.5205,1093.1986],[26.4854,-10.5367,1097.9165],[26.4874,-10.5448,1104.5939],[26.4975,-10.5481,1101.5032],[26.5097,-10.5617,1096.8391],[26.516,-10.5611,1105.4329],[26.5203,-10.5682,1107.0571],[26.5157,-10.5733,1102.3364],[26.5196,-10.5864,1098.407],[26.5279,-10.5936,1099.1053],[26.5399,-10.593,1099.8542],[26.5544,-10.5988,1101.3345],[26.5663,-10.6005,1100.3998],[26.5567,-10.6135,1109.3135],[26.5549,-10.628,1118.4924],[26.5434,-10.6403,1135.1843],[26.5351,-10.6467,1148.1321],[26.5279,-10.6578,1158.0797],[26.5219,-10.6611,1155.7786],[26.5173,-10.6683,1178.9479],[26.5102,-10.6744,1181.3749],[26.5105,-10.6783,1173.4319],[26.5166,-10.6863,1193.9647],[26.5753,-10.7101,1180.7854],[26.5849,-10.7185,1185.3325],[26.5997,-10.7275,1183.4891],[26.6051,-10.7334,1179.5586],[26.6062,-10.7404,1178.0499],[26.5964,-10.7606,1220.5194],[26.5952,-10.7676,1225.3462],[26.5857,-10.7833,1321.2427],[26.5685,-10.7969,1417.5646],[26.5616,-10.8119,1502.2623],[26.5603,-10.8413,1416.8844],[26.5615,-10.8576,1446.5874],[26.5629,-10.8635,1440.9015],[26.5666,-10.8689,1442.3694],[26.5659,-10.8816,1486.3667],[26.5612,-10.8825,1529.8218],[26.5564,-10.8871,1509.7487],[26.5496,-10.8984,1546.1067],[26.5411,-10.8989,1545.6569],[26.5236,-10.894,1536.2899],[26.5141,-10.8935,1545.4775],[26.4979,-10.8977,1397.9169],[26.4803,-10.9086,1425.0209],[26.4741,-10.9104,1450.2897],[26.4669,-10.9122,1470.5459],[26.4404,-10.9092,1424.071],[26.4264,-10.9182,1468.4476],[26.4189,-10.918,1479.9475],[26.4081,-10.9295,1509.9995],[26.3963,-10.9532,1542.3319],[26.3609,-11.0085,1510.8506],[26.3488,-11.0317,1551.8679],[26.3458,-11.0421,1533.954],[26.3442,-11.0575,1520.3228],[26.3559,-11.1028,1583.6001],[26.3558,-11.11,1597.3533],[26.3534,-11.1164,1594.1177],[26.356,-11.13,1629.5018],[26.3552,-11.1531,1614.2913],[26.3494,-11.1612,1599.1243],[26.3488,-11.1708,1605.2284],[26.3574,-11.2065,1559.4299],[26.3604,-11.2287,1595.6388],[26.3104,-11.2089,1599.7656],[26.3091,-11.2048,1599.1709],[26.3202,-11.1835,1594.0109],[26.3218,-11.1699,1603.3397],[26.3201,-11.155,1569.3923],[26.3164,-11.1477,1584.1599],[26.323,-11.1205,1576.4552],[26.3151,-11.1038,1551.9324],[26.3147,-11.0997,1547.23],[26.3278,-11.0757,1531.1836],[26.3313,-11.0671,1515.2712],[26.3309,-11.0612,1502.1257],[26.3278,-11.0555,1490.4333],[26.3242,-11.0525,1483.4236],[26.3108,-11.0485,1474.4733],[26.3032,-11.0392,1459.3871],[26.3,-11.0256,1471.1343],[26.2868,-10.9984,1454.6555],[26.285,-10.9964,1452.3328],[26.281,-10.9965,1453.1495],[26.2779,-10.9935,1448.4185],[26.2726,-10.9931,1448.0626],[26.2697,-10.9876,1445.5398],[26.2712,-10.9809,1449.938],[26.2654,-10.9612,1430.2393],[26.2646,-10.9518,1426.7886],[26.2585,-10.9494,1431.8665],[26.2553,-10.9515,1429.3121],[26.251,-10.9497,1433.2106],[26.2414,-10.9445,1425.54],[26.2397,-10.9388,1428.1914],[26.2343,-10.9368,1429.5397],[26.2298,-10.927,1419.9845],[26.233,-10.9246,1413.387],[26.2241,-10.9171,1417.1184],[26.2224,-10.913,1415.3821],[26.223,-10.9093,1410.2256],[26.2269,-10.9047,1416.3112],[26.2259,-10.8973,1404.3146],[26.2194,-10.8981,1422.0498],[26.2175,-10.8951,1406.9617],[26.2176,-10.888,1424.6565],[26.215,-10.8837,1402.2721],[26.2083,-10.884,1407.7925],[26.2024,-10.8802,1408.4008],[26.1952,-10.8825,1404.0469],[26.1861,-10.8813,1397.6187],[26.1806,-10.8843,1393.2271],[26.1738,-10.8819,1407.5925],[26.1666,-10.8831,1402.322],[26.16,-10.8906,1413.7531],[26.1509,-10.8951,1393.6613],[26.1515,-10.9054,1396.8887],[26.1493,-10.9133,1409.703],[26.1416,-10.926,1408.6582],[26.1235,-10.9481,1414.4517],[26.1168,-10.9541,1419.6749],[26.1063,-10.9554,1430.2776],[26.0967,-10.965,1439.3446],[26.0802,-10.9728,1459.2012],[26.0696,-10.9759,1472.3525],[26.0652,-10.9794,1470.7097],[26.0448,-10.9765,1504.3444],[25.9952,-10.964,1520.099],[25.9731,-10.9629,1501.0583],[25.9492,-10.9563,1482.1082],[25.9473,-10.9519,1479.6945],[25.9315,-10.9622,1453.9116],[25.9248,-10.9719,1466.1798],[25.877,-11.0161,1339.2933],[25.8824,-11.0188,1346.3043],[25.8827,-11.0225,1354.6827],[25.8788,-11.0301,1353.6234],[25.8782,-11.0366,1362.9292],[25.8796,-11.0395,1342.6047],[25.8666,-11.0602,1405.1265],[25.8542,-11.0747,1393.6001],[25.8494,-11.0972,1459.6567],[25.8297,-11.1116,1460.3386],[25.7935,-11.1326,1460.4089],[25.7906,-11.1607,1440.7609],[25.7905,-11.2037,1470.3706],[25.7959,-11.2168,1446.4753],[25.8094,-11.2307,1483.689],[25.8148,-11.242,1446.0515],[25.8154,-11.2609,1461.214],[25.8097,-11.2737,1439.8173],[25.803,-11.2835,1430.5659],[25.7706,-11.3114,1372.2839],[25.7566,-11.3386,1347.6968],[25.7586,-11.3673,1347.2026],[25.756,-11.3809,1334.0631],[25.7567,-11.3846,1326.6592],[25.7633,-11.3914,1329.5537],[25.758,-11.4002,1349.9043],[25.7602,-11.4032,1330.1042],[25.7711,-11.404,1324.9832],[25.7779,-11.4016,1336.9106],[25.781,-11.4066,1341.5417],[25.7815,-11.4112,1344.7006],[25.7783,-11.4202,1359.759],[25.78,-11.4216,1354.8641],[25.7773,-11.4285,1346.9482],[25.7738,-11.4306,1339.8407],[25.7736,-11.4343,1337.2361],[25.7777,-11.4457,1344.3586],[25.7748,-11.4582,1333.9441],[25.7681,-11.4661,1343.1857],[25.7606,-11.4639,1353.856],[25.7541,-11.4656,1348.4056],[25.7407,-11.4726,1357.1261],[25.7349,-11.4782,1335.9802],[25.7314,-11.4952,1345.8386],[25.7287,-11.5231,1344.6121],[25.7123,-11.5408,1346.0449],[25.7055,-11.5404,1357.3201],[25.7021,-11.5489,1356.5076],[25.695,-11.5555,1359.5081],[25.6882,-11.5537,1365.835],[25.6868,-11.5565,1349.3782],[25.6897,-11.5615,1348.6615],[25.6844,-11.5701,1350.1484],[25.6815,-11.5814,1352.3647],[25.676,-11.5902,1368.1721],[25.6824,-11.6205,1375.2091],[25.6744,-11.6323,1367.2896],[25.6566,-11.647,1379.5129],[25.6386,-11.6504,1381.9666],[25.6305,-11.6553,1389.6112],[25.6244,-11.6551,1401.8083],[25.6118,-11.6502,1415.1816],[25.6076,-11.653,1402.8612],[25.5999,-11.6731,1415.4623],[25.5781,-11.6885,1394.0623],[25.5724,-11.7021,1420.0648],[25.5599,-11.7121,1427.1794],[25.5517,-11.7272,1408.9907],[25.5448,-11.7335,1412.4355],[25.5368,-11.7345,1417.4247],[25.5317,-11.7393,1415.6471],[25.497,-11.726,1503.4713],[25.4959,-11.7384,1505.5404],[25.4987,-11.7466,1500.1333],[25.4985,-11.7519,1502.7291],[25.4893,-11.7604,1511.4515],[25.4872,-11.7655,1509.5994],[25.4889,-11.7732,1496.8907],[25.4946,-11.7796,1472.899],[25.5024,-11.7813,1464.1982],[25.5088,-11.7871,1499.5839],[25.5147,-11.7792,1490.9856],[25.5179,-11.7774,1480.5457],[25.5319,-11.7816,1461.0076],[25.5363,-11.7795,1465.5491],[25.5424,-11.7705,1469.5198],[25.5549,-11.7605,1476.2281],[25.5599,-11.7587,1474.5442],[25.5736,-11.7593,1459.9414],[25.5795,-11.7569,1461.3376],[25.5875,-11.7489,1450.913],[25.5892,-11.7358,1445.7214],[25.5956,-11.7319,1449.8256],[25.6069,-11.7313,1451.1466],[25.6178,-11.7276,1441.1951],[25.6254,-11.7275,1440.6453],[25.6332,-11.7307,1440.4092],[25.64,-11.7312,1447.3889],[25.6485,-11.7279,1450.6157],[25.6526,-11.7279,1451.0352],[25.66,-11.7349,1463.8699],[25.6661,-11.7476,1455.488],[25.6672,-11.7616,1452.5931],[25.6703,-11.769,1457.0211],[25.6837,-11.777,1464.0159],[25.6903,-11.7868,1452.4478],[25.6998,-11.79,1465.0618],[25.7021,-11.7926,1466.7825],[25.7029,-11.7991,1469.8071],[25.7053,-11.8034,1473.3845],[25.7142,-11.8092,1469.821],[25.7163,-11.8098,1465.4231],[25.7252,-11.807,1481.4518],[25.7352,-11.81,1475.0229],[25.7455,-11.8095,1465.1611],[25.7532,-11.815,1469.882],[25.7606,-11.8173,1464.136],[25.7666,-11.823,1454.1069],[25.7808,-11.8272,1481.9521],[25.7849,-11.8257,1486.4651],[25.789,-11.8215,1494.6272],[25.7969,-11.8207,1494.1323],[25.8071,-11.8221,1489.5569],[25.8183,-11.8273,1485.5212],[25.828,-11.8282,1484.9121],[25.8353,-11.8262,1482.2803],[25.8569,-11.8081,1472.1531],[25.867,-11.8043,1479.3635],[25.873,-11.8059,1479.6859],[25.8864,-11.8048,1500.8474],[25.8919,-11.8265,1458.735],[25.8895,-11.8464,1507.6724],[25.8909,-11.8484,1508.2773],[25.9019,-11.8504,1499.3617],[25.9075,-11.8643,1501.5052],[25.9122,-11.8699,1491.3562],[25.9254,-11.8813,1501.811],[25.9307,-11.8836,1492.9235],[25.9485,-11.8799,1492.0839],[25.9578,-11.873,1488.7855],[25.9621,-11.8738,1485.0737],[25.971,-11.878,1495.573],[25.9754,-11.885,1493.7871],[25.984,-11.889099999999999,1473.9351],[25.9901,-11.8952,1492.436],[25.9959,-11.9073,1482.8625],[25.997,-11.9162,1478.1813],[25.9952,-11.9199,1479.9175],[25.9842,-11.9259,1480.4154],[25.9844,-11.9355,1483.7068],[25.9814,-11.942,1496.0708],[25.9847,-11.9446,1508.2068],[26.0003,-11.9405,1496.4647],[26.0111,-11.9355,1490.3405],[26.0119,-11.9337,1484.5031],[26.0404,-11.9298,1479.0208],[26.0658,-11.9318,1474.98],[26.0825,-11.9351,1494.5325],[26.1244,-11.9375,1467.274],[26.1528,-11.9361,1480.2292],[26.1718,-11.9306,1485.2603],[26.2238,-11.9238,1499.7274],[26.2371,-11.9258,1498.5139],[26.2625,-11.9345,1497.2802],[26.2881,-11.9399,1511.6238],[26.3165,-11.956,1514.788],[26.3229,-11.9586,1524.5125],[26.33,-11.9586,1531.5029],[26.3795,-11.937,1528.172],[26.4141,-11.9281,1479.2623],[26.43,-11.9179,1505.6407],[26.4573,-11.9136,1531.693],[26.4733,-11.9164,1536.875],[26.4882,-11.9259,1515.0811],[26.4996,-11.9305,1518.0051],[26.5464,-11.9577,1530.6749],[26.5578,-11.9713,1478.3263],[26.5634,-11.9743,1503.3555],[26.5714,-11.9743,1482.5275],[26.5986,-11.9669,1427.1035],[26.6128,-11.9676,1442.8866],[26.6588,-11.9835,1442.8654],[26.6758,-11.9837,1419.0398],[26.6828,-11.9809,1400.0284],[26.6993,-11.9901,1452.5103],[26.7114,-12.0011,1445.4424],[26.717,-11.9998,1443.3866],[26.7273,-11.9936,1431.2238],[26.7547,-11.9685,1431.6001],[26.7655,-11.9644,1433.844],[26.7952,-11.9596,1390.7537],[26.8062,-11.9624,1381.6631],[26.8406,-11.9821,1420.1039],[26.8492,-11.9824,1408.6605],[26.8525,-11.9797,1434.4094],[26.8611,-11.9787,1451.3151],[26.877,-11.9823,1448.442],[26.8867,-11.9768,1449.2061],[26.894,-11.9584,1441.5101],[26.9017,-11.9571,1432.5699],[26.912,-11.9484,1393.7108],[26.9124,-11.9398,1398.9673],[26.9149,-11.9348,1409.677],[26.9244,-11.937,1405.1797],[26.9401,-11.9362,1404.739],[26.9461,-11.9244,1394.1075],[26.9572,-11.9174,1400.8777],[26.9617,-11.9093,1399.0576],[26.9698,-11.8768,1380.8918],[26.9834,-11.8679,1366.3792],[26.9863,-11.8566,1381.396],[26.989,-11.8532,1366.095],[26.9918,-11.8514,1370.9231],[27.0008,-11.8505,1375.2568],[27.0082,-11.8414,1379.2594],[27.0055,-11.836,1375.364],[26.9942,-11.8267,1354.9915],[26.9936,-11.8239,1352.1005],[26.9946,-11.8203,1345.8956],[26.9976,-11.817,1341.8207],[27.0044,-11.8168,1364.9296],[27.008,-11.8137,1369.9385],[27.0033,-11.8022,1366.9092],[27.0056,-11.7926,1353.0874],[27.0037,-11.7776,1345.3417],[27.0067,-11.7665,1361.6757],[27.0046,-11.7458,1371.6827],[27.0064,-11.7441,1369.1949],[27.0089,-11.7458,1369.9307],[27.0187,-11.7467,1362.5424],[27.0198,-11.7405,1371.816],[27.0247,-11.7408,1373.8247],[27.0263,-11.7354,1375.7662],[27.0318,-11.736,1377.4602],[27.0319,-11.7253,1366.9762],[27.038,-11.7174,1351.2803],[27.0462,-11.7112,1377.1194],[27.0476,-11.7082,1376.9695],[27.0458,-11.6947,1373.42],[27.0411,-11.6866,1386.964],[27.0418,-11.6752,1386.4482],[27.0375,-11.6704,1380.6384],[27.0327,-11.6698,1381.0446],[27.0278,-11.6538,1380.302],[27.0231,-11.6481,1389.0573],[27.0223,-11.6445,1390.4586],[27.0298,-11.6384,1395.7092],[27.0308,-11.6334,1394.3195],[27.0213,-11.6263,1390.3759],[27.0176,-11.6211,1385.9666],[27.0165,-11.6148,1391.5415],[27.0208,-11.6091,1385.0557],[27.0295,-11.6026,1388.6012],[27.0365,-11.6012,1378.2347],[27.0403,-11.5942,1399.6068],[27.0494,-11.59,1381.7285],[27.0543,-11.5909,1382.8022],[27.0642,-11.5981,1387.0786],[27.0812,-11.606,1383.9586],[27.0942,-11.6009,1383.1813],[27.0994,-11.5944,1377.9828],[27.1138,-11.5918,1370.9159],[27.1196,-11.5877,1371.2819],[27.1229,-11.5876,1373.2134],[27.1325,-11.5932,1371.1284],[27.1426,-11.5968,1379.1157],[27.1543,-11.5971,1383.6151],[27.1592,-11.5994,1384.7495],[27.1739,-11.5846,1382.0042],[27.1836,-11.5806,1383.6937],[27.1912,-11.5814,1386.4631],[27.1945,-11.5799,1389.6562],[27.1982,-11.5752,1396.1985],[27.2024,-11.5634,1408.0649],[27.2058,-11.5603,1407.5835],[27.2049,-11.5193,1402.825],[27.2118,-11.5106,1394.7142],[27.2186,-11.5065,1421.1812],[27.235,-11.4864,1412.17],[27.2367,-11.4746,1413.6809],[27.2437,-11.4576,1452.5106],[27.256,-11.437,1405.9196],[27.2608,-11.4298,1427.7886],[27.2896,-11.4201,1398.4611],[27.3007,-11.4119,1379.4327],[27.3051,-11.3939,1412.6729],[27.3178,-11.379,1405.3892],[27.3344,-11.3486,1362.4512],[27.3773,-11.2972,1332.9552],[27.392,-11.2879,1325.598],[27.4224,-11.2829,1346.8187],[27.4535,-11.2587,1339.3727],[27.4844,-11.2444,1346.0328],[27.512,-11.2511,1329.3079],[27.5225,-11.2501,1309.7871],[27.5309,-11.2455,1285.6805],[27.541,-11.2274,1293.2523],[27.4911,-11.1474,1268.0161],[27.4127,-11.0083,1217.5157],[27.4091,-11.0042,1203.0088],[27.3925,-10.9937,1189.7085],[27.352,-10.9781,1139.2927],[27.3329,-10.973,1138.2531],[27.3114,-10.9336,1136.2401],[27.3077,-10.9219,1135.901],[27.3099,-10.9141,1135.2815],[27.3014,-10.8811,1147.8167],[27.3013,-10.8714,1135.4384],[27.2971,-10.8607,1139.3086],[27.3016,-10.8482,1134.5029],[27.2974,-10.8381,1146.587],[27.3019,-10.8198,1182.02],[27.3082,-10.8085,1177.6266],[27.3195,-10.7947,1192.959],[27.3319,-10.7711,1077.2607],[27.32,-10.7593,1099.6777],[27.3188,-10.7543,1078.9926],[27.3134,-10.7532,1099.4739],[27.3064,-10.7476,1068.5176],[27.2977,-10.7468,1095.1123],[27.2934,-10.7395,1032.5266],[27.289,-10.7387,1057.4222],[27.2877,-10.7316,996.7439],[27.2851,-10.7319,999.5795],[27.2824,-10.7211,1022.8775],[27.285,-10.7123,958.9918],[27.284,-10.7045,954.8029],[27.2899,-10.6996,950.2472],[27.2946,-10.6993,946.1958],[27.304,-10.7042,953.7903],[27.31,-10.7043,951.161],[27.3142,-10.7012,945.0607],[27.3335,-10.7039,947.8483],[27.3353,-10.7014,936.6927],[27.3388,-10.7008,938.0273],[27.341,-10.6941,932.7992],[27.3569,-10.6865,931.4243],[27.3616,-10.6862,932.1967],[27.3659,-10.6907,934.6003],[27.3674,-10.6859,933.5151],[27.3631,-10.6776,935.5065],[27.3676,-10.6707,933.4636],[27.3679,-10.6608,928.8477],[27.3733,-10.6526,923.37],[27.3746,-10.6464,926.5867],[27.3848,-10.6416,927.4908],[27.3865,-10.6338,920.2431],[27.3757,-10.6312,933.1483],[27.3691,-10.6345,939.5504],[27.3628,-10.6351,944.2957],[27.3392,-10.6265,950.8258],[27.325,-10.6254,938.2483],[27.3193,-10.6227,944.5801],[27.3166,-10.6152,944.447],[27.3048,-10.605,953.78],[27.3305,-10.5877,967.9421],[27.3318,-10.5693,1008.1099],[27.3288,-10.5622,1015.4841],[27.3205,-10.554,1054.6991],[27.3056,-10.5547,1061.1432],[27.268,-10.5681,1059.6178],[27.2543,-10.5777,1015.7219],[27.2466,-10.5902,1000.0183],[27.2281,-10.5981,1105.797],[27.215,-10.6066,1033.1144],[27.1965,-10.6079,1049.7136],[27.1768,-10.6069,1070.9727],[27.1661,-10.6034,1086.126],[27.1596,-10.5934,1095.1799],[27.1423,-10.5776,1078.5094],[27.1316,-10.5765,1066.9233],[27.1209,-10.5707,1087.6349],[27.1018,-10.5696,1102.6515],[27.0731,-10.5634,1192.8123]],
[[26.6428,-10.9796,1239.7493],[26.6307,-10.9664,1255.9858],[26.6347,-10.9377,1289.4131],[26.6554,-10.9023,1342.3511],[26.6718,-10.8797,1426.1941],[26.6868,-10.8885,1377.4884],[26.7031,-10.9132,1322.0222],[26.7524,-10.9144,1273.7405],[26.7603,-10.9437,1237.2539],[26.7794,-10.9499,1233.7142],[26.8038,-10.9515,1230.6252],[26.8158,-10.9448,1252.2261],[26.8301,-10.9623,1226.1642],[26.8795,-10.9968,1180.6132],[26.8796,-11.0226,1139.9783],[26.8699,-11.0177,1143.7885],[26.862,-11.0171,1153.1537],[26.847,-11.0233,1151.1324],[26.8336,-11.0177,1150.1805],[26.8273,-11.0183,1149.3553],[26.8228,-11.0257,1161.738],[26.8131,-11.0339,1151.8666],[26.8013,-11.0366,1154.7793],[26.7917,-11.0455,1155.1622],[26.7879,-11.0446,1172.6953],[26.7745,-11.0315,1161.9321],[26.7693,-11.0325,1168.7533],[26.7638,-11.0369,1172.0422],[26.7606,-11.0372,1192.0098],[26.7549,-11.0336,1184.4454],[26.7507,-11.0337,1182.8561],[26.7415,-11.0384,1184.6941],[26.7378,-11.0382,1179.3804],[26.7326,-11.0349,1189.152],[26.7144,-11.031,1237.4125],[26.709,-11.0313,1195.7777],[26.6977,-11.0407,1216.9199],[26.6891,-11.0383,1244.1508],[26.6789,-11.0285,1224.2078],[26.6727,-11.0194,1256.7239],[26.6649,-11.0119,1320.0061],[26.6632,-11.0027,1256.7549],[26.6515,-10.9866,1239.2344],[26.6428,-10.9796,1239.7493]]]]}
,"properties": {"GID_2": "COD.3.1_1","GID_0": "COD","country": "DemocraticRepublicoftheCongo","GID_1": "COD.3_1","province": "Haut-Katanga","NL_NAME_1": "NA","county": "Kambove","VARNAME_2": "NA","NL_NAME_2": "NA","TYPE_2": "Territoire","ENGTYPE_2": "Territory","CC_2": "NA","HASC_2": "NA","name": "Kambove.county","area_km2": 21366.44,"hist_schema_id": "Elevation0-9000","hist_area_km2": {"925": 24.54,"950": 49.09,"975": 66.22,"1000": 67.33,"1025": 48.72,"1050": 43.89,"1075": 50.03,"1100": 147.21,"1125": 1142.76,"1150": 1214.61,"1175": 1256.85,"1200": 1078.12,"1225": 1015.24,"1250": 969.48,"1275": 876.01,"1300": 874.59,"1325": 853.84,"1350": 922.33,"1375": 1050.35,"1400": 1354.83,"1425": 1778.93,"1450": 2023.07,"1475": 1706.8,"1500": 1123.91,"1525": 706.07,"1550": 437.94,"1575": 305.48,"1600": 143.24,"1625": 25.67,"1650": 5.72,"1675": 2.14,"1700": 1.1,"1725": 0.31}}}