{"type":"Feature","properties":{"GID_2":"COD.12.8_1","GID_0":"COD","country":"DemocraticRepublicoftheCongo","GID_1":"COD.12_1","province":"Kwango","NL_NAME_1":"NA","county":"Popokabaka","VARNAME_2":"NA","NL_NAME_2":"NA","TYPE_2":"Territoire","ENGTYPE_2":"Territory","CC_2":"NA","HASC_2":"NA","name":"Popokabaka.county"},
"geometry":{"type": "MultiPolygon","coordinates": [[[[16.4384,-5.8955,420.7194],[16.4546,-5.8963,442.038],[16.4626,-5.893,452.491],[16.4782,-5.8828,507.0087],[16.4952,-5.882,503.2227],[16.5043,-5.878,508.7121],[16.5121,-5.8787,438.7831],[16.5202,-5.8855,463.079],[16.5311,-5.8903,583.1379],[16.5465,-5.8932,529.3599],[16.5629,-5.9048,535.0484],[16.5693,-5.9073,557.8482],[16.5905,-5.9108,438.5915],[16.5997,-5.9186,564.9994],[16.598,-5.928,529.4971],[16.6006,-5.9422,410.1456],[16.5919,-5.9579,449.7462],[16.5892,-5.9667,391.3023],[16.5892,-5.9745,401.6311],[16.5915,-5.9783,441.2684],[16.5961,-5.9809,456.0013],[16.6035,-5.9821,395.4471],[16.6059,-5.9877,405.3389],[16.6031,-5.994,409.0928],[16.5997,-5.9965,408.0892],[16.5983,-6.0018,402.1001],[16.6061,-6.0217,506.5245],[16.6053,-6.0342,419.6492],[16.6069,-6.0424,489.7832],[16.599,-6.0588,401.8144],[16.6025,-6.0655,437.9015],[16.6101,-6.0659,429.3299],[16.6226,-6.0608,393.0],[16.628,-6.0612,400.2555],[16.6325,-6.0669,475.5631],[16.63,-6.073,430.5251],[16.6253,-6.0753,416.5764],[16.6081,-6.0754,543.0171],[16.6053,-6.0813,569.6805],[16.6067,-6.0857,553.613],[16.6116,-6.0917,456.5504],[16.6192,-6.0937,454.5494],[16.6332,-6.0941,485.8968],[16.6428,-6.0967,401.7306],[16.6481,-6.1018,432.1851],[16.6482,-6.1124,528.549],[16.643,-6.1173,519.8342],[16.6425,-6.1226,513.0192],[16.6455,-6.1274,556.7479],[16.6595,-6.1243,527.5298],[16.6634,-6.1271,546.2401],[16.6674,-6.1354,554.5417],[16.6706,-6.1379,558.4504],[16.6886,-6.1394,584.5356],[16.6924,-6.1341,539.3231],[16.6973,-6.1327,442.4659],[16.7032,-6.1258,422.751],[16.7071,-6.1248,400.6815],[16.714,-6.1188,447.0125],[16.7222,-6.1176,425.1201],[16.7314,-6.1075,510.5277],[16.7392,-6.1049,579.7342],[16.7451,-6.0962,451.0825],[16.7549,-6.0869,533.282],[16.7604,-6.0845,578.5922],[16.7745,-6.0832,518.4536],[16.7904,-6.084,466.6216],[16.8129,-6.0881,485.9781],[16.8222,-6.0915,499.8039],[16.8511,-6.1101,572.8596],[16.871,-6.1129,591.7319],[16.8865,-6.1196,652.2723],[16.9192,-6.1263,720.5329],[16.9223,-6.1254,662.694],[16.9293,-6.1097,800.9847],[16.938,-6.1007999999999996,811.3286],[16.9508,-6.0958,772.1951],[16.961,-6.0951,754.3937],[16.9667,-6.0917,757.8765],[16.9778,-6.0918,852.4181],[16.9918,-6.0775,777.2156],[16.9989,-6.0726,835.7516],[17.0217,-6.0769,849.1542],[17.0348,-6.0824,855.8165],[17.0634,-6.0985,822.1854],[17.0811,-6.1051,847.024],[17.0919,-6.1072,772.4658],[17.1113,-6.1073,860.0598],[17.1237,-6.1006,687.4795],[17.1322,-6.0914,862.1489],[17.1497,-6.0768,583.1786],[17.1699,-6.068,485.1106],[17.1738,-6.0613,553.9379],[17.1756,-6.0542,536.9017],[17.187,-6.0465,477.1143],[17.1902,-6.0417,562.6526],[17.1872,-6.036,519.6709],[17.1785,-6.0369,489.4891],[17.1748,-6.0346,501.4391],[17.1734,-6.0312,472.6585],[17.1813,-6.0193,558.0341],[17.1798,-6.0137,564.8922],[17.1761,-6.0142,459.7102],[17.171,-6.0186,452.2053],[17.1671,-6.0177,528.2971],[17.163,-6.0142,458.1977],[17.1545,-6.0128,476.2438],[17.1551,-6.009,462.9222],[17.1636,-6.0043,480.2064],[17.1643,-5.999,486.4636],[17.1624,-5.9947,482.0063],[17.1569,-5.9931,519.1713],[17.1541,-5.989,480.9659],[17.1546,-5.9839,447.56],[17.1598,-5.9735,520.654],[17.1579,-5.9703,485.7701],[17.1487,-5.9706,524.4454],[17.1441,-5.9683,600.9214],[17.141,-5.9698,593.7223],[17.1404,-5.973,569.7025],[17.1375,-5.973,616.2668],[17.1308,-5.9608,552.7234],[17.1209,-5.9611,634.3329],[17.1263,-5.9493,461.8418],[17.1254,-5.9404,489.1114],[17.1129,-5.9314,505.1504],[17.1111,-5.9269,540.5695],[17.1269,-5.9167,603.4222],[17.1262,-5.8999,462.721],[17.1278,-5.8956,467.0215],[17.132,-5.8922,443.6339],[17.136,-5.8921,440.8065],[17.138,-5.8941,440.1384],[17.1402,-5.8932,465.7156],[17.1392,-5.8792,448.1106],[17.1339,-5.8758,457.8912],[17.1327,-5.8714,455.8923],[17.137,-5.8634,453.0198],[17.1364,-5.8492,436.9355],[17.1313,-5.8429,461.364],[17.1299,-5.8345,465.6695],[17.1322,-5.8305,481.7309],[17.14,-5.8284,495.6799],[17.1401,-5.821,528.9182],[17.1364,-5.8145,483.181],[17.1362,-5.8053,460.6348],[17.1248,-5.7956,462.6413],[17.1201,-5.7802,572.2169],[17.1076,-5.7777,475.1909],[17.1001,-5.7802,482.9166],[17.0715,-5.8201,798.6702],[17.0635,-5.8225,786.9572],[17.0496,-5.831,775.9695],[17.0467,-5.8419,823.1383],[17.0469,-5.8655,648.1922],[17.0453,-5.8927,627.6258],[17.0435,-5.8986,824.9231],[17.0395,-5.902,818.397],[17.0232,-5.9041,785.0943],[16.9961,-5.9047,856.3254],[16.9913,-5.903,836.8424],[16.9906,-5.8905,782.2299],[16.9924,-5.8713,839.7393],[16.9943,-5.8652,863.3606],[16.9971,-5.8268,900.264],[17.0031,-5.7874,837.9257],[17.0055,-5.7527,787.6632],[17.0048,-5.7389,757.1234],[16.9961,-5.7105,754.6263],[16.9916,-5.6844,786.3052],[16.9913,-5.6429,733.9662],[16.9896,-5.6337,613.2637],[16.9825,-5.6335,749.0546],[16.9723,-5.6448,691.1852],[16.9703,-5.6573,692.8068],[16.9699,-5.6748,690.2925],[16.9656,-5.6888,744.4959],[16.9675,-5.6964,707.1825],[16.9657,-5.7176,738.8892],[16.9684,-5.7387,759.3426],[16.9628,-5.77,828.8481],[16.9632,-5.8111,778.2584],[16.9594,-5.82,794.5165],[16.9546,-5.8231,722.7251],[16.9364,-5.8223,719.85],[16.9432,-5.7986,733.5795],[16.9376,-5.7881,713.8217],[16.9369,-5.7791,710.361],[16.9336,-5.7761,705.2986],[16.9312,-5.7545,701.3184],[16.9264,-5.7513,711.4103],[16.9257,-5.749,707.9146],[16.9291,-5.7469,696.3191],[16.9298,-5.7437,702.7308],[16.9217,-5.7322,701.3472],[16.9118,-5.7268,704.9481],[16.9072,-5.7268,700.0433],[16.904,-5.7227,709.0148],[16.8989,-5.7215,707.8481],[16.8915,-5.7161,706.2136],[16.8878,-5.7154,708.2026],[16.8754,-5.7026,712.8187],[16.8735,-5.6922,705.7625],[16.8746,-5.6878,697.9467],[16.8705,-5.6803,703.8992],[16.8723,-5.6747,685.5887],[16.8688,-5.6678,710.3199],[16.8493,-5.6786,783.9601],[16.8287,-5.687,797.6872],[16.8055,-5.7023,890.7083],[16.8006,-5.702,868.6025],[16.785,-5.6934,892.2622],[16.7636,-5.6765,803.1382],[16.7431,-5.6675,791.9755],[16.7421,-5.6486,811.155],[16.7405,-5.6459,768.793],[16.7366,-5.6441,786.7431],[16.732,-5.6455,766.6888],[16.7226,-5.6397,790.9191],[16.7173,-5.6329,785.5868],[16.7101,-5.6283,777.7885],[16.7089,-5.6219,780.0059],[16.7039,-5.6161,799.0151],[16.7001,-5.6076,783.314],[16.6974,-5.6051,757.7928],[16.6877,-5.6024,761.4273],[16.6843,-5.5994,705.1096],[16.6713,-5.5751,717.5217],[16.6637,-5.5733,612.0988],[16.6611,-5.5692,536.789],[16.6559,-5.5685,519.7284],[16.6515,-5.571,516.7047],[16.6465,-5.5708,523.7787],[16.6395,-5.5637,649.3019],[16.6363,-5.5633,611.9579],[16.6305,-5.5502,577.5481],[16.6071,-5.5524,497.5887],[16.6046,-5.5554,522.1068],[16.5982,-5.5572,494.8969],[16.5903,-5.5522,542.1497],[16.5858,-5.5564,622.4246],[16.5777,-5.5559,460.8112],[16.572,-5.5532,380.716],[16.5669,-5.553,374.5],[16.5572,-5.548,374.5],[16.5574,-5.5335,444.1514],[16.5605,-5.5086,414.4541],[16.5646,-5.5029,385.8626],[16.5671,-5.495,470.3875],[16.5641,-5.4828,482.101],[16.5588,-5.4792,509.2944],[16.559,-5.4672,471.8028],[16.5564,-5.4583,428.6774],[16.5575,-5.447,467.1738],[16.5605,-5.4437,474.7147],[16.5617,-5.4387,489.1806],[16.5574,-5.4254,455.5187],[16.5571,-5.4129,490.0907],[16.5493,-5.3935,485.8133],[16.5418,-5.3822,677.9742],[16.5406,-5.3767,592.8036],[16.5443,-5.3702,571.0845],[16.5438,-5.3649,594.6943],[16.5396,-5.3608,498.7656],[16.5376,-5.3551,497.131],[16.5251,-5.3438,451.2193],[16.5209,-5.3225,649.316],[16.5167,-5.3112,403.5756],[16.5219,-5.2992,399.0944],[16.521,-5.2948,470.095],[16.5145,-5.2912,444.035],[16.5088,-5.2855,463.512],[16.5064,-5.265,480.3199],[16.508,-5.2576,403.2617],[16.5077,-5.2477,437.5475],[16.5019,-5.2434,624.1053],[16.5009,-5.2179,402.8766],[16.4981,-5.2123,424.4032],[16.4971,-5.1905,488.7203],[16.4998,-5.1732,413.717],[16.5071,-5.1619,404.0932],[16.5081,-5.1279,391.5258],[16.5035,-5.1159,448.8307],[16.5082,-5.1076,479.713],[16.5124,-5.1053,362.8582],[16.514,-5.1009,361.375],[16.5142,-5.0931,361.0],[16.5121,-5.0881,370.9439],[16.5125,-5.0768,386.8947],[16.5108,-5.0719,407.7344],[16.5188,-5.0609,410.5811],[16.5181,-5.0508,376.4871],[16.5272,-5.0427,528.4778],[16.5288,-5.0381,436.1102],[16.5283,-5.0321,360.2961],[16.5237,-5.0229,426.6348],[16.5262,-5.0054,572.5089],[16.533,-5.0015,570.3888],[16.5403,-4.9945,356.875],[16.5535,-4.96,491.9196],[16.5519,-4.9551,423.7895],[16.5445,-4.9494,367.9695],[16.5434,-4.9462,360.4245],[16.5449,-4.9287,617.246],[16.5425,-4.9167,493.1463],[16.5332,-4.8931,396.1295],[16.5218,-4.8917,370.7805],[16.5125,-4.8868,405.5836],[16.5059,-4.8867,428.2863],[16.4877,-4.8981,522.205],[16.4445,-4.8973,733.3539],[16.4399,-4.9072,740.8015],[16.439,-4.9213,745.129],[16.4357,-4.9374,759.7607],[16.4248,-4.9588,771.019],[16.4173,-4.9808,717.4125],[16.4031,-4.9925,753.7601],[16.395,-5.0073,776.0165],[16.3919,-5.0281,777.0539],[16.3895,-5.0343,773.8328],[16.3345,-5.1006,722.083],[16.2995,-5.1395,615.8045],[16.2962,-5.1305,607.3707],[16.2981,-5.1262,608.4146],[16.2962,-5.1211,606.6771],[16.2991,-5.1075,606.4198],[16.2968,-5.0992,605.7529],[16.2997,-5.0813,658.3716],[16.2981,-5.0753,677.1426],[16.2992,-5.0714,697.0337],[16.2955,-5.067,630.0099],[16.2948,-5.059,681.4642],[16.2925,-5.0546,714.981],[16.2861,-5.0574,663.6784],[16.2796,-5.0416,637.0845],[16.2798,-5.0388,636.869],[16.2687,-5.028,636.5826],[16.2577,-5.0212,583.0685],[16.2472,-5.0302,592.6808],[16.2463,-5.0336,612.9272],[16.2506,-5.0394,582.0099],[16.2491,-5.0474,619.231],[16.2502,-5.0513,626.0021],[16.2457,-5.0555,620.359],[16.2421,-5.0705,591.8257],[16.243,-5.0769,592.248],[16.24,-5.0852,612.0079],[16.2355,-5.09,594.6562],[16.2307,-5.114,611.1198],[16.2317,-5.1165,619.9811],[16.2397,-5.1204,635.6172],[16.2457,-5.1273,626.2287],[16.252,-5.1383,616.7864],[16.2518,-5.153,616.6351],[16.2537,-5.1601,615.7599],[16.2526,-5.173,620.0814],[16.2565,-5.1746,617.2445],[16.2544,-5.1785,622.9861],[16.2487,-5.1832,629.1619],[16.2458,-5.214,623.2325],[16.2397,-5.2262,623.7524],[16.237,-5.2375,656.2552],[16.2329,-5.244,635.7994],[16.2272,-5.272,648.7749],[16.2247,-5.2769,648.9059],[16.2212,-5.3036,610.6094],[16.218,-5.3082,611.8577],[16.2171,-5.3197,619.5188],[16.213,-5.3335,629.8716],[16.213,-5.3379,619.5057],[16.217,-5.3427,610.6118],[16.217,-5.3531,600.9824],[16.2143,-5.3586,613.936],[16.2123,-5.3775,619.4113],[16.2155,-5.3839,606.2432],[16.2142,-5.3959,618.1625],[16.2112,-5.3975,633.786],[16.2065,-5.418,618.0995],[16.2093,-5.4262,603.7458],[16.2061,-5.4375,601.0867],[16.2029,-5.4412,586.8621],[16.2069,-5.4601,586.4999],[16.2016,-5.4716,602.9155],[16.2013,-5.4944,604.2722],[16.2062,-5.5187,571.7358],[16.2023,-5.5247,551.8578],[16.2014,-5.5321,573.3555],[16.2021,-5.5362,583.3441],[16.2056,-5.5394,623.3683],[16.2084,-5.5571,541.1062],[16.2121,-5.5675,582.1019],[16.2083,-5.5744,547.7115],[16.2117,-5.5836,516.7401],[16.2113,-5.5962,510.2943],[16.2125,-5.6007999999999996,509.3015],[16.2178,-5.6068,580.1194],[16.2146,-5.6112,587.6816],[16.2169,-5.6144,549.7049],[16.2162,-5.6164,521.6782],[16.2105,-5.6158,499.7955],[16.2103,-5.6183,547.6846],[16.2144,-5.6238,548.0262],[16.2131,-5.6282,509.0433],[16.2147,-5.6328,521.8833],[16.2179,-5.6325,538.7162],[16.2186,-5.6348,521.1044],[16.2154,-5.6406,537.6939],[16.2159,-5.6464,562.2444],[16.2113,-5.6523,490.0074],[16.2141,-5.6576,571.5065],[16.2102,-5.6611,512.7061],[16.2119,-5.6712,550.8989],[16.2107,-5.6737,517.0366],[16.2063,-5.6738,476.8989],[16.2059,-5.677,489.5298],[16.2135,-5.6885,563.7595],[16.2122,-5.6951,600.9059],[16.2071,-5.6949,598.2448],[16.206,-5.6991,569.2026],[16.2067,-5.7073,502.2581],[16.2051,-5.7142,529.0405],[16.2091,-5.7283,601.9584],[16.2054,-5.7329,544.1611],[16.2052,-5.7412,554.4453],[16.2011,-5.752,474.4797],[16.2044,-5.7561,463.928],[16.2087,-5.7538,469.251],[16.2094,-5.7568,563.59],[16.2076,-5.7644,493.299],[16.2109,-5.7699,558.2219],[16.2109,-5.774,532.2522],[16.2075,-5.7789,475.8383],[16.2062,-5.7948,521.7195],[16.1993,-5.8082,559.6445],[16.1935,-5.8098,551.4054],[16.1641,-5.8102,515.0803],[16.1545,-5.8151,529.98],[16.1504,-5.8188,516.9466],[16.1397,-5.8502,588.0791],[16.1394,-5.8586,540.4667],[16.1949,-5.8599,559.6725],[16.2222,-5.8686,569.5583],[16.3659,-5.8647,509.0186],[16.3848,-5.868,432.8684],[16.3913,-5.8742,435.7508],[16.3964,-5.8824,421.3803],[16.4045,-5.8884,408.9307],[16.4146,-5.8922,413.3177],[16.4384,-5.8955,420.7194]]]]}}