{"type":"Feature","properties":{"GID_2":"COD.24.3_1","GID_0":"COD","country":"DemocraticRepublicoftheCongo","GID_1":"COD.24_1","province":"Tanganyika","NL_NAME_1":"NA","county":"Kalemie(ville)","VARNAME_2":"NA","NL_NAME_2":"NA","TYPE_2":"Ville","ENGTYPE_2":"Town","CC_2":"NA","HASC_2":"NA","name":"Kalemie(ville).county"},
"geometry":{"type": "MultiPolygon","coordinates": [[[[29.241,-5.9773,770.0],[29.2587,-5.9662,770.0],[29.2637,-5.9488,770.0],[29.2661,-5.922,770.0],[29.2653,-5.9096,770.0],[29.2591,-5.8985,770.0],[29.2513,-5.8919,770.0],[29.2406,-5.8886,770.0],[29.2063,-5.8824,809.6432],[29.1903,-5.8844,835.4175],[29.1688,-5.8927,849.9518],[29.1552,-5.9022,807.9785],[29.1503,-5.9146,788.5164],[29.1498,-5.9303,857.9087],[29.1581,-5.9534,824.7296],[29.1663,-5.9637,831.0768],[29.1812,-5.9695,855.3131],[29.2121,-5.9782,770.0],[29.2257,-5.9794,770.0],[29.241,-5.9773,770.0]]]]}}