{"type": "Feature","bbox": [24.6985,2.7912,24.7775,2.8441],"geometry": {"type": "MultiPolygon","coordinates": [[[[24.7736,2.8259,423.243],[24.7565,2.8382,411.3262],[24.7442,2.8411,418.4908],[24.7144,2.8441,424.5433],[24.7007,2.8372,425.1182],[24.6985,2.8241,415.4447],[24.701,2.8241,417.0585],[24.7082,2.8173,407.4392],[24.7116,2.8164,399.4804],[24.7173,2.8196,394.1693],[24.721,2.8196,399.8616],[24.7233,2.8164,398.1673],[24.721,2.8097,407.2004],[24.7167,2.8051,410.246],[24.7107,2.8044,402.9361],[24.7055,2.8062,400.1041],[24.6986,2.8024,392.871],[24.7362,2.7912,397.3925],[24.7439,2.7972,404.9714],[24.7522,2.7986,400.5051],[24.7627,2.795,411.9514],[24.7676,2.7953,414.6302],[24.777,2.7995,419.1248],[24.7775,2.8175,419.9802],[24.7736,2.8259,423.243]]]]}
,"properties": {"GID_2": "COD.1.8_1","GID_0": "COD","country": "DemocraticRepublicoftheCongo","GID_1": "COD.1_1","province": "Bas-Uele","NL_NAME_1": "NA","county": "Buta(ville)","VARNAME_2": "NA","NL_NAME_2": "NA","TYPE_2": "Ville","ENGTYPE_2": "Town","CC_2": "NA","HASC_2": "NA","name": "Buta(ville).county","area_km2": 36.25427,"hist_schema_id": "Elevation0-9000","hist_area_km2": {"400": 13.68011,"425": 22.57416}}}