{"type":"Feature","properties":{"GID_1":"COD.25_1","GID_0":"COD","country":"DemocraticRepublicoftheCongo","province":"Tshopo","VARNAME_1":"NA","NL_NAME_1":"NA","TYPE_1":"Province","ENGTYPE_1":"Province","CC_1":"NA","HASC_1":"CD.TO","ISO_1":"CD-TO","name":"Tshopo.province"},
"geometry":{"type": "MultiPolygon","coordinates": [[[[25.8434,-1.8329,496.2364],[25.852,-1.7661,480.6796],[25.848,-1.7088,472.3462],[25.8494,-1.7003,466.6644],[25.8619,-1.669,476.5012],[25.8633,-1.6686,475.0853],[25.863,-1.6555,471.2058],[25.8687,-1.6394,481.4102],[25.8663,-1.5787,476.8904],[25.8548,-1.506,481.5645],[25.8568,-1.4925,476.2371],[25.8632,-1.4791,488.1025],[25.8663,-1.4649,476.9373],[25.8599,-1.4377,478.3427],[25.861,-1.4115,468.1844],[25.8655,-1.4138,481.3634],[25.8788,-1.4258,483.5218],[25.8896,-1.432,509.2167],[25.8928,-1.4543,465.8248],[25.9013,-1.4616,481.5495],[25.92,-1.4708,482.644],[25.929,-1.4786,485.041],[25.9285,-1.4908,494.5146],[25.9336,-1.4953,492.1257],[25.9583,-1.4942,435.5],[25.982,-1.5026,455.0479],[25.9852,-1.5013,451.8751],[25.9994,-1.5008,491.095],[26.0154,-1.4881,497.7267],[26.0167,-1.4833,484.7175],[26.0137,-1.4727,500.7109],[26.0142,-1.4686,494.5244],[26.0183,-1.4656,515.6345],[26.0279,-1.463,517.6467],[26.034,-1.4582,517.4344],[26.039,-1.4439,512.067],[26.0342,-1.4297,500.6735],[26.0264,-1.424,500.0486],[26.0173,-1.4113,497.58],[26.0173,-1.4076,463.2772],[26.0237,-1.3989,484.5508],[26.0301,-1.3945,486.8348],[26.0522,-1.3977,488.4542],[26.0616,-1.397,500.8615],[26.0659,-1.394,507.3292],[26.0696,-1.3848,455.5],[26.0674,-1.3471,481.4879],[26.0717,-1.3269,456.5],[26.0667,-1.3103,506.4645],[26.0692,-1.3014,501.7963],[26.0694,-1.288,487.9101],[26.0746,-1.2825,483.6238],[26.0819,-1.2813,464.9681],[26.0796,-1.2648,488.4078],[26.0589,-1.2596,500.4715],[26.0603,-1.2389,527.8293],[26.0743,-1.1917,530.8971],[26.0803,-1.1554,536.8212],[26.0869,-1.1477,534.3558],[26.1116,-1.1477,521.6138],[26.1323,-1.1413,508.111],[26.141,-1.1329,531.9069],[26.1323,-1.1167,537.1214],[26.0829,-1.0907,511.9659],[26.0736,-0.9625,512.3046],[26.1128,-0.9531,515.5195],[26.1263,-0.9545,520.3557],[26.1461,-0.9491,522.6376],[26.1634,-0.9326,507.9306],[26.1701,-0.9298,526.7533],[26.1851,-0.9291,514.303],[26.2096,-0.9227,526.9329],[26.2283,-0.9111,544.5096],[26.2437,-0.8943,530.59],[26.2597,-0.8555,507.0812],[26.249,-0.8399,502.474],[26.245,-0.8269,487.1188],[26.237,-0.7745,511.4155],[26.239,-0.7123,509.3381],[26.2376,-0.6877,530.8764],[26.2302,-0.668,513.9738],[26.2359,-0.6641,531.6079],[26.2407,-0.6491,515.2104],[26.2521,-0.6356,525.6514],[26.2566,-0.6248,519.0117],[26.2586,-0.5944,539.2032],[26.2579,-0.577,548.9062],[26.2674,-0.526,581.5206],[26.2737,-0.5041,551.9607],[26.2735,-0.4984,555.0478],[26.1883,-0.4371,537.2819],[26.1523,-0.415,529.0945],[26.1236,-0.3897,530.9887],[26.1091,-0.3726,529.0155],[26.1141,-0.3646,517.7088],[26.126,-0.3556,528.6621],[26.1312,-0.3496,513.5126],[26.151,-0.3218,512.3749],[26.1542,-0.3117,491.9396],[26.1649,-0.297,510.2963],[26.1708,-0.2841,512.1241],[26.1577,-0.2703,521.6189],[26.1422,-0.2626,516.2762],[26.1358,-0.2559,504.4683],[26.1246,-0.2373,490.4436],[26.115,-0.227,491.9601],[26.1042,-0.2243,490.6612],[26.0997,-0.2199,488.6657],[26.0928,-0.2096,490.4501],[26.0818,-0.1984,496.4947],[26.065,-0.1613,516.7734],[26.0482,-0.0859,507.68],[26.0356,-0.0606,498.2655],[26.0336,-0.049,505.5373],[26.0396,-0.0396,516.5542],[26.0516,-0.0363,484.8242],[26.0564,-0.0297,487.6297],[26.0582,-0.0235,506.0539],[26.0571,-0.0138,487.4752],[26.0643,-0.0143,491.1467],[26.0721,-0.0228,492.3456],[26.0736,-0.0274,477.0204],[26.0702,-0.0307,501.6277],[26.0641,-0.0308,487.2227],[26.065,-0.034,505.1695],[26.0795,-0.0369,523.3865],[26.0839,-0.0356,505.973],[26.0894,-0.0314,493.3324],[26.0911,-0.0321,493.3324],[26.0895,-0.0402,491.5098],[26.0865,-0.0443,503.5698],[26.0784,-0.0498,514.4355],[26.0806,-0.053,515.8551],[26.0918,-0.0507,512.2974],[26.095,-0.0542,514.5012],[26.0971,-0.0659,491.5269],[26.1014,-0.0765,507.3651],[26.1112,-0.0758,489.1538],[26.1169,-0.0828,485.9591],[26.1226,-0.0799,494.4855],[26.1236,-0.0852,497.711],[26.1322,-0.087,515.346],[26.1341,-0.0859,516.8225],[26.1364,-0.0766,513.0184],[26.1402,-0.0773,502.6123],[26.1448,-0.0828,495.556],[26.1432,-0.0933,492.8079],[26.1498,-0.0929,505.1502],[26.166,-0.0995,525.5222],[26.1706,-0.0942,518.9885],[26.1736,-0.0942,519.9687],[26.1832,-0.1109,505.3826],[26.1882,-0.1102,504.4116],[26.1945,-0.1063,508.0154],[26.1948,-0.1143,511.6445],[26.1978,-0.1205,500.8242],[26.1922,-0.1303,521.6678],[26.1926,-0.1323,516.8121],[26.1972,-0.1315,526.1415],[26.2057,-0.1342,503.146],[26.2092,-0.1329,499.2765],[26.2122,-0.1295,505.3273],[26.2128,-0.1397,498.6538],[26.215699999999998,-0.1428,501.8574],[26.2188,-0.1421,505.1738],[26.223,-0.1365,505.08],[26.2263,-0.137,508.9915],[26.2301,-0.1445,495.9917],[26.2435,-0.1589,498.7783],[26.2527,-0.1605,508.4899],[26.2546,-0.1623,514.6841],[26.2585,-0.1746,507.7559],[26.2649,-0.1769,526.96],[26.2679,-0.1809,525.083],[26.2702,-0.1945,506.6022],[26.273,-0.1995,527.1426],[26.2795,-0.2003,519.0327],[26.283,-0.1981,528.6802],[26.2949,-0.1958,510.7328],[26.3013,-0.192,509.5527],[26.3098,-0.2021,530.7352],[26.3091,-0.2074,512.7384],[26.3128,-0.2195,501.5696],[26.3167,-0.2248,541.6276],[26.3217,-0.2281,538.226],[26.3208,-0.2399,515.8391],[26.3265,-0.2587,518.9628],[26.3361,-0.2672,520.427],[26.3437,-0.2607,522.268],[26.3629,-0.2732,568.6764],[26.3698,-0.2791,567.192],[26.3701,-0.283,575.6652],[26.3798,-0.2955,565.8057],[26.3821,-0.3018,555.5106],[26.386,-0.3046,545.7882],[26.399,-0.3089,550.7501],[26.4051,-0.3069,548.6595],[26.4079,-0.3121,549.0524],[26.4187,-0.3196,531.7054],[26.4252,-0.3182,521.2328],[26.4307,-0.3192,509.7919],[26.4314,-0.3217,509.604],[26.4299,-0.3261,511.351],[26.4328,-0.3314,527.9645],[26.4317,-0.3364,521.8964],[26.4368,-0.3393,525.5418],[26.4425,-0.3469,529.1337],[26.4484,-0.3683,532.0901],[26.453,-0.3745,529.4854],[26.4544,-0.3798,530.251],[26.4574,-0.3818,540.9026],[26.4679,-0.3827,535.683],[26.4708,-0.3843,533.8229],[26.4902,-0.3817,533.9648],[26.4981,-0.3787,528.3311],[26.5151,-0.3831,517.0979],[26.5249,-0.3833,521.5668],[26.54,-0.3766,538.2889],[26.5599,-0.3784,533.6685],[26.5821,-0.3684,551.2509],[26.5922,-0.3609,536.7006],[26.6148,-0.3521,557.4232],[26.6168,-0.357,559.6795],[26.666,-0.327,549.0673],[26.7091,-0.3161,550.6639],[26.746,-0.2914,630.0767],[26.7501,-0.2872,620.5428],[26.7553,-0.2739,642.4338],[26.7772,-0.2589,652.7612],[26.7906,-0.2525,651.6345],[26.7952,-0.2529,669.0793],[26.7998,-0.2568,678.5771],[26.8037,-0.257,696.8739],[26.8119,-0.265,551.4905],[26.8165,-0.2669,552.6873],[26.8254,-0.2657,549.305],[26.8409,-0.2592,545.6606],[26.8484,-0.2505,564.1102],[26.8472,-0.2454,627.6796],[26.8337,-0.2379,640.5156],[26.831,-0.2345,625.4434],[26.8284,-0.2264,674.3304],[26.828,-0.2179,663.5541],[26.8289,-0.2133,662.212],[26.8325,-0.209,693.8557],[26.846,-0.2057,701.5752],[26.8458,-0.2142,716.7448],[26.8512,-0.2142,713.2659],[26.8572,-0.2107,694.3854],[26.8706,-0.2197,669.4089],[26.875,-0.2254,662.6202],[26.8857,-0.2304,572.4588],[26.8876,-0.2325,594.5938],[26.889,-0.2405,577.6989],[26.8956,-0.2416,563.5557],[26.9035,-0.2294,563.5448],[26.9058,-0.229,557.1187],[26.9202,-0.2439,583.4478],[26.9275,-0.2464,625.803],[26.9367,-0.2555,646.2585],[26.9419,-0.2583,653.761],[26.9499,-0.2578,657.8031],[26.9563,-0.266,639.9018],[26.9678,-0.2697,640.0701],[26.9725,-0.2683,628.0024],[26.9751,-0.2701,637.3134],[26.9771,-0.2697,646.434],[26.9801,-0.2651,624.0665],[26.9853,-0.2722,655.8947],[26.994,-0.2758,654.6208],[27.0025,-0.2717,651.863],[27.0095,-0.2739,690.2839],[27.0086,-0.2827,646.5828],[27.0107,-0.2868,658.0279],[27.0288,-0.3042,658.1148],[27.0336,-0.3051,686.5859],[27.0386,-0.3094,671.0568],[27.0482,-0.3085,689.7094],[27.0702,-0.3293,661.5397],[27.0713,-0.3353,680.6339],[27.0632,-0.3452,686.4037],[27.0679,-0.347,680.6764],[27.0728,-0.3516,673.0263],[27.0737,-0.355,703.4271],[27.0698,-0.3629,712.2169],[27.0705,-0.3734,720.5554],[27.0728,-0.3801,734.2323],[27.0788,-0.3865,778.2885],[27.0822,-0.3881,735.4741],[27.0886,-0.386,722.7388],[27.0911,-0.3888,742.6847],[27.0952,-0.3881,749.1177],[27.0973,-0.3901,754.0818],[27.1007,-0.3896,761.7092],[27.1037,-0.3862,737.0018],[27.1128,-0.3892,719.5238],[27.1178,-0.388,711.7142],[27.1215,-0.4015,736.8344],[27.1206,-0.4057,737.2849],[27.1305,-0.4192,746.73],[27.1357,-0.4238,726.0799],[27.141,-0.4242,720.2338],[27.1767,-0.4418,748.0862],[27.1931,-0.4466,764.8442],[27.2257,-0.4476,757.7469],[27.2315,-0.4499,735.3527],[27.2515,-0.4482,738.583],[27.2568,-0.4528,733.9587],[27.2678,-0.4516,723.2333],[27.2785,-0.4532,750.5741],[27.2853,-0.4497,748.8333],[27.3004,-0.4527,738.0229],[27.3089,-0.4639,738.2047],[27.3205,-0.4643,745.804],[27.326,-0.4721,748.3997],[27.3304,-0.473,762.8868],[27.3349,-0.4712,761.3672],[27.3393,-0.4723,764.1852],[27.3445,-0.4762,772.3849],[27.348,-0.4812,767.2785],[27.3503,-0.506,748.1226],[27.3586,-0.5156,748.9183],[27.3752,-0.5133,744.8745],[27.3842,-0.5174,746.1852],[27.3933,-0.5162,773.5037],[27.399,-0.5132,795.7397],[27.4198,-0.5166,800.7222],[27.4264,-0.5131,771.6616],[27.4353,-0.5129,794.4437],[27.4466,-0.5011,790.6113],[27.4521,-0.5002,793.2117],[27.4598,-0.4942,821.057],[27.4719,-0.4912,824.7247],[27.4881,-0.4909,825.1906],[27.4952,-0.4927,810.7596],[27.4968,-0.495,808.8017],[27.4946,-0.5053,820.738],[27.4983,-0.52,817.8845],[27.4985,-0.5285,811.1833],[27.5191,-0.5415,815.903],[27.5273,-0.5367,796.7465],[27.5358,-0.536,821.5422],[27.5422,-0.532,821.4159],[27.5529,-0.5361,862.4497],[27.557,-0.534,844.0171],[27.5595,-0.5345,824.293],[27.562,-0.5393,877.4012],[27.5668,-0.5421,824.7339],[27.5678,-0.548,835.5651],[27.5717,-0.5519,835.3954],[27.5781,-0.5565,832.7725],[27.5957,-0.564,855.3441],[27.6014,-0.5729,829.0728],[27.6144,-0.5706,906.1028],[27.6208,-0.5724,899.1392],[27.63,-0.58,875.4021],[27.6353,-0.5868,869.9182],[27.6501,-0.5907,931.26],[27.6605,-0.5954,911.9399],[27.8869,-0.5962,908.4182],[27.9038,-0.594,861.4681],[27.9116,-0.5848,793.5898],[27.9356,-0.5763,869.6147],[27.9381,-0.5616,802.421],[27.9415,-0.5545,850.1318],[27.9474,-0.5498,779.8728],[27.951,-0.5489,781.429],[27.9627,-0.55,784.55],[27.9704,-0.5447,838.5342],[27.9708,-0.5387,924.4732],[27.9776,-0.5235,796.3119],[27.9787,-0.5132,782.1501],[27.9756,-0.4884,790.7208],[27.9781,-0.47,766.5687],[27.9739,-0.4618,803.7799],[27.9693,-0.4443,786.8245],[27.9571,-0.432,836.1699],[27.9498,-0.4162,840.1698],[27.942,-0.4065,813.0801],[27.9463,-0.4022,800.5626],[27.9515,-0.3877,766.2505],[27.9633,-0.3782,762.0952],[27.9704,-0.3761,766.4218],[27.9856,-0.3609,773.8017],[27.9908,-0.3397,759.1537],[27.9962,-0.3287,744.3464],[28.0094,-0.3169,761.4816],[28.0356,-0.309,755.3447],[28.0732,-0.308,776.8518],[28.088,-0.2946,771.9777],[28.0962,-0.2936,761.9715],[28.1007,-0.2865,753.3511],[28.1069,-0.2844,747.1328],[28.1135,-0.2777,754.9276],[28.1183,-0.277,776.9456],[28.1336,-0.2797,771.0812],[28.1393,-0.2778,771.0596],[28.1531,-0.2654,967.7322],[28.1545,-0.2587,856.0715],[28.1528,-0.2539,894.6638],[28.1469,-0.2477,777.8424],[28.1437,-0.2418,783.3147],[28.145,-0.23,766.0667],[28.1427,-0.2266,767.8788],[28.138,-0.1988,734.3133],[28.1313,-0.186,744.9128],[28.1276,-0.1702,744.7676],[28.1186,-0.1539,766.5503],[28.1183,-0.1335,758.2141],[28.1137,-0.111,749.9517],[28.1163,-0.0984,745.923],[28.1103,-0.0803,739.2051],[28.1077,-0.0569,740.9369],[28.102,-0.0507,737.5676],[28.1038,-0.0392,743.3783],[28.1012,-0.0259,721.5248],[28.0989,-0.0183,752.7129],[28.0913,-0.005,766.5508],[28.1007,0.0047,750.1234],[28.1,0.0088,743.4433],[28.1023,0.0127,737.6293],[28.1018,0.0152,745.1341],[28.0972,0.0187,748.4421],[28.097,0.0224,752.2585],[28.1025,0.0283,741.5896],[28.1027,0.0334,742.3035],[28.0984,0.038,745.6669],[28.0984,0.0419,743.1658],[28.1027,0.0492,741.3887],[28.1066,0.063,736.4557],[28.1059,0.069,740.9339],[28.0995,0.0791,733.6351],[28.1002,0.0832,748.0953],[28.1068,0.0938,767.7471],[28.1059,0.0982,744.1689],[28.1025,0.103,701.1206],[28.1043,0.1064,711.7511],[28.128,0.1158,768.8973],[28.1308,0.1193,735.9504],[28.1278,0.1246,718.2377],[28.1303,0.1273,722.3177],[28.1369,0.1278,727.7732],[28.1394,0.1326,700.7367],[28.1383,0.1342,702.4861],[28.1397,0.1381,705.8412],[28.1522,0.1448,728.4463],[28.154,0.151,703.7748],[28.152,0.1581,709.9502],[28.1376,0.1836,716.889],[28.1312,0.1868,752.9021],[28.1219,0.185,725.8177],[28.1203,0.1868,732.0491],[28.1271,0.1926,724.9221],[28.128,0.2102,706.8964],[28.1337,0.2162,785.7383],[28.1342,0.2208,777.2708],[28.1278,0.2286,757.7531],[28.12,0.2341,711.6036],[28.113,0.2344,729.1736],[28.1079,0.2321,759.3646],[28.1018,0.2334,714.5418],[28.1,0.2348,689.6544],[28.0968,0.2452,697.4543],[28.0942,0.2465,700.6562],[28.0869,0.2449,715.9927],[28.0833,0.2474,724.3475],[28.0803,0.2553,733.4972],[28.0774,0.258,706.6815],[28.0762,0.2651,727.3014],[28.0696,0.2649,717.7774],[28.0662,0.2697,734.2346],[28.0659,0.2729,709.4246],[28.0685,0.278,697.0029],[28.0678,0.2805,691.4487],[28.0621,0.2849,693.696],[28.0584,0.2968,700.7204],[28.0552,0.3021,709.6831],[28.0545,0.3074,699.7012],[28.0568,0.318,641.5703],[28.0559,0.3242,669.618],[28.0568,0.3265,642.8421],[28.0616,0.3295,645.5142],[28.0621,0.332,637.5946],[28.0566,0.3396,647.0247],[28.0591,0.3766,660.9521],[28.0563,0.3805,655.6074],[28.0504,0.3814,754.1838],[28.042,0.3775,739.9393],[28.0395,0.3809,670.6866],[28.0447,0.3903,851.933],[28.044,0.3947,822.2949],[28.0429,0.397,860.6727],[28.0344,0.4027,654.5809],[28.0372,0.4055,656.3268],[28.0411,0.406,673.4685],[28.0454,0.4108,715.0692],[28.0518,0.4076,738.2104],[28.0527,0.4126,691.4894],[28.0479,0.4278,700.4988],[28.0369,0.4317,653.0974],[28.0326,0.4367,664.7809],[28.026,0.4363,674.415],[28.0248,0.4388,686.4604],[28.0301,0.4475,665.7786],[28.0285,0.4519,623.5789],[28.0292,0.4583,636.9424],[28.0267,0.4634,633.5277],[28.0239,0.4639,663.138],[28.0173,0.4606,654.211],[28.013,0.4611,613.5],[28.0075,0.4714,650.7068],[28.0041,0.474,666.7617],[27.9828,0.4714,700.1267],[27.9598,0.4744,732.7057],[27.9536,0.4808,690.2479],[27.9411,0.4785,677.5959],[27.9349,0.4804,637.9248],[27.9294,0.4868,634.3298],[27.9249,0.488,633.1171],[27.921,0.4918,600.5],[27.9176,0.4918,635.5449],[27.915,0.4845,635.3175],[27.9107,0.4804,633.5328],[27.905,0.4822,632.5062],[27.9011,0.4914,626.1912],[27.8982,0.4909,620.6643],[27.892,0.4833,629.7334],[27.8811,0.4804,620.2098],[27.8637,0.4882,597.8721],[27.8541,0.4879,627.5272],[27.8411,0.493,602.4019],[27.8372,0.5003,630.9227],[27.8299,0.5035,623.2063],[27.8258,0.51,620.1968],[27.8217,0.512,633.2937],[27.8169,0.518,620.362],[27.8103,0.5201,633.0098],[27.7966,0.5297,625.0673],[27.8187,0.5419,644.4945],[27.8303,0.545,628.0925],[27.8552,0.5576,651.7327],[27.8931,0.5617,642.0062],[27.9158,0.5876,633.6458],[27.9227,0.5984,649.7439],[27.9412,0.6142,648.6417],[27.9552,0.6219,634.9686],[27.9691,0.6212,647.4552],[27.9766,0.6134,627.2292],[27.9883,0.6118,636.2519],[27.9931,0.6127,632.6054],[28.0024,0.6217,637.2253],[28.0033,0.6256,643.2627],[28.009,0.6332,642.7076],[28.0179,0.6362,647.4822],[28.0109,0.6498,634.6409],[27.9345,0.7489,699.2853],[27.9437,0.7572,692.2006],[27.9462,0.7618,722.2465],[27.9387,0.7656,714.9703],[27.9362,0.7899,691.7897],[27.9545,0.8464,715.2045],[27.9871,0.911,759.5762],[28.0007,0.9331,733.3342],[27.993,0.9304,736.2863],[27.988,0.9308,763.4106],[27.985,0.9386,764.7097],[27.982,0.9407,757.6077],[27.9742,0.9403,771.6727],[27.9653,0.9315,801.2476],[27.9507,0.9212,746.7238],[27.9457,0.9202,735.342],[27.9293,0.9225,734.8456],[27.9247,0.9264,741.7925],[27.9226,0.931,745.2723],[27.9197,0.9327,719.6599],[27.9167,0.9317,719.366],[27.9124,0.9255,720.7655],[27.9071,0.9251,711.2568],[27.8925,0.934,716.2563],[27.8861,0.9315,713.1415],[27.8777,0.9464,689.3753],[27.9225,1.0043,770.7303],[27.9287,1.0168,779.5272],[27.9361,1.037,748.0428],[27.9333,1.0428,705.9122],[27.9267,1.0464,716.7164],[27.9171,1.0471,756.2405],[27.9048,1.0432,751.9371],[27.8954,1.049,746.3114],[27.8751,1.0508,758.4113],[27.8635,1.0457,744.6884],[27.8609,1.043,745.8799],[27.8607,1.0395,754.7997],[27.853,1.0388,765.6932],[27.8475,1.0418,758.7811],[27.8443,1.046,729.7449],[27.8354,1.0499,726.1086],[27.8313,1.0535,715.4593],[27.8281,1.0616,721.8394],[27.8244,1.0634,712.6073],[27.8084,1.0623,706.0499],[27.8029,1.06,692.8921],[27.7828,1.0652,703.1814],[27.773,1.0583,699.7221],[27.7694,1.0657,680.0969],[27.757,1.0735,704.6351],[27.7531,1.0737,703.5671],[27.7468,1.0673,668.826],[27.7408,1.0684,677.8328],[27.739,1.093,720.9634],[27.7408,1.0988,717.2305],[27.7378,1.1091,727.7495],[27.7394,1.1215,714.8403],[27.7709,1.1496,729.4922],[27.7564,1.1949,623.5132],[27.7555,1.2117,658.4923],[27.7785,1.221,580.5684],[27.7835,1.2288,575.3865],[27.768,1.2445,603.1345],[27.7651,1.2566,600.8639],[27.7772,1.2825,570.0353],[27.7826,1.3015,559.0309],[27.7738,1.3087,554.2269],[27.7704,1.3073,550.1969],[27.7651,1.3078,555.743],[27.7555,1.3133,571.7853],[27.7507,1.3204,578.8302],[27.74,1.322,564.0183],[27.7333,1.325,545.7496],[27.7267,1.3315,567.7888],[27.7151,1.3335,558.9973],[27.7114,1.3356,574.1108],[27.7002,1.3487,562.2709],[27.6767,1.3505,573.2771],[27.6639,1.3438,563.4813],[27.6506,1.3448,553.3457],[27.6456,1.3411,564.004],[27.6335,1.3411,562.7314],[27.628,1.3431,561.1842],[27.6234,1.3486,559.559],[27.6207,1.3585,546.8962],[27.6127,1.3624,564.0665],[27.6077,1.3578,544.2955],[27.5992,1.341,553.3853],[27.5958,1.3394,551.6207],[27.5816,1.3408,548.3488],[27.5759,1.3392,543.532],[27.5723,1.3399,546.7349],[27.5707,1.3433,556.2316],[27.5711,1.3532,546.188],[27.5688,1.3596,547.1915],[27.5572,1.3737,552.6116],[27.5439,1.381,547.109],[27.5339,1.3895,548.2635],[27.5213,1.4102,550.7153],[27.5162,1.4152,565.9494],[27.5062,1.4162,561.1846],[27.5003,1.4189,557.6238],[27.4943,1.426,559.1144],[27.492,1.4364,552.5961],[27.484,1.4463,541.7527],[27.4783,1.4766,564.3125],[27.4803,1.4877,569.9032],[27.4783,1.4929,549.2953],[27.4625,1.509,548.2148],[27.4561,1.5244,553.4406],[27.4492,1.5352,551.516],[27.4496,1.547,551.425],[27.4462,1.5569,545.5331],[27.443,1.5621,551.2161],[27.4325,1.5716,550.3149],[27.4195,1.5738,553.0576],[27.3982,1.5642,547.1592],[27.3845,1.5669,550.5518],[27.3756,1.5651,548.5789],[27.371,1.5685,540.6666],[27.3699,1.5722,537.7347],[27.3703,1.5832,543.8026],[27.366,1.5874,549.1584],[27.3513,1.5924,540.7841],[27.3445,1.5896,543.1726],[27.3292,1.5885,538.1105],[27.3226,1.5864,540.3414],[27.3182,1.58,536.2913],[27.31,1.577,542.8544],[27.2949,1.5779,540.1824],[27.2771,1.5868,526.5587],[27.2414,1.5898,533.2522],[27.2268,1.5955,526.6077],[27.1947,1.6034,533.6605],[27.2067,1.6113,530.9747],[27.2135,1.6118,533.6544],[27.2158,1.6148,532.0663],[27.2133,1.6302,538.7224],[27.2144,1.6311,538.2311],[27.2174,1.6302,538.2949],[27.2238,1.6231,544.9648],[27.227,1.6238,540.6765],[27.2348,1.6279,546.3177],[27.2402,1.6385,548.4935],[27.2448,1.6401,567.1416],[27.2469,1.6369,571.5778],[27.2473,1.6289,557.0482],[27.2526,1.6252,572.2212],[27.2622,1.6227,535.1836],[27.2768,1.6238,529.3053],[27.2853,1.6326,522.1991],[27.2811,1.6402,516.5959],[27.2839,1.6464,525.2835],[27.2841,1.6535,528.5688],[27.2875,1.6643,504.6143],[27.2868,1.6722,514.1833],[27.2882,1.6765,507.1917],[27.2982,1.6864,522.5243],[27.2962,1.6903,519.7],[27.2984,1.6949,517.6327],[27.2973,1.6988,526.8528],[27.2984,1.7018,522.5739],[27.3009,1.7032,521.2422],[27.3051,1.7025,505.6819],[27.3085,1.7113,520.1854],[27.3091,1.7219,523.8876],[27.3062,1.7246,524.9238],[27.3062,1.7283,525.9799],[27.3132,1.74,559.1113],[27.3167,1.7403,510.4603],[27.3176,1.7453,522.2573],[27.3244,1.7566,540.2261],[27.3345,1.7631,523.8517],[27.3399,1.7734,539.9],[27.3457,1.7783,548.2574],[27.3589,1.778,542.7882],[27.3621,1.7794,540.8747],[27.3667,1.7847,547.6117],[27.3687,1.7829,550.0871],[27.3719,1.7902,547.7061],[27.3683,1.7988,558.5332],[27.3699,1.8031,557.1018],[27.3602,1.8112,557.8098],[27.3596,1.8199,562.0022],[27.3554,1.8277,569.8483],[27.3527,1.8404,586.1884],[27.354,1.8466,619.0385],[27.3588,1.8526,809.7379],[27.3652,1.8556,874.0956],[27.3657,1.8588,830.1987],[27.3499,1.876,711.6393],[27.3738,1.874,913.9479],[27.3835,1.8715,842.7992],[27.3951,1.8722,860.1985],[27.4016,1.8735,759.9853],[27.4098,1.8852,684.754],[27.4071,1.8929,714.5457],[27.392,1.9103,791.8942],[27.3821,1.9271,739.0593],[27.3819,1.9381,757.4769],[27.3786,1.9465,773.7246],[27.357,1.9625,772.4186],[27.3562,1.9729,790.2106],[27.3587,1.9781,760.9926],[27.3572,1.9955,777.999],[27.3285,2.0148,762.2297],[27.327,2.029,747.5681],[27.3138,2.0365,778.9568],[27.2941,2.0238,763.4269],[27.2864,2.0284,725.9291],[27.2667,2.0472,700.0327],[27.2537,2.048,707.3027],[27.2537,2.0406,706.0756],[27.2473,2.0319,687.1628],[27.2441,2.0289,678.5828],[27.2311,2.0259,671.4847],[27.2288,2.0238,664.3356],[27.2272,2.0185,671.0715],[27.227,2.0089,684.5066],[27.2288,2.0056,669.8138],[27.2348,2.0033,656.0782],[27.24,1.9856,672.6211],[27.2469,1.9806,660.673],[27.2485,1.976,654.6329],[27.2439,1.9721,648.2114],[27.2426,1.9682,641.1047],[27.2462,1.9617,641.1193],[27.2426,1.9583,633.7311],[27.2284,1.9596,629.6594],[27.2247,1.9584,616.5394],[27.2225,1.9532,612.7116],[27.2252,1.9447,603.8618],[27.2248,1.9396,585.8086],[27.2188,1.9334,577.0524],[27.2195,1.9295,573.545],[27.2159,1.923,560.1654],[27.2129,1.9212,562.7548],[27.2102,1.9113,554.1945],[27.1926,1.9124,546.1143],[27.1871,1.9062,552.9182],[27.1796,1.903,539.8073],[27.17,1.9057,538.113],[27.1528,1.902,538.5872],[27.1492,1.8965,538.6158],[27.143,1.896,532.6679],[27.1368,1.9043,545.2153],[27.111,1.9153,529.2523],[27.1064,1.9158,531.3796],[27.0929,1.9114,530.3819],[27.0746,1.9084,528.8738],[27.0604,1.9148,511.5881],[27.0536,1.9214,508.8609],[27.0479,1.924,511.0213],[27.044,1.9412,513.036],[27.0348,1.9414,495.2716],[27.0316,1.9449,494.9628],[27.0286,1.9529,498.263],[27.0151,1.9465,511.9548],[27.0078,1.9453,494.3395],[26.9996,1.9547,501.1742],[26.984,1.9552,499.5576],[26.9826,1.9579,495.9383],[26.9849,1.9632,492.6878],[26.9826,1.9671,506.4101],[26.9783,1.9678,489.7217],[26.9746,1.971,494.4473],[26.9707,1.9788,494.1132],[26.9664,1.98,494.2418],[26.9618,1.9859,498.7678],[26.9595,1.9857,494.242],[26.9565,1.9892,497.0238],[26.9527,1.9889,496.3853],[26.9513,1.9947,497.9729],[26.9458,1.9956,500.2574],[26.9421,1.9981,517.0495],[26.9366,2.0075,499.6721],[26.9371,2.0135,502.562],[26.94,2.017,497.4089],[26.9377,2.0209,498.3781],[26.9414,2.0271,493.5001],[26.937,2.0423,497.0887],[26.9386,2.0464,504.274],[26.9345,2.0515,499.6119],[26.9365,2.0549,499.5228],[26.9354,2.0577,502.961],[26.9285,2.063,506.4019],[26.9265,2.0713,522.7858],[26.9299,2.0738,525.4974],[26.9319,2.0805,504.7076],[26.931,2.0851,504.8863],[26.9274,2.0853,504.982],[26.9294,2.092,500.6534],[26.928,2.0956,505.4319],[26.9232,2.0943,504.0876],[26.9159,2.1172,517.5735],[26.9106,2.1175,511.6356],[26.9069,2.1251,511.2086],[26.9014,2.1276,526.0358],[26.9019,2.1331,528.312],[26.8978,2.1333,523.9146],[26.895,2.1363,528.4481],[26.8934,2.1411,529.9401],[26.8936,2.1494,528.5781],[26.8863,2.1593,544.2645],[26.8817,2.1701,523.8155],[26.8689,2.1731,513.655],[26.8686,2.1643,505.8743],[26.8645,2.1528,530.5195],[26.8593,2.146,529.641],[26.8554,2.1456,526.486],[26.8471,2.1494,530.9671],[26.8369,2.1506,525.3301],[26.8262,2.15,535.2009],[26.8213,2.1445,532.0586],[26.8154,2.1304,538.0059],[26.8091,2.1274,534.64],[26.8008,2.1294,555.1882],[26.7966,2.1386,535.5447],[26.7888,2.1487,595.3157],[26.7805,2.1499,564.3444],[26.775,2.1563,568.5171],[26.7729,2.1671,544.6462],[26.7747,2.1789,547.7593],[26.7695,2.1919,547.4598],[26.7638,2.1938,570.2484],[26.7455,2.1931,611.2136],[26.7191,2.174,652.1223],[26.6422,2.1025,590.153],[26.6263,2.0967,601.106],[26.6266,2.1104,604.4547],[26.6221,2.1204,631.5936],[26.6149,2.1206,615.5317],[26.6026,2.1163,610.0269],[26.5972,2.1103,604.9245],[26.5998,2.1014,591.032],[26.604,2.095,604.0219],[26.5999,2.0677,580.013],[26.5843,2.0532,575.3883],[26.564,2.0504,551.4373],[26.5039,2.0469,571.8312],[26.4956,2.0513,575.4622],[26.4862,2.1008,590.8247],[26.4825,2.113,608.5464],[26.4752,2.1157,604.3684],[26.4352,2.0851,599.4332],[26.4248,2.0653,531.5563],[26.3978,2.0594,518.5305],[26.3687,2.0631,511.0048],[26.3562,2.0685,507.7559],[26.3418,2.0878,493.4155],[26.3422,2.0945,502.613],[26.3365,2.0993,512.4313],[26.3333,2.1067,505.8734],[26.3308,2.1078,515.3696],[26.3312,2.1171,504.9601],[26.3259,2.117,516.6669],[26.3241,2.1209,514.0795],[26.3254,2.135,501.8572],[26.3164,2.21,536.0026],[26.3278,2.2161,617.4433],[26.3299,2.2256,580.3289],[26.3288,2.2392,610.7027],[26.3132,2.25,635.2982],[26.3132,2.27,655.9325],[26.3183,2.2962,674.8918],[26.3266,2.3055,688.353],[26.3266,2.3181,706.1085],[26.3169,2.3644,692.9288],[26.2713,2.3626,656.981],[26.2622,2.3574,667.2144],[26.2566,2.3479,657.5953],[26.246,2.3436,664.6748],[26.2177,2.3416,654.3027],[26.2131,2.3383,653.4733],[26.2042,2.3277,652.1673],[26.1969,2.3227,643.5887],[26.1931,2.3125,637.1234],[26.1901,2.3127,638.0418],[26.175,2.3226,633.2144],[26.1718,2.3233,641.2191],[26.1651,2.3295,641.3773],[26.1537,2.3276,634.0437],[26.1464,2.3239,649.8253],[26.1372,2.3151,633.1199],[26.1276,2.3124,636.6973],[26.1135,2.3008,628.9296],[26.1121,2.2971,627.1378],[26.114,2.2916,633.4267],[26.1119,2.2879,624.5454],[26.1051,2.284,615.4612],[26.0875,2.2791,640.7867],[26.0696,2.2807,609.3419],[26.0536,2.2855,609.8398],[26.0394,2.2848,589.3796],[26.0264,2.2776,592.0559],[26.0164,2.2762,586.2978],[26.0127,2.2771,593.3914],[25.9905,2.2701,568.1169],[25.9851,2.2579,546.9005],[25.9794,2.239,566.8523],[25.9717,2.23,568.5249],[25.971,2.2236,574.4688],[25.966,2.2169,568.4175],[25.9676,2.2114,581.9179],[25.9658,2.2082,585.7903],[25.9582,2.2029,568.1758],[25.9532,2.204,554.2091],[25.9315,2.2159,532.1101],[25.9214,2.2152,536.6898],[25.9161,2.2188,529.6005],[25.8941,2.2555,572.2646],[25.88,2.2515,561.8644],[25.864,2.2539,554.4881],[25.8499,2.2627,575.322],[25.8403,2.2652,593.563],[25.8205,2.2644,605.031],[25.807,2.2783,588.7118],[25.7923,2.2743,571.8177],[25.7776,2.2646,588.5659],[25.7622,2.2581,560.8369],[25.7405,2.2266,547.2873],[25.7289,2.2252,543.2126],[25.6931,2.1993,563.2032],[25.6598,2.1785,601.1713],[25.6419,2.1732,563.3687],[25.624,2.173,579.8641],[25.607,2.1677,567.6176],[25.602,2.1744,540.0316],[25.5934,2.1765,500.8835],[25.5874,2.1753,522.5254],[25.5842,2.1774,495.3652],[25.5696,2.175,512.5298],[25.5648,2.1771,482.1989],[25.5463,2.1749,498.7549],[25.5408,2.1724,492.15],[25.5275,2.174,485.5683],[25.5199,2.1778,489.1416],[25.5119,2.1912,489.0065],[25.5069,2.1953,485.2117],[25.4977,2.1964,485.3536],[25.4888,2.1998,485.4271],[25.4783,2.1991,487.6325],[25.4716,2.2018,488.4206],[25.465699999999998,2.2016,487.9759],[25.4627,2.1997,487.2648],[25.4568,2.2006,486.0627],[25.4513,2.1986,487.9645],[25.4364,2.1992,496.82],[25.4263,2.2061,476.9655],[25.4153,2.2067,484.7579],[25.413,2.2092,477.1163],[25.4155,2.2143,484.2405],[25.4128,2.2166,473.9651],[25.4025,2.2182,479.3214],[25.3977,2.2216,470.5603],[25.3846,2.2241,479.66],[25.3816,2.2291,473.4086],[25.37,2.2372,471.2377],[25.3619,2.2383,476.0665],[25.3532,2.2442,475.2457],[25.3468,2.2518,474.4863],[25.3466,2.2571,471.5056],[25.3401,2.2654,474.1],[25.3387,2.2702,468.3046],[25.3332,2.275,473.5191],[25.3277,2.2741,480.0201],[25.3179,2.277,472.8798],[25.3119,2.283,473.2311],[25.3053,2.2846,472.7059],[25.295,2.2831,477.9149],[25.2859,2.279,469.1182],[25.2827,2.2794,489.3057],[25.2632,2.2892,489.0874],[25.2492,2.2894,472.9251],[25.2114,2.3082,469.6687],[25.192,2.3065,466.6245],[25.1881,2.3021,470.3839],[25.1827,2.3002,458.9759],[25.177,2.2935,463.2142],[25.1717,2.2914,468.0955],[25.1642,2.2739,456.5669],[25.1556,2.2654,459.114],[25.1496,2.2647,457.8416],[25.138,2.2563,457.5094],[25.1295,2.2529,462.2505],[25.1259,2.2478,451.7386],[25.1225,2.2347,456.4911],[25.123,2.2314,458.083],[25.1189,2.2277,461.0028],[25.1123,2.2111,463.0793],[25.1071,2.2091,455.4865],[25.0988,2.2088,466.9835],[25.0965,2.2106,470.162],[25.0956,2.2178,447.7122],[25.094,2.2196,449.5315],[25.0908,2.2203,468.9085],[25.0867,2.2246,455.0608],[25.0825,2.2253,448.6393],[25.0717,2.2377,457.9405],[25.0683,2.2391,457.752],[25.0634,2.2538,465.4768],[25.0591,2.2567,457.1703],[25.0529,2.2572,455.4155],[25.0506,2.2546,458.8438],[25.0493,2.2486,457.0909],[25.0465,2.2473,451.809],[25.0447,2.2479,453.0176],[25.0417,2.2555,451.9155],[25.0394,2.256,460.519],[25.0367,2.2509,455.8593],[25.0346,2.25,452.0028],[25.0323,2.2518,455.458],[25.0284,2.261,445.0599],[25.0259,2.2624,442.7407],[25.0234,2.2591,451.138],[25.0232,2.2543,455.4378],[25.0179,2.2566,452.8455],[25.0149,2.2644,457.4803],[25.0126,2.2655,451.7174],[25.006,2.2575,442.1239],[24.9992,2.2581,445.12],[24.9937,2.2551,440.7629],[24.9898,2.2595,443.144],[24.9861,2.2601,451.6735],[24.9788,2.2571,448.0129],[24.9747,2.2525,446.2387],[24.9717,2.2534,459.7375],[24.9655,2.2603,450.5052],[24.9623,2.2598,451.3099],[24.9605,2.2568,438.4043],[24.9599,2.2492,450.4031],[24.9564,2.2471,442.6973],[24.9526,2.2471,441.6937],[24.95,2.2508,438.2609],[24.953,2.2568,438.4098],[24.9509,2.2644,436.736],[24.9488,2.2655,431.8925],[24.9417,2.2609,446.692],[24.934,2.2608,433.2737],[24.9259,2.2663,435.6196],[24.9225,2.2649,444.9381],[24.9187,2.2585,444.7421],[24.9123,2.2566,447.8975],[24.9057,2.2495,430.6829],[24.9025,2.2494,430.5189],[24.8995,2.2416,440.7517],[24.897,2.24,439.942],[24.8915,2.2441,439.5373],[24.8873,2.254,436.9034],[24.8793,2.262,443.6107],[24.8795,2.2708,445.3601],[24.877,2.2756,447.4553],[24.8696,2.2792,438.7083],[24.8666,2.2827,433.9605],[24.8635,2.2806,438.7398],[24.8612,2.2755,438.8363],[24.8637,2.2663,445.0539],[24.8616,2.2642,443.9167],[24.8445,2.2634,460.1588],[24.4575,2.2826,498.8386],[24.4483,2.2814,534.3721],[24.4401,2.2698,542.672],[24.425,2.2593,573.0362],[24.41,2.2594,583.1956],[24.3647,2.2397,578.6365],[24.3566,2.2432,582.8701],[24.3474,2.2608,582.8529],[24.337,2.2749,571.0824],[24.3196,2.2808,585.9266],[24.3104,2.2808,585.8148],[24.3046,2.2762,573.5466],[24.2732,2.26,566.9714],[24.2246,2.2637,570.1272],[24.2153,2.2602,568.6461],[24.2036,2.245,572.2291],[24.2024,2.2369,571.929],[24.1955,2.2287,581.4731],[24.1722,2.22,587.152],[24.1612,2.2195,574.5687],[24.1154,2.2097,546.5059],[24.1044,2.2057,510.5554],[24.0946,2.2075,527.6855],[24.0755,2.2158,525.6477],[24.0598,2.2106,540.1555],[24.0581,2.2071,548.7103],[24.0656,2.2064,550.6],[24.0638,2.2024,560.8423],[24.058,2.1971,564.5948],[24.0574,2.1848,563.9819],[24.0608,2.1761,564.5871],[24.0689,2.1708,548.9535],[24.0857,2.1543,529.8716],[24.0585,2.1347,555.1928],[24.0475,2.1365,566.5524],[24.0406,2.1342,551.2291],[24.0322,2.1242,561.0095],[24.024,2.124,527.5948],[24.0121,2.1278,522.5607],[24.0007,2.1245,528.5441],[23.9879,2.1155,521.6548],[23.9785,2.1141,514.5016],[23.9749,2.112,513.1422],[23.9715,2.0977,516.495],[23.9627,2.0873,476.482],[23.9616,2.0788,482.4995],[23.9602,2.0774,482.4107],[23.9463,2.0757,494.2646],[23.9305,2.0793,490.6296],[23.92,2.0781,494.971],[23.914,2.0824,480.2073],[23.9039,2.0844,454.3812],[23.8996,2.0876,454.1204],[23.8931,2.0989,433.8748],[23.8903,2.1083,451.5792],[23.8827,2.1202,425.1211],[23.8763,2.1243,452.0771],[23.8669,2.1268,455.1424],[23.8447,2.1288,442.8185],[23.8241,2.1287,450.3951],[23.7997,2.1239,443.5513],[23.7738,2.1252,447.3481],[23.7665,2.1283,429.7968],[23.7566,2.137,420.0703],[23.7316,2.1509,410.0646],[23.7224,2.1606,403.6675],[23.7123,2.1644,428.6671],[23.6981,2.1761,404.2318],[23.6802,2.1813,401.2703],[23.6649,2.1888,403.0172],[23.6486,2.1914,398.6249],[23.637,2.1901,413.3231],[23.6189,2.192,421.5969],[23.594,2.1911,417.9633],[23.6028,2.2096,435.2422],[23.6016,2.2199,461.7741],[23.6053,2.242,466.078],[23.6103,2.249,462.5938],[23.6117,2.2543,464.6057],[23.6033,2.2802,431.9056],[23.6037,2.2837,465.3185],[23.6071,2.286,478.994],[23.6064,2.2901,480.0366],[23.5852,2.3227,508.3814],[23.5844,2.3381,546.3503],[23.5815,2.3404,539.5192],[23.5696,2.377,528.5212],[23.5726,2.3962,518.1144],[23.5612,2.36,554.0196],[23.5798,2.1931,418.4608],[23.5462,2.1932,393.291],[23.5249,2.1836,393.8404],[23.4849,2.185,393.0822],[23.4705,2.193,403.1826],[23.4652,2.2001,398.2209],[23.456,2.2041,402.6075],[23.4498,2.2126,426.0043],[23.4436,2.2147,417.1148],[23.4342,2.2217,413.0152],[23.4289,2.2233,390.3465],[23.4254,2.2297,423.8665],[23.422,2.2311,399.9722],[23.4133,2.2308,389.123],[23.4096,2.2342,387.7409],[23.3892,2.2454,389.2542],[23.3764,2.2476,388.771],[23.3704,2.2504,382.2432],[23.3647,2.2558,384.2078],[23.3621,2.2607,386.8451],[23.3461,2.2698,384.7757],[23.3327,2.281,381.9565],[23.3291,2.2821,382.9808],[23.3231,2.2784,391.2966],[23.3175,2.271,402.5743],[23.3134,2.259,408.7329],[23.3142,2.2459,407.7241],[23.3209,2.2236,431.0085],[23.3197,2.2082,437.5692],[23.3133,2.201,408.318],[23.312,2.1948,423.656],[23.3155,2.1794,436.0941],[23.3144,2.1679,420.2666],[23.3265,2.141,439.0445],[23.3219,2.1334,419.4818],[23.3195,2.1184,432.2079],[23.3219,2.1056,456.3791],[23.3153,2.0984,457.3339],[23.3126,2.0899,459.0312],[23.2712,2.1061,473.8423],[23.2565,2.1004,477.238],[23.2328,2.086,454.3511],[23.2103,2.0861,474.1099],[23.1939,2.0928,456.6608],[23.188,2.093,444.95],[23.1774,2.0994,435.3152],[23.1758,2.1079,415.4185],[23.1672,2.1187,412.1171],[23.1553,2.1191,407.473],[23.1473,2.1284,396.4777],[23.1308,2.1366,388.199],[23.1238,2.1483,385.0768],[23.1149,2.1556,381.3029],[23.1105,2.1662,398.5699],[23.1049,2.1717,384.3465],[23.098,2.1758,384.8694],[23.0898,2.1778,381.7133],[23.0758,2.192,379.3866],[23.0648,2.1956,377.9564],[23.0576,2.2022,375.5796],[23.0496,2.204,378.9432],[23.0487,2.2116,374.4004],[23.0413,2.2125,368.7935],[23.0305,2.2188,368.9384],[23.0209,2.219,354.4163],[23.0166,2.2164,355.6027],[23.0132,2.2104,363.58],[23.0073,2.2062,358.5691],[23.0033,2.1897,350.0],[23.0068,2.1782,356.6737],[23.0045,2.1752,360.6937],[23.0006,2.1738,357.456],[22.9972,2.1756,373.6946],[22.9848,2.187,374.1695],[22.9781,2.186,353.5118],[22.9722,2.1805,357.8283],[22.9711,2.1757,352.4872],[22.9756,2.1619,349.5],[22.9742,2.1584,375.1988],[22.9584,2.1602,349.0],[22.9443,2.149,349.0],[22.9386,2.1471,352.2025],[22.9341,2.1425,367.3903],[22.9339,2.1361,362.2874],[22.9458,2.129,352.2853],[22.9458,2.1263,348.5],[22.9486,2.123,373.7028],[22.9489,2.118,373.4137],[22.9382,2.111,360.1081],[22.9345,2.1071,348.0],[22.9289,2.096,350.3748],[22.9239,2.0912,349.2251],[22.9186,2.0916,352.3867],[22.9119,2.0989,352.8231],[22.9051,2.1027,358.6213],[22.8977,2.1029,353.1236],[22.8946,2.1006,349.9381],[22.8903,2.0925,369.7747],[22.8926,2.084,349.8916],[22.8922,2.0741,348.9835],[22.8886,2.069,347.5],[22.8778,2.0713,351.4409],[22.8735,2.0703,347.0],[22.8682,2.0655,347.0],[22.8597,2.0491,348.9012],[22.8558,2.047,347.6909],[22.8462,2.0465,357.9056],[22.8419,2.0441,351.4094],[22.833,2.033,364.8674],[22.8267,2.0279,355.5966],[22.8088,2.0352,350.8347],[22.8019,2.0344,346.0],[22.7903,2.0219,351.2051],[22.784,2.0175,346.0],[22.7801,2.0177,356.0],[22.7642,2.0349,362.4586],[22.755,2.0399,349.3969],[22.7481,2.0477,358.3008],[22.7396,2.051,368.2931],[22.7271,2.0491,345.0],[22.7232,2.0507,360.5602],[22.7162,2.0606,356.7442],[22.7132,2.0624,356.593],[22.7018,2.0623,345.0],[22.6935,2.0694,362.7007],[22.6865,2.0659,356.9632],[22.6809,2.05,345.0],[22.6447,2.0861,345.0],[22.6229,2.097,350.0572],[22.6053,2.0971,362.1682],[22.5773,2.1075,344.5],[22.5192,2.1197,344.0],[22.5169,2.1229,347.5634],[22.491,2.1329,343.5],[22.439,2.1465,343.5],[22.3996,2.1541,343.0],[22.387,2.154,343.0],[22.3865,2.1572,343.0],[22.3719,2.158,352.0554],[22.3545,2.162,344.735],[22.3538,2.1604,354.4643],[22.3641,2.1554,349.9283],[22.362,2.0988,364.6242],[22.368,2.0644,360.9979],[22.3825,2.0438,363.5863],[22.413,2.0368,372.6609],[22.4453,2.0,366.8946],[22.4503,1.9961,366.6139],[22.4622,1.9953,370.9272],[22.4753,1.9821,373.9073],[22.4823,1.9678,374.6352],[22.4852,1.9444,378.804],[22.4901,1.932,380.5564],[22.4911,1.9132,386.6624],[22.4803,1.8889,385.1841],[22.4737,1.8914,385.6649],[22.4677,1.8909,389.8086],[22.4577,1.8862,386.7412],[22.4464,1.877,412.1216],[22.4354,1.8718,419.7522],[22.4294,1.8554,396.435],[22.4313,1.8341,418.3539],[22.4302,1.8283,417.8445],[22.421,1.8091,400.7749],[22.414,1.8029,447.5725],[22.4083,1.8001,470.6609],[22.3948,1.7984,463.0909],[22.3889,1.7953,462.0685],[22.3814,1.7884,453.8043],[22.3677,1.7844,468.3226],[22.3576,1.7843,458.7133],[22.3586,1.771,480.6624],[22.3621,1.7543,491.0587],[22.3742,1.7426,497.2808],[22.3774,1.7234,439.959],[22.3724,1.7107,424.6578],[22.3338,1.6959,427.9685],[22.3091,1.6815,451.7645],[22.2848,1.672,389.4241],[22.2767,1.6531,389.6044],[22.2684,1.6408,387.8263],[22.2648,1.6281,409.5406],[22.2672,1.6185,400.0034],[22.2654,1.6038,399.9582],[22.2621,1.5945,390.7375],[22.2619,1.5849,383.8837],[22.2536,1.571,401.48],[22.2534,1.565,397.2696],[22.2572,1.5483,378.0455],[22.2543,1.537,376.1195],[22.2473,1.5264,386.5797],[22.2513,1.5119,386.6385],[22.2597,1.5143,387.3185],[22.2634,1.5106,389.0898],[22.27,1.5111,387.528],[22.2739,1.5079,387.282],[22.2772,1.4997,390.0451],[22.2813,1.499,391.661],[22.2854,1.5025,388.1892],[22.2877,1.5018,392.2474],[22.2905,1.4954,390.2809],[22.3,1.4987,388.7196],[22.3113,1.4928,380.5165],[22.3167,1.4933,380.2761],[22.3199,1.4984,388.9611],[22.3224,1.4988,389.3579],[22.3238,1.5034,376.5344],[22.3272,1.5003,383.4732],[22.3331,1.5024,382.9969],[22.3357,1.4999,385.6911],[22.3373,1.4946,388.2085],[22.3465,1.4903,384.9688],[22.3508,1.4908,385.9539],[22.3537,1.4981,385.7324],[22.3626,1.4987,381.6754],[22.3645,1.5015,383.8129],[22.3718,1.4989,383.0834],[22.3776,1.4893,388.1441],[22.3805,1.4873,388.8161],[22.3828,1.4876,388.0038],[22.3851,1.4903,387.1006],[22.3848,1.4991,385.6115],[22.3965,1.4971,371.5006],[22.3926,1.4895,385.7574],[22.3956,1.486,384.6567],[22.4,1.4851,385.929],[22.4066,1.4877,381.1628],[22.4132,1.4839,380.5302],[22.4197,1.4756,386.8382],[22.4231,1.4749,399.3832],[22.4297,1.4819,387.3167],[22.4345,1.4748,406.6529],[22.4419,1.4758,395.3016],[22.4446,1.4726,389.2739],[22.4485,1.4756,385.3054],[22.4572,1.4738,383.7233],[22.4601,1.4768,389.0897],[22.4612,1.4824,367.3885],[22.463,1.484,378.811],[22.4651,1.4796,371.4045],[22.4631,1.4734,388.0327],[22.4691,1.4658,394.8243],[22.4739,1.4663,382.8842],[22.4757,1.4682,381.1623],[22.4768,1.4739,391.1143],[22.4794,1.4726,387.8134],[22.4803,1.4685,380.8106],[22.484,1.4666,379.983],[22.484,1.4616,385.1203],[22.4895,1.4609,382.2076],[22.4916,1.4593,387.6118],[22.4925,1.4557,390.5262],[22.4952,1.4564,381.8208],[22.4979,1.4612,381.7247],[22.5025,1.4603,385.1044],[22.5105,1.4551,380.4156],[22.5145,1.4468,386.5896],[22.5229,1.4483,384.5486],[22.5241,1.4446,384.7084],[22.5275,1.4412,383.4365],[22.5351,1.4412,389.321],[22.5399,1.4387,380.8042],[22.5413,1.436,376.2295],[22.5479,1.4347,390.451],[22.55,1.4305,391.7428],[22.5569,1.4287,391.4406],[22.5603,1.4251,389.4995],[22.5597,1.4207,393.1103],[22.5627,1.417,390.2093],[22.5616,1.4127,396.1845],[22.5627,1.4095,399.3626],[22.5721,1.4031,405.6153],[22.5779,1.3951,407.2256],[22.5861,1.3984,393.2504],[22.590699999999998,1.3963,400.3403],[22.5944,1.3927,402.4409],[22.5944,1.3885,407.1575],[22.5988,1.3853,403.5717],[22.5988,1.3789,403.0038],[22.6052,1.3746,406.0204],[22.6046,1.3709,402.2114],[22.6066,1.3674,401.6591],[22.6176,1.3648,396.2366],[22.6213,1.3698,393.3648],[22.6245,1.3671,396.3319],[22.63,1.3568,398.079],[22.6273,1.3513,408.5154],[22.6399,1.3442,396.5992],[22.6379,1.3387,392.8628],[22.6386,1.335,408.8711],[22.6469,1.3302,391.3186],[22.6483,1.3284,391.2928],[22.6467,1.3252,398.4796],[22.6476,1.3217,400.1796],[22.6552,1.316,394.0449],[22.655,1.3121,390.8733],[22.6491,1.307,392.4827],[22.6498,1.3038,394.6628],[22.6553,1.3,392.9731],[22.6537,1.2963,394.5139],[22.6544,1.2935,398.5414],[22.6586,1.2908,393.808],[22.6695,1.2888,393.1575],[22.6694,1.2803,389.6055],[22.6735,1.2764,402.1504],[22.6729,1.2711,405.6421],[22.6784,1.2691,396.5539],[22.6814,1.2652,403.8393],[22.6807,1.2613,402.6728],[22.6748,1.2513,413.7692],[22.6815,1.2461,414.8727],[22.6865,1.2443,406.1694],[22.6868,1.2424,410.8111],[22.6808,1.241,415.769],[22.6831,1.2371,414.8798],[22.6818,1.2332,412.9173],[22.6875,1.2314,412.8322],[22.6905,1.2274,400.6786],[22.6871,1.2231,396.4378],[22.6906,1.2204,410.4356],[22.7008,1.22,400.8746],[22.7027,1.2143,401.922],[22.7055,1.2125,403.5149],[22.7107,1.2122,393.5318],[22.7142,1.2086,395.0977],[22.7149,1.2038,392.3931],[22.712,1.1964,410.1285],[22.718,1.187,409.009],[22.726,1.1873,399.1159],[22.7257,1.1848,389.2861],[22.721,1.1801,401.5861],[22.7235,1.1716,395.689],[22.7272,1.1698,397.1877],[22.735,1.1731,392.3943],[22.7403,1.1626,389.531],[22.7365,1.151,416.94],[22.7365,1.1474,416.5064],[22.7413,1.143,405.385],[22.7402,1.1334,418.4365],[22.749,1.1247,400.6332],[22.7495,1.1141,402.03],[22.7592,1.0988,400.7411],[22.7681,1.0958,410.5828],[22.7743,1.0966,398.5124],[22.7787,1.0892,397.4577],[22.7748,1.0851,400.5735],[22.7824,1.0752,398.2445],[22.7836,1.0677,399.2275],[22.7884,1.0659,392.2018],[22.7889,1.0608,384.2855],[22.7836,1.0442,402.0135],[22.7852,1.0373,406.0454],[22.7928,1.0261,405.4302],[22.7976,1.0245,403.1325],[22.805,1.0062,410.4621],[22.8117,0.997,413.588],[22.8181,0.9913,408.9103],[22.8256,0.9764,408.522],[22.8233,0.9721,419.3964],[22.8238,0.9643,417.1302],[22.8259,0.9603,403.4539],[22.8223,0.9555,410.2793],[22.8226,0.9463,421.0846],[22.8203,0.9419,430.1126],[22.8231,0.9364,432.5714],[22.8227,0.9311,425.3218],[22.8204,0.9279,413.7377],[22.8246,0.9203,436.8843],[22.8239,0.9176,436.4897],[22.8264,0.9153,437.9352],[22.8319,0.9156,425.9839],[22.8328,0.913,428.6431],[22.8219,0.9017,423.8093],[22.8208,0.8946,405.0957],[22.8223,0.8822,438.0477],[22.8263,0.8747,435.1403],[22.8286,0.8743,433.9146],[22.8329,0.8616,407.4509],[22.8309,0.8519,436.6112],[22.84,0.8349,424.0592],[22.8391,0.8299,428.5076],[22.8487,0.8253,420.7256],[22.8478,0.8191,425.3343],[22.8494,0.8166,424.7849],[22.849,0.8106,428.7827],[22.8546,0.7978,408.0988],[22.8535,0.7879,432.8443],[22.8575,0.7771,407.34],[22.85,0.7642,421.6556],[22.8528,0.7587,434.5007],[22.8498,0.7546,436.5918],[22.8533,0.7481,432.877],[22.8536,0.7438,434.9971],[22.8495,0.7373,437.8923],[22.8518,0.7298,419.7369],[22.848,0.724,425.4128],[22.8453,0.7148,447.1778],[22.8478,0.712,445.7723],[22.8463,0.7076,441.7719],[22.8499,0.7054,444.6654],[22.8502,0.7031,443.9709],[22.8461,0.6989,448.7203],[22.8634,0.671,443.3837],[22.871,0.6625,415.4976],[22.8745,0.6506,440.4367],[22.8752,0.6421,442.1133],[22.8876,0.6302,428.604],[22.8963,0.6257,432.3297],[22.9035,0.6172,444.8714],[22.9102,0.6056,419.8488],[22.9161,0.6033,426.6131],[22.9246,0.593,441.3529],[22.9324,0.5912,445.1996],[22.937,0.5857,439.1043],[22.9371,0.5738,440.4456],[22.9467,0.5683,440.7652],[22.9372,0.5515,433.5513],[22.9354,0.5432,444.0876],[22.9362,0.5363,439.4204],[22.9275,0.5025,539.1578],[22.9319,0.4869,522.6225],[22.9423,0.4642,498.3329],[22.952,0.4549,472.7071],[22.9534,0.4491,460.0677],[22.9523,0.4409,471.6493],[22.9561,0.4225,517.555],[22.9522,0.4149,525.0313],[22.9527,0.4117,516.8864],[22.9585,0.4048,497.4152],[22.9698,0.3844,542.0457],[22.9694,0.3775,541.3381],[22.9712,0.3688,495.1688],[22.9679,0.3603,475.0016],[22.9629,0.358,475.1926],[22.9588,0.3534,488.3759],[22.9301,0.3442,531.1668],[22.9302,0.3369,527.8872],[22.9413,0.308,445.3509],[22.9563,0.2805,512.4437],[22.9715,0.2654,457.7405],[22.9773,0.252,439.4347],[22.9868,0.2157,519.5018],[22.996,0.2066,536.0948],[23.0057,0.191,523.3278],[23.0139,0.1819,533.8965],[23.0181,0.1794,554.5322],[23.0292,0.1788,535.8635],[23.0315,0.1772,538.9271],[23.0348,0.1733,537.7116],[23.0378,0.1639,513.7206],[23.0451,0.1573,486.979],[23.049,0.1509,443.4481],[23.0526,0.1138,454.3033],[23.0682,0.0869,433.6946],[23.0869,0.0647,428.3489],[23.0935,0.0531,428.3639],[23.1411,0.0118,420.6064],[23.1535,0.0075,439.2873],[23.1584,0.0,424.885],[23.2241,-0.0692,456.1693],[23.2294,-0.0729,464.8559],[23.2383,-0.0722,483.0343],[23.2426,-0.0741,519.6608],[23.2549,-0.0849,500.378],[23.2631,-0.0893,472.6703],[23.2804,-0.1093,490.7695],[23.2868,-0.1123,490.6877],[23.2934,-0.1208,463.1436],[23.3082,-0.1238,459.5443],[23.3214,-0.1429,479.083],[23.3458,-0.1638,468.8515],[23.3474,-0.1707,450.547],[23.3565,-0.1877,437.2839],[23.3275,-0.2186,442.7067],[23.3197,-0.2358,431.0947],[23.3053,-0.2542,422.0249],[23.2925,-0.2741,419.7274],[23.2884,-0.2785,419.9865],[23.2799,-0.2819,432.0219],[23.277,-0.2854,428.0027],[23.2756,-0.2952,425.5529],[23.1922,-0.2872,434.0161],[23.1384,-0.2895,452.7099],[23.0846,-0.2772,428.1407],[23.0579,-0.2976,423.8877],[23.0538,-0.2989,421.4276],[23.0419,-0.3095,429.7007],[23.0316,-0.3159,418.6851],[23.0248,-0.3179,412.015],[23.0102,-0.3289,417.1609],[23.0049,-0.3363,417.1271],[22.9987,-0.3406,425.862],[22.9923,-0.3505,407.4244],[22.9852,-0.3544,406.683],[22.9786,-0.3656,398.8847],[22.9665,-0.3761,400.168],[22.9436,-0.4037,408.5851],[23.0928,-0.4058,425.1292],[23.1107,-0.4072,420.2361],[23.1351,-0.4121,419.0691],[23.1266,-0.438,414.8341],[23.1289,-0.4488,417.4401],[23.1186,-0.4663,414.7902],[23.1137,-0.4881,412.7107],[23.1137,-0.4979,411.537],[23.1091,-0.5101,394.8184],[23.1075,-0.5227,414.2643],[23.099,-0.5406,422.0914],[23.0981,-0.548,406.8992],[23.1008,-0.5595,412.8125],[23.107,-0.5572,418.2481],[23.1175,-0.5444,410.3491],[23.1262,-0.5366,409.3382],[23.1591,-0.5238,411.1848],[23.1769,-0.5063,407.9482],[23.1954,-0.4972,406.0841],[23.2158,-0.4752,429.1461],[23.2448,-0.4575,397.6108],[23.2895,-0.4505,398.0248],[23.3101,-0.4391,403.7834],[23.3281,-0.4386,408.1686],[23.3384,-0.4347,415.7652],[23.3496,-0.426,404.6094],[23.356,-0.4231,404.9311],[23.3717,-0.4235,405.4698],[23.3987,-0.411,411.1497],[23.4112,-0.4091,419.0166],[23.4187,-0.4135,408.969],[23.4235,-0.4186,413.1585],[23.4315,-0.4321,404.177],[23.4459,-0.4473,402.4444],[23.455,-0.4524,403.2411],[23.4567,-0.4919,401.6406],[23.4744,-0.5443,415.5509],[23.5024,-0.5702,426.0732],[23.5284,-0.5862,439.4907],[23.5393,-0.5946,434.0031],[23.5344,-0.6128,421.664],[23.5172,-0.6202,428.5902],[23.4965,-0.6245,434.0321],[23.4409,-0.6421,423.3997],[23.4271,-0.6492,410.9002],[23.3977,-0.6498,407.4204],[23.3931,-0.6556,413.6929],[23.3874,-0.6677,409.4661],[23.3824,-0.6728,406.4461],[23.3712,-0.6748,412.3169],[23.3364,-0.6881,408.1228],[23.3284,-0.703,411.8707],[23.327,-0.7198,405.3815],[23.3222,-0.7315,413.5161],[23.3227,-0.7384,418.4782],[23.3208,-0.7453,420.2586],[23.3151,-0.751,403.2136],[23.3131,-0.7568,400.4967],[23.3096,-0.7574,399.6508],[23.2968,-0.7483,400.7578],[23.2777,-0.7456,408.193],[23.257,-0.7513,423.8398],[23.2553,-0.7611,406.4406],[23.2823,-0.7824,403.9546],[23.2986,-0.7904,404.8205],[23.3081,-0.8197,399.1487],[23.344,-0.8425,423.6964],[23.3558,-0.8532,424.3584],[23.3687,-0.8672,425.2558],[23.3855,-0.8979,448.9357],[23.4016,-0.9007,429.3301],[23.4392,-0.9272,427.0479],[23.4693,-0.9537,405.1778],[23.5097,-0.9858,443.3411],[23.5609,-0.9968,434.535],[23.5812,-1.0094,446.609],[23.6385,-1.0106,421.4807],[23.6655,-1.0469,433.8251],[23.6706,-1.0749,439.7174],[23.6483,-1.138,401.5068],[23.651,-1.1492,449.9377],[23.6582,-1.1534,450.9658],[23.6775,-1.1491,459.4639],[23.7024,-1.1502,419.346],[23.7287,-1.1602,438.556],[23.739,-1.1601,436.4385],[23.7681,-1.1751,448.3],[23.8,-1.1879,427.2805],[23.8043,-1.1921,451.6988],[23.8037,-1.2145,410.991],[23.8224,-1.237,407.7912],[23.8367,-1.2467,423.513],[23.8417,-1.2788,436.3872],[23.8503,-1.2886,404.6486],[23.8909,-1.3095,447.2148],[23.8983,-1.3109,405.5803],[23.9054,-1.3193,466.7189],[23.9093,-1.3389,468.4911],[23.9344,-1.3788,405.5185],[23.9554,-1.3742,443.6527],[23.9577,-1.3701,441.2393],[23.9639,-1.3655,414.329],[23.9689,-1.3563,415.0262],[23.9748,-1.3524,419.3548],[23.9984,-1.3531,410.6591],[24.005,-1.3517,408.3142],[24.0102,-1.3428,404.2291],[24.0176,-1.335,417.3322],[24.0244,-1.3317,431.8598],[24.0468,-1.3267,450.1274],[24.0603,-1.3187,425.17],[24.0719,-1.3074,428.6236],[24.126,-1.3228,451.2289],[24.2657,-1.3251,518.6622],[24.3599,-1.3248,481.4318],[24.3684,-1.3934,503.3122],[24.3853,-1.4214,588.3845],[24.4092,-1.6258,486.0133],[24.4056,-1.6524,546.1352],[24.4228,-1.6677,586.0637],[24.4894,-1.8187,490.3387],[24.5151,-1.904,481.64],[24.5325,-1.9124,484.5151],[24.5733,-1.9434,543.9327],[24.5984,-1.9808,611.1696],[24.9782,-1.9816,496.4962],[24.9839,-1.977,493.517],[24.9899,-1.9747,501.978],[25.0245,-1.9686,481.5561],[25.0491,-1.9703,489.3928],[25.0557,-1.9806,483.2988],[25.0682,-1.9755,476.1995],[25.0867,-1.9749,466.1327],[25.1184,-1.9763,467.7899],[25.135,-1.9853,479.2314],[25.1601,-1.9853,458.0018],[25.1885,-1.9803,477.8994],[25.1971,-1.9828,453.1295],[25.2017,-1.9925,454.0424],[25.1971,-2.0098,463.2277],[25.1984,-2.0143,453.6042],[25.2076,-2.02,470.6336],[25.209,-2.0277,459.1686],[25.1786,-2.0514,473.0464],[25.1726,-2.0623,479.8484],[25.1753,-2.0687,464.3546],[25.1759,-2.0777,465.1466],[25.1852,-2.0835,458.0224],[25.2004,-2.088,465.8149],[25.2116,-2.0861,461.8017],[25.2321,-2.0759,453.3127],[25.2401,-2.112,460.7988],[25.3298,-2.0811,477.1966],[25.4226,-2.0547,496.9705],[25.4303,-2.0342,491.9113],[25.4399,-2.0199,487.1159],[25.4481,-2.0112,484.2098],[25.4577,-2.0054,490.4057],[25.4694,-1.9937,485.0456],[25.4783,-1.9803,481.3181],[25.4961,-1.9642,499.8439],[25.5011,-1.9619,501.0394],[25.5098,-1.9608,493.976],[25.518,-1.9557,492.3922],[25.5345,-1.9515,491.0288],[25.5564,-1.9299,467.9206],[25.5635,-1.9285,483.2856],[25.5715,-1.9237,487.4565],[25.6015,-1.9218,472.4101],[25.6131,-1.9112,467.0445],[25.6234,-1.9052,471.3649],[25.6565,-1.8923,471.4217],[25.6675,-1.8815,468.173],[25.6707,-1.8753,476.1556],[25.6743,-1.8546,477.9968],[25.6775,-1.8507,489.0645],[25.699,-1.8392,482.5079],[25.7133,-1.8247,479.992],[25.72,-1.8221,482.9828],[25.7302,-1.8216,480.4646],[25.7424,-1.8184,479.7341],[25.7604,-1.8177,472.1378],[25.7659,-1.8193,472.1223],[25.7723,-1.8239,468.6946],[25.7872,-1.8409,428.5],[25.7902,-1.8425,428.5],[25.8011,-1.8432,459.6173],[25.8233,-1.8339,483.4847],[25.8434,-1.8329,496.2364]]]]}}