{"type":"Feature","properties":{"GID_2":"COD.6.11_1","GID_0":"COD","country":"DemocraticRepublicoftheCongo","GID_1":"COD.6_1","province":"Ituri","NL_NAME_1":"NA","county":"Mongwalu","VARNAME_2":"NA","NL_NAME_2":"NA","TYPE_2":"Ville","ENGTYPE_2":"Town","CC_2":"NA","HASC_2":"NA","name":"Mongwalu.county"},
"geometry":{"type": "MultiPolygon","coordinates": [[[[30.245,1.8054,1341.7639],[30.2509,1.8099,1331.5112],[30.2504,1.8178,1341.293],[30.2445,1.8248,1349.4814],[30.2436,1.8329,1320.7083],[30.2288,1.832,1340.9229],[30.2228,1.828,1399.3584],[30.22,1.8207,1373.6478],[30.2226,1.809,1348.4414],[30.2304,1.8044,1318.5349],[30.2406,1.8035,1326.7314],[30.245,1.8054,1341.7639]]]]}}