{"type":"Feature","properties":{"GID_2":"COD.25.4_1","GID_0":"COD","country":"DemocraticRepublicoftheCongo","GID_1":"COD.25_1","province":"Tshopo","NL_NAME_1":"NA","county":"Basoko(ville)","VARNAME_2":"NA","NL_NAME_2":"NA","TYPE_2":"Ville","ENGTYPE_2":"Town","CC_2":"NA","HASC_2":"NA","name":"Basoko(ville).county"},
"geometry":{"type": "MultiPolygon","coordinates": [[[[23.6064,1.211,385.2788],[23.6346,1.2308,369.9207],[23.6366,1.2356,363.4847],[23.6369,1.2466,373.0032],[23.635,1.2578,383.9733],[23.6316,1.2656,372.0699],[23.6269,1.271,381.5048],[23.6202,1.274,372.0281],[23.6015,1.2743,388.7785],[23.594,1.2715,391.7653],[23.577,1.26,378.5977],[23.5732,1.2477,381.9755],[23.5751,1.2278,360.0],[23.5806,1.2171,360.0],[23.5918,1.2109,374.0563],[23.6026,1.2098,376.5876],[23.6064,1.211,385.2788]]]]}}