{"type": "Feature","bbox": [27.5516,-4.0282,27.605,-3.9934],"geometry": {"type": "MultiPolygon","coordinates": [[[[27.605,-4.0137,889.3773],[27.5973,-4.0099,858.5458],[27.5806,-3.9949,939.8859],[27.5516,-3.9934,810.5725],[27.5526,-4.0075,946.2523],[27.5566,-4.0159,873.5937],[27.5684,-4.0259,742.4696],[27.5767,-4.0282,714.7721],[27.5887,-4.0261,793.7197],[27.6023,-4.0181,807.3286],[27.605,-4.0137,889.3773]]]]}
,"properties": {"GID_2": "COD.17.10_1","GID_0": "COD","country": "DemocraticRepublicoftheCongo","GID_1": "COD.17_1","province": "Maniema","NL_NAME_1": "NA","county": "Namoya","VARNAME_2": "NA","NL_NAME_2": "NA","TYPE_2": "Ville","ENGTYPE_2": "Town","CC_2": "NA","HASC_2": "NA","name": "Namoya.county","area_km2": 15.10131,"hist_schema_id": "Elevation0-9000","hist_area_km2": {"725": 0.78255,"750": 2.85526,"775": 4.2935,"800": 3.59557,"825": 1.60743,"850": 0.69796,"875": 0.42301,"900": 0.31726,"925": 0.27495,"950": 0.2115,"975": 0.0423}}}