{"type": "Feature","bbox": [26.6307,-11.0455,26.8796,-10.8797],"geometry": {"type": "MultiPolygon","coordinates": [[[[26.6428,-10.9796,1239.7493],[26.6515,-10.9866,1239.2344],[26.6632,-11.0027,1256.7549],[26.6649,-11.0119,1320.0061],[26.6727,-11.0194,1256.7239],[26.6789,-11.0285,1224.2078],[26.6891,-11.0383,1244.1508],[26.6977,-11.0407,1216.9199],[26.709,-11.0313,1195.7777],[26.7144,-11.031,1237.4125],[26.7326,-11.0349,1189.152],[26.7378,-11.0382,1179.3804],[26.7415,-11.0384,1184.6941],[26.7507,-11.0337,1182.8561],[26.7549,-11.0336,1184.4454],[26.7606,-11.0372,1192.0098],[26.7638,-11.0369,1172.0422],[26.7693,-11.0325,1168.7533],[26.7745,-11.0315,1161.9321],[26.7879,-11.0446,1172.6953],[26.7917,-11.0455,1155.1622],[26.8013,-11.0366,1154.7793],[26.8131,-11.0339,1151.8666],[26.8228,-11.0257,1161.738],[26.8273,-11.0183,1149.3553],[26.8336,-11.0177,1150.1805],[26.847,-11.0233,1151.1324],[26.862,-11.0171,1153.1537],[26.8699,-11.0177,1143.7885],[26.8796,-11.0226,1139.9783],[26.8795,-10.9968,1180.6132],[26.8301,-10.9623,1226.1642],[26.8158,-10.9448,1252.2261],[26.8038,-10.9515,1230.6252],[26.7794,-10.9499,1233.7142],[26.7603,-10.9437,1237.2539],[26.7524,-10.9144,1273.7405],[26.7031,-10.9132,1322.0222],[26.6868,-10.8885,1377.4884],[26.6718,-10.8797,1426.1941],[26.6554,-10.9023,1342.3511],[26.6347,-10.9377,1289.4131],[26.6307,-10.9664,1255.9858],[26.6428,-10.9796,1239.7493]]]]}
,"properties": {"GID_2": "COD.3.5_1","GID_0": "COD","country": "DemocraticRepublicoftheCongo","GID_1": "COD.3_1","province": "Haut-Katanga","NL_NAME_1": "NA","county": "Likasi","VARNAME_2": "NA","NL_NAME_2": "NA","TYPE_2": "Territoire","ENGTYPE_2": "Territory","CC_2": "NA","HASC_2": "NA","name": "Likasi.county","area_km2": 270.7534,"hist_schema_id": "Elevation0-9000","hist_area_km2": {"1150": 12.5078,"1175": 28.2008,"1200": 32.8428,"1225": 31.3445,"1250": 32.3861,"1275": 39.7769,"1300": 35.3657,"1325": 33.0363,"1350": 16.9866,"1375": 5.1835,"1400": 2.4564,"1425": 0.6453,"1450": 0.0208}}}