{"type": "Feature","bbox": [17.3386,-3.4398,17.5629,-3.1917],"geometry": {"type": "MultiPolygon","coordinates": [[[[17.5572,-3.2936,306.6766],[17.5309,-3.2646,313.1395],[17.5272,-3.2623,315.3916],[17.5031,-3.2504,298.2399],[17.4992,-3.2507,307.6988],[17.4924,-3.2546,303.6822],[17.4848,-3.2547,300.8981],[17.4731,-3.2469,299.1255],[17.4637,-3.2456,297.7468],[17.4423,-3.237,301.2552],[17.4329,-3.2315,312.6406],[17.4315,-3.2278,303.7409],[17.4319,-3.2184,294.7631],[17.4301,-3.2156,295.3894],[17.4257,-3.2124,308.4032],[17.42,-3.2118,303.4559],[17.4113,-3.2136,313.61],[17.4067,-3.2123,302.071],[17.4016,-3.2084,306.8192],[17.4,-3.2015,295.1602],[17.3975,-3.1981,298.8437],[17.3757,-3.1917,303.2746],[17.3663,-3.1978,302.4847],[17.3537,-3.1985,307.4682],[17.3562,-3.2141,292.5],[17.3776,-3.2481,292.5],[17.3809,-3.2649,295.7657],[17.366,-3.3054,294.0],[17.3603,-3.3126,294.0],[17.3466,-3.3219,294.5],[17.3391,-3.3293,295.1868],[17.3386,-3.3325,295.0],[17.3522,-3.3492,297.1421],[17.358,-3.3589,296.0],[17.3684,-3.3664,296.9481],[17.3785,-3.3719,298.2541],[17.3886,-3.3808,298.9934],[17.3957,-3.3842,302.1429],[17.404,-3.3853,297.0],[17.4099,-3.3839,298.4976],[17.4237,-3.3933,298.0965],[17.4318,-3.4043,297.8781],[17.4333,-3.422,302.2546],[17.4354,-3.4275,299.0172],[17.4367,-3.427,300.9404],[17.4425,-3.4318,297.8455],[17.451,-3.4334,298.6396],[17.4609,-3.4398,316.6002],[17.4647,-3.4368,304.1056],[17.484,-3.4369,302.207],[17.4947,-3.4208,308.1934],[17.5083,-3.4078,309.8212],[17.5108,-3.3928,319.9879],[17.5149,-3.39,313.7039],[17.499,-3.36,325.7038],[17.5129,-3.3384,322.6187],[17.5489,-3.3302,311.7595],[17.5629,-3.3101,300.1504],[17.5572,-3.2936,306.6766]]]]}
,"properties": {"GID_2": "COD.13.2_1","GID_0": "COD","country": "DemocraticRepublicoftheCongo","GID_1": "COD.13_1","province": "Kwilu","NL_NAME_1": "NA","county": "Bandundu","VARNAME_2": "NA","NL_NAME_2": "NA","TYPE_2": "Territoire","ENGTYPE_2": "Territory","CC_2": "NA","HASC_2": "NA","name": "Bandundu.county","area_km2": 363.8766,"hist_schema_id": "Elevation0-9000","hist_area_km2": {"300": 253.8755,"325": 105.7468,"350": 4.2543}}}