{"type": "Feature","bbox": [19.8136,1.8501,21.8149,3.2475],"geometry": {"type": "MultiPolygon","coordinates": [[[[19.8246,1.8501,337.977],[19.8556,1.8813,334.6234],[19.8768,1.9082,315.0],[19.8936,1.9219,315.0],[19.909,1.9306,315.0],[19.9168,1.933,315.0],[19.9355,1.9348,315.0],[19.9812,1.9433,322.4977],[20.0086,1.9413,336.6792],[20.0329,1.9328,330.8451],[20.0665,1.9138,315.0],[20.1,1.9249,315.0],[20.1128,1.9202,315.0],[20.1247,1.9196,334.5147],[20.1462,1.9254,340.6185],[20.1669,1.9286,341.0493],[20.1742,1.9319,325.342],[20.1989,1.9291,315.0],[20.2183,1.9353,315.0],[20.2389,1.9367,315.0],[20.2533,1.9347,328.106],[20.2639,1.9305,315.0],[20.2664,1.9277,324.9769],[20.2865,1.9293,327.9514],[20.2967,1.9347,315.0],[20.3052,1.9364,315.0],[20.3233,1.934,315.0],[20.3424,1.9374,315.0],[20.3847,1.9374,336.75],[20.4157,1.9494,319.1813],[20.4237,1.9504,341.9687],[20.4633,1.9731,341.7268],[20.4824,1.9788,324.7258],[20.4991,1.9801,337.0197],[20.5218,1.9732,348.4028],[20.5403,1.974,315.0],[20.5765,1.9686,315.0],[20.5852,1.9646,340.8729],[20.5905,1.9642,347.7463],[20.6391,1.9681,342.7885],[20.6536,1.9657,343.0177],[20.6963,1.97,346.5614],[20.7043,1.9661,343.3916],[20.7132,1.9704,342.3713],[20.7308,1.971,349.0816],[20.7446,1.99,315.0],[20.7491,1.9907,315.0],[20.75,1.9932,315.0],[20.7948,1.9996,333.4923],[20.808,2.0002,335.0854],[20.8242,2.0047,341.4708],[20.8531,1.9962,335.134],[20.8753,1.9815,319.0533],[20.8763,1.9794,338.4897],[20.8921,1.9821,315.0],[20.8994,1.9817,315.0],[20.9001,1.9803,315.0],[20.9088,1.9792,339.4178],[20.9134,1.977,318.4782],[20.9171,1.9715,331.0236],[20.9267,1.9698,338.4378],[20.9352,1.9641,341.2972],[20.9483,1.9607,342.1737],[20.9586,1.956,344.1269],[20.9753,1.9566,345.2952],[20.9859,1.9514,349.7863],[20.995,1.9508,351.8351],[21.0097,1.9468,348.2736],[21.0433,1.948,347.1011],[21.059,1.95,348.0098],[21.0702,1.9549,347.3728],[21.1066,1.955,339.1761],[21.1225,1.9583,344.6501],[21.1351,1.958,339.703],[21.1509,1.9492,329.0381],[21.1651,1.9493,340.6531],[21.1777,1.9547,346.4526],[21.1911,1.955,347.9391],[21.2048,1.9577,348.6649],[21.2347,1.9667,336.5174],[21.2626,1.9934,345.808],[21.2815,1.9988,328.5],[21.2906,2.0072,340.7156],[21.3004,2.0123,347.7923],[21.3031,2.0213,329.75],[21.3354,2.041,345.2159],[21.3517,2.0549,352.7798],[21.3811,2.0735,352.1296],[21.4082,2.0836,343.2189],[21.418,2.0849,335.0],[21.4296,2.0907,345.5246],[21.4392,2.0915,335.0],[21.4677,2.0991,335.5],[21.4642,2.1051,335.5],[21.4629,2.1132,341.8915],[21.4626,2.1243,336.8398],[21.4642,2.134,340.6406],[21.478,2.1566,408.5088],[21.4846,2.1637,443.7905],[21.4923,2.168,455.8308],[21.5138,2.1744,457.3814],[21.5295,2.1765,379.1126],[21.5385,2.1765,427.9303],[21.5489,2.1738,440.474],[21.5693,2.1613,346.7151],[21.58,2.1455,336.5],[21.590699999999998,2.1242,347.9728],[21.5942,2.1243,350.2117],[21.6116,2.1263,352.6533],[21.644,2.1346,350.0198],[21.6586,2.1351,342.6788],[21.6783,2.1328,337.0],[21.7592,2.1665,338.0],[21.7741,2.1674,338.0],[21.775,2.1685,338.0],[21.772,2.1708,343.3328],[21.8064,2.1805,356.8871],[21.805,2.1865,338.5],[21.8079,2.1955,349.2537],[21.8078,2.2109,356.8466],[21.8102,2.2242,365.5091],[21.8149,2.2376,364.1444],[21.814,2.2413,359.3757],[21.7925,2.2637,369.1098],[21.7797,2.2691,376.4698],[21.7615,2.2823,383.7052],[21.7584,2.2915,373.4323],[21.7569,2.32,377.1183],[21.7478,2.3402,399.9233],[21.7327,2.3661,444.5837],[21.7235,2.372,484.7687],[21.7174,2.4296,463.3804],[21.7169,2.5153,470.531],[21.7133,2.5902,502.004],[21.6922,2.6013,472.33],[21.6809,2.6047,453.9106],[21.6807,2.6091,454.0351],[21.6616,2.6474,421.3569],[21.6555,2.6669,412.4404],[21.6547,2.6784,412.6939],[21.6567,2.6895,410.7875],[21.6635,2.7038,410.2962],[21.6784,2.7173,414.4592],[21.6976,2.7524,402.4894],[21.7049,2.76,400.7961],[21.7104,2.7843,397.0938],[21.717,2.7951,427.0098],[21.7248,2.8196,393.4976],[21.714,2.8259,392.645],[21.71,2.8335,394.1035],[21.6999,2.8429,396.6483],[21.6928,2.846,393.4787],[21.6791,2.8634,394.145],[21.6662,2.8764,391.1787],[21.6614,2.8782,387.4952],[21.6454,2.9011,377.2876],[21.6442,2.9055,382.3955],[21.6471,2.9205,375.8294],[21.6404,2.9236,368.2953],[21.6338,2.9229,370.8948],[21.6292,2.9189,374.9235],[21.627,2.9118,385.0138],[21.6215,2.9173,366.8878],[21.6162,2.9168,369.6032],[21.6151,2.9128,390.396],[21.613,2.9131,380.7039],[21.6107,2.9176,365.9491],[21.6082,2.9181,366.7585],[21.6048,2.916,374.6093],[21.5997,2.9166,374.6538],[21.5922,2.9133,387.3101],[21.5885,2.917,381.2512],[21.5826,2.9176,378.9077],[21.5793,2.9197,379.493],[21.5738,2.9302,364.496],[21.5712,2.9295,364.9197],[21.5688,2.9247,384.4036],[21.5632,2.9283,364.2913],[21.5564,2.9243,369.2593],[21.5431,2.9302,364.0189],[21.5337,2.9258,367.0183],[21.5246,2.9278,367.8528],[21.5121,2.9382,363.4064],[21.5,2.9375,365.0203],[21.4928,2.9466,363.0289],[21.4887,2.9475,364.2873],[21.4857,2.9525,362.4146],[21.4825,2.9527,362.3363],[21.4798,2.9476,362.4233],[21.4759,2.9465,370.6763],[21.4713,2.9478,364.0545],[21.4685,2.9501,362.2299],[21.4572,2.9686,390.3626],[21.451,2.9695,375.1942],[21.4493,2.9734,382.4315],[21.4429,2.9796,385.6967],[21.4392,2.9798,377.8482],[21.4343,2.9926,380.8695],[21.4347,3.0011,421.3524],[21.4184,3.0107,433.3219],[21.4101,3.0099,416.7454],[21.4083,3.011,421.3286],[21.4066,3.0191,383.1778],[21.4016,3.0218,372.1727],[21.3938,3.019,371.0755],[21.3688,3.0264,373.7098],[21.3591,3.0364,387.3123],[21.3554,3.0431,396.084],[21.3519,3.0439,381.5437],[21.3481,3.0416,378.6227],[21.337,3.0454,358.304],[21.3352,3.0473,379.2151],[21.3335,3.0569,380.7645],[21.3298,3.0587,374.0002],[21.328,3.0559,379.4532],[21.3209,3.0568,357.7682],[21.3147,3.0639,378.7656],[21.3094,3.0643,377.5038],[21.3091,3.071,373.8945],[21.3055,3.0698,382.8701],[21.3027,3.0725,377.1796],[21.2979,3.0686,357.7744],[21.2945,3.0683,357.3384],[21.2898,3.0796,376.3299],[21.2797,3.0894,377.7332],[21.2744,3.0889,372.273],[21.2739,3.0978,375.4724],[21.2644,3.1063,369.9814],[21.2541,3.1101,374.6773],[21.2501,3.1186,390.5269],[21.2467,3.119,385.8488],[21.244,3.1128,359.3414],[21.2403,3.1169,359.3501],[21.2219,3.1213,377.9161],[21.2113,3.1305,373.791],[21.2113,3.1369,372.1521],[21.208,3.1433,369.2272],[21.2052,3.1454,370.8582],[21.1972,3.1469,368.8274],[21.1913,3.1462,361.7502],[21.1857,3.1496,367.1891],[21.1815,3.162,386.1681],[21.1703,3.1632,368.335],[21.1662,3.141,368.2355],[21.1647,3.0963,420.1078],[21.1546,3.0718,431.3126],[21.1544,3.0379,491.7804],[21.1479,2.929,452.877],[21.147,2.9232,435.5334],[21.1448,2.9224,448.5702],[21.1315,2.9313,493.8212],[21.1172,2.9453,452.2602],[21.0457,3.0065,477.2053],[21.0436,3.0139,422.2371],[21.0424,3.0448,423.2238],[21.0395,3.0568,440.0449],[21.033,3.0644,426.7614],[20.9825,3.1102,500.873],[20.9796,3.1114,507.6783],[20.9745,3.1122,522.7751],[20.9665,3.1107,512.4099],[20.9472,3.0967,510.4322],[20.9431,3.0967,517.4397],[20.9309,3.102,481.1434],[20.9248,3.1112,469.2229],[20.9075,3.126,453.6042],[20.8975,3.1489,448.4742],[20.8917,3.1551,424.5742],[20.8887,3.1631,424.8276],[20.8841,3.1674,408.9325],[20.8678,3.1726,376.5074],[20.8503,3.1805,381.5137],[20.8389,3.1951,378.1017],[20.8274,3.2042,377.113],[20.8234,3.2113,385.9275],[20.8206,3.2219,408.1954],[20.8123,3.2296,365.5671],[20.812,3.2347,366.5602],[20.806,3.2434,367.091],[20.8002,3.2475,366.3397],[20.7947,3.2474,350.4331],[20.7866,3.2393,368.9246],[20.7825,3.2303,364.8114],[20.7786,3.2284,368.9584],[20.7724,3.2348,372.4391],[20.7701,3.2343,373.9818],[20.7672,3.2257,364.9306],[20.7664,3.214,370.3501],[20.7637,3.2112,364.319],[20.7504,3.2074,369.6953],[20.7437,3.1979,367.7921],[20.7334,3.1884,366.8222],[20.7322,3.1725,364.1932],[20.7248,3.1586,363.2434],[20.7235,3.1519,365.6918],[20.7281,3.1421,358.6365],[20.7252,3.1365,348.2049],[20.7241,3.1294,353.9492],[20.7189,3.1263,357.5435],[20.7284,3.1158,345.7469],[20.7269,3.1057,350.3186],[20.7131,3.0802,351.6907],[20.7199,3.0713,367.0051],[20.7208,3.0674,365.4391],[20.7183,3.0619,365.0076],[20.7151,3.0621,368.3103],[20.7079,3.0712,359.9291],[20.7043,3.0719,356.357],[20.7027,3.0686,358.6705],[20.7215,3.0361,361.8142],[20.718,3.0248,343.2708],[20.7189,3.0228,346.0536],[20.7251,3.021,363.1596],[20.7284,3.0169,362.2335],[20.7273,3.0115,351.9597],[20.7287,3.0053,360.1988],[20.7336,2.9989,363.369],[20.7327,2.9957,363.1073],[20.7286,2.9936,368.4389],[20.7185,2.9944,363.743],[20.7181,2.9889,364.0816],[20.7227,2.9814,362.165],[20.7194,2.971,362.0573],[20.724,2.9662,367.7314],[20.7243,2.9609,362.0133],[20.7187,2.9491,347.197],[20.7148,2.9449,356.9836],[20.7233,2.9438,340.0],[20.7288,2.9404,361.0679],[20.7385,2.9391,364.6879],[20.7417,2.935,360.9299],[20.7394,2.9309,367.8826],[20.7335,2.9267,361.0725],[20.7283,2.9181,364.1477],[20.7282,2.9119,348.5706],[20.7358,2.9069,350.8165],[20.7426,2.906,366.7051],[20.7457,2.8994,364.6213],[20.7437,2.892,361.0706],[20.736,2.8864,358.3218],[20.7346,2.8827,356.8224],[20.7367,2.8781,346.5219],[20.7523,2.8776,365.7935],[20.7576,2.8749,363.9792],[20.7601,2.8705,362.4605],[20.7585,2.8698,364.9507],[20.7538,2.858,351.5401],[20.7564,2.8537,351.542],[20.764,2.851,361.4971],[20.7679,2.8469,361.9281],[20.7681,2.8446,365.0751],[20.762,2.8386,359.7233],[20.7611,2.8351,357.2264],[20.7665,2.8278,359.2263],[20.7798,2.8258,345.8925],[20.7868,2.8287,362.2205],[20.7932,2.828,349.8148],[20.7974,2.8228,348.4319],[20.7964,2.8083,366.1697],[20.8004,2.7966,367.3768],[20.7966,2.7806,366.4701],[20.7976,2.7737,365.0331],[20.8025,2.7632,347.1024],[20.8022,2.7526,343.2179],[20.8047,2.7453,363.6842],[20.8133,2.7373,364.1829],[20.8204,2.733,360.6111],[20.8244,2.7277,364.3866],[20.823,2.7238,356.2559],[20.8282,2.7096,356.9027],[20.8326,2.7029,356.4034],[20.8333,2.6977,365.9878],[20.8423,2.692,355.7361],[20.8522,2.6822,361.889],[20.8585,2.6733,358.7191],[20.8725,2.6612,362.4762],[20.8816,2.6422,366.7112],[20.8923,2.6321,363.4247],[20.8962,2.6214,362.6127],[20.9027,2.612,362.4555],[20.9071,2.6099,362.2544],[20.9092,2.6067,363.7744],[20.91,2.5946,363.8599],[20.9163,2.5778,361.4547],[20.9036,2.5604,366.0466],[20.8883,2.5311,359.9007],[20.8843,2.5269,359.3989],[20.8739,2.5054,363.7949],[20.8612,2.4947,367.4675],[20.8457,2.4943,362.8801],[20.842,2.4922,360.3143],[20.8191,2.4734,354.8623],[20.8123,2.4655,337.3683],[20.8071,2.4535,359.3143],[20.8045,2.4383,354.1687],[20.8018,2.4348,362.4765],[20.7943,2.434,357.6996],[20.7839,2.4411,349.5758],[20.7785,2.4387,357.1094],[20.7766,2.4364,362.81],[20.7788,2.427,361.1129],[20.7773,2.4189,350.2538],[20.7743,2.4159,356.6196],[20.7682,2.4161,356.156],[20.7642,2.4181,350.555],[20.7483,2.4138,338.7922],[20.7441,2.4142,350.8237],[20.7397,2.4193,357.1715],[20.7372,2.4271,356.8059],[20.7391,2.4393,359.967],[20.7352,2.4439,357.5744],[20.7288,2.4431,341.6677],[20.7229,2.4401,354.6574],[20.7132,2.4413,334.5],[20.7101,2.439,354.0814],[20.7036,2.4238,360.6408],[20.6995,2.421,359.2077],[20.6903,2.4207,335.9815],[20.676,2.4127,359.676],[20.6707,2.4138,333.5],[20.6665,2.4218,353.5274],[20.671,2.4306,355.1949],[20.6707,2.4352,357.4119],[20.6686,2.4391,359.2188],[20.6657,2.4405,355.6732],[20.6593,2.4397,332.0],[20.6513,2.4357,350.304],[20.6392,2.4363,332.0],[20.6378,2.434,354.7398],[20.6402,2.4283,353.989],[20.6377,2.4259,355.2065],[20.6235,2.4276,337.2822],[20.6062,2.4176,346.4265],[20.5966,2.4151,354.3584],[20.5882,2.4107,351.7524],[20.5802,2.4104,342.6118],[20.5716,2.4207,348.2345],[20.5668,2.4209,339.9753],[20.5671,2.4174,332.0656],[20.5625,2.4105,333.3036],[20.5555,2.4045,359.0818],[20.5537,2.4049,356.6482],[20.5465,2.4143,356.7615],[20.5426,2.4163,356.2489],[20.5353,2.4165,331.0],[20.526,2.409,342.3269],[20.5208,2.3981,342.7756],[20.5165,2.3956,340.4308],[20.5112,2.3953,336.7834],[20.5075,2.3985,347.0455],[20.5056,2.404,356.2621],[20.5106,2.4162,349.0183],[20.5096,2.4192,352.9229],[20.4993,2.423,333.0767],[20.4962,2.432,355.9445],[20.4939,2.434,343.0146],[20.4896,2.4328,335.1661],[20.4796,2.4261,348.3782],[20.4704,2.4262,343.1478],[20.4459,2.4333,352.2779],[20.4348,2.421,348.1604],[20.4279,2.4214,333.9004],[20.4068,2.4304,335.225],[20.4002,2.4306,339.2672],[20.3913,2.4225,356.4224],[20.3877,2.4215,349.5449],[20.3833,2.4235,330.0],[20.3759,2.4308,349.14],[20.3647,2.4319,339.6236],[20.3434,2.4146,354.1897],[20.337,2.4139,345.3252],[20.3145,2.4203,340.279],[20.3095,2.4175,352.8698],[20.297,2.4025,359.5566],[20.2929,2.4022,352.5397],[20.2892,2.4061,352.7587],[20.2846,2.4161,351.4309],[20.2804,2.4193,342.0571],[20.2651,2.4173,331.2602],[20.2581,2.4117,352.5453],[20.2612,2.3991,351.4725],[20.2587,2.3947,352.4559],[20.256,2.3933,351.5531],[20.2498,2.3937,354.3655],[20.2392,2.4044,342.6847],[20.2327,2.4057,329.7602],[20.2212,2.3948,350.5718],[20.1973,2.3847,346.1377],[20.1939,2.3754,352.2449],[20.1883,2.3687,354.4529],[20.1705,2.3591,351.2996],[20.1626,2.3496,353.0535],[20.1585,2.3477,339.0913],[20.1423,2.3476,340.301],[20.1325,2.3424,347.5564],[20.1082,2.3424,338.1995],[20.103,2.341,328.5],[20.0978,2.3368,350.2762],[20.0962,2.3324,345.3995],[20.0978,2.3285,348.7835],[20.1091,2.3215,348.3633],[20.1103,2.3169,349.542],[20.1065,2.3076,335.7986],[20.1128,2.2987,351.0223],[20.1101,2.295,350.991],[20.1023,2.2933,350.6627],[20.0994,2.2903,350.6075],[20.0976,2.2845,349.2],[20.1015,2.2779,348.8027],[20.1011,2.2747,347.2978],[20.0968,2.2709,350.0178],[20.0854,2.2669,350.1216],[20.0825,2.2644,349.121],[20.0728,2.2491,348.9746],[20.0689,2.2483,350.0498],[20.0609,2.2526,333.1],[20.0572,2.2528,328.4304],[20.0452,2.2453,346.6675],[20.0424,2.2419,341.1243],[20.0378,2.2246,351.8833],[20.0418,2.2142,351.1953],[20.0412,2.2103,352.9655],[20.0382,2.2071,352.061],[20.0268,2.201,352.3149],[20.0227,2.1807,351.0235],[20.0193,2.1772,350.2157],[20.015,2.1767,348.4066],[20.0048,2.1851,342.4053],[19.9955,2.182,341.5939],[19.9864,2.1769,336.2101],[19.9819,2.1715,327.8082],[19.9754,2.1567,345.3937],[19.9637,2.1539,338.9782],[19.9587,2.1511,343.3319],[19.9538,2.145,340.8544],[19.9543,2.1411,336.7753],[19.9575,2.1359,326.5],[19.9628,2.1325,332.8132],[19.9638,2.127,348.6853],[19.9622,2.1228,346.9707],[19.9556,2.1193,335.4974],[19.9513,2.1137,343.4211],[19.9426,2.0931,341.4168],[19.937,2.0857,330.8317],[19.9397,2.066,327.7054],[19.942,2.06,326.1318],[19.9396,2.0563,331.5222],[19.932,2.0558,332.528],[19.9259,2.0518,332.9992],[19.9223,2.0407,332.4149],[19.9231,2.0352,329.8708],[19.9256,2.0322,329.1178],[19.9334,2.0279,327.7],[19.9317,2.0229,325.5],[19.9294,2.0201,329.7149],[19.9189,2.0179,334.4078],[19.9191,2.0253,339.3183],[19.9077,2.015,329.5864],[19.9051,2.0069,325.4977],[19.9041,1.9922,324.25],[19.9081,1.9842,329.0789],[19.9072,1.9803,323.9905],[19.8953,1.9742,328.7263],[19.8892,1.9675,321.8914],[19.8882,1.9529,323.1379],[19.8817,1.9467,325.7877],[19.8778,1.9473,337.0248],[19.8644,1.9582,337.5897],[19.8578,1.9579,328.8608],[19.8485,1.9482,317.5],[19.8385,1.9464,322.0644],[19.831,1.9383,324.892],[19.8241,1.9185,320.0386],[19.8136,1.9002,324.6397],[19.819,1.8862,314.5],[19.8207,1.8676,337.225],[19.8246,1.8501,337.977]]]]}
,"properties": {"GID_2": "COD.18.4_1","GID_0": "COD","country": "DemocraticRepublicoftheCongo","GID_1": "COD.18_1","province": "Mongala","NL_NAME_1": "NA","county": "Lisala","VARNAME_2": "NA","NL_NAME_2": "NA","TYPE_2": "Territoire","ENGTYPE_2": "Territory","CC_2": "NA","HASC_2": "NA","name": "Lisala.county","area_km2": 15992.35,"hist_schema_id": "Elevation0-9000","hist_area_km2": {"325": 921.64,"350": 4869.51,"375": 2149.54,"400": 2308.0,"425": 2218.11,"450": 1716.8,"475": 1187.85,"500": 563.67,"525": 57.21}}}