{"type":"Feature","properties":{"GID_1":"COD.9_1","GID_0":"COD","country":"DemocraticRepublicoftheCongo","province":"Kasaï","VARNAME_1":"NA","NL_NAME_1":"NA","TYPE_1":"Province","ENGTYPE_1":"Province","CC_1":"NA","HASC_1":"CD.KS","ISO_1":"NA","name":"Kasaï.province"},
"geometry":{"type": "MultiPolygon","coordinates": [[[[21.2038,-7.2788,715.7955],[21.3775,-7.2791,684.4029],[21.4026,-7.2799,715.1054],[21.4871,-7.2872,819.2627],[21.6349,-7.279,834.2267],[21.7797,-7.2747,715.9413],[21.7875,-7.2611,694.7139],[21.7869,-7.2579,693.5482],[21.7832,-7.2538,692.2252],[21.7786,-7.2522,697.294],[21.7754,-7.2453,694.0092],[21.7611,-7.2457,697.5109],[21.7572,-7.244,723.9709],[21.7501,-7.2355,703.3434],[21.7483,-7.2295,693.3018],[21.7449,-7.2254,691.1105],[21.7345,-7.2194,722.5829],[21.7203,-7.1989,694.6321],[21.7148,-7.1979,703.2491],[21.7137,-7.1963,717.7986],[21.713,-7.1931,699.8405],[21.7148,-7.1885,695.3681],[21.7133,-7.1745,688.6254],[21.7076,-7.1642,693.3752],[21.7037,-7.1529,691.6906],[21.7017,-7.1356,685.5881],[21.6998,-7.1338,682.7095],[21.6955,-7.1342,690.4964],[21.6883,-7.1377,688.0219],[21.6842,-7.1347,692.87],[21.6807,-7.1351,697.1917],[21.672,-7.1234,692.0802],[21.6635,-7.1174,690.0916],[21.6618,-7.1105,700.8578],[21.6629,-7.1058,684.3442],[21.6617,-7.0907,682.9052],[21.6583,-7.0774,685.3544],[21.6536,-7.0697,705.4844],[21.6311,-7.0566,673.761],[21.6265,-7.0515,668.3896],[21.6214,-7.0517,648.0007],[21.6152,-7.0565,668.1833],[21.61,-7.0462,655.9186],[21.6072,-7.0438,651.4318],[21.6017,-7.0422,692.3719],[21.5982,-7.0383,663.7371],[21.5895,-7.0357,670.7136],[21.5905,-7.0289,668.8191],[21.5707,-7.0138,621.856],[21.5641,-7.0051,620.9073],[21.5542,-6.9986,640.8196],[21.5508,-6.9857,640.4349],[21.5471,-6.98,613.8252],[21.5439,-6.9774,604.625],[21.5414,-6.9779,614.1405],[21.5371,-6.9719,621.7864],[21.5332,-6.9645,621.8336],[21.532,-6.9565,609.7335],[21.5211,-6.942,623.0777],[21.5199,-6.9376,605.0138],[21.5117,-6.9302,607.0833],[21.5071,-6.9201,612.2103],[21.4959,-6.9106,609.2045],[21.4876,-6.8979,594.2092],[21.4826,-6.8972,605.7479],[21.4727,-6.8914,598.2611],[21.4562,-6.8868,586.8063],[21.4502,-6.8831,582.6685],[21.444,-6.8709,579.97],[21.4381,-6.8663,581.6925],[21.4369,-6.8623,577.0],[21.431,-6.8628,585.3483],[21.4275,-6.8609,579.5142],[21.4186,-6.8517,580.2761],[21.417,-6.8494,575.5273],[21.4161,-6.839,573.2452],[21.4048,-6.8406,579.9073],[21.4018,-6.839,584.6954],[21.4005,-6.8358,575.6591],[21.403,-6.8261,564.9568],[21.4104,-6.8195,604.5081],[21.4157,-6.8184,605.3623],[21.4217,-6.8103,636.3821],[21.4256,-6.809,617.916],[21.4431,-6.8109,640.8951],[21.4491,-6.8047,621.917],[21.459,-6.8075,638.1853],[21.464,-6.8064,662.3937],[21.4675,-6.8029,663.9579],[21.4724,-6.791,661.2233],[21.4802,-6.7867,675.261],[21.4853,-6.7807,670.6025],[21.5222,-6.7634,719.3954],[21.5399,-6.7591,711.5014],[21.5463,-6.7596,705.9896],[21.5516,-6.7543,732.9162],[21.5608,-6.753,718.1776],[21.5744,-6.7581,712.6129],[21.5819,-6.765,724.7066],[21.5989,-6.7584,724.5705],[21.6032,-6.7535,723.6611],[21.6055,-6.7465,752.1779],[21.6041,-6.7383,736.0316],[21.5993,-6.7323,699.4752],[21.5879,-6.7243,675.3331],[21.5821,-6.7168,718.5046],[21.5831,-6.7126,707.9758],[21.5877,-6.7108,698.5217],[21.5928,-6.7112,750.9736],[21.6178,-6.7284,689.8965],[21.62,-6.7264,684.5231],[21.6217,-6.7168,686.5721],[21.6205,-6.71,717.9515],[21.6141,-6.7,693.3508],[21.611,-6.69,671.6678],[21.6108,-6.684,673.7474],[21.6126,-6.6801,665.1852],[21.6168,-6.6781,682.4557],[21.6274,-6.679,703.2117],[21.6458,-6.6757,684.5683],[21.6684,-6.6631,775.3207],[21.7042,-6.6654,700.5727],[21.7109,-6.6611,684.6867],[21.7125,-6.6577,699.3632],[21.7074,-6.6552,683.7838],[21.7045,-6.6497,688.3464],[21.7008,-6.6483,682.1392],[21.6916,-6.6333,687.7063],[21.6797,-6.63,686.9484],[21.6724,-6.6236,687.1104],[21.6531,-6.6164,678.4838],[21.6457,-6.6094,658.1427],[21.6425,-6.6016,665.4604],[21.6393,-6.5988,663.1277],[21.6347,-6.5981,649.6555],[21.6279,-6.5891,657.7953],[21.6242,-6.5742,646.002],[21.6201,-6.5675,650.7015],[21.6132,-6.5615,659.8483],[21.6137,-6.5571,627.6008],[21.61,-6.5544,609.8161],[21.611,-6.5502,609.1807],[21.6083,-6.5394,606.9543],[21.6039,-6.5427,627.7556],[21.6032,-6.5465,638.5649],[21.599,-6.5509,638.1482],[21.5851,-6.5615,639.7814],[21.5718,-6.5756,678.7443],[21.5557,-6.5795,714.5403],[21.5485,-6.5766,700.0927],[21.5479,-6.5708,670.7499],[21.5519,-6.5652,670.0471],[21.5529,-6.5586,650.5198],[21.5525,-6.5488,650.1089],[21.5553,-6.5435,654.3757],[21.5672,-6.5324,633.5613],[21.5687,-6.5267,675.7208],[21.5669,-6.518,679.0168],[21.5456,-6.5105,718.2894],[21.5411,-6.5044,716.4297],[21.5399,-6.4858,693.8651],[21.5434,-6.4803,706.3357],[21.5531,-6.4764,699.9276],[21.5617,-6.4751,673.7567],[21.5833,-6.476,691.4476],[21.6055,-6.4723,600.3633],[21.5996,-6.461,613.3117],[21.601,-6.4557,601.6874],[21.5998,-6.4497,606.9278],[21.6035,-6.4436,597.9125],[21.6033,-6.4367,597.6256],[21.6075,-6.4259,592.7671],[21.6064,-6.4213,593.1544],[21.6115,-6.4139,595.1431],[21.6108,-6.4098,602.1732],[21.6135,-6.4059,600.9221],[21.6117,-6.3946,608.4757],[21.6161,-6.391,591.6595],[21.615,-6.3889,600.3062],[21.6194,-6.3735,626.1097],[21.6211,-6.3567,607.5845],[21.6172,-6.3434,593.3915],[21.6184,-6.3395,594.449],[21.6166,-6.3248,599.9683],[21.6141,-6.3215,596.2823],[21.6129,-6.3139,589.1047],[21.6079,-6.31,595.7218],[21.6088,-6.3068,584.726],[21.6031,-6.3003,612.3138],[21.6036,-6.2898,614.4612],[21.5993,-6.2842,610.0443],[21.5993,-6.2799,615.1417],[21.6034,-6.27,613.4745],[21.6014,-6.2658,577.912],[21.5952,-6.2621,579.3735],[21.5961,-6.2571,614.078],[21.5941,-6.2541,596.1177],[21.5895,-6.252,598.3507],[21.5884,-6.2474,586.0404],[21.5926,-6.2249,592.4293],[21.597,-6.2141,582.135],[21.5943,-6.204,604.3809],[21.5899,-6.2,565.0251],[21.589,-6.1966,616.9271],[21.5915,-6.1918,641.0428],[21.5957,-6.1897,591.0351],[21.5966,-6.1867,583.2557],[21.5904,-6.1771,579.7676],[21.5883,-6.1389,586.4294],[21.5828,-6.1143,557.7855],[21.5787,-6.1055,594.1],[21.5866,-6.0885,544.5201],[21.5848,-6.086,557.5809],[21.58,-6.0862,593.2747],[21.579,-6.0843,586.316],[21.5843,-6.0786,553.3247],[21.5821,-6.0738,572.1516],[21.5832,-6.0678,571.3545],[21.5776,-6.0489,584.6235],[21.5787,-6.043,556.2807],[21.5732,-6.0333,543.4456],[21.5814,-6.0004,543.8155],[21.5826,-5.9777,550.5734],[21.5865,-5.9745,577.6768],[21.59,-5.965,544.0602],[21.5965,-5.9589,580.2498],[21.6016,-5.9467,574.3706],[21.6115,-5.941,545.9343],[21.6138,-5.9339,538.6156],[21.6172,-5.9339,568.0687],[21.6214,-5.9378,521.3643],[21.629,-5.9362,561.6622],[21.632,-5.9337,581.6583],[21.6375,-5.9234,572.5964],[21.6483,-5.9156,558.5045],[21.6578,-5.9,556.6368],[21.6638,-5.8947,587.3793],[21.665,-5.8763,605.6719],[21.6668,-5.8731,614.8334],[21.6755,-5.8672,618.8624],[21.6795,-5.8608,630.6349],[21.6903,-5.8215,602.7906],[21.6976,-5.8036,651.4633],[21.7139,-5.7963,594.7673],[21.7188,-5.7891,580.2417],[21.7434,-5.7699,587.0539],[21.7504,-5.7697,550.8549],[21.751,-5.7771,573.5237],[21.7549,-5.7796,574.1033],[21.7517,-5.7916,605.6148],[21.7562,-5.8029,556.9692],[21.7638,-5.8091,558.4447],[21.7732,-5.8133,589.2892],[21.7792,-5.814,603.1754],[21.7812,-5.8161,581.2848],[21.7835,-5.8239,631.1191],[21.7869,-5.8264,605.5826],[21.7903,-5.8363,652.296],[21.8126,-5.8507,598.111],[21.8222,-5.8636,630.0895],[21.841,-5.8644,708.311],[21.8704,-5.8613,661.7405],[21.8782,-5.8589,622.6475],[21.8769,-5.853,643.3875],[21.8783,-5.8431,630.2974],[21.8751,-5.8293,641.5948],[21.8784,-5.8148,658.6303],[21.8809,-5.8134,657.6074],[21.8858,-5.8045,650.77],[21.8959,-5.7928,627.1707],[21.9074,-5.7756,611.4043],[21.9233,-5.7607,625.5907],[21.9365,-5.7517,607.3489],[21.9422,-5.7442,632.8684],[21.9522,-5.7194,626.5308],[21.9603,-5.6936,595.0018],[21.962,-5.6778,614.4862],[21.9675,-5.6569,611.5398],[21.9754,-5.638,589.9526],[21.9773,-5.6284,581.6059],[21.9743,-5.6042,533.0076],[21.9705,-5.5955,592.7271],[21.9611,-5.5883,567.0142],[21.9545,-5.5766,567.4869],[21.951,-5.5738,589.0618],[21.9441,-5.5717,521.4498],[21.9403,-5.565,525.4457],[21.9396,-5.5521,543.8677],[21.9323,-5.5381,531.6599],[21.9257,-5.5206,527.3829],[21.9168,-5.515,505.0103],[21.9044,-5.498,537.2126],[21.8932,-5.4917,485.2635],[21.8786,-5.4777,470.7159],[21.8742,-5.4712,448.7755],[21.8703,-5.4583,468.9727],[21.8616,-5.4444,423.9381],[21.8603,-5.4394,419.6444],[21.8525,-5.4329,419.1953],[21.8461,-5.4198,399.5073],[21.8468,-5.4152,485.187],[21.8296,-5.4199,510.2134],[21.822,-5.4261,488.0207],[21.8199,-5.4313,427.4805],[21.8244,-5.4395,400.6567],[21.8242,-5.4489,429.5307],[21.8207,-5.4519,423.4389],[21.8047,-5.4518,465.04],[21.7987,-5.4633,485.5948],[21.7941,-5.4654,440.9799],[21.7799,-5.4658,454.5101],[21.7666,-5.4682,408.8905],[21.7608,-5.4648,405.1761],[21.7587,-5.4581,442.5621],[21.759,-5.4473,398.8646],[21.7544,-5.442,402.6138],[21.748,-5.439,441.6668],[21.7319,-5.4375,399.5322],[21.7262,-5.4322,406.8792],[21.7152,-5.4324,399.942],[21.712,-5.4308,400.7376],[21.7049,-5.4204,440.7471],[21.6932,-5.4171,420.6966],[21.6903,-5.4146,429.5623],[21.6864,-5.3957,518.0342],[21.6829,-5.3953,502.153],[21.676,-5.3982,453.8468],[21.667,-5.3977,400.968],[21.6588,-5.3928,396.8318],[21.654,-5.386,489.0897],[21.6536,-5.3797,440.6531],[21.6564,-5.3719,495.881],[21.667,-5.3579,425.6565],[21.6636,-5.3407,424.7597],[21.6641,-5.3303,415.1476],[21.6593,-5.3248,401.0501],[21.653199999999998,-5.3239,416.1437],[21.6483,-5.3275,406.8477],[21.6416,-5.3256,394.5],[21.6285,-5.3173,419.3698],[21.6242,-5.3161,451.9768],[21.6244,-5.3108,485.4357],[21.6348,-5.3038,435.6039],[21.638,-5.2957,479.4248],[21.6393,-5.2697,412.1515],[21.6356,-5.2561,437.3846],[21.6376,-5.2327,441.7651],[21.6565,-5.2114,446.8182],[21.6625,-5.1934,418.2678],[21.662,-5.1891,432.7722],[21.6755,-5.1519,427.5035],[21.6898,-5.1296,427.4401],[21.6921,-5.1183,429.2567],[21.6931,-5.0967,433.5842],[21.6875,-5.0688,439.611],[21.6898,-5.0548,449.9103],[21.7026,-5.054,512.8369],[21.7079,-5.0554,511.0104],[21.753,-5.07,559.8665],[21.7585,-5.0744,536.7769],[21.7797,-5.0819,540.0741],[21.7879,-5.084,539.3188],[21.802,-5.0835,506.0568],[21.8093,-5.0716,491.1619],[21.8082,-5.0624,480.9681],[21.811,-5.0562,479.8559],[21.8117,-5.0435,493.9709],[21.8147,-5.0378,548.3817],[21.82,-5.0341,541.3615],[21.8239,-5.0256,547.5254],[21.8389,-5.0243,552.7582],[21.8478,-5.016,583.6099],[21.8518,-5.0153,594.5875],[21.8609,-5.0181,601.2707],[21.8798,-5.0177,593.7347],[21.8851,-5.0223,571.163],[21.8854,-5.0297,492.8313],[21.8825,-5.0344,494.2657],[21.8717,-5.0385,543.0255],[21.8682,-5.0424,550.088],[21.8685,-5.048,538.6174],[21.8726,-5.0526,557.7075],[21.9085,-5.0698,518.5978],[21.9318,-5.0786,586.0445],[21.9396,-5.0809,584.8251],[21.9677,-5.0792,498.9234],[21.9867,-5.0743,502.462],[21.9996,-5.0676,469.2213],[22.0042,-5.0669,469.8329],[22.02,-5.07,516.3295],[22.028199999999998,-5.0873,502.6562],[22.033,-5.1062,463.8208],[22.0347,-5.1382,462.4554],[22.0368,-5.135,454.3315],[22.0467,-5.1279,454.2133],[22.0731,-5.1148,476.3888],[22.0916,-5.0903,491.9622],[22.0988,-5.0673,482.3976],[22.1027,-5.0425,491.1047],[22.1057,-5.0351,535.8341],[22.1152,-5.0257,527.1365],[22.1182,-5.0202,506.4934],[22.1177,-5.0098,496.2113],[22.1141,-5.0022,502.6757],[22.1245,-4.9896,573.9493],[22.1273,-4.9786,596.246],[22.1179,-4.971,575.0833],[22.1037,-4.9635,601.6904],[22.1006,-4.9454,589.2482],[22.1052,-4.9186,558.8802],[22.1022,-4.9129,580.0612],[22.0969,-4.908,590.1819],[22.0849,-4.9015,575.7906],[22.0793,-4.8832,573.1179],[22.0855,-4.8742,540.2397],[22.0894,-4.8733,501.225],[22.097,-4.8637,530.6607],[22.1111,-4.8513,510.0169],[22.1161,-4.8414,508.3451],[22.1214,-4.8375,476.4124],[22.1265,-4.8359,509.2997],[22.1352,-4.8298,517.6854],[22.143,-4.8286,490.9575],[22.1501,-4.8312,463.9536],[22.1552,-4.8273,490.5918],[22.1717,-4.8227,486.7836],[22.1772,-4.8186,500.2678],[22.1832,-4.8074,446.5236],[22.1917,-4.8023,496.1007],[22.2014,-4.7906,471.9521],[22.2062,-4.787,490.0204],[22.2233,-4.7825,425.2249],[22.223,-4.7698,422.1948],[22.2283,-4.7645,433.2855],[22.2249,-4.7601,435.2506],[22.2265,-4.7564,427.1612],[22.2256,-4.7507,430.064],[22.218,-4.7504,487.4749],[22.2126,-4.7354,431.9275],[22.2098,-4.7331,487.4799],[22.2039,-4.732,472.7722],[22.2019,-4.7218,433.3141],[22.2043,-4.7186,449.4721],[22.2178,-4.7183,491.6636],[22.2303,-4.712,450.3622],[22.237,-4.7109,506.5361],[22.2481,-4.7031,460.3697],[22.2503,-4.6991,467.3075],[22.2534,-4.684,511.6671],[22.2541,-4.6721,558.8093],[22.2563,-4.6684,513.5425],[22.2701,-4.661,466.7713],[22.2789,-4.6488,492.0472],[22.2831,-4.6311,466.5179],[22.286,-4.6264,505.3973],[22.2991,-4.6308,444.5255],[22.3044,-4.6356,518.5391],[22.3188,-4.6341,513.696],[22.3225,-4.6348,505.2606],[22.3287,-4.6392,512.2457],[22.339,-4.6353,504.0305],[22.344,-4.6378,505.6095],[22.3505,-4.6339,485.8464],[22.3555,-4.6337,490.5211],[22.3601,-4.6379,499.3542],[22.3629,-4.6374,439.1629],[22.3651,-4.6423,490.5401],[22.3697,-4.6434,432.3324],[22.3851,-4.6402,493.5153],[22.3885,-4.638,499.4096],[22.3952,-4.6255,469.0078],[22.3982,-4.6233,442.7245],[22.4118,-4.6212,502.5802],[22.4138,-4.6196,496.2768],[22.4244,-4.6213,541.8378],[22.4246,-4.6169,509.5026],[22.4306,-4.6003,511.3611],[22.4421,-4.5769,502.5769],[22.4408,-4.5698,478.7541],[22.4461,-4.5631,516.2891],[22.4468,-4.5528,530.5593],[22.4507,-4.544,553.0122],[22.453,-4.5286,554.0917],[22.4567,-4.5254,555.8684],[22.4613,-4.5082,554.9628],[22.4699,-4.5001,565.7252],[22.4779,-4.496,577.6076],[22.4875,-4.4956,540.7663],[22.5117,-4.4722,605.0402],[22.5287,-4.4437,568.437],[22.5262,-4.4271,562.2127],[22.5299,-4.4103,509.0391],[22.5277,-4.3825,539.7914],[22.5358,-4.3521,510.4553],[22.5278,-4.3351,519.078],[22.5336,-4.3206,473.9949],[22.5348,-4.3052,507.0937],[22.5297,-4.2925,482.1595],[22.5318,-4.2806,486.6557],[22.5284,-4.2737,489.9803],[22.5303,-4.2684,442.6229],[22.5284,-4.2631,460.234],[22.528199999999998,-4.2486,437.8001],[22.5264,-4.2391,477.3464],[22.5212,-4.2258,456.8484],[22.5249,-4.1989,441.3492],[22.5135,-4.1882,478.7783],[22.5036,-4.1868,457.4669],[22.4919,-4.1801,512.8497],[22.4789,-4.1702,478.9108],[22.4718,-4.1614,443.3871],[22.4675,-4.1589,501.4578],[22.4477,-4.1616,461.9192],[22.4416,-4.1588,476.6269],[22.4262,-4.1477,473.4491],[22.4106,-4.1468,455.4249],[22.4033,-4.1442,465.2566],[22.3985,-4.1391,451.2982],[22.3878,-4.1214,407.8475],[22.3818,-4.1175,425.5083],[22.3727,-4.1057,478.8178],[22.3644,-4.0999,412.9706],[22.3397,-4.0906,476.6568],[22.3299,-4.0805,487.0524],[22.3226,-4.0584,515.2594],[22.3162,-4.0503,437.4396],[22.3123,-4.036,491.8444],[22.3048,-4.0222,493.6335],[22.2925,-4.0095,476.5171],[22.2726,-3.998,391.6142],[22.2471,-3.9965,381.0],[22.2389,-3.9992,384.2015],[22.2226,-4.0118,399.5036],[22.2097,-4.0159,390.3847],[22.2017,-4.023,384.3193],[22.1939,-4.0249,382.3063],[22.187,-4.029,380.5],[22.1783,-4.0308,380.0],[22.1672,-4.0393,386.5547],[22.1629,-4.0402,380.0],[22.1565,-4.0392,384.545],[22.14,-4.0321,386.7066],[22.1354,-4.0286,383.7943],[22.121,-4.0262,383.5025],[22.1175,-4.0244,383.6424],[22.1116,-4.0175,389.4638],[22.0991,-3.9921,386.9802],[22.0922,-3.9875,383.4581],[22.0814,-3.9833,378.7178],[22.0578,-3.9793,377.5],[22.0485,-3.9735,377.5],[22.0297,-3.9707,377.0],[22.0208,-3.9675,392.847],[22.0047,-3.9683,381.6911],[21.9946,-3.9612,386.8968],[21.9889,-3.9618,376.5],[21.9682,-3.9751,393.1449],[21.9683,-3.9694,378.8823],[21.9761,-3.9519,410.8158],[21.9876,-3.9395,452.0024],[21.9955,-3.9195,453.9813],[22.009,-3.9097,438.8598],[22.0122,-3.9025,460.6199],[22.0201,-3.8924,488.9844],[22.0292,-3.8885,529.7711],[22.0375,-3.8889,486.2931],[22.0581,-3.884,486.5756],[22.0683,-3.8779,537.9565],[22.1529,-3.8094,580.8408],[22.1562,-3.8039,630.7001],[22.1561,-3.7964,623.984],[22.1321,-3.7787,578.7878],[22.1329,-3.7717,602.9207],[22.1422,-3.7616,570.0966],[22.1375,-3.7431,596.3721],[22.1388,-3.7311,601.2241],[22.1331,-3.7101,524.1732],[22.1348,-3.6853,478.7485],[22.1401,-3.6545,447.7284],[22.1377,-3.6144,431.0655],[22.1366,-3.605,405.4293],[22.1287,-3.578,426.5366],[22.1225,-3.5703,425.6101],[22.1182,-3.5715,419.6174],[22.1144,-3.5748,442.0329],[22.1076,-3.5727,461.0774],[22.0863,-3.5823,398.0402],[22.062,-3.584,421.8275],[22.0595,-3.5808,435.0805],[22.0416,-3.5692,448.9108],[22.0288,-3.5759,486.76],[22.0146,-3.5724,456.3174],[22.0043,-3.5779,442.8132],[21.9965,-3.5769,441.8996],[21.9891,-3.5801,412.6543],[21.9733,-3.5918,487.6603],[21.971,-3.6019,412.0073],[21.9586,-3.6015,475.4303],[21.9573,-3.592,475.5116],[21.9447,-3.5847,466.972],[21.9396,-3.5746,495.3972],[21.9383,-3.5686,491.3075],[21.9415,-3.5537,468.0489],[21.9417,-3.5419,428.5143],[21.9383,-3.5222,469.2304],[21.9294,-3.5042,473.9292],[21.9303,-3.4886,469.6238],[21.9412,-3.4417,420.6327],[21.9699,-3.4247,431.8171],[21.9772,-3.4178,436.0402],[21.9894,-3.4011,441.5631],[21.9957,-3.3806,452.1251],[21.9963,-3.3021,556.9186],[21.9982,-3.2961,535.2463],[22.0064,-3.2884,524.3895],[22.0354,-3.2704,508.5913],[22.0558,-3.2531,502.9382],[22.0866,-3.2225,452.7295],[22.0957,-3.2094,457.959],[22.1082,-3.1736,479.4984],[22.114,-3.1218,490.1513],[22.1147,-3.1088,483.482],[22.112,-3.1008,489.6432],[22.1013,-3.0829,500.0272],[22.1083,-3.0638,549.145],[22.128,-3.0429,584.8536],[22.1492,-3.024,523.4325],[22.1599,-3.0168,550.0648],[22.1642,-3.0118,569.2939],[22.1699,-3.0011,499.3367],[22.1812,-2.9568,540.5641],[22.1885,-2.9507,546.8562],[22.2148,-2.9378,523.7664],[22.2213,-2.9288,500.166],[22.2154,-2.9249,525.9359],[22.2065,-2.929,501.7654],[22.1818,-2.9312,542.5682],[22.1669,-2.9226,545.3341],[22.1516,-2.9042,507.4745],[22.1429,-2.8966,569.6841],[22.1341,-2.877,564.3721],[22.1238,-2.8625,459.015],[22.1092,-2.83,469.5953],[22.1026,-2.8189,453.2868],[22.0853,-2.8044,457.8151],[22.0823,-2.7984,446.1665],[22.0787,-2.7786,445.1103],[22.0559,-2.7539,434.092],[22.0502,-2.7509,426.8186],[22.0329,-2.7297,423.5524],[22.0217,-2.7066,474.5639],[22.0135,-2.6852,512.4185],[22.0147,-2.6744,469.6257],[21.9944,-2.6513,439.2519],[21.9743,-2.6418,463.1733],[21.9485,-2.6125,508.9583],[21.9367,-2.606,479.9814],[21.9257,-2.5966,466.7156],[21.9191,-2.5859,513.8759],[21.9035,-2.5841,495.7634],[21.8988,-2.582,482.1953],[21.8933,-2.5769,467.6934],[21.8709,-2.5706,464.0543],[21.8512,-2.5586,423.4185],[21.8451,-2.5454,509.3981],[21.831,-2.5304,440.8152],[21.8129,-2.5248,439.7024],[21.7761,-2.5063,520.4095],[21.7688,-2.498,528.7978],[21.7554,-2.4913,481.3529],[21.7314,-2.4834,489.8591],[21.6964,-2.4756,448.3862],[21.6811,-2.4689,476.8745],[21.6731,-2.4629,475.7803],[21.6644,-2.4514,479.2638],[21.653,-2.4426,487.5612],[21.6464,-2.4313,519.5306],[21.6341,-2.4312,466.7354],[21.608,-2.4213,461.37],[21.5952,-2.4194,447.0369],[21.5729,-2.4016,551.2363],[21.5665,-2.3834,466.8531],[21.5615,-2.3788,436.8789],[21.5558,-2.376,445.7212],[21.5368,-2.3738,443.7193],[21.5142,-2.3576,474.4353],[21.4955,-2.35,434.7966],[21.4857,-2.3476,464.3046],[21.4658,-2.3384,405.7723],[21.4553,-2.3293,410.0852],[21.4345,-2.3205,438.6047],[21.4165,-2.3163,463.4724],[21.4101,-2.3096,462.686],[21.4078,-2.3402,469.7198],[21.4127,-2.4459,416.7005],[21.4433,-2.4977,416.0336],[21.4277,-2.4889,423.1526],[21.4207,-2.4819,434.1208],[21.3914,-2.4731,436.6098],[21.371,-2.4776,443.8676],[21.3538,-2.4844,385.8581],[21.3227,-2.4801,400.2003],[21.312,-2.4812,393.4252],[21.3038,-2.4842,381.2537],[21.2746,-2.5041,403.5406],[21.2666,-2.5061,397.8082],[21.251,-2.5054,387.4995],[21.2446,-2.5028,397.8005],[21.2023,-2.5128,457.4041],[21.1748,-2.5142,495.3086],[21.1515,-2.5072,425.8812],[21.1383,-2.4978,440.0916],[21.1326,-2.4961,437.3248],[21.122,-2.4965,419.94],[21.0941,-2.5056,425.0161],[21.0845,-2.5046,417.7444],[21.068,-2.4942,424.2471],[21.0543,-2.4937,424.8242],[21.0387,-2.4985,441.5532],[21.0163,-2.4944,429.7685],[20.9621,-2.4898,420.1686],[20.9574,-2.515,466.7469],[20.9574,-2.5344,521.135],[20.9499,-2.5581,443.4919],[20.9232,-2.6065,451.4002],[20.8933,-2.6466,452.9275],[20.8746,-2.6771,404.0578],[20.8645,-2.7023,432.2341],[20.8654,-2.7486,451.0603],[20.8282,-2.7776,393.463],[20.817,-2.7897,431.0797],[20.8068,-2.8039,398.574],[20.8004,-2.8218,419.5064],[20.7758,-2.8729,394.6783],[20.7539,-2.9244,424.8692],[20.7266,-2.998,442.0692],[20.6902,-3.1069,453.0706],[20.6842,-3.1366,465.3437],[20.6757,-3.1439,405.1162],[20.672,-3.1508,402.0609],[20.6673,-3.1691,405.8774],[20.6654,-3.1848,452.8196],[20.6582,-3.2094,398.7072],[20.6558,-3.2261,423.4143],[20.6569,-3.2324,402.2413],[20.6585,-3.2331,411.7859],[20.6578,-3.236,410.9632],[20.6388,-3.2937,359.2553],[20.6275,-3.3164,397.1984],[20.6253,-3.3269,386.9284],[20.6288,-3.4083,346.3146],[20.6256,-3.4262,347.5429],[20.631,-3.487,375.7648],[20.6306,-3.5613,421.9574],[20.6408,-3.7267,527.4325],[20.6442,-3.85,519.1017],[20.6467,-3.8915,418.3439],[20.6435,-3.9711,414.7156],[20.6534,-3.9995,425.9012],[20.6617,-4.0583,482.2697],[20.6602,-4.0796,443.481],[20.6621,-4.1034,402.8542],[20.6599,-4.1307,366.3864],[20.6564,-4.1478,364.029],[20.6486,-4.1589,357.865],[20.6373,-4.1644,364.6829],[20.6357,-4.1685,364.1559],[20.6356,-4.183,359.9896],[20.6275,-4.1938,358.3649],[20.6271,-4.1979,358.4041],[20.6311,-4.2028,356.1157],[20.6307,-4.2074,355.394],[20.6139,-4.2133,358.8135],[20.6061,-4.2213,355.8197],[20.5932,-4.2221,351.5],[20.5886,-4.226,351.5],[20.5356,-4.2456,350.5],[20.5064,-4.262,350.0],[20.4849,-4.2656,349.5],[20.4798,-4.271,359.3972],[20.4746,-4.2907,357.8976],[20.4692,-4.2946,363.4985],[20.4601,-4.2955,367.6323],[20.4466,-4.2892,352.2433],[20.427,-4.2891,350.6704],[20.4157,-4.2843,348.0],[20.4081,-4.2925,348.0],[20.4018,-4.2943,351.6009],[20.3988,-4.297,347.5],[20.3874,-4.2975,347.5],[20.3828,-4.2998,351.4593],[20.377,-4.3108,350.963],[20.3717,-4.3312,422.9515],[20.3652,-4.3413,423.2572],[20.3629,-4.3482,429.922],[20.3726,-4.3671,452.9413],[20.371,-4.3715,469.1274],[20.3597,-4.3848,462.7658],[20.3627,-4.3908,472.1772],[20.3615,-4.3935,468.8883],[20.3525,-4.3988,469.5805],[20.3399,-4.3982,435.2267],[20.3271,-4.3938,358.6352],[20.3134,-4.3852,345.5],[20.3081,-4.3836,376.584],[20.3022,-4.3844,411.3752],[20.2952,-4.3897,424.7726],[20.2817,-4.3906,363.1281],[20.2661,-4.399,394.1697],[20.2601,-4.3973,401.3948],[20.2542,-4.3869,344.5],[20.2503,-4.3849,344.5],[20.2341,-4.382,419.2734],[20.2307,-4.3689,344.5],[20.2342,-4.3613,353.7687],[20.2313,-4.3488,391.3793],[20.2164,-4.3387,344.0],[20.2006,-4.3349,343.5],[20.185,-4.3428,343.5],[20.1797,-4.3414,343.5],[20.1735,-4.3423,343.0],[20.1698,-4.3405,343.0],[20.1662,-4.3363,343.0],[20.1644,-4.3213,343.0],[20.1603,-4.3167,343.7073],[20.1553,-4.3139,342.5],[20.1455,-4.312,342.5],[20.1409,-4.3088,351.254],[20.1377,-4.3005,347.5842],[20.1261,-4.2925,349.0138],[20.1089,-4.2932,342.0],[20.1013,-4.292,342.3502],[20.0922,-4.2873,341.5],[20.0716,-4.291,341.5],[20.055,-4.2901,341.0],[20.038,-4.2859,341.0],[20.033,-4.2927,345.8872],[20.0336,-4.3056,359.4699],[20.0377,-4.3098,387.0356],[20.0434,-4.3114,390.9737],[20.045,-4.3149,392.6146],[20.0406,-4.3317,366.7422],[20.0435,-4.342,391.7535],[20.0437,-4.3529,372.147],[20.0473,-4.3602,408.5467],[20.0518,-4.3649,430.3988],[20.0619,-4.3698,420.0394],[20.0649,-4.3741,397.0837],[20.0669,-4.3813,443.1692],[20.0719,-4.3873,428.8152],[20.0748,-4.4021,371.3701],[20.0871,-4.4189,431.6394],[20.0932,-4.4344,371.4216],[20.0881,-4.4435,374.7022],[20.0922,-4.4558,418.01],[20.0901,-4.4654,365.0272],[20.0923,-4.471,372.2327],[20.0992,-4.476,447.9935],[20.1093,-4.4766,390.1265],[20.1145,-4.4849,372.3597],[20.1239,-4.4937,478.7996],[20.1248,-4.5001,402.0546],[20.1192,-4.5056,368.8234],[20.113,-4.5086,425.0974],[20.1111,-4.5203,373.0373],[20.1024,-4.5283,374.866],[20.0954,-4.5409,364.7854],[20.0855,-4.5415,368.8543],[20.0848,-4.5581,368.0017],[20.0813,-4.5648,360.7115],[20.0735,-4.5712,369.7775],[20.0693,-4.584,357.5],[20.0621,-4.595,367.5379],[20.0639,-4.6017,368.3113],[20.0565,-4.6182,362.0251],[20.0667,-4.6307,376.8079],[20.069,-4.6369,367.7786],[20.062,-4.6456,361.0],[20.0609,-4.6502,361.25],[20.0649,-4.662,378.3701],[20.0709,-4.6685,424.07],[20.0692,-4.6797,380.3952],[20.0667,-4.6825,366.5186],[20.0568,-4.6838,381.823],[20.0545,-4.6866,368.9077],[20.0551,-4.6909,378.9193],[20.0519,-4.7008,364.0],[20.0589,-4.7149,370.5553],[20.06,-4.7213,367.8213],[20.0566,-4.7291,372.6207],[20.0496,-4.7371,385.1514],[20.0508,-4.7404,380.7518],[20.0606,-4.7485,445.4058],[20.058,-4.7563,372.2276],[20.0558,-4.7823,389.885],[20.0691,-4.7888,411.8358],[20.0784,-4.8116,386.822],[20.0859,-4.822,404.3388],[20.0847,-4.8285,371.5],[20.0913,-4.8462,408.5134],[20.0912,-4.8522,390.949],[20.1026,-4.8711,401.1495],[20.1012,-4.8831,397.843],[20.1021,-4.8898,384.5303],[20.1079,-4.904,432.6832],[20.1101,-4.9314,383.5225],[20.1152,-4.9591,394.0905],[20.1191,-4.9655,411.9771],[20.1296,-4.9723,475.0761],[20.1314,-4.9785,379.0],[20.1432,-4.9995,437.362],[20.1441,-5.0062,380.375],[20.1399,-5.0181,381.0],[20.1398,-5.0354,382.0],[20.1465,-5.0434,382.5],[20.151,-5.0529,383.0],[20.164,-5.0578,384.0],[20.1686,-5.062,391.2467],[20.1702,-5.068,385.0],[20.1683,-5.0808,385.5],[20.1697,-5.0843,386.0],[20.1793,-5.0887,399.6229],[20.1822,-5.0931,405.2626],[20.1827,-5.0973,404.2943],[20.1785,-5.1115,388.5],[20.1796,-5.1216,393.2879],[20.1862,-5.129,393.2797],[20.1943,-5.1558,390.75],[20.1875,-5.1746,430.2726],[20.1884,-5.1771,461.4553],[20.1994,-5.1859,443.4093],[20.2003,-5.1887,455.0358],[20.1994,-5.1908,423.8875],[20.1899,-5.1939,463.0039],[20.1982,-5.2059,422.6873],[20.1965,-5.213,405.703],[20.1988,-5.219,393.5],[20.199,-5.2266,394.0],[20.1946,-5.2314,394.0],[20.1872,-5.2344,499.5511],[20.1863,-5.239,438.6466],[20.1906,-5.2448,423.002],[20.1926,-5.2533,395.0],[20.2015,-5.263,426.668],[20.2038,-5.2706,399.4814],[20.1999,-5.2782,396.0],[20.1835,-5.2891,464.8996],[20.1764,-5.2879,499.8381],[20.1729,-5.2904,402.6806],[20.1711,-5.2985,397.375],[20.1811,-5.3137,473.8916],[20.1753,-5.3215,402.2027],[20.1776,-5.3257,452.599],[20.184,-5.331,485.2864],[20.1812,-5.3312,466.6779],[20.1748,-5.3263,421.0342],[20.1672,-5.3279,399.5],[20.1573,-5.3336,400.5],[20.149,-5.3464,487.5166],[20.155,-5.3467,518.6582],[20.1575,-5.3502,486.5742],[20.1462,-5.3503,448.4758],[20.1446,-5.3531,407.9127],[20.15,-5.375,539.7036],[20.1497,-5.3791,530.3007],[20.1573,-5.3844,538.9728],[20.1481,-5.3837,486.4786],[20.1453,-5.386,475.1988],[20.1416,-5.394,471.2745],[20.1427,-5.4011,523.3912],[20.1402,-5.4131,513.0852],[20.1426,-5.4198,494.8729],[20.1452,-5.4219,490.1756],[20.1507,-5.4221,451.6661],[20.1655,-5.4127,519.1383],[20.1686,-5.4132,519.4012],[20.1673,-5.4157,510.1168],[20.162,-5.4179,502.3135],[20.1544,-5.4246,468.5378],[20.1472,-5.426,466.8572],[20.146,-5.4281,430.5512],[20.1492,-5.4458,529.1935],[20.1468,-5.463,514.5049],[20.1513,-5.4773,532.7607],[20.1553,-5.4825,553.8191],[20.1644,-5.4813,532.7753],[20.1662,-5.4827,529.68],[20.1738,-5.4821,550.2106],[20.1786,-5.4837,526.0945],[20.1765,-5.4858,527.6138],[20.1641,-5.4864,488.4777],[20.1517,-5.4845,540.0681],[20.1503,-5.487,515.5129],[20.1528,-5.4921,466.1025],[20.153199999999998,-5.5008,491.5542],[20.1564,-5.5068,539.2484],[20.1504,-5.5102,508.3427],[20.1474,-5.5148,464.0273],[20.1448,-5.5327,488.232],[20.1453,-5.5348,478.41609999999997],[20.1485,-5.5344,469.3399],[20.1536,-5.5305,514.2423],[20.1558,-5.5314,517.9307],[20.1558,-5.5369,503.0017],[20.1509,-5.5479,458.9344],[20.1566,-5.5528,509.2577],[20.1545,-5.5618,542.8279],[20.1554,-5.5643,548.5405],[20.1531,-5.5691,526.261],[20.1545,-5.5756,517.1636],[20.1634,-5.5807,535.1195],[20.1728,-5.5904,447.7258],[20.1654,-5.5998,495.9139],[20.1665,-5.6014,499.0352],[20.1734,-5.6017,535.8558],[20.1814,-5.6086,495.2455],[20.1818,-5.6139,477.0991],[20.1907,-5.6231,517.2286],[20.1898,-5.6268,509.6045],[20.1863,-5.6307,458.6105],[20.1826,-5.6422,434.3331],[20.1862,-5.6537,493.0192],[20.1841,-5.6578,501.3305],[20.1777,-5.6594,425.0],[20.1761,-5.6613,425.5],[20.1763,-5.6642,425.5],[20.1813,-5.6705,442.3699],[20.1805,-5.6817,444.2143],[20.1819,-5.6905,434.3896],[20.1803,-5.6926,467.9848],[20.1764,-5.6928,427.5],[20.1722,-5.6897,451.1835],[20.1681,-5.6906,529.9892],[20.1674,-5.6932,486.3048],[20.1717,-5.7006,433.4667],[20.1712,-5.7098,495.4045],[20.173,-5.7157,493.2164],[20.1705,-5.7189,466.867],[20.1716,-5.7217,457.3813],[20.1686,-5.7265,430.5],[20.1711,-5.7387,486.5066],[20.166,-5.7463,431.5],[20.1604,-5.7472,481.7695],[20.1558,-5.7534,455.1655],[20.1521,-5.7625,433.0],[20.1542,-5.766,433.0],[20.1493,-5.7717,439.1528],[20.1396,-5.7756,524.304],[20.1258,-5.7858,460.4317],[20.1149,-5.7973,465.98],[20.1107,-5.815,437.5],[20.1124,-5.8336,438.5],[20.1092,-5.8373,443.7351],[20.0972,-5.84,525.9705],[20.0915,-5.8484,442.214],[20.085,-5.8502,453.1462],[20.079,-5.8541,486.6223],[20.0657,-5.8575,506.6772],[20.0558,-5.8565,482.5628],[20.0514,-5.859,526.9756],[20.0496,-5.8631,450.7928],[20.05,-5.8677,443.5],[20.0414,-5.8868,456.0599],[20.0343,-5.8936,504.1973],[20.0369,-5.9072,498.6125],[20.0335,-5.9127,446.0],[20.0265,-5.9182,525.6151],[20.0281,-5.9251,447.0],[20.0228,-5.9393,447.75],[20.0204,-5.9428,456.8428],[20.0128,-5.9434,489.0768],[20.0082,-5.9461,552.126],[20.0075,-5.9528,527.619],[20.004,-5.962,455.9246],[20.0,-5.9666,451.0],[19.9934,-5.9656,487.6034],[19.9865,-5.9718,515.0025],[19.9764,-5.9706,567.3086],[19.9739,-5.9726,555.4051],[19.9688,-5.9726,573.6555],[19.9604,-5.9884,523.8021],[19.9531,-5.9962,491.097],[19.9384,-5.9915,579.0375],[19.9303,-5.991,574.6107],[19.9188,-5.9971,553.2654],[19.9087,-5.9976,506.677],[19.9004,-6.0101,571.0216],[19.8857,-5.9958,595.9193],[19.8839,-5.9972,601.4084],[19.8854,-6.0078,595.1095],[19.884,-6.0114,574.8649],[19.8688,-6.0242,472.5186],[19.855,-6.0329,567.9028],[19.841,-6.033,575.3728],[19.8354,-6.0346,554.1876],[19.8324,-6.0376,545.5705],[19.8294,-6.0461,486.613],[19.8183,-6.0557,536.4785],[19.8151,-6.0565,514.0766],[19.81,-6.0659,558.9417],[19.8044,-6.0717,523.7992],[19.7902,-6.075,572.0482],[19.7843,-6.0851,582.3743],[19.7735,-6.0883,568.1132],[19.7634,-6.0995,571.0225],[19.7493,-6.1001,608.9485],[19.745,-6.1028,533.3269],[19.74,-6.1209,473.0],[19.7382,-6.1227,475.0369],[19.7283,-6.1234,506.4197],[19.7253,-6.1254,523.6164],[19.7197,-6.1406,519.0172],[19.7167,-6.1424,475.625],[19.7089,-6.1426,508.1285],[19.7061,-6.1449,510.3615],[19.6954,-6.1618,478.0],[19.6936,-6.1696,532.6447],[19.6974,-6.1802,540.8867],[19.6955,-6.1876,553.201],[19.69,-6.1951,480.5],[19.6864,-6.2126,523.4567],[19.6801,-6.2245,497.4148],[19.682,-6.2279,483.0],[19.687,-6.2291,547.5323],[19.689,-6.2333,553.0491],[19.6959,-6.2398,577.7223],[19.6955,-6.2495,549.9552],[19.697,-6.2554,492.0434],[19.6887,-6.2684,488.6396],[19.6879,-6.2733,526.0246],[19.6895,-6.2779,491.2254],[19.6977,-6.2855,556.9352],[19.6956,-6.2954,489.6693],[19.6873,-6.2956,496.856],[19.6859,-6.2995,542.6929],[19.6884,-6.3087,489.9662],[19.6842,-6.3172,499.7711],[19.6865,-6.3204,496.1151],[19.6906,-6.3218,550.5345],[19.6947,-6.3273,520.3597],[19.6873,-6.339,501.9711],[19.6896,-6.3434,527.6541],[19.6958,-6.3462,554.8218],[19.6969,-6.3487,541.861],[19.697,-6.3683,494.3899],[19.7011,-6.3821,512.8609],[19.7045,-6.3867,536.5649],[19.7035,-6.3911,495.875],[19.7067,-6.3959,502.5353],[19.7069,-6.4047,499.7288],[19.7096,-6.4097,533.6339],[19.7131,-6.4114,570.2062],[19.714,-6.4153,517.818],[19.7185,-6.4192,506.0697],[19.7203,-6.4257,508.132],[19.7185,-6.4351,498.9106],[19.7159,-6.4385,502.8706],[19.706,-6.4414,508.7284],[19.7048,-6.4472,502.4477],[19.7137,-6.4546,505.3159],[19.7152,-6.4767,551.1754],[19.7085,-6.484,504.6958],[19.7085,-6.4872,522.101],[19.7147,-6.4937,543.4102],[19.7165,-6.4978,558.6727],[19.7048,-6.4971,524.6133],[19.7038,-6.5,549.7255],[19.7086,-6.507,504.8687],[19.71,-6.5123,538.5954],[19.7081,-6.5164,588.5889],[19.7014,-6.5182,514.8927],[19.7016,-6.5216,524.075],[19.7073,-6.5313,591.774],[19.702,-6.5384,532.6946],[19.7024,-6.5476,524.3578],[19.7047,-6.552,508.7657],[19.7102,-6.5534,556.0717],[19.712,-6.5571,572.9742],[19.7088,-6.5608,565.0593],[19.7078,-6.5734,577.1356],[19.7096,-6.5808,528.5853],[19.7139,-6.5849,512.6612],[19.7162,-6.5937,535.1166],[19.7198,-6.5983,517.2751],[19.7223,-6.6066,561.6509],[19.7257,-6.6119,556.9156],[19.7342,-6.6152,523.0875],[19.736,-6.6216,523.625],[19.7403,-6.6271,518.3934],[19.7546,-6.6295,584.1142],[19.7566,-6.6385,589.396],[19.7598,-6.6406,583.8501],[19.7628,-6.6491,602.0683],[19.7696,-6.6561,549.6732],[19.7723,-6.6655,521.5124],[19.7774,-6.6651,592.78],[19.7796,-6.6699,583.2515],[19.787,-6.6743,584.1202],[19.7851,-6.6805,542.7488],[19.786,-6.6819,533.0129],[19.7957,-6.6859,595.6824],[19.8053,-6.6965,594.5233],[19.8119,-6.6992,618.2239],[19.8119,-6.7073,572.0466],[19.8176,-6.7069,586.7919],[19.8183,-6.711,609.201],[19.8155,-6.7168,608.9383],[19.818,-6.7198,596.2136],[19.8231,-6.7203,607.595],[19.8247,-6.7223,590.4182],[19.8267,-6.7345,613.3304],[19.8347,-6.7332,619.3632],[19.8365,-6.7369,576.6893],[19.8351,-6.7419,571.732],[19.8463,-6.756,635.4532],[19.8433,-6.7604,600.6426],[19.8458,-6.7627,618.8027],[19.8532,-6.7639,603.6115],[19.8559,-6.7717,603.4772],[19.8579,-6.7736,622.6904],[19.866,-6.7754,640.6566],[19.8763,-6.7877,596.9793],[19.8758,-6.7946,629.1745],[19.8774,-6.7969,637.1956],[19.8873,-6.7965,647.7795],[19.8881,-6.8013,595.7384],[19.887,-6.8043,561.1571],[19.89,-6.8062,606.6459],[19.8908,-6.8156,582.0562],[19.9003,-6.8172,661.8303],[19.903,-6.8212,641.6205],[19.9011,-6.8294,554.3573],[19.9075,-6.8426,575.2507],[19.9176,-6.8475,570.7101],[19.9306,-6.8581,619.6869],[19.931,-6.8634,558.1208],[19.9361,-6.8726,559.4002],[19.9376,-6.8933,587.1489],[19.9463,-6.8927,570.1064],[19.9446,-6.8998,609.2531],[19.9462,-6.903,574.9611],[19.9522,-6.906,572.4691],[19.9506,-6.9115,576.8663],[19.9537,-6.9246,582.0255],[19.9507,-6.9272,605.7516],[19.9493,-6.9334,582.0568],[19.9518,-6.9373,580.8401],[19.9596,-6.9389,580.3966],[19.9591,-6.9562,605.9104],[19.9641,-6.964,601.9683],[19.9622,-6.9686,635.2794],[19.9656,-6.9778,625.3926],[19.97,-6.982,593.8815],[19.9644,-6.9835,651.7333],[19.9628,-6.9856,660.3473],[19.9688,-6.9918,618.594],[19.9572,-6.9968,646.4882],[19.9558,-6.9994,635.1744],[20.1237,-6.998,754.5386],[20.2847,-6.9991,713.8462],[20.3017,-6.998,617.1783],[20.3037,-6.9952,633.2595],[20.3037,-6.989,617.2207],[20.3016,-6.9811,667.2843],[20.3089,-6.9718,665.0251],[20.312,-6.9545,640.8402],[20.3112,-6.9487,617.154],[20.3142,-6.9385,608.446],[20.3155,-6.9382,613.2379],[20.3152,-6.928,611.0195],[20.3505,-6.9262,734.6086],[20.4292,-6.9294,770.3879],[20.4782,-6.9275,693.7261],[20.4885,-6.9313,668.6747],[20.4954,-6.9315,666.934],[20.5039,-6.9272,674.0145],[20.5221,-6.9241,648.9509],[20.5343,-6.9198,653.4108],[20.5465,-6.9189,655.6863],[20.6104,-6.9265,640.7017],[20.6213,-6.9317,576.8205],[20.6199,-6.9754,569.4812],[20.6123,-6.9842,599.2554],[20.6099,-6.9901,576.5829],[20.5955,-6.9978,654.7733],[20.5895,-7.006,619.1659],[20.5801,-7.0356,619.8781],[20.5754,-7.0599,673.7849],[20.5753,-7.0696,664.8179],[20.5673,-7.0888,652.6382],[20.5567,-7.1028,638.4805],[20.5516,-7.1126,686.2288],[20.5446,-7.141,608.6981],[20.5451,-7.1606,622.8358],[20.5425,-7.1919,674.8229],[20.544,-7.2066,673.6854],[20.5388,-7.2286,681.0161],[20.5388,-7.2346,703.8248],[20.5417,-7.2449,676.5173],[20.5435,-7.2815,665.7069],[20.815,-7.2804,659.7104],[20.8217,-7.2933,664.0683],[21.2052,-7.2842,735.4536],[21.2038,-7.2788,715.7955]]]]}}