{"type":"Feature","properties":{"GID_2":"COD.5.3_1","GID_0":"COD","country":"DemocraticRepublicoftheCongo","GID_1":"COD.5_1","province":"Haut-Uele","NL_NAME_1":"NA","county":"Dungu(ville)","VARNAME_2":"NA","NL_NAME_2":"NA","TYPE_2":"Ville","ENGTYPE_2":"Town","CC_2":"NA","HASC_2":"NA","name":"Dungu(ville).county"},
"geometry":{"type": "MultiPolygon","coordinates": [[[[28.469,3.6373,695.8955],[28.4883,3.6334,686.1095],[28.4998,3.6339,698.5609],[28.5057,3.6302,682.0],[28.5211,3.627,689.3242],[28.5374,3.6143,683.6071],[28.5419,3.6128999999999998,686.3083],[28.5311,3.5881,718.9515],[28.5252,3.5677,721.8484],[28.5288,3.5508,721.812],[28.5257,3.5353,735.0788],[28.5372,3.5351,733.8595],[28.5508,3.5378,713.3957],[28.5929,3.5617,724.6128],[28.6075,3.5791,730.8442],[28.6091,3.5981,694.0732],[28.5994,3.6247,699.7394],[28.587,3.6416,693.4986],[28.5697,3.6519,722.1663],[28.5589,3.6557,707.4012],[28.5372,3.6579,721.2596],[28.5199,3.6562,719.0481],[28.4913,3.6519,719.2493],[28.469,3.6373,695.8955]]]]}}