{"type":"Feature","properties":{"GID_2":"COD.21.3_1","GID_0":"COD","country":"DemocraticRepublicoftheCongo","GID_1":"COD.21_1","province":"Sankuru","NL_NAME_1":"NA","county":"Kole","VARNAME_2":"NA","NL_NAME_2":"NA","TYPE_2":"Territoire","ENGTYPE_2":"Territory","CC_2":"NA","HASC_2":"NA","name":"Kole.county"},
"geometry":{"type": "MultiPolygon","coordinates": [[[[23.097,-4.5449,504.055],[23.1152,-4.5484,503.0954],[23.1273,-4.542,494.6353],[23.139,-4.5399,489.4971],[23.1528,-4.5404,509.4815],[23.1562,-4.5367,518.0266],[23.1617,-4.5365,454.0876],[23.165,-4.5335,475.0817],[23.17,-4.534,496.7344],[23.1762,-4.5271,483.1995],[23.1895,-4.526,468.5189],[23.1989,-4.5198,460.8101],[23.207,-4.5173,411.9251],[23.2136,-4.5184,434.2211],[23.2249,-4.4917,471.8189],[23.2671,-4.4855,549.4259],[23.2858,-4.4853,508.8996],[23.3036,-4.49,499.191],[23.3206,-4.4587,523.3353],[23.3417,-4.4323,524.3994],[23.3559,-4.4091,547.7364],[23.3625,-4.395,528.5797],[23.3759,-4.3758,534.1102],[23.3914,-4.3655,530.1847],[23.4049,-4.3533,489.253],[23.4428,-4.3297,543.8702],[23.4422,-4.3036,556.32],[23.4378,-4.2797,537.8969],[23.4373,-4.2586,510.3979],[23.4448,-4.2405,484.7638],[23.4424,-4.2205,477.7846],[23.4358,-4.2034,472.2002],[23.4323,-4.2047,476.2831],[23.4289,-4.2022,494.3189],[23.4255,-4.1898,434.9689],[23.4184,-4.1849,494.4736],[23.4078,-4.1863,455.4799],[23.4049,-4.1796,488.9128],[23.4007,-4.1789,512.6525],[23.3828,-4.1833,493.8425],[23.3709,-4.1895,473.2788],[23.3585,-4.1887,421.1305],[23.3519,-4.1906,451.2375],[23.34,-4.1864,473.3992],[23.3365,-4.1809,501.4748],[23.318,-4.1802,444.1338],[23.3047,-4.1847,444.8932],[23.298,-4.182,459.9064],[23.2873,-4.1716,458.4218],[23.2831,-4.1695,470.9374],[23.2756,-4.1711,434.7977],[23.2717,-4.1676,476.4682],[23.2671,-4.1676,461.4711],[23.2517,-4.178,431.1487],[23.2444,-4.1789,419.1307],[23.2228,-4.1636,479.4535],[23.215699999999998,-4.1629,494.9034],[23.2068,-4.1671,422.8235],[23.2045,-4.1645,420.0107],[23.2089,-4.159,504.2395],[23.1896,-4.1456,467.2584],[23.1848,-4.1459,454.2705],[23.1704,-4.1511,424.88],[23.1589,-4.1502,431.2818],[23.153199999999998,-4.1481,439.4255],[23.15,-4.1488,454.2169],[23.1454,-4.1534,417.2017],[23.1419,-4.1483,418.8364],[23.1447,-4.1474,433.6185],[23.155,-4.1262,482.3842],[23.1551,-4.1226,442.5448],[23.1482,-4.1138,473.3643],[23.1503,-4.1087,485.52],[23.1475,-4.1044,530.3568],[23.1446,-4.0919,519.6804],[23.1464,-4.0848,467.1612],[23.1459,-4.0586,503.1412],[23.1105,-4.027,508.9904],[23.0838,-3.9749,466.1989],[23.0821,-3.9544,492.9554],[23.0851,-3.9129,496.846],[23.0921,-3.8807,513.4309],[23.0984,-3.8665,515.255],[23.0993,-3.8597,525.4299],[23.0953,-3.8558,530.9573],[23.0844,-3.8568,526.1224],[23.0643,-3.8632,509.3239],[23.0584,-3.8632,553.4841],[23.0554,-3.8613,537.15],[23.0606,-3.8452,548.4009],[23.0347,-3.8199,566.8069],[23.0201,-3.7901,524.1558],[23.0108,-3.7526,546.0576],[23.007,-3.7238,553.4755],[22.9963,-3.6926,549.127],[22.9962,-3.6799,572.7314],[22.9985,-3.6706,561.3735],[23.0265,-3.6125,504.3761],[23.0375,-3.5831,460.3471],[23.0202,-3.5402,541.3799],[23.0161,-3.5212,492.6084],[23.0217,-3.4904,516.7637],[23.025,-3.4821,472.7927],[23.0273,-3.4655,426.3871],[23.0325,-3.4484,410.5909],[23.0357,-3.423,398.9644],[23.0321,-3.4118,464.8509],[23.0319,-3.3898,488.4905],[23.0238,-3.3689,489.4339],[23.0194,-3.3313,479.6384],[23.0082,-3.2991,492.8738],[23.0027,-3.2727,515.2727],[23.0179,-3.2645,552.3164],[23.0373,-3.2496,572.6416],[23.0424,-3.2473,545.0208],[23.0527,-3.2349,497.1347],[23.0315,-3.2238,575.4917],[23.022,-3.2151,576.9656],[23.0229,-3.2063,573.0698],[23.0302,-3.1916,544.4753],[23.0418,-3.175,587.528],[23.0486,-3.1618,524.3985],[23.0567,-3.1373,477.4373],[23.0575,-3.1295,458.2142],[23.0486,-3.0714,509.624],[23.033,-3.0021,546.5005],[23.0273,-2.9936,531.5371],[23.0122,-2.9977,537.7139],[22.9761,-3.0026,517.4234],[22.9496,-3.0041,560.8348],[22.9052,-3.0,509.6197],[22.892,-2.9969,537.7911],[22.8805,-2.9975,494.5042],[22.8723,-2.9966,531.2883],[22.8643,-2.992,542.123],[22.8476,-2.9866,601.7849],[22.8093,-2.9833,502.1655],[22.7931,-2.9803,593.3098],[22.7855,-2.9768,617.3999],[22.7724,-2.9823,597.9541],[22.7538,-2.9863,544.7606],[22.74,-2.9856,543.9337],[22.7274,-2.9782,614.6409],[22.7082,-2.9702,503.0192],[22.686,-2.9628,566.7095],[22.6716,-2.9626,571.1133],[22.6342,-2.9724,465.102],[22.6167,-2.9812,554.45],[22.6101,-2.9877,570.0466],[22.6026,-3.0115,502.2209],[22.5911,-3.0246,455.8924],[22.5292,-3.085,502.1489],[22.5183,-3.0932,496.7441],[22.502,-3.096,487.8605],[22.4912,-3.0959,506.6064],[22.4366,-3.0875,465.9601],[22.4186,-3.0831,469.6197],[22.4117,-3.0778,468.4947],[22.4209,-3.0391,468.1094],[22.4269,-3.0263,465.0162],[22.4295,-3.0109,479.8076],[22.4235,-2.9989,495.7494],[22.4231,-2.9934,521.5987],[22.4266,-2.9846,512.8641],[22.4138,-2.9706,527.4304],[22.3985,-2.9775,504.0782],[22.3792,-2.9832,505.478],[22.3569,-2.9848,505.5284],[22.3203,-2.9831,534.5313],[22.2933,-2.9774,505.5156],[22.2879,-2.975,487.2375],[22.3797,-2.8793,543.8839],[22.3716,-2.8823,609.1517],[22.352,-2.8804,584.1842],[22.3401,-2.8689,503.8448],[22.327,-2.8677,528.9892],[22.2786,-2.8503,574.3346],[22.2717,-2.8438,569.117],[22.2642,-2.8406,546.7933],[22.2507,-2.8392,494.6494],[22.2463,-2.8362,489.3773],[22.2381,-2.8237,467.4406],[22.2347,-2.8212,482.6635],[22.2226,-2.8177,518.9692],[22.2103,-2.8029,524.9088],[22.1975,-2.7928,475.885],[22.189,-2.7782,464.7954],[22.1806,-2.7725,440.4338],[22.1747,-2.7651,447.1847],[22.1751,-2.755,456.9954],[22.2279,-2.6999,518.015],[22.2256,-2.6921,512.7416],[22.1626,-2.6063,499.2209],[22.1216,-2.5537,521.2446],[22.1056,-2.5235,488.084],[22.1028,-2.5073,559.1164],[22.1031,-2.4713,470.8641],[22.1147,-2.4505,540.8029],[22.1312,-2.4337,485.3806],[22.1304,-2.3985,497.7716],[22.0937,-2.3625,496.4477],[22.0928,-2.3556,491.9981],[22.0945,-2.3222,518.3439],[22.0933,-2.3071,487.6649],[22.0886,-2.303,493.2348],[22.0835,-2.3019,490.9704],[22.0612,-2.3008,486.831],[22.0559,-2.3029,506.4783],[22.0425,-2.3157,544.2043],[22.0115,-2.3625,525.6957],[22.0054,-2.3754,559.3586],[21.9921,-2.3942,551.5493],[21.9513,-2.4293,503.943],[21.9266,-2.455,564.4172],[21.9089,-2.4765,464.2857],[21.8927,-2.4899,542.718],[21.8765,-2.5063,476.0489],[21.8441,-2.5324,516.1204],[21.831,-2.5304,440.8152],[21.8451,-2.5454,509.3981],[21.8512,-2.5586,423.4185],[21.8709,-2.5706,464.0543],[21.8933,-2.5769,467.6934],[21.8988,-2.582,482.1953],[21.9035,-2.5841,495.7634],[21.9191,-2.5859,513.8759],[21.9257,-2.5966,466.7156],[21.9367,-2.606,479.9814],[21.9485,-2.6125,508.9583],[21.9743,-2.6418,463.1733],[21.9944,-2.6513,439.2519],[22.0147,-2.6744,469.6257],[22.0135,-2.6852,512.4185],[22.0217,-2.7066,474.5639],[22.0329,-2.7297,423.5524],[22.0502,-2.7509,426.8186],[22.0559,-2.7539,434.092],[22.0634,-2.7631,461.8098],[22.0753,-2.7735,449.2946],[22.0787,-2.7786,445.1103],[22.0823,-2.7984,446.1665],[22.0853,-2.8044,457.8151],[22.1026,-2.8189,453.2868],[22.1092,-2.83,469.5953],[22.1238,-2.8625,459.015],[22.1341,-2.877,564.3721],[22.1429,-2.8966,569.6841],[22.1516,-2.9042,507.4745],[22.1669,-2.9226,545.3341],[22.1818,-2.9312,542.5682],[22.2065,-2.929,501.7654],[22.2154,-2.9249,525.9359],[22.2213,-2.9288,500.166],[22.2148,-2.9378,523.7664],[22.1885,-2.9507,546.8562],[22.1812,-2.9568,540.5641],[22.1699,-3.0011,499.3367],[22.1642,-3.0118,569.2939],[22.1599,-3.0168,550.0648],[22.1492,-3.024,523.4325],[22.128,-3.0429,584.8536],[22.1083,-3.0638,549.145],[22.1013,-3.0829,500.0272],[22.112,-3.1008,489.6432],[22.1147,-3.1088,483.482],[22.114,-3.1218,490.1513],[22.1082,-3.1736,479.4984],[22.0957,-3.2094,457.959],[22.0866,-3.2225,452.7295],[22.0558,-3.2531,502.9382],[22.0354,-3.2704,508.5913],[22.0064,-3.2884,524.3895],[21.9982,-3.2961,535.2463],[21.9963,-3.3021,556.9186],[21.9957,-3.3806,452.1251],[21.9894,-3.4011,441.5631],[21.9772,-3.4178,436.0402],[21.9699,-3.4247,431.8171],[21.9412,-3.4417,420.6327],[21.9303,-3.4886,469.6238],[21.9294,-3.5042,473.9292],[21.9383,-3.5222,469.2304],[21.9417,-3.5419,428.5143],[21.9415,-3.5537,468.0489],[21.9383,-3.5686,491.3075],[21.9396,-3.5746,495.3972],[21.9447,-3.5847,466.972],[21.9573,-3.592,475.5116],[21.9586,-3.6015,475.4303],[21.971,-3.6019,412.0073],[21.9733,-3.5918,487.6603],[21.9891,-3.5801,412.6543],[21.9965,-3.5769,441.8996],[22.0043,-3.5779,442.8132],[22.0146,-3.5724,456.3174],[22.0288,-3.5759,486.76],[22.0416,-3.5692,448.9108],[22.0595,-3.5808,435.0805],[22.062,-3.584,421.8275],[22.0863,-3.5823,398.0402],[22.1076,-3.5727,461.0774],[22.1144,-3.5748,442.0329],[22.1182,-3.5715,419.6174],[22.1225,-3.5703,425.6101],[22.1287,-3.578,426.5366],[22.1366,-3.605,405.4293],[22.1377,-3.6144,431.0655],[22.1401,-3.6545,447.7284],[22.1348,-3.6853,478.7485],[22.1331,-3.7101,524.1732],[22.1388,-3.7311,601.2241],[22.1375,-3.7431,596.3721],[22.1422,-3.7616,570.0966],[22.1329,-3.7717,602.9207],[22.1321,-3.7787,578.7878],[22.1561,-3.7964,623.984],[22.1562,-3.8039,630.7001],[22.1529,-3.8094,580.8408],[22.0683,-3.8779,537.9565],[22.0581,-3.884,486.5756],[22.0375,-3.8889,486.2931],[22.0292,-3.8885,529.7711],[22.0201,-3.8924,488.9844],[22.0122,-3.9025,460.6199],[22.009,-3.9097,438.8598],[21.9955,-3.9195,453.9813],[21.9876,-3.9395,452.0024],[21.9761,-3.9519,410.8158],[21.9683,-3.9694,378.8823],[21.9682,-3.9751,393.1449],[21.9889,-3.9618,376.5],[21.9946,-3.9612,386.8968],[22.0047,-3.9683,381.6911],[22.0208,-3.9675,392.847],[22.0297,-3.9707,377.0],[22.0485,-3.9735,377.5],[22.0578,-3.9793,377.5],[22.0814,-3.9833,378.7178],[22.0922,-3.9875,383.4581],[22.0991,-3.9921,386.9802],[22.1116,-4.0175,389.4638],[22.1175,-4.0244,383.6424],[22.121,-4.0262,383.5025],[22.1354,-4.0286,383.7943],[22.14,-4.0321,386.7066],[22.1565,-4.0392,384.545],[22.1629,-4.0402,380.0],[22.1672,-4.0393,386.5547],[22.1783,-4.0308,380.0],[22.187,-4.029,380.5],[22.1939,-4.0249,382.3063],[22.2017,-4.023,384.3193],[22.2097,-4.0159,390.3847],[22.2226,-4.0118,399.5036],[22.2389,-3.9992,384.2015],[22.2471,-3.9965,381.0],[22.2726,-3.998,391.6142],[22.2815,-4.0023,468.5097],[22.2925,-4.0095,476.5171],[22.3048,-4.0222,493.6335],[22.3123,-4.036,491.8444],[22.3162,-4.0503,437.4396],[22.3226,-4.0584,515.2594],[22.3299,-4.0805,487.0524],[22.3397,-4.0906,476.6568],[22.3644,-4.0999,412.9706],[22.3727,-4.1057,478.8178],[22.3818,-4.1175,425.5083],[22.3878,-4.1214,407.8475],[22.3985,-4.1391,451.2982],[22.4033,-4.1442,465.2566],[22.4106,-4.1468,455.4249],[22.4262,-4.1477,473.4491],[22.4416,-4.1588,476.6269],[22.4477,-4.1616,461.9192],[22.4675,-4.1589,501.4578],[22.4718,-4.1614,443.3871],[22.4789,-4.1702,478.9108],[22.4919,-4.1801,512.8497],[22.5036,-4.1868,457.4669],[22.5135,-4.1882,478.7783],[22.5425,-4.2159,474.2843],[22.5824,-4.2287,512.7128],[22.5867,-4.2322,492.5322],[22.5952,-4.2324,493.9464],[22.6083,-4.2428,526.8613],[22.6271,-4.2435,503.7412],[22.6374,-4.2491,496.4713],[22.6477,-4.2638,483.3665],[22.6628,-4.2694,526.384],[22.6738,-4.2807,505.798],[22.6838,-4.2998,521.4046],[22.7032,-4.3261,512.4655],[22.7081,-4.3266,541.291],[22.7149,-4.3374,522.9137],[22.7204,-4.34,547.9318],[22.7259,-4.3478,529.6039],[22.7483,-4.3626,524.0688],[22.7506,-4.3713,535.709],[22.7552,-4.3764,538.7848],[22.7556,-4.3854,487.3521],[22.7728,-4.4082,533.662],[22.7836,-4.4103,464.0632],[22.7877,-4.4131,537.5897],[22.8028,-4.434,488.6054],[22.811,-4.4368,474.0097],[22.8154,-4.4414,481.4093],[22.8186,-4.4474,501.5481],[22.8208,-4.4596,488.5898],[22.8277,-4.4732,504.4991],[22.8332,-4.4792,528.8395],[22.8694,-4.5005,497.0737],[22.8721,-4.5055,482.269],[22.8778,-4.5101,497.26369999999997],[22.8841,-4.5184,538.1555],[22.9192,-4.5264,562.7754],[22.9418,-4.5271,571.5927],[22.9904,-4.5238,577.8162],[23.0267,-4.5153,589.8176],[23.0587,-4.5198,532.3112],[23.0744,-4.5262,546.1255],[23.0773,-4.535,514.1061],[23.0886,-4.5357,508.0719],[23.097,-4.5449,504.055]],
[[22.9249,-4.2494,503.1698],[22.9138,-4.2545,478.968],[22.8977,-4.2515,496.587],[22.8817,-4.2363,527.2984],[22.8767,-4.2232,516.0122],[22.8847,-4.2152,534.8412],[22.8907,-4.2031,493.6614],[22.9008,-4.199,532.8385],[22.9108,-4.199,470.043],[22.9239,-4.2041,482.3171],[22.9319,-4.2091,512.2074],[22.9359,-4.2152,497.3285],[22.9379,-4.2252,481.4875],[22.9369,-4.2333,492.4232],[22.9339,-4.2424,467.3219],[22.9249,-4.2494,503.1698]],
[[22.7027,-4.0683,476.3575],[22.6848,-4.067,465.8735],[22.6784,-4.0644,501.364],[22.6724,-4.0541,462.9229],[22.6745,-4.0417,529.9563],[22.6852,-4.0262,504.7975],[22.695,-4.0215,494.3021],[22.7027,-4.0232,471.6715],[22.7134,-4.0288,443.3876],[22.7194,-4.0352,473.5345],[22.7215,-4.0434,484.7628],[22.7203,-4.0503,470.5389],[22.716,-4.0567,491.9462],[22.7104,-4.0631,499.1064],[22.7027,-4.0683,476.3575]]]]}}