{"type": "Feature","bbox": [21.745,-9.3411,23.729,-7.6372],"geometry": {"type": "MultiPolygon","coordinates": [[[[21.745,-7.9311,779.8079],[21.7455,-7.9388,788.845],[21.7597,-7.9604,778.5511],[21.7597,-7.9646,779.5635],[21.7712,-8.0004,778.7388],[21.7814,-8.0118,780.7747],[21.788,-8.0311,779.7639],[21.8168,-8.0624,780.5499],[21.8271,-8.0799,781.3986],[21.8338,-8.1002,781.9154],[21.8437,-8.1142,783.9938],[21.8487,-8.1322,784.8571],[21.8549,-8.144,785.9822],[21.8662,-8.1569,785.7379],[21.8727,-8.1609,787.2147],[21.887,-8.176,788.3259],[21.8893,-8.1817,797.7567],[21.8867,-8.1881,788.8098],[21.881,-8.1928,786.415],[21.8792,-8.1976,787.2427],[21.8853,-8.2139,794.6345],[21.8865,-8.2267,789.0891],[21.8974,-8.2598,800.8727],[21.8969,-8.2895,793.5829],[21.9002,-8.2964,788.9136],[21.9149,-8.3055,788.6118],[21.9227,-8.3083,789.469],[21.93,-8.3145,788.6722],[21.9353,-8.3242,792.2083],[21.9348,-8.3355,794.0389],[21.9317,-8.3413,793.4733],[21.9209,-8.3532,794.7232],[21.925,-8.3777,805.7878],[21.9238,-8.397,791.4271],[21.9331,-8.4058,793.1241],[21.9429,-8.4265,792.9043],[21.9507,-8.4507,793.6497],[21.9511,-8.4601,798.8702],[21.9483,-8.4758,794.1639],[21.9531,-8.494,816.678],[21.9577,-8.503,805.6374],[21.9555,-8.5094,805.074],[21.945,-8.523,801.6948],[21.9424,-8.5306,799.412],[21.9469,-8.5476,806.9842],[21.9472,-8.5579,807.4423],[21.9451,-8.5653,829.6534],[21.9327,-8.5769,811.3812],[21.9307,-8.5904,816.1932],[21.924,-8.5961,814.588],[21.9226,-8.6,820.6652],[21.9334,-8.6047,825.3588],[21.936,-8.6089,828.0938],[21.9329,-8.618,853.5393],[21.9209,-8.6245,833.3369],[21.9133,-8.6367,837.0422],[21.9119,-8.6431,844.2329],[21.9173,-8.6682,854.0349],[21.9597,-8.6628,966.2843],[21.9988,-8.6686,974.0149],[22.0079,-8.6734,946.7549],[22.0164,-8.6832,938.3202],[22.0255,-8.6837,886.8062],[22.035,-8.6773,870.1716],[22.0438,-8.6683,870.7922],[22.0488,-8.6685,875.0187],[22.0552,-8.6765,915.3638],[22.0703,-8.7364,955.0173],[22.0886,-8.7824,970.182],[22.1244,-8.8005,1028.6874],[22.1383,-8.7994,1055.8411],[22.1476,-8.8003,1059.8296],[22.154,-8.8049,1060.5067],[22.2105,-8.8776,1070.4938],[22.2714,-8.9037,1016.7045],[22.2747,-8.8984,993.3286],[22.2744,-8.8589,1010.1588],[22.2915,-8.8448,1010.6768],[22.2999,-8.8421,980.6735],[22.3038,-8.8446,972.3138],[22.3109,-8.8535,949.7034],[22.3241,-8.884,965.9228],[22.33,-8.9058,972.6071],[22.3409,-8.9302,955.7397],[22.3531,-8.9521,1048.9019],[22.3631,-8.9542,1046.2271],[22.3888,-8.9517,1082.4265],[22.41,-8.9693,1065.7981],[22.4538,-9.016,1088.9406],[22.4762,-9.0302,1059.3499],[22.489,-9.0345,993.1656],[22.5496,-9.0349,877.1664],[22.5655,-9.0334,857.4563],[22.5731,-9.028,855.2932],[22.5738,-9.0234,863.4996],[22.5765,-9.0195,854.5573],[22.5775,-9.0094,861.2393],[22.5825,-9.0007,865.3033],[22.5835,-8.9951,872.6489],[22.6144,-8.9883,905.8921],[22.6259,-8.9819,920.2305],[22.6318,-8.9733,958.7742],[22.6483,-8.9665,948.3898],[22.6684,-8.9798,949.9385],[22.6809,-8.9818,992.6024],[22.6913,-8.9814,982.7225],[22.7051,-8.9733,1068.8108],[22.7146,-8.9712,1066.2805],[22.811,-8.9754,1094.7998],[22.821,-8.999,1093.9525],[22.8326,-9.0075,1078.8049],[22.8483,-9.0098,1067.2909],[22.9534,-9.021,1092.146],[22.9638,-9.0174,1095.2015],[22.97,-9.0067,1092.3915],[22.9805,-9.0079,1094.8751],[22.9908,-9.0129,1082.8029],[23.0162,-9.0418,1039.0574],[23.028,-9.0406,1048.2999],[23.0198,-9.0064,1044.0018],[23.0249,-8.9896,1026.3684],[23.0442,-8.9903,1038.4551],[23.0697,-9.0013,1063.2032],[23.0761,-9.0095,1066.4569],[23.0974,-9.017,1096.9587],[23.117,-9.0123,1058.2216],[23.1188,-9.0042,1058.1066],[23.1359,-8.9842,1069.6865],[23.156,-8.9961,1097.9321],[23.265,-9.0018,1091.0674],[23.2707,-9.0209,1107.7122],[23.2694,-9.08,1109.0437],[23.256,-9.11,1112.053],[23.2447,-9.1682,1098.4761],[23.2549,-9.1955,1090.1938],[23.2723,-9.2137,1099.1377],[23.3,-9.2565,1103.9442],[23.3114,-9.3219,1099.1857],[23.3207,-9.3411,1091.2252],[23.3406,-9.3347,1093.2281],[23.3561,-9.333,1104.5746],[23.4049,-9.3095,1097.2017],[23.4158,-9.3086,1096.7347],[23.4219,-9.2741,1095.235],[23.4291,-9.2659,1098.8718],[23.4217,-9.2514,1099.3574],[23.4288,-9.235,1106.5336],[23.4195,-9.205,1096.3193],[23.4247,-9.1602,1101.9691],[23.4217,-9.152,1083.2356],[23.4106,-9.1405,1085.3044],[23.4062,-9.1327,1074.4384],[23.4029,-9.124,1090.9651],[23.4049,-9.1102,1091.9039],[23.4118,-9.0978,1096.2487],[23.4176,-9.0913,1105.5116],[23.4241,-9.0858,1102.6292],[23.4412,-9.0784,1060.9689],[23.4471,-9.0733,1085.9926],[23.4522,-9.0657,1078.5146],[23.4543,-9.0579,1096.8467],[23.5098,-9.0398,1101.1244],[23.5216,-9.0452,1100.5833],[23.5358,-9.1007,1096.575],[23.5403,-9.098,1096.5363],[23.5601,-9.0763,1094.3485],[23.5746,-9.0718,1096.9381],[23.5884,-9.0918,1093.7086],[23.6003,-9.1055,1093.531],[23.663,-9.1075,1077.7742],[23.6821,-9.1111,1108.333],[23.7021,-9.1112,1063.8708],[23.7029,-9.0994,1106.8396],[23.6964,-9.0765999999999991,1093.0732],[23.6908,-9.0657,1088.9366],[23.6697,-9.0356,1108.0312],[23.6677,-9.0238,1104.2646],[23.6542,-8.986,1096.7622],[23.6517,-8.956,1080.6091],[23.6559,-8.9185,1082.6102],[23.6543,-8.8907,1089.892],[23.6763,-8.8614,1098.2692],[23.729,-8.7813,1093.9714],[23.6961,-8.7046,1118.3002],[23.6909,-8.6739,1104.3611],[23.6928,-8.6297,1080.0691],[23.6868,-8.6221,1072.3964],[23.6781,-8.601,1074.9502],[23.6792,-8.5845,1074.4587],[23.6815,-8.5792,1069.0461],[23.6884,-8.572,1077.974],[23.6882,-8.5688,1081.2075],[23.6787,-8.5542,1051.7302],[23.6581,-8.5423,1055.193],[23.6511,-8.5347,1043.688],[23.6486,-8.5276,1037.1371],[23.6401,-8.4817,1037.3693],[23.6417,-8.4679,1055.9202],[23.6503,-8.4468,1085.7352],[23.6554,-8.4415,1072.0914],[23.6676,-8.4343,1020.2113],[23.6701,-8.429,1051.4692],[23.6692,-8.4267,1051.7699],[23.6751,-8.4109,1038.4047],[23.6819,-8.3672,1031.0089],[23.6896,-8.338,1037.3248],[23.6909,-8.3261,1015.24],[23.69,-8.3155,1022.362],[23.7013,-8.276,1010.6271],[23.702,-8.2615,1008.3286],[23.7006,-8.2503,1005.2341],[23.6847,-8.2008,1006.2252],[23.6844,-8.1923,1015.6089],[23.6933,-8.1686,1009.3262],[23.7008,-8.136,1004.6061],[23.6938,-8.1158,990.1257],[23.6917,-8.0993,1000.72],[23.6928,-8.0899,997.6884],[23.6891,-8.0819,993.2272],[23.6812,-8.0752,985.3644],[23.6754,-8.061,1002.9854],[23.6682,-8.0528,984.8608],[23.6678,-8.0491,992.7094],[23.6741,-8.0293,993.7156],[23.6911,-8.0,998.1157],[23.6835,-7.9923,977.5532],[23.6851,-7.9879,983.7377],[23.6826,-7.9813,990.6309],[23.6884,-7.9675,957.4611],[23.6477,-7.9689,1024.4521],[23.6256,-7.9668,993.2964],[23.5921,-7.9472,940.4568],[23.5836,-7.9365,916.4411],[23.5749,-7.9382,912.2375],[23.5735,-7.9398,912.7924],[23.5673,-7.9393,917.2433],[23.5594,-7.9453,921.9012],[23.5415,-7.948,923.6497],[23.526,-7.9673,940.5284],[23.5184,-7.9728,951.2057],[23.5085,-7.9741,962.6453],[23.4974,-7.9796,961.3616],[23.4928,-7.9789,968.7783],[23.4885,-7.9707,975.7207],[23.4818,-7.9677,990.7908],[23.4793,-7.9619,1001.1632],[23.46,-7.9588,1052.679],[23.4423,-7.944,1023.7945],[23.3993,-7.9549,1002.2234],[23.3899,-7.9551,998.2516],[23.3802,-7.9524,1003.0404],[23.3095,-7.944,1003.2442],[23.2908,-7.9577,935.9006],[23.2798,-7.9704,902.7101],[23.2678,-7.9756,891.3148],[23.2554,-7.9689,892.8192],[23.2473,-7.9682,891.2994],[23.237,-7.9611,889.4685],[23.2282,-7.9507,891.6774],[23.2241,-7.9505,888.8753],[23.2146,-7.9567,883.0526],[23.2098,-7.9573,880.933],[23.2057,-7.9537,880.6458],[23.205,-7.9493,878.241],[23.1994,-7.947,891.947],[23.1978,-7.9422,886.1776],[23.2004,-7.9374,881.8774],[23.1808,-7.9237,891.5159],[23.1767,-7.9111,882.0975],[23.1783,-7.9082,874.7752],[23.1749,-7.901,880.3412],[23.1705,-7.8749,873.1422],[23.177,-7.8705,872.4351],[23.1731,-7.8652,883.2932],[23.1747,-7.8581,889.0527],[23.1853,-7.8522,870.9877],[23.1888,-7.8418,869.4822],[23.1817,-7.8395,875.7621],[23.1814,-7.8372,882.1078],[23.1856,-7.832,869.9614],[23.1844,-7.8242,869.7653],[23.1879,-7.8122,880.7975],[23.1794,-7.8115,870.9276],[23.1762,-7.7998,873.6516],[23.176,-7.7943,873.4241],[23.1824,-7.7851,868.5477],[23.1817,-7.7817,867.7161],[23.1863,-7.7808,867.0725],[23.185,-7.7688,867.6089],[23.1705,-7.7695,888.95],[23.1668,-7.7725,897.9082],[23.1507,-7.7766,886.58989999999994],[23.1209,-7.8119,912.5941],[23.1034,-7.8265,912.9758],[23.0916,-7.8508,916.0116],[23.084,-7.8749,924.8848],[23.0703,-7.8733,946.761],[23.0453,-7.865,948.2795],[23.0004,-7.8708,993.8159],[22.9843,-7.8648,1015.697],[22.9637,-7.872,1013.5618],[22.9409,-7.8883,1008.9708],[22.9173,-7.8816,998.6652],[22.8923,-7.8634,983.8694],[22.8349,-7.8301,939.8293],[22.8172,-7.8226,930.6008],[22.7988,-7.8197,951.4564],[22.7775,-7.8214,897.7468],[22.7738,-7.8176,921.7709],[22.7664,-7.8177,872.1029],[22.7194,-7.8596,887.3768],[22.6877,-7.8822,824.832],[22.6611,-7.896,809.2541],[22.6662,-7.8802,808.7827],[22.6665,-7.8666,831.6458],[22.675,-7.8593,806.7233],[22.6771,-7.8554,807.5183],[22.6755,-7.8517,822.9811],[22.6711,-7.8508,807.4427],[22.6637,-7.8368,821.9088],[22.6569,-7.8292,806.1841],[22.6495,-7.8271,805.8466],[22.6465,-7.8234,802.9108],[22.6449,-7.8158,807.5],[22.6472,-7.8117,806.2071],[22.6449,-7.803,803.0413],[22.647,-7.7954,803.1354],[22.6427,-7.7851,804.0796],[22.651,-7.7791,800.9235],[22.6517,-7.7754,800.5092],[22.6455,-7.7646,802.3646],[22.637,-7.7605,803.874],[22.6315,-7.7531,807.7145],[22.6246,-7.7513,800.546],[22.6168,-7.7434,805.1345],[22.611,-7.7416,796.0688],[22.6108,-7.7345,800.433],[22.6094,-7.7326,798.5283],[22.6043,-7.7331,794.7336],[22.5997,-7.7363,792.947],[22.6055,-7.7375,793.4482],[22.608,-7.743,797.9612],[22.6002,-7.7446,813.2011],[22.5916,-7.7521,821.1457],[22.5817,-7.7558,815.4075],[22.5709,-7.7566,823.3093],[22.5598,-7.761,817.5756],[22.5538,-7.7653,818.1917],[22.5453,-7.7747,844.1017],[22.5427,-7.7816,841.5166],[22.5245,-7.8024,844.1535],[22.5219,-7.8201,863.2591],[22.4966,-7.8449,922.3859],[22.4854,-7.8475,947.3666],[22.4732,-7.8438,934.0738],[22.4469,-7.8304,928.468],[22.4328,-7.8215,914.0092],[22.4326,-7.8169,911.5044],[22.427,-7.8063,909.2726],[22.4213,-7.8045,925.9639],[22.4101,-7.8165,942.5098],[22.3485,-7.8513,877.3953],[22.3298,-7.8591,860.3259],[22.2911,-7.8712,903.7463],[22.2536,-7.874,886.8534],[22.1891,-7.8821,986.2466],[22.1651,-7.8814,977.4411],[22.1633,-7.8702,967.5143],[22.1605,-7.8661,967.4211],[22.152,-7.8619,968.0117],[22.1437,-7.8527,941.2466],[22.1322,-7.8285,945.1728],[22.0666,-7.7474,921.1414],[22.0526,-7.7345,903.4145],[22.0425,-7.7217,916.4977],[22.0388,-7.6968,858.799],[22.0335,-7.6826,878.8083],[22.0237,-7.675,882.7229],[22.0024,-7.6721,833.1683],[22.0024,-7.6764,837.5175],[21.9948,-7.6881,852.1555],[21.9947,-7.6916,844.3343],[21.97,-7.7033,881.4629],[21.9409,-7.684,910.1127],[21.9286,-7.6811,864.3044],[21.8734,-7.6764,785.7443],[21.8394,-7.6638,786.9337],[21.8351,-7.6591,768.2739],[21.8294,-7.6372,758.3983],[21.8238,-7.653,745.788],[21.8129,-7.6565,762.413],[21.8103,-7.6618,755.1169],[21.8123,-7.6725,748.7628],[21.811,-7.6823,767.0401],[21.7966,-7.7139,777.288],[21.7957,-7.7291,747.004],[21.792,-7.736,759.3984],[21.786,-7.7405,792.702],[21.7844,-7.7455,769.6565],[21.7858,-7.7547,773.3054],[21.7836,-7.76,761.5732],[21.768,-7.7774,767.5717],[21.7694,-7.7824,757.5284],[21.7694,-7.7956,798.645],[21.772,-7.8039,756.8901],[21.7697,-7.8095,790.5392],[21.7653,-7.8122,778.7972],[21.7639,-7.8179,781.3334],[21.7657,-7.8234,791.1254],[21.7621,-7.8454,785.8153],[21.7709,-7.8789,778.0516],[21.7707,-7.8937,777.0626],[21.7665,-7.9088,783.3944],[21.745,-7.9311,779.8079]]]]}
,"properties": {"GID_2": "COD.15.2_1","GID_0": "COD","country": "DemocraticRepublicoftheCongo","GID_1": "COD.15_1","province": "Lualaba","NL_NAME_1": "NA","county": "Kapanga","VARNAME_2": "NA","NL_NAME_2": "NA","TYPE_2": "Territoire","ENGTYPE_2": "Territory","CC_2": "NA","HASC_2": "NA","name": "Kapanga.county","area_km2": 25069.69,"hist_schema_id": "Elevation0-9000","hist_area_km2": {"750": 30.86,"775": 111.78,"800": 266.92,"825": 705.46,"850": 1315.21,"875": 1772.69,"900": 2083.94,"925": 2362.32,"950": 2554.99,"975": 2564.43,"1000": 2376.23,"1025": 1930.88,"1050": 1936.77,"1075": 2496.88,"1100": 2499.82,"1125": 60.52}}}