{"type":"Feature","properties":{"GID_2":"COD.5.1_1","GID_0":"COD","country":"DemocraticRepublicoftheCongo","GID_1":"COD.5_1","province":"Haut-Uele","NL_NAME_1":"NA","county":"Aba","VARNAME_2":"NA","NL_NAME_2":"NA","TYPE_2":"Ville","ENGTYPE_2":"Town","CC_2":"NA","HASC_2":"NA","name":"Aba.county"},
"geometry":{"type": "MultiPolygon","coordinates": [[[[30.2431,3.818,888.4768],[30.2554,3.821,885.5115],[30.2651,3.8261,885.7412],[30.2752,3.8355,909.5703],[30.2802,3.847,912.8822],[30.283,3.8585,919.8118],[30.2823,3.8711,921.4498],[30.2791,3.8823,911.9301],[30.2744,3.8906,925.0624],[30.2669,3.8982,934.9854],[30.259,3.9018,928.5154],[30.2482,3.9028,900.8981],[30.2328,3.8964,912.8244],[30.2213,3.8953,913.7063],[30.2181,3.8902,919.9615],[30.2048,3.8848,909.6213],[30.1944,3.8733,914.6798],[30.1919,3.8502,891.4109],[30.1987,3.83,881.6315],[30.2141,3.8182,893.9323],[30.2242,3.8153,872.9108],[30.2431,3.818,888.4768]]]]}}