{"type":"Feature","properties":{"ISO3166-1-Alpha-3":"COD","country":"Democratic Republic of the Congo","fill":"#000","id":"1461","name":"Équateur"},
"geometry":{"type": "Polygon","coordinates": [[[19.85816,5.06031,361.0],[19.85019,5.07375,360.5],[19.83861,5.08755,360.5],[19.82466,5.09698,360.0],[19.77919,5.11816,359.5],[19.7488,5.12442,369.3024],[19.72875,5.13385,376.4464],[19.71955,5.13597,369.6201],[19.60555,5.13829,361.178],[19.56876,5.15519,363.466],[19.5486,5.15137,355.5],[19.51708,5.13597,355.0],[19.49651,5.1338,354.5],[19.43151,5.13597,353.5],[19.40898,5.13039,375.905],[19.3942,5.11698,353.0],[19.37311,5.08755,365.505],[19.28381,5.03228,350.5],[19.237,5.01078,349.625],[19.22976,5.00218,349.5],[19.21467,4.97613,349.5],[19.19565,4.95034,349.0],[19.17901,4.94642,349.0],[19.13302,4.94693,348.5],[19.11618,4.94045,348.5],[19.10674,4.93152,349.5577],[19.08331,4.90934,348.0],[19.06905,4.89125,348.0],[19.05778,4.86779,361.2538],[19.049,4.83653,347.5],[19.04414,4.82689,347.5],[19.03577,4.818,347.5],[19.02688,4.81152,360.3232],[19.01975,4.8033,368.8773],[19.01158,4.76503,351.1649],[18.99804,4.75064,363.1804],[18.98047,4.7394,358.6535],[18.96228,4.72444,348.0574],[18.92818,4.66643,345.0],[18.92384,4.66287,345.0],[18.90451,4.65587,360.3915],[18.90017,4.65215,344.5],[18.8979,4.65065,347.4546],[18.88653,4.6214,343.5],[18.85242,4.59406,342.0],[18.82824,4.55998,341.0],[18.77697,4.43345,347.847],[18.7533,4.40061,342.8185],[18.72106,4.37736,361.7321],[18.67434,4.36131,336.5],[18.65409,4.35723,336.5],[18.63393,4.35596,338.2404],[18.61429,4.35981,344.5248],[18.59579,4.37126,444.2722],[18.57647,4.37276,385.1987],[18.55683,4.35415,340.6064],[18.54195,4.32785,345.1527],[18.53709,4.30607,361.6301],[18.54505,4.28902,342.138],[18.57254,4.26568,342.821],[18.57864,4.25486,344.292],[18.58391,4.23579,335.0],[18.61967,4.16957,360.8693],[18.63269,4.13042,357.2689],[18.64654,4.04598,333.5],[18.6453,3.98245,335.6644],[18.64158,3.95826,332.5],[18.63455,3.93573,341.4482],[18.61367,3.90147,354.6723],[18.61171,3.87909,360.8579],[18.61202,3.86661,376.3197],[18.61285,3.83375,360.829],[18.593,3.70977,324.5],[18.62639,3.47687,324.5],[18.63455,3.44922,324.5],[18.64241,3.32383,324.0],[18.63114,3.17898,323.5],[18.62184,3.15666,325.5561],[18.61967,3.14477,329.3164],[18.61305,3.12818,323.5],[18.59735,3.11464,323.5],[18.5621,3.09681,323.5],[18.54143,3.08281,329.5161],[18.52841,3.06478,327.5104],[18.49534,2.96607,340.8497],[18.47963,2.94137,345.1768],[18.4758,2.93119,349.0568],[18.47177,2.90923,348.5981],[18.46733,2.89889,348.3505],[18.44924,2.873,343.7939],[18.42516,2.82215,345.9848],[18.42185,2.80882,344.4991],[18.41834,2.78174,332.2352],[18.39322,2.71369,325.5467],[18.31674,2.58434,316.2759],[18.31374,2.57597,317.978],[18.30351,2.57256,315.7076],[18.24615,2.51892,340.1678],[18.23303,2.50259,341.0128],[18.22517,2.48646,332.0605],[18.21411,2.42766,314.5],[18.20781,2.40797,314.5],[18.19913,2.38911,314.0],[18.18796,2.37092,314.0],[18.17401,2.33614,319.5031],[18.16378,2.32105,314.0],[18.14673,2.31593,314.0],[18.1427,2.3057,314.0],[18.11861,2.27697,324.6576],[18.11117,2.26529,328.9519],[18.07242,2.16002,329.603],[18.07242,2.14519,334.5004],[18.07831,2.11481,314.0],[18.08079,2.08416,314.0],[18.07603,1.98848,314.0],[18.08172,1.94241,313.5],[18.08151,1.92655,316.0368],[18.07831,1.90929,313.5],[18.06818,1.87622,313.0],[18.06611,1.85898,313.1891],[18.07366,1.57233,311.9255],[18.07138,1.55146,310.5],[18.01226,1.42196,309.0],[18.00668,1.4024,309.0],[18.00203,1.36578,310.9518],[17.967,1.25372,338.1352],[17.96338,1.19145,340.4716],[17.95625,1.17166,332.3256],[17.9148,1.102,335.9645],[17.89248,1.0774,332.0906],[17.87325,1.03963,333.0172],[17.86664,1.01663,301.5],[17.87822,0.94718,334.542],[17.87791,0.86791,327.7277],[17.90767,0.74047,332.2035],[17.90757,0.71308,325.7643],[17.89258,0.63588,321.1648],[17.8932,0.60766,331.8456],[17.8993,0.58327,328.5498],[17.91842,0.53521,301.4389],[17.9331,0.52705,315.8378],[17.94364,0.51082,297.5],[17.94994,0.4915,297.5],[17.95201,0.47434,303.2235],[17.9455,0.37729,329.7055],[17.93992,0.36127,311.9626],[17.85403,0.24107,319.137],[17.77538,0.02641,314.2895],[17.75709,-0.00946,319.3056],[17.71637,-0.1958,319.8631],[17.71368,-0.22092,316.0167],[17.71626,-0.24624,318.9101],[17.74076,-0.34618,313.3246],[17.74954,-0.52343,294.0],[17.742,-0.53335,298.7434],[17.72804,-0.55309,299.1112],[17.66417,-0.61273,294.0],[17.65869,-0.61975,294.0],[17.65446,-0.62751,294.0],[17.65249,-0.64218,294.0],[17.65094,-0.64632,294.0],[17.64764,-0.64993,294.0],[17.63585,-0.65851,294.0],[17.62304,-0.67329,294.0],[17.60216,-0.68869,294.0],[17.54586,-0.75649,294.1729],[17.41147,-0.91834,293.5],[17.38543,-0.94242,293.0],[17.36497,-0.96723,293.0],[17.35732,-0.97353,293.0],[17.33045,-0.98655,292.5],[17.32766,-0.99172,292.0],[17.30802,-1.01498,295.2408],[17.29768,-1.02107,294.6421],[17.24539,-1.03585,292.1737],[17.19485,-1.04298,291.0],[17.17542,-1.04826,291.1645],[17.10865,-1.07564,290.0],[17.06049,-1.08918,305.1028],[17.02866,-1.09445,294.5146],[17.02256,-1.09704,296.6613],[17.01202,-1.10427,289.0],[17.00592,-1.10675,289.0],[17.00313,-1.11285,291.5653],[16.97956,-1.14024,289.9919],[16.9405,-1.17476,289.7196],[16.90918,-1.21114,292.378],[16.86257,-1.24886,288.5],[16.83973,-1.26251,288.5],[16.83321,-1.26902,288.5],[16.82867,-1.27625,288.5],[16.81782,-1.30416,291.8431],[16.79466,-1.3455,292.1162],[16.77926,-1.3824,289.4264],[16.76273,-1.40586,287.375],[16.72552,-1.47996,286.5],[16.69255,-1.52296,289.2628],[16.6695,-1.56936,285.5],[16.65597,-1.59029,285.5],[16.63622,-1.62083,285.0],[16.62889,-1.63726,285.0],[16.62382,-1.6538,284.5],[16.62248,-1.66517,288.5507],[16.6231,-1.69917,288.9282],[16.61721,-1.72873,284.0],[16.60419,-1.75405,283.5],[16.52497,-1.85853,283.0],[16.52838,-1.86237,283.0],[16.55675,-1.89317,301.5666],[16.58827,-1.93621,304.7091],[16.61648,-1.98701,292.9042],[16.62739,-1.99559,293.6261],[16.64429,-1.99874,294.0244],[16.88835,-1.9989,313.229],[16.89936,-1.99605,312.7256],[16.9005,-1.99223,308.1772],[16.89766,-1.90231,323.1964],[16.89518,-1.89043,321.6672],[16.88913,-1.87849,325.15],[16.87998,-1.86888,317.0157],[16.86913,-1.86175,301.4144],[16.83497,-1.84728,298.7593],[16.82459,-1.84149,295.3515],[16.81575,-1.83286,305.9492],[16.81141,-1.82263,292.0917],[16.81032,-1.81147,294.6061],[16.81342,-1.80144,291.4308],[16.82056,-1.79343,292.1383],[16.84929,-1.79343,309.1086],[16.99822,-1.81023,355.9425],[17.04462,-1.81131,331.5745],[17.07677,-1.80759,377.4798],[17.184,-1.72527,394.6725],[17.52103,-1.52626,327.6696],[17.57271,-1.50218,321.0284],[17.6065,-1.49128,328.601],[17.66515,-1.47898,325.8055],[17.68004,-1.47386,325.5956],[17.69528,-1.46689,316.3734],[17.75052,-1.43087,321.3477],[17.76649,-1.42234,321.1657],[17.80184,-1.40989,311.7249],[17.89093,-1.3917,310.4763],[17.93082,-1.37387,312.1224],[18.01816,-1.31031,316.1512],[18.07169,-1.25718,320.5424],[18.11004,-1.2098,328.1234],[18.12461,-1.18401,328.5299],[18.14187,-1.14329,315.9076],[18.15024,-1.13352,322.4545],[18.16156,-1.13047,318.2008],[18.19148,-1.13073,325.4854],[18.33705,-1.15259,325.3268],[18.34961,-1.15631,324.1198],[18.36284,-1.16251,338.5777],[18.42738,-1.22514,333.8062],[18.4418,-1.23507,338.5332],[18.47751,-1.25305,321.7159],[18.50355,-1.26168,324.2821],[18.52185,-1.26566,319.449],[18.53818,-1.26705,323.1595],[18.55151,-1.26695,330.5771],[18.57941,-1.26375,319.7304],[18.59249,-1.26003,317.5667],[18.6328,-1.24421,311.1675],[18.65998,-1.23677,313.8806],[18.6868,-1.23321,315.8287],[18.76845,-1.23801,332.6383],[18.78255,-1.23657,330.6754],[18.79589,-1.23352,325.3358],[18.80891,-1.22845,314.7067],[18.81997,-1.22111,316.0095],[18.82927,-1.21104,316.3828],[18.83625,-1.20013,313.9283],[18.84214,-1.18882,318.8335],[18.84942,-1.17776,321.2723],[18.86885,-1.15719,317.3333],[18.87505,-1.14458,324.3051],[18.87614,-1.13089,324.7566],[18.8704,-1.11745,326.7128],[18.86265,-1.10479,343.6526],[18.81826,-1.05699,329.4286],[18.81015,-1.04536,325.2122],[18.80364,-1.03379,329.1807],[18.79852,-1.0218,325.7787],[18.79542,-1.01095,332.9322],[18.79449,-1.00299,343.7851],[18.79341,-0.95369,335.9639],[18.79713,-0.92987,341.6548],[18.80224,-0.91788,340.0475],[18.80943,-0.90697,363.9646],[18.82012,-0.89705,355.438],[18.83206,-0.88956,359.3005],[18.88312,-0.86863,347.4229],[18.9228,-0.84382,371.869],[18.93464,-0.8337,353.6776],[18.94564,-0.82186,357.5398],[18.9534,-0.80956,356.5648],[18.95867,-0.79633,359.373],[18.96533,-0.76962,356.0336],[18.9706,-0.7567,374.4405],[18.97789,-0.74579,373.4957],[18.9905,-0.74311,351.2603],[19.00585,-0.75008,370.9872],[19.02771,-0.77411,361.354],[19.0397,-0.79153,347.0481],[19.04807,-0.80848,343.7099],[19.05954,-0.84093,348.1365],[19.0628,-0.85457,353.2257],[19.06574,-0.90253,364.8882],[19.07923,-0.98232,345.8284],[19.08295,-0.99229,348.0684],[19.08589,-0.99813,344.6254],[19.14749,-1.08402,353.0291],[19.17483,-1.13445,355.3437],[19.21364,-1.1882,328.9215],[19.29446,-1.2731,326.8645],[19.32273,-1.32168,317.9966],[19.32676,-1.33563,330.7526],[19.36805,-1.4348,308.7278],[19.38495,-1.46172,335.7573],[19.41502,-1.5011,324.3004],[19.47352,-1.59515,346.8605],[19.48391,-1.62192,330.1097],[19.50799,-1.7202,332.8866],[19.51217,-1.74713,327.1801],[19.51295,-1.77204,326.4366],[19.51403,-1.77881,325.731],[19.51806,-1.78315,325.7449],[19.5269,-1.78811,324.7791],[19.54277,-1.7925,333.248],[19.59181,-1.79829,332.9107],[19.59801,-1.79798,327.8436],[19.60452,-1.79488,336.2137],[19.61382,-1.78738,337.3038],[19.62374,-1.77684,339.8164],[19.67387,-1.70181,339.9974],[19.69604,-1.67845,373.3458],[19.70891,-1.66817,357.089],[19.72834,-1.66693,363.1194],[19.75376,-1.67333,361.8526],[19.798,-1.70455,362.5051],[19.81629,-1.72387,364.3637],[19.82781,-1.74201,369.23],[19.84037,-1.7849,356.9292],[19.8891,-1.90169,360.2384],[19.89701,-1.91451,366.1129],[19.9074,-1.92583,390.9982],[19.91995,-1.93389,369.5474],[19.93721,-1.93931,394.7318],[19.99866,-1.94846,364.4276],[20.01834,-1.94887,382.4571],[20.09793,-1.94071,384.2475],[20.17291,-1.94567,349.9131],[20.18609,-1.94846,351.0326],[20.20252,-1.95647,370.1293],[20.21993,-1.96773,380.8471],[20.25218,-1.99719,394.9395],[20.25776,-2.00448,391.7311],[20.26288,-2.01378,363.5186],[20.27037,-2.02468,392.4283],[20.282,-2.0346,394.3818],[20.29393,-2.03853,396.3163],[20.32013,-2.04039,415.0846],[20.33832,-2.04644,439.2422],[20.40209,-2.07703,402.8403],[20.4255,-2.0837,404.3819],[20.44462,-2.08478,415.5946],[20.45765,-2.08039,393.1548],[20.48261,-2.06788,394.7859],[20.52281,-2.0422,377.8932],[20.53444,-2.03724,404.9143],[20.54668,-2.03414,416.1613],[20.55836,-2.03295,414.026],[20.5703,-2.03357,420.845],[20.61965,-2.04251,475.1759],[20.63221,-2.04282,465.7546],[20.64353,-2.03832,442.6524],[20.65221,-2.02876,428.3629],[20.66027,-2.01833,422.491],[20.6735,-2.01559,430.598],[20.69117,-2.02303,439.4484],[20.98692,-2.37138,453.1205],[20.99534,-2.39226,436.681],[21.0017,-2.41334,434.4567],[21.00712,-2.48879,510.4426],[21.18215,-2.5106,444.8495],[21.25739,-2.51184,412.2926],[21.28798,-2.50889,416.0064],[21.31155,-2.50274,384.2859],[21.32255,-2.49866,380.016],[21.41676,-2.47995,400.7785],[21.44141,-2.46925,407.075],[21.45402,-2.4566499999999998,480.6774],[21.46549,-2.35479,466.7339],[21.4703,-2.34213,433.9776],[21.47479,-2.33898,450.3078],[21.47991,-2.33898,457.2818],[21.51174,-2.35505,464.5911],[21.52166,-2.35882,463.0582],[21.54523,-2.36311,470.5931],[21.55034,-2.36471,435.8259],[21.55489,-2.36714,489.8853],[21.56171,-2.37401,461.2278],[21.57086,-2.38544,472.1477],[21.59334,-2.40523,565.2567],[21.60202,-2.41065,482.5398],[21.60683,-2.41282,471.8216],[21.6416,-2.41996,471.8368],[21.64626,-2.42223,489.7052],[21.64967,-2.42564,473.2603],[21.6585,-2.43742,536.2888],[21.66579,-2.44393,521.1729],[21.68227,-2.45494,485.9425],[21.68661,-2.45737,475.0413],[21.72542,-2.47334,482.4868],[21.74093,-2.47737,487.1216],[21.75069,-2.4815,481.0462],[21.75891,-2.48693,543.9661],[21.77271,-2.49897,457.8434],[21.77813,-2.50284,537.7311],[21.81105,-2.51731,465.1917],[21.8157,-2.52021,468.6633],[21.82175,-2.52191,435.6048],[21.83028,-2.52289,444.1826],[21.88831,-2.49664,474.2723],[21.89906,-2.49039,496.6802],[21.91487,-2.47933,493.5139],[21.91937,-2.47453,471.8956],[21.95864,-2.42207,476.6225],[21.9698,-2.41169,557.1096],[22.02334,-2.38569,525.5062],[22.04597,-2.37195,480.876],[22.07315,-2.34859,494.8951],[22.08199,-2.33882,521.5463],[22.11005,-2.29924,512.9935],[22.1239,-2.28813,482.2248],[22.13832,-2.28239,435.5391],[22.15739,-2.28348,492.6861],[22.16762,-2.28766,456.6747],[22.17666,-2.2966,491.694],[22.18302,-2.3073,446.7338],[22.18813,-2.32306,485.0147],[22.19046,-2.33929,493.434],[22.1855,-2.41158,469.9655],[22.18736,-2.42693,470.4153],[22.19201,-2.44032,454.6695],[22.19899,-2.45122,472.1727],[22.20891,-2.46083,450.483],[22.2193,-2.46801,480.3611],[22.23563,-2.47086,463.7124],[22.25407,-2.46719,456.7534],[22.27826,-2.45101,458.0455],[22.28849,-2.43561,450.5967],[22.29257,-2.41851,432.0561],[22.29164,-2.40311,417.3713],[22.22896,-2.18007,409.9565],[22.2165,-2.0762,395.0648],[22.20736,-2.03621,400.4268],[22.17387,-1.95528,414.4595],[22.16994,-1.94174,433.9232],[22.1687,-1.93079,422.5632],[22.16886,-1.92448,427.5574],[22.16932,-1.92148,451.619],[22.17211,-1.91668,442.4686],[22.17615,-1.91394,442.4155],[22.18348,-1.91234,443.7816],[22.28167,-1.94195,468.8044],[22.32776,-1.94985,433.2255],[22.47954,-1.95978,399.7353],[22.49706,-1.95885,434.9904],[22.50946,-1.95606,435.8196],[22.52594,-1.94737,432.1154],[22.53664,-1.93818,451.5433],[22.54765,-1.92474,463.0326],[22.60661,-1.82774,366.3009],[22.62428,-1.80867,382.2778],[22.63178,-1.80842,373.5203],[22.63627,-1.81059,383.3574],[22.64077,-1.81338,380.5196],[22.64557,-1.814,384.0014],[22.65891,-1.81012,397.8522],[22.66914,-1.80852,404.7136],[22.67317,-1.80749,394.9534],[22.67679,-1.80749,390.9004],[22.68268,-1.80826,384.8276],[22.69167,-1.81167,428.4612],[22.71027,-1.82387,402.6856],[22.7435,-1.83875,400.2109],[22.75172,-1.84443,423.2901],[22.75528,-1.84774,423.239],[22.75947,-1.85079,414.7647],[22.76427,-1.85291,429.8048],[22.77017,-1.854,425.7881],[22.8096,-1.85586,402.8534],[22.81518,-1.85694,412.8868],[22.82029,-1.85865,400.2352],[22.8251,-1.86097,420.2403],[22.83285,-1.86676,418.472],[22.83704,-1.86919,431.0623],[22.84763,-1.8725,423.5764],[22.87057,-1.88402,432.382],[22.90241,-1.90702,433.5505],[22.90592,-1.91048,436.9169],[22.90907,-1.9142,403.4282],[22.93403,-1.95724,379.4419],[22.93822,-1.95926,382.8434],[22.94411,-1.95786,384.8718],[23.00059,-1.93378,393.0921],[23.01289,-1.93208,388.9355],[23.03134,-1.93115,388.8531],[23.0625,-1.9327,428.1133],[23.08162,-1.9359,437.847],[23.09712,-1.94035,435.2654],[23.10953,-1.9467,398.2128],[23.12193,-1.95476,411.9357],[23.13438,-1.965,431.1373],[23.15361,-1.98711,402.6118],[23.16322,-2.00039,399.4572],[23.20079,-2.0639,469.4572],[23.21133,-2.07362,430.8261],[23.2242,-2.07827,473.1505],[23.24068,-2.07331,450.5108],[23.25308,-2.06716,466.838],[23.26331,-2.06091,417.8551],[23.54263,-2.00613,516.1664],[23.56821,-2.00536,533.2972],[23.59275,-2.0068,448.1568],[23.66613,-2.01843,505.8117],[23.67822,-2.01838,507.7405],[23.68882,-2.01517,492.5913],[23.69254,-2.00789,505.3031],[23.69393,-2.00225,510.9444],[23.69316,-1.96649,495.1506],[23.70107,-1.95073,477.8599],[23.71827,-1.93084,484.4818],[23.75832,-1.91094,488.3737],[23.77383,-1.89627,461.5669],[23.78235,-1.88355,468.4786],[23.78328,-1.81922,438.3912],[23.78576,-1.80656,459.9698],[23.79165,-1.79426,447.2258],[23.80147,-1.78361,423.3819],[23.81263,-1.77545,446.1232],[23.82767,-1.76935,450.3621],[23.85031,-1.76625,483.096],[23.88415,-1.76475,435.1871],[23.92886,-1.76723,495.033],[23.98596,-1.76496,476.7314],[23.99867,-1.76124,482.0344],[24.012,-1.75374,521.4401],[24.03996,-1.74878,483.9349],[24.0828,-1.7462,480.7233],[24.42154,-1.78676,591.8519],[24.39002,-1.59298,496.9516],[24.37126,-1.53019,442.5421],[24.36423,-1.51376,508.422],[24.33958,-1.47459,575.7822],[24.30511,-1.40157,501.014],[24.29302,-1.38953,536.3596],[24.28015,-1.38296,456.5406],[24.26759,-1.38162,507.3398],[24.14099,-1.38906,487.588],[24.11706,-1.38638,417.76369999999997],[24.09319,-1.38085,428.1738],[24.07004,-1.37232,416.7272],[23.98425,-1.32545,410.0805],[23.83589,-1.20365,461.4683],[23.82349,-1.19652,394.0125],[23.77801,-1.17745,435.2519],[23.76793,-1.16727,463.3178],[23.76127,-1.15631,462.7211],[23.74587,-1.1144,451.5204],[23.73176,-1.09197,436.9807],[23.7192,-1.07952,431.5146],[23.70572,-1.06882,458.1816],[23.65373,-1.0372,412.6691],[23.56867,-0.99942,451.155],[23.40687,-0.86491,422.6257],[23.38264,-0.83695,430.066],[23.36729,-0.81396,403.6473],[23.36589,-0.79897,418.7091],[23.3724,-0.78662,417.0725],[23.49451,-0.69391,417.9906],[23.51141,-0.68631,408.2956],[23.56092,-0.67241,427.2444],[23.58903,-0.66714,432.3373],[23.60159,-0.6628,422.618],[23.61291,-0.65588,432.9251],[23.62112,-0.64673,437.0703],[23.6236,-0.63593,436.2555],[23.61771,-0.62539,453.7519],[23.57461,-0.58627,431.013],[23.47994,-0.46354,398.0529],[23.46113,-0.44592,400.9115],[23.44516,-0.43801,410.2613],[23.43338,-0.44002,400.495],[23.29525,-0.48994,390.4086],[23.28114,-0.4917,402.1104],[23.26657,-0.49046,401.733],[23.24967,-0.48302,410.0539],[23.23944,-0.46938,395.8579],[23.21799,-0.43444,423.0956],[23.20559,-0.42654,418.9906],[23.19272,-0.42256,404.552],[22.99361,-0.40917,413.8262],[22.98462,-0.407,414.2212],[22.97935,-0.40349,414.5283],[22.98416,-0.39693,406.8619],[23.09216,-0.30587,435.7432],[23.11743,-0.28846,434.6412],[23.12999,-0.28215,441.7343],[23.14198,-0.27843,440.9694],[23.15516,-0.27766,453.9749],[23.16694,-0.279,446.7651],[23.1904,-0.28567,434.937],[23.25324,-0.31016,422.1433],[23.26626,-0.31357,428.3819],[23.2799,-0.31512,421.0203],[23.29308,-0.31373,429.0792],[23.30476,-0.30753,424.5772],[23.31484,-0.2975,432.7379],[23.32383,-0.28675,420.6516],[23.33483,-0.27781,414.6128],[23.34693,-0.27306,414.8415],[23.37147,-0.26856,418.9231],[23.38341,-0.26515,435.7262],[23.39488,-0.25952,426.8189],[23.40563,-0.24815,426.8056],[23.40915,-0.23234,424.2643],[23.40666,-0.21482,431.785],[23.3969,-0.18981,437.2033],[23.24735,0.0323,445.5452],[23.14229,0.15379,547.5001],[23.12301,0.18402,536.1945],[23.08364,0.27177,501.5898],[23.0717,0.28887,450.163],[22.99718,0.37595,545.78],[22.97315,0.41372,491.949],[22.94643,0.47889,516.3646],[22.93884,0.5101,506.5987],[22.93062,0.56612,427.9052],[22.91837,0.60074,440.8365],[22.91403,0.60823,420.5135],[22.89755,0.62585,431.229],[22.87088,0.66006,410.3251],[22.85895,0.67846,440.1582],[22.85321,0.69691,422.8966],[22.85104,0.70854,443.4122],[22.85383,0.76331,434.6741],[22.85848,0.79401,407.1456],[22.85399,0.8092,421.7704],[22.83781,0.84289,424.3749],[22.83099,0.86377,422.3591],[22.81874,0.89147,427.3404],[22.81719,0.89669,419.5527],[22.81766,0.90139,432.9651],[22.8189,0.90687,440.0896],[22.81952,0.91348,432.6715],[22.8127,0.93953,411.2381],[22.81254,0.94558,410.4514],[22.81316,0.95147,425.5008],[22.81766,0.96738,411.2692],[22.81766,0.97529,421.9274],[22.81626,0.98475,421.4196],[22.81177,0.99978,405.3093],[22.8082,1.00764,405.9128],[22.78319,1.04107,405.3149],[22.77807,1.05084,414.2966],[22.77482,1.06071,404.8203],[22.77327,1.06939,402.5653],[22.76924,1.0819,402.6714],[22.76458,1.08841,402.0115],[22.75807,1.09384,401.2151],[22.75451,1.09818,403.9818],[22.75203,1.10314,403.2891],[22.74583,1.12298,402.8067],[22.73694,1.14272,418.1427],[22.7295,1.16412,394.2888],[22.70314,1.20804,408.4854],[22.69849,1.21414,412.9412],[22.68764,1.22442,400.6725],[22.67896,1.23512,415.7576],[22.66526,1.27026,405.0646],[22.65627,1.28442,394.4423],[22.62992,1.34723,408.6328],[22.6217,1.35832,403.4994],[22.6139,1.36439,402.4992],[22.60646,1.36757,401.6591],[22.59839,1.37346,406.2576],[22.58677,1.38782,407.9394],[22.57979,1.39464,408.6511],[22.57374,1.39937,407.4638],[22.56517,1.40449,403.2085],[22.56098,1.40852,402.7332],[22.54284,1.4304,384.2245],[22.53462,1.43599,388.4583],[22.50698,1.44919,382.4703],[22.50341,1.45167,379.1347],[22.49256,1.46206,388.174],[22.48806,1.46446,380.3336],[22.48264,1.46547,378.3838],[22.47117,1.46578,391.8951],[22.46605,1.46709,389.668],[22.46124,1.46888,387.4965],[22.45148,1.4741,384.3603],[22.44631,1.4782,388.0916],[22.43964,1.48472,384.9735],[22.43406,1.4882,372.8655],[22.42755,1.48968,379.3505],[22.41592,1.49053,374.3588],[22.40135,1.49572,375.6648],[22.39701,1.49681,372.5569],[22.39386,1.49696,378.3083],[22.38502,1.49634,390.166],[22.38177,1.4965,389.4766],[22.37758,1.49735,385.2841],[22.36564,1.50397,382.2372],[22.36316,1.50435,381.9308],[22.35929,1.50397,365.9849],[22.35293,1.50099,373.5349],[22.35185,1.50037,381.641],[22.34952,1.49944,384.937],[22.34719,1.49877,380.6549],[22.34513,1.49851,382.7316],[22.34347,1.49867,382.5167],[22.33009,1.50319,382.8701],[22.32575,1.50428,375.2636],[22.3228,1.50443,377.2741],[22.2966,1.50032,387.1956],[22.29474,1.50048,386.1279],[22.29319,1.50179,389.7798],[22.28994,1.5059,396.639],[22.29087,1.51342,372.5216],[22.29366,1.5235,373.8658],[22.29846,1.53438,381.5118],[22.30482,1.54585,386.1431],[22.31288,1.55758,412.8182],[22.3349,1.57928,475.5032],[22.40802,1.62561,446.8094],[22.43313,1.64695,480.8891],[22.45613,1.67039,476.9005],[22.46512,1.68202,472.7932],[22.4721,1.69442,445.4482],[22.47783,1.70723,485.0681],[22.48667,1.73416,439.4019],[22.51101,1.89717,429.7716],[22.51788,1.91702,378.9653],[22.57979,2.033,363.1102],[22.58181,2.0445,364.7559],[22.58243,2.05925,347.0492],[22.57529,2.08561,344.5],[22.57421,2.09874,344.5],[22.57607,2.11013,344.5],[22.58491,2.11636,359.2938],[22.59591,2.11718,351.2356],[22.60909,2.11385,344.5],[22.6524,2.09548,351.25],[22.65844,2.09184,351.9623],[22.6648,2.08669,362.8508],[22.67146,2.07832,353.6294],[22.69089,2.04659,345.0],[22.69834,2.03768,356.9414],[22.70376,2.03326,356.6531],[22.70702,2.03156,360.8039],[22.70965,2.03156,358.8074],[22.71368,2.03218,356.8475],[22.71911,2.03238,362.2082],[22.72469,2.03176,355.5891],[22.72981,2.03037,360.2597],[22.73435,2.02796,356.3719],[22.73823,2.02502,360.4598],[22.7449,2.01804,358.8223],[22.74862,2.01494,358.7612],[22.75234,2.01246,361.0844],[22.75637,2.01122,358.387],[22.75885,2.01107,353.54],[22.76241,2.01184,355.1241],[22.77234,2.01564,350.2663],[22.78861,2.01913,351.8757],[22.79936,2.02362,360.532],[22.80804,2.02889,349.9469],[22.81254,2.03075,350.8873],[22.81843,2.0314,362.2811],[22.83595,2.03109,368.6052],[22.83921,2.03238,369.8788],[22.84153,2.0344,364.1245],[22.84618,2.04179,363.9453],[22.84928,2.04458,349.2892],[22.85306,2.04566,348.3902],[22.85957,2.04636,360.3383],[22.86143,2.04768,364.428],[22.86344,2.0514,358.1262],[22.86391,2.05636,347.0],[22.86499,2.06096,352.0083],[22.86623,2.06329,347.0],[22.8698,2.06538,362.4342],[22.88034,2.06677,363.0861],[22.8822,2.06755,368.1719],[22.88453,2.06902,348.1548],[22.88654,2.07235,363.3069],[22.88716,2.076,365.9418],[22.8867,2.09036,371.996],[22.88732,2.09571,372.1333],[22.88856,2.09812,371.5125],[22.89197,2.10013,357.1271],[22.89677,2.10091,357.7453],[22.90189,2.10029,347.625],[22.90706,2.09905,353.1107],[22.91248,2.09835,352.7499],[22.91775,2.09889,370.012],[22.92209,2.10122,371.2457],[22.92566,2.10432,370.7382],[22.93434,2.11517,371.7648],[22.9362,2.12,372.4553],[22.93667,2.12581,369.7319],[22.93512,2.13876,366.9221],[22.93574,2.14561,349.0],[22.93682,2.14933,366.0656],[22.94519,2.15382,359.2066],[22.94783,2.15584,350.1396],[22.94985,2.15669,354.6378],[22.95372,2.15762,361.6989],[22.964,2.15692,360.5914],[22.96881,2.15739,354.9177],[22.9716,2.16049,369.902],[22.97253,2.16444,370.6744],[22.97207,2.17336,351.1171],[22.97238,2.17951,358.493],[22.97439,2.18268,358.6267],[22.97749,2.18392,349.5],[22.98261,2.18346,358.9072],[22.98772,2.18098,366.9414],[22.99268,2.17695,369.6241],[23.05506,2.11028,378.1143],[23.06684,2.10207,378.6993],[23.07867,2.09726,392.3569],[23.09139,2.09594,407.876],[23.10518,2.09773,397.7717],[23.12989,2.10835,399.5112],[23.22513,2.16491,438.7218],[23.33049,2.2442,418.2389],[23.34321,2.24917,395.5871],[23.35468,2.25048,401.0755],[23.51002,2.22317,451.0941],[23.53348,2.21658,438.7014],[23.59384,2.1895,427.712],[23.60515,2.18617,440.3351],[23.61647,2.18408,444.4562],[23.62846,2.18354,431.5657],[23.63869,2.18648,433.0082],[23.64691,2.19493,407.4553],[23.64784,2.21395,449.9474],[23.63916,2.28586,501.6826],[23.63311,2.31045,518.8863],[23.62531,2.32963,539.6951],[23.61492,2.34001,548.0583],[23.54201,2.39301,536.6979],[23.44702,2.43732,473.8212],[23.42237,2.45391,444.5927],[23.40935,2.46579,399.3562],[23.3907,2.48869,390.2072],[23.38264,2.50093,386.9252],[23.3786,2.50566,380.8404],[23.37023,2.51383,381.9564],[23.36,2.52204,383.3783],[23.34899,2.52848,380.802],[23.34135,2.53165,357.0],[23.33158,2.53406,424.8717],[23.31034,2.53507,429.3214],[23.29391,2.53344,484.2481],[23.15112,2.50341,484.642],[23.13841,2.50287,525.182],[23.1271,2.50357,483.1756],[23.1165,2.50551,460.7833],[23.09976,2.51111,475.1791],[23.08891,2.51615,487.5247],[23.07712,2.52313,466.0771],[23.06405,2.53258,483.0855],[23.03894,2.55811,409.0594],[22.98261,2.62943,522.5288],[22.96897,2.65309,537.2307],[22.96431,2.66953,522.2328],[22.96555,2.68382,506.3764],[22.9716,2.69599,550.9216],[22.99346,2.73167,530.7654],[22.99625,2.74913,522.7271],[22.98524,2.83789,514.4577],[22.98602,2.85745,483.5889],[22.98974,2.86853,447.4561],[22.99579,2.87902,408.6199],[23.01444,2.90463,508.4704],[23.02002,2.91633,473.2647],[23.0239,2.92781,463.6903],[23.02746,2.96429,544.2311],[23.03056,2.977,549.7775],[23.03506,2.98873,538.6852],[23.06358,3.04607,485.3665],[23.07464,3.07733,548.7338],[23.07821,3.09431,524.7414],[23.07991,3.1127,517.2967],[23.07821,3.13893,483.1537],[23.07139,3.1549,464.5351],[23.06141,3.16616,472.0007],[23.05025,3.17066,525.1207],[23.03847,3.17198,550.2988],[23.02607,3.17035,567.8433],[23.01475,3.16709,544.5962],[23.00431,3.16268,548.5929],[22.99734,3.15864,553.1801],[22.97641,3.14265,564.3375],[22.95419,3.12232,575.0054],[22.87429,3.02325,571.6202],[22.85554,3.00509,571.1442],[22.85026,3.00106,570.7382],[22.84577,2.99858,555.4482],[22.83766,2.99563,544.4806],[22.82789,2.99493,545.1887],[22.81797,2.99641,543.6177],[22.81161,2.9992,557.0037],[22.80649,3.00408,562.736],[22.79967,3.0131,563.2265],[22.7883,3.03279,558.8989],[22.78319,3.04793,560.4791],[22.78009,3.06343,565.8959],[22.77947,3.08896,563.3974],[22.79766,3.20526,522.3604],[22.79781,3.22396,548.1781],[22.79409,3.25096,527.8316],[22.78644,3.26766,497.3766],[22.77606,3.28014,448.4628],[22.76458,3.28734,468.4754],[22.75327,3.29285,484.611],[22.72996,3.30008,521.6774],[22.67968,3.30946,511.0873],[22.6679,3.31326,515.6573],[22.65565,3.31985,528.0243],[22.6434,3.33018,547.1935],[22.63162,3.34778,540.0592],[22.62759,3.36501,541.6959],[22.62744,3.38605,538.7208],[22.63395,3.40232,535.3044],[22.64154,3.41646,507.6726],[22.651,3.427,516.2672],[22.65844,3.43741,536.2534],[22.66821,3.44609,549.4957],[22.67865,3.45284,551.7526],[22.77621,3.48612,470.2376],[22.85088,3.50452,543.5571],[22.86329,3.50917,566.562],[22.89088,3.52407,566.3447],[22.90437,3.53345,547.5293],[22.91682,3.54059,542.8229],[22.92907,3.54415,513.5083],[22.96928,3.5364,556.7471],[22.98695,3.53524,501.3371],[22.9978,3.53578,502.1303],[23.00648,3.5371,531.8666],[23.01609,3.54004,557.4876],[23.03785,3.5496,562.5637],[23.04963,3.55766,550.1677],[23.13733,3.65192,497.9077],[23.15981,3.66947,485.9428],[23.17128,3.67497,511.019],[23.1828,3.67551,523.9958],[23.19427,3.67226,490.1841],[23.20652,3.66451,478.1704],[23.21784,3.65456,494.6671],[23.23009,3.64572,470.8247],[23.24254,3.64154,475.1117],[23.25448,3.64022,497.3743],[23.27742,3.64161,480.4582],[23.28905,3.64084,473.5536],[23.30088,3.63867,464.7578],[23.31298,3.63316,465.3991],[23.33375,3.61585,463.558],[23.34522,3.61136,460.9595],[23.3569,3.6119,456.9099],[23.36961,3.61725,474.2262],[23.38139,3.62531,481.7967],[23.3924,3.63681,521.1888],[23.43137,3.6883,543.9389],[23.44191,3.69972,534.0422],[23.47545,3.72773,513.2634],[23.48521,3.73835,504.7034],[23.49203,3.74861,522.6891],[23.49731,3.75822,520.0609],[23.50382,3.7746,498.3097],[23.51064,3.80122,493.1507],[23.51219,3.81687,488.4564],[23.51002,3.82145,460.5],[23.50273,3.823,470.3159],[23.49265,3.82036,460.0],[23.48196,3.81928,459.5],[23.47064,3.81974,478.7172],[23.43106,3.83015,462.3388],[23.42594,3.83062,462.5396],[23.40842,3.83752,467.1255],[23.39147,3.83062,457.0],[23.37302,3.81943,490.6961],[23.35085,3.81354,477.1491],[23.34548,3.81571,467.4584],[23.34042,3.82036,468.1949],[23.33375,3.82501,478.7237],[23.31489,3.82829,511.3978],[23.30016,3.83294,525.0986],[23.28905,3.83403,475.8008],[23.27262,3.83938,443.0],[23.24202,3.86281,451.4303],[23.21582,3.87134,438.5],[23.2042,3.88547,467.8589],[23.19288,3.88865,458.2238],[23.18012,3.88857,469.2414],[23.17045,3.88958,468.8015],[23.16105,3.89361,453.1235],[23.14911,3.90229,441.1951],[23.13412,3.89462,458.7854],[23.11852,3.89051,459.5264],[23.08395,3.88865,463.6148],[23.07242,3.88555,463.5832],[23.03925,3.86072,455.6919],[23.00602,3.88261,447.426],[22.98602,3.88927,462.1136],[22.97718,3.8787,455.4987],[22.90892,3.85449,421.477],[22.8867,3.85537,408.5],[22.83967,3.86591,405.0],[22.83564,3.87266,405.0],[22.80339,3.88452,437.0313],[22.7911,3.89129,467.2262],[22.77885,3.90183,443.4101],[22.76753,3.9179,458.8735],[22.75497,3.98268,506.0836],[22.7466,3.9881,508.6507],[22.73632,3.98942,517.3961],[22.71322,3.98989,506.8878],[22.70144,3.99306,468.3283],[22.69136,3.99681,496.0946],[22.68578,3.99983,485.6787],[22.56269,4.09975,428.2648],[22.54672,4.10916,433.8727],[22.53633,4.11319,424.1089],[22.49427,4.12272,412.5771],[22.47458,4.13171,403.6422],[22.45375,4.14484,402.1888],[22.45153,4.14667,405.8137],[22.43184,4.13856,400.3564],[22.42264,4.13479,397.5229],[22.30327,4.12872,396.2694],[22.20725,4.15032,392.8456],[22.18472,4.1646,401.3266],[22.16188,4.17318,394.5874],[22.15165,4.17946,393.5734],[22.13305,4.19866,390.0],[22.12788,4.20308,391.7075],[22.10845,4.20985,390.0],[22.05781,4.21954,389.5],[22.03661,4.22944,389.5],[22.00892,4.24238,389.0],[22.00148,4.24465,389.0],[21.98959,4.24424,389.0],[21.98453,4.24295,389.0],[21.98029,4.24062,388.5],[21.97078,4.23718,388.5],[21.94991,4.23346,388.5],[21.89161,4.23718,389.9102],[21.86774,4.24155,395.8914],[21.85193,4.25168,387.0],[21.83808,4.26326,386.5],[21.81989,4.27194,387.6113],[21.811,4.27318,386.5],[21.78206,4.27194,404.126],[21.771,4.27349,392.0895],[21.76604,4.27721,385.5],[21.76325,4.28168,387.7458],[21.7585,4.28561,385.5],[21.73731,4.29338,419.0174],[21.72294,4.29514,412.1087],[21.68894,4.29245,421.4615],[21.65111,4.29566,440.7789],[21.63416,4.29421,385.8555],[21.53815,4.24465,392.8922],[21.52781,4.24925,382.6455],[21.50807,4.24941,423.1712],[21.49722,4.25147,409.2526],[21.48988,4.25625,381.5],[21.48244,4.26313,381.5],[21.47314,4.2693,381.5],[21.46022,4.27194,381.9018],[21.41691,4.27008,380.5],[21.39769,4.27163,380.5],[21.37485,4.27816,380.0],[21.35831,4.28555,379.5],[21.31036,4.31609,379.0],[21.3055,4.32315,379.0],[21.29889,4.33023,378.5],[21.28834,4.33338,389.6983],[21.27532,4.33253,401.1465],[21.26592,4.33007,398.3789],[21.25837,4.32599,414.7892],[21.25072,4.32036,385.6458],[21.24463,4.31377,377.5],[21.23915,4.3056,377.5],[21.23243,4.29783,377.5],[21.22344,4.29245,377.5],[21.21093,4.29157,377.0],[21.20297,4.29664,377.0],[21.19574,4.30292,377.0],[21.18561,4.30607,385.9656],[21.16556,4.30715,382.7075],[21.15812,4.3102,379.8245],[21.15006,4.32671,376.5],[21.13797,4.33268,376.0],[21.11357,4.34085,376.0],[21.10345,4.35328,376.0],[21.08422,4.38823,375.5],[21.07606,4.39547,375.5],[21.05962,4.3986,392.0251],[20.96351,4.43374,388.6536],[20.87152,4.45337,379.4034],[20.83235,4.45069,376.6293],[20.81871,4.44353,381.121],[20.80703,4.43425,373.5],[20.79184,4.42619,373.5],[20.76786,4.42278,373.5],[20.68838,4.42278,373.0],[20.60311,4.40973,372.5],[20.58027,4.415,372.5],[20.55981,4.42836,372.0],[20.45671,4.52482,373.1619],[20.45232,4.52892,373.2619],[20.44209,4.5505,374.4603],[20.44705,4.56967,371.0],[20.45718,4.58644,371.0],[20.46307,4.60093,370.5],[20.45646,4.6215,370.0],[20.44023,4.64411,370.0],[20.42059,4.66235,369.5],[20.40375,4.66985,369.8732],[20.39548,4.67711,370.7491],[20.37367,4.72444,383.5008],[20.35403,4.7554,373.2826],[20.33894,4.77191,368.5],[20.32251,4.77906,377.1158],[20.30174,4.78165,368.8268],[20.25481,4.79712,367.5],[20.23662,4.80635,367.5],[20.21719,4.82245,367.5],[20.17172,4.87836,379.2351],[20.1526,4.89068,366.5],[20.08635,4.91626,366.0],[20.05462,4.93781,365.5],[20.03106,4.95799,365.5],[20.00398,4.97448,365.0],[19.9154,4.99311,362.5],[19.89091,5.00212,362.0],[19.88037,5.01553,361.5],[19.87551,5.03106,366.1559],[19.85816,5.06031,361.0]]]}}