{"type":"Feature","properties":{"GID_2":"COD.11.13_1","GID_0":"COD","country":"DemocraticRepublicoftheCongo","GID_1":"COD.11_1","province":"Kongo-Central","NL_NAME_1":"NA","county":"Mbanza-Ngungu(ville)","VARNAME_2":"NA","NL_NAME_2":"NA","TYPE_2":"Ville","ENGTYPE_2":"Town","CC_2":"NA","HASC_2":"NA","name":"Mbanza-Ngungu(ville).county"},
"geometry":{"type": "MultiPolygon","coordinates": [[[[14.8409,-5.2136,601.9625],[14.8326,-5.2226,700.4142],[14.8314,-5.236,716.9752],[14.8329,-5.2574,698.4128],[14.8365,-5.2675,742.2112],[14.8552,-5.2774,689.9056],[14.8754,-5.2804,695.5364],[14.8894,-5.2777,662.4081],[14.9015,-5.2702,602.153],[14.911,-5.2673,581.3662],[14.9143,-5.2577,580.2103],[14.9125,-5.2503,581.6841],[14.9042,-5.244,588.819],[14.9024,-5.2342,588.4482],[14.8995,-5.2294,589.5237],[14.8813,-5.2214,583.3679],[14.8739,-5.2107,576.424],[14.868,-5.2095,579.6268],[14.8513,-5.2104,574.8181],[14.8409,-5.2136,601.9625]]]]}}