{"type":"Feature","properties":{"GID_2":"COD.24.8_1","GID_0":"COD","country":"DemocraticRepublicoftheCongo","GID_1":"COD.24_1","province":"Tanganyika","NL_NAME_1":"NA","county":"Manono(ville)","VARNAME_2":"NA","NL_NAME_2":"NA","TYPE_2":"Ville","ENGTYPE_2":"Town","CC_2":"NA","HASC_2":"NA","name":"Manono(ville).county"},
"geometry":{"type": "MultiPolygon","coordinates": [[[[27.4665,-7.3433,642.7854],[27.4812,-7.3332,680.2952],[27.4913,-7.3186,643.2916],[27.507,-7.3017,690.5133],[27.5104,-7.2804,654.7443],[27.5104,-7.268,697.0618],[27.5025,-7.2444,696.7872],[27.4924,-7.2287,668.6145],[27.48,-7.2175,646.7474],[27.462,-7.2141,611.8267],[27.4395,-7.213,594.6371],[27.4214,-7.208,615.2706],[27.4096,-7.2137,613.597],[27.3945,-7.2422,620.2225],[27.3755,-7.2521,622.4001],[27.3653,-7.2892,619.5337],[27.3653,-7.3073,622.5093],[27.372,-7.3264,649.8307],[27.3844,-7.3376,673.2554],[27.39,-7.3399,676.5076],[27.4485,-7.3545,611.8593],[27.4665,-7.3433,642.7854]]]]}}