{"type":"Feature","properties":{"GID_1":"COD.7_1","GID_0":"COD","country":"DemocraticRepublicoftheCongo","province":"Kasaï-Central","VARNAME_1":"NA","NL_NAME_1":"NA","TYPE_1":"Province","ENGTYPE_1":"Province","CC_1":"NA","HASC_1":"CD.LL","ISO_1":"NA","name":"Kasaï-Central.province"},
"geometry":{"type": "MultiPolygon","coordinates": [[[[21.8445,-7.6087,748.68],[21.8368,-7.6175,756.6272],[21.8282,-7.6222,777.2496],[21.8294,-7.6372,758.3983],[21.8351,-7.6591,768.2739],[21.8394,-7.6638,786.9337],[21.8734,-7.6764,785.7443],[21.9286,-7.6811,864.3044],[21.9409,-7.684,910.1127],[21.97,-7.7033,881.4629],[21.9947,-7.6916,844.3343],[21.9948,-7.6881,852.1555],[22.0024,-7.6764,837.5175],[22.0024,-7.6721,833.1683],[22.0237,-7.675,882.7229],[22.0335,-7.6826,878.8083],[22.0388,-7.6968,858.799],[22.0425,-7.7217,916.4977],[22.0526,-7.7345,903.4145],[22.0666,-7.7474,921.1414],[22.1322,-7.8285,945.1728],[22.1437,-7.8527,941.2466],[22.152,-7.8619,968.0117],[22.1605,-7.8661,967.4211],[22.1633,-7.8702,967.5143],[22.1651,-7.8814,977.4411],[22.1891,-7.8821,986.2466],[22.2536,-7.874,886.8534],[22.2911,-7.8712,903.7463],[22.3298,-7.8591,860.3259],[22.3485,-7.8513,877.3953],[22.4101,-7.8165,942.5098],[22.4213,-7.8045,925.9639],[22.427,-7.8063,909.2726],[22.4326,-7.8169,911.5044],[22.4328,-7.8215,914.0092],[22.4469,-7.8304,928.468],[22.4732,-7.8438,934.0738],[22.4854,-7.8475,947.3666],[22.4966,-7.8449,922.3859],[22.5219,-7.8201,863.2591],[22.5245,-7.8024,844.1535],[22.5427,-7.7816,841.5166],[22.5453,-7.7747,844.1017],[22.5538,-7.7653,818.1917],[22.5598,-7.761,817.5756],[22.5709,-7.7566,823.3093],[22.5817,-7.7558,815.4075],[22.5916,-7.7521,821.1457],[22.6002,-7.7446,813.2011],[22.608,-7.743,797.9612],[22.6055,-7.7375,793.4482],[22.5997,-7.7363,792.947],[22.6043,-7.7331,794.7336],[22.6094,-7.7326,798.5283],[22.6108,-7.7345,800.433],[22.611,-7.7416,796.0688],[22.6168,-7.7434,805.1345],[22.6246,-7.7513,800.546],[22.6315,-7.7531,807.7145],[22.637,-7.7605,803.874],[22.6455,-7.7646,802.3646],[22.6517,-7.7754,800.5092],[22.651,-7.7791,800.9235],[22.6427,-7.7851,804.0796],[22.647,-7.7954,803.1354],[22.6449,-7.803,803.0413],[22.6472,-7.8117,806.2071],[22.6449,-7.8158,807.5],[22.6465,-7.8234,802.9108],[22.6495,-7.8271,805.8466],[22.6569,-7.8292,806.1841],[22.6637,-7.8368,821.9088],[22.6711,-7.8508,807.4427],[22.6755,-7.8517,822.9811],[22.6771,-7.8554,807.5183],[22.675,-7.8593,806.7233],[22.6665,-7.8666,831.6458],[22.6662,-7.8802,808.7827],[22.6611,-7.896,809.2541],[22.6877,-7.8822,824.832],[22.7194,-7.8596,887.3768],[22.7664,-7.8177,872.1029],[22.7738,-7.8176,921.7709],[22.7775,-7.8214,897.7468],[22.7988,-7.8197,951.4564],[22.8172,-7.8226,930.6008],[22.8349,-7.8301,939.8293],[22.8923,-7.8634,983.8694],[22.9173,-7.8816,998.6652],[22.9409,-7.8883,1008.9708],[22.9637,-7.872,1013.5618],[22.9843,-7.8648,1015.697],[23.0004,-7.8708,993.8159],[23.0453,-7.865,948.2795],[23.0703,-7.8733,946.761],[23.084,-7.8749,924.8848],[23.0916,-7.8508,916.0116],[23.1034,-7.8265,912.9758],[23.1209,-7.8119,912.5941],[23.1507,-7.7766,886.58989999999994],[23.1668,-7.7725,897.9082],[23.1705,-7.7695,888.95],[23.185,-7.7688,867.6089],[23.1838,-7.7601,870.2038],[23.1862,-7.7544,875.1814],[23.1933,-7.7496,870.3456],[23.2037,-7.7296,873.3523],[23.2069,-7.7174,869.4445],[23.2109,-7.7145,865.6215],[23.2139,-7.7062,863.8358],[23.2185,-7.7025,862.1279],[23.2196,-7.6964,872.6226],[23.2127,-7.6943,871.3413],[23.2111,-7.692,868.3746],[23.2132,-7.6894,862.9527],[23.2164,-7.689,865.3704],[23.2134,-7.6823,867.7434],[23.2148,-7.6793,870.7832],[23.2199,-7.6768,871.1407],[23.219,-7.6695,872.2239],[23.2254,-7.667,875.2422],[23.2294,-7.6566,876.5687],[23.228,-7.6488,878.4567],[23.2296,-7.6452,864.7234],[23.2262,-7.6392,876.3371],[23.2273,-7.6346,876.0975],[23.2264,-7.6305,860.0543],[23.22,-7.6249,879.007],[23.2195,-7.6226,884.656],[23.2227,-7.6181,869.4733],[23.2209,-7.6105,871.9219],[23.2251,-7.6008,873.7587],[23.2193,-7.5985,873.5912],[23.2184,-7.5916,897.0605],[23.2191,-7.588,905.5139],[23.2249,-7.5822,877.6377],[23.2235,-7.5779,885.3884],[23.2276,-7.5733,864.442],[23.2283,-7.5701,867.7091],[23.2189,-7.5584,877.2917],[23.2198,-7.5528,863.5411],[23.2187,-7.5501,868.6342],[23.2143,-7.5473,853.2891],[23.2148,-7.5414,847.2137],[23.2095,-7.5386,850.9576],[23.2086,-7.5358,844.6391],[23.2121,-7.5182,854.2877],[23.2077,-7.5133,870.241],[23.2077,-7.5113,863.2906],[23.2142,-7.511,863.9849],[23.2142,-7.5062,883.6954],[23.2204,-7.5012,853.4744],[23.2275,-7.5028,851.537],[23.2296,-7.5003,868.0183],[23.2319,-7.4948,867.2197],[23.2361,-7.4911,843.0146],[23.2344,-7.4867,844.2782],[23.2393,-7.4778,842.7933],[23.243,-7.4773,843.7505],[23.2453,-7.4746,838.4123],[23.2439,-7.4714,842.5291],[23.2448,-7.4665,860.2261],[23.2504,-7.4624,849.6033],[23.2545,-7.4505,836.138],[23.2465,-7.4372,846.4068],[23.2451,-7.4323,841.9307],[23.2465,-7.4277,840.3466],[23.2449,-7.425,848.6588],[23.2412,-7.425,840.649],[23.2403,-7.4286,835.4609],[23.2373,-7.4279,843.3298],[23.2323,-7.4137,851.2131],[23.2392,-7.4041,834.0564],[23.236,-7.3995,849.9077],[23.2452,-7.3944,835.2009],[23.2452,-7.3917,835.0231],[23.2496,-7.385,834.8154],[23.2491,-7.3795,838.6243],[23.2546,-7.3699,836.0184],[23.2558,-7.3644,831.373],[23.2475,-7.3575,841.6577],[23.2494,-7.3464,836.6738],[23.2475,-7.3441,831.5547],[23.2381,-7.3439,834.9261],[23.2264,-7.337,840.0933],[23.2296,-7.3273,847.334],[23.2273,-7.3209,852.8032],[23.2315,-7.3113,834.3664],[23.2347,-7.2892,836.6412],[23.2357,-7.2568,843.0785],[23.2394,-7.2497,829.272],[23.2387,-7.247,830.0135],[23.232,-7.2529,831.8441],[23.2307,-7.2511,833.3494],[23.2374,-7.2295,828.5942],[23.2335,-7.2279,831.5456],[23.2351,-7.2189,828.4556],[23.2339,-7.2139,832.7128],[23.2374,-7.2084,835.5079],[23.2326,-7.2035,828.8884],[23.231,-7.1959,827.2866],[23.2314,-7.184,829.0008],[23.2349,-7.1721,827.5427],[23.2319,-7.17,827.7463],[23.219,-7.1693,831.1071],[23.2144,-7.167,831.7155],[23.2165,-7.1635,830.7753],[23.2145,-7.1612,834.4161],[23.2163,-7.1592,835.7777],[23.2161,-7.1514,824.2225],[23.2198,-7.1332,834.6417],[23.223,-7.1291,821.3113],[23.2228,-7.1169,833.9529],[23.2251,-7.1144,846.4564],[23.2286,-7.1139,847.4752],[23.2311,-7.1082,842.9688],[23.2318,-7.102,824.4812],[23.2272,-7.1004,827.8522],[23.2275,-7.0936,826.1414],[23.2304,-7.0834,822.994],[23.2291,-7.0788,824.0352],[23.2323,-7.0747,819.1621],[23.2312,-7.0703,819.0385],[23.2353,-7.0627,818.5911],[23.2335,-7.0597,820.7171],[23.2441,-7.054,816.7929],[23.2411,-7.051,820.6749],[23.2478,-7.045,822.1847],[23.254,-7.0492,816.5256],[23.2554,-7.0407,820.5394],[23.2602,-7.0425,817.7303],[23.2615,-7.04,822.0728],[23.2591,-7.0301,815.9398],[23.26,-7.0258,815.678],[23.2519,-7.0207,818.3535],[23.2547,-7.0173,817.8922],[23.2513,-7.0147,816.3871],[23.2513,-7.0115,816.2631],[23.2471,-7.0106,817.6855],[23.2467,-7.008,823.8352],[23.2515,-7.0005,815.6854],[23.2494,-6.9927,824.8945],[23.2511,-6.9904,817.8065],[23.258,-6.9888,814.6736],[23.263,-6.9768,815.2282],[23.2702,-6.9748,815.5123],[23.2647,-6.9704,814.4011],[23.2651,-6.9674,814.4355],[23.2718,-6.9628,814.0136],[23.2737,-6.9585,813.8445],[23.2716,-6.9493,815.4297],[23.2801,-6.936,815.2194],[23.2758,-6.9346,815.5256],[23.2709,-6.938,816.0277],[23.2691,-6.9362,814.2498],[23.2783,-6.9226,812.7253],[23.279,-6.9201,811.6385],[23.2765,-6.9171,826.2784],[23.2772,-6.9153,832.7537],[23.2614,-6.9123,870.4039],[23.2363,-6.913,870.0914],[23.2284,-6.9183,845.5823],[23.2203,-6.9174,867.0993],[23.2061,-6.9096,886.6415],[23.1831,-6.9058,924.5221],[23.1793,-6.9027,901.7109],[23.1776,-6.8935,890.7629],[23.1743,-6.8901,876.933],[23.1678,-6.8878,854.2585],[23.1624,-6.8837,848.8607],[23.1587,-6.8788,846.5062],[23.1559,-6.8678,859.0833],[23.1488,-6.861,865.374],[23.1407,-6.8577,851.241],[23.1235,-6.8579,823.4697],[23.1035,-6.8561,863.5219],[23.094,-6.8539,883.1487],[23.0846,-6.8494,893.6136],[23.0758,-6.8418,872.6496],[23.0694,-6.8332,856.7458],[23.0637,-6.8155,848.6115],[23.0505,-6.7943,820.8972],[23.0388,-6.7836,798.1594],[23.0246,-6.776,790.0905],[23.0211,-6.7705,790.9083],[23.02,-6.7666,789.2027],[23.0299,-6.7514,786.677],[23.0334,-6.7422,789.1968],[23.0385,-6.7349,791.6141],[23.0461,-6.7282,791.4877],[23.0578,-6.7101,784.7239],[23.0613,-6.6913,790.2774],[23.074,-6.6623,776.2126],[23.0722,-6.6527,783.8716],[23.0777,-6.643,775.9582],[23.0734,-6.6354,775.7354],[23.0925,-6.6134,770.4184],[23.0932,-6.6107,770.4664],[23.0909,-6.6061,783.4478],[23.0923,-6.6003,767.0342],[23.0891,-6.5943,770.4878],[23.0914,-6.5854,758.2874],[23.09,-6.5805,762.9001],[23.1041,-6.5557,752.8459],[23.1004,-6.5507,725.9089],[23.1014,-6.5385,734.8368],[23.1129,-6.5231,735.5101],[23.1255,-6.5105,717.2911],[23.1272,-6.5038,713.6815],[23.1269,-6.4905,734.757],[23.1369,-6.4758,717.5851],[23.1399,-6.4584,716.4926],[23.1362,-6.4554,740.5659],[23.1422,-6.4446,704.5627],[23.1413,-6.4397,707.787],[23.1316,-6.431,726.5586],[23.1342,-6.4179,728.3571],[23.1358,-6.4172,728.3571],[23.1404,-6.4195,719.8263],[23.1441,-6.4165,707.5216],[23.1475,-6.4168,704.567],[23.1494,-6.4152,720.1941],[23.1487,-6.4122,714.2646],[23.1423,-6.4089,719.4666],[23.14,-6.4048,712.5183],[23.1411,-6.3997,701.5764],[23.1398,-6.3931,701.538],[23.1331,-6.3845,747.6892],[23.1372,-6.3832,741.0378],[23.14,-6.3846,719.959],[23.1416,-6.379,732.7386],[23.149,-6.3798,700.4014],[23.1499,-6.3772,701.9031],[23.1442,-6.368,708.2496],[23.1462,-6.3614,699.164],[23.1419,-6.3611,708.7216],[23.1412,-6.3593,719.4108],[23.1292,-6.353,717.5573],[23.1161,-6.3523,725.3682],[23.1072,-6.3475,742.6502],[23.0998,-6.347,738.3785],[23.0943,-6.3495,762.2576],[23.0858,-6.3565,755.8175],[23.0826,-6.3564,752.5847],[23.0772,-6.3538,766.8948],[23.0712,-6.3481,763.0794],[23.0675,-6.3317,776.5973],[23.0644,-6.2932,740.3439],[23.0538,-6.2541,713.4465],[23.0602,-6.2488,708.9121],[23.0662,-6.2299,696.6282],[23.0674,-6.2102,708.6936],[23.0722,-6.2081,695.5659],[23.0835,-6.1934,677.3109],[23.0831,-6.1906,690.2189],[23.0685,-6.1814,705.293],[23.0418,-6.1735,755.7585],[23.02,-6.172,751.5989],[23.0138,-6.1701,776.9033],[23.0086,-6.1658,707.2255],[23.0053,-6.1607,756.2245],[23.0042,-6.1528,706.5427],[23.004,-6.1266,692.0188],[23.0101,-6.1031,669.535],[22.9959,-6.0915,694.4883],[22.9718,-6.0809,754.4019],[22.9642,-6.0756,756.3809],[22.956,-6.0651,778.1355],[22.9546,-6.054,766.3656],[22.9553,-6.0441,737.7662],[22.9754,-6.0285,746.3884],[22.9763,-6.0253,744.4104],[22.974,-6.0189,725.7714],[22.9632,-6.0058,724.7521],[22.9586,-5.9917,716.1649],[22.9518,-5.9827,713.6644],[22.9486,-5.948,699.036],[22.9542,-5.9361,691.6047],[22.9659,-5.9225,714.4807],[22.9864,-5.8908,712.4165],[22.9878,-5.8865,676.7749],[22.9864,-5.8819,691.1068],[22.9782,-5.8692,664.5419],[22.9669,-5.8607,661.4823],[22.9502,-5.8412,667.9552],[22.9524,-5.8257,665.9171],[22.9664,-5.7978,732.3466],[22.9747,-5.7868,705.0933],[22.9765,-5.7821,721.0624],[22.9805,-5.7797,723.4711],[23.0069,-5.7784,658.2018],[23.0347,-5.7747,688.2944],[23.065,-5.7743,668.4001],[23.0729,-5.7729,627.7828],[23.0779,-5.7701,622.0037],[23.0826,-5.7601,673.4154],[23.0837,-5.7502,661.2236],[23.0837,-5.7466,656.9795],[23.075,-5.7403,638.7919],[23.0746,-5.7351,628.259],[23.0786,-5.7297,618.5969],[23.1015,-5.7277,667.8664],[23.205,-5.7384,607.2722],[23.282,-5.7417,538.1854],[23.2908,-5.7403,519.7179],[23.3064,-5.731,515.8228],[23.3207,-5.7257,487.2284],[23.3317,-5.7268,482.4487],[23.3342,-5.7241,486.3743],[23.3531,-5.7252,482.7939],[23.3588,-5.723,481.6968],[23.3657,-5.7241,474.3552],[23.3815,-5.7138,493.0272],[23.3944,-5.7138,480.4013],[23.4024,-5.7078,522.911],[23.4124,-5.7063,503.5738],[23.4264,-5.6966,472.8102],[23.4222,-5.7031,476.8536],[23.4169,-5.7065,492.1375],[23.4158,-5.7097,475.7613],[23.4181,-5.7159,474.7661],[23.4102,-5.7215,469.9973],[23.4096,-5.7233,459.9488],[23.4125,-5.7249,451.3098],[23.4144,-5.7288,469.1356],[23.413,-5.7316,450.5659],[23.4075,-5.7304,474.2405],[23.4006,-5.7338,500.7209],[23.401,-5.7362,465.909],[23.3937,-5.7463,476.0276],[23.3964,-5.7513,472.2712],[23.3922,-5.7545,465.3255],[23.3918,-5.7574,457.8582],[23.3939,-5.7605,461.8699],[23.3884,-5.7683,468.7361],[23.3822,-5.7681,463.0624],[23.3815,-5.7695,463.0624],[23.3946,-5.7833,461.3426],[23.398,-5.7819,473.1779],[23.4069,-5.7725,498.838],[23.4169,-5.7662,496.856],[23.4247,-5.7474,503.5682],[23.4293,-5.7441,512.155],[23.4573,-5.7471,622.291],[23.4723,-5.7455,587.9176],[23.4785,-5.7417,568.7158],[23.4839,-5.7341,566.8884],[23.4917,-5.716,516.649],[23.4984,-5.6945,548.0984],[23.5046,-5.6838,495.5719],[23.5102,-5.6823,488.2335],[23.5196,-5.6828,557.3861],[23.5274,-5.686,545.9327],[23.5389,-5.6862,548.834],[23.5474,-5.681,551.6683],[23.552,-5.6812,560.2371],[23.5619,-5.6835,565.4489],[23.5667,-5.6883,517.0207],[23.5715,-5.6881,559.5208],[23.5768,-5.6916,573.7941],[23.5809,-5.6923,536.6832],[23.5899,-5.6879,596.5245],[23.6117,-5.6592,629.3553],[23.6304,-5.6521,671.5247],[23.638,-5.6434,690.4685],[23.6476,-5.6413,733.5112],[23.6599,-5.641,701.7533],[23.6757,-5.6286,734.5399],[23.7091,-5.6287,687.6262],[23.7457,-5.6341,585.5327],[23.7584,-5.625,507.4828],[23.7535,-5.615,505.2395],[23.7482,-5.6102,555.149],[23.7324,-5.6042,552.2013],[23.7239,-5.5777,580.8936],[23.7189,-5.5713,645.9501],[23.7177,-5.5572,629.6893],[23.7143,-5.5503,618.9814],[23.7182,-5.5416,655.757],[23.7175,-5.5338,654.6451],[23.7205,-5.5216,661.5516],[23.7149,-5.4858,695.2468],[23.7071,-5.4654,672.3987],[23.7032,-5.4379,572.8074],[23.7093,-5.3751,649.5554],[23.7046,-5.3592,653.1383],[23.6944,-5.3549,669.3082],[23.6764,-5.3524,625.2457],[23.6371,-5.3503,639.4172],[23.5466,-5.336,568.6754],[23.5219,-5.3296,590.7222],[23.5039,-5.3209,563.7059],[23.4865,-5.3095,527.5627],[23.4775,-5.3085,543.0648],[23.4516,-5.3104,531.8516],[23.4358,-5.307,470.5111],[23.4381,-5.301,453.6071],[23.4372,-5.2962,438.7458],[23.4328,-5.2992,450.9326],[23.4305,-5.2944,478.8449],[23.4317,-5.2875,481.6557],[23.4262,-5.2764,475.3236],[23.4269,-5.2716,484.4335],[23.4324,-5.2697,446.2224],[23.4317,-5.2674,448.2924],[23.4239,-5.2615,509.2989],[23.4228,-5.2578,511.9828],[23.4276,-5.2483,480.8419],[23.4274,-5.2449,500.3958],[23.4242,-5.2398,511.7634],[23.4205,-5.2396,502.1229],[23.3955,-5.2557,523.5078],[23.3872,-5.2566,499.0044],[23.3826,-5.26,501.7491],[23.3594,-5.2561,492.209],[23.3438,-5.2487,541.6279],[23.3275,-5.2496,551.11],[23.3209,-5.2477,526.3968],[23.3144,-5.2482,569.3681],[23.3057,-5.2516,583.2909],[23.2967,-5.258,562.1215],[23.2853,-5.2624,544.3601],[23.2765,-5.2633,607.5789],[23.2683,-5.269,580.8688],[23.2598,-5.2701,560.5833],[23.2529,-5.2791,554.222],[23.2469,-5.2832,547.3562],[23.2278,-5.2887,611.1465],[23.1968,-5.3006,575.6874],[23.1851,-5.3093,618.3739],[23.175,-5.3012,581.8435],[23.1504,-5.2437,558.9559],[23.1212,-5.2147,525.1958],[23.1117,-5.2089,568.3485],[23.0792,-5.1686,548.6284],[23.0422,-5.1348,574.4844],[23.0265,-5.1165,529.3575],[23.025,-5.108,555.9127],[23.0153,-5.1049,573.0227],[22.9949,-5.0923,544.9299],[22.978,-5.0752,590.2462],[22.9647,-5.0676,588.5664],[22.9606,-5.0637,581.8849],[22.9562,-5.0528,556.241],[22.9512,-5.0457,574.0302],[22.9457,-5.0429,602.5818],[22.9282,-5.0417,582.3307],[22.9138,-5.032,568.8486],[22.9051,-5.0297,588.0501],[22.9121,-5.0092,624.8945],[22.9144,-4.9824,607.5229],[22.926,-4.9635,616.9368],[22.9578,-4.9475,598.914],[22.9747,-4.9318,571.7302],[22.9702,-4.9244,565.4526],[22.9595,-4.9213,568.7537],[22.9336,-4.9233,567.7807],[22.9258,-4.9194,623.6776],[22.9241,-4.9062,586.197],[22.9423,-4.8752,605.2791],[22.9748,-4.8625,568.1963],[23.0401,-4.8415,554.8947],[23.0621,-4.8282,522.8688],[23.0767,-4.8221,543.5562],[23.0891,-4.8184,530.8869],[23.107,-4.8198,507.3931],[23.1161,-4.81,480.4897],[23.1198,-4.8003,514.7615],[23.1226,-4.799,506.5339],[23.1313,-4.7999,523.5015],[23.1359,-4.7942,515.5081],[23.1425,-4.793,481.5537],[23.1483,-4.7939,499.9161],[23.154,-4.7976,530.1041],[23.1606,-4.797,508.2905],[23.1655,-4.8,513.008],[23.1705,-4.799,519.08],[23.1809,-4.7864,499.0505],[23.1877,-4.7848,491.9701],[23.1887,-4.7682,478.1946],[23.1328,-4.6487,492.4332],[23.1009,-4.5617,511.0647],[23.097,-4.5449,504.055],[23.0886,-4.5357,508.0719],[23.0773,-4.535,514.1061],[23.0744,-4.5262,546.1255],[23.0587,-4.5198,532.3112],[23.0267,-4.5153,589.8176],[22.9904,-4.5238,577.8162],[22.9418,-4.5271,571.5927],[22.9192,-4.5264,562.7754],[22.8841,-4.5184,538.1555],[22.8778,-4.5101,497.26369999999997],[22.8721,-4.5055,482.269],[22.8694,-4.5005,497.0737],[22.8332,-4.4792,528.8395],[22.8277,-4.4732,504.4991],[22.8208,-4.4596,488.5898],[22.8186,-4.4474,501.5481],[22.8154,-4.4414,481.4093],[22.811,-4.4368,474.0097],[22.8028,-4.434,488.6054],[22.7877,-4.4131,537.5897],[22.7836,-4.4103,464.0632],[22.7728,-4.4082,533.662],[22.7556,-4.3854,487.3521],[22.7552,-4.3764,538.7848],[22.7506,-4.3713,535.709],[22.7483,-4.3626,524.0688],[22.7259,-4.3478,529.6039],[22.7204,-4.34,547.9318],[22.7149,-4.3374,522.9137],[22.7081,-4.3266,541.291],[22.7032,-4.3261,512.4655],[22.6838,-4.2998,521.4046],[22.6738,-4.2807,505.798],[22.6628,-4.2694,526.384],[22.6477,-4.2638,483.3665],[22.6374,-4.2491,496.4713],[22.6271,-4.2435,503.7412],[22.6083,-4.2428,526.8613],[22.5952,-4.2324,493.9464],[22.5867,-4.2322,492.5322],[22.5824,-4.2287,512.7128],[22.5425,-4.2159,474.2843],[22.5249,-4.1989,441.3492],[22.5212,-4.2258,456.8484],[22.5264,-4.2391,477.3464],[22.528199999999998,-4.2486,437.8001],[22.5284,-4.2631,460.234],[22.5303,-4.2684,442.6229],[22.5284,-4.2737,489.9803],[22.5318,-4.2806,486.6557],[22.5297,-4.2925,482.1595],[22.5348,-4.3052,507.0937],[22.5336,-4.3206,473.9949],[22.5278,-4.3351,519.078],[22.5358,-4.3521,510.4553],[22.5277,-4.3825,539.7914],[22.5299,-4.4103,509.0391],[22.5262,-4.4271,562.2127],[22.5287,-4.4437,568.437],[22.5117,-4.4722,605.0402],[22.4875,-4.4956,540.7663],[22.4779,-4.496,577.6076],[22.4699,-4.5001,565.7252],[22.4613,-4.5082,554.9628],[22.4567,-4.5254,555.8684],[22.453,-4.5286,554.0917],[22.4507,-4.544,553.0122],[22.4468,-4.5528,530.5593],[22.4461,-4.5631,516.2891],[22.4408,-4.5698,478.7541],[22.4421,-4.5769,502.5769],[22.4306,-4.6003,511.3611],[22.4246,-4.6169,509.5026],[22.4244,-4.6213,541.8378],[22.4138,-4.6196,496.2768],[22.4118,-4.6212,502.5802],[22.3982,-4.6233,442.7245],[22.3952,-4.6255,469.0078],[22.3885,-4.638,499.4096],[22.3851,-4.6402,493.5153],[22.3697,-4.6434,432.3324],[22.3651,-4.6423,490.5401],[22.3629,-4.6374,439.1629],[22.3601,-4.6379,499.3542],[22.3555,-4.6337,490.5211],[22.3505,-4.6339,485.8464],[22.344,-4.6378,505.6095],[22.339,-4.6353,504.0305],[22.3287,-4.6392,512.2457],[22.3225,-4.6348,505.2606],[22.3188,-4.6341,513.696],[22.3044,-4.6356,518.5391],[22.2991,-4.6308,444.5255],[22.286,-4.6264,505.3973],[22.2831,-4.6311,466.5179],[22.2789,-4.6488,492.0472],[22.2701,-4.661,466.7713],[22.2563,-4.6684,513.5425],[22.2541,-4.6721,558.8093],[22.2534,-4.684,511.6671],[22.2503,-4.6991,467.3075],[22.2481,-4.7031,460.3697],[22.237,-4.7109,506.5361],[22.2303,-4.712,450.3622],[22.2178,-4.7183,491.6636],[22.2043,-4.7186,449.4721],[22.2019,-4.7218,433.3141],[22.2039,-4.732,472.7722],[22.2098,-4.7331,487.4799],[22.2126,-4.7354,431.9275],[22.218,-4.7504,487.4749],[22.2256,-4.7507,430.064],[22.2265,-4.7564,427.1612],[22.2249,-4.7601,435.2506],[22.2283,-4.7645,433.2855],[22.223,-4.7698,422.1948],[22.2233,-4.7825,425.2249],[22.2062,-4.787,490.0204],[22.2014,-4.7906,471.9521],[22.1917,-4.8023,496.1007],[22.1832,-4.8074,446.5236],[22.1772,-4.8186,500.2678],[22.1717,-4.8227,486.7836],[22.1552,-4.8273,490.5918],[22.1501,-4.8312,463.9536],[22.143,-4.8286,490.9575],[22.1352,-4.8298,517.6854],[22.1265,-4.8359,509.2997],[22.1214,-4.8375,476.4124],[22.1161,-4.8414,508.3451],[22.1111,-4.8513,510.0169],[22.097,-4.8637,530.6607],[22.0894,-4.8733,501.225],[22.0855,-4.8742,540.2397],[22.0793,-4.8832,573.1179],[22.0849,-4.9015,575.7906],[22.0969,-4.908,590.1819],[22.1022,-4.9129,580.0612],[22.1052,-4.9186,558.8802],[22.1006,-4.9454,589.2482],[22.1037,-4.9635,601.6904],[22.1179,-4.971,575.0833],[22.1273,-4.9786,596.246],[22.1245,-4.9896,573.9493],[22.1141,-5.0022,502.6757],[22.1177,-5.0098,496.2113],[22.1182,-5.0202,506.4934],[22.1152,-5.0257,527.1365],[22.1057,-5.0351,535.8341],[22.1027,-5.0425,491.1047],[22.0988,-5.0673,482.3976],[22.0916,-5.0903,491.9622],[22.0881,-5.0933,464.1726],[22.0794,-5.1079,501.0178],[22.0731,-5.1148,476.3888],[22.0467,-5.1279,454.2133],[22.0368,-5.135,454.3315],[22.0347,-5.1382,462.4554],[22.033,-5.1062,463.8208],[22.028199999999998,-5.0873,502.6562],[22.02,-5.07,516.3295],[22.0042,-5.0669,469.8329],[21.9996,-5.0676,469.2213],[21.9867,-5.0743,502.462],[21.9677,-5.0792,498.9234],[21.9396,-5.0809,584.8251],[21.9318,-5.0786,586.0445],[21.9085,-5.0698,518.5978],[21.8726,-5.0526,557.7075],[21.8685,-5.048,538.6174],[21.8682,-5.0424,550.088],[21.8717,-5.0385,543.0255],[21.8825,-5.0344,494.2657],[21.8854,-5.0297,492.8313],[21.8851,-5.0223,571.163],[21.8798,-5.0177,593.7347],[21.8609,-5.0181,601.2707],[21.8518,-5.0153,594.5875],[21.8478,-5.016,583.6099],[21.8389,-5.0243,552.7582],[21.8239,-5.0256,547.5254],[21.82,-5.0341,541.3615],[21.8147,-5.0378,548.3817],[21.8117,-5.0435,493.9709],[21.811,-5.0562,479.8559],[21.8082,-5.0624,480.9681],[21.8093,-5.0716,491.1619],[21.802,-5.0835,506.0568],[21.7879,-5.084,539.3188],[21.7797,-5.0819,540.0741],[21.7585,-5.0744,536.7769],[21.753,-5.07,559.8665],[21.7079,-5.0554,511.0104],[21.7026,-5.054,512.8369],[21.6898,-5.0548,449.9103],[21.6875,-5.0688,439.611],[21.6931,-5.0967,433.5842],[21.6921,-5.1183,429.2567],[21.6898,-5.1296,427.4401],[21.6755,-5.1519,427.5035],[21.662,-5.1891,432.7722],[21.6625,-5.1934,418.2678],[21.6565,-5.2114,446.8182],[21.6376,-5.2327,441.7651],[21.6356,-5.2561,437.3846],[21.6393,-5.2697,412.1515],[21.638,-5.2957,479.4248],[21.6348,-5.3038,435.6039],[21.6244,-5.3108,485.4357],[21.6242,-5.3161,451.9768],[21.6285,-5.3173,419.3698],[21.6416,-5.3256,394.5],[21.6483,-5.3275,406.8477],[21.653199999999998,-5.3239,416.1437],[21.6593,-5.3248,401.0501],[21.6641,-5.3303,415.1476],[21.6636,-5.3407,424.7597],[21.667,-5.3579,425.6565],[21.6564,-5.3719,495.881],[21.6536,-5.3797,440.6531],[21.654,-5.386,489.0897],[21.6588,-5.3928,396.8318],[21.667,-5.3977,400.968],[21.676,-5.3982,453.8468],[21.6829,-5.3953,502.153],[21.6864,-5.3957,518.0342],[21.6903,-5.4146,429.5623],[21.6932,-5.4171,420.6966],[21.7049,-5.4204,440.7471],[21.712,-5.4308,400.7376],[21.7152,-5.4324,399.942],[21.7262,-5.4322,406.8792],[21.7319,-5.4375,399.5322],[21.748,-5.439,441.6668],[21.7544,-5.442,402.6138],[21.759,-5.4473,398.8646],[21.7587,-5.4581,442.5621],[21.7608,-5.4648,405.1761],[21.7666,-5.4682,408.8905],[21.7799,-5.4658,454.5101],[21.7941,-5.4654,440.9799],[21.7987,-5.4633,485.5948],[21.8047,-5.4518,465.04],[21.8207,-5.4519,423.4389],[21.8242,-5.4489,429.5307],[21.8244,-5.4395,400.6567],[21.8199,-5.4313,427.4805],[21.822,-5.4261,488.0207],[21.8296,-5.4199,510.2134],[21.8468,-5.4152,485.187],[21.8461,-5.4198,399.5073],[21.8525,-5.4329,419.1953],[21.8603,-5.4394,419.6444],[21.8616,-5.4444,423.9381],[21.8703,-5.4583,468.9727],[21.8742,-5.4712,448.7755],[21.8786,-5.4777,470.7159],[21.8932,-5.4917,485.2635],[21.9044,-5.498,537.2126],[21.9168,-5.515,505.0103],[21.9257,-5.5206,527.3829],[21.9323,-5.5381,531.6599],[21.9396,-5.5521,543.8677],[21.9403,-5.565,525.4457],[21.9441,-5.5717,521.4498],[21.951,-5.5738,589.0618],[21.9545,-5.5766,567.4869],[21.9611,-5.5883,567.0142],[21.9705,-5.5955,592.7271],[21.9743,-5.6042,533.0076],[21.9773,-5.6284,581.6059],[21.9754,-5.638,589.9526],[21.9675,-5.6569,611.5398],[21.962,-5.6778,614.4862],[21.9603,-5.6936,595.0018],[21.9522,-5.7194,626.5308],[21.9422,-5.7442,632.8684],[21.9365,-5.7517,607.3489],[21.9233,-5.7607,625.5907],[21.9074,-5.7756,611.4043],[21.8959,-5.7928,627.1707],[21.8858,-5.8045,650.77],[21.8809,-5.8134,657.6074],[21.8784,-5.8148,658.6303],[21.8751,-5.8293,641.5948],[21.8783,-5.8431,630.2974],[21.8769,-5.853,643.3875],[21.8782,-5.8589,622.6475],[21.8704,-5.8613,661.7405],[21.841,-5.8644,708.311],[21.8222,-5.8636,630.0895],[21.8126,-5.8507,598.111],[21.7903,-5.8363,652.296],[21.7869,-5.8264,605.5826],[21.7835,-5.8239,631.1191],[21.7812,-5.8161,581.2848],[21.7792,-5.814,603.1754],[21.7732,-5.8133,589.2892],[21.7638,-5.8091,558.4447],[21.7562,-5.8029,556.9692],[21.7517,-5.7916,605.6148],[21.7549,-5.7796,574.1033],[21.751,-5.7771,573.5237],[21.7504,-5.7697,550.8549],[21.7434,-5.7699,587.0539],[21.7188,-5.7891,580.2417],[21.7139,-5.7963,594.7673],[21.6976,-5.8036,651.4633],[21.6903,-5.8215,602.7906],[21.6795,-5.8608,630.6349],[21.6755,-5.8672,618.8624],[21.6668,-5.8731,614.8334],[21.665,-5.8763,605.6719],[21.6638,-5.8947,587.3793],[21.6578,-5.9,556.6368],[21.6483,-5.9156,558.5045],[21.6375,-5.9234,572.5964],[21.632,-5.9337,581.6583],[21.629,-5.9362,561.6622],[21.6214,-5.9378,521.3643],[21.6172,-5.9339,568.0687],[21.6138,-5.9339,538.6156],[21.6115,-5.941,545.9343],[21.6016,-5.9467,574.3706],[21.5965,-5.9589,580.2498],[21.59,-5.965,544.0602],[21.5865,-5.9745,577.6768],[21.5826,-5.9777,550.5734],[21.5814,-6.0004,543.8155],[21.5732,-6.0333,543.4456],[21.5787,-6.043,556.2807],[21.5776,-6.0489,584.6235],[21.5832,-6.0678,571.3545],[21.5821,-6.0738,572.1516],[21.5843,-6.0786,553.3247],[21.579,-6.0843,586.316],[21.58,-6.0862,593.2747],[21.5848,-6.086,557.5809],[21.5866,-6.0885,544.5201],[21.5787,-6.1055,594.1],[21.5828,-6.1143,557.7855],[21.5883,-6.1389,586.4294],[21.5904,-6.1771,579.7676],[21.5966,-6.1867,583.2557],[21.5957,-6.1897,591.0351],[21.5915,-6.1918,641.0428],[21.589,-6.1966,616.9271],[21.5899,-6.2,565.0251],[21.5943,-6.204,604.3809],[21.597,-6.2141,582.135],[21.5926,-6.2249,592.4293],[21.5884,-6.2474,586.0404],[21.5895,-6.252,598.3507],[21.5941,-6.2541,596.1177],[21.5961,-6.2571,614.078],[21.5952,-6.2621,579.3735],[21.6014,-6.2658,577.912],[21.6034,-6.27,613.4745],[21.5993,-6.2799,615.1417],[21.5993,-6.2842,610.0443],[21.6036,-6.2898,614.4612],[21.6031,-6.3003,612.3138],[21.6088,-6.3068,584.726],[21.6079,-6.31,595.7218],[21.6129,-6.3139,589.1047],[21.6141,-6.3215,596.2823],[21.6166,-6.3248,599.9683],[21.6184,-6.3395,594.449],[21.6172,-6.3434,593.3915],[21.6211,-6.3567,607.5845],[21.6194,-6.3735,626.1097],[21.615,-6.3889,600.3062],[21.6161,-6.391,591.6595],[21.6117,-6.3946,608.4757],[21.6135,-6.4059,600.9221],[21.6108,-6.4098,602.1732],[21.6115,-6.4139,595.1431],[21.6064,-6.4213,593.1544],[21.6075,-6.4259,592.7671],[21.6033,-6.4367,597.6256],[21.6035,-6.4436,597.9125],[21.5998,-6.4497,606.9278],[21.601,-6.4557,601.6874],[21.5996,-6.461,613.3117],[21.6055,-6.4723,600.3633],[21.5833,-6.476,691.4476],[21.5617,-6.4751,673.7567],[21.5531,-6.4764,699.9276],[21.5434,-6.4803,706.3357],[21.5399,-6.4858,693.8651],[21.5411,-6.5044,716.4297],[21.5456,-6.5105,718.2894],[21.5669,-6.518,679.0168],[21.5687,-6.5267,675.7208],[21.5672,-6.5324,633.5613],[21.5553,-6.5435,654.3757],[21.5525,-6.5488,650.1089],[21.5529,-6.5586,650.5198],[21.5519,-6.5652,670.0471],[21.5479,-6.5708,670.7499],[21.5485,-6.5766,700.0927],[21.5557,-6.5795,714.5403],[21.5718,-6.5756,678.7443],[21.5851,-6.5615,639.7814],[21.599,-6.5509,638.1482],[21.6032,-6.5465,638.5649],[21.6039,-6.5427,627.7556],[21.6083,-6.5394,606.9543],[21.611,-6.5502,609.1807],[21.61,-6.5544,609.8161],[21.6137,-6.5571,627.6008],[21.6132,-6.5615,659.8483],[21.6201,-6.5675,650.7015],[21.6242,-6.5742,646.002],[21.6279,-6.5891,657.7953],[21.6347,-6.5981,649.6555],[21.6393,-6.5988,663.1277],[21.6425,-6.6016,665.4604],[21.6457,-6.6094,658.1427],[21.6531,-6.6164,678.4838],[21.6724,-6.6236,687.1104],[21.6797,-6.63,686.9484],[21.6916,-6.6333,687.7063],[21.7008,-6.6483,682.1392],[21.7045,-6.6497,688.3464],[21.7074,-6.6552,683.7838],[21.7125,-6.6577,699.3632],[21.7109,-6.6611,684.6867],[21.7042,-6.6654,700.5727],[21.6684,-6.6631,775.3207],[21.6458,-6.6757,684.5683],[21.6274,-6.679,703.2117],[21.6168,-6.6781,682.4557],[21.6126,-6.6801,665.1852],[21.6108,-6.684,673.7474],[21.611,-6.69,671.6678],[21.6141,-6.7,693.3508],[21.6205,-6.71,717.9515],[21.6217,-6.7168,686.5721],[21.62,-6.7264,684.5231],[21.6178,-6.7284,689.8965],[21.5928,-6.7112,750.9736],[21.5877,-6.7108,698.5217],[21.5831,-6.7126,707.9758],[21.5821,-6.7168,718.5046],[21.5879,-6.7243,675.3331],[21.5993,-6.7323,699.4752],[21.6041,-6.7383,736.0316],[21.6055,-6.7465,752.1779],[21.6032,-6.7535,723.6611],[21.5989,-6.7584,724.5705],[21.5819,-6.765,724.7066],[21.5744,-6.7581,712.6129],[21.5608,-6.753,718.1776],[21.5516,-6.7543,732.9162],[21.5463,-6.7596,705.9896],[21.5399,-6.7591,711.5014],[21.5222,-6.7634,719.3954],[21.4853,-6.7807,670.6025],[21.4802,-6.7867,675.261],[21.4724,-6.791,661.2233],[21.4675,-6.8029,663.9579],[21.464,-6.8064,662.3937],[21.459,-6.8075,638.1853],[21.4491,-6.8047,621.917],[21.4431,-6.8109,640.8951],[21.4256,-6.809,617.916],[21.4217,-6.8103,636.3821],[21.4157,-6.8184,605.3623],[21.4104,-6.8195,604.5081],[21.403,-6.8261,564.9568],[21.4005,-6.8358,575.6591],[21.4018,-6.839,584.6954],[21.4048,-6.8406,579.9073],[21.4161,-6.839,573.2452],[21.417,-6.8494,575.5273],[21.4186,-6.8517,580.2761],[21.4275,-6.8609,579.5142],[21.431,-6.8628,585.3483],[21.4369,-6.8623,577.0],[21.4381,-6.8663,581.6925],[21.444,-6.8709,579.97],[21.4502,-6.8831,582.6685],[21.4562,-6.8868,586.8063],[21.4727,-6.8914,598.2611],[21.4826,-6.8972,605.7479],[21.4876,-6.8979,594.2092],[21.4959,-6.9106,609.2045],[21.5071,-6.9201,612.2103],[21.5117,-6.9302,607.0833],[21.5199,-6.9376,605.0138],[21.5211,-6.942,623.0777],[21.532,-6.9565,609.7335],[21.5332,-6.9645,621.8336],[21.5371,-6.9719,621.7864],[21.5414,-6.9779,614.1405],[21.5439,-6.9774,604.625],[21.5471,-6.98,613.8252],[21.5508,-6.9857,640.4349],[21.5542,-6.9986,640.8196],[21.5641,-7.0051,620.9073],[21.5707,-7.0138,621.856],[21.5905,-7.0289,668.8191],[21.5895,-7.0357,670.7136],[21.5982,-7.0383,663.7371],[21.6017,-7.0422,692.3719],[21.6072,-7.0438,651.4318],[21.61,-7.0462,655.9186],[21.6152,-7.0565,668.1833],[21.6214,-7.0517,648.0007],[21.6265,-7.0515,668.3896],[21.6311,-7.0566,673.761],[21.6536,-7.0697,705.4844],[21.6583,-7.0774,685.3544],[21.6617,-7.0907,682.9052],[21.6629,-7.1058,684.3442],[21.6618,-7.1105,700.8578],[21.6635,-7.1174,690.0916],[21.672,-7.1234,692.0802],[21.6807,-7.1351,697.1917],[21.6842,-7.1347,692.87],[21.6883,-7.1377,688.0219],[21.6955,-7.1342,690.4964],[21.6998,-7.1338,682.7095],[21.7017,-7.1356,685.5881],[21.7037,-7.1529,691.6906],[21.7076,-7.1642,693.3752],[21.7133,-7.1745,688.6254],[21.7148,-7.1885,695.3681],[21.713,-7.1931,699.8405],[21.7137,-7.1963,717.7986],[21.7148,-7.1979,703.2491],[21.7203,-7.1989,694.6321],[21.7345,-7.2194,722.5829],[21.7449,-7.2254,691.1105],[21.7483,-7.2295,693.3018],[21.7501,-7.2355,703.3434],[21.7572,-7.244,723.9709],[21.7611,-7.2457,697.5109],[21.7754,-7.2453,694.0092],[21.7786,-7.2522,697.294],[21.7832,-7.2538,692.2252],[21.7869,-7.2579,693.5482],[21.7875,-7.2611,694.7139],[21.7797,-7.2747,715.9413],[21.7813,-7.2846,740.6988],[21.7843,-7.2876,732.877],[21.7843,-7.2927,725.0667],[21.7986,-7.3111,731.4896],[21.8029,-7.3135,720.785],[21.8085,-7.3207,722.7564],[21.8203,-7.3289,722.8302],[21.8275,-7.349,728.147],[21.8292,-7.3655,729.0592],[21.8348,-7.3725,730.8508],[21.838,-7.384,729.3038],[21.8356,-7.391,749.9723],[21.8302,-7.396,740.0764],[21.8288,-7.4029,737.5581],[21.8397,-7.4174,729.7991],[21.8461,-7.4226,732.4338],[21.8514,-7.4237,729.6604],[21.8557,-7.4425,742.3959],[21.8533,-7.4489,732.3513],[21.8433,-7.4566,743.8533],[21.843,-7.4591,736.6087],[21.8437,-7.463,751.6525],[21.8464,-7.4653,730.5],[21.8516,-7.466,738.3337],[21.8567,-7.4702,740.9761],[21.8569,-7.4748,737.4489],[21.8484,-7.4958,757.7099],[21.8403,-7.5061,736.0871],[21.8364,-7.52,742.9844],[21.8389,-7.5317,755.0425],[21.8532,-7.5553,741.278],[21.8516,-7.5721,741.2215],[21.8453,-7.5771,754.6797],[21.8426,-7.5831,743.7504],[21.8484,-7.5999,742.3184],[21.8477,-7.6049,748.2312],[21.8445,-7.6087,748.68]]]]}}