{"type":"Feature","properties":{"GID_2":"COD.9.7_1","GID_0":"COD","country":"DemocraticRepublicoftheCongo","GID_1":"COD.9_1","province":"Kasaï","NL_NAME_1":"NA","county":"Mweka","VARNAME_2":"NA","NL_NAME_2":"NA","TYPE_2":"Territoire","ENGTYPE_2":"Territory","CC_2":"NA","HASC_2":"NA","name":"Mweka.county"},
"geometry":{"type": "MultiPolygon","coordinates": [[[[22.4244,-4.6213,541.8378],[22.4246,-4.6169,509.5026],[22.4306,-4.6003,511.3611],[22.4421,-4.5769,502.5769],[22.4408,-4.5698,478.7541],[22.4461,-4.5631,516.2891],[22.4468,-4.5528,530.5593],[22.4507,-4.544,553.0122],[22.453,-4.5286,554.0917],[22.4567,-4.5254,555.8684],[22.4613,-4.5082,554.9628],[22.4699,-4.5001,565.7252],[22.4779,-4.496,577.6076],[22.4875,-4.4956,540.7663],[22.5117,-4.4722,605.0402],[22.5287,-4.4437,568.437],[22.5262,-4.4271,562.2127],[22.5299,-4.4103,509.0391],[22.5277,-4.3825,539.7914],[22.5358,-4.3521,510.4553],[22.5278,-4.3351,519.078],[22.5336,-4.3206,473.9949],[22.5348,-4.3052,507.0937],[22.5297,-4.2925,482.1595],[22.5318,-4.2806,486.6557],[22.5284,-4.2737,489.9803],[22.5303,-4.2684,442.6229],[22.5284,-4.2631,460.234],[22.528199999999998,-4.2486,437.8001],[22.5264,-4.2391,477.3464],[22.5212,-4.2258,456.8484],[22.5249,-4.1989,441.3492],[22.5135,-4.1882,478.7783],[22.5036,-4.1868,457.4669],[22.4919,-4.1801,512.8497],[22.4789,-4.1702,478.9108],[22.4718,-4.1614,443.3871],[22.4675,-4.1589,501.4578],[22.4477,-4.1616,461.9192],[22.4416,-4.1588,476.6269],[22.4262,-4.1477,473.4491],[22.4106,-4.1468,455.4249],[22.4033,-4.1442,465.2566],[22.3985,-4.1391,451.2982],[22.3878,-4.1214,407.8475],[22.3818,-4.1175,425.5083],[22.3727,-4.1057,478.8178],[22.3644,-4.0999,412.9706],[22.3397,-4.0906,476.6568],[22.3299,-4.0805,487.0524],[22.3226,-4.0584,515.2594],[22.3162,-4.0503,437.4396],[22.3123,-4.036,491.8444],[22.3048,-4.0222,493.6335],[22.2925,-4.0095,476.5171],[22.2726,-3.998,391.6142],[22.2471,-3.9965,381.0],[22.2389,-3.9992,384.2015],[22.2226,-4.0118,399.5036],[22.2097,-4.0159,390.3847],[22.2017,-4.023,384.3193],[22.1939,-4.0249,382.3063],[22.187,-4.029,380.5],[22.1783,-4.0308,380.0],[22.1672,-4.0393,386.5547],[22.1629,-4.0402,380.0],[22.1565,-4.0392,384.545],[22.14,-4.0321,386.7066],[22.1354,-4.0286,383.7943],[22.121,-4.0262,383.5025],[22.1175,-4.0244,383.6424],[22.1116,-4.0175,389.4638],[22.0991,-3.9921,386.9802],[22.0922,-3.9875,383.4581],[22.0814,-3.9833,378.7178],[22.0578,-3.9793,377.5],[22.0485,-3.9735,377.5],[22.0297,-3.9707,377.0],[22.0208,-3.9675,392.847],[22.0047,-3.9683,381.6911],[21.9946,-3.9612,386.8968],[21.9889,-3.9618,376.5],[21.9294,-3.9987,443.707],[21.9193,-3.9989,398.3976],[21.9104,-3.9945,378.7519],[21.8992,-3.9914,381.138],[21.8763,-3.9888,374.0],[21.8715,-3.9826,379.8572],[21.8623,-3.9807,375.1432],[21.855,-3.9726,380.4682],[21.8468,-3.9729,379.857],[21.8339,-3.9831,428.8657],[21.8305,-3.9834,413.4645],[21.8284,-3.9808,377.7785],[21.8344,-3.9664,378.213],[21.831,-3.9599,373.0],[21.8253,-3.9576,376.879],[21.8003,-3.958,375.7415],[21.7881,-3.9604,377.8013],[21.7806,-3.9639,385.2082],[21.7792,-3.9675,386.1717],[21.7803,-3.9758,372.0],[21.7764,-3.9901,372.3483],[21.7715,-3.9924,372.0],[21.766,-3.991,380.8443],[21.7532,-3.9829,374.6453],[21.7434,-3.9844,385.6957],[21.7335,-3.9904,373.6546],[21.7321,-3.9968,374.6237],[21.7328,-4.0028,385.4564],[21.7256,-4.0085,382.7506],[21.7002,-4.0186,393.5381],[21.6928,-4.0199,378.3307],[21.6834,-4.019,383.1491],[21.6772,-4.0157,376.9237],[21.669,-4.0159,380.417],[21.6637,-4.0131,375.7967],[21.6564,-4.0131,371.4144],[21.6417,-4.0186,370.0],[21.6344,-4.0238,373.2767],[21.6139,-4.044,384.8874],[21.6063,-4.0493,374.2169],[21.5971,-4.0504,369.0],[21.5928,-4.0542,369.0],[21.5893,-4.0525,370.3786],[21.5903,-4.0414,387.9566],[21.5892,-4.0349,372.6478],[21.5867,-4.0315,404.7615],[21.5805,-4.0314,380.4807],[21.56,-4.05,370.1087],[21.5572,-4.0546,368.0],[21.5563,-4.0622,372.9267],[21.5528,-4.0629,371.3495],[21.5467,-4.0573,381.1828],[21.5421,-4.0555,374.3327],[21.5329,-4.0552,372.1539],[21.5286,-4.0561,372.9424],[21.5231,-4.0616,368.3984],[21.5152,-4.0655,382.2363],[21.4893,-4.0645,375.1316],[21.4802,-4.0658,378.463],[21.4634,-4.0752,387.0943],[21.4478,-4.0758,393.1356],[21.4327,-4.0702,382.9803],[21.4279,-4.066,391.043],[21.422,-4.0552,385.4209],[21.414,-4.0485,385.1873],[21.389,-4.0348,364.5],[21.3831,-4.0286,374.7719],[21.3795,-4.0164,367.4329],[21.3763,-4.0132,367.1446],[21.3428,-4.0167,390.4588],[21.3133,-4.009,372.0691],[21.2966,-3.9979,378.1374],[21.2771,-3.9973,380.7856],[21.262,-3.994,382.8209],[21.2302,-3.9787,361.0],[21.2169,-3.9747,368.6221],[21.2023,-3.9666,411.5942],[21.1656,-3.9667,377.1069],[21.1585,-3.969,382.0469],[21.1343,-3.9896,376.4794],[21.116,-3.9964,370.3018],[21.1084,-3.9984,369.2565],[21.1008,-3.9975,366.0159],[21.0953,-3.9947,383.3371],[21.0873,-3.9946,374.2866],[21.0807,-3.9909,366.3082],[21.069,-3.9909,365.3848],[21.0345,-4.0119,390.3266],[21.0226,-4.0226,397.83],[21.0086,-4.0295,370.6319],[20.9964,-4.0435,371.5237],[20.9892,-4.0467,385.9731],[20.9768,-4.0579,390.5491],[20.969,-4.0611,388.06],[20.9612,-4.0677,400.912],[20.9483,-4.0706,409.002],[20.9412,-4.075,404.9326],[20.9292,-4.1037,421.3289],[20.9266,-4.1156,440.0495],[20.9215,-4.1186,437.7714],[20.919,-4.1188,463.6877],[20.9151,-4.1156,446.9579],[20.9096,-4.1151,428.0681],[20.8876,-4.1256,386.2838],[20.8658,-4.1238,398.1181],[20.8599,-4.1206,357.0],[20.8457,-4.1079,361.1603],[20.8143,-4.107,356.0],[20.8097,-4.1082,356.0],[20.8001,-4.1109,371.6933],[20.7746,-4.1237,388.1046],[20.7541,-4.1413,439.8148],[20.7421,-4.1449,419.1282],[20.7348,-4.1442,354.5],[20.7286,-4.146,354.5],[20.7185,-4.1432,367.7789],[20.7,-4.1458,354.0],[20.691,-4.1502,354.0],[20.6635,-4.1581,353.5],[20.6512,-4.1552,369.5872],[20.6486,-4.1589,357.865],[20.6373,-4.1644,364.6829],[20.6357,-4.1685,364.1559],[20.6356,-4.183,359.9896],[20.6275,-4.1938,358.3649],[20.6271,-4.1979,358.4041],[20.6311,-4.2028,356.1157],[20.6307,-4.2074,355.394],[20.6559,-4.2193,430.8347],[20.6697,-4.234,414.4756],[20.7143,-4.232,476.525],[20.7198,-4.2333,468.8384],[20.7214,-4.2406,432.3728],[20.7161,-4.2782,376.603],[20.728,-4.2845,377.1906],[20.7337,-4.2854,376.0098],[20.7383,-4.2841,381.9613],[20.7427,-4.2866,382.636],[20.7482,-4.2862,400.1058],[20.7557,-4.283,389.2662],[20.7647,-4.2833,384.2909],[20.7704,-4.2875,397.459],[20.7748,-4.2886,437.8243],[20.783,-4.2818,379.532],[20.7876,-4.282,377.7791],[20.7915,-4.2857,384.5115],[20.7982,-4.2851,409.3542],[20.8018,-4.2876,444.4846],[20.8121,-4.2886,391.6073],[20.8168,-4.2803,442.4652],[20.8197,-4.2783,442.2448],[20.8314,-4.2765,433.03],[20.8344,-4.2781,465.7977],[20.836,-4.2938,503.2444],[20.8318,-4.3069,453.7468],[20.8324,-4.3127,457.2647],[20.8364,-4.3136,511.6045],[20.8519,-4.3112,493.1021],[20.8638,-4.3125,526.9048],[20.8697,-4.3178,419.6842],[20.8802,-4.3337,460.4098],[20.8893,-4.3433,440.6639],[20.9046,-4.3698,499.4909],[20.9065,-4.3781,516.9305],[20.9039,-4.4443,448.9951],[20.9004,-4.4547,477.3452],[20.868,-4.4752,485.0797],[20.859,-4.4784,445.4929],[20.8537,-4.486,416.7039],[20.8394,-4.4935,484.7689],[20.8364,-4.5027,423.5362],[20.8261,-4.5065,394.7708],[20.8281,-4.5132,463.6494],[20.8234,-4.541,462.0947],[20.8188,-4.5544,430.1569],[20.8297,-4.5609,453.5741],[20.84,-4.5625,475.0169],[20.8446,-4.5653,455.1229],[20.8469,-4.5701,385.4525],[20.8517,-4.5729,372.3007],[20.8672,-4.5912,363.0],[20.8734,-4.594,363.0],[20.8775,-4.5928,363.0],[20.8828,-4.5869,449.2008],[20.8879,-4.5876,417.0534],[20.8911,-4.5833,405.7555],[20.8932,-4.5837,377.7826],[20.8927,-4.5897,399.7982],[20.8945,-4.5922,434.1959],[20.9108,-4.6017,384.6853],[20.9311,-4.6196,376.0168],[20.9382,-4.621,364.5],[20.9446,-4.6169,366.3969],[20.9522,-4.6164,364.5],[20.9561,-4.6178,364.5],[20.9637,-4.6174,365.0],[20.9701,-4.6223,377.8467],[20.9797,-4.6189,366.5159],[20.985,-4.6205,369.0916],[20.991,-4.6201,368.2239],[20.9974,-4.6233,369.457],[21.0015,-4.6236,365.0],[21.0084,-4.6206,370.5963],[21.0166,-4.6225,374.1903],[21.0196,-4.6202,388.3421],[21.027,-4.6198,394.244],[21.0423,-4.6272,465.4494],[21.0462,-4.6321,474.413],[21.0496,-4.6433,438.4268],[21.0542,-4.6452,470.314],[21.059,-4.6512,436.6003],[21.0621,-4.6676,383.3942],[21.0705,-4.6784,380.37],[21.0707,-4.6869,416.1562],[21.0645,-4.6986,454.6737],[21.0601,-4.7214,498.1641],[21.0515,-4.7305,422.6207],[21.048,-4.7379,485.6223],[21.0476,-4.7462,474.1829],[21.0542,-4.7593,636.2666],[21.0557,-4.7672,655.7531],[21.0543,-4.7777,518.9782],[21.0577,-4.7849,430.4943],[21.0588,-4.8008,434.1098],[21.062,-4.8079,465.6844],[21.0635,-4.8169,426.6613],[21.0702,-4.8293,463.0544],[21.0692,-4.8415,399.6824],[21.0742,-4.8519,474.628],[21.0739,-4.8726,437.3668],[21.0672,-4.891,448.3839],[21.0634,-4.917,441.1504],[21.0686,-4.928,375.3461],[21.0725,-4.931,391.7592],[21.0738,-4.9485,383.7066],[21.0815,-4.9663,376.0902],[21.0826,-4.9787,372.5],[21.0874,-4.9852,372.5],[21.1016,-4.9937,390.8341],[21.1125,-5.0173,373.5],[21.1115,-5.0433,374.0],[21.122,-5.0502,385.0632],[21.1243,-5.0541,387.6686],[21.1245,-5.0619,390.6649],[21.1295,-5.0744,389.9501],[21.1302,-5.0817,394.9907],[21.1283,-5.0891,419.7739],[21.1356,-5.1126,394.7134],[21.1426,-5.12,396.3243],[21.1479,-5.1308,395.1277],[21.1548,-5.1329,376.5],[21.1632,-5.144,379.3692],[21.179,-5.1448,377.5],[21.1818,-5.1464,385.9108],[21.1845,-5.1524,382.7734],[21.1838,-5.1637,396.1456],[21.1851,-5.1692,411.1175],[21.1936,-5.1793,401.1728],[21.1973,-5.1807,379.9368],[21.2064,-5.1787,379.5],[21.212,-5.1797,391.4936],[21.2138,-5.1861,396.6727],[21.2192,-5.194,393.0046],[21.2246,-5.2193,459.6613],[21.2306,-5.2237,395.9584],[21.234,-5.2345,402.1956],[21.2374,-5.238,385.8518],[21.2464,-5.2373,383.018],[21.2503,-5.2387,396.1216],[21.2535,-5.2438,383.267],[21.2555,-5.2534,400.8418],[21.2626,-5.2625,400.8715],[21.2764,-5.2584,444.5425],[21.2747,-5.265,399.6655],[21.2795,-5.274,399.0652],[21.283,-5.2773,387.5802],[21.2869,-5.2782,385.3115],[21.3002,-5.2709,426.4174],[21.307,-5.2898,409.1139],[21.3139,-5.2944,388.2007],[21.3182,-5.3039,430.692],[21.323,-5.3071,383.7655],[21.3308,-5.3085,383.9879],[21.3379,-5.3122,395.849],[21.348,-5.321,386.5063],[21.3585,-5.3343,384.4031],[21.3676,-5.3424,389.8772],[21.3778,-5.3379,463.0322],[21.3835,-5.3377,394.9258],[21.389,-5.3403,390.448],[21.3966,-5.3392,400.123],[21.4053,-5.3346,415.2074],[21.4118,-5.3339,406.0159],[21.4184,-5.3293,400.3858],[21.4235,-5.3298,391.6078],[21.4304,-5.3243,427.0271],[21.4359,-5.3248,387.8337],[21.44,-5.331,391.5269],[21.4455,-5.3306,396.0576],[21.4492,-5.3242,387.0],[21.4523,-5.309,481.7323],[21.4576,-5.3088,410.7901],[21.463,-5.3139,387.75],[21.4695,-5.3167,396.0011],[21.4752,-5.316,395.3167],[21.4846,-5.3112,487.0179],[21.492,-5.3149,395.2266],[21.5066,-5.3177,400.6105],[21.5136,-5.3104,445.2801],[21.5165,-5.3106,465.4977],[21.5349,-5.3236,404.4009],[21.5378,-5.3273,396.2363],[21.5422,-5.3402,398.3058],[21.5495,-5.3437,401.4704],[21.5612,-5.3435,447.0381],[21.5647,-5.3398,411.6599],[21.5714,-5.324,464.7682],[21.579,-5.3153,441.9884],[21.5824,-5.316,433.7778],[21.5945,-5.3275,397.4169],[21.6023,-5.3312,423.9163],[21.6081,-5.3308,417.9341],[21.6124,-5.3281,412.7147],[21.6242,-5.3161,451.9768],[21.6244,-5.3108,485.4357],[21.6348,-5.3038,435.6039],[21.638,-5.2957,479.4248],[21.6393,-5.2697,412.1515],[21.6356,-5.2561,437.3846],[21.6376,-5.2327,441.7651],[21.6565,-5.2114,446.8182],[21.6625,-5.1934,418.2678],[21.662,-5.1891,432.7722],[21.6755,-5.1519,427.5035],[21.6898,-5.1296,427.4401],[21.6921,-5.1183,429.2567],[21.6931,-5.0967,433.5842],[21.6875,-5.0688,439.611],[21.6898,-5.0548,449.9103],[21.7026,-5.054,512.8369],[21.7079,-5.0554,511.0104],[21.753,-5.07,559.8665],[21.7585,-5.0744,536.7769],[21.7797,-5.0819,540.0741],[21.7879,-5.084,539.3188],[21.802,-5.0835,506.0568],[21.8093,-5.0716,491.1619],[21.8082,-5.0624,480.9681],[21.811,-5.0562,479.8559],[21.8117,-5.0435,493.9709],[21.8147,-5.0378,548.3817],[21.82,-5.0341,541.3615],[21.8239,-5.0256,547.5254],[21.8389,-5.0243,552.7582],[21.8478,-5.016,583.6099],[21.8518,-5.0153,594.5875],[21.8609,-5.0181,601.2707],[21.8798,-5.0177,593.7347],[21.8851,-5.0223,571.163],[21.8854,-5.0297,492.8313],[21.8825,-5.0344,494.2657],[21.8717,-5.0385,543.0255],[21.8682,-5.0424,550.088],[21.8685,-5.048,538.6174],[21.8726,-5.0526,557.7075],[21.9085,-5.0698,518.5978],[21.9318,-5.0786,586.0445],[21.9396,-5.0809,584.8251],[21.9677,-5.0792,498.9234],[21.9867,-5.0743,502.462],[21.9996,-5.0676,469.2213],[22.0042,-5.0669,469.8329],[22.02,-5.07,516.3295],[22.028199999999998,-5.0873,502.6562],[22.033,-5.1062,463.8208],[22.0347,-5.1382,462.4554],[22.0368,-5.135,454.3315],[22.0467,-5.1279,454.2133],[22.0731,-5.1148,476.3888],[22.0916,-5.0903,491.9622],[22.0988,-5.0673,482.3976],[22.1027,-5.0425,491.1047],[22.1057,-5.0351,535.8341],[22.1152,-5.0257,527.1365],[22.1182,-5.0202,506.4934],[22.1177,-5.0098,496.2113],[22.1141,-5.0022,502.6757],[22.1245,-4.9896,573.9493],[22.1273,-4.9786,596.246],[22.1179,-4.971,575.0833],[22.1037,-4.9635,601.6904],[22.1006,-4.9454,589.2482],[22.1052,-4.9186,558.8802],[22.1022,-4.9129,580.0612],[22.0969,-4.908,590.1819],[22.0849,-4.9015,575.7906],[22.0793,-4.8832,573.1179],[22.0855,-4.8742,540.2397],[22.0894,-4.8733,501.225],[22.097,-4.8637,530.6607],[22.1111,-4.8513,510.0169],[22.1161,-4.8414,508.3451],[22.1214,-4.8375,476.4124],[22.1265,-4.8359,509.2997],[22.1352,-4.8298,517.6854],[22.143,-4.8286,490.9575],[22.1501,-4.8312,463.9536],[22.1552,-4.8273,490.5918],[22.1717,-4.8227,486.7836],[22.1772,-4.8186,500.2678],[22.1832,-4.8074,446.5236],[22.1917,-4.8023,496.1007],[22.2014,-4.7906,471.9521],[22.2062,-4.787,490.0204],[22.2233,-4.7825,425.2249],[22.223,-4.7698,422.1948],[22.2283,-4.7645,433.2855],[22.2249,-4.7601,435.2506],[22.2265,-4.7564,427.1612],[22.2256,-4.7507,430.064],[22.218,-4.7504,487.4749],[22.2126,-4.7354,431.9275],[22.2098,-4.7331,487.4799],[22.2039,-4.732,472.7722],[22.2019,-4.7218,433.3141],[22.2043,-4.7186,449.4721],[22.2178,-4.7183,491.6636],[22.2303,-4.712,450.3622],[22.237,-4.7109,506.5361],[22.2481,-4.7031,460.3697],[22.2503,-4.6991,467.3075],[22.2534,-4.684,511.6671],[22.2541,-4.6721,558.8093],[22.2563,-4.6684,513.5425],[22.2701,-4.661,466.7713],[22.2789,-4.6488,492.0472],[22.2831,-4.6311,466.5179],[22.286,-4.6264,505.3973],[22.2991,-4.6308,444.5255],[22.3044,-4.6356,518.5391],[22.3188,-4.6341,513.696],[22.3225,-4.6348,505.2606],[22.3287,-4.6392,512.2457],[22.339,-4.6353,504.0305],[22.344,-4.6378,505.6095],[22.3505,-4.6339,485.8464],[22.3555,-4.6337,490.5211],[22.3601,-4.6379,499.3542],[22.3629,-4.6374,439.1629],[22.3651,-4.6423,490.5401],[22.3697,-4.6434,432.3324],[22.3851,-4.6402,493.5153],[22.3885,-4.638,499.4096],[22.3952,-4.6255,469.0078],[22.3982,-4.6233,442.7245],[22.4118,-4.6212,502.5802],[22.4138,-4.6196,496.2768],[22.4244,-4.6213,541.8378]]]]}}