{"type":"Feature","properties":{"GID_2":"COD.7.7_1","GID_0":"COD","country":"DemocraticRepublicoftheCongo","GID_1":"COD.7_1","province":"Kasaï-Central","NL_NAME_1":"NA","county":"Tshimbulu","VARNAME_2":"NA","NL_NAME_2":"NA","TYPE_2":"Ville","ENGTYPE_2":"Town","CC_2":"NA","HASC_2":"NA","name":"Tshimbulu.county"},
"geometry":{"type": "MultiPolygon","coordinates": [[[[22.8673,-6.502,850.6163],[22.8802,-6.4976,842.326],[22.8886,-6.4838,840.2463],[22.8891,-6.4705,817.8102],[22.8846,-6.4616,822.3059],[22.8789,-6.458,814.9039],[22.8646,-6.4549,816.0197],[22.85,-6.4549,798.0658],[22.8393,-6.4602,837.4612],[22.8317,-6.478,798.9154],[22.8313,-6.486,799.4993],[22.8362,-6.4962,821.4777],[22.8442,-6.502,808.5316],[22.8544,-6.5034,825.533],[22.8673,-6.502,850.6163]]]]}}