{"type":"Feature","properties":{"featurecla":"River","scalerank":8,"rivernum":778,"dissolve":"778River","name":"Lukenie","name_alt":null,"note":null,"min_zoom":7.0,"strokeweig":0.15,"name_en":"Lukenie","min_label":8.0},
"geometry":{"type": "LineString","coordinates": [[24.25048828125,-3.51995208125588,478.8317],[24.204345703125,-3.5633114562558892,501.2389],[24.0048828125,-3.6839169250058892,514.7333],[23.940820312500023,-3.6990536437558892,477.7991],[23.909082031250023,-3.7173153625058859,511.1092],[23.88916015625,-3.7146786437558892,456.4204],[23.867919921875,-3.70720794063088,467.3711],[23.84716796875,-3.70305755000588,506.6748],[23.767236328125023,-3.71404387813088,464.1564],[23.72607421875,-3.71355559688088,469.5487],[23.683349609375,-3.69744231563088,489.9856],[23.629638671875,-3.6499325500058859,501.502],[23.617822265625023,-3.6429013000058892,502.5254],[23.597558593750023,-3.6365536437558892,517.4108],[23.576562500000023,-3.62175872188088,478.615],[23.546142578125,-3.59392669063088,504.9629]]}}