{"type":"Feature","properties":{"featurecla":"River","scalerank":6,"rivernum":296,"dissolve":"296River","name":"Tshuapa","name_alt":null,"note":null,"min_zoom":5.0,"strokeweig":0.2,"name_en":"Tshuapa","min_label":6.0},
"geometry":{"type": "LineString","coordinates": [[24.594482421875,-3.1767880187558859,521.0579],[24.61865234375,-3.1133114562558859,498.625],[24.623925781250023,-3.0810848937558859,498.9075],[24.63330078125,-3.06145598750588,521.8431],[24.635400390625023,-3.0498348937558859,534.0384],[24.633447265625023,-3.0395809875058859,508.2628],[24.624169921875023,-3.0179013000058892,505.6351],[24.621826171875,-3.0054013000058859,489.7009],[24.626708984375,-2.9590145812558859,465.739],[24.624755859375,-2.93377044063088,488.0841],[24.611572265625,-2.9228817687558859,496.0458],[24.601708984375023,-2.9175106750058859,496.7152],[24.566650390625,-2.88250090938088,518.7424],[24.482080078125023,-2.8291317687558859,540.1456],[24.457275390625,-2.80681731563088,516.1101],[24.44970703125,-2.79216887813088,571.6489],[24.4365234375,-2.7505184875058859,524.0426],[24.426513671875,-2.73479583125588,520.6511],[24.413232421875023,-2.7187802062558859,579.229],[24.402587890625,-2.6992489562558859,579.0442],[24.388427734375,-2.6560848937558892,599.7182]]}}