{"type":"Feature","properties":{"featurecla":"River","scalerank":7,"rivernum":501,"dissolve":"501River","name":"Lomami2","name_alt":null,"note":null,"min_zoom":6.0,"strokeweig":0.25,"name_en":"Lomami","min_label":7.0},
"geometry":{"type": "LineString","coordinates": [[25.863183593750023,-5.7464169250058887,561.7412],[25.852636718750006,-5.7322567687558887,570.9965],[25.84912109375,-5.7217098937558859,556.75],[25.848876953125,-5.66790130000588,581.8683],[25.847900390625,-5.66448333125588,574.4866],[25.84326171875,-5.66448333125588,571.8434],[25.842041015625,-5.66106536250588,560.0192],[25.844140625000023,-5.6560848937558887,555.4287],[25.85302734375,-5.6479794250058859,559.8063],[25.855078125,-5.6433895812558887,556.8734],[25.854882812500023,-5.6306942687558887,556.3948],[25.8525390625,-5.6204403625058887,563.5378],[25.846582031250023,-5.6116513000058887,575.3367],[25.834570312500006,-5.60295989375588,580.3893],[25.832910156250023,-5.5994442687558887,575.6901],[25.82568359375,-5.5911434875058887,551.7101],[25.81787109375,-5.5859677062558859,555.5417],[25.812109375,-5.59587981563088,556.3876],[25.807373046875,-5.5913388000058859,557.1449],[25.802734375,-5.5830380187558859,567.3636],[25.800537109375,-5.57512786250588,581.303],[25.78125,-5.5852841125058887,563.5212],[25.767480468750023,-5.5766903625058859,561.1462],[25.754150390625,-5.5623348937558887,548.3395],[25.729394531250023,-5.5517880187558859,549.5559],[25.714599609375,-5.5386044250058859,553.5787],[25.711035156250006,-5.53411223750588,552.3131],[25.70751953125,-5.52044036250588,544.0777],[25.7080078125,-5.5127255187558859,543.4359],[25.706640625,-5.5071591125058887,548.6833],[25.697509765625,-5.4993466125058887,559.399],[25.687890625000023,-5.49724700313088,566.697],[25.6767578125,-5.49797942500588,550.106],[25.667236328125,-5.49700286250588,552.3006],[25.663183593750006,-5.48967864375588,544.0525],[25.661230468750006,-5.4785458312558859,545.7756],[25.656005859375,-5.46868255000588,554.8469],[25.6484375,-5.4617489562558887,542.6899],[25.6240234375,-5.45549895625588,547.535],[25.623779296875,-5.4472958312558859,550.6301],[25.635986328125,-5.43108489375588,546.8401],[25.642578125,-5.42522551875588,538.0502],[25.650488281250006,-5.4226864562558887,540.6187],[25.654541015625,-5.41741301875588,546.1412],[25.649658203125,-5.40374114375588,597.0425],[25.625244140625,-5.4016903625058887,537.1335],[25.599609375,-5.37517669063088,549.4973],[25.55712890625,-5.3181942687558887,541.6547],[25.54052734375,-5.3081356750058859,533.9667],[25.52734375,-5.30754973750588,535.125],[25.5126953125,-5.30950286250588,534.8082],[25.491308593750006,-5.30754973750588,555.4308],[25.486083984375,-5.30388762813088,535.2631],[25.48193359375,-5.2915341125058859,540.8952],[25.478417968750023,-5.2871395812558859,558.7598],[25.468164062500023,-5.28435637813088,550.3503],[25.459082031250006,-5.2845028625058887,569.7126],[25.4501953125,-5.2835263000058887,543.8005],[25.424072265625,-5.26799895625588,554.3276],[25.388769531250006,-5.2646786437558859,586.7563],[25.354394531250023,-5.2469052062558887,572.9188],[25.337158203125,-5.24749114375588,574.2831],[25.319433593750006,-5.25188567500588,549.7955],[25.300195312500023,-5.2529598937558859,563.9426],[25.285253906250006,-5.24504973750588,590.0038],[25.264550781250023,-5.21746184688088,594.3295],[25.25546875,-5.21135833125588,563.2365],[25.234375,-5.20891692500588,552.6256],[25.217480468750011,-5.20134856563088,526.7427],[25.212011718750006,-5.1885067687558859,527.428],[25.22509765625,-5.1704403625058859,555.6413],[25.21435546875,-5.16277434688088,526.7357],[25.207275390625,-5.1531552062558887,530.1415],[25.203857421875,-5.1455380187558859,525.2142],[25.204003906250023,-5.14373137813088,522.9753],[25.160058593750023,-5.0974911437558887,530.201],[25.1220703125,-5.04753997188088,528.1348],[25.063720703125,-5.00652434688088,519.2485],[25.063085937500006,-4.9975888000058859,523.0623],[25.013671875,-4.89690520625588,504.5825],[25.007519531250011,-4.8745419250058859,502.8529],[25.00537109375,-4.85198333125588,520.1683],[25.00244140625,-4.84685637813088,520.3632],[24.9814453125,-4.83147551875588,500.3314],[24.975830078125,-4.8227841125058859,501.1542],[24.968994140625,-4.80291106563088,513.9512],[24.963769531250023,-4.79363372188088,505.5898],[24.937109375,-4.77996184688088,510.6668],[24.919189453125,-4.76213958125588,503.7962],[24.91259765625,-4.75945403438088,505.0997],[24.902441406250006,-4.7510067687558859,504.7902],[24.8818359375,-4.6980770812558887,515.0921],[24.878662109375,-4.6958309875058859,517.0052],[24.866796875,-4.68914153438088,506.5114],[24.861328125,-4.68377044063088,512.4766],[24.867773437500006,-4.67546965938088,508.5497],[24.864501953125,-4.6679989562558859,507.9177],[24.857812500000023,-4.6599911437558887,515.6025],[24.853906250000023,-4.64959075313088,505.3416],[24.855712890625,-4.6372372375058859,503.8108],[24.865820312500006,-4.6181942687558859,508.4835],[24.875244140625,-4.5932919250058859,497.9981],[24.891992187500023,-4.5747372375058859,501.6013],[24.911376953125,-4.56047942500588,503.4289],[24.926513671875,-4.5547177062558859,499.0143],[24.926513671875,-4.54534270625588,500.7125],[24.963769531250023,-4.49260833125588,494.8647],[25.002685546875,-4.4588192687558887,506.119],[25.01220703125,-4.4448544250058859,496.8282],[24.9951171875,-4.4121395812558859,499.4163],[24.984619140625,-4.3968075500058887,504.1124],[24.974609375,-4.3901669250058859,498.548],[24.99169921875,-4.30706145625588,489.7738],[24.996972656250023,-4.2964169250058859,492.7292],[25.003808593750023,-4.2881161437558859,489.0404],[25.009667968750023,-4.27898528438088,492.1122],[25.01220703125,-4.26604583125588,492.1214],[25.009960937500011,-4.25383880000588,491.1227],[25.000097656250006,-4.23772551875588,503.4294],[24.997949218750023,-4.2285458312558859,502.7104],[24.996826171875,-4.20671965938088,509.8135],[24.997802734375,-4.19548919063088,499.1097],[25.001708984375,-4.1875302062558859,480.4517],[25.010498046875,-4.1756161437558887,496.4225],[25.0087890625,-4.16765715938088,495.0666],[25.002685546875,-4.1619442687558887,479.4946],[24.9951171875,-4.1521786437558887,486.9365],[24.9873046875,-4.14714934688088,484.0859],[24.98486328125,-4.14251067500588,521.8201],[24.985058593750011,-4.13689544063088,538.7919],[24.987548828125,-4.1316708312558887,528.1456],[24.990234375,-4.1284481750058859,535.1901],[24.99169921875,-4.12883880000588,528.952],[24.996191406250006,-4.11321380000588,481.4311],[24.995996093750023,-4.10466887813088,493.6773],[24.98828125,-4.10100676875588,487.8074],[24.979589843750006,-4.09319426875588,478.9328],[24.971289062500006,-4.05510833125588,486.5831],[24.959570312500006,-4.03313567500588,487.1259],[24.956152343750006,-4.02898528438088,491.5729],[24.950097656250023,-4.0263973937558859,473.2788],[24.94384765625,-4.02825286250588,489.3459],[24.932861328125,-4.03875090938088,493.0982],[24.9296875,-4.04070403438088,483.8899],[24.92236328125,-4.03557708125588,496.7856],[24.8955078125,-4.00969817500588,527.2529],[24.8955078125,-3.96843840938088,480.391],[24.890722656250006,-3.9612606750058892,475.3866],[24.861328125,-3.9378231750058892,477.4792],[24.857421875,-3.93010833125588,467.4629],[24.84765625,-3.90300872188088,488.5594],[24.844482421875,-3.90667083125588,485.9264],[24.837304687500023,-3.91350676875588,479.4742],[24.834082031250006,-3.91716887813088,481.8548],[24.8125,-3.8870419250058892,481.4846],[24.8046875,-3.87102630000588,473.7967],[24.799951171875023,-3.85515715938088,469.2011],[24.8046875,-3.8554989562558859,468.4675],[24.811914062500023,-3.84807708125588,484.7216],[24.813867187500023,-3.83904387813088,485.1361],[24.803320312500006,-3.83464934688088,476.7906],[24.77978515625,-3.8347958312558892,474.7394],[24.769189453125023,-3.8328427062558892,468.2029],[24.758935546875023,-3.8279598937558892,467.8896],[24.764550781250023,-3.82512786250588,467.4272],[24.767333984375,-3.82195403438088,466.7941],[24.769189453125023,-3.81829192500588,469.0541],[24.772607421875023,-3.81414153438088,476.5615],[24.753564453125023,-3.8076473937558859,479.306],[24.743310546875023,-3.7981747375058892,465.6577],[24.731689453125,-3.76580169063088,506.3188],[24.747216796875023,-3.75676848750588,468.2296],[24.768212890625023,-3.7192684875058859,468.0197],[24.783203125,-3.7002255187558859,465.4544],[24.793212890625,-3.69085051875588,462.0],[24.7958984375,-3.68596770625588,473.537],[24.793212890625,-3.65325286250588,463.7461],[24.791894531250023,-3.6479794250058859,478.3322],[24.78955078125,-3.64421965938088,474.198],[24.773828125000023,-3.58196380000588,464.37],[24.77197265625,-3.55095794063088,479.0699],[24.772216796875,-3.54387786250588,467.6501],[24.777099609375,-3.54070403438088,479.4804],[24.7900390625,-3.5398739562558892,469.454],[24.797509765625023,-3.5359677062558892,476.9355],[24.801025390625,-3.5263973937558859,478.7198],[24.801513671875,-3.5149716125058892,490.2276],[24.799951171875023,-3.50505950313088,478.4561],[24.782470703125,-3.47503020625588,493.7819],[24.780175781250023,-3.45842864375588,474.8053],[24.796875,-3.45110442500588,483.3764],[24.80908203125,-3.45110442500588,487.8142],[24.817138671875,-3.45012786250588,470.926],[24.823486328125,-3.4471005187558892,490.3564],[24.830664062500006,-3.44085051875588,478.115],[24.83349609375,-3.4363583312558892,485.2762],[24.834375,-3.4311825500058859,487.498],[24.834082031250006,-3.42009856563088,474.5637],[24.835693359375,-3.41228606563088,471.2405],[24.839599609375,-3.41130950313088,464.8385],[24.844140625000023,-3.4124325500058892,483.0235],[24.84765625,-3.41008880000588,485.5815],[24.864160156250023,-3.37664153438088,482.2424],[24.877343750000023,-3.3657528625058859,470.482],[24.89892578125,-3.36174895625588,479.4757],[24.906347656250006,-3.35173919063088,487.3677],[24.90234375,-3.28606536250588,475.8569],[24.901123046875,-3.28093840938088,477.0682],[24.89892578125,-3.2763973937558859,479.2502],[24.900146484375,-3.2715145812558859,482.3535],[24.9091796875,-3.2661434875058859,467.4787],[24.92333984375,-3.2637020812558859,479.6335],[24.936279296875,-3.2649716125058892,482.3511],[24.948632812500023,-3.26433684688088,462.6271],[24.960693359375,-3.25554778438088,488.3056],[24.963769531250023,-3.22112395625588,472.3954],[24.966699218750023,-3.21379973750588,472.4297],[24.98486328125,-3.1972958312558859,470.4686],[25.00732421875,-3.15496184688088,468.2705],[25.012792968750006,-3.1338192687558859,457.0036],[25.0087890625,-3.1184872375058892,466.3864],[25.008544921875,-3.11101653438088,454.5],[25.016992187500023,-3.0913388000058859,462.9208],[25.015625,-3.0874325500058859,455.2813],[25.008398437500006,-3.08489348750588,470.1891],[25.000585937500006,-3.07854583125588,457.735],[24.99765625,-3.0696591125058892,476.0244],[25.00537109375,-3.0600888000058859,454.6047],[25.011621093750023,-3.06194426875588,462.1669],[25.01806640625,-3.06975676875588,474.3338],[25.025292968750023,-3.0745419250058892,454.3574],[25.033300781250006,-3.0669247375058859,465.9159],[25.03515625,-3.05510833125588,482.3738],[25.02978515625,-3.04729583125588,481.2075],[25.022705078125,-3.0413388000058892,479.5076],[25.01904296875,-3.0359677062558892,472.3722],[25.020263671875,-2.9990536437558859,466.6284],[25.024511718750006,-2.97991301875588,477.6999],[25.033300781250006,-2.95769622188088,474.1015],[25.063085937500006,-2.91204192500588,475.711],[25.070410156250006,-2.87078215938088,476.6512],[25.105859375000023,-2.7908505187558892,455.6162],[25.1109375,-2.77337005000588,475.9466],[25.109765625000023,-2.7554013000058859,470.3506],[25.0947265625,-2.71062590938088,481.0373],[25.090576171875,-2.6902645812558892,481.3696],[25.085205078125,-2.6235653625058859,464.0231],[25.080078125,-2.6054989562558859,470.9085],[25.077246093750006,-2.5879208312558859,472.0563],[25.0810546875,-2.56658294063088,497.7268],[25.090576171875,-2.53606536250588,475.4288],[25.098388671875,-2.4531552062558859,468.3024],[25.107666015625,-2.41179778438088,471.0799],[25.120703125,-2.37517669063088,485.1516],[25.1357421875,-2.3474911437558892,481.3793],[25.140869140625,-2.3423153625058859,479.6375],[25.146679687500011,-2.3387020812558892,479.334],[25.151953125,-2.33416106563088,471.0407],[25.15625,-2.3264950500058892,482.1448],[25.156005859375,-2.2913388000058892,466.614],[25.15966796875,-2.28606536250588,480.1497],[25.185449218750023,-2.2798153625058859,466.6048],[25.1884765625,-2.26433684688088,459.9233],[25.184960937500023,-2.2441708312558859,482.0643],[25.19091796875,-2.22405364375588,470.2617],[25.175878906250006,-2.21282317500588,463.4657],[25.1650390625,-2.1936825500058892,480.4826],[25.158398437500011,-2.17156340938088,485.6626],[25.15625,-2.15227630000588,490.7411],[25.153076171875,-2.1463192687558892,468.4277],[25.1455078125,-2.14324309688088,475.198],[25.12548828125,-2.1421200500058859,480.5866],[25.112402343750006,-2.1385067687558892,493.78],[25.109619140625,-2.12981536250588,478.4885],[25.110449218750006,-2.11858489375588,481.0502],[25.107812500000023,-2.1079403625058859,493.171],[25.098730468750006,-2.09636809688088,499.3345],[25.094921875000011,-2.0952450500058859,481.5674],[25.090917968750006,-2.09710051875588,484.3991],[25.0810546875,-2.09368255000588,492.5655],[25.063232421875,-2.08342864375588,480.7067],[25.05615234375,-2.0752255187558859,491.9066],[25.05322265625,-2.0633114562558892,473.1391],[25.056396484375,-2.05388762813088,468.452],[25.070410156250006,-2.03289153438088,467.0558],[25.073632812500023,-2.0220028625058859,469.324],[25.072998046875,-2.00017669063088,471.1801],[25.071191406250023,-1.99138762813088,467.3586],[25.0673828125,-1.98381926875588,466.1708],[25.041748046875,-1.9648739562558859,480.5446],[25.015625,-1.94963958125588,487.3975],[25.009521484375,-1.945147393755889,467.9069],[25.0146484375,-1.9350888000058859,465.6859],[25.029541015625,-1.9189755187558859,462.8073],[25.036230468750006,-1.90984465938088,465.4757],[25.037841796875,-1.90032317500588,461.9055],[25.036376953125,-1.8906552062558859,476.0064],[25.033300781250006,-1.8813778625058859,470.9171],[25.028710937500023,-1.8740536437558859,475.6611],[25.016699218750006,-1.863604425005889,468.9273],[25.01220703125,-1.8540341125058859,482.0147],[25.011328125,-1.841631768755889,466.0697],[25.022705078125,-1.790850518755889,463.0736],[25.046972656250006,-1.74480559688088,455.6613],[25.051367187500006,-1.7251278625058859,460.1241],[25.053955078125,-1.7002255187558859,465.5181],[25.052001953125,-1.67620208125588,472.3853],[25.043212890625,-1.65886809688088,464.5371],[25.037353515625,-1.65081145625588,474.5033],[25.03173828125,-1.638995050005889,475.4698],[25.027441406250006,-1.6269833312558859,484.3401],[25.024658203125,-1.613604425005889,482.8417],[25.018457031250023,-1.60125090938088,485.4004],[25.015625,-1.597491143755889,482.8905],[25.011328125,-1.58977630000588,471.3245],[25.014892578125,-1.5854794250058859,468.7464],[25.021484375,-1.58294036250588,481.6425],[25.02587890625,-1.580401300005889,470.547],[25.0302734375,-1.57561614375588,478.5521],[25.0419921875,-1.5708309875058859,475.3235],[25.046972656250006,-1.56609465938088,464.5344],[25.047753906250023,-1.55974700313088,463.4602],[25.044824218750023,-1.554034112505889,460.7741],[25.041015625,-1.54924895625588,461.8904],[25.03955078125,-1.546221612505889,465.9559],[25.046142578125,-1.5220028625058859,475.0958],[25.045507812500006,-1.5097958312558859,474.6817],[25.036376953125,-1.50457122188088,461.3091],[25.01611328125,-1.496416925005889,467.5103],[25.007714843750023,-1.47625090938088,467.9152],[25.002685546875,-1.40862395625588,469.3801],[25.000585937500006,-1.401202081255889,448.5318],[24.997949218750023,-1.39470794063088,452.4914],[24.992919921875,-1.388995050005889,462.4821],[24.986328125,-1.38372161250588,457.7311],[24.98046875,-1.376299737505889,460.1329],[24.97802734375,-1.364092706255889,452.7478],[24.981054687500006,-1.3545223937558859,448.8872],[24.987890625,-1.34758880000588,450.8955],[24.994726562500006,-1.34197356563088,458.3459],[24.997949218750023,-1.33635833125588,443.3142],[24.997949218750023,-1.32537200313088,434.5793],[24.997314453125,-1.32024505000588,420.064],[24.973876953125,-1.26213958125588,438.0479],[24.958886718750023,-1.2402645812558859,421.0305],[24.930566406250023,-1.22649505000588,434.624],[24.91845703125,-1.207354425005889,455.7478],[24.91259765625,-1.202959893755889,452.7401],[24.8765625,-1.20501067500588,448.7916],[24.8681640625,-1.202959893755889,449.068],[24.86767578125,-1.20110442500588,441.3999],[24.861328125,-1.18938567500588,437.375],[24.869873046875,-1.172198175005889,416.5154],[24.856542968750006,-1.15911223750588,444.7851],[24.827246093750006,-1.14495208125588,419.4169],[24.82421875,-1.11931731563088,433.0596],[24.81591796875,-1.11663176875588,410.6456],[24.802978515625,-1.1240536437558859,443.554],[24.786376953125,-1.1284481750058859,443.4232],[24.774169921875,-1.12029387813088,451.4602],[24.751708984375,-1.08684661250588,442.2524],[24.741845703125023,-1.07952239375588,443.8438],[24.736474609375023,-1.07390715938088,443.3538],[24.740869140625023,-1.0615536437558859,439.7095],[24.752099609375023,-1.04216887813088,406.0],[24.750146484375023,-1.02703215938088,426.9186],[24.744384765625,-1.02312590938088,429.0737],[24.73583984375,-1.02288176875588,417.5485],[24.724853515625,-1.0185848937558859,430.8344],[24.670312500000023,-0.98040130000588,426.6371],[24.6630859375,-0.964678643755889,442.5075],[24.646630859375023,-0.95256926875588,438.9922],[24.614990234375,-0.93547942500588,443.7817],[24.573974609375,-0.88420989375588,398.5],[24.569726562500023,-0.87444426875588,426.9668],[24.56005859375,-0.86760833125588,423.3087],[24.55029296875,-0.862139581255889,405.2413],[24.546044921875023,-0.856963800005886,429.8719],[24.544921875,-0.84636809688088,419.3329],[24.5419921875,-0.83367278438088,427.7783],[24.53759765625,-0.82146575313088,430.1242],[24.532373046875023,-0.812530206255886,396.5],[24.51513671875,-0.80339934688088,430.1806],[24.46728515625,-0.788409112505889,427.1749],[24.457275390625,-0.774737237505889,425.0891],[24.45458984375,-0.75017669063088,418.0512],[24.447265625,-0.728057550005886,420.1343],[24.436181640625023,-0.70794036250588,413.1743],[24.422509765625023,-0.68962981563088,402.5898],[24.439355468750023,-0.68084075313088,414.1458],[24.451904296875,-0.67058684688088,423.5466],[24.453369140625,-0.65764739375588,460.2632],[24.436181640625023,-0.64128997188088,447.9897],[24.4169921875,-0.634112237505889,459.2833],[24.399316406250023,-0.63152434688088,432.8077],[24.386474609375,-0.62420012813088,428.9978],[24.381591796875,-0.603350518755889,462.9162],[24.391992187500023,-0.589678643755889,442.8948],[24.42724609375,-0.586455987505886,454.7507],[24.41943359375,-0.56926848750588,438.4021],[24.396728515625,-0.557159112505886,450.269],[24.373437500000023,-0.565948175005886,442.9529],[24.333886718750023,-0.599639581255886,390.5],[24.323876953125023,-0.583526300005886,418.3844],[24.319091796875,-0.55510833125588,412.2085],[24.318359375,-0.52654387813088,404.8124],[24.320703125000023,-0.51091887813088,432.3935],[24.331933593750023,-0.50212981563088,433.756],[24.3427734375,-0.49944426875588,439.638],[24.350830078125,-0.49480559688088,422.2999],[24.354248046875,-0.47991301875588,432.6297],[24.34716796875,-0.47454192500588,432.9569],[24.331201171875023,-0.48015715938088,437.9685],[24.314843750000023,-0.48992278438088,432.3413],[24.306396484375,-0.49724700313088,417.1558],[24.307031250000023,-0.486846612505886,404.188],[24.311914062500023,-0.469561456255889,434.4354],[24.312646484375023,-0.46379973750588,422.5195],[24.308984375000023,-0.44866301875588,433.0266],[24.304443359375,-0.443194268755889,433.953],[24.298095703125,-0.44011809688088,408.238],[24.2890625,-0.43206145625588,426.6546],[24.282470703125,-0.411944268755889,432.5255],[24.3203125,-0.39348723750588,429.6752],[24.327050781250023,-0.37371184688088,440.5478],[24.317138671875,-0.36467864375588,430.8622],[24.299072265625,-0.36077239375588,439.9979],[24.258447265625023,-0.35979583125588,453.4349],[24.245361328125,-0.357940362505886,434.5615],[24.2373046875,-0.35295989375588,418.5574],[24.24169921875,-0.343096612505889,433.4017],[24.249755859375,-0.33709075313088,431.6409],[24.27099609375,-0.32488372188088,416.2537],[24.278564453125,-0.31853606563088,417.32],[24.283447265625,-0.30022551875588,466.3889],[24.271240234375,-0.287627862505886,425.4241],[24.251855468750023,-0.28045012813088,431.9457],[24.23486328125,-0.278155206255889,448.5046],[24.221923828125,-0.268584893755886,432.4126],[24.220703125,-0.246612237505886,421.2656],[24.224609375,-0.20305755000588,452.991],[24.218017578125,-0.19109465938088,461.2137],[24.198486328125,-0.177080987505889,454.703],[24.1904296875,-0.168291925005889,440.3953],[24.187255859375,-0.15935637813088,443.641],[24.185937500000023,-0.147979425005886,435.552],[24.187646484375023,-0.138213800005886,422.5312],[24.19384765625,-0.13420989375588,439.2553],[24.19580078125,-0.130889581255886,449.4913],[24.188867187500023,-0.123907159380892,438.7797],[24.177392578125023,-0.116827081255892,430.2836],[24.166259765625,-0.11370208125588,445.5635],[24.12158203125,-0.11370208125588,426.8929]]}}