{"type":"Feature","properties":{"featurecla":"River","scalerank":8,"rivernum":833,"dissolve":"833River","name":"Sankuru2","name_alt":null,"note":null,"min_zoom":7.0,"strokeweig":0.25,"name_en":"Sankuru","min_label":8.0},
"geometry":{"type": "LineString","coordinates": [[23.84033203125,-6.35247161250588,540.0334],[23.841552734375,-6.34246184688088,539.6525],[23.843017578125,-6.3379208312558859,540.8959],[23.841455078125023,-6.33269622188088,540.0403],[23.83349609375,-6.32122161250588,605.7937],[23.826074218750023,-6.3137997375058887,594.1203],[23.809960937500023,-6.30144622188088,539.1819],[23.8056640625,-6.2944638000058859,566.1295],[23.806298828125023,-6.2771786437558887,581.0245],[23.81494140625,-6.26140715938088,559.5898],[23.82763671875,-6.24846770625588,538.3852],[23.84033203125,-6.2392880187558859,541.5032],[23.84033203125,-6.2337216125058887,549.2981],[23.826904296875,-6.2295223937558859,541.0768],[23.8046875,-6.2337216125058887,541.1125],[23.796044921875023,-6.22991301875588,532.3959],[23.7919921875,-6.2202450500058859,533.1044],[23.792871093750023,-6.2083309875058887,567.4286],[23.799462890625023,-6.1858700500058887,552.1568],[23.800195312500023,-6.1800106750058887,531.7385],[23.799462890625023,-6.16130950313088,530.8228],[23.802490234375,-6.1575497375058887,540.0316],[23.816162109375,-6.15105559688088,522.6323],[23.819238281250023,-6.14739348750588,534.3914],[23.813720703125,-6.1394833312558887,542.8212],[23.801171875000023,-6.13762786250588,537.667],[23.78759765625,-6.1382138000058859,520.0],[23.778955078125023,-6.1375302062558887,586.5833],[23.78662109375,-6.13323333125588,529.6191],[23.81298828125,-6.1101864562558887,521.9932],[23.800048828125,-6.10735442500588,520.0],[23.767480468750023,-6.11101653438088,532.3868],[23.757714843750023,-6.10271575313088,519.4941],[23.760498046875,-6.0926083312558887,533.4739],[23.789208984375023,-6.08587005000588,526.9589],[23.799462890625023,-6.0760067687558887,538.0568],[23.765380859375,-6.0637997375058887,519.5458],[23.74853515625,-6.0349911437558887,490.4756],[23.749414062500023,-5.99993255000588,505.7054],[23.76806640625,-5.9692684875058859,467.6942],[23.773583984375023,-5.95501067500588,469.8953],[23.751855468750023,-5.9336239562558859,462.5915],[23.75439453125,-5.92107512813088,493.5832],[23.763916015625,-5.90520598750588,468.5608],[23.76171875,-5.8916317687558859,468.6039],[23.749755859375,-5.8836239562558887,470.4953],[23.73046875,-5.8836239562558887,497.2226],[23.732080078125023,-5.8694638000058887,468.5412],[23.709375,-5.85003020625588,510.1112],[23.703125,-5.8320614562558859,531.9867],[23.704248046875023,-5.81487395625588,476.3352],[23.708154296875023,-5.80046965938088,500.7168],[23.716455078125023,-5.79070403438088,456.5],[23.73046875,-5.7874325500058887,467.7164],[23.71728515625,-5.7649716125058887,508.7999],[23.71875,-5.7532528625058887,453.0],[23.72607421875,-5.74236419063088,452.5],[23.73046875,-5.7221981750058859,464.2256],[23.731591796875023,-5.7114559875058859,460.2835],[23.736230468750023,-5.69646575313088,452.5772],[23.7373046875,-5.68499114375588,512.3781],[23.735107421875,-5.6853817687558887,472.7905],[23.73046875,-5.68450286250588,478.9527],[23.725830078125,-5.6814755187558887,498.9596],[23.7236328125,-5.6751278625058887,448.0],[23.724267578125023,-5.66863372188088,550.8138],[23.725830078125,-5.66521575313088,496.5735],[23.742919921875,-5.63884856563088,554.2025],[23.796044921875023,-5.59929778438088,537.0995],[23.86767578125,-5.52044036250588,561.0403]]}}