{"type":"Feature","properties":{"featurecla":"River","scalerank":7,"rivernum":501,"dissolve":"501River","name":"Lomami1","name_alt":null,"note":null,"min_zoom":6.0,"strokeweig":0.2,"name_en":"Lomami","min_label":7.0},
"geometry":{"type": "LineString","coordinates": [[24.724853515625,-8.3774716125058859,1049.9192],[24.743896484375,-8.3694638000058887,1062.595],[24.761865234375023,-8.3594052062558859,1035.46],[24.77490234375,-8.3457333312558859,1028.3313],[24.780175781250023,-8.32659270625588,1029.8784],[24.781152343750023,-8.30462005000588,1028.5005],[24.7802734375,-8.29338958125588,1006.0602],[24.7705078125,-8.27459075313088,1023.2181],[24.7744140625,-8.26506926875588,1043.5527],[24.78173828125,-8.2563778625058859,1040.3541],[24.786376953125,-8.24773528438088,1035.8169],[24.784570312500023,-8.2026669250058859,997.2196],[24.788232421875023,-8.1824520812558887,1016.3475],[24.818603515625,-8.1409481750058887,991.9434],[24.821191406250023,-8.1199520812558887,996.3278],[24.814160156250011,-8.07586028438088,986.3126],[24.818603515625,-8.0512997375058859,991.2074],[24.832421875000023,-8.03215911250588,1003.1882],[24.87158203125,-7.9973934875058887,991.8127],[24.879638671875,-7.99358489375588,977.0646],[24.890869140625,-7.99285247188088,982.799],[24.91259765625,-7.9939755187558887,968.861],[24.921142578125,-7.9925106750058887,970.6418],[24.929443359375,-7.9887997375058859,975.4161],[24.943359375,-7.97966887813088,956.3549],[24.965234375000023,-7.95305755000588,987.8445],[24.975195312500006,-7.93425872188088,987.4336],[24.967480468750011,-7.92571380000588,973.7888],[24.95947265625,-7.91423919063088,976.6788],[24.965234375000023,-7.88811614375588,973.9386],[24.98486328125,-7.84368255000588,947.842],[25.001367187500023,-7.82805755000588,978.2073],[25.024121093750011,-7.8118466125058887,989.2117],[25.04443359375,-7.7932919250058887,968.2287],[25.05322265625,-7.77166106563088,941.0161],[25.059179687500006,-7.74651458125588,932.5944],[25.07421875,-7.73040130000588,931.964],[25.115234375,-7.7065731750058859,890.2513],[25.177734375,-7.64641692500588,877.6869],[25.194042968750011,-7.63762786250588,873.6898],[25.215039062500011,-7.6297177062558887,874.1348],[25.23876953125,-7.6098934875058859,884.7883],[25.258056640625,-7.5843075500058887,877.17],[25.26611328125,-7.55852630000588,879.5287],[25.265625,-7.5278622375058859,877.5204],[25.261621093750023,-7.5135067687558887,882.8561],[25.251855468750023,-7.50042083125588,861.4162],[25.237548828125,-7.4900692687558887,865.7607],[25.228759765625,-7.4851864562558887,859.5046],[25.222900390625,-7.47771575313088,866.5908],[25.217675781250023,-7.4595028625058859,872.0999],[25.218505859375,-7.45989348750588,877.1704],[25.217675781250023,-7.43840911250588,867.2068],[25.21142578125,-7.41179778438088,873.2155],[25.209570312500006,-7.39373137813088,864.3],[25.2109375,-7.37468840938088,890.6909],[25.215917968750006,-7.35711028438088,886.7295],[25.22509765625,-7.34343840938088,856.7318],[25.225341796875,-7.32927825313088,871.0079],[25.23779296875,-7.31340911250588,912.4653],[25.255273437500023,-7.3003231750058859,887.2648],[25.26953125,-7.2949520812558859,868.1577],[25.280859375,-7.2871395812558859,856.9575],[25.306640625,-7.2483700500058887,889.5405],[25.313867187500023,-7.23357512813088,866.3605],[25.316015625,-7.2229794250058887,854.681],[25.31689453125,-7.2024716125058887,856.7363],[25.3212890625,-7.1927059875058887,890.582],[25.330175781250006,-7.18694426875588,877.1954],[25.351171875,-7.1816708312558859,854.1816],[25.35546875,-7.17546965938088,852.1595],[25.36376953125,-7.1675106750058859,851.9015],[25.403076171875,-7.14397551875588,878.4269],[25.426025390625,-7.13372161250588,855.2096],[25.457275390625,-7.1243466125058887,886.489],[25.460839843750023,-7.1175106750058887,865.0361],[25.464941406250006,-7.11272551875588,858.9498],[25.470898437500011,-7.11003997188088,853.4096],[25.471777343750006,-7.1123348937558859,852.897],[25.479248046875,-7.1221005187558859,850.7188],[25.481835937500023,-7.1243466125058887,849.937],[25.50146484375,-7.12127044063088,849.4368],[25.51611328125,-7.11394622188088,899.0231],[25.540429687500023,-7.09636809688088,881.0724],[25.5810546875,-7.0835263000058859,863.2034],[25.6044921875,-7.07268645625588,845.0558],[25.61484375,-7.05852630000588,845.7919],[25.619384765625,-7.0503231750058859,845.5228],[25.629980468750006,-7.0449520812558859,843.6506],[25.642578125,-7.0420223937558859,844.6276],[25.653076171875,-7.04119231563088,841.8369],[25.670507812500006,-7.03606536250588,841.2272],[25.6669921875,-7.0254208312558859,840.8577],[25.655664062500023,-7.0159481750058887,863.8762],[25.649658203125,-7.0144833312558887,843.2222],[25.647070312500006,-6.96672942500588,856.9867],[25.643457031250023,-6.9524716125058887,882.8513],[25.560791015625,-6.82952239375588,886.6481],[25.500390625000023,-6.7744442687558859,849.7965],[25.48388671875,-6.74578215938088,878.9771],[25.451074218750023,-6.72063567500588,849.3528],[25.443457031250006,-6.70256926875588,854.8898],[25.446191406250023,-6.68889739375588,852.1117],[25.464746093750023,-6.64397551875588,836.3495],[25.46826171875,-6.6292294250058887,831.3003],[25.468652343750023,-6.6123348937558859,831.2346],[25.46435546875,-6.59514739375588,852.7501],[25.45361328125,-6.5794247375058887,850.3292],[25.4248046875,-6.55462005000588,841.2932],[25.4111328125,-6.5469052062558859,828.2505],[25.402587890625,-6.5476864562558887,819.033],[25.39501953125,-6.53704192500588,832.7256],[25.38818359375,-6.5346981750058859,840.0786],[25.381933593750006,-6.53557708125588,833.3958],[25.3759765625,-6.5346981750058859,839.0916],[25.3603515625,-6.5252255187558887,861.7349],[25.287109375,-6.44524505000588,841.356],[25.25927734375,-6.40374114375588,826.7225],[25.248046875,-6.3948544250058887,819.4602],[25.223388671875,-6.3811825500058887,799.6958],[25.199462890625,-6.35930755000588,786.5127],[25.166894531250023,-6.3426083312558887,771.2772],[25.1494140625,-6.32927825313088,761.3275],[25.147558593750006,-6.3252255187558859,761.3398],[25.14501953125,-6.31218840938088,791.7273],[25.143164062500006,-6.3081356750058859,785.8528],[25.1376953125,-6.30535247188088,776.65],[25.126074218750006,-6.3030575500058887,779.9273],[25.1220703125,-6.3012997375058859,783.0067],[25.103515625,-6.2903622375058887,747.6313],[25.098535156250023,-6.28240325313088,747.1832],[25.104589843750006,-6.27092864375588,748.1351],[25.123779296875,-6.25750090938088,773.5095],[25.19091796875,-6.2337216125058887,745.1017],[25.201416015625,-6.2256161437558859,779.6508],[25.20361328125,-6.2197567687558859,754.7073],[25.206298828125,-6.21746184688088,739.9581],[25.217675781250023,-6.2200497375058887,792.1453],[25.2255859375,-6.23308684688088,775.1705],[25.232519531250006,-6.2390927062558887,814.2965],[25.2421875,-6.23650481563088,742.8266],[25.26328125,-6.2236630187558859,729.3004],[25.327539062500023,-6.2119442687558859,722.4847],[25.345605468750023,-6.2016903625058859,738.1721],[25.39208984375,-6.14739348750588,720.3289],[25.408935546875,-6.1355770812558887,750.4466],[25.428955078125,-6.1277645812558887,705.2735],[25.470898437500011,-6.1162411437558859,738.409],[25.492089843750023,-6.10442473750588,704.1633],[25.498779296875,-6.10271575313088,697.5229],[25.509765625,-6.10491301875588,713.7855],[25.53076171875,-6.11419036250588,695.6138],[25.54345703125,-6.1162411437558859,724.6472],[25.5537109375,-6.11419036250588,714.3601],[25.838623046875,-5.99456145625588,695.3851],[25.880273437500023,-5.98308684688088,644.9135],[25.917236328125,-5.98601653438088,661.8109],[25.93310546875,-5.9995419250058859,610.8794],[25.94375,-6.00676848750588,598.1005],[25.95068359375,-6.00652434688088,609.1887],[25.95263671875,-5.99089934688088,614.4679],[25.94580078125,-5.97820403438088,592.3931],[25.943261718750023,-5.96599700313088,579.9544],[25.958105468750006,-5.95183684688088,590.896],[25.945214843750023,-5.93694426875588,625.9865],[25.940332031250023,-5.92815520625588,666.2095],[25.941015625,-5.92107512813088,698.8183],[25.96142578125,-5.90520598750588,655.7659],[25.96435546875,-5.90032317500588,609.3937],[25.96826171875,-5.8797177062558887,593.3735],[25.965917968750006,-5.87127044063088,611.2327],[25.954345703125,-5.8594052062558859,631.3585],[25.94970703125,-5.85222747188088,611.2203],[25.944921875,-5.83294036250588,564.7936],[25.941015625,-5.8252255187558859,605.1384],[25.93798828125,-5.82586028438088,590.1525],[25.910400390625,-5.81462981563088,608.4886],[25.905517578125,-5.8113583312558887,598.3898],[25.900390625,-5.80413176875588,573.2106],[25.896582031250006,-5.8011044250058887,563.8569],[25.883203125000023,-5.79949309688088,560.0739],[25.883056640625,-5.8011044250058887,565.661],[25.870507812500023,-5.79241301875588,560.6255],[25.858300781250023,-5.78069426875588,587.9158],[25.853515625,-5.76555755000588,598.4877],[25.863183593750023,-5.7464169250058887,561.7412]]}}