{"type":"Feature","properties":{"featurecla":"River","scalerank":6,"rivernum":296,"dissolve":"296River","name":"Tshuapa1","name_alt":null,"note":null,"min_zoom":5.0,"strokeweig":0.2,"name_en":"Tshuapa","min_label":6.0},
"geometry":{"type": "LineString","coordinates": [[24.388427734375,-2.6560848937558892,599.7182],[24.362451171875023,-2.4178036437558892,490.0226],[24.351220703125023,-2.3987606750058892,511.8381],[24.227685546875023,-2.24846770625588,514.5427],[24.190820312500023,-2.22698333125588,517.7736],[24.17578125,-2.2024716125058892,494.5993],[24.155664062500023,-2.15569426875588,480.0308],[24.1455078125,-2.12127044063088,474.9742],[24.142578125,-2.1147763000058859,504.9726],[24.13037109375,-2.11174895625588,471.5605],[24.120361328125,-2.11565520625588,477.3419],[24.110253906250023,-2.11834075313088,488.9371],[24.097558593750023,-2.1113583312558859,509.4211],[24.03271484375,-2.0532528625058859,529.8967],[24.011132812500023,-2.0222958312558892,533.767],[23.995996093750023,-1.98333098750588,506.596],[23.9775390625,-1.90178801875588,499.1536],[23.97314453125,-1.8379208312558859,514.166],[23.96728515625,-1.82268645625588,494.674],[23.955957031250023,-1.806475518755889,498.8012],[23.950341796875023,-1.78777434688088,495.5492],[23.948876953125023,-1.768877862505889,506.117],[23.9501953125,-1.75164153438088,499.6846],[23.962304687500023,-1.6987606750058859,477.971],[23.9638671875,-1.67937590938088,489.9154],[23.961181640625,-1.65642669063088,493.1142],[23.943359375,-1.600909112505889,486.6226],[23.926904296875023,-1.44255950313088,484.9006],[23.917626953125023,-1.40740325313088,439.1149],[23.91552734375,-1.39128997188088,429.4251],[23.90966796875,-1.37737395625588,427.1848],[23.895263671875,-1.363604425005889,420.4171],[23.87744140625,-1.35247161250588,419.778],[23.86083984375,-1.34636809688088,438.0103],[23.815820312500023,-1.3471981750058859,461.8387],[23.75048828125,-1.36126067500588,447.6213],[23.72705078125,-1.36052825313088,449.4969],[23.716796875,-1.3501278625058859,455.129],[23.711572265625023,-1.3345028625058859,438.4821],[23.699121093750023,-1.317705987505889,443.9316],[23.684472656250023,-1.30413176875588,441.788],[23.6728515625,-1.29851653438088,427.0999],[23.6630859375,-1.291338800005889,413.5956],[23.657373046875023,-1.27459075313088,413.7567],[23.653564453125,-1.2563778625058859,416.8253],[23.649169921875,-1.243975518755889,424.0383],[23.634912109375023,-1.24895598750588,416.5545],[23.6181640625,-1.245928643755889,418.2819],[23.6005859375,-1.2402645812558859,434.1049],[23.453515625000023,-1.22161223750588,458.0513],[23.439697265625,-1.2270809875058859,449.1176],[23.389404296875,-1.2070614562558859,421.4655],[23.370849609375,-1.202959893755889,457.3863],[23.352685546875023,-1.209307550005889,445.033],[23.34375,-1.21038176875588,463.0],[23.33544921875,-1.20867278438088,457.8466],[23.330468750000023,-1.20476653438088,450.7892],[23.326171875,-1.20012786250588,418.0801],[23.319580078125,-1.196123956255889,443.3133],[23.270898437500023,-1.187823175005889,429.3652],[23.265625,-1.18425872188088,448.3905],[23.262353515625023,-1.17986419063088,446.7892],[23.257568359375,-1.1762997375058859,424.9816],[23.196044921875,-1.1626278625058859,435.6002],[23.1787109375,-1.1509091125058859,413.2275],[23.1640625,-1.13738372188088,410.6344],[23.150048828125023,-1.131182550005889,403.4902],[23.134667968750023,-1.14153411250588,416.2118],[23.123193359375023,-1.1250302062558859,403.1758],[23.105615234375023,-1.11712005000588,412.0508],[23.073144531250023,-1.113604425005889,399.4024],[23.023339843750023,-1.1152645812558859,399.2822],[23.0048828125,-1.113604425005889,422.7853],[23.01025390625,-1.0967098937558859,430.7172],[23.0029296875,-1.086260675005889,424.9657],[22.988671875000023,-1.080889581255889,395.8651],[22.97314453125,-1.07952239375588,412.353],[22.96435546875,-1.07415130000588,391.7545],[22.938867187500023,-1.05071380000588,402.2585],[22.92578125,-1.04534270625588,411.7892],[22.91650390625,-1.037920831255889,417.9872],[22.911865234375,-1.0049130187558859,406.9748],[22.8984375,-0.99749114375588,396.3625],[22.871972656250023,-0.956573175005886,384.1902],[22.8671875,-0.94597747188088,386.3047],[22.826171875,-0.91497161250588,386.0599],[22.808251953125023,-0.913409112505889,404.1551],[22.780175781250023,-0.917022393755886,408.4584],[22.74462890625,-0.91228606563088,402.6106],[22.736230468750023,-0.907549737505889,405.9429],[22.740478515625,-0.89788176875588,397.7078],[22.74658203125,-0.88811614375588,395.4003],[22.738916015625023,-0.88567473750588,390.2192],[22.72314453125,-0.88762786250588,410.5254],[22.72119140625,-0.89055755000588,398.2859],[22.706298828125,-0.90398528438088,399.579],[22.70263671875,-0.905108331255889,391.7857],[22.698876953125023,-0.90496184688088,381.9836],[22.689843750000023,-0.901202081255889,393.6686],[22.678466796875,-0.898467706255886,385.6416],[22.66845703125,-0.90129973750588,400.0256],[22.66650390625,-0.89617278438088,402.8952],[22.663964843750023,-0.892120050005886,393.641],[22.662011718750023,-0.887530206255889,388.412],[22.66162109375,-0.88079192500588,397.4596],[22.640527343750023,-0.88518645625588,389.2845],[22.626855468750023,-0.876788018755889,407.1334],[22.616943359375,-0.86882903438088,405.6799],[22.6064453125,-0.874541925005886,388.1339],[22.600341796875,-0.86834075313088,373.9267],[22.592041015625,-0.85711028438088,383.7761],[22.587158203125,-0.853545831255886,395.4854],[22.563720703125,-0.85125090938088,372.3653],[22.559326171875,-0.850127862505886,370.5855],[22.554931640625,-0.838213800005889,362.5594],[22.533203125,-0.822784112505886,372.776],[22.525048828125023,-0.812530206255886,373.8635],[22.495263671875023,-0.81536223750588,387.5412],[22.434472656250023,-0.775225518755889,379.1763],[22.408349609375023,-0.778350518755886,405.5222],[22.403076171875,-0.766436456255889,385.1854],[22.40625,-0.74749114375588,391.5668],[22.401611328125,-0.736846612505886,398.9788],[22.394921875000023,-0.73406340938088,383.7609],[22.372314453125,-0.72918059688088,395.042],[22.367431640625,-0.72698333125588,399.4402],[22.367431640625,-0.69280364375588,368.3981],[22.363916015625023,-0.68132903438088,370.2781],[22.35498046875,-0.683623956255886,372.9082],[22.343896484375023,-0.69133880000588,374.1144],[22.333398437500023,-0.695830987505886,373.9135],[22.332763671875,-0.69280364375588,380.5852],[22.329003906250023,-0.686065362505886,379.8544],[22.323876953125023,-0.679229425005886,389.0756],[22.319091796875,-0.676104425005889,379.2166],[22.314355468750023,-0.67693450313088,387.4126],[22.3125,-0.67962005000588,386.3856],[22.310546875,-0.68181731563088,375.0216],[22.305419921875,-0.68157317500588,378.128],[22.301025390625,-0.68279387813088,382.5193],[22.291748046875,-0.68328215938088,391.7304],[22.282373046875023,-0.679034112505889,369.9617],[22.278076171875,-0.66545989375588,379.5014],[22.27392578125,-0.64104583125588,364.0966],[22.262451171875,-0.633623956255889,350.0162],[22.223535156250023,-0.633819268755886,384.1846],[22.181884765625,-0.620147393755886,371.1711],[22.126123046875023,-0.594268487505886,364.5268],[22.117919921875,-0.570830987505886,357.6172],[22.110253906250023,-0.56560637813088,341.5],[22.10498046875,-0.567413018755886,365.6566],[22.099365234375,-0.57195403438088,364.3858],[22.094873046875023,-0.57756926875588,358.8506],[22.090722656250023,-0.59246184688088,362.8188],[22.08544921875,-0.589873956255886,363.2555],[22.080712890625023,-0.582842706255889,361.4362],[22.079345703125,-0.579131768755886,362.6031],[22.0693359375,-0.57317473750588,357.3303],[22.051660156250023,-0.556182550005886,366.9448],[22.044677734375,-0.551788018755886,346.304],[22.032470703125,-0.551299737505886,365.0857],[22.01171875,-0.55706145625588,362.3636],[22.0009765625,-0.558623956255886,361.1083]]}}