{"type":"Feature","properties":{"featurecla":"River","scalerank":8,"rivernum":833,"dissolve":"833River","name":"Sankuru1","name_alt":null,"note":null,"min_zoom":7.0,"strokeweig":0.2,"name_en":"Sankuru","min_label":8.0},
"geometry":{"type": "LineString","coordinates": [[24.12158203125,-9.63128020625588,1026.842],[24.12158203125,-9.55339934688088,1008.759],[24.126220703125,-9.5386044250058859,1009.9423],[24.148193359375,-9.5012997375058887,1003.8014],[24.155664062500023,-9.4817684875058887,1005.6071],[24.15576171875,-9.46184661250588,1006.5108],[24.145263671875,-9.42156340938088,981.2526],[24.142578125,-9.40252044063088,988.9157],[24.143310546875,-9.3806942687558887,977.4678],[24.142333984375,-9.36931731563088,974.3169],[24.138916015625,-9.36443450313088,978.8137],[24.130859375,-9.3608700500058859,984.3508],[24.11474609375,-9.3377255187558887,984.7357],[24.063134765625023,-9.29607512813088,961.5727],[24.062744140625,-9.29143645625588,962.2708],[24.056787109375023,-9.28167083125588,964.5909],[24.049707031250023,-9.27312590938088,960.3524],[24.04638671875,-9.27190520625588,960.2491],[24.04248046875,-9.26897551875588,960.0895],[24.019189453125023,-9.2552059875058887,965.8079],[24.00830078125,-9.23870208125588,969.8599],[23.988916015625023,-9.19597747188088,960.1863],[23.92626953125,-9.12371184688088,953.1827],[23.909326171875023,-9.1111630187558887,952.5056],[23.887109375000023,-9.10491301875588,950.0059],[23.840966796875023,-9.10271575313088,951.145],[23.822998046875,-9.0937802062558859,954.9504],[23.790673828125023,-9.06633880000588,946.2357],[23.77783203125,-9.05046965938088,960.5992],[23.771484375,-9.02922942500588,973.2637],[23.774804687500023,-8.9990536437558859,960.4169],[23.80224609375,-8.9546200500058859,972.2331],[23.81298828125,-8.92620208125588,977.9569],[23.8125,-8.91619231563088,952.9365],[23.809472656250023,-8.9109677062558887,974.5823],[23.808837890625,-8.9055966125058887,962.438],[23.816162109375,-8.89544036250588,956.9926],[23.84033203125,-8.87102630000588,938.5957],[23.8681640625,-8.82927825313088,964.5271],[23.889550781250023,-8.8172177062558887,960.9236],[23.89697265625,-8.80291106563088,959.7097],[23.903466796875023,-8.7859677062558887,948.6307],[23.918701171875,-8.76213958125588,940.3749],[23.924218750000023,-8.7490536437558859,946.8093],[23.927734375,-8.73552825313088,924.3046],[23.931396484375,-8.64397551875588,915.0831],[23.930078125000023,-8.62908294063088,912.7173],[23.9228515625,-8.6108700500058859,917.8617],[23.926904296875023,-8.60686614375588,914.2957],[23.932031250000023,-8.5967098937558859,919.0131],[23.9365234375,-8.5903622375058859,919.5508],[23.926513671875,-8.5755184875058887,904.4848],[23.922753906250023,-8.55486419063088,926.9261],[23.9228515625,-8.5112606750058859,903.2336],[23.926025390625,-8.50237395625588,902.2232],[23.933007812500023,-8.49456145625588,914.2731],[23.941064453125023,-8.48894622188088,921.9717],[23.94677734375,-8.48674895625588,917.4209],[23.951904296875,-8.48088958125588,908.5022],[23.950097656250023,-8.4685848937558887,905.1603],[23.945703125000023,-8.4568661437558887,914.4308],[23.943359375,-8.4531552062558859,908.5665],[23.947656250000023,-8.38469817500588,898.5129],[23.93994140625,-8.36785247188088,900.1824],[23.926904296875023,-8.34832122188088,904.0397],[23.9248046875,-8.32927825313088,928.4174],[23.93115234375,-8.31145598750588,966.9684],[23.943359375,-8.29558684688088,1059.3971],[23.950439453125,-8.29045989375588,1001.63],[23.969140625000023,-8.2812802062558859,917.3645],[23.9775390625,-8.27507903438088,917.4251],[23.99462890625,-8.25457122188088,892.2996],[24.001855468750023,-8.2420223937558887,909.7734],[24.0048828125,-8.23040130000588,899.5317],[24.0048828125,-8.0662411437558887,872.6734],[23.9990234375,-8.0405575500058859,865.3126],[23.96923828125,-8.0019833312558859,862.4359],[23.95703125,-7.97966887813088,867.3595],[23.95654296875,-7.9580380187558859,866.3779],[23.967529296875,-7.90813567500588,859.5444],[23.96728515625,-7.89495208125588,843.9664],[23.957275390625,-7.87590911250588,840.8701],[23.955224609375023,-7.85247161250588,840.2349],[23.95703125,-7.8096005187558859,842.2668],[23.950439453125,-7.78630950313088,853.3226],[23.927734375,-7.74749114375588,851.5066],[23.9228515625,-7.73015715938088,824.2916],[23.926025390625,-7.56536223750588,821.8605],[23.9326171875,-7.5542294250058859,811.42],[23.932861328125,-7.54705169063088,829.0057],[23.9306640625,-7.54045989375588,823.7939],[23.929101562500023,-7.53118255000588,805.5124],[23.931640625,-7.5242489562558887,823.1883],[23.937744140625,-7.51873137813088,823.1212],[23.944726562500023,-7.51360442500588,813.3539],[23.9501953125,-7.5078427062558859,803.8896],[23.957275390625,-7.4944638000058887,803.4421],[23.9638671875,-7.47722747188088,801.1505],[23.980224609375,-7.3882138000058859,785.1945],[23.986474609375023,-7.38176848750588,780.6244],[23.99365234375,-7.37737395625588,779.5264],[23.998681640625023,-7.37078215938088,786.9118],[24.000878906250023,-7.36248137813088,775.5049],[24.00048828125,-7.35686614375588,773.1174],[23.997460937500023,-7.35125090938088,773.4818],[23.9912109375,-7.34343840938088,772.7297],[23.968994140625,-7.33269622188088,760.9424],[23.958251953125,-7.3235653625058887,766.3171],[23.96044921875,-7.31267669063088,796.7882],[23.972412109375,-7.29314544063088,775.4979],[23.975341796875,-7.2710263000058859,751.274],[23.967919921875023,-7.20623137813088,742.4575],[23.969970703125,-7.1972958312558859,756.3801],[23.9775390625,-7.18523528438088,750.6807],[24.006982421875023,-7.1670223937558859,729.0117],[24.01171875,-7.16155364375588,731.7399],[24.01513671875,-7.1502255187558887,741.7909],[24.038964843750023,-7.10320403438088,735.8695],[24.041406250000023,-7.10173919063088,728.0867],[24.050048828125,-7.0986630187558859,700.4415],[24.05322265625,-7.09636809688088,675.2993],[24.055322265625023,-7.0916317687558887,676.137],[24.058251953125023,-7.0791317687558859,680.8051],[24.059472656250023,-7.0760067687558887,680.2086],[24.06640625,-7.07073333125588,673.2493],[24.075341796875023,-7.0664364562558859,674.7703],[24.085839843750023,-7.06340911250588,672.7332],[24.097558593750023,-7.0623348937558887,668.8402],[24.120507812500023,-7.0569638000058887,660.0848],[24.136132812500023,-7.0428036437558887,661.2571],[24.145263671875,-7.02312590938088,648.8232],[24.148828125000023,-7.0008114562558887,653.9993],[24.146728515625,-7.0012997375058887,650.6829],[24.141992187500023,-7.00090911250588,637.0328],[24.137353515625023,-6.9985653625058859,629.8546],[24.13525390625,-6.99334075313088,663.7271],[24.136962890625,-6.98845794063088,661.0968],[24.14111328125,-6.9827450500058887,641.2783],[24.145654296875023,-6.9790341125058859,629.3499],[24.148828125000023,-6.98040130000588,628.6907],[24.143310546875,-6.9712216125058859,628.7906],[24.125390625000023,-6.95061614375588,630.9104],[24.12158203125,-6.9490536437558887,628.9948],[24.1240234375,-6.9375302062558859,654.7435],[24.130615234375,-6.9324520812558887,668.9769],[24.140527343750023,-6.9311825500058859,660.6007],[24.152246093750023,-6.93132903438088,633.5154],[24.15380859375,-6.9272763000058859,627.1613],[24.148828125000023,-6.89714934688088,661.4169],[24.144921875000023,-6.89568450313088,713.6232],[24.1376953125,-6.8885067687558887,684.5512],[24.13525390625,-6.88054778438088,703.6497],[24.145751953125,-6.87664153438088,676.2365],[24.151025390625023,-6.8728817687558887,640.9744],[24.15673828125,-6.86394622188088,652.9283],[24.161279296875023,-6.85369231563088,621.985],[24.1630859375,-6.84587981563088,609.8464],[24.156005859375,-6.8089169250058887,595.4443],[24.155664062500023,-6.8015927062558887,601.7726],[24.165185546875023,-6.7928036437558887,597.4063],[24.177734375,-6.7874325500058887,605.3375],[24.182519531250023,-6.7805966125058887,595.8501],[24.169335937500023,-6.7674130187558887,619.3682],[24.1533203125,-6.7742489562558887,604.2383],[24.149560546875023,-6.75969817500588,597.8843],[24.154052734375,-6.73723723750588,614.4896],[24.1630859375,-6.71965911250588,614.9793],[24.16943359375,-6.7158505187558859,617.3583],[24.184472656250023,-6.71160247188088,592.1179],[24.1904296875,-6.70598723750588,607.8731],[24.189111328125023,-6.70403411250588,603.2387],[24.1904296875,-6.6787411437558859,610.6857],[24.187158203125023,-6.6580380187558887,586.5236],[24.182373046875,-6.64714934688088,598.9727],[24.13427734375,-6.6043270812558887,630.1713],[24.12158203125,-6.59612395625588,598.4759],[24.106591796875023,-6.5996395812558859,597.4944],[24.063867187500023,-6.5869442687558859,622.9692],[24.042724609375,-6.5830380187558859,628.9926],[24.03955078125,-6.5840145812558859,618.2502],[24.0375,-6.5862606750058887,598.3806],[24.03466796875,-6.5884091125058859,595.1027],[24.029052734375,-6.58928801875588,571.2213],[24.025146484375,-6.58709075313088,569.7229],[24.025634765625,-6.57781340938088,636.6146],[24.016503906250023,-6.5713192687558859,567.8055],[24.00634765625,-6.5520809875058887,563.0],[24.001708984375,-6.5476864562558887,586.0072],[23.978759765625,-6.54436614375588,580.6041],[23.97412109375,-6.53533294063088,578.1475],[23.977197265625023,-6.52239348750588,555.0],[23.9775390625,-6.5073544250058859,575.4855],[23.966455078125023,-6.48845794063088,553.9369],[23.930078125000023,-6.4560848937558859,567.0131],[23.906640625000023,-6.42766692500588,559.8935],[23.898681640625,-6.4199520812558859,547.7325],[23.896875,-6.4121395812558859,565.4285],[23.905908203125023,-6.4007138000058887,546.7451],[23.912988281250023,-6.38909270625588,550.4369],[23.905908203125023,-6.3843075500058859,567.9422],[23.864892578125023,-6.3843075500058859,603.6168],[23.850976562500023,-6.3823544250058859,538.9539],[23.843017578125,-6.37346770625588,540.2183],[23.84033203125,-6.35247161250588,540.0334]]}}