{"type":"Feature","properties":{"GID_2":"COD.20.2_1","GID_0":"COD","country":"DemocraticRepublicoftheCongo","GID_1":"COD.20_1","province":"Nord-Ubangi","NL_NAME_1":"NA","county":"Businga","VARNAME_2":"NA","NL_NAME_2":"NA","TYPE_2":"Territoire","ENGTYPE_2":"Territory","CC_2":"NA","HASC_2":"NA","name":"Businga.county"},
"geometry":{"type": "MultiPolygon","coordinates": [[[[22.1166,2.9443,390.2397],[22.1163,2.9782,434.4596],[22.1154,2.9858,419.929],[22.11,2.9988,425.3706],[22.1085,3.0136,420.42],[22.1109,3.0334,410.8173],[22.1071,3.0511,411.3621],[22.1064,3.0821,409.9363],[22.1051,3.0989,449.7918],[22.1014,3.1134,462.0347],[22.1012,3.1286,422.2665],[22.0982,3.1385,428.3908],[22.091,3.1508,422.4924],[22.0814,3.1805,476.4047],[22.0749,3.1882,458.2839],[22.0649,3.2142,494.8078],[22.0536,3.2279,452.9454],[22.0509,3.2447,500.6654],[22.0412,3.2524,532.0257],[22.0338,3.2547,534.7553],[22.0163,3.2521,537.8384],[22.0064,3.2545,558.0147],[21.9967,3.2605,560.4343],[21.9714,3.2694,534.7824],[21.9639,3.2752,522.0593],[21.9526,3.2928,513.4663],[21.9464,3.2951,488.983],[21.9292,3.2947,480.6635],[21.9174,3.2981,476.3943],[21.8889,3.3267,511.0375],[21.8803,3.3287,487.1622],[21.8709,3.3279,488.1326],[21.8566,3.3237,507.4995],[21.8367,3.3137,486.4082],[21.8297,3.3115,505.7893],[21.8214,3.3122,474.9064],[21.8149,3.3177,510.1541],[21.8023,3.3388,505.7957],[21.787,3.379,507.9101],[21.7827,3.384,502.1488],[21.7717,3.3847,474.9717],[21.7598,3.3825,479.7449],[21.7553,3.3774,486.9037],[21.7426,3.358,521.5976],[21.7205,3.318,531.2003],[21.7124,3.3102,507.2462],[21.6987,3.3039,492.9939],[21.6731,3.3002,471.6443],[21.6653,3.2964,445.7704],[21.6596,3.2921,469.7917],[21.6524,3.2802,489.9017],[21.6478,3.2767,499.5121],[21.6357,3.2699,500.9128],[21.6104,3.2604,505.916],[21.5861,3.2374,508.3141],[21.5764,3.2325,496.9187],[21.5724,3.2333,497.0274],[21.5641,3.2731,466.5276],[21.5534,3.2863,438.7967],[21.5494,3.3216,502.1534],[21.5472,3.3269,517.4575],[21.5373,3.3338,528.272],[21.4687,3.361,481.2973],[21.359,3.395,491.947],[21.3265,3.4081,502.0394],[21.2859,3.427,481.3587],[21.2713,3.436,435.2302],[21.2684,3.4394,419.4784],[21.266,3.4474,422.3653],[21.2589,3.4563,385.8026],[21.258,3.4621,385.6866],[21.2628,3.4659,385.131],[21.2727,3.4659,378.5355],[21.2824,3.4593,385.2656],[21.2864,3.4588,378.7181],[21.2902,3.4597,381.4813],[21.3013,3.4681,387.4057],[21.3099,3.4965,402.2704],[21.3147,3.5019,404.8658],[21.3206,3.5045,457.4719],[21.3332,3.5272,415.897],[21.3373,3.5604,424.2925],[21.3466,3.5671,412.4713],[21.3544,3.5752,448.9772],[21.3686,3.5979,417.0482],[21.3811,3.6063,423.3661],[21.4221,3.6435,406.8643],[21.4282,3.6541,401.4371],[21.4366,3.662,424.2029],[21.4426,3.6865,404.54],[21.4589,3.7032,412.5841],[21.4487,3.7197,417.7979],[21.4437,3.7394,433.2412],[21.4456,3.7574,429.0358],[21.4416,3.7785,435.5068],[21.4374,3.7842,442.6947],[21.4314,3.7886,449.4804],[21.4295,3.8017,470.228],[21.4366,3.8192,475.2135],[21.4412,3.8236,472.1738],[21.4586,3.8338,490.4101],[21.4675,3.8457,495.9096],[21.4744,3.8513,467.0565],[21.4036,3.8259,517.2395],[21.3617,3.8187,479.5222],[21.3329,3.8174,417.2218],[21.3282,3.8229,415.7401],[21.3093,3.8382,423.0968],[21.3036,3.8388,417.1698],[21.2928,3.8454,415.622],[21.2801,3.8575,411.1382],[21.2697,3.8627,411.6579],[21.2635,3.8686,407.2672],[21.2462,3.8789,409.5912],[21.2194,3.875,422.0981],[21.2153,3.8719,414.3046],[21.1713,3.8706,461.0329],[21.1647,3.8664,460.7826],[21.159,3.8604,426.7357],[21.1491,3.8658,441.6083],[21.1349,3.8639,437.3607],[21.1145,3.8662,411.0755],[21.1019,3.8716,413.1303],[21.1007,3.8776,455.9657],[21.0984,3.8769,422.8246],[21.0914,3.8679,409.7203],[21.0799,3.8659,406.8513],[21.0669,3.8596,407.7689],[21.0596,3.8623,431.2572],[21.0494,3.8507,408.3217],[21.0425,3.8497,437.3139],[21.0384,3.8465,413.572],[21.0364,3.8421,418.1509],[21.036,3.8345,485.8427],[21.0317,3.8294,426.834],[21.0365,3.8262,440.7196],[21.0374,3.8237,435.0753],[21.0345,3.8202,455.0967],[21.0279,3.819,415.0374],[21.0247,3.8157,417.8789],[21.0187,3.8138,397.493],[21.0172,3.8051,423.4844],[21.0131,3.799,396.7989],[21.0134,3.7963,395.1508],[21.0215,3.7883,424.0137],[21.0192,3.788,419.5631],[21.0176,3.7855,415.5343],[21.0089,3.7861,394.9566],[21.0024,3.7911,405.1763],[20.9981,3.7906,397.5917],[20.9929,3.7862,399.4519],[20.9873,3.7894,397.4939],[20.9805,3.7891,393.5522],[20.9741,3.7794,381.8719],[20.968,3.7788,400.9524],[20.9652,3.7758,393.6956],[20.9626,3.7673,381.7676],[20.9592,3.7636,387.3222],[20.9465,3.7655,391.4053],[20.9427,3.7644,377.3535],[20.9327,3.7548,381.6093],[20.9248,3.7398,391.2534],[20.9262,3.7327,390.7042],[20.9242,3.7271,383.2665],[20.9146,3.7243,380.5355],[20.9073,3.718,375.0416],[20.9029,3.6995,374.394],[20.8964,3.6859,379.2567],[20.8927,3.6826,373.8639],[20.8875,3.6821,370.6691],[20.8816,3.6775,380.9868],[20.8768,3.6777,376.7458],[20.8722,3.671,378.2645],[20.8653,3.6739,369.7946],[20.8619,3.6713,370.2244],[20.8666,3.6654,371.3112],[20.8673,3.6589,366.1239],[20.8655,3.6506,375.2787],[20.8498,3.6401,362.2476],[20.8393,3.6384,378.6176],[20.8368,3.6356,368.374],[20.8355,3.6267,365.7007],[20.8217,3.613,365.7125],[20.8221,3.6104,362.7994],[20.83,3.6052,362.8502],[20.83,3.602,363.2176],[20.8207,3.592,374.8629],[20.8212,3.5851,388.272],[20.8114,3.5834,378.3626],[20.8075,3.5845,374.9517],[20.7943,3.5934,370.9872],[20.7872,3.6021,365.8808],[20.7796,3.607,367.0252],[20.7751,3.6213,388.5401],[20.7677,3.6311,383.2411],[20.7614,3.6366,369.6181],[20.7359,3.649,370.1588],[20.7276,3.6558,371.5003],[20.7188,3.6661,377.1027],[20.723,3.677,378.5381],[20.7201,3.6967,367.8341],[20.7241,3.7053,369.6932],[20.7237,3.7076,381.84],[20.6996,3.712,386.8213],[20.6908,3.7158,381.0673],[20.6867,3.7211,397.8632],[20.6813,3.733,422.8286],[20.6739,3.7391,398.9142],[20.6727,3.7472,413.2863],[20.662,3.7623,412.5207],[20.656,3.7671,387.6674],[20.6492,3.7797,386.0868],[20.6423,3.7847,383.1932],[20.626,3.7923,378.261],[20.6114,3.8037,381.2151],[20.6017,3.8154,385.4578],[20.5773,3.8299,379.8429],[20.5626,3.8334,374.6639],[20.5424,3.8334,375.5531],[20.5191,3.8512,391.5347],[20.5115,3.8543,388.0337],[20.5013,3.8641,386.2337],[20.4933,3.8645,383.651],[20.4731,3.8735,387.5986],[20.4449,3.8988,389.6422],[20.4269,3.9125,398.7381],[20.4179,3.9161,401.2326],[20.3996,3.9332,402.828],[20.3904,3.9397,415.3878],[20.3816,3.9512,404.4522],[20.3742,3.9539,404.4688],[20.3615,3.9655,408.3599],[20.356,3.9657,385.8356],[20.3442,3.9579,389.701],[20.3352,3.9609,384.4091],[20.3218,3.9681,394.5031],[20.3145,3.9683,398.6093],[20.3042,3.9654,407.8087],[20.3001,3.966,408.2137],[20.2837,3.9753,386.5912],[20.2731,3.9853,395.637],[20.2618,3.9921,396.7591],[20.2421,3.9943,387.9183],[20.2305,4.0008,379.4325],[20.211,4.0059,391.7823],[20.2022,4.0107,380.1519],[20.1953,4.0189,389.6643],[20.1633,4.031,388.405],[20.133,4.0556,374.8123],[20.1198,4.0522,371.7339],[20.1127,4.0528,371.9154],[20.107,4.0475,375.866],[20.1071,4.0376,383.9771],[20.1055,4.0323,375.8558],[20.1003,4.0304,375.6814],[20.094,4.0354,386.1465],[20.0897,4.036,387.6195],[20.076,4.0481,384.0441],[20.0577,4.0498,387.5538],[20.0349,4.064,403.439],[20.0259,4.0667,377.09],[20.0149,4.0671,382.3064],[20.0059,4.0693,379.2089],[20.0,4.0665,378.7613],[19.992,4.0664,367.2063],[19.9838,4.0617,379.0524],[19.9748,4.0623,374.2213],[19.9696,4.0576,372.6498],[19.9627,4.0606,378.4918],[19.9446,4.0613,384.1754],[19.9352,4.058,394.4994],[19.9272,4.0577,379.8154],[19.9228,4.0613,395.2094],[19.9169,4.0548,408.9771],[19.9156,4.0474,394.3418],[19.9069,4.0432,388.5657],[19.9029,4.0378,406.2547],[19.901,4.0171,440.3028],[19.8913,3.9988,412.3262],[19.8879,3.9797,471.2524],[19.8896,3.97,509.4474],[19.8938,3.9632,451.1287],[19.9359,3.9178,502.8548],[19.9808,3.8823,425.9921],[19.9961,3.8739,440.4547],[20.0216,3.8703,415.1916],[20.0583,3.852,404.3518],[20.0999,3.8412,395.7546],[20.1057,3.8372,388.6918],[20.1118,3.8262,382.6175],[20.1161,3.8236,385.91],[20.1241,3.8241,385.876],[20.1359,3.8139,395.7437],[20.1467,3.8096,383.3156],[20.1678,3.8084,387.7515],[20.197,3.8004,373.5479],[20.2027,3.7973,370.1928],[20.2136,3.7833,375.1456],[20.2183,3.7714,376.6671],[20.1923,3.7613,390.942],[20.1413,3.7322,375.7768],[20.131,3.731,381.0455],[20.1371,3.7108,373.4189],[20.135,3.6974,371.1968],[20.1373,3.6882,374.8822],[20.132,3.6741,377.2974],[20.134,3.655,381.8478],[20.15,3.6395,387.4406],[20.1254,3.5963,385.4258],[20.1145,3.5835,382.0055],[20.1113,3.5671,390.0935],[20.1118,3.5614,397.6905],[20.1165,3.5497,399.297],[20.1267,3.5343,391.3033],[20.1385,3.5232,400.1848],[20.1807,3.4932,408.7911],[20.2092,3.4765,424.7751],[20.2173,3.4683,440.3521],[20.2203,3.4629,443.9295],[20.2225,3.4564,478.363],[20.2226,3.4416,508.2862],[20.2102,3.4097,413.614],[20.2091,3.4015,421.0938],[20.2113,3.383,396.5514],[20.2201,3.3723,401.8203],[20.2274,3.3526,395.5586],[20.2495,3.3383,408.4374],[20.2727,3.3194,414.9171],[20.2812,3.3032,425.4702],[20.2823,3.2952,400.9046],[20.278199999999998,3.262,435.9252],[20.2784,3.2571,439.4529],[20.2857,3.2367,463.3828],[20.2855,3.197,457.2431],[20.2844,3.189,446.6632],[20.2774,3.1821,448.8475],[20.248,3.1607,436.8915],[20.2285,3.14,445.9007],[20.2256,3.135,444.1029],[20.2217,3.1185,400.0986],[20.198,3.0848,419.7933],[20.1783,3.0456,399.2127],[20.1746,3.0352,370.2776],[20.1753,3.0278,404.6836],[20.1796,3.0199,393.5988],[20.1804,3.0101,374.9309],[20.1953,2.9912,400.491],[20.2047,2.9744,401.303],[20.2099,2.9586,387.1377],[20.2086,2.9518,399.8281],[20.2221,2.9267,390.7655],[20.2312,2.9188,377.01],[20.2618,2.9004,387.1514],[20.2757,2.8853,394.5103],[20.3235,2.8504,408.5178],[20.337,2.8419,401.2652],[20.3719,2.8248,368.43],[20.3823,2.8168,370.8544],[20.3947,2.8269,384.6404],[20.411,2.8473,399.7167],[20.4447,2.8834,390.6029],[20.4884,2.934,391.9363],[20.5515,2.9988,394.5614],[20.5929,3.0442,396.5317],[20.6297,3.0934,373.3368],[20.6471,3.112,362.9949],[20.701,3.1651,360.1868],[20.7334,3.1884,366.8222],[20.7437,3.1979,367.7921],[20.7504,3.2074,369.6953],[20.7637,3.2112,364.319],[20.7664,3.214,370.3501],[20.7672,3.2257,364.9306],[20.7701,3.2343,373.9818],[20.7724,3.2348,372.4391],[20.7786,3.2284,368.9584],[20.7825,3.2303,364.8114],[20.7866,3.2393,368.9246],[20.7947,3.2474,350.4331],[20.8002,3.2475,366.3397],[20.806,3.2434,367.091],[20.812,3.2347,366.5602],[20.8123,3.2296,365.5671],[20.8206,3.2219,408.1954],[20.8234,3.2113,385.9275],[20.8274,3.2042,377.113],[20.8389,3.1951,378.1017],[20.8503,3.1805,381.5137],[20.8678,3.1726,376.5074],[20.8841,3.1674,408.9325],[20.8887,3.1631,424.8276],[20.8917,3.1551,424.5742],[20.8975,3.1489,448.4742],[20.9075,3.126,453.6042],[20.9248,3.1112,469.2229],[20.9309,3.102,481.1434],[20.9431,3.0967,517.4397],[20.9472,3.0967,510.4322],[20.9665,3.1107,512.4099],[20.9745,3.1122,522.7751],[20.9796,3.1114,507.6783],[20.9825,3.1102,500.873],[21.033,3.0644,426.7614],[21.0395,3.0568,440.0449],[21.0424,3.0448,423.2238],[21.0436,3.0139,422.2371],[21.0457,3.0065,477.2053],[21.1172,2.9453,452.2602],[21.1315,2.9313,493.8212],[21.1448,2.9224,448.5702],[21.147,2.9232,435.5334],[21.1479,2.929,452.877],[21.1544,3.0379,491.7804],[21.1546,3.0718,431.3126],[21.1647,3.0963,420.1078],[21.1662,3.141,368.2355],[21.1703,3.1632,368.335],[21.1815,3.162,386.1681],[21.1857,3.1496,367.1891],[21.1913,3.1462,361.7502],[21.1972,3.1469,368.8274],[21.2052,3.1454,370.8582],[21.208,3.1433,369.2272],[21.2113,3.1369,372.1521],[21.2113,3.1305,373.791],[21.2219,3.1213,377.9161],[21.2403,3.1169,359.3501],[21.244,3.1128,359.3414],[21.2467,3.119,385.8488],[21.2501,3.1186,390.5269],[21.2541,3.1101,374.6773],[21.2644,3.1063,369.9814],[21.2739,3.0978,375.4724],[21.2744,3.0889,372.273],[21.2797,3.0894,377.7332],[21.2898,3.0796,376.3299],[21.2945,3.0683,357.3384],[21.2979,3.0686,357.7744],[21.3027,3.0725,377.1796],[21.3055,3.0698,382.8701],[21.3091,3.071,373.8945],[21.3094,3.0643,377.5038],[21.3147,3.0639,378.7656],[21.3209,3.0568,357.7682],[21.328,3.0559,379.4532],[21.3298,3.0587,374.0002],[21.3335,3.0569,380.7645],[21.3352,3.0473,379.2151],[21.337,3.0454,358.304],[21.3481,3.0416,378.6227],[21.3519,3.0439,381.5437],[21.3554,3.0431,396.084],[21.3591,3.0364,387.3123],[21.3688,3.0264,373.7098],[21.3938,3.019,371.0755],[21.4016,3.0218,372.1727],[21.4066,3.0191,383.1778],[21.4083,3.011,421.3286],[21.4101,3.0099,416.7454],[21.4184,3.0107,433.3219],[21.4347,3.0011,421.3524],[21.4343,2.9926,380.8695],[21.4392,2.9798,377.8482],[21.4429,2.9796,385.6967],[21.4493,2.9734,382.4315],[21.451,2.9695,375.1942],[21.4572,2.9686,390.3626],[21.4685,2.9501,362.2299],[21.4713,2.9478,364.0545],[21.4759,2.9465,370.6763],[21.4798,2.9476,362.4233],[21.4825,2.9527,362.3363],[21.4857,2.9525,362.4146],[21.4887,2.9475,364.2873],[21.4928,2.9466,363.0289],[21.5,2.9375,365.0203],[21.5121,2.9382,363.4064],[21.5246,2.9278,367.8528],[21.5337,2.9258,367.0183],[21.5431,2.9302,364.0189],[21.5564,2.9243,369.2593],[21.5632,2.9283,364.2913],[21.5688,2.9247,384.4036],[21.5712,2.9295,364.9197],[21.5738,2.9302,364.496],[21.5793,2.9197,379.493],[21.5826,2.9176,378.9077],[21.5885,2.917,381.2512],[21.5922,2.9133,387.3101],[21.5997,2.9166,374.6538],[21.6048,2.916,374.6093],[21.6082,2.9181,366.7585],[21.6107,2.9176,365.9491],[21.613,2.9131,380.7039],[21.6151,2.9128,390.396],[21.6162,2.9168,369.6032],[21.6215,2.9173,366.8878],[21.627,2.9118,385.0138],[21.6292,2.9189,374.9235],[21.6338,2.9229,370.8948],[21.6404,2.9236,368.2953],[21.6471,2.9205,375.8294],[21.6534,2.9258,368.6332],[21.6636,2.9206,367.8654],[21.6725,2.92,369.2077],[21.6754,2.9218,369.2228],[21.6833,2.9182,379.0996],[21.6858,2.9192,382.8635],[21.6903,2.9252,371.837],[21.6985,2.9241,378.814],[21.7052,2.9265,374.2685],[21.7239,2.9248,378.0286],[21.7404,2.9323,372.2419],[21.7456,2.9332,377.037],[21.7488,2.9307,372.542],[21.7814,2.9259,376.441],[21.7846,2.9289,376.3874],[21.7947,2.9244,373.2883],[21.8103,2.9142,379.0327],[21.8186,2.9135,386.6652],[21.8273,2.9069,384.9519],[21.8415,2.907,391.2984],[21.8463,2.9039,401.709],[21.8566,2.903,388.8609],[21.8732,2.8958,393.1492],[21.8894,2.9014,394.8803],[21.894,2.9015,388.9453],[21.9011,2.8985,405.6174],[21.9171,2.903,394.6836],[21.9393,2.8995,391.5471],[21.9469,2.8963,401.0808],[21.9496,2.8984,404.7968],[21.9551,2.8992,400.9859],[21.9646,2.9087,394.3248],[21.9805,2.9033,391.1131],[21.9825,2.9049,388.8556],[21.9901,2.9059,392.4625],[21.996,2.9034,403.7804],[22.0024,2.9032,393.1782],[22.03,2.9145,392.4082],[22.0383,2.9159,392.9124],[22.0437,2.9203,396.5333],[22.051,2.9229,397.0794],[22.0602,2.9223,408.1793],[22.0632,2.9237,405.956],[22.0691,2.9306,388.8457],[22.0764,2.9332,392.3726],[22.0871,2.9322,407.3568],[22.1086,2.9443,392.5199],[22.1166,2.9443,390.2397]]]]}}