{"type": "Feature","id": "1894","bbox": [26.82124,-4.99995,29.4109,-1.66667],"geometry": {"type": "Polygon","coordinates": [[[28.94214,-1.73416,2472.6975],[28.92431,-1.72935,2842.9768],[28.91269,-1.7216,2879.9478],[28.90741,-1.71214,2695.7546],[28.89341,-1.67731,2473.4207],[28.88845,-1.67023,2421.5239],[28.87837,-1.66667,2435.6045],[28.86581,-1.66899,2349.2275],[28.84654,-1.68357,2361.5542],[28.83491,-1.69587,2409.9092],[28.78649,-1.76335,2055.4548],[28.76928,-1.77793,1991.696],[28.74711,-1.78599,1631.2219],[28.71234,-1.78537,1310.6718],[28.68753,-1.78258,1436.6372],[28.66779,-1.78361,1276.7129],[28.65198,-1.79276,1392.5966],[28.64299,-1.80418,1563.5333],[28.6203,-1.86691,1792.4613],[28.60867,-1.88981,1735.9971],[28.59519,-1.90712,1832.3739],[28.5786,-1.91931,1792.8562],[28.55917,-1.92645,1367.5918],[28.53545,-1.93125,1189.6274],[28.5094,-1.92862,1307.3635],[28.49369,-1.92448,1528.3014],[28.47772,-1.91699,1148.7319],[28.45649,-1.91048,841.8001],[28.45054,-1.90712,893.0668],[28.44682,-1.90004,939.6948],[28.43054,-1.84201,879.3702],[28.4245,-1.83146,878.4091],[28.41628,-1.82247,901.2094],[28.40682,-1.81581,929.2044],[28.39592,-1.81167,1094.1782],[28.38429,-1.811,1046.3777],[28.37158,-1.81379,1109.2622],[28.35794,-1.82289,1436.7234],[28.34848,-1.83425,1299.3275],[28.34135,-1.85048,1235.2593],[28.3368,-1.86981,1261.3961],[28.33339,-1.94376,1248.6619],[28.32812,-1.96562,1237.3702],[28.3199,-1.98112,1459.3905],[28.30316,-1.9945,1399.0134],[28.28063,-2.00117,1326.005],[28.16844,-2.02132,1019.5662],[28.13154,-2.03466,1099.2615],[28.0856,-2.05724,1183.9091],[28.06354,-2.06189,1224.5652],[27.9976,-2.05827,1183.5874],[27.98101,-2.0546,1188.7747],[27.96039,-2.04737,1198.8268],[27.93647,-2.03228,1441.9318],[27.92143,-2.01843,1256.8318],[27.88975,-1.98014,1221.9125],[27.87471,-1.96929,1087.0573],[27.85719,-1.96334,1195.3007],[27.83358,-1.96639,1037.6774],[27.81311,-1.97161,1083.4596],[27.76004,-2.00091,1173.4729],[27.43433,-2.01833,965.4651],[27.41293,-2.02747,847.5237],[27.39913,-2.04675,1157.432],[27.39293,-2.08463,1199.5491],[27.38761,-2.10209,1280.0352],[27.37862,-2.12142,1120.7958],[27.36684,-2.13765,1077.5844],[27.34699,-2.15677,889.6152],[27.32167,-2.17594,688.4661],[27.27764,-2.20235,602.7316],[27.24953,-2.21449,595.2744],[27.22628,-2.22188,570.9234],[27.20654,-2.22601,592.9594],[27.19646,-2.22994,549.2218],[27.18917,-2.2347,571.5768],[27.18235,-2.24095,591.1213],[27.176,-2.24312,587.9412],[27.16995,-2.24338,574.2192],[27.16468,-2.2411,560.0993],[27.16137,-2.238,556.5765],[27.15905,-2.23413,563.5336],[27.15703,-2.22911,559.5959],[27.15439,-2.22498,548.6136],[27.14897,-2.22312,547.5475],[27.14509,-2.22555,577.0038],[27.13548,-2.23397,576.843],[27.12974,-2.23506,554.8257],[27.12432,-2.23397,545.8956],[27.12013,-2.23144,556.7177],[27.11703,-2.22762,561.4006],[27.11502,-2.22327,555.4247],[27.11316,-2.21811,543.0],[27.1099,-2.21351,576.4813],[27.10473,-2.20999,572.9686],[27.07791,-2.20922,571.4113],[27.07218,-2.20777,547.6958],[27.06784,-2.20545,575.6952],[27.06381,-2.20235,571.8552],[27.0604,-2.19899,564.8384],[27.0391,-2.17253,541.9354],[27.03585,-2.16912,549.0235],[27.03182,-2.16586,554.0584],[27.02763,-2.16349,559.9655],[27.0219,-2.16168,545.1021],[27.01554,-2.16106,563.6379],[27.00779,-2.16106,576.021],[27.00252,-2.15997,575.6352],[26.99921,-2.15889,572.2667],[26.9958,-2.15677,562.9976],[26.99006,-2.15501,561.4043],[26.98278,-2.15351,544.3494],[26.95394,-2.15424,593.5787],[26.91963,-2.14654,566.4317],[26.91017,-2.14214,621.0537],[26.89296,-2.13129,571.486],[26.88687,-2.12855,559.2452],[26.87694,-2.12669,582.5438],[26.86981,-2.12793,556.0558],[26.86361,-2.13274,559.6044],[26.86067,-2.13827,547.3685],[26.8509,-2.17377,554.6545],[26.83075,-2.29583,583.2169],[26.82124,-2.44207,649.111],[26.82279,-2.46486,602.8062],[26.83354,-2.51716,658.3033],[26.89157,-2.69766,667.9156],[26.89746,-2.71151,626.0397],[26.91312,-2.73932,648.8438],[26.91963,-2.75745,610.4693],[26.92257,-2.77601,588.0889],[26.92304,-2.80836,589.1957],[26.92629,-2.81807,592.2708],[26.92986,-2.82195,604.6829],[26.94164,-2.82846,592.9049],[26.94883,-2.83574,607.1144],[26.98665,-2.88665,627.5137],[26.99797,-2.89915,629.3353],[27.04003,-2.93321,577.5951],[27.04546,-2.93915,575.5913],[27.06179,-2.9731,568.3156],[27.06319,-2.97837,578.9231],[27.0635,-2.98519,557.571],[27.06288,-2.99377,575.3673],[27.05931,-3.00793,542.2383],[27.05853,-3.01635,566.9852],[27.05946,-3.02297,559.0314],[27.06365,-3.03242,574.5273],[27.07016,-3.05351,582.9708],[27.07295,-3.05775,582.6906],[27.07652,-3.061,589.0706],[27.08582,-3.06534,589.3717],[27.08908,-3.06896,583.155],[27.09497,-3.08389,592.9904],[27.09729,-3.08844,596.5038],[27.10814,-3.10389,595.8454],[27.1099,-3.10777,588.1294],[27.11083,-3.11263,592.8865],[27.11083,-3.12172,593.3525],[27.10928,-3.1271,594.9854],[27.10711,-3.13056,585.3141],[27.09838,-3.13753,571.5168],[27.09636,-3.1427,572.6031],[27.09605,-3.14813,583.4963],[27.09791,-3.15314,576.7298],[27.10101,-3.15665,594.7716],[27.1052,-3.15857,584.9581],[27.11316,-3.15929,594.9189],[27.11734,-3.1612,601.6842],[27.11967,-3.16596,581.596],[27.11579,-3.18983,586.0428],[27.11889,-3.20601,577.8106],[27.1192,-3.21221,587.0436],[27.11734,-3.24394,577.696],[27.11796,-3.25019,543.858],[27.11936,-3.2551,586.2307],[27.12106,-3.25923,580.2965],[27.12277,-3.26145,579.0394],[27.1254,-3.26409,577.0637],[27.1285,-3.26797,588.946],[27.13099,-3.27334,578.79],[27.13161,-3.28171,566.6635],[27.13005,-3.2874,559.3036],[27.12726,-3.29194,558.5119],[27.10008,-3.32021,571.0082],[27.09032,-3.33282,573.6121],[27.08799,-3.34,594.8569],[27.08706,-3.34688,590.4991],[27.08815,-3.35178,583.45],[27.08985,-3.3552,582.1968],[27.09404,-3.36109,582.3577],[27.09543,-3.36594,573.3389],[27.09466,-3.37318,543.0245],[27.0945,-3.37902,571.2359],[27.09559,-3.38382,581.3986],[27.09838,-3.38646,586.6771],[27.10101,-3.3877,591.5287],[27.1052,-3.38884,544.8311],[27.10959,-3.3907,556.0853],[27.11331,-3.39385,575.881],[27.11533,-3.39933,572.0143],[27.11564,-3.40656,595.3208],[27.11269,-3.41793,575.889],[27.11217,-3.42393,568.4111],[27.11285,-3.42868,580.3859],[27.11982,-3.43535,581.1587],[27.12323,-3.44031,573.12],[27.12199,-3.46863,550.8278],[27.12339,-3.47405,543.9901],[27.12726,-3.48408,560.1961],[27.12835,-3.4895,539.5],[27.08939,-3.70039,573.5279],[27.08923,-3.72783,591.5212],[27.09357,-3.74995,598.1617],[27.1021,-3.77119,599.3516],[27.12571,-3.80804,610.3415],[27.1592,-3.85057,603.1182],[27.17879,-3.86684,596.7071],[27.20235,-3.87966,614.4973],[27.33552,-3.92157,617.3617],[27.41262,-3.95407,661.7523],[27.48197,-3.97113,677.3206],[27.49158,-3.97449,687.2222],[27.49892,-3.97557,706.3907],[27.66258,-3.97309,780.7883],[27.70185,-3.98012,796.9009],[27.73524,-3.99092,778.5678],[27.74748,-3.99712,798.3129],[27.7712,-4.01314,781.7687],[27.83218,-4.06838,750.9899],[27.87099,-4.09215,725.9787],[27.90701,-4.10822,695.1351],[27.99031,-4.13417,670.778],[28.00008,-4.13479,668.0473],[28.00442,-4.13437,675.1538],[28.00959,-4.13355,671.9277],[28.02447,-4.12802,668.3089],[28.02897,-4.12719,687.0244],[28.03377,-4.12926,669.4257],[28.03393,-4.13267,660.3595],[28.02897,-4.14734,675.665],[28.02664,-4.16393,668.1961],[28.02788,-4.17241,677.469],[28.03067,-4.1784,685.9913],[28.03532,-4.18047,674.2839],[28.0409,-4.18109,680.7263],[28.04602,-4.18062,679.9634],[28.05067,-4.17954,684.574],[28.05858,-4.17876,685.4204],[28.06385,-4.17938,668.9915],[28.06886,-4.18104,682.4802],[28.07367,-4.18321,685.4044],[28.07785,-4.18574,675.4681],[28.0856,-4.19194,689.5479],[28.09305,-4.19954,682.3223],[28.09584,-4.20078,684.0713],[28.09832,-4.19954,687.1792],[28.10514,-4.18367,697.0154],[28.11242,-4.17132,711.4463],[28.12441,-4.15711,722.7291],[28.13961,-4.14522,731.1124],[28.15836,-4.1367,731.6683],[28.17733,-4.13546,784.0131],[28.19578,-4.1415,791.6293],[28.21655,-4.15478,726.3997],[28.23769,-4.17168,777.7436],[28.29479,-4.20651,781.0811],[28.33742,-4.26051,1165.8698],[28.35344,-4.27659,1054.6169],[28.45566,-4.34253,804.4957],[28.46734,-4.35224,1052.3511],[28.47555,-4.36087,1086.0793],[28.49106,-4.38226,1110.8672],[28.61038,-4.61564,865.9662],[28.65523,-4.68602,776.2495],[28.74246,-4.90704,827.2881],[28.7558,-4.92931,802.6603],[28.77455,-4.95262,843.2448],[28.80561,-4.9844,886.0221],[28.82453,-4.99995,889.1731],[29.11376,-4.99995,1023.6766],[29.34248,-4.99995,770.0],[29.34279,-4.99995,770.0],[29.32377,-4.92016,770.0],[29.32103,-4.83634,770.0],[29.34082,-4.7517,770.0],[29.40134,-4.58685,770.0],[29.4109,-4.50231,770.0],[29.40728,-4.46262,770.0],[29.40418,-4.4498,770.0],[29.37276,-4.20817,770.0],[29.36722,-4.18905,770.0],[29.33948,-4.09324,770.0],[29.27773,-3.98895,770.0],[29.2398,-3.94803,770.0],[29.22455,-3.92653,770.0],[29.21504,-3.89986,770.0],[29.20657,-3.78194,770.0],[29.21712,-3.70927,770.0],[29.22326,-3.66701,770.0],[29.22517,-3.58857,770.0],[29.2239,-3.57109,770.0],[29.21194,-3.40683,770.0],[29.20667,-3.33452,773.054],[29.20874,-3.30528,777.6704],[29.21308,-3.29194,778.2335],[29.23612,-3.2707,778.5055],[29.24088,-3.26631,778.9364],[29.22383,-3.25267,779.7703],[29.2169,-3.23313,779.9131],[29.21411,-3.16647,790.6691],[29.21752,-3.14622,792.657],[29.22502,-3.12937,796.0441],[29.23778,-3.12224,789.1741],[29.24233,-3.11077,789.004],[29.24154,-3.10419,797.7443],[29.23463,-3.04658,802.3049],[29.22538,-3.0318,807.3275],[29.21153,-3.02116,801.3628],[29.19448,-3.01465,802.0574],[29.17598,-3.01248,834.0869],[29.15675,-3.00483,850.2115],[29.14817,-2.98695,864.7806],[29.14425,-2.96628,884.6083],[29.13841,-2.95036,935.6798],[29.12337,-2.94023,878.9302],[29.10508,-2.93414,872.171],[29.08978,-2.92607,881.759],[29.08327,-2.91005,871.947],[29.08172,-2.89393,876.5761],[29.07758,-2.88401,877.8743],[29.0627,-2.8622,871.6057],[29.0535,-2.83543,869.5185],[29.04906,-2.82747,868.6498],[29.03407,-2.82086,900.6714],[29.01314,-2.8189,881.0978],[28.9949,-2.81363,888.4449],[28.98689,-2.79678,908.2009],[28.9888,-2.77549,942.9517],[28.99552,-2.75844,911.9123],[29.00823,-2.74748,925.5323],[29.02859,-2.7449,931.3242],[29.01537,-2.72071,945.873],[29.00012,-2.70366,953.6751],[28.97961,-2.69353,980.6603],[28.94974,-2.69033,1098.3052],[28.9364,-2.68505,1257.4868],[28.89909,-2.66066,1338.6974],[28.89134,-2.65271,1528.2732],[28.89806,-2.57633,1453.1068],[28.89134,-2.55307,1496.5387],[28.88106,-2.54263,1558.494],[28.86984,-2.53726,1462.1543],[28.86096,-2.53116,1452.2931],[28.85724,-2.51835,1610.1765],[28.86085,-2.50522,1527.1787],[28.87822,-2.48972,1461.0],[28.8747,-2.47752,1461.0],[28.86457,-2.45944,1461.0],[28.86085,-2.43959,1461.0],[28.85884,-2.4182,1461.0],[28.86633,-2.39195,1461.0],[28.88039,-2.37985,1461.0],[28.90726,-2.37055,1461.0],[28.92814,-2.36445,1588.8101],[28.94545,-2.35422,1547.4653],[28.95966,-2.33975,1461.0],[28.97123,-2.32167,1461.0],[28.97878,-2.30678,1461.0],[28.98219,-2.29603,1461.0],[28.98338,-2.28735,1461.0],[28.99366,-2.27774,1461.0],[29.00214,-2.27474,1461.0],[29.03092,-2.27567,1529.1293],[29.07541,-2.26389,1461.0],[29.10983,-2.23671,1461.0],[29.13484,-2.19775,1461.0],[29.15055,-2.15041,1461.0],[29.15634,-2.10866,1461.0],[29.15427,-2.07269,1461.0],[29.12771,-1.9157,1461.0],[29.12554,-1.87911,1461.0],[29.1305,-1.84335,1461.0],[29.14931,-1.79932,1461.0],[29.18664,-1.73962,1461.0],[29.18626,-1.73958,1461.0],[29.05262,-1.72734,1461.0],[29.02038,-1.72687,1584.5149],[28.94214,-1.73416,2472.6975]]]}
,"properties": {"ISO3166-1-Alpha-3": "COD","country": "Democratic Republic of the Congo","fill": "#00F","name": "Sud-Kivu","area_km2": 63720.86,"hist_schema_id": "Elevation0-9000","hist_area_km2": {"525": 17.98,"550": 311.49,"575": 1583.51,"600": 2504.63,"625": 2366.74,"650": 2257.37,"675": 1761.51,"700": 1441.19,"725": 1362.72,"750": 1203.87,"775": 4839.74,"800": 1224.8,"825": 1022.3,"850": 919.05,"875": 933.87,"900": 926.97,"925": 903.67,"950": 881.99,"975": 898.39,"1000": 929.19,"1025": 940.49,"1050": 931.87,"1075": 1043.62,"1100": 1010.08,"1125": 994.96,"1150": 965.14,"1175": 972.8,"1200": 953.95,"1225": 918.56,"1250": 879.96,"1275": 846.61,"1300": 776.16,"1325": 730.52,"1350": 743.45,"1375": 729.59,"1400": 692.1,"1425": 658.22,"1450": 1686.22,"1475": 663.67,"1500": 600.83,"1525": 572.61,"1550": 580.28,"1575": 569.73,"1600": 553.28,"1625": 546.05,"1650": 526.74,"1675": 511.2,"1700": 496.68,"1725": 482.37,"1750": 484.5,"1775": 481.02,"1800": 490.91,"1825": 540.29,"1850": 539.68,"1875": 488.67,"1900": 453.52,"1925": 457.3,"1950": 448.51,"1975": 428.06,"2000": 373.13,"2025": 337.35,"2050": 317.68,"2075": 316.98,"2100": 304.61,"2125": 300.53,"2150": 303.28,"2175": 304.96,"2200": 299.76,"2225": 272.85,"2250": 277.36,"2275": 274.13,"2300": 266.61,"2325": 253.74,"2350": 246.81,"2375": 267.87,"2400": 238.47,"2425": 220.39,"2450": 204.01,"2475": 182.01,"2500": 159.36,"2525": 140.41,"2550": 125.43,"2575": 113.8,"2600": 99.05,"2625": 101.01,"2650": 127.77,"2675": 115.04,"2700": 114.6,"2725": 115.55,"2750": 113.41,"2775": 115.27,"2800": 117.38,"2825": 112.94,"2850": 112.13,"2875": 107.11,"2900": 99.78,"2925": 91.27,"2950": 80.1,"2975": 65.62,"3000": 54.32,"3025": 45.19,"3050": 34.86,"3075": 26.99,"3100": 20.91,"3125": 17.21,"3150": 13.95,"3175": 11.75,"3200": 8.68,"3225": 6.56,"3250": 4.28,"3275": 1.55,"3300": 0.78,"3325": 0.76,"3350": 0.8,"3375": 0.55,"3400": 0.51}}}