{"type": "Feature","bbox": [25.7298,-5.3848,25.7807,-5.338],"geometry": {"type": "MultiPolygon","coordinates": [[[[25.7607,-5.3848,655.6727],[25.7743,-5.3786,619.7164],[25.7805,-5.373,612.8667],[25.7807,-5.3596,608.6144],[25.7726,-5.3418,606.4531],[25.7641,-5.338,608.1351],[25.7551,-5.3384,599.6061],[25.7345,-5.3455,639.2381],[25.7298,-5.3615,623.0865],[25.7349,-5.3751,672.0598],[25.7392,-5.3813,687.3197],[25.75,-5.3848,686.0223],[25.7607,-5.3848,655.6727]]]]}
,"properties": {"GID_2": "COD.14.5_1","GID_0": "COD","country": "DemocraticRepublicoftheCongo","GID_1": "COD.14_1","province": "Lomami","NL_NAME_1": "NA","county": "Lubao(ville)","VARNAME_2": "NA","NL_NAME_2": "NA","TYPE_2": "Ville","ENGTYPE_2": "Town","CC_2": "NA","HASC_2": "NA","name": "Lubao(ville).county","area_km2": 23.00929,"hist_schema_id": "Elevation0-9000","hist_area_km2": {"600": 5.63632,"625": 12.68678,"650": 2.32199,"675": 2.23755,"700": 0.12665}}}