{"type": "Feature","bbox": [24.5984,-3.3531,26.8737,-1.7661],"geometry": {"type": "MultiPolygon","coordinates": [[[[26.6217,-2.4882,527.9871],[26.6334,-2.4818,532.5245],[26.6454,-2.4584,546.1346],[26.6569,-2.4481,587.3427],[26.6648,-2.3947,530.7413],[26.6645,-2.3888,530.1329],[26.667,-2.377,533.2062],[26.6695,-2.3742,534.6925],[26.6795,-2.3698,529.8724],[26.6935,-2.3707,531.0186],[26.7095,-2.3663,528.7026],[26.7271,-2.3499,534.5227],[26.733,-2.3485,531.1396],[26.7389,-2.337,540.3247],[26.7476,-2.3306,545.5906],[26.7544,-2.3299,568.6708],[26.7568,-2.3414,562.4562],[26.7604,-2.3469,546.9325],[26.7657,-2.3487,542.494],[26.7687,-2.3519,536.7117],[26.7701,-2.3512,546.5333],[26.7703,-2.3452,563.3251],[26.7737,-2.3404,562.442],[26.789,-2.3422,555.746],[26.7927,-2.3403,555.366],[26.7977,-2.3447,568.3939],[26.8041,-2.3394,555.1302],[26.8206,-2.3405,558.5137],[26.8235,-2.3352,560.827],[26.8261,-2.3347,566.6821],[26.829,-2.3393,568.732],[26.8325,-2.3396,565.401],[26.8357,-2.3352,546.4736],[26.8446,-2.3388,566.3103],[26.848,-2.3335,552.6018],[26.8512,-2.3338,572.41],[26.854,-2.3312,546.8438],[26.8567,-2.331,554.1591],[26.8614,-2.3228,575.0119],[26.862,-2.3133,582.7151],[26.8578,-2.3022,588.4764],[26.8521,-2.2958,662.3107],[26.8512,-2.2887,648.6768],[26.8581,-2.2141,571.1389],[26.8645,-2.1856,563.6314],[26.8656,-2.165,555.6122],[26.8737,-2.142,554.9296],[26.8721,-2.1367,557.5275],[26.8637,-2.1295,557.5488],[26.8517,-2.114,553.0032],[26.8439,-2.1093,558.2419],[26.8218,-2.1028,555.7144],[26.8263,-2.0653,591.3175],[26.8137,-2.0401,847.1971],[26.8052,-2.0269,731.1628],[26.7946,-2.0154,601.5892],[26.7542,-2.0055,674.5733],[26.6683,-2.009,741.0604],[26.6478,-2.0234,710.9698],[26.6033,-2.0425,908.8818],[26.592,-2.0503,605.1976],[26.6156,-2.0645,769.5234],[26.6277,-2.0752,689.0878],[26.6271,-2.0898,647.0078],[26.6139,-2.1062,555.3698],[26.6079,-2.1078,578.0779],[26.6031,-2.1025,572.6765],[26.5933,-2.1002,560.4907],[26.5818,-2.0849,534.0222],[26.5779,-2.0828,539.6579],[26.5699,-2.0817,526.1243],[26.5568,-2.0739,532.5231],[26.5518,-2.0748,534.8943],[26.5493,-2.0801,531.996],[26.5473,-2.0951,531.1255],[26.5425,-2.1056,518.0737],[26.5453,-2.1153,525.1046],[26.5446,-2.1188,525.4666],[26.5394,-2.1254,539.2955],[26.5316,-2.1314,530.5537],[26.5302,-2.1365,562.3653],[26.5243,-2.1386,544.7914],[26.5133,-2.1464,539.8297],[26.5044,-2.1434,547.7039],[26.5005,-2.1437,561.7882],[26.4967,-2.1467,563.0426],[26.4946,-2.1568,574.2618],[26.4882,-2.1531,552.109],[26.4827,-2.1525,559.2405],[26.4784,-2.1483,523.9367],[26.4642,-2.1514,547.6628],[26.463,-2.147,544.6035],[26.4607,-2.1472,539.324],[26.4582,-2.1525,525.1521],[26.453,-2.1475,532.8899],[26.4479,-2.1484,536.7543],[26.4438,-2.1457,529.8583],[26.4431,-2.1312,528.2005],[26.4453,-2.1121,513.139],[26.4412,-2.093,528.9636],[26.4276,-2.0748,546.8573],[26.4212,-2.0707,521.7193],[26.3779,-2.0255,522.9849],[26.3564,-2.0137,531.4021],[26.3358,-2.0137,532.2078],[26.3235,-2.0109,519.3088],[26.3049,-2.0105,528.2958],[26.2026,-2.0131,507.7364],[26.1924,-2.0161,514.4666],[26.1707,-2.0377,526.8367],[26.1278,-2.0495,567.9034],[26.1166,-2.0476,553.5243],[26.0784,-2.0337,553.1966],[26.008,-2.0004,501.2488],[25.9868,-1.9975,488.8821],[25.9678,-1.986,516.4409],[25.9578,-1.9777,517.6002],[25.9267,-1.9734,505.5522],[25.9082,-1.9872,508.0428],[25.891,-1.9932,504.2735],[25.8878,-1.9953,506.8603],[25.8837,-2.0022,511.2274],[25.8462,-2.0239,484.0585],[25.8283,-2.0277,490.1406],[25.8192,-2.0254,472.6526],[25.81,-2.0175,480.6814],[25.8086,-2.0067,469.2544],[25.8159,-2.005,478.7495],[25.8238,-2.0004,505.2412],[25.8343,-1.9858,498.198],[25.8546,-1.9747,499.9738],[25.8779,-1.9546,514.1848],[25.8886,-1.9505,509.8305],[25.9072,-1.9337,514.0518],[25.9076,-1.9136,508.0649],[25.9036,-1.863,506.969],[25.9103,-1.8401,508.064],[25.9035,-1.8088,509.0143],[25.8978,-1.7947,503.325],[25.8893,-1.7865,500.3059],[25.8854,-1.7778,503.3937],[25.881,-1.7743,505.9579],[25.8634,-1.7695,499.416],[25.8591,-1.767,483.3364],[25.852,-1.7661,480.6796],[25.8434,-1.833,489.9848],[25.8233,-1.8339,483.4847],[25.8011,-1.8432,459.6173],[25.7902,-1.8425,428.5],[25.7872,-1.8409,428.5],[25.7723,-1.8239,468.6946],[25.7659,-1.8193,472.1223],[25.7604,-1.8177,472.1378],[25.7424,-1.8184,479.7341],[25.7302,-1.8216,480.4646],[25.72,-1.8221,482.9828],[25.7133,-1.8247,479.992],[25.699,-1.8392,482.5079],[25.6775,-1.8507,489.0645],[25.6743,-1.8546,477.9968],[25.6707,-1.8753,476.1556],[25.6675,-1.8815,468.173],[25.6565,-1.8923,471.4217],[25.6234,-1.9052,471.3649],[25.6131,-1.9112,467.0445],[25.6015,-1.9218,472.4101],[25.5715,-1.9237,487.4565],[25.5635,-1.9285,483.2856],[25.5564,-1.9299,467.9206],[25.5345,-1.9515,491.0288],[25.518,-1.9557,492.3922],[25.5098,-1.9608,493.976],[25.5011,-1.9619,501.0394],[25.4961,-1.9642,499.8439],[25.4783,-1.9803,481.3181],[25.4694,-1.9937,485.0456],[25.4577,-2.0054,490.4057],[25.4481,-2.0112,484.2098],[25.4399,-2.0199,487.1159],[25.4303,-2.0342,491.9113],[25.4226,-2.0547,496.9705],[25.3298,-2.0811,477.1966],[25.2401,-2.112,460.7988],[25.2321,-2.0759,453.3127],[25.2116,-2.0861,461.8017],[25.2004,-2.088,465.8149],[25.1852,-2.0835,458.0224],[25.1759,-2.0777,465.1466],[25.1753,-2.0687,464.3546],[25.1726,-2.0623,479.8484],[25.1786,-2.0514,473.0464],[25.209,-2.0277,459.1686],[25.2076,-2.02,470.6336],[25.1984,-2.0143,453.6042],[25.1971,-2.0098,463.2277],[25.2017,-1.9925,454.0424],[25.1971,-1.9828,453.1295],[25.1885,-1.9803,477.8994],[25.1601,-1.9853,458.0018],[25.135,-1.9853,479.2314],[25.1184,-1.9763,467.7899],[25.0867,-1.9749,466.1327],[25.0682,-1.9755,476.1995],[25.0557,-1.9806,483.2988],[25.0491,-1.9703,489.3928],[25.0245,-1.9686,481.5561],[24.9899,-1.9747,501.978],[24.9839,-1.977,493.517],[24.9782,-1.9816,496.4962],[24.5984,-1.9808,611.1696],[24.6087,-2.0647,577.7173],[24.6216,-2.0911,631.7551],[24.6636,-2.1395,573.0983],[24.6811,-2.1896,551.0165],[24.6896,-2.3225,514.064],[24.6943,-2.3625,492.7051],[24.7062,-2.3689,504.0192],[24.7199,-2.3653,514.7762],[24.7846,-2.3692,488.2499],[24.8685,-2.3695,496.1324],[24.926,-2.3724,480.9192],[24.9315,-2.3742,479.9568],[24.9315,-2.3979,478.6584],[24.9607,-2.3989,482.0244],[24.979,-2.4163,463.8589],[24.9891,-2.4208,463.6997],[25.0263,-2.4135,466.6948],[25.0483,-2.4119,464.8679],[25.0493,-2.4247,469.7382],[25.0329,-2.4444,439.0],[25.0049,-2.4643,471.0622],[24.9995,-2.4723,463.704],[25.0027,-2.4862,442.6515],[25.018,-2.4928,464.4384],[25.0378,-2.4917,465.7516],[25.0467,-2.4963,448.8219],[25.0344,-2.5095,465.7792],[25.0039,-2.5308,470.0718],[25.0017,-2.5453,459.9027],[25.0068,-2.5622,442.5322],[25.036,-2.5836,464.2466],[25.047,-2.595,467.0609],[25.0588,-2.6024,467.8766],[25.0743,-2.6007,465.1367],[25.0773,-2.6311,482.8079],[25.0828,-2.6458,477.7224],[25.0814,-2.6573,472.3681],[25.0835,-2.6686,460.8322],[25.0823,-2.6805,476.5846],[25.0869,-2.6971,481.9173],[25.0867,-2.7024,465.4052],[25.0954,-2.7309,464.5426],[25.097,-2.7428,461.9237],[25.1101,-2.7615,458.1266],[25.1124,-2.7744,470.7222],[25.1081,-2.7872,454.2325],[25.1049,-2.8109,475.0164],[25.1026,-2.8167,451.9511],[25.0944,-2.8231,450.9543],[25.0884,-2.8307,478.7904],[25.0866,-2.8416,473.2608],[25.0724,-2.8675,479.0502],[25.0688,-2.8777,478.8599],[25.0649,-2.9034,483.985],[25.0505,-2.9294,490.0677],[25.0432,-2.9515,473.5721],[25.0329,-2.9739,471.0125],[25.0247,-2.9849,452.5],[25.0231,-2.9992,469.0086],[25.0167,-3.0155,472.3819],[25.0091,-3.0212,460.6338],[25.0074,-3.0243,466.1804],[25.0079,-3.0298,472.6601],[25.0117,-3.0337,463.1429],[25.019,-3.0378,470.9834],[25.0313,-3.0401,461.7281],[25.0318,-3.0417,461.705],[25.0277,-3.047,477.1745],[25.0272,-3.05,472.0077],[25.0368,-3.0659,463.1772],[25.0364,-3.0744,472.1013],[25.0343,-3.0781,461.2212],[25.0309,-3.0776,467.2484],[25.0183,-3.0657,454.0],[25.0137,-3.0634,458.1363],[25.0089,-3.0636,461.7961],[25.0012,-3.0742,454.0],[25.0017,-3.078,457.735],[25.0046,-3.0813,468.0815],[25.0147,-3.085,454.0],[25.0192,-3.0887,459.2071],[25.0208,-3.0926,455.511],[25.0183,-3.1057,479.4648],[25.0085,-3.1165,472.0601],[25.0076,-3.1207,477.8156],[25.009,-3.1236,458.0566],[25.0236,-3.134,457.1265],[25.0232,-3.1386,462.1129],[25.0202,-3.1427,468.1463],[25.0071,-3.1462,483.8831],[25.0,-3.1529,475.7739],[24.9982,-3.1632,467.57],[24.9989,-3.1738,472.8986],[24.9971,-3.1851,464.5082],[24.9948,-3.1892,464.2075],[24.99,-3.1927,476.2365],[24.9696,-3.1934,465.726],[24.9662,-3.1954,470.1013],[24.9644,-3.2014,476.1309],[24.9699,-3.2178,464.2998],[24.9674,-3.2235,462.6404],[24.9587,-3.2339,479.366],[24.9822,-3.2331,464.4816],[24.9926,-3.242,466.7065],[24.9996,-3.2513,469.7784],[25.0172,-3.258,472.6545],[25.0366,-3.2734,480.7744],[25.0533,-3.2841,480.1559],[25.0642,-3.2885,473.3711],[25.0764,-3.3003,485.6098],[25.0899,-3.2803,492.5014],[25.1078,-3.2619,481.0781],[25.1219,-3.243,484.7099],[25.1264,-3.2328,484.7362],[25.1802,-3.2401,485.8032],[25.2625,-3.2429,491.0329],[25.3062,-3.2414,483.2793],[25.3592,-3.2504,495.0521],[25.3677,-3.2501,493.8939],[25.3777,-3.2599,500.2946],[25.4086,-3.2,496.236],[25.4233,-3.2032,507.6118],[25.4235,-3.2065,499.2451],[25.4278,-3.2092,496.8336],[25.4368,-3.2108,493.358],[25.4464,-3.2147,485.0811],[25.462,-3.2156,487.5367],[25.4789,-3.2198,487.9324],[25.4858,-3.2248,483.6877],[25.5016,-3.223,500.5437],[25.5148,-3.2245,474.2573],[25.5322,-3.2227,475.45],[25.5367,-3.2242,476.4718],[25.5422,-3.2195,475.3922],[25.5487,-3.2169,486.3963],[25.5715,-3.2175,492.111],[25.5789,-3.2138,523.0309],[25.5816,-3.2147,499.0324],[25.5837,-3.2178,510.7828],[25.5912,-3.2201,495.1357],[25.5953,-3.2317,482.8538],[25.5985,-3.2362,496.8307],[25.6063,-3.2369,485.3366],[25.6088,-3.2396,480.1318],[25.6152,-3.2387,484.7662],[25.6184,-3.241,485.1901],[25.6205,-3.2447,473.77],[25.6193,-3.2486,472.7379],[25.6257,-3.2546,474.5269],[25.6274,-3.2585,472.1407],[25.6312,-3.2599,468.5403],[25.6361,-3.258,465.0],[25.6459,-3.2587,465.0],[25.6455,-3.2607,465.0],[25.6374,-3.2645,468.3404],[25.6381,-3.2684,465.0],[25.645,-3.2702,465.0],[25.6551,-3.2688,475.8916],[25.6641,-3.2646,465.0],[25.6686,-3.2647,465.0],[25.6752,-3.2683,492.6364],[25.6887,-3.2617,468.8714],[25.6926,-3.2582,465.0],[25.7107,-3.2559,470.9649],[25.7565,-3.2328,490.325],[25.7629,-3.2243,491.3591],[25.7707,-3.2243,495.2529],[25.7748,-3.2151,497.6706],[25.7736,-3.2059,480.5318],[25.7825,-3.2038,507.9316],[25.7839,-3.2019,499.2417],[25.7816,-3.1892,500.6276],[25.7713,-3.1914,505.7882],[25.7665,-3.1897,498.6743],[25.7686,-3.1833,495.3196],[25.7669,-3.1761,499.1181],[25.773,-3.1699,525.5138],[25.7731,-3.1648,506.7854],[25.8356,-3.1647,508.3473],[25.8497,-3.1657,517.682],[25.8679,-3.1775,512.853],[25.8693,-3.2147,499.215],[25.8558,-3.2577,503.9405],[25.855,-3.2713,489.8332],[25.8618,-3.2954,483.7679],[25.8577,-3.3355,492.1674],[25.8691,-3.3465,455.0886],[25.8799,-3.3531,459.1811],[25.8839,-3.3232,457.0342],[25.8977,-3.2916,454.1392],[25.9058,-3.2665,452.2398],[25.9054,-3.2581,452.6479],[25.9034,-3.2552,450.0],[25.9158,-3.2412,453.4904],[25.9147,-3.2349,454.1597],[25.9199,-3.224,449.7617],[25.9301,-3.2126,454.9939],[25.9343,-3.2029,455.9784],[25.9352,-3.1925,456.8851],[25.9493,-3.1872,510.9738],[25.9989,-3.1792,485.7643],[26.0167,-3.1792,483.4848],[26.0922,-3.1668,518.1804],[26.121,-3.1635,550.3628],[26.1253,-3.1602,544.5103],[26.1252,-3.139,538.3982],[26.0612,-3.001,550.9736],[26.0594,-2.9578,529.6151],[26.144,-2.8642,507.6923],[26.1704,-2.8305,454.8347],[26.1819,-2.8343,480.3114],[26.1839,-2.8391,497.6427],[26.1899,-2.8422,489.4548],[26.1907,-2.845,497.9834],[26.1989,-2.8486,514.6516],[26.2074,-2.8478,511.5164],[26.2192,-2.8347,514.4323],[26.2221,-2.8167,512.4443],[26.2184,-2.7772,528.122],[26.2222,-2.7478,545.2009],[26.2302,-2.7294,532.6779],[26.2941,-2.6825,583.757],[26.3313,-2.661,563.9232],[26.3762,-2.6409,568.6086],[26.4046,-2.6245,679.1275],[26.4574,-2.6192,567.7275],[26.4881,-2.6045,617.9558],[26.4985,-2.592,708.9854],[26.4984,-2.5821,690.1801],[26.494,-2.5623,631.2599],[26.4956,-2.5575,631.8906],[26.5011,-2.5517,631.4277],[26.505,-2.5434,619.1963],[26.5068,-2.5329,614.5828],[26.5044,-2.5172,632.8497],[26.4985,-2.5032,635.0277],[26.5,-2.4935,628.2906],[26.5009,-2.4912,589.1885],[26.5096,-2.493,587.0687],[26.5126,-2.4889,573.6557],[26.5213,-2.4841,574.9299],[26.5249,-2.4785,584.0061],[26.5254,-2.4748,556.1298],[26.5226,-2.4677,556.184],[26.5249,-2.4617,543.4013],[26.5352,-2.4527,568.0822],[26.5422,-2.4497,559.3877],[26.5521,-2.4506,558.5862],[26.5729,-2.4435,549.3948],[26.582,-2.4421,539.0591],[26.5866,-2.4437,568.0187],[26.5893,-2.4411,518.4854],[26.5967,-2.4411,532.2381],[26.6015,-2.437,515.6094],[26.6108,-2.4362,518.244],[26.6097,-2.4473,529.4823],[26.6036,-2.4669,559.9711],[26.6054,-2.471,555.8217],[26.6121,-2.4749,561.2938],[26.6217,-2.4882,527.9871]],
[[25.9119,-3.0232,482.6544],[25.9052,-3.0421,477.0966],[25.8685,-3.0339,486.5718],[25.8549,-3.0176,512.8057],[25.867,-2.9878,494.9781],[25.8641,-2.912,498.8696],[25.9306,-2.9081,458.1098],[25.9443,-2.9231,449.4341],[25.9742,-2.9259,479.6936],[25.9662,-3.0085,479.2111],[25.9336,-3.0124,452.227],[25.9119,-3.0232,482.6544]]]]}
,"properties": {"GID_2": "COD.17.2_1","GID_0": "COD","country": "DemocraticRepublicoftheCongo","GID_1": "COD.17_1","province": "Maniema","NL_NAME_1": "NA","county": "Kailo","VARNAME_2": "NA","NL_NAME_2": "NA","TYPE_2": "Territoire","ENGTYPE_2": "Territory","CC_2": "NA","HASC_2": "NA","name": "Kailo.county","area_km2": 23052.21,"hist_schema_id": "Elevation0-9000","hist_area_km2": {"425": 92.44,"450": 656.51,"475": 4637.01,"500": 9456.36,"525": 4434.99,"550": 1996.57,"575": 884.27,"600": 386.94,"625": 198.52,"650": 115.48,"675": 79.15,"700": 41.59,"725": 23.43,"750": 13.98,"775": 10.61,"800": 7.63,"825": 5.7,"850": 4.85,"875": 3.07,"900": 1.31,"925": 0.76,"950": 0.3,"975": 0.19,"1000": 0.25}}}