{"type":"Feature","properties":{"GID_2":"COD.12.5_1","GID_0":"COD","country":"DemocraticRepublicoftheCongo","GID_1":"COD.12_1","province":"Kwango","NL_NAME_1":"NA","county":"Kasongo-Lunda(ville)","VARNAME_2":"NA","NL_NAME_2":"NA","TYPE_2":"Ville","ENGTYPE_2":"Town","CC_2":"NA","HASC_2":"NA","name":"Kasongo-Lunda(ville).county"},
"geometry":{"type": "MultiPolygon","coordinates": [[[[16.8095,-6.4807,478.3518],[16.8262,-6.4874,488.0374],[16.8395,-6.4826,492.9962],[16.8432,-6.4747,477.5606],[16.8435,-6.4671,462.6068],[16.8411,-6.461,467.5248],[16.8353,-6.4537,564.3827],[16.8243,-6.4509,540.786],[16.8134,-6.454,493.4707],[16.8015,-6.4637,496.0816],[16.8037,-6.4747,449.7514],[16.8095,-6.4807,478.3518]]]]}}