{"type":"Feature","properties":{"GID_2":"COD.5.8_1","GID_0":"COD","country":"DemocraticRepublicoftheCongo","GID_1":"COD.5_1","province":"Haut-Uele","NL_NAME_1":"NA","county":"Wamba","VARNAME_2":"NA","NL_NAME_2":"NA","TYPE_2":"Territoire","ENGTYPE_2":"Territory","CC_2":"NA","HASC_2":"NA","name":"Wamba.county"},
"geometry":{"type": "MultiPolygon","coordinates": [[[[27.3138,2.0365,778.9568],[27.327,2.029,747.5681],[27.3285,2.0148,762.2297],[27.3572,1.9955,777.999],[27.3587,1.9781,760.9926],[27.3562,1.9729,790.2106],[27.357,1.9625,772.4186],[27.3786,1.9465,773.7246],[27.3819,1.9381,757.4769],[27.3821,1.9271,739.0593],[27.392,1.9103,791.8942],[27.4071,1.8929,714.5457],[27.4098,1.8852,684.754],[27.4016,1.8735,759.9853],[27.3951,1.8722,860.1985],[27.3835,1.8715,842.7992],[27.3738,1.874,913.9479],[27.3499,1.876,711.6393],[27.3657,1.8588,830.1987],[27.3652,1.8556,874.0956],[27.3588,1.8526,809.7379],[27.354,1.8466,619.0385],[27.3527,1.8404,586.1884],[27.3554,1.8277,569.8483],[27.3596,1.8199,562.0022],[27.3602,1.8112,557.8098],[27.3699,1.8031,557.1018],[27.3683,1.7988,558.5332],[27.3719,1.7902,547.7061],[27.3687,1.7829,550.0871],[27.3667,1.7847,547.6117],[27.3621,1.7794,540.8747],[27.3589,1.778,542.7882],[27.3457,1.7783,548.2574],[27.3399,1.7734,539.9],[27.3345,1.7631,523.8517],[27.3244,1.7566,540.2261],[27.3176,1.7453,522.2573],[27.3167,1.7403,510.4603],[27.3132,1.74,559.1113],[27.3062,1.7283,525.9799],[27.3062,1.7246,524.9238],[27.3091,1.7219,523.8876],[27.3085,1.7113,520.1854],[27.3051,1.7025,505.6819],[27.3009,1.7032,521.2422],[27.2984,1.7018,522.5739],[27.2973,1.6988,526.8528],[27.2984,1.6949,517.6327],[27.2962,1.6903,519.7],[27.2982,1.6864,522.5243],[27.2882,1.6765,507.1917],[27.2868,1.6722,514.1833],[27.2875,1.6643,504.6143],[27.2841,1.6535,528.5688],[27.2839,1.6464,525.2835],[27.2811,1.6402,516.5959],[27.2853,1.6326,522.1991],[27.2768,1.6238,529.3053],[27.2622,1.6227,535.1836],[27.2526,1.6252,572.2212],[27.2473,1.6289,557.0482],[27.2469,1.6369,571.5778],[27.2448,1.6401,567.1416],[27.2402,1.6385,548.4935],[27.2348,1.6279,546.3177],[27.227,1.6238,540.6765],[27.2238,1.6231,544.9648],[27.2174,1.6302,538.2949],[27.2144,1.6311,538.2311],[27.2133,1.6302,538.7224],[27.2158,1.6148,532.0663],[27.2135,1.6118,533.6544],[27.2067,1.6113,530.9747],[27.1947,1.6034,533.6605],[27.2268,1.5955,526.6077],[27.2414,1.5898,533.2522],[27.2771,1.5868,526.5587],[27.2949,1.5779,540.1824],[27.31,1.577,542.8544],[27.3182,1.58,536.2913],[27.3226,1.5864,540.3414],[27.3292,1.5885,538.1105],[27.3445,1.5896,543.1726],[27.3513,1.5924,540.7841],[27.366,1.5874,549.1584],[27.3703,1.5832,543.8026],[27.3699,1.5722,537.7347],[27.371,1.5685,540.6666],[27.3756,1.5651,548.5789],[27.3845,1.5669,550.5518],[27.3982,1.5642,547.1592],[27.4195,1.5738,553.0576],[27.4325,1.5716,550.3149],[27.443,1.5621,551.2161],[27.447,1.5546,544.4669],[27.4736,1.5607,550.887],[27.4887,1.5679,550.1851],[27.5047,1.5702,548.4328],[27.5125,1.5652,560.9352],[27.5246,1.5645,561.7133],[27.5317,1.5624,552.6727],[27.5424,1.5558,566.6194],[27.5515,1.5546,551.1838],[27.5742,1.5388,563.1005],[27.5808,1.5298,573.557],[27.5872,1.5126,564.4284],[27.5864,1.4982,558.7748],[27.581,1.475,595.9395],[27.5839,1.4619,629.1019],[27.6078,1.4536,569.3255],[27.6183,1.4534,563.6131],[27.6358,1.4754,568.3649],[27.6505,1.4779,572.0583],[27.6634,1.4744,581.2249],[27.6739,1.464,598.5699],[27.6915,1.4581,595.5938],[27.7158,1.4535,582.4769],[27.7506,1.4496,602.2661],[27.7735,1.4432,582.7205],[27.7735,1.4467,611.6546],[27.768,1.4598,601.2682],[27.7506,1.4644,595.0302],[27.7495,1.469,583.0811],[27.7508,1.4736,596.1246],[27.7566,1.478,600.2757],[27.7753,1.4833,617.288],[27.7913,1.4842,634.5233],[27.7968,1.4899,621.6877],[27.799,1.4948,627.184],[27.7997,1.5021,636.3967],[27.8036,1.5044,630.9274],[27.8112,1.5249,696.8914],[27.8066,1.5445,689.6201],[27.7612,1.6077,620.5551],[27.7562,1.612,641.7448],[27.7399,1.6048,629.3838],[27.7156,1.609,699.7362],[27.7073,1.5942,722.8167],[27.7014,1.5915,703.3149],[27.6938,1.5945,703.29],[27.6771,1.591,694.05],[27.6658,1.5908,697.3659],[27.6562,1.5849,723.2205],[27.6457,1.573,684.4456],[27.6415,1.5716,641.3334],[27.6369,1.5834,644.5093],[27.6431,1.6545,629.8058],[27.5961,1.7056,622.2628],[27.56,1.7574,612.3137],[27.5533,1.7734,596.4781],[27.5558,1.7994,648.7678],[27.5667,1.828,716.1572],[27.5784,1.8446,711.4835],[27.585,1.8473,729.7557],[27.606,1.832,713.9042],[27.6278,1.8214,709.986],[27.6504,1.8144,700.1751],[27.6823,1.8083,693.345],[27.694,1.8155,669.1642],[27.7165,1.8458,647.2224],[27.7391,1.8575,694.6329],[27.75,1.8564,732.7027],[27.7634,1.8525,745.386],[27.7827,1.8288,742.4957],[27.8472,1.8277,800.1546],[27.8674,1.792,795.1014],[27.8783,1.7787,735.9928],[27.8858,1.7786,744.4449],[27.9009,1.7942,709.2268],[27.9101,1.7763,729.6771],[27.9202,1.7612,706.6553],[27.9382,1.7211,690.1052],[27.9425,1.7205,662.717],[27.9461,1.7262,759.5729],[27.9399,1.7324,659.2121],[27.9413,1.7384,698.5297],[27.9397,1.7439,729.8394],[27.9413,1.7485,753.0631],[27.9627,1.7558,678.7421],[27.9817,1.7557,709.3082],[28.0069,1.7513,720.9028],[28.0211,1.7469,715.1505],[28.1124,1.7141,799.6477],[28.1539,1.7017,783.099],[28.1803,1.6901,776.0594],[28.2092,1.683,768.467],[28.2121,1.6844,758.858],[28.2155,1.6899,763.1567],[28.1995,1.7102,785.1987],[28.1907,1.7378,782.6015],[28.1919,1.7764,827.3962],[28.1881,1.7849,813.1644],[28.1906,1.796,806.9036],[28.2312,1.8283,781.6205],[28.2517,1.8414,850.6242],[28.2889,1.8543,823.8282],[28.2986,1.8741,896.5747],[28.3087,2.088,887.8067],[28.3074,2.1066,887.803],[28.3098,2.1337,866.777],[28.3168,2.3144,823.0096],[28.3139,2.3361,805.4893],[28.3221,2.3352,796.9161],[28.3335,2.342,815.3809],[28.3637,2.3408,824.6824],[28.3618,2.3542,821.8405],[28.3477,2.3639,811.5029],[28.3542,2.3929,795.3907],[28.3491,2.4043,790.1936],[28.3479,2.4167,809.4151],[28.3667,2.4503,814.1987],[28.3685,2.4591,821.5673],[28.3654,2.4648,816.0998],[28.3547,2.4659,810.6442],[28.3491,2.4631,812.243],[28.3336,2.4627,807.305],[28.3544,2.4838,815.8176],[28.3636,2.5271,797.8613],[28.3713,2.54,812.3912],[28.3739,2.5568,805.3765],[28.3547,2.5591,826.3567],[28.3433,2.5659,820.814],[28.3355,2.5833,819.6646],[28.3282,2.5819,804.5305],[28.3219,2.577,799.485],[28.3173,2.5766,807.577],[28.3149,2.5781,798.9543],[28.3116,2.5873,809.6661],[28.3222,2.6078,820.1652],[28.3313,2.611,821.4009],[28.3351,2.6095,810.764],[28.3393,2.6148,832.8022],[28.3336,2.6343,833.9118],[28.3337,2.6411,818.5406],[28.3556,2.642,838.1775],[28.3545,2.6862,797.4601],[28.3457,2.7066,784.9589],[28.3377,2.7128,782.8403],[28.3297,2.716,788.5312],[28.3213,2.6976,819.5229],[28.3119,2.6935,803.3721],[28.2947,2.6938,808.7723],[28.2904,2.7175,798.6507],[28.2707,2.7476,783.977],[28.2636,2.7485,782.66],[28.2613,2.7469,774.9811],[28.2508,2.7476,786.7104],[28.2515,2.7453,772.3201],[28.2471,2.7382,772.7009],[28.2345,2.7283,800.2476],[28.2055,2.725,769.3992],[28.1867,2.7207,769.2474],[28.1785,2.7121,774.3816],[28.1705,2.7103,783.8909],[28.165,2.7055,784.888],[28.1441,2.7004,767.2973],[28.1377,2.6868,769.9954],[28.1627,2.6702,803.1152],[28.1784,2.6403,794.9581],[28.1821,2.6257,796.8587],[28.1754,2.5925,804.7473],[28.1643,2.5769,786.7968],[28.1515,2.5626,810.5763],[28.1421,2.5542,783.4246],[28.1092,2.5545,781.1285],[28.1064,2.5563,793.1071],[28.1002,2.5482,785.5155],[28.0975,2.5288,782.0424],[28.1065,2.5117,793.9636],[28.1074,2.4899,795.4084],[28.0742,2.4989,809.0614],[28.0554,2.4864,793.4742],[28.0383,2.483,791.0006],[28.0261,2.4717,787.5278],[28.0064,2.4356,795.1332],[28.0029,2.4309,807.6614],[27.9982,2.4279,785.7874],[27.987,2.436,759.4685],[27.9843,2.4346,764.485],[27.9811,2.4357,772.3685],[27.9724,2.4436,784.1175],[27.9667,2.4443,772.3446],[27.9552,2.4376,765.8444],[27.9321,2.4201,770.0098],[27.9269,2.4205,768.8223],[27.9301,2.4148,773.4624],[27.9264,2.4111,777.3049],[27.9287,2.4056,775.7864],[27.9235,2.3952,772.4104],[27.9257,2.3913,766.7156],[27.9324,2.3895,763.3501],[27.9328,2.386,757.1682],[27.9308,2.3819,778.9766],[27.9246,2.3759,776.7367],[27.9244,2.3688,776.373],[27.9225,2.366,783.1912],[27.9036,2.3586,784.4291],[27.9008,2.3559,777.9117],[27.8974,2.3471,770.0576],[27.888,2.3529,775.9613],[27.8784,2.3672,789.8892],[27.8782,2.3794,796.1595],[27.8831,2.392,804.3358],[27.8821,2.4005,786.1816],[27.8778,2.4148,798.5254],[27.8594,2.4554,783.6783],[27.8568,2.4711,748.7412],[27.8461,2.4855,802.161],[27.8363,2.5136,776.8997],[27.828,2.5449,772.6714],[27.8202,2.5859,770.6852],[27.8181,2.6114,762.0947],[27.8057,2.66,768.1061],[27.8035,2.6635,753.1469],[27.7989,2.666,751.9522],[27.7829,2.666,743.2178],[27.7639,2.684,738.3584],[27.7591,2.686,740.4673],[27.7578,2.6749,762.6088],[27.7388,2.6534,808.4841],[27.7451,2.6397,764.5056],[27.7423,2.6319,796.4263],[27.7352,2.6271,763.7556],[27.7273,2.6251,770.1527],[27.7217,2.6219,755.5509],[27.7107,2.606,760.4111],[27.703,2.6058,746.6874],[27.6939,2.6029,787.3092],[27.694,2.5862,756.8906],[27.6818,2.574,745.603],[27.6618,2.5606,747.3846],[27.6529,2.5635,744.2466],[27.647,2.5708,732.7957],[27.6427,2.5857,738.9585],[27.6319,2.5986,757.2963],[27.6269,2.5975,743.9136],[27.6216,2.5915,767.2269],[27.6217,2.5833,730.4446],[27.6178,2.5649,744.2126],[27.5986,2.5343,739.0629],[27.582,2.5148,775.8158],[27.565,2.5018,756.6008],[27.5361,2.4737,759.1189],[27.5247,2.4648,742.1235],[27.5087,2.442,747.748],[27.5044,2.4327,752.1232],[27.5044,2.426,750.2377],[27.5106,2.4014,747.518],[27.5099,2.3927,740.3055],[27.5068,2.385,756.9308],[27.5113,2.3626,762.6807],[27.4985,2.3458,754.8047],[27.4859,2.3339,762.8485],[27.4765,2.3313,768.4191],[27.4245,2.3314,769.7981],[27.4063,2.3272,767.5671],[27.3987,2.3185,757.6963],[27.3956,2.3019,798.4929],[27.3908,2.2996,769.9549],[27.384,2.2996,778.736],[27.3808,2.2971,765.0894],[27.3792,2.2934,757.4573],[27.3831,2.2835,767.2465],[27.3915,2.2803,781.5857],[27.3952,2.2734,756.4534],[27.3957,2.2683,751.2587],[27.3934,2.261,761.563],[27.395,2.2557,748.4669],[27.403,2.2469,749.0322],[27.4099,2.2359,760.8602],[27.4131,2.2207,742.2027],[27.4019,2.1959,741.1927],[27.3962,2.1566,739.3387],[27.3869,2.1457,762.1011],[27.3835,2.1372,745.923],[27.3857,2.1326,747.5369],[27.3835,2.1247,751.5373],[27.3768,2.1181,760.4449],[27.3741,2.1123,736.8569],[27.3721,2.0994,729.9305],[27.3661,2.0916,732.3433],[27.3611,2.09,719.5268],[27.351,2.0918,719.7126],[27.3467,2.0874,718.0131],[27.3398,2.0851,746.4355],[27.3355,2.0858,747.1984],[27.323,2.0788,722.6827],[27.3187,2.0731,743.5171],[27.3156,2.0589,753.2312],[27.3138,2.0365,778.9568]],
[[28.067,2.1639,816.1371],[28.0721,2.1488,810.1971],[28.0676,2.1495,797.2313],[28.0685,2.1222,816.562],[28.0661,2.1172,799.6889],[28.0512,2.1052,812.0992],[28.0457,2.0979,802.658],[28.0261,2.0897,804.7886],[28.0141,2.0893,789.4165],[27.9983,2.0931,802.149],[27.9834,2.1021,787.4935],[27.9719,2.1172,795.7266],[27.9638,2.1373,772.5093],[27.9612,2.1553,798.8947],[27.9612,2.1729,799.6572],[27.9649,2.1852,799.7546],[27.9832,2.187,800.0643],[27.9812,2.1978,803.2595],[27.9821,2.2033,802.9665],[28.0013,2.2068,811.7814],[28.0184,2.2068,821.1675],[28.0367,2.203,809.8073],[28.0572,2.1888,799.8999],[28.064,2.1764,808.0035],[28.067,2.1639,816.1371]]]]}}