{"type":"Feature","properties":{"GID_2":"COD.17.8_1","GID_0":"COD","country":"DemocraticRepublicoftheCongo","GID_1":"COD.17_1","province":"Maniema","NL_NAME_1":"NA","county":"Lubutu","VARNAME_2":"NA","NL_NAME_2":"NA","TYPE_2":"Territoire","ENGTYPE_2":"Territory","CC_2":"NA","HASC_2":"NA","name":"Lubutu.county"},
"geometry":{"type": "MultiPolygon","coordinates": [[[[27.2271,-1.2049,575.2267],[27.2283,-1.1927,571.2087],[27.2321,-1.1881,547.9698],[27.2506,-1.174,545.0],[27.2652,-1.1728,575.5243],[27.2686,-1.1758,576.1855],[27.2751,-1.1893,547.0],[27.2771,-1.1903,547.0],[27.2876,-1.1838,547.5],[27.2951,-1.1812,577.9106],[27.3027,-1.1814,579.2925],[27.3224,-1.1924,549.5],[27.3272,-1.1924,581.3546],[27.3344,-1.1889,554.2824],[27.3381,-1.1818,580.8474],[27.3335,-1.1715,574.6142],[27.3248,-1.1634,551.5],[27.3215,-1.1556,583.3611],[27.3124,-1.1462,588.0629],[27.295,-1.1355,625.8524],[27.2904,-1.1293,599.6429],[27.2883,-1.1238,597.0482],[27.2841,-1.0923,579.1069],[27.2804,-1.0877,582.5765],[27.2754,-1.0852,583.9528],[27.2683,-1.0784,585.402],[27.2666,-1.0676,579.5015],[27.2698,-1.0611,575.5732],[27.278199999999998,-1.0526,565.3392],[27.2775,-1.0383,569.1978],[27.2685,-1.0181,554.5],[27.2687,-1.0117,556.8918],[27.2767,-0.9958,584.3267],[27.2743,-0.9802,589.1048],[27.2762,-0.9779,591.4648],[27.2821,-0.9802,577.6477],[27.2858,-0.9788,586.9041],[27.2976,-0.9696,582.3392],[27.3108,-0.9551,588.8306],[27.3215,-0.9534,584.0903],[27.3265,-0.9504,586.6754],[27.3345,-0.9502,578.4859],[27.3418,-0.9442,585.0164],[27.3468,-0.9425,582.0819],[27.3569,-0.943,591.7668],[27.366,-0.9473,594.0794],[27.3724,-0.9482,602.5752],[27.3859,-0.9452,600.051],[27.3932,-0.9426,591.309],[27.4094,-0.9299,605.4192],[27.424,-0.9214,596.2177],[27.4417,-0.9135,596.6874],[27.449,-0.9126,595.7302],[27.457,-0.9157,583.2752],[27.4637,-0.9148,607.549],[27.4824,-0.9062,596.1003],[27.4853,-0.9065,601.3419],[27.4997,-0.9004,604.5508],[27.5173,-0.899,589.9263],[27.5218,-0.9011,602.4095],[27.5269,-0.9006,605.4658],[27.5292,-0.9031,602.7358],[27.5433,-0.9095,602.517],[27.5481,-0.9099,596.7012],[27.5554,-0.9051,610.1412],[27.5751,-0.9034,625.2936],[27.5893,-0.9137,626.8431],[27.6071,-0.9159,630.8485],[27.6135,-0.9182,621.9689],[27.6208,-0.9244,624.756],[27.6299,-0.9239,637.7335],[27.6352,-0.9328,631.4178],[27.6384,-0.9344,626.7468],[27.6425,-0.9333,635.011],[27.6462,-0.927,657.2092],[27.6533,-0.9305,719.512],[27.6631,-0.9281,894.9681],[27.6795,-0.9299,945.8663],[27.69,-0.9237,880.7947],[27.698,-0.9154,762.4719],[27.7063,-0.8931,760.4501],[27.7081,-0.8926,643.7542],[27.712,-0.8967,780.1559],[27.7166,-0.8978,680.1332],[27.7203,-0.8948,635.6974],[27.7524,-0.8915,753.3128],[27.7597,-0.8873,865.0974],[27.7663,-0.8857,656.5697],[27.7691,-0.8829,641.8837],[27.7722,-0.8708,763.4245],[27.7671,-0.8409,971.5544],[27.7691,-0.8331,1027.1249],[27.7795,-0.8154,877.6844],[27.7788,-0.8071,813.9575],[27.7831,-0.7928,785.0297],[27.7801,-0.7804,967.6708],[27.7823,-0.7735,972.4219],[27.7896,-0.7611,991.4331],[27.7978,-0.7539,969.0667],[27.8,-0.747,812.0232],[27.8019,-0.7466,791.1608],[27.8053,-0.75,895.2079],[27.8064,-0.7468,847.6616],[27.8041,-0.7394,780.7335],[27.8082,-0.7314,808.9468],[27.8052,-0.7213,785.5092],[27.806,-0.7084,770.9913],[27.8044,-0.6949,822.6235],[27.8055,-0.6903,845.9025],[27.8089,-0.6861,867.9285],[27.8176,-0.6815,865.7843],[27.8269,-0.6739,851.7961],[27.831,-0.6663,818.8516],[27.8273,-0.656,858.4874],[27.8227,-0.6537,873.5765],[27.8244,-0.6252,1088.8162],[27.8308,-0.6114,1007.5271],[27.8346,-0.6098,1046.7716],[27.841,-0.596,881.6271],[27.6605,-0.5954,911.9399],[27.6501,-0.5907,931.26],[27.6353,-0.5868,869.9182],[27.63,-0.58,875.4021],[27.6208,-0.5724,899.1392],[27.6144,-0.5706,906.1028],[27.6014,-0.5729,829.0728],[27.5957,-0.564,855.3441],[27.5781,-0.5565,832.7725],[27.5717,-0.5519,835.3954],[27.5678,-0.548,835.5651],[27.5668,-0.5421,824.7339],[27.562,-0.5393,877.4012],[27.5595,-0.5345,824.293],[27.557,-0.534,844.0171],[27.5529,-0.5361,862.4497],[27.5422,-0.532,821.4159],[27.5358,-0.536,821.5422],[27.5273,-0.5367,796.7465],[27.5191,-0.5415,815.903],[27.4985,-0.5285,811.1833],[27.4983,-0.52,817.8845],[27.4946,-0.5053,820.738],[27.4968,-0.495,808.8017],[27.4952,-0.4927,810.7596],[27.4881,-0.4909,825.1906],[27.4719,-0.4912,824.7247],[27.4598,-0.4942,821.057],[27.4521,-0.5002,793.2117],[27.4466,-0.5011,790.6113],[27.4353,-0.5129,794.4437],[27.4264,-0.5131,771.6616],[27.4198,-0.5166,800.7222],[27.399,-0.5132,795.7397],[27.3933,-0.5162,773.5037],[27.3842,-0.5174,746.1852],[27.3752,-0.5133,744.8745],[27.3586,-0.5156,748.9183],[27.3503,-0.506,748.1226],[27.348,-0.4812,767.2785],[27.3445,-0.4762,772.3849],[27.3393,-0.4723,764.1852],[27.3349,-0.4712,761.3672],[27.3304,-0.473,762.8868],[27.326,-0.4721,748.3997],[27.3205,-0.4643,745.804],[27.3089,-0.4639,738.2047],[27.3004,-0.4527,738.0229],[27.2853,-0.4497,748.8333],[27.2785,-0.4532,750.5741],[27.2678,-0.4516,723.2333],[27.2568,-0.4528,733.9587],[27.2515,-0.4482,738.583],[27.2315,-0.4499,735.3527],[27.2257,-0.4476,757.7469],[27.1931,-0.4466,764.8442],[27.1767,-0.4418,748.0862],[27.141,-0.4242,720.2338],[27.1357,-0.4238,726.0799],[27.1305,-0.4192,746.73],[27.1206,-0.4057,737.2849],[27.1215,-0.4015,736.8344],[27.1178,-0.388,711.7142],[27.1128,-0.3892,719.5238],[27.1037,-0.3862,737.0018],[27.1007,-0.3896,761.7092],[27.0973,-0.3901,754.0818],[27.0952,-0.3881,749.1177],[27.0911,-0.3888,742.6847],[27.0886,-0.386,722.7388],[27.0822,-0.3881,735.4741],[27.0788,-0.3865,778.2885],[27.0728,-0.3801,734.2323],[27.0705,-0.3734,720.5554],[27.0698,-0.3629,712.2169],[27.0737,-0.355,703.4271],[27.0728,-0.3516,673.0263],[27.0679,-0.347,680.6764],[27.0632,-0.3452,686.4037],[27.0713,-0.3353,680.6339],[27.0702,-0.3293,661.5397],[27.0482,-0.3085,689.7094],[27.0386,-0.3094,671.0568],[27.0336,-0.3051,686.5859],[27.0288,-0.3042,658.1148],[27.0107,-0.2868,658.0279],[27.0086,-0.2827,646.5828],[27.0095,-0.2739,690.2839],[27.0025,-0.2717,651.863],[26.994,-0.2758,654.6208],[26.9853,-0.2722,655.8947],[26.9801,-0.2651,624.0665],[26.9771,-0.2697,646.434],[26.9751,-0.2701,637.3134],[26.9725,-0.2683,628.0024],[26.9678,-0.2697,640.0701],[26.9563,-0.266,639.9018],[26.9499,-0.2578,657.8031],[26.9419,-0.2583,653.761],[26.9367,-0.2555,646.2585],[26.9275,-0.2464,625.803],[26.9202,-0.2439,583.4478],[26.9058,-0.229,557.1187],[26.9035,-0.2294,563.5448],[26.8956,-0.2416,563.5557],[26.889,-0.2405,577.6989],[26.8876,-0.2325,594.5938],[26.8857,-0.2304,572.4588],[26.875,-0.2254,662.6202],[26.8706,-0.2197,669.4089],[26.8572,-0.2107,694.3854],[26.8512,-0.2142,713.2659],[26.8458,-0.2142,716.7448],[26.846,-0.2057,701.5752],[26.8325,-0.209,693.8557],[26.8289,-0.2133,662.212],[26.828,-0.2179,663.5541],[26.8284,-0.2264,674.3304],[26.831,-0.2345,625.4434],[26.8337,-0.2379,640.5156],[26.8472,-0.2454,627.6796],[26.8484,-0.2505,564.1102],[26.8409,-0.2592,545.6606],[26.8254,-0.2657,549.305],[26.8165,-0.2669,552.6873],[26.8119,-0.265,551.4905],[26.8037,-0.257,696.8739],[26.7998,-0.2568,678.5771],[26.7952,-0.2529,669.0793],[26.7906,-0.2525,651.6345],[26.7772,-0.2589,652.7612],[26.7553,-0.2739,642.4338],[26.7501,-0.2872,620.5428],[26.746,-0.2914,630.0767],[26.7091,-0.3161,550.6639],[26.666,-0.327,549.0673],[26.6168,-0.357,559.6795],[26.6148,-0.3521,557.4232],[26.5922,-0.3609,536.7006],[26.5821,-0.3684,551.2509],[26.5599,-0.3784,533.6685],[26.54,-0.3766,538.2889],[26.5249,-0.3833,521.5668],[26.5151,-0.3831,517.0979],[26.4981,-0.3787,528.3311],[26.4902,-0.3817,533.9648],[26.4708,-0.3843,533.8229],[26.4679,-0.3827,535.683],[26.4574,-0.3818,540.9026],[26.4544,-0.3798,530.251],[26.453,-0.3745,529.4854],[26.4484,-0.3683,532.0901],[26.4425,-0.3469,529.1337],[26.4368,-0.3393,525.5418],[26.4317,-0.3364,521.8964],[26.4328,-0.3314,527.9645],[26.4299,-0.3261,511.351],[26.4314,-0.3217,509.604],[26.4307,-0.3192,509.7919],[26.4252,-0.3182,521.2328],[26.4187,-0.3196,531.7054],[26.4079,-0.3121,549.0524],[26.4051,-0.3069,548.6595],[26.399,-0.3089,550.7501],[26.386,-0.3046,545.7882],[26.3821,-0.3018,555.5106],[26.3798,-0.2955,565.8057],[26.3701,-0.283,575.6652],[26.3698,-0.2791,567.192],[26.3629,-0.2732,568.6764],[26.3437,-0.2607,522.268],[26.3361,-0.2672,520.427],[26.3265,-0.2587,518.9628],[26.3208,-0.2399,515.8391],[26.3217,-0.2281,538.226],[26.3167,-0.2248,541.6276],[26.3128,-0.2195,501.5696],[26.3091,-0.2074,512.7384],[26.3098,-0.2021,530.7352],[26.3013,-0.192,509.5527],[26.2949,-0.1958,510.7328],[26.283,-0.1981,528.6802],[26.2795,-0.2003,519.0327],[26.273,-0.1995,527.1426],[26.2702,-0.1945,506.6022],[26.2679,-0.1809,525.083],[26.2649,-0.1769,526.96],[26.2585,-0.1746,507.7559],[26.2546,-0.1623,514.6841],[26.2527,-0.1605,508.4899],[26.2435,-0.1589,498.7783],[26.2301,-0.1445,495.9917],[26.2263,-0.137,508.9915],[26.223,-0.1365,505.08],[26.2188,-0.1421,505.1738],[26.215699999999998,-0.1428,501.8574],[26.2128,-0.1397,498.6538],[26.2122,-0.1295,505.3273],[26.2092,-0.1329,499.2765],[26.2057,-0.1342,503.146],[26.1972,-0.1315,526.1415],[26.1926,-0.1323,516.8121],[26.1922,-0.1303,521.6678],[26.1978,-0.1205,500.8242],[26.1948,-0.1143,511.6445],[26.1945,-0.1063,508.0154],[26.1882,-0.1102,504.4116],[26.1832,-0.1109,505.3826],[26.1736,-0.0942,519.9687],[26.1706,-0.0942,518.9885],[26.166,-0.0995,525.5222],[26.1498,-0.0929,505.1502],[26.1432,-0.0933,492.8079],[26.1448,-0.0828,495.556],[26.1402,-0.0773,502.6123],[26.1364,-0.0766,513.0184],[26.1341,-0.0859,516.8225],[26.1322,-0.087,515.346],[26.1236,-0.0852,497.711],[26.1226,-0.0799,494.4855],[26.1169,-0.0828,485.9591],[26.1112,-0.0758,489.1538],[26.1014,-0.0765,507.3651],[26.0971,-0.0659,491.5269],[26.095,-0.0542,514.5012],[26.0918,-0.0507,512.2974],[26.0806,-0.053,515.8551],[26.0784,-0.0498,514.4355],[26.0865,-0.0443,503.5698],[26.0895,-0.0402,491.5098],[26.0911,-0.0321,493.3324],[26.0894,-0.0314,493.3324],[26.0839,-0.0356,505.973],[26.0795,-0.0369,523.3865],[26.065,-0.034,505.1695],[26.0641,-0.0308,487.2227],[26.0702,-0.0307,501.6277],[26.0736,-0.0274,477.0204],[26.0721,-0.0228,492.3456],[26.0643,-0.0143,491.1467],[26.0571,-0.0138,487.4752],[26.0582,-0.0235,506.0539],[26.0564,-0.0297,487.6297],[26.0516,-0.0363,484.8242],[26.0396,-0.0396,516.5542],[26.0336,-0.049,505.5373],[26.0356,-0.0606,498.2655],[26.0482,-0.0859,507.68],[26.065,-0.1613,516.7734],[26.0818,-0.1984,496.4947],[26.0928,-0.2096,490.4501],[26.0997,-0.2199,488.6657],[26.1042,-0.2243,490.6612],[26.115,-0.227,491.9601],[26.1246,-0.2373,490.4436],[26.1358,-0.2559,504.4683],[26.1422,-0.2626,516.2762],[26.1577,-0.2703,521.6189],[26.1708,-0.2841,512.1241],[26.1649,-0.297,510.2963],[26.1542,-0.3117,491.9396],[26.151,-0.3218,512.3749],[26.1312,-0.3496,513.5126],[26.126,-0.3556,528.6621],[26.1141,-0.3646,517.7088],[26.1091,-0.3726,529.0155],[26.1236,-0.3897,530.9887],[26.1523,-0.415,529.0945],[26.1883,-0.4371,537.2819],[26.2735,-0.4984,555.0478],[26.2737,-0.5041,551.9607],[26.2674,-0.526,581.5206],[26.2579,-0.577,548.9062],[26.2586,-0.5944,539.2032],[26.2566,-0.6248,519.0117],[26.2521,-0.6356,525.6514],[26.2407,-0.6491,515.2104],[26.2359,-0.6641,531.6079],[26.2302,-0.668,513.9738],[26.2376,-0.6877,530.8764],[26.239,-0.7123,509.3381],[26.237,-0.7745,511.4155],[26.245,-0.8269,487.1188],[26.249,-0.8399,502.474],[26.2597,-0.8555,507.0812],[26.2437,-0.8943,530.59],[26.2283,-0.9111,544.5096],[26.2096,-0.9227,526.9329],[26.1851,-0.9291,514.303],[26.1701,-0.9298,526.7533],[26.1634,-0.9326,507.9306],[26.1461,-0.9491,522.6376],[26.1263,-0.9545,520.3557],[26.1128,-0.9531,515.5195],[26.0736,-0.9625,512.3046],[26.0829,-1.0907,511.9659],[26.1323,-1.1167,537.1214],[26.141,-1.1329,531.9069],[26.1323,-1.1413,508.111],[26.1116,-1.1477,521.6138],[26.0869,-1.1477,534.3558],[26.0803,-1.1554,536.8212],[26.0743,-1.1917,530.8971],[26.0603,-1.2389,527.8293],[26.0589,-1.2596,500.4715],[26.0796,-1.2648,488.4078],[26.0819,-1.2813,464.9681],[26.0959,-1.282,472.7764],[26.105,-1.2861,458.0],[26.1196,-1.2866,458.5],[26.1226,-1.282,492.2208],[26.1258,-1.2808,493.5883],[26.129,-1.2753,494.4632],[26.1299,-1.2698,491.6636],[26.117,-1.2436,467.3388],[26.1198,-1.2381,483.6787],[26.1257,-1.2374,494.5914],[26.1412,-1.2454,514.2433],[26.1474,-1.2458,482.5178],[26.1524,-1.244,460.5],[26.1757,-1.2194,491.7504],[26.1859,-1.2177,469.0196],[26.1894,-1.2205,485.8574],[26.1931,-1.243,491.6148],[26.1915,-1.2536,517.3442],[26.1922,-1.2669,463.0],[26.1984,-1.2733,469.5742],[26.2066,-1.2733,463.0],[26.2098,-1.2701,486.6429],[26.2144,-1.257,481.5197],[26.2153,-1.2453,464.0],[26.2189,-1.2407,472.4415],[26.2242,-1.2404,480.5335],[26.2315,-1.2432,492.9741],[26.2608,-1.2682,507.7484],[26.277,-1.2787,513.1375],[26.2864,-1.2824,511.3817],[26.3006,-1.2849,503.6485],[26.3129,-1.2846,515.6372],[26.335,-1.2777,507.1546],[26.3403,-1.2827,512.2385],[26.3449,-1.3,508.8226],[26.3575,-1.3179,517.6677],[26.3715,-1.325,524.2999],[26.3781,-1.3325,527.3119],[26.3868,-1.3491,534.6031],[26.3903,-1.3525,633.656],[26.3942,-1.3534,581.4888],[26.4047,-1.3486,523.5671],[26.4168,-1.3492,514.2959],[26.4211,-1.3478,545.3397],[26.4269,-1.3551,518.4348],[26.4346,-1.3602,538.7501],[26.4499,-1.3606,535.3661],[26.4536,-1.3632,531.0757],[26.4582,-1.373,531.5038],[26.4586,-1.3786,501.7638],[26.4571,-1.3843,501.0971],[26.451,-1.3865,532.9792],[26.4506,-1.3891,545.9706],[26.4591,-1.3999,527.0827],[26.4749,-1.405,515.534],[26.4841,-1.4134,526.2529],[26.5103,-1.404,539.5905],[26.5197,-1.3973,489.9371],[26.5259,-1.3975,528.1411],[26.5298,-1.4009,519.3154],[26.5348,-1.4018,528.2043],[26.5458,-1.4106,544.0399],[26.5593,-1.4151,554.1403],[26.5792,-1.4174,524.0269],[26.5871,-1.4118,492.625],[26.6011,-1.4116,518.6204],[26.618,-1.3987,516.6368],[26.6246,-1.3906,530.3463],[26.6385,-1.3841,497.5],[26.6487,-1.3701,535.8286],[26.6583,-1.3657,536.4546],[26.6695,-1.3673,529.3792],[26.675,-1.3537,512.0914],[26.6784,-1.3512,527.5562],[26.6887,-1.3482,546.1996],[26.7293,-1.3462,546.2773],[26.74,-1.3414,593.8391],[26.7576,-1.3418,609.5161],[26.778,-1.3399,546.6656],[26.7818,-1.3358,567.7083],[26.7868,-1.3167,534.6608],[26.7966,-1.3116,543.4318],[26.7994,-1.3123,561.2363],[26.8092,-1.3208,539.7239],[26.8371,-1.329,588.9667],[26.8442,-1.3216,538.5212],[26.8482,-1.3029,512.5],[26.8459,-1.2843,527.081],[26.8532,-1.2744,531.7806],[26.8675,-1.2673,521.271],[26.8705,-1.264,533.0077],[26.8718,-1.2583,517.0],[26.8709,-1.253,547.6472],[26.8812,-1.2415,543.5955],[26.8823,-1.2364,558.9373],[26.88,-1.2284,561.9206],[26.8834,-1.2254,553.0462],[26.9051,-1.2224,547.3132],[26.9131,-1.2138,522.5],[26.9218,-1.2156,558.6494],[26.9361,-1.2106,560.2179],[26.9398,-1.2145,558.5782],[26.9496,-1.2149,549.7213],[26.956,-1.2179,561.6403],[26.9597,-1.2178,544.842],[26.9715,-1.2075,531.3269],[26.9754,-1.2022,541.6483],[26.981,-1.1812,542.5295],[26.9838,-1.1769,528.5],[26.9888,-1.1743,588.3035],[27.0098,-1.1736,576.116],[27.0141,-1.1696,555.0145],[27.0242,-1.1659,577.8577],[27.0308,-1.1613,563.4803],[27.0452,-1.1592,555.2847],[27.0628,-1.161,555.9814],[27.0738,-1.1709,616.0816],[27.0774,-1.1711,561.999],[27.0852,-1.1653,558.0647],[27.0897,-1.1577,561.9642],[27.0922,-1.1492,539.6782],[27.0915,-1.1446,563.73],[27.0933,-1.1425,537.9247],[27.1009,-1.1563,591.5287],[27.1059,-1.1602,586.2375],[27.1112,-1.162,598.0042],[27.1306,-1.1633,564.1743],[27.1393,-1.1675,572.1878],[27.1444,-1.1727,575.807],[27.1503,-1.1842,574.2769],[27.1602,-1.1908,578.7513],[27.1917,-1.1951,569.2573],[27.213,-1.2125,578.1341],[27.2194,-1.2123,578.8687],[27.2246,-1.2095,572.1636],[27.2271,-1.2049,575.2267]],
[[26.5977,-0.7562,529.1462],[26.5911,-0.7579,525.752],[26.5864,-0.7568,521.877],[26.5795,-0.7514,513.7778],[26.5748,-0.7453,514.5925],[26.5748,-0.739,516.931],[26.582,-0.7334,515.5896],[26.5877,-0.7316,525.9072],[26.595,-0.733,524.4894],[26.6042,-0.7387,534.8823],[26.6066,-0.7416,535.5567],[26.6066,-0.7465,534.5107],[26.6037,-0.7524,535.0599],[26.5977,-0.7562,529.1462]]]]}}