{"type": "Feature","bbox": [30.8083,2.7652,30.8902,2.9062],"geometry": {"type": "MultiPolygon","coordinates": [[[[30.8398,2.7685,1502.1716],[30.8442,2.7652,1486.2062],[30.8463,2.7662,1478.8574],[30.8472,2.7699,1484.4402],[30.8542,2.7711,1507.0955],[30.8592,2.7739,1491.3193],[30.8614,2.7839,1458.0756],[30.8666,2.7891,1426.2786],[30.8676,2.7943,1412.5463],[30.8842,2.8144,1405.2115],[30.8857,2.8317,1394.2889],[30.8839,2.8381,1393.2805],[30.8879,2.8505,1374.7762],[30.8872,2.8532,1374.6592],[30.8902,2.8585,1354.686],[30.8873,2.8714,1350.076],[30.888,2.8787,1366.9579],[30.884,2.8853,1349.8849],[30.8743,2.8912,1341.1951],[30.8746,2.8996,1336.0569],[30.8692,2.905,1331.0225],[30.8101,2.9062,1323.9358],[30.8229,2.8484,1350.7148],[30.8121,2.8333,1316.4034],[30.8083,2.8307,1323.2751],[30.827,2.7992,1378.6813],[30.8533,2.7804,1466.473],[30.848,2.773,1469.5952],[30.8398,2.7685,1502.1716]]]]}
,"properties": {"GID_2": "COD.6.3_1","GID_0": "COD","country": "DemocraticRepublicoftheCongo","GID_1": "COD.6_1","province": "Ituri","NL_NAME_1": "NA","county": "Aru(ville)","VARNAME_2": "NA","NL_NAME_2": "NA","TYPE_2": "Ville","ENGTYPE_2": "Town","CC_2": "NA","HASC_2": "NA","name": "Aru(ville).county","area_km2": 94.55092,"hist_schema_id": "Elevation0-9000","hist_area_km2": {"1300": 1.50343,"1325": 25.77057,"1350": 37.16379,"1375": 18.67761,"1400": 4.84945,"1425": 2.83771,"1450": 1.99064,"1475": 1.31299,"1500": 0.44472}}}