{"type":"Feature","properties":{"ISO3166-1-Alpha-3":"COD","country":"Democratic Republic of the Congo","fill":"#FF0","id":"1895","name":"Maniema"},
"geometry":{"type": "Polygon","coordinates": [[[26.28127,-0.18495,522.5402],[26.27739,-0.18237,525.1932],[26.27445,-0.17859,511.7004],[26.27037,-0.16888,521.7147],[26.26809,-0.16438,504.9284],[26.26499,-0.16051,504.9486],[26.26122,-0.15756,509.4605],[26.25347,-0.15265,498.0822],[26.23238,-0.13312,500.6014],[26.2282,-0.13038,501.9819],[26.21735,-0.12754,521.7235],[26.20737,-0.12371,504.7162],[26.20334,-0.12103,497.5419],[26.20024,-0.11715,503.0309],[26.19854,-0.11219,508.0974],[26.19606,-0.10775,508.0154],[26.1928,-0.10433,496.7526],[26.18303,-0.10129,506.1209],[26.17885,-0.09881,515.2801],[26.17575,-0.09524,504.2513],[26.17203,-0.0924,511.9975],[26.16753,-0.09054,515.2464],[26.16226,-0.09012,506.3235],[26.15699,-0.09043,510.8986],[26.14655,-0.09803,506.4496],[26.13585,-0.11219,519.2709],[26.11198,-0.1526,514.7117],[26.11136,-0.17384,545.2561],[26.11647,-0.18965,514.2458],[26.16613,-0.22546,508.3201],[26.21435,-0.26903,514.4677],[26.25827,-0.31698,547.343],[26.36597,-0.39114,545.769],[26.38648,-0.4132,567.9586],[26.39392,-0.42478,568.6306],[26.39982,-0.43718,560.6683],[26.40261,-0.44933,583.0033],[26.40261,-0.46163,578.1971],[26.39454,-0.47806,585.4666],[26.38054,-0.49568,611.4322],[26.29274,-0.57387,539.6789],[26.28251,-0.58549,533.6245],[26.27383,-0.59784,533.4897],[26.26758,-0.6102,536.8813],[26.26416,-0.62229,527.3191],[26.26292,-0.63464,528.2443],[26.29166,-0.83742,510.0078],[26.29212,-0.85116,508.9417],[26.29135,-0.8646,539.0915],[26.28778,-0.87741,515.8756],[26.27321,-0.89261,514.4753],[26.24897,-0.90961,540.5244],[26.17203,-0.95116,528.1234],[26.15668,-0.96609,527.6205],[26.15151,-0.97761,531.9255],[26.1467,-0.99704,512.3019],[26.1388,-1.08123,514.9996],[26.14159,-1.09259,514.8153],[26.14717,-1.10365,519.2437],[26.15451,-1.11409,526.4342],[26.15864,-1.12531,513.6989],[26.15399,-1.13848,521.1249],[26.14283,-1.156,500.171],[26.13864,-1.16964,498.9582],[26.13725,-1.18199,495.7025],[26.1388,-1.21279,490.9101],[26.13802,-1.21791,495.0925],[26.13508,-1.22313,490.3476],[26.12857,-1.22489,495.1769],[26.12438,-1.22783,497.4785],[26.12283,-1.23367,463.7472],[26.12422,-1.23863,488.892],[26.12609,-1.24375,489.8643],[26.12717,-1.24897,492.1257],[26.12329,-1.25491,459.5],[26.11446,-1.26147,513.3791],[26.09286,-1.26974,495.8027],[26.07844,-1.27899,488.205],[26.07115,-1.28586,477.0349],[26.06898,-1.29201,484.1594],[26.06945,-1.2977,486.7054],[26.07069,-1.30302,466.0125],[26.07487,-1.31243,457.0],[26.07611,-1.31708,457.0],[26.07596,-1.32183,466.3181],[26.07038,-1.34281,456.5],[26.06976,-1.36116,487.5729],[26.06526,-1.36834,507.9262],[26.05643,-1.3765,484.5645],[26.03482,-1.39056,493.2432],[26.02754,-1.3994,486.2678],[26.0249,-1.40622,466.5812],[26.03389,-1.42467,495.9055],[26.0356,-1.42973,498.4598],[26.03513,-1.43547,496.1066],[26.03234,-1.4412,509.8365],[26.02242,-1.45355,517.9523],[26.0201,-1.45919,503.6449],[26.0187,-1.47009,500.9055],[26.01684,-1.47536,510.559],[26.01374,-1.48006,503.6077],[26.00769,-1.4859,491.1471],[26.00428,-1.48849,493.0922],[25.99855,-1.4904,492.2815],[25.99235,-1.49097,480.6414],[25.97819,-1.49081,504.7634],[25.96997,-1.48962,497.0677],[25.95803,-1.48606,469.6141],[25.9523,-1.48534,474.1231],[25.94625,-1.48528,485.4765],[25.94021,-1.48456,482.8677],[25.93571,-1.48265,484.9366],[25.93385,-1.47862,485.7208],[25.93364,-1.47412,469.5462],[25.93395,-1.46947,432.5],[25.93323,-1.46559,488.906],[25.92982,-1.4628,497.5894],[25.9155,-1.45655,493.7057],[25.91132,-1.45392,483.2778],[25.90419,-1.44709,476.004],[25.9014,-1.44306,475.149],[25.89892,-1.43883,477.4961],[25.8924,-1.42477,511.1098],[25.8893,-1.42089,480.9899],[25.87173,-1.40431,490.4295],[25.86212,-1.39366,480.7783],[25.85964,-1.3917,472.5099],[25.86083,-1.39878,488.3379],[25.85654,-1.43438,468.7425],[25.85701,-1.56218,480.736],[25.86347,-1.60533,481.352],[25.86336,-1.62807,475.3452],[25.85881,-1.64977,457.0989],[25.84517,-1.69199,442.5833],[25.84228,-1.71369,478.64],[25.84445,-1.7787,501.0869],[25.84228,-1.79937,489.0203],[25.83453,-1.81865,500.461],[25.81411,-1.84898,493.6201],[25.80921,-1.8556,466.3996],[25.79665,-1.8587,455.0072],[25.76657,-1.86087,461.7492],[25.71257,-1.8742,469.2681],[25.69268,-1.87492,446.4813],[25.66663,-1.86893,458.456],[25.62053,-1.85058,498.4111],[25.60162,-1.84738,493.5419],[25.58374,-1.84821,503.3869],[25.55863,-1.85462,496.414],[25.5408,-1.86237,477.2574],[25.52462,-1.87182,498.5055],[25.49362,-1.89642,493.856],[25.33208,-2.07465,473.9332],[25.32107,-2.08401,469.8788],[25.3097,-2.09052,476.7551],[25.28598,-2.0993,462.1325],[25.26211,-2.10545,431.5943],[25.23275,-2.10917,467.3105],[25.18852,-2.11088,494.7697],[25.1401,-2.10685,475.3629],[25.11188,-2.10132,487.0161],[25.09891,-2.0962,478.7274],[25.09519,-2.09517,481.5674],[25.09116,-2.09698,481.0811],[25.08129,-2.09357,492.5655],[25.06346,-2.08334,480.7067],[25.05633,-2.07517,491.9066],[25.05339,-2.06313,473.1391],[25.05654,-2.05378,468.452],[25.0707,-2.0328,468.6771],[25.07385,-2.02189,469.324],[25.07323,-2.00008,471.1801],[25.07137,-1.9913,467.3586],[25.06765,-1.9837,466.1708],[25.04191,-1.96479,480.5446],[25.01582,-1.94954,470.2177],[25.01225,-1.94691,480.9536],[25.01349,-1.93962,469.1299],[25.00434,-1.93626,463.8026],[24.98481,-1.93564,468.9275],[24.88843,-1.94577,477.6388],[24.83583,-1.95621,491.3992],[24.45068,-1.93869,581.8555],[24.462,-2.01357,525.1434],[24.47864,-2.07434,604.9261],[24.49368,-2.10824,524.1871],[24.58416,-2.23159,573.9752],[24.68126,-2.41081,496.8094],[24.70581,-2.44626,521.1792],[24.72472,-2.46419,511.1465],[24.74131,-2.4675,495.0045],[25.08517,-2.44729,469.8844],[25.09979,-2.44781,459.9054],[25.09855,-2.45303,468.3024],[25.0908,-2.53602,475.4288],[25.08129,-2.56651,497.7268],[25.07742,-2.58785,465.2834],[25.08031,-2.60547,470.9085],[25.08543,-2.62346,464.0231],[25.0908,-2.69017,481.3696],[25.09499,-2.71053,481.0373],[25.10992,-2.75528,470.3506],[25.11116,-2.77322,475.9466],[25.10604,-2.79073,455.6162],[25.07059,-2.87073,478.8652],[25.06331,-2.91191,475.711],[25.03354,-2.95755,484.3425],[25.02476,-2.97977,477.6999],[25.02057,-2.99899,466.6284],[25.01923,-3.03578,481.4637],[25.0229,-3.04126,479.5076],[25.03003,-3.04715,481.2075],[25.0354,-3.05506,482.3738],[25.03354,-3.06679,466.2355],[25.02543,-3.07439,454.3574],[25.0183,-3.06968,474.3338],[25.01179,-3.06183,462.1669],[25.00559,-3.05997,454.6047],[24.99789,-3.06958,472.5401],[25.00078,-3.07842,457.735],[25.00863,-3.08482,470.1891],[25.01582,-3.0873,455.2813],[25.01721,-3.09123,456.4471],[25.00874,-3.11092,454.5],[25.009,-3.11831,466.3864],[25.01303,-3.13376,459.148],[25.00745,-3.15479,468.2705],[24.98512,-3.19717,470.4686],[24.96688,-3.21365,472.4297],[24.96399,-3.22104,472.3954],[24.96089,-3.25551,488.3056],[24.94879,-3.26419,462.6271],[24.93655,-3.26487,482.3511],[24.92357,-3.26357,479.6335],[24.90936,-3.26605,467.4787],[24.90048,-3.27148,482.3535],[24.89924,-3.27629,479.2502],[24.9013,-3.28088,477.0682],[24.90254,-3.2859,475.8569],[24.90657,-3.35168,487.3677],[24.89913,-3.3616,479.4757],[24.87758,-3.36563,470.482],[24.86435,-3.37654,482.2424],[24.84792,-3.41002,485.5815],[24.8443,-3.4123,483.2598],[24.83976,-3.41126,464.8385],[24.83593,-3.41214,471.2405],[24.83428,-3.42,474.5637],[24.83459,-3.43116,487.498],[24.83366,-3.43628,485.2762],[24.83087,-3.44077,478.115],[24.82374,-3.44702,492.3661],[24.81738,-3.45007,470.926],[24.80927,-3.451,487.357],[24.79702,-3.451,483.3764],[24.78028,-3.45829,474.8053],[24.7827,-3.47488,493.7819],[24.80012,-3.50501,478.4561],[24.80167,-3.51488,490.2276],[24.8012,-3.52635,478.7198],[24.79774,-3.5358,476.9355],[24.7902,-3.53978,469.454],[24.77733,-3.54056,479.4804],[24.77252,-3.54381,467.6501],[24.77211,-3.55084,479.0699],[24.77407,-3.5818,464.37],[24.78984,-3.64417,474.198],[24.79216,-3.64794,478.3322],[24.79345,-3.65311,463.7461],[24.79619,-3.68587,473.537],[24.79345,-3.69073,462.0],[24.78338,-3.70019,465.4544],[24.76849,-3.7192,468.0197],[24.74736,-3.75662,468.2296],[24.73186,-3.76571,506.3188],[24.74348,-3.79806,465.5],[24.75377,-3.80752,476.8415],[24.77283,-3.81408,476.5615],[24.76942,-3.81822,469.0541],[24.76746,-3.82189,466.7941],[24.76477,-3.82504,467.4272],[24.75919,-3.82778,467.5598],[24.76932,-3.83274,468.2029],[24.78002,-3.83465,474.7394],[24.80353,-3.8346,476.7906],[24.81402,-3.83894,485.1361],[24.81201,-3.84803,484.7216],[24.80493,-3.85537,468.4675],[24.80012,-3.85506,469.2011],[24.80487,-3.87093,473.7967],[24.81278,-3.88689,481.4846],[24.83428,-3.91712,481.8548],[24.83748,-3.9134,479.4742],[24.84477,-3.90658,485.9264],[24.84792,-3.90286,485.7639],[24.85764,-3.93004,467.4629],[24.86156,-3.93764,477.4792],[24.89092,-3.96115,484.9819],[24.89572,-3.96834,475.4729],[24.89572,-4.00963,509.4797],[24.92254,-4.03546,496.7856],[24.92988,-4.04068,483.8899],[24.93313,-4.03867,493.0982],[24.94399,-4.02818,489.3459],[24.95034,-4.02637,473.2788],[24.95649,-4.02885,491.5729],[24.9598,-4.03298,487.1259],[24.97153,-4.05495,486.5831],[24.9798,-4.09313,478.9328],[24.98853,-4.10089,487.8074],[24.99618,-4.10461,493.6773],[24.99644,-4.11313,482.4614],[24.99194,-4.12879,528.952],[24.99044,-4.12833,528.952],[24.98776,-4.13158,528.1456],[24.98543,-4.13685,538.7919],[24.98512,-4.14243,521.8201],[24.9876,-4.14709,484.0859],[24.99535,-4.15205,486.9365],[25.00295,-4.16176,479.4946],[25.00905,-4.1676,495.0666],[25.0107,-4.17551,496.4225],[25.00186,-4.18744,480.4517],[24.99799,-4.19535,499.1097],[24.99706,-4.20662,509.8135],[24.99814,-4.22842,502.7104],[25.00037,-4.23757,503.4294],[25.01024,-4.25369,491.1227],[25.01241,-4.26599,492.1214],[25.00987,-4.27891,492.1122],[25.00398,-4.28801,489.0404],[24.99721,-4.29633,492.7292],[24.99194,-4.30692,489.7738],[24.97484,-4.39012,498.548],[24.98486,-4.39663,504.1124],[24.99535,-4.41208,499.4163],[25.01241,-4.44474,496.8282],[25.00285,-4.45869,506.119],[24.96399,-4.49254,494.8647],[24.92678,-4.5453,500.7125],[24.92678,-4.55461,499.0143],[24.91153,-4.56034,503.4289],[24.89216,-4.5746,501.6013],[24.87557,-4.59321,497.9981],[24.86611,-4.61806,508.4835],[24.85598,-4.63713,503.8108],[24.85412,-4.64954,507.9417],[24.8581,-4.65987,515.6025],[24.86477,-4.66788,502.2442],[24.86797,-4.67532,508.5497],[24.86156,-4.68369,512.4766],[24.86704,-4.68907,508.7037],[24.87898,-4.69573,517.0052],[24.88208,-4.69796,515.0921],[24.9027,-4.75098,504.7902],[24.91277,-4.7594,505.0997],[24.91944,-4.76198,503.7962],[24.93732,-4.77991,510.6668],[24.96399,-4.79356,505.5898],[24.9692,-4.80286,513.9512],[24.97608,-4.8227,505.1046],[24.98171,-4.83144,500.3314],[25.00264,-4.84678,525.4699],[25.00559,-4.8519,520.1683],[25.00781,-4.87448,502.8529],[25.01391,-4.89676,504.5825],[25.05876,-4.98812,507.6311],[25.07819,-4.99411,584.9138],[25.10429,-4.99747,596.986],[26.26944,-4.99995,556.8644],[28.82453,-4.99995,889.1731],[28.80561,-4.9844,886.0221],[28.77455,-4.95262,843.2448],[28.7558,-4.92931,802.6603],[28.74246,-4.90704,827.2881],[28.65523,-4.68602,776.2495],[28.61038,-4.61564,865.9662],[28.49106,-4.38226,1110.8672],[28.47555,-4.36087,1086.0793],[28.46734,-4.35224,1052.3511],[28.45566,-4.34253,804.4957],[28.35344,-4.27659,1054.6169],[28.33742,-4.26051,1165.8698],[28.29479,-4.20651,781.0811],[28.23769,-4.17168,777.7436],[28.21655,-4.15478,726.3997],[28.19578,-4.1415,791.6293],[28.17733,-4.13546,784.0131],[28.15836,-4.1367,731.6683],[28.13961,-4.14522,731.1124],[28.12441,-4.15711,722.7291],[28.11242,-4.17132,711.4463],[28.10514,-4.18367,697.0154],[28.09832,-4.19954,687.1792],[28.09584,-4.20078,684.0713],[28.09305,-4.19954,682.3223],[28.0856,-4.19194,689.5479],[28.07785,-4.18574,675.4681],[28.07367,-4.18321,685.4044],[28.06886,-4.18104,682.4802],[28.06385,-4.17938,668.9915],[28.05858,-4.17876,685.4204],[28.05067,-4.17954,684.574],[28.04602,-4.18062,679.9634],[28.0409,-4.18109,680.7263],[28.03532,-4.18047,674.2839],[28.03067,-4.1784,685.9913],[28.02788,-4.17241,677.469],[28.02664,-4.16393,668.1961],[28.02897,-4.14734,675.665],[28.03393,-4.13267,660.3595],[28.03377,-4.12926,669.4257],[28.02897,-4.12719,687.0244],[28.02447,-4.12802,668.3089],[28.00959,-4.13355,671.9277],[28.00442,-4.13437,675.1538],[28.00008,-4.13479,668.0473],[27.99031,-4.13417,670.778],[27.90701,-4.10822,695.1351],[27.87099,-4.09215,725.9787],[27.83218,-4.06838,750.9899],[27.7712,-4.01314,781.7687],[27.74748,-3.99712,798.3129],[27.73524,-3.99092,778.5678],[27.70185,-3.98012,796.9009],[27.66258,-3.97309,780.7883],[27.49892,-3.97557,706.3907],[27.49158,-3.97449,687.2222],[27.48197,-3.97113,677.3206],[27.41262,-3.95407,661.7523],[27.33552,-3.92157,617.3617],[27.20235,-3.87966,614.4973],[27.17879,-3.86684,596.7071],[27.1592,-3.85057,603.1182],[27.12571,-3.80804,610.3415],[27.1021,-3.77119,599.3516],[27.09357,-3.74995,598.1617],[27.08923,-3.72783,591.5212],[27.08939,-3.70039,573.5279],[27.12835,-3.4895,539.5],[27.12726,-3.48408,560.1961],[27.12339,-3.47405,543.9901],[27.12199,-3.46863,550.8278],[27.12323,-3.44031,573.12],[27.11982,-3.43535,581.1587],[27.11285,-3.42868,580.3859],[27.11217,-3.42393,568.4111],[27.11269,-3.41793,575.889],[27.11564,-3.40656,595.3208],[27.11533,-3.39933,572.0143],[27.11331,-3.39385,575.881],[27.10959,-3.3907,556.0853],[27.1052,-3.38884,544.8311],[27.10101,-3.3877,591.5287],[27.09838,-3.38646,586.6771],[27.09559,-3.38382,581.3986],[27.0945,-3.37902,571.2359],[27.09466,-3.37318,543.0245],[27.09543,-3.36594,573.3389],[27.09404,-3.36109,582.3577],[27.08985,-3.3552,582.1968],[27.08815,-3.35178,583.45],[27.08706,-3.34688,590.4991],[27.08799,-3.34,594.8569],[27.09032,-3.33282,573.6121],[27.10008,-3.32021,571.0082],[27.12726,-3.29194,558.5119],[27.13005,-3.2874,559.3036],[27.13161,-3.28171,566.6635],[27.13099,-3.27334,578.79],[27.1285,-3.26797,588.946],[27.1254,-3.26409,577.0637],[27.12277,-3.26145,579.0394],[27.12106,-3.25923,580.2965],[27.11936,-3.2551,586.2307],[27.11796,-3.25019,543.858],[27.11734,-3.24394,577.696],[27.1192,-3.21221,587.0436],[27.11889,-3.20601,577.8106],[27.11579,-3.18983,586.0428],[27.11967,-3.16596,581.596],[27.11734,-3.1612,601.6842],[27.11316,-3.15929,594.9189],[27.1052,-3.15857,584.9581],[27.10101,-3.15665,594.7716],[27.09791,-3.15314,576.7298],[27.09605,-3.14813,583.4963],[27.09636,-3.1427,572.6031],[27.09838,-3.13753,571.5168],[27.10711,-3.13056,585.3141],[27.10928,-3.1271,594.9854],[27.11083,-3.12172,593.3525],[27.11083,-3.11263,592.8865],[27.1099,-3.10777,588.1294],[27.10814,-3.10389,595.8454],[27.09729,-3.08844,596.5038],[27.09497,-3.08389,592.9904],[27.08908,-3.06896,583.155],[27.08582,-3.06534,589.3717],[27.07652,-3.061,589.0706],[27.07295,-3.05775,582.6906],[27.07016,-3.05351,582.9708],[27.06365,-3.03242,574.5273],[27.05946,-3.02297,559.0314],[27.05853,-3.01635,566.9852],[27.05931,-3.00793,542.2383],[27.06288,-2.99377,575.3673],[27.0635,-2.98519,557.571],[27.06319,-2.97837,578.9231],[27.06179,-2.9731,568.3156],[27.04546,-2.93915,575.5913],[27.04003,-2.93321,577.5951],[26.99797,-2.89915,629.3353],[26.98665,-2.88665,627.5137],[26.94883,-2.83574,607.1144],[26.94164,-2.82846,592.9049],[26.92986,-2.82195,604.6829],[26.92629,-2.81807,592.2708],[26.92304,-2.80836,589.1957],[26.92257,-2.77601,588.0889],[26.91963,-2.75745,610.4693],[26.91312,-2.73932,648.8438],[26.89746,-2.71151,626.0397],[26.89157,-2.69766,667.9156],[26.83354,-2.51716,658.3033],[26.82279,-2.46486,602.8062],[26.82124,-2.44207,649.111],[26.83075,-2.29583,583.2169],[26.8509,-2.17377,554.6545],[26.86067,-2.13827,547.3685],[26.86361,-2.13274,559.6044],[26.86981,-2.12793,556.0558],[26.87694,-2.12669,582.5438],[26.88687,-2.12855,559.2452],[26.89296,-2.13129,571.486],[26.91017,-2.14214,621.0537],[26.91963,-2.14654,566.4317],[26.95394,-2.15424,593.5787],[26.98278,-2.15351,544.3494],[26.99006,-2.15501,561.4043],[26.9958,-2.15677,562.9976],[26.99921,-2.15889,572.2667],[27.00252,-2.15997,575.6352],[27.00779,-2.16106,576.021],[27.01554,-2.16106,563.6379],[27.0219,-2.16168,545.1021],[27.02763,-2.16349,559.9655],[27.03182,-2.16586,554.0584],[27.03585,-2.16912,549.0235],[27.0391,-2.17253,541.9354],[27.0604,-2.19899,564.8384],[27.06381,-2.20235,571.8552],[27.06784,-2.20545,575.6952],[27.07218,-2.20777,547.6958],[27.07791,-2.20922,571.4113],[27.10473,-2.20999,572.9686],[27.1099,-2.21351,576.4813],[27.11316,-2.21811,543.0],[27.11502,-2.22327,555.4247],[27.11703,-2.22762,561.4006],[27.12013,-2.23144,556.7177],[27.12432,-2.23397,545.8956],[27.12974,-2.23506,554.8257],[27.13548,-2.23397,576.843],[27.14509,-2.22555,577.0038],[27.14897,-2.22312,547.5475],[27.15439,-2.22498,548.6136],[27.15703,-2.22911,559.5959],[27.15905,-2.23413,563.5336],[27.16137,-2.238,556.5765],[27.16468,-2.2411,560.0993],[27.16995,-2.24338,574.2192],[27.176,-2.24312,587.9412],[27.18235,-2.24095,591.1213],[27.18917,-2.2347,571.5768],[27.19646,-2.22994,549.2218],[27.20654,-2.22601,592.9594],[27.22628,-2.22188,570.9234],[27.24953,-2.21449,595.2744],[27.27764,-2.20235,602.7316],[27.32167,-2.17594,688.4661],[27.34699,-2.15677,889.6152],[27.36684,-2.13765,1077.5844],[27.37862,-2.12142,1120.7958],[27.38761,-2.10209,1280.0352],[27.39293,-2.08463,1199.5491],[27.39913,-2.04675,1157.432],[27.41293,-2.02747,847.5237],[27.43433,-2.01833,965.4651],[27.76004,-2.00091,1173.4729],[27.72702,-1.94546,1068.5947],[27.72247,-1.93471,1129.9768],[27.71875,-1.91389,1105.5352],[27.71658,-1.83808,1153.2444],[27.70976,-1.80702,1062.0703],[27.6955,-1.78997,1063.4812],[27.66119,-1.76925,1044.323],[27.64522,-1.75312,1020.3369],[27.60625,-1.70274,815.129],[27.53473,-1.64874,805.3691],[27.51939,-1.63303,770.5631],[27.49799,-1.60455,808.1224],[27.45004,-1.5227,650.931],[27.24224,-1.28385,685.2499],[27.21615,-1.24308,724.2088],[27.20902,-1.22566,776.7508],[27.20592,-1.21202,588.3817],[27.207,-1.20349,572.2397],[27.21165,-1.20132,561.5858],[27.21739,-1.20024,567.5359],[27.22235,-1.19869,574.6365],[27.22752,-1.19559,564.9066],[27.24364,-1.18013,583.7373],[27.24845,-1.17688,572.2845],[27.25325,-1.17538,583.1218],[27.25868,-1.17564,576.0902],[27.26348,-1.17714,585.9352],[27.26798,-1.17941,582.1075],[27.2717,-1.18256,573.7155],[27.27496,-1.18603,547.0],[27.27919,-1.18804,570.3671],[27.284,-1.18799,551.7793],[27.29268,-1.18396,578.4021],[27.29687,-1.18256,580.2954],[27.30105,-1.18365,590.1465],[27.30493,-1.18603,589.5459],[27.3088,-1.18907,590.1072],[27.31299,-1.19145,581.5767],[27.31795,-1.19285,584.5047],[27.32338,-1.19269,549.5],[27.32834,-1.19083,578.1573],[27.33221,-1.18737,577.9292],[27.33459,-1.17445,579.7599],[27.33407,-1.1682,579.7947],[27.33304,-1.16267,576.8379],[27.33087,-1.15786,578.2194],[27.32787,-1.15368,582.5276],[27.32105,-1.14701,580.8935],[27.31361,-1.14117,580.7109],[27.29361,-1.1298,588.7923],[27.29113,-1.12784,594.3788],[27.28865,-1.12484,610.8552],[27.28694,-1.12009,596.2134],[27.28679,-1.11347,585.6827],[27.28756,-1.10567,577.8385],[27.28663,-1.09998,582.8712],[27.28462,-1.09533,588.6257],[27.2793,-1.08701,582.5765],[27.2762,-1.08298,577.1588],[27.27263,-1.07957,559.0991],[27.26844,-1.07694,577.6207],[27.26379,-1.07477,643.6726],[27.26007,-1.07182,651.2229],[27.25852,-1.06738,684.8086],[27.25976,-1.06097,585.474],[27.26658,-1.04149,579.0668],[27.26782,-1.03348,569.3658],[27.26674,-1.00051,576.8703],[27.26767,-0.99431,576.5167],[27.27139,-0.98888,562.4912],[27.27806,-0.98304,576.2724],[27.29253,-0.97493,585.5273],[27.30167,-0.97172,585.2463],[27.30942,-0.96997,588.0538],[27.31594,-0.96671,582.3821],[27.32353,-0.96175,584.8777],[27.33645,-0.95131,573.7479],[27.34451,-0.94682,587.1009],[27.3518,-0.94449,585.0869],[27.35738,-0.94511,593.1626],[27.37319,-0.95002,601.4393],[27.38544,-0.951,586.6458],[27.39164,-0.95064,591.7772],[27.39867,-0.94728,588.2085],[27.43495,-0.91912,600.5563],[27.43944,-0.91674,602.5023],[27.44456,-0.91509,599.0848],[27.44988,-0.91426,601.2314],[27.45577,-0.91457,581.2009],[27.4674,-0.91633,599.5001],[27.47329,-0.91633,609.1729],[27.47887,-0.91478,594.486],[27.49809,-0.90449,600.8875],[27.50109,-0.90356,602.9233],[27.50497,-0.90315,609.3589],[27.50869,-0.90496,608.7618],[27.51225,-0.90821,604.209],[27.51597,-0.91782,622.8235],[27.51908,-0.92144,618.0775],[27.52419,-0.92325,611.0767],[27.52931,-0.92418,613.5215],[27.53396,-0.92599,607.9376],[27.53706,-0.92878,602.4553],[27.54,-0.93188,612.9633],[27.54264,-0.9341,602.4612],[27.54559,-0.93581,590.989],[27.55039,-0.9372,599.1981],[27.55597,-0.93767,605.6651],[27.56176,-0.93715,609.1381],[27.57757,-0.9325,605.2029],[27.58315,-0.93147,608.7084],[27.59835,-0.93126,608.9567],[27.60455,-0.9293,609.2903],[27.65374,-0.92987,719.512],[27.6708,-0.92723,993.1296],[27.6862,-0.92191,840.6937],[27.74966,-0.8846,829.663],[27.76299,-0.87431,705.7511],[27.76981,-0.8601,786.4537],[27.77849,-0.81091,916.4315],[27.80614,-0.74471,813.8123],[27.81559,-0.6967,820.0947],[27.82149,-0.68228,884.2869],[27.81776,-0.66177,849.485],[27.81218,-0.64518,859.8522],[27.73028,-0.56705,1050.2743],[27.71348,-0.56575,944.7764],[27.66852,-0.55237,877.0003],[27.59478,-0.52043,890.0381],[27.583,-0.51816,865.3709],[27.56316,-0.51738,862.3854],[27.52078,-0.52121,833.1319],[27.51551,-0.52017,807.0388],[27.51101,-0.51816,818.544],[27.50714,-0.51501,832.5161],[27.50419,-0.51118,846.4091],[27.50182,-0.50741,810.3347],[27.49515,-0.49232,810.7596],[27.49236,-0.48855,804.0875],[27.48895,-0.48519,814.103],[27.48476,-0.4825,806.0243],[27.47996,-0.48049,804.7964],[27.47453,-0.47925,803.4792],[27.46864,-0.47868,801.6013],[27.46259,-0.47899,819.3447],[27.4058,-0.49759,788.7807],[27.3797,-0.5024,785.3894],[27.36746,-0.50007,748.0968],[27.36575,-0.4993,780.4963],[27.36296,-0.49785,787.751],[27.35939,-0.49537,750.973],[27.35242,-0.48901,772.3054],[27.34932,-0.48534,778.3055],[27.34668,-0.481,767.2785],[27.34234,-0.47155,765.2958],[27.33909,-0.46783,758.4213],[27.32276,-0.45697,767.897],[27.31826,-0.45455,765.7833],[27.29315,-0.44561,741.4203],[27.2239,-0.44013,737.1591],[27.18003,-0.43227,752.7704],[27.16561,-0.42638,759.2422],[27.153,-0.41853,733.2746],[27.14804,-0.41646,713.2136],[27.14246,-0.41537,720.5405],[27.13285,-0.41134,763.9066],[27.12912,-0.4083,753.2958],[27.12571,-0.40483,741.4143],[27.12292,-0.40065,737.1227],[27.11657,-0.38644,709.088],[27.11362,-0.38256,739.5797],[27.10959,-0.37967,728.5306],[27.09497,-0.37372,736.4391],[27.09063,-0.37145,711.3989],[27.07636,-0.35832,724.4716],[27.07032,-0.35068,702.5879],[27.0652,-0.34199,688.3638],[27.0635,-0.3375,692.9553],[27.06334,-0.33249,664.1142],[27.06505,-0.32241,676.8109],[27.06458,-0.31709,708.2623],[27.06241,-0.31244,723.2596],[27.05616,-0.30463,712.0153],[27.05275,-0.30132,690.4724],[27.04484,-0.29564,697.2543],[27.036,-0.29078,703.8607],[27.02608,-0.28711,691.791],[27.02159,-0.28474,683.51],[27.01756,-0.2821,664.0181],[27.01058,-0.27518,672.5232],[27.00205,-0.26484,680.0012],[26.99952,-0.26298,655.7391],[26.99632,-0.26138,647.827],[26.99161,-0.26019,650.5033],[26.96898,-0.26159,630.7902],[26.96324,-0.26097,641.4526],[26.95286,-0.25802,640.684],[26.93513,-0.24841,626.9007],[26.92722,-0.24252,601.8085],[26.9125,-0.22918,563.0136],[26.90769,-0.22676,562.1361],[26.90071,-0.22588,558.9685],[26.88986,-0.22753,554.4294],[26.88335,-0.22639,659.226],[26.87818,-0.22422,672.1708],[26.86609,-0.21575,684.8203],[26.85539,-0.20588,694.5255],[26.85152,-0.20304,687.433],[26.84687,-0.20133,690.6851],[26.84129,-0.20195,708.9509],[26.83617,-0.20526,720.9523],[26.83137,-0.21285,685.6121],[26.83054,-0.21921,654.5688],[26.83178,-0.22459,663.5359],[26.83664,-0.23353,619.4843],[26.8385,-0.23807,603.5599],[26.83896,-0.24329,558.7525],[26.83788,-0.24815,563.6447],[26.83462,-0.25285,562.0684],[26.8293,-0.25647,559.6417],[26.82,-0.25921,581.844],[26.81287,-0.25936,630.8885],[26.80713,-0.25787,693.9614],[26.79798,-0.25352,670.2736],[26.79287,-0.25228,664.3547],[26.7876,-0.25228,661.7393],[26.77643,-0.25766,656.4794],[26.70967,-0.29869,618.4744],[26.69788,-0.30365,538.5134],[26.65303,-0.30618,625.6954],[26.64745,-0.30742,597.3394],[26.64233,-0.30923,587.1664],[26.6366,-0.31306,569.0505],[26.63055,-0.31848,564.8116],[26.62125,-0.32892,554.6768],[26.61226,-0.33729,543.1168],[26.60078,-0.34577,556.4822],[26.57779,-0.35863,547.9004],[26.56539,-0.36339,546.6576],[26.55546,-0.36561,531.814],[26.5441,-0.36416,529.854],[26.50844,-0.36623,522.1612],[26.49102,-0.37,521.1069],[26.47893,-0.37145,529.0494],[26.47258,-0.3714,529.3759],[26.46668,-0.37052,538.5991],[26.46157,-0.36881,530.142],[26.45692,-0.36659,529.6733],[26.4532,-0.36354,535.55],[26.44979,-0.36013,530.8975],[26.43532,-0.34019,523.2198],[26.43304,-0.33564,522.3502],[26.43113,-0.33063,518.2958],[26.42571,-0.30861,526.775],[26.42384,-0.30365,544.736],[26.42105,-0.29952,542.3912],[26.41718,-0.29667,549.6047],[26.41222,-0.29471,541.8171],[26.39485,-0.29171,573.0013],[26.38974,-0.28985,593.7538],[26.38555,-0.28737,636.8347],[26.36085,-0.26401,626.5308],[26.35325,-0.25079,512.1127],[26.34953,-0.24799,519.1116],[26.34488,-0.24737,533.6864],[26.33744,-0.24722,540.0548],[26.33326,-0.24469,536.115],[26.33016,-0.24066,531.1254],[26.31507,-0.20076,529.0953],[26.31274,-0.19622,511.8676],[26.30995,-0.19224,503.9496],[26.30623,-0.18903,505.9204],[26.30235,-0.18634,516.0594],[26.29755,-0.18479,518.0651],[26.28127,-0.18495,522.5402]]]}}