{"type":"Feature","properties":{"featurecla":"River","scalerank":2,"rivernum":43,"dissolve":"43River","name":"Lualaba4","name_alt":"Congo","note":null,"min_zoom":2.1,"strokeweig":0.45,"name_en":"Congo","min_label":3.1},
"geometry":{"type": "LineString","coordinates": [[25.876220703125,-2.7522763000058892,441.1803],[25.854736328125,-2.70671965938088,459.1334],[25.840917968750006,-2.68401458125588,453.1697],[25.82470703125,-2.66594817500588,469.9826],[25.816796875000023,-2.6499325500058859,455.3273],[25.814160156250011,-2.58025481563088,494.4313],[25.796875,-2.51921965938088,511.4451],[25.78515625,-2.4402645812558892,498.844],[25.780517578125,-2.4226864562558892,499.9477],[25.761328125,-2.3774716125058859,500.8217],[25.758886718750006,-2.35808684688088,490.8593],[25.770898437500023,-2.22893645625588,510.9489],[25.758886718750006,-2.1011044250058859,497.6745],[25.761328125,-2.0532528625058859,488.5432],[25.774121093750011,-2.01775481563088,493.8126],[25.789794921875,-1.98601653438088,504.1747],[25.800537109375,-1.94963958125588,468.8736],[25.807373046875,-1.87078215938088,484.9155],[25.81201171875,-1.85198333125588,485.4625],[25.834375,-1.81878020625588,500.461],[25.842041015625,-1.79949309688088,475.2047],[25.84423828125,-1.77874114375588,501.0869],[25.842041015625,-1.71379973750588,502.9966],[25.844921875000011,-1.69207122188088,442.5833],[25.858642578125,-1.64983489375588,457.0989],[25.863183593750023,-1.62810637813088,475.3452],[25.86328125,-1.60540130000588,481.352],[25.856835937500023,-1.562334893755889,480.736],[25.856347656250023,-1.43450286250588,468.7425],[25.863183593750023,-1.377764581255889,480.2205],[25.858496093750006,-1.353838800005889,484.7706],[25.8466796875,-1.33220794063088,487.3031],[25.814160156250011,-1.29241301875588,469.8495],[25.801171875000023,-1.2710263000058859,470.3848],[25.783105468750023,-1.2265927062558859,485.2397],[25.711035156250006,-1.13469817500588,477.9073],[25.6962890625,-1.0976864562558859,475.6825],[25.681542968750023,-1.01238372188088,466.079]]}}