{"type": "Feature","bbox": [22.9051,-5.8495,24.1997,-4.1688],"geometry": {"type": "MultiPolygon","coordinates": [[[[23.7457,-5.6341,585.5327],[23.7507,-5.6426,509.1006],[23.7509,-5.646,445.0],[23.748,-5.6499,468.7701],[23.7447,-5.6509,490.0949],[23.7305,-5.6628,497.0836],[23.7247,-5.6757,448.0],[23.7257,-5.6812,470.284],[23.7323,-5.6851,462.4074],[23.7378,-5.6932,536.7142],[23.7337,-5.7047,453.3369],[23.735,-5.7139,473.875],[23.7261,-5.7392,455.1147],[23.7203,-5.7504,466.9043],[23.712,-5.7527,458.0071],[23.7104,-5.7585,493.7036],[23.712,-5.7635,462.521],[23.7187,-5.7666,472.5842],[23.721,-5.764,478.5145],[23.7366,-5.7631,511.0735],[23.7412,-5.7698,487.9815],[23.7506,-5.7746,508.8902],[23.7598,-5.7748,536.7335],[23.7621,-5.7788,503.5819],[23.7655,-5.7797,545.7189],[23.7715,-5.77,611.4758],[23.7805,-5.7611,654.191],[23.7858,-5.762,627.7737],[23.7968,-5.7519,677.1017],[23.8069,-5.7482,669.0291],[23.8124,-5.7443,689.2327],[23.8237,-5.7418,669.2296],[23.8329,-5.742,668.244],[23.8434,-5.7483,694.329],[23.8482,-5.7484,725.4557],[23.8441,-5.7534,664.5376],[23.8434,-5.7592,696.5798],[23.84,-5.7599,716.0762],[23.837,-5.7631,718.7506],[23.8366,-5.7707,717.7192],[23.8336,-5.7718,690.0539],[23.8288,-5.779,671.0909],[23.8256,-5.793,700.1387],[23.8274,-5.7996,710.1883],[23.8366,-5.796,717.7188],[23.8376,-5.7925,680.0317],[23.8477,-5.7982,687.0226],[23.8571,-5.8007,674.5397],[23.873,-5.801,612.9198],[23.8806,-5.8044,633.6979],[23.8918,-5.8194,630.9627],[23.8996,-5.8231,615.1364],[23.901,-5.8456,569.7719],[23.8996,-5.8488,597.5833],[23.9038,-5.8495,597.117],[23.9063,-5.8456,594.2495],[23.9116,-5.8491,591.1498],[23.9153,-5.8442,641.5875],[23.93,-5.8408,601.3893],[23.9359,-5.8344,595.7067],[23.9357,-5.8307,609.1583],[23.9396,-5.8266,606.2228],[23.9451,-5.827,603.9053],[23.947,-5.8194,583.2643],[23.9575,-5.816,635.721],[23.961,-5.8167,630.5227],[23.9644,-5.8197,595.4482],[23.9715,-5.8213,607.8152],[23.975,-5.8252,631.4426],[23.9865,-5.8287,631.8396],[23.9929,-5.8257,645.5873],[23.9982,-5.8259,631.2294],[24.0076,-5.8315,616.2371],[24.0113,-5.8273,622.9575],[24.013,-5.8168,620.0642],[24.0242,-5.8121,639.9628],[24.0499,-5.8144,678.0656],[24.0553,-5.8101,690.4911],[24.0622,-5.7996,678.5319],[24.0666,-5.7975,678.9437],[24.0875,-5.7991,722.3884],[24.0951,-5.7982,729.973],[24.1165,-5.7916,737.8],[24.1367,-5.7894,736.4189],[24.1574,-5.7911,738.2582],[24.179,-5.7994,722.865],[24.1877,-5.7987,710.6406],[24.1903,-5.787,726.1628],[24.1997,-5.7764,733.2642],[24.199,-5.773,759.9174],[24.1923,-5.767,731.5035],[24.19,-5.7608,715.9429],[24.1951,-5.75,722.8043],[24.1942,-5.7483,733.4653],[24.1836,-5.7456,682.9441],[24.1802,-5.7279,712.9125],[24.1763,-5.7263,746.6425],[24.1753,-5.7214,682.1802],[24.1721,-5.718,665.1031],[24.1747,-5.7111,728.4576],[24.1737,-5.7056,708.7427],[24.171,-5.7016,668.8894],[24.1731,-5.6977,662.2388],[24.1708,-5.6927,658.5117],[24.1731,-5.6876,685.53],[24.1705,-5.6766,637.041],[24.1724,-5.6692,670.2118],[24.1703,-5.666,661.2364],[24.1703,-5.6604,634.5858],[24.1501,-5.6469,713.8594],[24.1461,-5.6387,715.8386],[24.1248,-5.613,719.9568],[24.1147,-5.6104,694.3467],[24.1028,-5.6045,690.6245],[24.0714,-5.5958,692.494],[24.066,-5.5919,690.5393],[24.0624,-5.5829,636.421],[24.0606,-5.5566,611.047],[24.0446,-5.4666,649.6407],[24.045,-5.4245,615.6259],[24.0512,-5.4072,618.2424],[24.057,-5.3975,637.1725],[24.0648,-5.39,642.2811],[24.0664,-5.3852,640.1887],[24.0734,-5.3965,653.027],[24.0777,-5.416,620.5798],[24.0805,-5.4163,639.3239],[24.086,-5.4103,632.1696],[24.089,-5.4098,596.8917],[24.0909,-5.4181,644.0886],[24.1026,-5.4194,646.3394],[24.1084,-5.4222,651.3572],[24.1185,-5.4111,613.385],[24.1207,-5.3956,625.3956],[24.1258,-5.3856,582.2472],[24.1263,-5.3716,527.2303],[24.1155,-5.352,577.842],[24.1112,-5.3474,604.1152],[24.0953,-5.3448,563.3124],[24.0896,-5.3423,514.2504],[24.0827,-5.332,521.3821],[24.074,-5.3241,554.5177],[24.0692,-5.3237,494.4008],[24.0552,-5.3085,529.2688],[24.0432,-5.3041,479.4008],[24.0305,-5.2936,491.9922],[24.0311,-5.2886,551.7269],[24.0377,-5.2824,590.2042],[24.0393,-5.2784,579.3807],[24.0486,-5.2675,558.3389],[24.0679,-5.2465,629.6374],[24.0823,-5.2336,627.4543],[24.0903,-5.216,669.9149],[24.081,-5.2108,659.3691],[24.0749,-5.211,667.8884],[24.0592,-5.2275,565.3752],[24.0527,-5.2313,608.4343],[24.0145,-5.206,590.9077],[24.0082,-5.2012,557.7084],[24.004,-5.195,552.1909],[23.9958,-5.1948,551.6453],[23.9644,-5.1662,531.4835],[23.9028,-5.1151,557.4497],[23.8812,-5.0933,608.1738],[23.8764,-5.0818,628.4061],[23.8726,-5.0632,550.4083],[23.8726,-5.0562,535.7908],[23.8758,-5.0488,490.5395],[23.8926,-5.0417,546.5063],[23.9052,-5.0406,522.0465],[23.9144,-5.036,483.9428],[23.9234,-5.0276,531.1594],[23.922,-5.0091,565.7819],[23.9078,-4.9915,550.6231],[23.9133,-4.9788,597.6161],[23.913,-4.9701,604.9957],[23.9147,-4.9656,551.915],[23.9243,-4.9525,560.4437],[23.9289,-4.949,539.8204],[23.9381,-4.9463,614.2874],[23.962,-4.9428,630.2089],[23.967,-4.9394,608.9875],[23.9725,-4.9403,615.4861],[23.9757,-4.9366,579.1497],[23.9732,-4.9281,623.4554],[23.9762,-4.9238,616.7726],[23.9897,-4.9132,638.963],[23.9996,-4.9077,621.3206],[24.0028,-4.907,637.8185],[24.007,-4.9091,606.6985],[24.0141,-4.9058,649.3064],[24.0269,-4.89,647.6575],[24.0427,-4.8757,679.9208],[24.04,-4.8694,661.8767],[24.0295,-4.867,641.7694],[24.023,-4.8628,655.0149],[24.0182,-4.8619,639.5541],[24.0116,-4.8651,624.8],[23.9983,-4.8663,563.4072],[23.9739,-4.8764,589.2375],[23.9698,-4.8757,592.3947],[23.9595,-4.8697,531.5306],[23.9508,-4.8701,552.3055],[23.9455,-4.8722,595.3984],[23.8991,-4.8662,538.6422],[23.8838,-4.8707,533.8129],[23.8711,-4.8607,554.2914],[23.8564,-4.8169,534.6624],[23.8464,-4.7963,499.5259],[23.8388,-4.7743,548.892],[23.8154,-4.7327,554.8806],[23.8077,-4.7225,571.4051],[23.7905,-4.6847,561.9178],[23.783,-4.6743,638.669],[23.7379,-4.5743,609.3904],[23.7351,-4.5641,624.7294],[23.7251,-4.5438,567.0438],[23.7095,-4.5218,589.9616],[23.7021,-4.5044,538.098],[23.7001,-4.4868,601.894],[23.7006,-4.4289,530.7573],[23.7074,-4.3752,535.866],[23.7098,-4.3614,527.8221],[23.7144,-4.3519,581.0698],[23.7128,-4.3483,559.3395],[23.7149,-4.3437,521.7777],[23.7133,-4.3393,515.9178],[23.7158,-4.3342,529.1985],[23.7117,-4.3259,528.1273],[23.7151,-4.3207,512.3337],[23.7142,-4.3172,497.0045],[23.7168,-4.3092,516.3124],[23.7117,-4.2848,525.5617],[23.7179,-4.2455,513.5585],[23.7171,-4.207,533.212],[23.7095,-4.2143,508.8864],[23.6834,-4.2042,533.093],[23.6758,-4.2051,488.2632],[23.6678,-4.1991,495.615],[23.6637,-4.1894,531.3494],[23.6623,-4.1807,535.2308],[23.66,-4.1802,536.6825],[23.6559,-4.1758,494.2479],[23.6525,-4.1763,521.6776],[23.6456,-4.188,461.5158],[23.636,-4.1802,482.8871],[23.6123,-4.1848,498.7108],[23.6089,-4.1884,519.8201],[23.6025,-4.1811,524.0145],[23.5901,-4.176,503.8298],[23.5844,-4.1755,427.7899],[23.5812,-4.1707,507.3653],[23.5718,-4.1688,463.1855],[23.5672,-4.1691,490.2803],[23.5603,-4.1759,476.1901],[23.5555,-4.1775,471.845],[23.5452,-4.1764,524.9208],[23.5385,-4.1837,513.9954],[23.5323,-4.1828,503.0161],[23.5264,-4.1777,428.8925],[23.5174,-4.1786,422.9956],[23.5078,-4.1832,509.094],[23.4991,-4.1837,515.5316],[23.4899,-4.1791,450.5919],[23.4867,-4.174,491.8428],[23.4846,-4.1754,485.8696],[23.4807,-4.1866,473.4562],[23.4729,-4.1871,490.0379],[23.4688,-4.1924,538.5155],[23.4544,-4.1983,483.6821],[23.4475,-4.1979,452.9051],[23.442,-4.1914,430.4295],[23.4388,-4.1942,420.3456],[23.4358,-4.2034,472.2002],[23.4424,-4.2205,477.7846],[23.4448,-4.2405,484.7638],[23.4373,-4.2586,510.3979],[23.4378,-4.2797,537.8969],[23.4422,-4.3036,556.32],[23.4428,-4.3297,543.8702],[23.4049,-4.3533,489.253],[23.3914,-4.3655,530.1847],[23.3759,-4.3758,534.1102],[23.3625,-4.395,528.5797],[23.3559,-4.4091,547.7364],[23.3417,-4.4323,524.3994],[23.3206,-4.4587,523.3353],[23.3036,-4.49,499.191],[23.2858,-4.4853,508.8996],[23.2671,-4.4855,549.4259],[23.2249,-4.4917,471.8189],[23.2136,-4.5184,434.2211],[23.207,-4.5173,411.9251],[23.1989,-4.5198,460.8101],[23.1895,-4.526,468.5189],[23.1762,-4.5271,483.1995],[23.17,-4.534,496.7344],[23.165,-4.5335,475.0817],[23.1617,-4.5365,454.0876],[23.1562,-4.5367,518.0266],[23.1528,-4.5404,509.4815],[23.139,-4.5399,489.4971],[23.1273,-4.542,494.6353],[23.1152,-4.5484,503.0954],[23.097,-4.5449,504.055],[23.1009,-4.5617,511.0647],[23.1328,-4.6487,492.4332],[23.1887,-4.7682,478.1946],[23.1877,-4.7848,491.9701],[23.1809,-4.7864,499.0505],[23.1705,-4.799,519.08],[23.1655,-4.8,513.008],[23.1606,-4.797,508.2905],[23.154,-4.7976,530.1041],[23.1483,-4.7939,499.9161],[23.1425,-4.793,481.5537],[23.1359,-4.7942,515.5081],[23.1313,-4.7999,523.5015],[23.1226,-4.799,506.5339],[23.1198,-4.8003,514.7615],[23.1161,-4.81,480.4897],[23.107,-4.8198,507.3931],[23.0891,-4.8184,530.8869],[23.0767,-4.8221,543.5562],[23.0621,-4.8282,522.8688],[23.0401,-4.8415,554.8947],[22.9748,-4.8625,568.1963],[22.9423,-4.8752,605.2791],[22.9241,-4.9062,586.197],[22.9258,-4.9194,623.6776],[22.9336,-4.9233,567.7807],[22.9595,-4.9213,568.7537],[22.9702,-4.9244,565.4526],[22.9747,-4.9318,571.7302],[22.9578,-4.9475,598.914],[22.926,-4.9635,616.9368],[22.9144,-4.9824,607.5229],[22.9121,-5.0092,624.8945],[22.9051,-5.0297,588.0501],[22.9138,-5.032,568.8486],[22.9282,-5.0417,582.3307],[22.9457,-5.0429,602.5818],[22.9512,-5.0457,574.0302],[22.9562,-5.0528,556.241],[22.9606,-5.0637,581.8849],[22.9647,-5.0676,588.5664],[22.978,-5.0752,590.2462],[22.9949,-5.0923,544.9299],[23.0153,-5.1049,573.0227],[23.025,-5.108,555.9127],[23.0265,-5.1165,529.3575],[23.0422,-5.1348,574.4844],[23.0792,-5.1686,548.6284],[23.1117,-5.2089,568.3485],[23.1212,-5.2147,525.1958],[23.1504,-5.2437,558.9559],[23.175,-5.3012,581.8435],[23.1851,-5.3093,618.3739],[23.1968,-5.3006,575.6874],[23.2278,-5.2887,611.1465],[23.2469,-5.2832,547.3562],[23.2529,-5.2791,554.222],[23.2598,-5.2701,560.5833],[23.2683,-5.269,580.8688],[23.2765,-5.2633,607.5789],[23.2853,-5.2624,544.3601],[23.2967,-5.258,562.1215],[23.3057,-5.2516,583.2909],[23.3144,-5.2482,569.3681],[23.3209,-5.2477,526.3968],[23.3275,-5.2496,551.11],[23.3438,-5.2487,541.6279],[23.3594,-5.2561,492.209],[23.3826,-5.26,501.7491],[23.3872,-5.2566,499.0044],[23.3955,-5.2557,523.5078],[23.4205,-5.2396,502.1229],[23.4242,-5.2398,511.7634],[23.4274,-5.2449,500.3958],[23.4276,-5.2483,480.8419],[23.4228,-5.2578,511.9828],[23.4239,-5.2615,509.2989],[23.4317,-5.2674,448.2924],[23.4324,-5.2697,446.2224],[23.4269,-5.2716,484.4335],[23.4262,-5.2764,475.3236],[23.4317,-5.2875,481.6557],[23.4305,-5.2944,478.8449],[23.4328,-5.2992,450.9326],[23.4372,-5.2962,438.7458],[23.4381,-5.301,453.6071],[23.4358,-5.307,470.5111],[23.4516,-5.3104,531.8516],[23.4775,-5.3085,543.0648],[23.4865,-5.3095,527.5627],[23.5039,-5.3209,563.7059],[23.5219,-5.3296,590.7222],[23.5466,-5.336,568.6754],[23.6371,-5.3503,639.4172],[23.6764,-5.3524,625.2457],[23.6944,-5.3549,669.3082],[23.7046,-5.3592,653.1383],[23.7093,-5.3751,649.5554],[23.7032,-5.4379,572.8074],[23.7071,-5.4654,672.3987],[23.7149,-5.4858,695.2468],[23.7205,-5.5216,661.5516],[23.7175,-5.5338,654.6451],[23.7182,-5.5416,655.757],[23.7143,-5.5503,618.9814],[23.7177,-5.5572,629.6893],[23.7189,-5.5713,645.9501],[23.7239,-5.5777,580.8936],[23.7324,-5.6042,552.2013],[23.7482,-5.6102,555.149],[23.7535,-5.615,505.2395],[23.7584,-5.625,507.4828],[23.7457,-5.6341,585.5327]],
[[23.4493,-4.9797,422.9127],[23.4417,-4.9808,418.2469],[23.4341,-4.9794,410.5],[23.427,-4.9704,410.0],[23.4114,-4.9635,439.8779],[23.4211,-4.9427,453.0342],[23.4332,-4.9275,536.0549],[23.4514,-4.9212,539.4057],[23.4775,-4.9212,566.8356],[23.4987,-4.9274,504.2404],[23.5043,-4.9298,458.7664],[23.5079,-4.9334,510.1859],[23.4986,-4.947,497.9525],[23.4659,-4.9701,443.8185],[23.4643,-4.9748,432.0255],[23.4679,-4.9767,415.8154],[23.4548,-4.9772,431.8611],[23.4493,-4.9797,422.9127]]]]}
,"properties": {"GID_2": "COD.21.8_1","GID_0": "COD","country": "DemocraticRepublicoftheCongo","GID_1": "COD.21_1","province": "Sankuru","NL_NAME_1": "NA","county": "Lusambo","VARNAME_2": "NA","NL_NAME_2": "NA","TYPE_2": "Territoire","ENGTYPE_2": "Territory","CC_2": "NA","HASC_2": "NA","name": "Lusambo.county","area_km2": 11611.152,"hist_schema_id": "Elevation0-9000","hist_area_km2": {"400": 35.326,"425": 187.801,"450": 308.37,"475": 669.74,"500": 1200.677,"525": 1702.86,"550": 2009.257,"575": 1969.215,"600": 1404.374,"625": 737.811,"650": 410.689,"675": 338.944,"700": 282.898,"725": 210.426,"750": 110.38,"775": 27.532,"800": 3.755,"825": 0.907,"850": 0.19}}}