{"type":"Feature","properties":{"GID_2":"COD.13.3_1","GID_0":"COD","country":"DemocraticRepublicoftheCongo","GID_1":"COD.13_1","province":"Kwilu","NL_NAME_1":"NA","county":"Bulungu","VARNAME_2":"NA","NL_NAME_2":"NA","TYPE_2":"Territoire","ENGTYPE_2":"Territory","CC_2":"NA","HASC_2":"NA","name":"Bulungu.county"},
"geometry":{"type": "MultiPolygon","coordinates": [[[[18.1208,-4.195,381.537],[18.1289,-4.2143,346.4795],[18.1331,-4.2189,351.5084],[18.1359,-4.2258,377.4592],[18.1418,-4.2508,364.663],[18.1342,-4.2872,396.272],[18.1377,-4.2987,438.0978],[18.1343,-4.3084,433.835],[18.1407,-4.3259,402.2839],[18.1424,-4.3417,387.995],[18.1388,-4.3539,410.8058],[18.1447,-4.379,378.6853],[18.1461,-4.3912,393.9913],[18.145,-4.4011,422.3167],[18.1499,-4.4084,411.8556],[18.1513,-4.4132,376.6502],[18.1506,-4.4192,407.5715],[18.157,-4.4392,388.2688],[18.1601,-4.4606,376.9879],[18.1645,-4.4661,374.6413],[18.1638,-4.4716,392.3803],[18.1718,-4.492,381.3649],[18.1709,-4.501,373.0431],[18.1753,-4.5132,380.6177],[18.1825,-4.5661,423.4975],[18.1869,-4.5723,390.0136],[18.1889,-4.584,436.4741],[18.1873,-4.598,395.2959],[18.189,-4.6061,399.4285],[18.1874,-4.6378,408.2722],[18.1968,-4.6456,447.6502],[18.2106,-4.6906,406.9039],[18.2333,-4.7122,411.5992],[18.2435,-4.7143,433.1588],[18.2855,-4.7154,530.6705],[18.2911,-4.7184,589.3248],[18.2964,-4.7264,462.6093],[18.2997,-4.7534,570.9235],[18.3025,-4.7586,592.8727],[18.312,-4.762,622.7812],[18.3265,-4.7633,642.4261],[18.3296,-4.7653,683.995],[18.3362,-4.7727,625.3099],[18.3382,-4.7774,548.2634],[18.3383,-4.7832,551.8966],[18.3421,-4.7902,609.4375],[18.35,-4.7952,637.3719],[18.3707,-4.8019,504.123],[18.3748,-4.8071,554.6318],[18.3725,-4.8411,504.4055],[18.3687,-4.8682,585.6405],[18.3663,-4.8726,631.0812],[18.3606,-4.8738,653.7524],[18.3401,-4.872,658.8735],[18.3228,-4.8726,490.4391],[18.3135,-4.8769,474.4986],[18.3031,-4.8866,567.9891],[18.3029,-4.8901,496.8377],[18.3051,-4.8929,478.2776],[18.3287,-4.9043,639.1691],[18.3367,-4.9136,650.2948],[18.3441,-4.944,649.403],[18.3502,-4.9547,615.7563],[18.3514,-4.9655,647.3997],[18.3482,-4.9792,661.9932],[18.3378,-5.0,559.0929],[18.3387,-5.0041,606.6157],[18.3366,-5.0103,632.2912],[18.3372,-5.0246,564.1277],[18.3393,-5.0333,586.913],[18.3384,-5.0398,607.7747],[18.3424,-5.0508,645.5162],[18.3379,-5.0672,630.1787],[18.3416,-5.074,592.6618],[18.3461,-5.0945,681.8539],[18.3448,-5.1,617.267],[18.3539,-5.1193,615.6758],[18.3549,-5.1265,623.8005],[18.3519,-5.1399,700.7451],[18.3316,-5.157,680.1411],[18.3175,-5.1773,647.032],[18.3088,-5.1845,655.0029],[18.3065,-5.1911,674.1219],[18.3077,-5.1983,702.5718],[18.311,-5.2014,729.8221],[18.3168,-5.2032,718.2205],[18.3555,-5.204,740.2404],[18.368,-5.2034,750.3656],[18.3847,-5.1989,649.5067],[18.4006,-5.1972,705.9553],[18.4081,-5.1978,688.3214],[18.4136,-5.203,637.3375],[18.4169,-5.2093,652.1378],[18.4227,-5.214,689.8615],[18.4325,-5.2137,530.1384],[18.4658,-5.2044,701.35],[18.4794,-5.2045,698.6237],[18.4976,-5.2111,620.4125],[18.5271,-5.238,695.5191],[18.537,-5.2379,651.114],[18.5593,-5.2308,518.8253],[18.5799,-5.2265,467.1967],[18.6153,-5.2097,467.5392],[18.6292,-5.2072,408.9732],[18.6465,-5.2074,390.7855],[18.6496,-5.2209,399.2471],[18.6553,-5.2213,428.9387],[18.6572,-5.2264,393.2719],[18.6604,-5.2284,429.7732],[18.6607,-5.2409,444.2507],[18.6577,-5.2432,409.6691],[18.6545,-5.2397,443.5735],[18.6483,-5.2407,437.2997],[18.6454,-5.2472,395.7253],[18.6477,-5.2522,415.7448],[18.6535,-5.2529,457.9782],[18.6546,-5.2547,449.6295],[18.6537,-5.2586,403.5863],[18.6501,-5.2598,444.1713],[18.6487,-5.2672,427.9813],[18.6375,-5.2688,477.1602],[18.6313,-5.2751,454.6443],[18.6364,-5.279,452.4133],[18.6378,-5.282,468.7501],[18.6319,-5.2882,420.2951],[18.6321,-5.293,408.8746],[18.6415,-5.2907,448.87],[18.6429,-5.2927,434.151],[18.6425,-5.2953,429.2148],[18.6343,-5.2992,438.9805],[18.629,-5.3059,430.7119],[18.6396,-5.3119,460.5024],[18.6447,-5.3109,446.0696],[18.655,-5.3136,447.5279],[18.6615,-5.325,464.1089],[18.666,-5.3411,426.7888],[18.6717,-5.3386,448.1395],[18.6846,-5.3476,432.209],[18.6945,-5.3572,493.709],[18.6991,-5.3575,505.6407],[18.706,-5.3527,465.6245],[18.7156,-5.3516,483.5508],[18.7261,-5.3536,461.265],[18.7312,-5.3572,485.0713],[18.7402,-5.3811,532.2439],[18.7449,-5.387,686.1509],[18.7891,-5.4151,753.3728],[18.793,-5.415,726.2763],[18.7961,-5.3981,677.9995],[18.7988,-5.3946,632.9291],[18.8038,-5.3944,698.4889],[18.8306,-5.4039,639.1898],[18.8603,-5.4111,522.3743],[18.8864,-5.4038,511.6395],[18.9007,-5.4049,491.233],[18.9094,-5.402,524.4869],[18.9206,-5.4036,487.0993],[18.9353,-5.3943,467.929],[18.9426,-5.3933,438.5933],[18.9476,-5.39,406.6096],[18.9531,-5.3797,446.1326],[18.9471,-5.3783,454.3474],[18.9387,-5.3664,430.5576],[18.938,-5.3577,419.7747],[18.9349,-5.3496,365.7281],[18.9369,-5.34,408.6043],[18.9321,-5.3317,401.43],[18.9327,-5.329,438.7476],[18.9364,-5.3257,419.1393],[18.943,-5.325,364.2575],[18.9449,-5.3224,463.8211],[18.9543,-5.3175,410.2029],[18.9609,-5.3167,461.3668],[18.9751,-5.3215,475.3719],[19.0002,-5.3218,464.2559],[19.0175,-5.3175,507.2956],[19.0263,-5.3111,671.722],[19.0343,-5.3093,739.7241],[19.041,-5.3114,715.7029],[19.0457,-5.3174,668.7084],[19.049,-5.3284,538.4513],[19.0594,-5.3483,453.3651],[19.0653,-5.3537,460.8154],[19.0715,-5.3544,539.4473],[19.0743,-5.342,502.5546],[19.0707,-5.3316,476.8344],[19.0719,-5.3261,516.2733],[19.0752,-5.323,535.4565],[19.1037,-5.3213,727.4396],[19.1262,-5.3222,735.993],[19.1288,-5.3187,736.699],[19.1287,-5.3145,729.1514],[19.1254,-5.2813,674.1911],[19.1161,-5.2753,676.9749],[19.1131,-5.2712,685.4653],[19.1072,-5.2686,683.3164],[19.1004,-5.2568,692.5043],[19.0868,-5.2567,668.0356],[19.0834,-5.2521,672.6568],[19.0853,-5.2162,704.8039],[19.0811,-5.1822,670.1987],[19.0812,-5.1702,718.9376],[19.084,-5.155,711.4672],[19.0947,-5.1217,662.1653],[19.0989,-5.1006,559.8234],[19.0765,-5.0768,503.0129],[19.0702,-5.0631,530.9243],[19.0702,-5.059,501.3907],[19.0781,-5.042,486.2065],[19.0777,-5.0319,472.8703],[19.0794,-5.0236,462.7461],[19.088,-5.0094,445.6355],[19.0892,-5.0016,447.1603],[19.0961,-4.9913,447.5115],[19.1011,-4.9723,436.8389],[19.1048,-4.967,456.3439],[19.1071,-4.956,441.8544],[19.1148,-4.945,433.4857],[19.1169,-4.9372,435.42],[19.1287,-4.9186,449.8532],[19.1528,-4.8539,432.0175],[19.1589,-4.8309,415.4954],[19.1625,-4.8047,402.0094],[19.1629,-4.778,408.8088],[19.1661,-4.7714,405.1329],[19.1674,-4.7574,403.9145],[19.1664,-4.7396,400.0815],[19.1685,-4.7272,387.7365],[19.1688,-4.7116,406.0481],[19.1707,-4.7056,396.04],[19.1776,-4.6965,392.1069],[19.1925,-4.6669,391.1328],[19.2043,-4.6532,379.4159],[19.2121,-4.6479,382.5533],[19.2181,-4.6413,377.8492],[19.2244,-4.6264,425.3801],[19.2334,-4.6159,439.7198],[19.2378,-4.6129,439.0578],[19.2486,-4.6102,378.1855],[19.2452,-4.6042,371.6121],[19.2459,-4.5989,386.2065],[19.2407,-4.595,374.5141],[19.2396,-4.592,373.9864],[19.2423,-4.5855,409.6591],[19.2463,-4.5812,369.0686],[19.2493,-4.5727,370.404],[19.2537,-4.5695,366.9771],[19.253,-4.567,371.7101],[19.2473,-4.5637,368.4335],[19.251,-4.5596,379.3813],[19.2451,-4.5545,371.2565],[19.2438,-4.5411,371.2396],[19.2487,-4.5294,379.1241],[19.2464,-4.5209,367.4263],[19.2481,-4.5129,373.1931],[19.2424,-4.5045,373.9537],[19.2422,-4.5006,365.1561],[19.2464,-4.4903,401.1802],[19.2446,-4.4855,437.5767],[19.2368,-4.4776,378.0178],[19.2325,-4.4677,371.9714],[19.2349,-4.4612,373.459],[19.2322,-4.4536,368.2996],[19.2333,-4.4504,376.7313],[19.237,-4.4479,361.6366],[19.2389,-4.4396,371.7656],[19.2398,-4.409,372.3786],[19.2368,-4.4046,366.4747],[19.2378,-4.3994,373.6161],[19.2364,-4.3959,369.3737],[19.2383,-4.3883,365.9968],[19.237,-4.3828,376.0253],[19.2308,-4.3772,391.5583],[19.2297,-4.3717,381.5211],[19.2251,-4.368,382.2585],[19.2254,-4.3604,417.3087],[19.2211,-4.3567,366.7496],[19.2132,-4.3355,427.2451],[19.2041,-4.3207,364.2946],[19.2007,-4.3178,358.2681],[19.1919,-4.3179,368.3724],[19.1749,-4.325,378.7197],[19.1302,-4.358,442.3376],[19.1136,-4.3646,449.3286],[19.1078,-4.3636,455.9919],[19.1129,-4.3527,477.8819],[19.1162,-4.3408,442.5603],[19.1226,-4.3323,483.8806],[19.1259,-4.3229,469.9971],[19.1255,-4.3158,479.4047],[19.115,-4.2793,387.109],[19.1017,-4.2696,386.1596],[19.0985,-4.2647,390.3225],[19.0911,-4.2474,376.7592],[19.0886,-4.2364,381.1683],[19.0791,-4.2248,401.4579],[19.0746,-4.2066,386.6313],[19.0687,-4.1957,388.9319],[19.0653,-4.1934,362.202],[19.0201,-4.2281,374.4405],[18.9982,-4.2066,366.0735],[18.9916,-4.2029,391.5984],[18.9826,-4.2035,427.5329],[18.977,-4.2156,396.4063],[18.9722,-4.2357,378.7288],[18.9658,-4.2383,390.8349],[18.9557,-4.2349,401.266],[18.9367,-4.2348,387.9212],[18.9295,-4.231,387.1442],[18.9272,-4.2278,407.1494],[18.9256,-4.2184,416.9844],[18.9226,-4.2168,422.2914],[18.9079,-4.2233,393.6937],[18.8978,-4.2172,414.6695],[18.8852,-4.2143,426.7724],[18.8819,-4.2152,446.8269],[18.8751,-4.2258,452.9192],[18.8662,-4.2487,459.887],[18.8598,-4.2599,453.9196],[18.853,-4.2618,461.6858],[18.8467,-4.2563,452.0892],[18.8343,-4.2267,445.6597],[18.815,-4.2118,469.1556],[18.8063,-4.2019,415.6139],[18.8034,-4.195,454.4833],[18.8002,-4.1739,428.8129],[18.8012,-4.1616,390.3148],[18.8072,-4.1407,413.124],[18.8207,-4.1193,431.809],[18.8206,-4.1063,405.0456],[18.8173,-4.0884,443.3208],[18.8164,-4.0837,422.8174],[18.813,-4.0805,390.8467],[18.7678,-4.0816,404.4683],[18.7439,-4.0798,415.1569],[18.738,-4.0759,447.0054],[18.7241,-4.0579,427.9482],[18.6846,-4.0251,404.0721],[18.6729,-4.0233,408.277],[18.6572,-4.0455,399.3579],[18.6497,-4.0497,412.8733],[18.633,-4.0491,409.8588],[18.6217,-4.0436,460.8599],[18.6119,-4.0417,460.37],[18.5995,-4.0338,418.9701],[18.5742,-4.0138,452.1033],[18.5583,-3.9973,442.5213],[18.5484,-3.9792,476.0964],[18.5447,-3.9788,470.7941],[18.5407,-3.9875,443.2415],[18.5378,-4.0191,418.8862],[18.5359,-4.0217,400.1542],[18.5242,-4.0231,401.9403],[18.4895,-4.0213,397.4584],[18.4851,-4.0243,396.9555],[18.4779,-4.0382,383.7818],[18.474,-4.0422,384.6692],[18.4647,-4.0427,387.7455],[18.4553,-4.0425,375.3279],[18.4412,-4.039,412.4319],[18.4175,-4.0265,363.6435],[18.3704,-4.0057,384.0511],[18.3518,-3.9939,396.405],[18.3331,-3.9868,357.3189],[18.324,-3.9855,377.2225],[18.2986,-3.9863,402.7109],[18.2922,-3.9914,386.208],[18.2866,-4.0047,353.2163],[18.28,-4.0261,347.3675],[18.2747,-4.0525,336.0878],[18.2707,-4.0589,336.89],[18.2614,-4.063,340.5729],[18.2541,-4.0811,342.3603],[18.2516,-4.0933,377.7195],[18.2369,-4.1081,406.093],[18.2348,-4.1137,408.6114],[18.2336,-4.1678,438.5008],[18.2312,-4.1714,442.7216],[18.2223,-4.1699,393.3925],[18.1904,-4.153,419.2775],[18.1795,-4.1509,422.6074],[18.1717,-4.1549,440.8924],[18.1582,-4.1731,412.2943],[18.1475,-4.2003,420.3421],[18.1443,-4.2016,412.9304],[18.133,-4.201,381.7054],[18.1208,-4.195,381.537]],
[[18.6172,-4.532,379.0872],[18.6178,-4.5371,395.0392],[18.6218,-4.5417,403.4486],[18.6242,-4.5493,411.5782],[18.6226,-4.5552,446.3888],[18.6185,-4.5604,429.072],[18.6136,-4.5648,417.8233],[18.6,-4.5666,393.1243],[18.5944,-4.5667,370.754],[18.5862,-4.5624,408.573],[18.5813,-4.5523,338.1419],[18.5813,-4.5468,392.4494],[18.5854,-4.5381,378.0178],[18.5943,-4.5348,375.5819],[18.5982,-4.5292,338.3629],[18.6172,-4.532,379.0872]],
[[18.8615,-5.0635,344.6304],[18.8501,-5.0808,442.9991],[18.8439,-5.0799,412.5753],[18.8252,-5.0947,501.8188],[18.7991,-5.107,448.2314],[18.7816,-5.1015,507.7607],[18.7697,-5.0864,602.675],[18.7642,-5.0762,507.3615],[18.764,-5.0671,513.1582],[18.7574,-5.0519,535.5397],[18.7512,-5.0306,458.5948],[18.7569,-5.0255,436.9405],[18.7916,-5.0177,392.3074],[18.8133,-5.0077,382.9964],[18.8199,-5.0208,344.0],[18.8244,-5.021,357.0808],[18.8293,-5.0267,348.9283],[18.8376,-5.0317,356.3321],[18.8398,-5.0459,365.4927],[18.8469,-5.048,405.9547],[18.8615,-5.0635,344.6304]]]]}}