{"type": "Feature","bbox": [26.9799,-11.3718,28.6983,-9.5202],"geometry": {"type": "MultiPolygon","coordinates": [[[[27.541,-11.2274,1293.2523],[27.5505,-11.2415,1275.3298],[27.5648,-11.2509,1265.6031],[27.5791,-11.2555,1252.6343],[27.5969,-11.26,1247.4858],[27.626,-11.2541,1245.0125],[27.6319,-11.2621,1236.2633],[27.6539,-11.2633,1226.7407],[27.6636,-11.2707,1213.3884],[27.6789,-11.27,1207.4847],[27.6862,-11.2731,1212.3364],[27.6927,-11.2707,1209.5299],[27.6997,-11.2715,1216.5413],[27.704,-11.2751,1216.1072],[27.7077,-11.2856,1212.49],[27.7154,-11.2999,1197.8575],[27.7194,-11.3038,1198.2462],[27.7253,-11.3062,1200.3289],[27.7311,-11.3052,1203.9326],[27.7417,-11.2995,1196.9823],[27.7536,-11.2958,1201.1901],[27.769,-11.2863,1182.0906],[27.783,-11.2854,1187.3938],[27.7928,-11.2774,1173.2625],[27.8122,-11.2761,1184.0175],[27.8158,-11.2733,1184.6566],[27.8219,-11.2619,1167.5378],[27.8305,-11.2583,1160.4954],[27.8377,-11.2586,1158.8293],[27.853,-11.2657,1156.3987],[27.8588,-11.2665,1157.7432],[27.8641,-11.2627,1173.3541],[27.8712,-11.2653,1165.0208],[27.8765,-11.2742,1149.0969],[27.8959,-11.2899,1140.6704],[27.9017,-11.2896,1141.7744],[27.9083,-11.2833,1140.4065],[27.9233,-11.2621,1138.1287],[27.9418,-11.2668,1138.9741],[27.9483,-11.2761,1141.723],[27.9542,-11.2813,1130.6865],[27.9645,-11.2827,1140.3228],[27.974,-11.2908,1139.6168],[27.9857,-11.2922,1148.4463],[27.9916,-11.2985,1142.0663],[28.009,-11.2956,1126.0717],[28.0119,-11.2346,1166.4205],[28.0155,-11.2265,1173.6661],[28.0217,-11.2232,1178.5928],[28.0642,-11.237,1188.5078],[28.1145,-11.245,1161.3184],[28.1217,-11.2505,1160.8506],[28.1193,-11.2716,1147.7246],[28.1261,-11.3121,1133.5437],[28.1369,-11.324,1131.7244],[28.1464,-11.3532,1117.8323],[28.1539,-11.3619,1114.8561],[28.1656,-11.3718,1102.6536],[28.177,-11.3681,1111.1316],[28.2262,-11.2927,1138.9303],[28.2426,-11.275,1177.8462],[28.2537,-11.2661,1171.4581],[28.2808,-11.2639,1157.6182],[28.2906,-11.2609,1153.5067],[28.2982,-11.2349,1158.0966],[28.3136,-11.1945,1144.1199],[28.345,-11.162,1123.1477],[28.3643,-11.1446,1106.7808],[28.3997,-11.0842,1077.167],[28.3962,-11.0673,1059.9246],[28.3694,-11.0572,1078.7639],[28.3592,-11.0485,1064.4845],[28.3457,-11.0401,1054.5635],[28.3502,-11.0338,1045.8531],[28.3541,-11.0332,1044.2468],[28.3582,-11.0366,1053.9941],[28.3635,-11.0367,1048.6663],[28.3749,-11.0264,1049.1482],[28.3782,-11.0258,1050.1987],[28.3813,-11.0292,1041.7218],[28.3867,-11.0303,1045.5706],[28.3885,-11.0286,1047.5189],[28.3906,-11.0187,1041.0552],[28.3931,-11.0166,1040.6255],[28.3997,-11.0206,1037.9875],[28.4053,-11.0198,1036.5483],[28.4164,-11.0133,1045.5491],[28.4217,-11.0217,1041.0013],[28.4271,-11.0258,1034.7795],[28.4334,-11.0268,1033.7898],[28.4384,-11.0214,1035.1614],[28.4417,-11.022,1037.7864],[28.4445,-11.0247,1033.1686],[28.4485,-11.0242,1038.3837],[28.4505,-11.0209,1039.7222],[28.4515,-11.0119,1034.4454],[28.457,-11.0065,1038.0598],[28.4653,-11.0036,1031.3981],[28.4689,-10.9994,1029.0696],[28.4769,-10.9787,1031.1207],[28.4808,-10.9775,1033.3206],[28.4793,-10.984,1028.7262],[28.4803,-10.9858,1029.4446],[28.4838,-10.9873,1027.6942],[28.4866,-10.9866,1026.2219],[28.4894,-10.9778,1027.4515],[28.4945,-10.9783,1028.9822],[28.4964,-10.976,1027.0952],[28.4975,-10.9647,1029.0013],[28.5014,-10.9609,1027.1681],[28.516,-10.9583,1018.4607],[28.5236,-10.9637,1021.4197],[28.5407,-10.9472,1013.0],[28.5452,-10.8995,1011.5],[28.5445,-10.8666,1009.5],[28.5471,-10.8521,1009.0],[28.5535,-10.8324,1008.125],[28.5608,-10.821,1008.0],[28.5767,-10.807,1027.3613],[28.5823,-10.7924,1008.0],[28.5983,-10.7754,1007.5],[28.6035,-10.7677,1007.0],[28.6076,-10.7585,1006.75],[28.6063,-10.7373,1005.5],[28.6101,-10.7258,1007.084],[28.6183,-10.7185,1011.5597],[28.6304,-10.7153,1004.7906],[28.642,-10.7156,1017.0888],[28.6582,-10.7191,1014.8228],[28.6647,-10.7083,999.5],[28.6681,-10.6943,1004.6473],[28.6721,-10.6867,1009.0428],[28.6899,-10.6786,991.0892],[28.6969,-10.6736,985.0804],[28.6983,-10.6684,983.0179],[28.6949,-10.6535,1012.2867],[28.6885,-10.6411,977.0],[28.6785,-10.6352,1002.9182],[28.6641,-10.6319,997.4919],[28.6599,-10.6294,971.6235],[28.6653,-10.5971,964.1448],[28.6753,-10.5724,952.1473],[28.6755,-10.5663,950.1997],[28.6719,-10.5592,945.9099],[28.6611,-10.5508,942.0363],[28.6533,-10.5415,943.4155],[28.6313,-10.5287,928.3645],[28.6303,-10.5238,926.7246],[28.6403,-10.5082,925.6051],[28.6367,-10.4901,928.8112],[28.6329,-10.4842,926.1732],[28.6313,-10.4742,924.0],[28.6349,-10.4651,928.8207],[28.6417,-10.4576,925.9257],[28.6421,-10.4428,927.9385],[28.6371,-10.4244,927.6984],[28.6329,-10.4176,928.1017],[28.6187,-10.4024,938.7448],[28.6197,-10.388,937.8854],[28.6163,-10.3678,926.4007],[28.6273,-10.3357,956.3285],[28.6299,-10.3153,927.6058],[28.6295,-10.3069,926.4277],[28.6243,-10.2976,926.2116],[28.6083,-10.29,945.788],[28.6045,-10.2828,946.927],[28.6021,-10.273,928.2913],[28.5931,-10.2586,938.34],[28.5825,-10.2469,935.6965],[28.5767,-10.2434,934.2413],[28.5711,-10.2339,927.3239],[28.5715,-10.2254,927.6451],[28.5801,-10.211,926.2424],[28.5913,-10.1958,926.5967],[28.6113,-10.1744,926.5968],[28.6163,-10.1651,923.9534],[28.6183,-10.1552,927.6101],[28.6177,-10.1289,927.1417],[28.6241,-10.0865,927.471],[28.6249,-10.068,927.4078],[28.6323,-10.0481,926.6732],[28.6353,-10.0304,925.879],[28.6335,-10.024,927.2952],[28.6197,-10.0082,926.1527],[28.6149,-9.9966,926.0245],[28.6219,-9.9829,925.7282],[28.6173,-9.9671,926.2206],[28.6197,-9.9485,940.7969],[28.6287,-9.9248,936.2494],[28.6379,-9.9085,926.2781],[28.6507,-9.8907,926.1317],[28.6521,-9.8819,926.0204],[28.6495,-9.873,925.4822],[28.6511,-9.8664,926.3634],[28.6629,-9.8526,926.3448],[28.6655,-9.8474,923.2025],[28.6685,-9.8341,926.2745],[28.6675,-9.8185,926.0249],[28.6705,-9.8152,925.7337],[28.6859,-9.815,922.375],[28.6893,-9.8133,924.1919],[28.6893,-9.8089,926.1132],[28.6871,-9.8044,925.3373],[28.6647,-9.7839,924.9839],[28.6675,-9.7738,926.1176],[28.6635,-9.7607,925.0319],[28.6575,-9.7547,925.51],[28.6357,-9.7551,925.0742],[28.6299,-9.7519,925.1113],[28.6255,-9.7482,925.7338],[28.6092,-9.7255,921.5],[28.6086,-9.722,924.5101],[28.6105,-9.7173,925.4059],[28.6162,-9.7107,925.4368],[28.62,-9.7013,921.5],[28.6154,-9.6834,930.9611],[28.6131,-9.6639,928.7922],[28.6079,-9.6455,929.1639],[28.5974,-9.6287,929.5908],[28.6028,-9.6043,928.4671],[28.5964,-9.5935,925.2559],[28.5889,-9.5869,925.5829],[28.5852,-9.5844,925.6038],[28.5743,-9.583,925.5104],[28.5726,-9.5788,924.8289],[28.5776,-9.5733,925.3942],[28.5833,-9.57,923.9094],[28.6041,-9.5686,924.9518],[28.6095,-9.5666,924.7343],[28.6105,-9.5628,925.1083],[28.6094,-9.5577,925.0062],[28.6032,-9.5488,929.8458],[28.5998,-9.549,928.5287],[28.5835,-9.5634,925.4338],[28.5767,-9.5649,924.8682],[28.5694,-9.5643,924.691],[28.5645,-9.5606,925.9784],[28.5609,-9.5525,926.1011],[28.5575,-9.5543,924.4811],[28.5596,-9.5579,924.6701],[28.5572,-9.5627,924.6454],[28.5447,-9.5708,924.3038],[28.5515,-9.5772,924.3391],[28.5509,-9.5832,924.5893],[28.5442,-9.5864,925.0308],[28.534,-9.5863,924.9116],[28.525,-9.5911,924.7645],[28.5235,-9.5898,924.7645],[28.5241,-9.5874,925.1824],[28.5289,-9.582,924.3729],[28.5318,-9.5818,924.4919],[28.5341,-9.5794,924.4187],[28.5333,-9.5774,925.0121],[28.5315,-9.5775,925.1441],[28.5313,-9.5719,924.5274],[28.5268,-9.5682,924.4103],[28.5163,-9.5664,924.3224],[28.5147,-9.5599,924.5136],[28.5082,-9.5581,924.3329],[28.5081,-9.5526,924.2412],[28.5129,-9.5442,924.2804],[28.5147,-9.5492,924.3116],[28.5197,-9.5456,924.6277],[28.5271,-9.55,920.7075],[28.5299,-9.5491,924.4774],[28.5302,-9.5454,923.9479],[28.539,-9.5477,924.4152],[28.5425,-9.5403,924.4331],[28.542,-9.5389,924.5512],[28.5382,-9.5399,923.5358],[28.5409,-9.5351,924.331],[28.5407,-9.5314,924.4194],[28.5383,-9.5289,922.2911],[28.5181,-9.5269,924.303],[28.5107,-9.524,921.6635],[28.4965,-9.5242,924.2649],[28.4925,-9.5202,920.8692],[28.485,-9.5223,922.2245],[28.4709,-9.5223,920.0],[28.4671,-9.5248,922.2574],[28.4626,-9.524,920.0],[28.4555,-9.5261,921.681],[28.4371,-9.525,921.6656],[28.4357,-9.5411,931.4312],[28.4282,-9.5667,934.5218],[28.4256,-9.5864,933.9366],[28.411,-9.6311,934.2158],[28.4052,-9.6311,932.1428],[28.3922,-9.6256,933.1431],[28.3725,-9.6254,928.4373],[28.339,-9.6483,931.6975],[28.3014,-9.6632,935.6323],[28.284,-9.6679,936.83],[28.2716,-9.667,937.1202],[28.2643,-9.6615,937.6774],[28.2683,-9.636,934.6464],[28.2278,-9.6399,977.35],[28.1734,-9.6415,1076.1158],[28.145,-9.6392,1126.9618],[28.1221,-9.6355,1366.0878],[28.1193,-9.6399,1350.8009],[28.1216,-9.6497,1125.6327],[28.1498,-9.683,1019.4097],[28.1497,-9.6933,1014.0878],[28.1406,-9.6992,1022.3174],[28.1325,-9.6994,1017.9359],[28.1243,-9.697,1037.8783],[28.1186,-9.6921,1038.5291],[28.1098,-9.6918,1056.1686],[28.107,-9.6891,1048.1022],[28.0945,-9.69,1056.9696],[28.0902,-9.6927,1050.9897],[28.0879,-9.6979,1042.5754],[28.0867,-9.7074,1065.5334],[28.0868,-9.741,1117.0105],[28.0834,-9.7546,1100.0804],[28.0725,-9.773,1071.6248],[28.0591,-9.7638,1065.9744],[28.0531,-9.7536,1080.2478],[28.0335,-9.7333,1097.8539],[28.0216,-9.7282,1107.9679],[28.0124,-9.7204,1116.3291],[28.0081,-9.7131,1127.7238],[28.0058,-9.7053,1126.6935],[28.0008,-9.6978,1151.0126],[27.9836,-9.6938,1355.2493],[27.9712,-9.6967,1395.4868],[27.9608,-9.7017,1480.5327],[27.9472,-9.7211,1605.7642],[27.9305,-9.735,1618.354],[27.9238,-9.7359,1636.9646],[27.8788,-9.6703,1644.7861],[27.8573,-9.6324,1646.4365],[27.8498,-9.6324,1660.2189],[27.8437,-9.6365,1636.363],[27.8397,-9.6548,1662.8873],[27.8304,-9.6542,1658.6139],[27.8258,-9.6565,1652.3066],[27.8174,-9.6675,1655.5773],[27.7998,-9.6798,1628.9519],[27.7923,-9.6916,1614.9124],[27.7909,-9.7055,1608.1639],[27.7916,-9.7278,1644.8516],[27.7806,-9.7539,1714.2937],[27.7589,-9.7581,1707.7705],[27.7952,-9.7979,1704.1456],[27.8068,-9.8225,1701.2604],[27.8078,-9.8903,1709.9351],[27.786,-9.9434,1694.7224],[27.7622,-9.9936,1705.7944],[27.7602,-10.0195,1712.9625],[27.7413,-10.0477,1701.5852],[27.7333,-10.0955,1698.6271],[27.7295,-10.0979,1696.172],[27.719,-10.0983,1683.9087],[27.6793,-10.0975,1648.6366],[27.6607,-10.0997,1597.7699],[27.644,-10.104,1621.5294],[27.5978,-10.1496,1497.3219],[27.5615,-10.1318,1411.0054],[27.5338,-10.1127,1431.0715],[27.5276,-10.102,1442.2524],[27.5309,-10.0962,1425.6506],[27.554,-10.0734,1393.8853],[27.554,-10.0531,1387.5862],[27.5642,-10.0415,1420.2731],[27.5725,-10.0247,1345.8982],[27.567,-10.0101,1411.8729],[27.5562,-9.9933,1418.6116],[27.5484,-9.9913,1407.4584],[27.5364,-9.9926,1348.9684],[27.5116,-9.9912,1329.8628],[27.5004,-9.9872,1305.5011],[27.488,-9.9767,1267.984],[27.4791,-9.9733,1161.2085],[27.4689,-9.977,947.322],[27.4641,-9.9828,937.6752],[27.4481,-9.987,922.2411],[27.4118,-9.9848,905.0267],[27.3687,-9.9964,886.4539],[27.3374,-9.989,875.8284],[27.3078,-9.9965,876.6429],[27.2926,-10.0051,875.7579],[27.2564,-10.0503,875.5],[27.2287,-10.0636,876.1494],[27.1943,-10.0652,886.0764],[27.0932,-10.0915,893.2761],[27.0484,-10.0982,909.9352],[27.0426,-10.1068,915.041],[27.0269,-10.1354,911.9991],[27.019,-10.1532,909.5275],[27.0109,-10.1669,929.0822],[26.9899,-10.1949,939.8676],[26.9807,-10.2109,939.1577],[26.9799,-10.2179,936.768],[26.9822,-10.2258,931.203],[27.0002,-10.2464,913.7631],[27.015,-10.2597,914.7266],[27.0565,-10.2904,916.7051],[27.0782,-10.3021,918.5352],[27.1056,-10.3208,916.5422],[27.1305,-10.35,913.2827],[27.1595,-10.395,924.6812],[27.188,-10.4296,931.3543],[27.1879,-10.4325,930.1035],[27.1855,-10.4353,932.7349],[27.1697,-10.4503,938.512],[27.1602,-10.4624,956.0518],[27.136,-10.485,1025.6353],[27.1154,-10.5118,1011.705],[27.1093,-10.5172,1008.1218],[27.1032,-10.5277,1022.5833],[27.1019,-10.5468,1113.7952],[27.0929,-10.5541,1157.0535],[27.0731,-10.5634,1192.8123],[27.1018,-10.5696,1102.6515],[27.1209,-10.5707,1087.6349],[27.1316,-10.5765,1066.9233],[27.1423,-10.5776,1078.5094],[27.1596,-10.5934,1095.1799],[27.1661,-10.6034,1086.126],[27.1768,-10.6069,1070.9727],[27.1965,-10.6079,1049.7136],[27.215,-10.6066,1033.1144],[27.2281,-10.5981,1105.797],[27.2466,-10.5902,1000.0183],[27.2543,-10.5777,1015.7219],[27.268,-10.5681,1059.6178],[27.3056,-10.5547,1061.1432],[27.3205,-10.554,1054.6991],[27.3288,-10.5622,1015.4841],[27.3318,-10.5693,1008.1099],[27.3305,-10.5877,967.9421],[27.3048,-10.605,953.78],[27.3166,-10.6152,944.447],[27.3193,-10.6227,944.5801],[27.325,-10.6254,938.2483],[27.3392,-10.6265,950.8258],[27.3628,-10.6351,944.2957],[27.3691,-10.6345,939.5504],[27.3757,-10.6312,933.1483],[27.3865,-10.6338,920.2431],[27.3848,-10.6416,927.4908],[27.3746,-10.6464,926.5867],[27.3733,-10.6526,923.37],[27.3679,-10.6608,928.8477],[27.3676,-10.6707,933.4636],[27.3631,-10.6776,935.5065],[27.3674,-10.6859,933.5151],[27.3659,-10.6907,934.6003],[27.3616,-10.6862,932.1967],[27.3569,-10.6865,931.4243],[27.341,-10.6941,932.7992],[27.3388,-10.7008,938.0273],[27.3353,-10.7014,936.6927],[27.3335,-10.7039,947.8483],[27.3142,-10.7012,945.0607],[27.31,-10.7043,951.161],[27.304,-10.7042,953.7903],[27.2946,-10.6993,946.1958],[27.2899,-10.6996,950.2472],[27.284,-10.7045,954.8029],[27.285,-10.7123,958.9918],[27.2824,-10.7211,1022.8775],[27.2851,-10.7319,999.5795],[27.2877,-10.7316,996.7439],[27.289,-10.7387,1057.4222],[27.2934,-10.7395,1032.5266],[27.2977,-10.7468,1095.1123],[27.3064,-10.7476,1068.5176],[27.3134,-10.7532,1099.4739],[27.3188,-10.7543,1078.9926],[27.32,-10.7593,1099.6777],[27.3319,-10.7711,1077.2607],[27.3195,-10.7947,1192.959],[27.3082,-10.8085,1177.6266],[27.3019,-10.8198,1182.02],[27.2974,-10.8381,1146.587],[27.3016,-10.8482,1134.5029],[27.2971,-10.8607,1139.3086],[27.3013,-10.8714,1135.4384],[27.3014,-10.8811,1147.8167],[27.3099,-10.9141,1135.2815],[27.3077,-10.9219,1135.901],[27.3114,-10.9336,1136.2401],[27.3329,-10.973,1138.2531],[27.352,-10.9781,1139.2927],[27.3925,-10.9937,1189.7085],[27.4091,-11.0042,1203.0088],[27.4127,-11.0083,1217.5157],[27.4911,-11.1474,1268.0161],[27.541,-11.2274,1293.2523]]]]}
,"properties": {"GID_2": "COD.3.2_1","GID_0": "COD","country": "DemocraticRepublicoftheCongo","GID_1": "COD.3_1","province": "Haut-Katanga","NL_NAME_1": "NA","county": "Kasenga","VARNAME_2": "NA","NL_NAME_2": "NA","TYPE_2": "Territoire","ENGTYPE_2": "Territory","CC_2": "NA","HASC_2": "NA","name": "Kasenga.county","area_km2": 23520.95,"hist_schema_id": "Elevation0-9000","hist_area_km2": {"875": 933.35,"900": 939.73,"925": 2568.79,"950": 1461.64,"975": 1293.56,"1000": 1231.55,"1025": 1128.94,"1050": 1225.64,"1075": 1568.62,"1100": 1259.01,"1125": 945.87,"1150": 1020.32,"1175": 895.18,"1200": 714.26,"1225": 563.59,"1250": 508.97,"1275": 430.13,"1300": 294.31,"1325": 204.53,"1350": 183.28,"1375": 174.34,"1400": 178.48,"1425": 213.44,"1450": 233.54,"1475": 272.0,"1500": 266.3,"1525": 216.44,"1550": 185.43,"1575": 190.38,"1600": 237.9,"1625": 293.85,"1650": 377.91,"1675": 477.49,"1700": 514.09,"1725": 316.74,"1750": 1.38}}}