{"type":"Feature","properties":{"GID_2":"COD.13.9_1","GID_0":"COD","country":"DemocraticRepublicoftheCongo","GID_1":"COD.13_1","province":"Kwilu","NL_NAME_1":"NA","county":"Idiofa(ville)","VARNAME_2":"NA","NL_NAME_2":"NA","TYPE_2":"Ville","ENGTYPE_2":"Town","CC_2":"NA","HASC_2":"NA","name":"Idiofa(ville).county"},
"geometry":{"type": "MultiPolygon","coordinates": [[[[19.6176,-5.0666,653.7523],[19.6316,-5.0611,521.5056],[19.6404,-5.0485,475.1817],[19.645,-5.0337,466.1572],[19.6413,-5.0133,487.7508],[19.6284,-4.9966,497.9717],[19.6186,-4.9921,508.6441],[19.5979,-4.9935,598.5293],[19.5858,-4.9965,683.3773],[19.5762,-5.0047,585.3788],[19.5686,-5.0228,674.2642],[19.5683,-5.0364,678.8909],[19.572,-5.0477,677.2719],[19.5755,-5.0548,686.8846],[19.5861,-5.0631,671.1617],[19.6002,-5.0673,594.799],[19.6176,-5.0666,653.7523]]]]}}