{"type": "Feature","bbox": [27.2271,-2.0658,29.9904,0.9542],"geometry": {"type": "MultiPolygon","coordinates": [[[[29.2486,-1.6751,1539.5359],[29.2495,-1.6752,1539.5359],[29.25,-1.673,1549.6443],[29.2484,-1.6728,1545.9331],[29.2486,-1.6751,1539.5359]]],
[[[29.2522,-1.663,1577.1445],[29.2604,-1.6506,1617.2004],[29.2683,-1.629,1695.1029],[29.2818,-1.6212,1788.415],[29.2858,-1.6246,1749.9274],[29.2918,-1.626,1874.8292],[29.2921,-1.629,1871.5349],[29.2992,-1.6165,1879.1304],[29.2965,-1.6144,1888.4661],[29.2971,-1.6125,1891.0631],[29.2986,-1.6118,1891.2284],[29.3011,-1.6142,1888.6421],[29.309,-1.6131,1890.5566],[29.3122,-1.6144,1891.6152],[29.3108,-1.6019,1922.7466],[29.3143,-1.6002,1934.7683],[29.3135,-1.5961,1931.3311],[29.3193,-1.586,1952.7526],[29.3182,-1.5857,1952.7526],[29.3202,-1.5801,1950.6536],[29.3218,-1.5784,1951.4127],[29.3249,-1.5809,1969.9077],[29.326,-1.5799,1979.2888],[29.3284,-1.5743,1964.0422],[29.3252,-1.5729,1950.9363],[29.3264,-1.568,1956.7155],[29.3311,-1.5655,1968.2107],[29.337,-1.5562,2003.5771],[29.335,-1.5548,1988.467],[29.3367,-1.5472,2001.197],[29.3536,-1.5367,2157.2954],[29.3552,-1.5311,2153.5713],[29.3619,-1.5311,2213.7349],[29.3603,-1.525,2194.5432],[29.3571,-1.5245,2167.0786],[29.3607,-1.5118,2282.6006],[29.3626,-1.5123,2297.2341],[29.3674,-1.5087,2271.6338],[29.376,-1.5086,2307.1064],[29.3764,-1.5248,2376.6704],[29.3801,-1.5247,2413.187],[29.3796,-1.5085,2356.0757],[29.3832,-1.5084,2402.5164],[29.3836,-1.5247,2453.0793],[29.3872,-1.5246,2487.5203],[29.3873,-1.5284,2490.4038],[29.3981,-1.5289,2651.199],[29.3979,-1.5228,2605.0532],[29.3944,-1.5228,2582.2202],[29.3939,-1.508,2571.1973],[29.45,-1.5061,4467.2305],[29.4667,-1.5131,3857.0632],[29.4742,-1.4988,3476.1208],[29.4568,-1.4966,3834.6145],[29.4731,-1.4747,3186.3535],[29.4859,-1.4766,3107.449],[29.5017,-1.4589,2874.8247],[29.4859,-1.4573,3657.2239],[29.4938,-1.4462,2965.8967],[29.4953,-1.446,2966.3027],[29.4961,-1.4425,2936.4204],[29.5044,-1.4402,2790.8936],[29.5055,-1.4344,2787.3867],[29.5201,-1.4292,2665.0139],[29.5214,-1.4266,2701.4587],[29.5184,-1.4251,2712.6487],[29.5248,-1.414,2630.2803],[29.5259,-1.4094,2731.812],[29.5289,-1.4108,2695.7852],[29.5304,-1.4083,2706.4492],[29.534,-1.4081,2695.5591],[29.5409,-1.4209,2507.9146],[29.5516,-1.4216,2459.561],[29.5484,-1.4134,2563.9092],[29.5407,-1.4042,2734.1479],[29.5446,-1.4019,2798.0681],[29.5553,-1.419,2458.0361],[29.5751,-1.3977,2801.4197],[29.5897,-1.3951,3358.3186],[29.589,-1.3916,3430.9355],[29.5931,-1.387,3526.9937],[29.593,-1.3843,3454.1887],[29.5889,-1.3857,3410.5286],[29.605,-1.3177,2059.8262],[29.6011,-1.3023,2054.9475],[29.5979,-1.2997,2015.7405],[29.5943,-1.2832,1858.1776],[29.6007,-1.2839,1865.8149],[29.6012,-1.2639,1789.3926],[29.6059,-1.2517,1833.1324],[29.601,-1.2519,1758.6689],[29.5993,-1.2501,1767.5887],[29.5958,-1.2509,1770.6539],[29.5944,-1.249,1764.6035],[29.5986,-1.2466,1803.5642],[29.6006,-1.2425,1841.7412],[29.6035,-1.2416,1854.7317],[29.6041,-1.2337,1941.1799],[29.6059,-1.2301,1894.4075],[29.6019,-1.2221,1977.1984],[29.6067,-1.2191,1967.9241],[29.6042,-1.2153,1892.8564],[29.5928,-1.2092,1930.3118],[29.5924,-1.2072,1907.4645],[29.5878,-1.2038,1732.1215],[29.5882,-1.2007,1782.8386],[29.583,-1.2002,1779.2778],[29.5819,-1.1963,1847.8748],[29.5723,-1.188,1898.5233],[29.5715,-1.1836,1757.4209],[29.5727,-1.1816,1750.1482],[29.5761,-1.1814,1764.1384],[29.5794,-1.1745,1753.5146],[29.5761,-1.1682,1699.8199],[29.579,-1.1605,1695.1033],[29.5846,-1.1529,1576.3787],[29.5856,-1.154,1575.2483],[29.5876,-1.1525,1644.1919],[29.5887,-1.1533,1664.8455],[29.5885,-1.1518,1644.1919],[29.5913,-1.1496,1664.4561],[29.5934,-1.1498,1676.1588],[29.5875,-1.125,1609.6342],[29.5891,-1.1023,1656.2803],[29.5921,-1.0951,1535.6273],[29.595,-1.0621,1595.1722],[29.5926,-1.0404,1746.371],[29.5919,-1.0115,1371.6118],[29.5831,-1.005,1347.3914],[29.5849,-0.9955,1583.9954],[29.5883,-0.9883,1782.1892],[29.5847,-0.9791,1752.2372],[29.5889,-0.9775,1622.5503],[29.593,-0.9838,1814.7588],[29.5964,-0.9844,1722.7659],[29.6003,-0.9775,1778.686],[29.594,-0.974,1845.4603],[29.5921,-0.9702,1741.1937],[29.5936,-0.964,1881.8821],[29.5892,-0.9491,1655.1967],[29.5892,-0.943,1713.9971],[29.5862,-0.9413,1723.1624],[29.5857,-0.9389,1659.1997],[29.592,-0.9295,1515.1564],[29.5885,-0.9206,1782.0623],[29.583,-0.9184,1741.3472],[29.5814,-0.9163,1777.9905],[29.5807,-0.9023,1665.2484],[29.5825,-0.8994,1682.8501],[29.5874,-0.8973,1768.7179],[29.6311,-0.8975,1160.8317],[29.6353,-0.8919,1152.4089],[29.6316,-0.8902,1116.4384],[29.6275,-0.8824,1137.547],[29.6295,-0.8793,1111.9207],[29.6262,-0.8699,1111.1361],[29.6269,-0.8656,1087.1521],[29.6254,-0.8586,1097.5081],[29.6293,-0.8446,1083.4071],[29.6358,-0.8321,1093.8247],[29.6387,-0.8319,1071.0098],[29.6375,-0.8281,1067.6489],[29.6393,-0.8275,1047.4697],[29.6408,-0.8225,1063.7135],[29.6385,-0.8213,1058.7794],[29.6397,-0.8202,1040.3889],[29.6383,-0.8176,1038.7534],[29.6394,-0.8174,1089.3589],[29.6351,-0.8136,1041.5103],[29.634,-0.8085,1049.1917],[29.6293,-0.8031,1067.4265],[29.6321,-0.7985,1032.4851],[29.6314,-0.7965,1034.0006],[29.6249,-0.7899,1051.2938],[29.6264,-0.7889,1027.9127],[29.6264,-0.7857,1024.1938],[29.6288,-0.785,1021.1198],[29.6287,-0.783,1020.5864],[29.6269,-0.7823,1020.5341],[29.628,-0.7777,1017.9594],[29.6305,-0.7753,1025.2953],[29.6284,-0.7716,1027.8221],[29.6302,-0.7694,1015.5367],[29.6292,-0.7672,1011.7454],[29.6303,-0.7624,1008.9197],[29.6283,-0.761,1010.4637],[29.6291,-0.7562,1005.3941],[29.6277,-0.7549,1006.2516],[29.629,-0.7531,1005.1282],[29.6278,-0.7493,1005.2838],[29.6301,-0.7465,1001.3604],[29.6288,-0.7401,997.0591],[29.6303,-0.7381,998.5087],[29.6287,-0.736,1011.3894],[29.6306,-0.7357,995.6343],[29.6304,-0.7296,992.8593],[29.6275,-0.7241,993.1135],[29.6239,-0.7213,991.5033],[29.625,-0.7174,988.2369],[29.624,-0.716,989.3607],[29.6269,-0.7137,992.6232],[29.6256,-0.7124,987.813],[29.6252,-0.7028,993.0216],[29.627,-0.7016,987.1655],[29.6268,-0.6986,981.2206],[29.6294,-0.6994,980.1257],[29.632,-0.6968,981.0072],[29.633,-0.686,977.3034],[29.6348,-0.6843,977.3635],[29.6338,-0.6818,978.2589],[29.6362,-0.681,974.3384],[29.6365,-0.6729,1002.4116],[29.6397,-0.6735,972.9667],[29.6413,-0.6719,972.7174],[29.6431,-0.6655,971.8844],[29.6476,-0.6588,965.3927],[29.648,-0.6464,958.8125],[29.6505,-0.6423,955.5649],[29.6505,-0.6384,957.4903],[29.6534,-0.637,956.4474],[29.6529,-0.6354,961.4668],[29.6569,-0.6306,962.0522],[29.6567,-0.6288,959.9946],[29.6591,-0.6275,957.4651],[29.6595,-0.6231,954.6668],[29.6486,-0.5928,941.7474],[29.6517,-0.594,940.9272],[29.6552,-0.5927,947.8899],[29.6562,-0.594,945.6957],[29.6576,-0.5921,941.7453],[29.6592,-0.5936,943.0092],[29.6589,-0.5913,941.7453],[29.6619,-0.5932,942.0092],[29.6612,-0.5914,940.692],[29.6663,-0.5893,940.6085],[29.6792,-0.5672,934.1416],[29.6792,-0.5633,932.6383],[29.6744,-0.5556,930.6588],[29.6681,-0.555,929.8204],[29.6655,-0.5512,928.8329],[29.6674,-0.5428,928.4369],[29.6664,-0.5408,930.0177],[29.6693,-0.5383,928.234],[29.669,-0.5305,926.3154],[29.671,-0.522,924.9506],[29.6687,-0.5169,923.5194],[29.6695,-0.5132,921.8278],[29.6675,-0.5078,920.113],[29.6713,-0.5025,921.6337],[29.6674,-0.4986,923.3149],[29.6736,-0.4933,922.6594],[29.6747,-0.4901,919.4225],[29.6734,-0.4887,922.8622],[29.6734,-0.4833,919.7201],[29.6703,-0.4795,922.5833],[29.6703,-0.4718,924.5826],[29.6645,-0.4685,920.5392],[29.661,-0.4695,916.6136],[29.6557,-0.4655,917.4872],[29.6539,-0.4668,917.181],[29.6507,-0.4605,912.0],[29.6592,-0.4163,912.0],[29.6873,-0.4163,912.0],[29.7035,-0.347,912.0],[29.6773,-0.3428,912.0],[29.6818,-0.3215,912.0],[29.7086,-0.3254,912.0],[29.7124,-0.3091,912.0],[29.6852,-0.3047,912.0],[29.7058,-0.2053,912.0],[29.7364,-0.2065,912.0],[29.7418,-0.1833,912.0],[29.7085,-0.1924,912.0],[29.7296,-0.0908,912.0],[29.73,-0.0831,912.0],[29.7266,-0.083,912.0],[29.728,-0.0766,918.7984],[29.7261,-0.0747,921.0443],[29.7258,-0.0675,923.7422],[29.7242,-0.0657,924.0854],[29.726,-0.0556,927.4159],[29.7291,-0.0541,930.0398],[29.7296,-0.0415,940.5681],[29.7274,-0.0378,965.034],[29.7299,-0.038,943.61],[29.7315,-0.034,982.9008],[29.7375,-0.035,946.9726],[29.7376,-0.0324,957.2731],[29.7387,-0.033,954.704],[29.7413,-0.0295,962.8335],[29.7398,-0.0287,962.8335],[29.7414,-0.0264,972.7534],[29.7436,-0.0271,956.586],[29.7462,-0.0228,1013.013],[29.7574,-0.0138,1050.1201],[29.7423,0.0066,1059.0078],[29.7395,0.0057,1055.3339],[29.7368,0.0,1033.4751],[29.7329,-0.0025,1032.0525],[29.7306,-0.0063,980.2751],[29.7285,-0.0019,1011.6377],[29.7247,-0.0011,1027.8402],[29.7245,0.0008,1047.6416],[29.7261,0.0015,1034.103],[29.7247,0.0022,1050.5508],[29.7272,0.0041,1009.0125],[29.7262,0.0075,1026.3367],[29.7282,0.0101,1014.6978],[29.7223,0.0141,1063.6469],[29.7274,0.02,1088.594],[29.7205,0.0242,1041.2397],[29.7204,0.0288,1049.6923],[29.7189,0.0293,1060.1082],[29.721,0.0335,1059.7925],[29.7187,0.033,1053.4692],[29.7152,0.0376,1074.4095],[29.7191,0.0438,1062.4939],[29.7187,0.0518,1066.0238],[29.7165,0.0545,1077.4506],[29.7314,0.0605,1142.335],[29.731,0.0651,1123.699],[29.7354,0.0716,1137.4631],[29.7277,0.0753,1127.1976],[29.7179,0.0731,1089.6433],[29.7165,0.0763,1136.0098],[29.7173,0.0783,1129.5033],[29.7225,0.0791,1129.2582],[29.7227,0.081,1161.8752],[29.7286,0.0821,1154.1323],[29.7324,0.0871,1151.6134],[29.7321,0.0908,1173.7828],[29.7347,0.0916,1155.3665],[29.7357,0.0903,1153.4358],[29.7374,0.0924,1163.4812],[29.7384,0.0907,1181.7166],[29.7423,0.0913,1242.5577],[29.7484,0.0837,1216.4508],[29.748,0.1068,1387.6941],[29.7531,0.1153,1507.7472],[29.7515,0.1173,1600.6479],[29.751,0.1138,1544.2341],[29.7461,0.1105,1475.9812],[29.7446,0.1053,1343.9663],[29.7385,0.1017,1254.8733],[29.7391,0.098,1210.4812],[29.7332,0.0939,1178.6071],[29.7346,0.1043,1195.3843],[29.7332,0.1056,1311.4897],[29.7334,0.1121,1343.1467],[29.7353,0.1156,1461.6887],[29.7368,0.1157,1276.9075],[29.7366,0.1214,1316.9531],[29.7392,0.1227,1356.2411],[29.7371,0.1228,1337.0706],[29.7379,0.1242,1390.9661],[29.7359,0.1243,1359.5425],[29.7348,0.1271,1495.7941],[29.7409,0.13,1477.535],[29.7421,0.129,1473.1742],[29.744,0.1339,1504.1824],[29.7493,0.1342,1494.7174],[29.7501,0.1371,1567.3048],[29.7553,0.1424,1709.9067],[29.7666,0.1509,1669.4043],[29.7699,0.1586,1704.7688],[29.7687,0.1662,1798.1414],[29.7703,0.1669,1798.1414],[29.7725,0.1654,1743.231],[29.7762,0.1697,1845.8602],[29.7795,0.1705,1837.481],[29.7823,0.1702,1822.3826],[29.7841,0.168,1832.535],[29.7887,0.1722,2009.954],[29.7931,0.17,1949.9139],[29.7982,0.1707,2093.6145],[29.8047,0.1668,2067.8943],[29.8055,0.1679,2204.8765],[29.811,0.1674,2232.3171],[29.8146,0.1658,2308.0195],[29.8192,0.169,2492.3635],[29.8229,0.1748,2655.7258],[29.8639,0.353,3784.687],[29.8733,0.351,3986.1165],[29.8732,0.357,4130.2466],[29.8788,0.3743,4732.021],[29.883,0.3856,4386.7666],[29.8876,0.3913,4336.1128],[29.8987,0.3958,4554.0283],[29.929,0.4034,3856.5847],[29.9467,0.4056,3806.6562],[29.9428,0.4086,3891.8032],[29.9342,0.4114,4185.9185],[29.9304,0.4197,4279.3555],[29.9187,0.422,4549.7568],[29.9159,0.424,4492.7397],[29.9125,0.4388,4407.1885],[29.9572,0.4949,3020.5962],[29.9787,0.5197,2345.6057],[29.9763,0.5275,2235.2656],[29.9769,0.5322,2235.8191],[29.9791,0.535,2166.2681],[29.9828,0.534,2415.7651],[29.9904,0.535,2559.082],[29.9887,0.543,2386.0857],[29.9817,0.5526,1899.3984],[29.9787,0.5604,1728.2931],[29.9769,0.5609,1682.3474],[29.9774,0.5639,1666.6318],[29.9687,0.5844,1342.4058],[29.9707,0.5876,1224.8226],[29.9693,0.5942,1194.2019],[29.9717,0.602,1131.4192],[29.9641,0.6172,1035.3353],[29.9617,0.6185,1021.6943],[29.9624,0.6213,1000.3944],[29.9548,0.6355,939.8064],[29.9544,0.6388,929.998],[29.957,0.6535,890.5014],[29.956,0.6561,880.0349],[29.9612,0.6683,865.0444],[29.9606,0.6734,872.2672],[29.9626,0.6767,844.1398],[29.9614,0.6824,863.4852],[29.963,0.685,847.3285],[29.9659,0.6848,809.6969],[29.967,0.6901,829.1124],[29.9707,0.6957,794.6709],[29.9711,0.7,765.7077],[29.968,0.7045,761.6291],[29.9708,0.7073,759.7083],[29.971,0.7117,751.8772],[29.9696,0.7122,751.2734],[29.9691,0.7154,747.7732],[29.9662,0.7169,748.2959],[29.9669,0.7189,746.9537],[29.9685,0.719,742.5835],[29.9674,0.7218,748.3517],[29.9693,0.7253,738.934],[29.968,0.7255,739.6648],[29.9682,0.7271,745.0751],[29.9707,0.7277,736.2421],[29.9704,0.7304,736.6363],[29.9733,0.7318,730.6223],[29.972,0.7322,760.5144],[29.9752,0.7458,717.895],[29.9741,0.7499,717.8052],[29.972,0.7502,718.3971],[29.9698,0.7544,716.4364],[29.9713,0.7564,710.2103],[29.9686,0.7587,709.3593],[29.9681,0.7619,713.5902],[29.9646,0.7626,707.053],[29.9661,0.7667,702.9097],[29.9654,0.7694,700.168],[29.9632,0.7702,722.2517],[29.9646,0.7745,696.8022],[29.9632,0.7781,697.5474],[29.9611,0.7781,701.9484],[29.9603,0.7869,710.3965],[29.9696,0.8104,704.8802],[29.9706,0.8143,702.0688],[29.9695,0.8158,701.6382],[29.9716,0.8189,699.9806],[29.973,0.8185,708.8666],[29.9784,0.8317,682.7234],[29.9819,0.8327,685.6375],[29.9829,0.8363,674.1025],[29.9701,0.8349,671.0524],[29.9646,0.8319,676.2452],[29.9557,0.8227,680.8882],[29.9571,0.8163,680.5349],[29.9538,0.8133,673.9197],[29.9495,0.8168,686.4072],[29.945,0.817,687.9962],[29.9365,0.8072,679.9115],[29.9237,0.7987,698.6141],[29.907,0.8051,695.9942],[29.907,0.8109,701.9504],[29.9089,0.8137,701.6925],[29.8998,0.8242,758.3654],[29.8986,0.8344,729.4528],[29.8952,0.8438,731.4802],[29.8879,0.8475,749.7906],[29.8788,0.8578,811.6587],[29.875,0.8666,819.0266],[29.8768,0.8882,846.3876],[29.8752,0.8907,937.5081],[29.8684,0.8889,1073.8807],[29.865,0.8898,1170.7599],[29.8602,0.8974,1162.7593],[29.8628,0.9307,1438.5029],[29.8626,0.9505,1424.3483],[29.8612,0.9542,1435.917],[29.8515,0.9399,1359.2021],[29.8381,0.9414,1210.6195],[29.826,0.932,1203.9785],[29.8216,0.9308,1203.4326],[29.8078,0.9105,1207.4186],[29.7981,0.9096,1165.5585],[29.7946,0.9064,1150.4635],[29.7629,0.9092,1128.542],[29.7561,0.908,1124.1062],[29.7435,0.897,1157.9116],[29.7453,0.8873,1089.2937],[29.741,0.8749,1084.506],[29.7352,0.8745,1035.5339],[29.7268,0.8655,1071.674],[29.7047,0.8644,1100.875],[29.696,0.8683,1150.646],[29.6689,0.8977,1173.311],[29.6636,0.9061,1172.3223],[29.6591,0.9077,1176.9779],[29.6485,0.9015,1273.6158],[29.6409,0.901,1232.1729],[29.6367,0.8954,1125.6714],[29.634,0.8861,1113.6145],[29.6274,0.8816,1112.679],[29.6262,0.8736,1084.4761],[29.6275,0.8563,1163.63],[29.6232,0.8535,1155.6355],[29.6138,0.8546,1097.6576],[29.6001,0.8612,1070.7102],[29.5859,0.8619,1048.1177],[29.5725,0.871,1028.6749],[29.5598,0.8748,1032.6782],[29.5373,0.8633,1007.8434],[29.5229,0.8612,991.4216],[29.5208,0.8543,990.8331],[29.5216,0.8471,1003.722],[29.5282,0.8375,1108.6577],[29.5291,0.813,1035.183],[29.5369,0.7887,1044.8691],[29.5096,0.7902,1020.3191],[29.4946,0.801,1003.1301],[29.4861,0.842,972.5582],[29.4813,0.845,970.7544],[29.4754,0.8528,968.0709],[29.4581,0.8602,961.9031],[29.4549,0.8586,943.0182],[29.4519,0.852,945.9106],[29.4471,0.8474,938.6033],[29.4448,0.8373,931.8516],[29.442,0.834,936.6348],[29.4297,0.8302,930.6055],[29.4199,0.8233,931.0948],[29.4158,0.8157,923.6581],[29.4096,0.815,923.3838],[29.4046,0.81,928.567],[29.3986,0.8116,922.2945],[29.3961,0.8164,922.1368],[29.3884,0.819,917.799],[29.3827,0.8256,919.5307],[29.3775,0.8278,920.7113],[29.3697,0.8221,931.241],[29.3695,0.7876,946.7435],[29.3657,0.7759,961.1475],[29.3643,0.7638,960.9171],[29.3706,0.7534,957.8672],[29.3701,0.747,949.6128],[29.3612,0.7236,927.6619],[29.3476,0.7134,914.1555],[29.347,0.7098,919.251],[29.3501,0.7042,936.7192],[29.3629,0.6931,931.0218],[29.3767,0.697,946.7981],[29.3894,0.6837,966.6198],[29.3943,0.6714,983.4933],[29.4113,0.6658,1016.2752],[29.4319,0.6513,1039.6162],[29.4695,0.6487,1057.8881],[29.4739,0.6253,1050.6449],[29.4569,0.6154,1027.0475],[29.4337,0.6085,1035.936],[29.407,0.6036,988.9301],[29.3922,0.6029,968.1248],[29.3813,0.5963,988.176],[29.365,0.611,962.9895],[29.3643,0.6126,957.8166],[29.3671,0.6154,946.6381],[29.3662,0.6167,942.7908],[29.3591,0.6163,944.3503],[29.3475,0.6227,939.5504],[29.3392,0.6251,935.0125],[29.334,0.6241,927.9702],[29.3301,0.6253,940.722],[29.3281,0.6283,930.2705],[29.3283,0.6324,926.543],[29.332,0.6407,924.0808],[29.3313,0.6446,934.1119],[29.3388,0.6526,924.4061],[29.3395,0.6561,926.1844],[29.3363,0.6595,926.5327],[29.3366,0.6627,918.9932],[29.3261,0.6738,909.7257],[29.3297,0.6844,909.7606],[29.3254,0.6869,910.4995],[29.3086,0.6796,937.5509],[29.3044,0.6756,942.5634],[29.2963,0.6606,977.85],[29.295,0.6461,969.8605],[29.2871,0.6344,1012.5223],[29.2855,0.6264,988.3854],[29.2807,0.6179,953.1702],[29.2863,0.6039,958.8459],[29.2901,0.6007,970.6425],[29.2919,0.5899,980.9101],[29.2905,0.5867,968.687],[29.2827,0.5886,947.6234],[29.2766,0.5961,951.4192],[29.2637,0.6036,924.7795],[29.2536,0.6188,892.1278],[29.2222,0.6169,862.6398],[29.2187,0.6252,856.2915],[29.2149,0.6259,851.6],[29.2046,0.6335,842.377],[29.2037,0.6386,842.1725],[29.1973,0.6406,837.8854],[29.1946,0.6445,826.3528],[29.1873,0.6455,818.0946],[29.1818,0.6549,811.5534],[29.177,0.6482,818.1254],[29.1752,0.6496,818.4938],[29.1734,0.6561,823.3719],[29.1651,0.6584,821.1965],[29.1624,0.6618,811.2787],[29.1649,0.6655,808.964],[29.1629,0.6768,811.5239],[29.157,0.6761,810.9636],[29.1343,0.6621,822.0358],[29.1279,0.6612,827.3702],[29.1224,0.6547,863.5685],[29.1177,0.6518,841.1465],[29.1101,0.6502,837.701],[29.104,0.6536,827.7316],[29.1017,0.6424,827.1664],[29.0989,0.6391,827.1672],[29.085,0.6332,851.8956],[29.0756,0.6314,846.1777],[29.0727,0.6288,848.1348],[29.0706,0.6171,834.8616],[29.0676,0.6123,829.0895],[29.0621,0.6082,844.0057],[29.0462,0.5895,926.6887],[29.017,0.5839,1018.1315],[29.0055,0.5634,983.1911],[28.9914,0.5603,1021.9671],[28.9718,0.5629,1033.7181],[28.9321,0.5821,881.3859],[28.9009,0.5876,1021.3954],[28.8406,0.5798,1082.6597],[28.8135,0.5791,1031.3398],[28.8034,0.5765,1170.4001],[28.7627,0.5756,1065.2413],[28.7535,0.5735,1073.0494],[28.7205,0.5735,1047.1838],[28.71,0.5715,1055.1765],[28.6899,0.5707,1030.4312],[28.6743,0.5716,930.1649],[28.6604,0.5814,917.6142],[28.6574,0.5724,964.8436],[28.6536,0.5724,924.5358],[28.6474,0.5644,883.6318],[28.6465,0.5586,905.6756],[28.6387,0.5543,891.0343],[28.636,0.5481,889.7314],[28.6317,0.5449,902.3175],[28.6273,0.5439,919.3693],[28.6157,0.5469,869.3132],[28.6109,0.5453,880.1244],[28.6084,0.5407,884.9539],[28.6049,0.5382,888.1439],[28.5919,0.5403,860.2778],[28.578,0.5274,892.2679],[28.5739,0.5267,935.8876],[28.5684,0.5226,866.9521],[28.555,0.5196,834.2649],[28.5536,0.5215,830.5607],[28.5588,0.5288,886.93],[28.5543,0.5325,822.3788],[28.5557,0.5403,837.416],[28.5547,0.5442,822.4023],[28.5438,0.5449,838.6552],[28.5404,0.5433,843.8078],[28.5333,0.544,830.9393],[28.5317,0.5421,831.5165],[28.529,0.5421,839.5765],[28.5262,0.5447,833.7257],[28.5232,0.5449,825.7401],[28.5205,0.5412,830.2681],[28.5166,0.5401,818.1516],[28.5123,0.5355,820.8163],[28.507,0.5339,817.4933],[28.5025,0.5396,811.4557],[28.4984,0.5419,819.6415],[28.4977,0.5447,815.3605],[28.4995,0.5484,812.9778],[28.4984,0.5518,818.6605],[28.5011,0.5555,816.2989],[28.5,0.5596,791.8192],[28.505,0.5667,797.8884],[28.4984,0.5727,802.9066],[28.4879,0.5778,794.2977],[28.4822,0.5861,809.2552],[28.4769,0.5872,809.4301],[28.4772,0.5932,800.4238],[28.4589,0.6067,789.2233],[28.447,0.6212,793.1564],[28.448,0.6265,778.3879],[28.4464,0.6297,788.4183],[28.4425,0.6284,768.6075],[28.4343,0.635,772.5286],[28.4233,0.6355,791.1646],[28.4183,0.6451,783.3804],[28.4101,0.6525,771.8734],[28.4028,0.6527,738.7992],[28.398,0.6575,752.105],[28.3927,0.6578,736.713],[28.3909,0.6635,762.7273],[28.3847,0.664,761.8712],[28.3781,0.6619,754.8334],[28.377,0.6704,748.5814],[28.3747,0.6748,749.806],[28.3754,0.6778,769.5531],[28.358,0.687,751.488],[28.3516,0.6863,741.0446],[28.3434,0.695,745.6135],[28.3377,0.6978,725.481],[28.3143,0.697,726.7449],[28.27,0.6904,717.2599],[28.2591,0.691,705.6474],[28.2485,0.688,711.1615],[28.1829,0.6845,793.7101],[28.1591,0.6852,677.9482],[28.1407,0.6828,815.4647],[28.096,0.6734,818.6401],[28.0739,0.6789,651.9798],[28.0695,0.6764,656.6266],[28.0681,0.6642,656.0458],[28.0618,0.6633,654.2189],[28.0503,0.6532,651.309],[28.0451,0.6509,646.1979],[28.0437,0.6465,650.359],[28.0444,0.6424,648.2026],[28.0428,0.6396,650.4906],[28.0275,0.633,648.716],[28.0227,0.6334,650.0086],[28.0179,0.6362,647.4822],[28.009,0.6332,642.7076],[28.0033,0.6256,643.2627],[28.0024,0.6217,637.2253],[27.9931,0.6127,632.6054],[27.9883,0.6118,636.2519],[27.9766,0.6134,627.2292],[27.9691,0.6212,647.4552],[27.9552,0.6219,634.9686],[27.9412,0.6142,648.6417],[27.9227,0.5984,649.7439],[27.9158,0.5876,633.6458],[27.8931,0.5617,642.0062],[27.8552,0.5576,651.7327],[27.8303,0.545,628.0925],[27.8187,0.5419,644.4945],[27.7966,0.5297,625.0673],[27.8103,0.5201,633.0098],[27.8169,0.518,620.362],[27.8217,0.512,633.2937],[27.8258,0.51,620.1968],[27.8299,0.5035,623.2063],[27.8372,0.5003,630.9227],[27.8411,0.493,602.4019],[27.8541,0.4879,627.5272],[27.8637,0.4882,597.8721],[27.8811,0.4804,620.2098],[27.892,0.4833,629.7334],[27.8982,0.4909,620.6643],[27.9011,0.4914,626.1912],[27.905,0.4822,632.5062],[27.9107,0.4804,633.5328],[27.915,0.4845,635.3175],[27.9176,0.4918,635.5449],[27.921,0.4918,600.5],[27.9249,0.488,633.1171],[27.9294,0.4868,634.3298],[27.9349,0.4804,637.9248],[27.9411,0.4785,677.5959],[27.9536,0.4808,690.2479],[27.9598,0.4744,732.7057],[27.9828,0.4714,700.1267],[28.0041,0.474,666.7617],[28.0075,0.4714,650.7068],[28.013,0.4611,613.5],[28.0173,0.4606,654.211],[28.0239,0.4639,663.138],[28.0267,0.4634,633.5277],[28.0292,0.4583,636.9424],[28.0285,0.4519,623.5789],[28.0301,0.4475,665.7786],[28.0248,0.4388,686.4604],[28.026,0.4363,674.415],[28.0326,0.4367,664.7809],[28.0369,0.4317,653.0974],[28.0479,0.4278,700.4988],[28.0527,0.4126,691.4894],[28.0518,0.4076,738.2104],[28.0454,0.4108,715.0692],[28.0411,0.406,673.4685],[28.0372,0.4055,656.3268],[28.0344,0.4027,654.5809],[28.0429,0.397,860.6727],[28.044,0.3947,822.2949],[28.0447,0.3903,851.933],[28.0395,0.3809,670.6866],[28.042,0.3775,739.9393],[28.0504,0.3814,754.1838],[28.0563,0.3805,655.6074],[28.0591,0.3766,660.9521],[28.0566,0.3396,647.0247],[28.0621,0.332,637.5946],[28.0616,0.3295,645.5142],[28.0568,0.3265,642.8421],[28.0559,0.3242,669.618],[28.0568,0.318,641.5703],[28.0545,0.3074,699.7012],[28.0552,0.3021,709.6831],[28.0584,0.2968,700.7204],[28.0621,0.2849,693.696],[28.0678,0.2805,691.4487],[28.0685,0.278,697.0029],[28.0659,0.2729,709.4246],[28.0662,0.2697,734.2346],[28.0696,0.2649,717.7774],[28.0762,0.2651,727.3014],[28.0774,0.258,706.6815],[28.0803,0.2553,733.4972],[28.0833,0.2474,724.3475],[28.0869,0.2449,715.9927],[28.0942,0.2465,700.6562],[28.0968,0.2452,697.4543],[28.1,0.2348,689.6544],[28.1018,0.2334,714.5418],[28.1079,0.2321,759.3646],[28.113,0.2344,729.1736],[28.12,0.2341,711.6036],[28.1278,0.2286,757.7531],[28.1342,0.2208,777.2708],[28.1337,0.2162,785.7383],[28.128,0.2102,706.8964],[28.1271,0.1926,724.9221],[28.1203,0.1868,732.0491],[28.1219,0.185,725.8177],[28.1312,0.1868,752.9021],[28.1376,0.1836,716.889],[28.152,0.1581,709.9502],[28.154,0.151,703.7748],[28.1522,0.1448,728.4463],[28.1397,0.1381,705.8412],[28.1383,0.1342,702.4861],[28.1394,0.1326,700.7367],[28.1369,0.1278,727.7732],[28.1303,0.1273,722.3177],[28.1278,0.1246,718.2377],[28.1308,0.1193,735.9504],[28.128,0.1158,768.8973],[28.1043,0.1064,711.7511],[28.1025,0.103,701.1206],[28.1059,0.0982,744.1689],[28.1068,0.0938,767.7471],[28.1002,0.0832,748.0953],[28.0995,0.0791,733.6351],[28.1059,0.069,740.9339],[28.1066,0.063,736.4557],[28.1027,0.0492,741.3887],[28.0984,0.0419,743.1658],[28.0984,0.038,745.6669],[28.1027,0.0334,742.3035],[28.1025,0.0283,741.5896],[28.097,0.0224,752.2585],[28.0972,0.0187,748.4421],[28.1018,0.0152,745.1341],[28.1023,0.0127,737.6293],[28.1,0.0088,743.4433],[28.1007,0.0047,750.1234],[28.0913,-0.005,766.5508],[28.0989,-0.0183,752.7129],[28.1012,-0.0259,721.5248],[28.1038,-0.0392,743.3783],[28.102,-0.0507,737.5676],[28.1077,-0.0569,740.9369],[28.1103,-0.0803,739.2051],[28.1163,-0.0984,745.923],[28.1137,-0.111,749.9517],[28.1183,-0.1335,758.2141],[28.1186,-0.1539,766.5503],[28.1276,-0.1702,744.7676],[28.1313,-0.186,744.9128],[28.138,-0.1988,734.3133],[28.1427,-0.2266,767.8788],[28.145,-0.23,766.0667],[28.1437,-0.2418,783.3147],[28.1469,-0.2477,777.8424],[28.1528,-0.2539,894.6638],[28.1545,-0.2587,856.0715],[28.1531,-0.2654,967.7322],[28.1393,-0.2778,771.0596],[28.1336,-0.2797,771.0812],[28.1183,-0.277,776.9456],[28.1135,-0.2777,754.9276],[28.1069,-0.2844,747.1328],[28.1007,-0.2865,753.3511],[28.0962,-0.2936,761.9715],[28.088,-0.2946,771.9777],[28.0732,-0.308,776.8518],[28.0356,-0.309,755.3447],[28.0094,-0.3169,761.4816],[27.9962,-0.3287,744.3464],[27.9908,-0.3397,759.1537],[27.9856,-0.3609,773.8017],[27.9704,-0.3761,766.4218],[27.9633,-0.3782,762.0952],[27.9515,-0.3877,766.2505],[27.9463,-0.4022,800.5626],[27.942,-0.4065,813.0801],[27.9498,-0.4162,840.1698],[27.9571,-0.432,836.1699],[27.9693,-0.4443,786.8245],[27.9739,-0.4618,803.7799],[27.9781,-0.47,766.5687],[27.9756,-0.4884,790.7208],[27.9787,-0.5132,782.1501],[27.9776,-0.5235,796.3119],[27.9708,-0.5387,924.4732],[27.9704,-0.5447,838.5342],[27.9627,-0.55,784.55],[27.9474,-0.5498,779.8728],[27.9415,-0.5545,850.1318],[27.9381,-0.5616,802.421],[27.9356,-0.5763,869.6147],[27.9116,-0.5848,793.5898],[27.9038,-0.594,861.4681],[27.8869,-0.5962,908.4182],[27.841,-0.596,881.6271],[27.8346,-0.6098,1046.7716],[27.8308,-0.6114,1007.5271],[27.8244,-0.6252,1088.8162],[27.8227,-0.6537,873.5765],[27.8273,-0.656,858.4874],[27.831,-0.6663,818.8516],[27.8269,-0.6739,851.7961],[27.8176,-0.6815,865.7843],[27.8089,-0.6861,867.9285],[27.8055,-0.6903,845.9025],[27.8044,-0.6949,822.6235],[27.806,-0.7084,770.9913],[27.8052,-0.7213,785.5092],[27.8082,-0.7314,808.9468],[27.8041,-0.7394,780.7335],[27.8064,-0.7468,847.6616],[27.8053,-0.75,895.2079],[27.8019,-0.7466,791.1608],[27.8,-0.747,812.0232],[27.7978,-0.7539,969.0667],[27.7896,-0.7611,991.4331],[27.7823,-0.7735,972.4219],[27.7801,-0.7804,967.6708],[27.7831,-0.7928,785.0297],[27.7788,-0.8071,813.9575],[27.7795,-0.8154,877.6844],[27.7691,-0.8331,1027.1249],[27.7671,-0.8409,971.5544],[27.7722,-0.8708,763.4245],[27.7691,-0.8829,641.8837],[27.7663,-0.8857,656.5697],[27.7597,-0.8873,865.0974],[27.7524,-0.8915,753.3128],[27.7203,-0.8948,635.6974],[27.7166,-0.8978,680.1332],[27.712,-0.8967,780.1559],[27.7081,-0.8926,643.7542],[27.7063,-0.8931,760.4501],[27.698,-0.9154,762.4719],[27.69,-0.9237,880.7947],[27.6795,-0.9299,945.8663],[27.6631,-0.9281,894.9681],[27.6533,-0.9305,719.512],[27.6462,-0.927,657.2092],[27.6425,-0.9333,635.011],[27.6384,-0.9344,626.7468],[27.6352,-0.9328,631.4178],[27.6299,-0.9239,637.7335],[27.6208,-0.9244,624.756],[27.6135,-0.9182,621.9689],[27.6071,-0.9159,630.8485],[27.5893,-0.9137,626.8431],[27.5751,-0.9034,625.2936],[27.5554,-0.9051,610.1412],[27.5481,-0.9099,596.7012],[27.5433,-0.9095,602.517],[27.5292,-0.9031,602.7358],[27.5269,-0.9006,605.4658],[27.5218,-0.9011,602.4095],[27.5173,-0.899,589.9263],[27.4997,-0.9004,604.5508],[27.4853,-0.9065,601.3419],[27.4824,-0.9062,596.1003],[27.4637,-0.9148,607.549],[27.457,-0.9157,583.2752],[27.449,-0.9126,595.7302],[27.4417,-0.9135,596.6874],[27.424,-0.9214,596.2177],[27.4094,-0.9299,605.4192],[27.3932,-0.9426,591.309],[27.3859,-0.9452,600.051],[27.3724,-0.9482,602.5752],[27.366,-0.9473,594.0794],[27.3569,-0.943,591.7668],[27.3468,-0.9425,582.0819],[27.3418,-0.9442,585.0164],[27.3345,-0.9502,578.4859],[27.3265,-0.9504,586.6754],[27.3215,-0.9534,584.0903],[27.3108,-0.9551,588.8306],[27.2976,-0.9696,582.3392],[27.2858,-0.9788,586.9041],[27.2821,-0.9802,577.6477],[27.2762,-0.9779,591.4648],[27.2743,-0.9802,589.1048],[27.2767,-0.9958,584.3267],[27.2687,-1.0117,556.8918],[27.2685,-1.0181,554.5],[27.2775,-1.0383,569.1978],[27.278199999999998,-1.0526,565.3392],[27.2698,-1.0611,575.5732],[27.2666,-1.0676,579.5015],[27.2683,-1.0784,585.402],[27.2754,-1.0852,583.9528],[27.2804,-1.0877,582.5765],[27.2841,-1.0923,579.1069],[27.2883,-1.1238,597.0482],[27.2904,-1.1293,599.6429],[27.295,-1.1355,625.8524],[27.3124,-1.1462,588.0629],[27.3215,-1.1556,583.3611],[27.3248,-1.1634,551.5],[27.3335,-1.1715,574.6142],[27.3381,-1.1818,580.8474],[27.3344,-1.1889,554.2824],[27.3272,-1.1924,581.3546],[27.3224,-1.1924,549.5],[27.3027,-1.1814,579.2925],[27.2951,-1.1812,577.9106],[27.2876,-1.1838,547.5],[27.2771,-1.1903,547.0],[27.2751,-1.1893,547.0],[27.2686,-1.1758,576.1855],[27.2652,-1.1728,575.5243],[27.2506,-1.174,545.0],[27.2321,-1.1881,547.9698],[27.2283,-1.1927,571.2087],[27.2271,-1.2049,575.2267],[27.2354,-1.2051,572.3401],[27.2397,-1.2122,577.8231],[27.2608,-1.2317,588.7806],[27.2647,-1.2393,584.23],[27.2824,-1.2521,597.6892],[27.2867,-1.2645,587.5281],[27.2961,-1.2729,596.874],[27.3092,-1.2791,614.2363],[27.3207,-1.2931,631.8839],[27.3264,-1.2977,635.1199],[27.3332,-1.2995,646.4557],[27.3415,-1.2969,632.6057],[27.3453,-1.2974,630.4589],[27.3559,-1.3045,620.9294],[27.363,-1.3047,634.0278],[27.3648,-1.3067,637.7637],[27.3482,-1.3392,609.869],[27.3458,-1.3496,616.7218],[27.3469,-1.3608,633.671],[27.3521,-1.3688,653.2141],[27.3558,-1.3793,719.769],[27.3914,-1.4501,624.7872],[27.4033,-1.4587,701.2425],[27.4115,-1.4581,691.7428],[27.4306,-1.4462,617.9148],[27.4494,-1.4593,617.9241],[27.4522,-1.4664,614.8807],[27.4545,-1.4848,641.0693],[27.4585,-1.4947,633.4408],[27.4722,-1.5075,620.5608],[27.4986,-1.5387,683.2171],[27.5079,-1.5752,658.4465],[27.5063,-1.5837,707.8143],[27.5082,-1.5897,733.3183],[27.5153,-1.601,686.0309],[27.5194,-1.6019,632.2139],[27.5256,-1.609,664.7946],[27.5263,-1.6189,681.0045],[27.5284,-1.6221,707.9082],[27.5408,-1.6271,692.3141],[27.544,-1.6349,654.505],[27.5479,-1.6379,615.08],[27.5607,-1.6369,811.3841],[27.5676,-1.6458,861.8312],[27.5715,-1.6472,827.8585],[27.574,-1.6444,816.3656],[27.5781,-1.6442,779.5647],[27.5873,-1.6564,933.1662],[27.59,-1.6582,864.3378],[27.5973,-1.6588,920.7252],[27.6061,-1.6694,946.8187],[27.6154,-1.6728,1005.8596],[27.618,-1.6813,984.484],[27.623,-1.685,993.8063],[27.6454,-1.6867,876.548],[27.6535,-1.6911,894.7244],[27.6581,-1.7007,844.6799],[27.6553,-1.7053,877.3812],[27.6558,-1.7074,896.038],[27.659,-1.7106,916.4481],[27.6684,-1.7087,876.9219],[27.6728,-1.7211,861.9174],[27.6774,-1.7252,856.8232],[27.6781,-1.7278,862.4004],[27.6733,-1.743,1091.8423],[27.6738,-1.7459,1102.6841],[27.6804,-1.7524,982.8751],[27.6807,-1.7641,981.0703],[27.6846,-1.7717,1054.1548],[27.694,-1.7709,1028.152],[27.6974,-1.7741,1011.4802],[27.7123,-1.7693,972.4275],[27.7205,-1.7695,1098.9968],[27.7272,-1.7729,1093.4963],[27.7366,-1.782,1073.7902],[27.7391,-1.7901,985.1212],[27.7432,-1.7882,1004.2775],[27.7467,-1.7894,986.527],[27.7476,-1.794,979.6467],[27.7413,-1.8269,1126.061],[27.742,-1.831,1182.4454],[27.7491,-1.8388,1191.7632],[27.7555,-1.8415,1081.7833],[27.7562,-1.8448,1106.2327],[27.7517,-1.8556,993.2538],[27.7517,-1.8588,1035.1721],[27.7547,-1.8638,1039.0939],[27.7541,-1.8682,982.98],[27.7486,-1.8731,1039.8757],[27.7505,-1.9043,1124.5903],[27.7435,-1.9269,1072.6638],[27.7429,-1.9391,1163.0181],[27.7465,-1.9777,1085.8745],[27.7428,-1.9867,1124.4948],[27.7397,-2.0006,1126.5321],[27.7846,-2.0288,1084.5872],[27.8155,-2.0329,1079.7817],[27.8384,-2.0339,1142.4019],[27.8616,-2.0133,1064.2559],[27.885,-2.0015,1056.9869],[27.9087,-1.9992,1233.5955],[27.9498,-2.0002,1215.9884],[27.962,-2.0163,1264.722],[27.9737,-2.0092,1164.3087],[27.9847,-2.0068,1174.7661],[27.9886,-2.0085,1164.9568],[27.9906,-2.0252,1173.6018],[27.9979,-2.0324,1166.619],[28.0116,-2.0118,1151.448],[28.043,-2.004,1154.2064],[28.0777,-1.9986,1134.3143],[28.0871,-1.9987,1122.3],[28.1008,-2.0083,1098.1804],[28.0949,-2.0251,1090.3444],[28.1001,-2.0474,1141.3141],[28.0998,-2.0658,1178.588],[28.1475,-2.0469,1135.5555],[28.1586,-2.0478,1053.2526],[28.1671,-2.046,1121.2317],[28.1613,-2.0352,1039.9385],[28.1516,-2.0246,1100.5066],[28.1512,-2.02,1031.3977],[28.1545,-2.0099,952.0344],[28.155,-2.0009,1007.075],[28.1717,-1.9939,1160.8414],[28.24,-1.9905,1223.0051],[28.2664,-1.994,1354.5776],[28.3042,-1.9905,1451.8636],[28.3157,-1.9787,1446.9993],[28.3271,-1.9762,1388.687],[28.3384,-1.9891,1318.1482],[28.3503,-1.994,1206.3903],[28.3743,-1.9932,1283.791],[28.3823,-1.9779,1277.9608],[28.377,-1.9609,1302.519],[28.3502,-1.9476,1252.9404],[28.3539,-1.9399,1246.9646],[28.3593,-1.9347,1296.7227],[28.3624,-1.9277,1225.2622],[28.372,-1.9215,1227.7377],[28.4244,-1.8999,946.1281],[28.4334,-1.8994,892.5558],[28.4508,-1.8929,909.3687],[28.4498,-1.8805,883.6293],[28.4513,-1.8686,813.0493],[28.4497,-1.8651,817.2572],[28.4596,-1.8669,944.3035],[28.4717,-1.8747,1015.8767],[28.4816,-1.8767,1052.8542],[28.4987,-1.8787,1152.0511],[28.506,-1.8759,1151.7352],[28.5111,-1.8768,1183.2383],[28.5143,-1.8798,1207.7053],[28.5214,-1.8942,1209.4885],[28.5242,-1.8968,1261.889],[28.5416,-1.8969,1173.8658],[28.5585,-1.9046,1324.739],[28.5668,-1.9048,1550.5465],[28.5793,-1.8907,1664.5984],[28.5911,-1.8845,1720.5988],[28.6055,-1.8807,1815.6863],[28.6172,-1.8802,1837.7559],[28.63,-1.8836,1846.0342],[28.6376,-1.8905,1778.7946],[28.641,-1.8909,1767.3785],[28.6442,-1.8854,1744.4187],[28.6474,-1.8831,1746.4355],[28.6617,-1.8777,1832.9775],[28.6777,-1.8677,1786.4827],[28.7003,-1.8286,1721.578],[28.6963,-1.8165,1876.8499],[28.6957,-1.806,1582.5115],[28.6689,-1.7939,1346.3208],[28.6751,-1.77,1450.0211],[28.6659,-1.7473,1328.464],[28.6654,-1.7429,1246.5718],[28.6677,-1.7398,1289.4259],[28.6846,-1.7419,1536.5562],[28.6993,-1.7632,1304.6278],[28.7161,-1.7802,1319.0032],[28.7495,-1.7819,1705.0115],[28.7552,-1.7795,1760.5308],[28.7645,-1.7714,1857.5093],[28.7903,-1.7704,2157.1077],[28.8052,-1.7664,2174.2634],[28.8166,-1.7675,2160.1455],[28.8253,-1.7615,2318.2449],[28.8315,-1.753,2301.1938],[28.8327,-1.7447,2362.748],[28.8359,-1.7398,2355.1633],[28.8523,-1.7236,2603.5608],[28.8627,-1.707,2712.4548],[28.883,-1.7287,2350.9868],[28.9033,-1.7331,2643.2803],[28.917,-1.7422,2837.8733],[28.9356,-1.7449,2233.2412],[28.9692,-1.7417,1701.8464],[28.9795,-1.733,1775.9819],[28.9839,-1.7098,1868.2583],[28.9991,-1.6897,1646.291],[29.0117,-1.6828,1519.704],[29.0183,-1.6753,1461.0],[29.0189,-1.6736,1465.9104],[29.0168,-1.6699,1495.3855],[29.0179,-1.6673,1461.7904],[29.0251,-1.6603,1466.2167],[29.0259,-1.6561,1461.887],[29.0294,-1.6528,1469.8907],[29.0288,-1.6389,1464.012],[29.0309,-1.631,1476.5852],[29.033,-1.6295,1477.744],[29.0265,-1.626,1461.0],[29.0231,-1.6274,1492.15],[29.0215,-1.6205,1462.3259],[29.0258,-1.6178,1506.0856],[29.0332,-1.6208,1470.6787],[29.031,-1.617,1483.7063],[29.0318,-1.6158,1465.9878],[29.0347,-1.6173,1461.0],[29.0329,-1.6118,1473.4043],[29.0378,-1.6078,1464.1995],[29.0367,-1.6022,1464.0424],[29.0404,-1.5957,1468.3677],[29.0406,-1.5923,1464.7764],[29.046,-1.5905,1476.129],[29.0502,-1.5837,1462.9655],[29.0543,-1.5854,1461.629],[29.0576,-1.584,1466.6206],[29.0626,-1.586,1466.2144],[29.067,-1.5852,1463.0397],[29.0758,-1.5957,1461.9543],[29.0795,-1.5956,1464.5314],[29.0812,-1.5986,1463.5314],[29.0855,-1.5995,1467.381],[29.0876,-1.6031,1467.2885],[29.0872,-1.6099,1461.0],[29.0932,-1.6205,1461.0],[29.0969,-1.6199,1468.8239],[29.0993,-1.6238,1461.0],[29.1036,-1.6238,1463.7463],[29.11,-1.6276,1462.3555],[29.1124,-1.6274,1465.3005],[29.1152,-1.6303,1461.0],[29.118,-1.6299,1461.0],[29.1182,-1.6282,1461.0],[29.1268,-1.6303,1461.0],[29.1316,-1.6286,1484.7501],[29.1317,-1.6307,1465.2275],[29.1337,-1.6307,1468.818],[29.1349,-1.6402,1467.62],[29.1372,-1.6423,1464.5449],[29.141,-1.6431,1461.0],[29.1442,-1.6389,1472.0585],[29.1486,-1.6395,1467.0986],[29.1539,-1.6359,1507.9999],[29.1572,-1.6365,1461.0],[29.1584,-1.634,1467.7965],[29.1602,-1.6401,1461.5776],[29.1651,-1.6442,1461.5992],[29.1631,-1.6467,1461.0],[29.1636,-1.65,1461.0],[29.1659,-1.6512,1467.0977],[29.169,-1.6634,1461.0],[29.1791,-1.6687,1462.1208],[29.1897,-1.6689,1466.6144],[29.1946,-1.6707,1468.547],[29.2137,-1.6818,1461.9564],[29.2184,-1.683,1461.0],[29.2219,-1.6815,1467.6718],[29.2238,-1.6836,1467.9275],[29.2216,-1.6867,1463.1514],[29.2265,-1.6863,1461.0],[29.2263,-1.6879,1461.0],[29.2298,-1.6911,1471.6409],[29.2309,-1.6962,1462.8912],[29.2352,-1.6972,1462.4751],[29.2396,-1.7006,1465.072],[29.2424,-1.7001,1461.8865],[29.2425,-1.7013,1461.0],[29.2443,-1.6988,1461.0],[29.2448,-1.6835,1514.9144],[29.2466,-1.6842,1519.3213],[29.2476,-1.6821,1523.1722],[29.2445,-1.6816,1516.165],[29.2435,-1.6688,1536.7183],[29.2507,-1.6696,1552.9337],[29.2522,-1.663,1577.1445]]],
[[[29.5964,-1.3875,3346.9998],[29.5996,-1.3922,3106.4204],[29.6009,-1.3912,3145.0581],[29.6016,-1.3873,3235.0005],[29.5964,-1.3875,3346.9998]]],
[[[29.9583,0.4071,4195.7959],[29.9595,0.4074,4195.7959],[29.9621,0.4098,4271.5444],[29.9584,0.4072,4195.7959],[29.9583,0.4071,4195.7959]]]]}
,"properties": {"GID_1": "COD.19_1","GID_0": "COD","country": "DemocraticRepublicoftheCongo","province": "Nord-Kivu","VARNAME_1": "NA","NL_NAME_1": "NA","TYPE_1": "Province","ENGTYPE_1": "Province","CC_1": "NA","HASC_1": "CD.NK","ISO_1": "CD-NK","name": "Nord-Kivu.province","area_km2": 58962.5,"hist_schema_id": "Elevation0-9000","hist_area_km2": {"550": 15.35,"575": 205.6,"600": 689.28,"625": 967.22,"650": 1317.36,"675": 888.49,"700": 843.0,"725": 1028.8,"750": 1323.56,"775": 1749.88,"800": 1665.67,"825": 1564.46,"850": 1564.35,"875": 1585.14,"900": 3363.11,"925": 2059.29,"950": 1916.06,"975": 1969.17,"1000": 1988.58,"1025": 1948.08,"1050": 1811.43,"1075": 1597.58,"1100": 1415.25,"1125": 1358.35,"1150": 1254.45,"1175": 1085.54,"1200": 931.46,"1225": 834.51,"1250": 774.85,"1275": 662.02,"1300": 597.41,"1325": 556.73,"1350": 521.65,"1375": 494.31,"1400": 474.04,"1425": 449.33,"1450": 452.95,"1475": 481.12,"1500": 492.17,"1525": 509.13,"1550": 532.58,"1575": 552.74,"1600": 531.14,"1625": 532.35,"1650": 526.17,"1675": 519.82,"1700": 566.09,"1725": 626.96,"1750": 701.8,"1775": 668.27,"1800": 590.25,"1825": 568.48,"1850": 572.39,"1875": 535.93,"1900": 447.01,"1925": 381.75,"1950": 328.31,"1975": 297.52,"2000": 288.98,"2025": 276.21,"2050": 246.24,"2075": 235.87,"2100": 224.32,"2125": 221.06,"2150": 219.6,"2175": 205.08,"2200": 180.62,"2225": 152.84,"2250": 135.61,"2275": 125.6,"2300": 112.86,"2325": 109.55,"2350": 104.95,"2375": 100.4,"2400": 96.28,"2425": 90.26,"2450": 80.91,"2475": 75.83,"2500": 67.45,"2525": 55.14,"2550": 47.65,"2575": 43.25,"2600": 41.55,"2625": 36.04,"2650": 35.47,"2675": 30.78,"2700": 27.83,"2725": 24.63,"2750": 20.65,"2775": 20.92,"2800": 19.5,"2825": 16.7,"2850": 14.12,"2875": 12.4,"2900": 9.9,"2925": 8.99,"2950": 10.03,"2975": 7.84,"3000": 8.03,"3025": 7.46,"3050": 7.42,"3075": 7.65,"3100": 6.74,"3125": 7.04,"3150": 6.78,"3175": 6.78,"3200": 6.93,"3225": 6.11,"3250": 6.44,"3275": 6.06,"3300": 5.94,"3325": 5.68,"3350": 5.55,"3375": 4.88,"3400": 4.96,"3425": 4.81,"3450": 4.35,"3475": 4.32,"3500": 4.66,"3525": 3.82,"3550": 4.22,"3575": 4.05,"3600": 4.09,"3625": 4.2,"3650": 3.29,"3675": 3.41,"3700": 3.41,"3725": 3.39,"3750": 3.2,"3775": 2.71,"3800": 3.24,"3825": 3.56,"3850": 2.95,"3875": 3.14,"3900": 3.39,"3925": 2.84,"3950": 2.54,"3975": 3.16,"4000": 2.73,"4025": 2.99,"4050": 2.4,"4075": 2.5,"4100": 2.4,"4125": 2.31,"4150": 2.08,"4175": 2.44,"4200": 2.52,"4225": 2.01,"4250": 2.04,"4275": 2.12,"4300": 1.72,"4325": 2.06,"4350": 1.59,"4375": 1.63,"4400": 1.72,"4425": 1.38,"4450": 1.31,"4475": 1.02,"4500": 0.95,"4525": 0.91,"4550": 0.59,"4575": 0.47,"4600": 0.68,"4625": 0.53,"4650": 0.61,"4700": 0.55}}}