{"type":"Feature","properties":{"GID_2":"COD.25.6_1","GID_0":"COD","country":"DemocraticRepublicoftheCongo","GID_1":"COD.25_1","province":"Tshopo","NL_NAME_1":"NA","county":"Isangi(ville)","VARNAME_2":"NA","NL_NAME_2":"NA","TYPE_2":"Ville","ENGTYPE_2":"Town","CC_2":"NA","HASC_2":"NA","name":"Isangi(ville).county"},
"geometry":{"type": "MultiPolygon","coordinates": [[[[24.2501,0.754,380.5474],[24.2656,0.773,377.1591],[24.2535,0.7779,385.9341],[24.2405,0.7905,376.8076],[24.236,0.7878,375.3455],[24.2303,0.7784,391.548],[24.2317,0.7648,377.7595],[24.236,0.7554,376.2651],[24.247,0.7517,372.1365],[24.2501,0.754,380.5474]]]]}}