{"type": "Feature","bbox": [23.4165,-6.7714,23.8444,-6.1581],"geometry": {"type": "MultiPolygon","coordinates": [[[[23.7982,-6.2401,532.8559],[23.7908,-6.2449,552.7202],[23.7845,-6.2573,563.5643],[23.7761,-6.2651,607.0112],[23.7723,-6.2678,608.5651],[23.7615,-6.2687,623.3911],[23.7511,-6.2611,617.7791],[23.7352,-6.2445,621.4822],[23.7318,-6.2386,633.1763],[23.7299,-6.2309,620.8508],[23.73,-6.2099,613.4964],[23.7356,-6.2052,607.8946],[23.7125,-6.2005,582.871],[23.6987,-6.1894,566.3381],[23.6868,-6.1581,579.658],[23.6726,-6.1581,514.1019],[23.6682,-6.1599,515.2092],[23.656,-6.1705,515.9236],[23.6457,-6.1725,516.8571],[23.631,-6.1723,529.3865],[23.6243,-6.1844,518.7013],[23.6151,-6.1957,525.5188],[23.6137,-6.2053,533.865],[23.6103,-6.2127,530.8983],[23.6028,-6.2214,526.3761],[23.5994,-6.2319,523.5579],[23.5937,-6.2327,525.4269],[23.5906,-6.228,527.947],[23.5838,-6.2297,525.3293],[23.5833,-6.2357,525.9996],[23.5782,-6.2478,538.3245],[23.5893,-6.247,551.999],[23.5919,-6.2522,524.6532],[23.5863,-6.2542,524.8038],[23.5826,-6.259,525.2169],[23.5762,-6.2574,529.1661],[23.5718,-6.2658,526.9613],[23.5679,-6.289,544.8463],[23.5704,-6.3062,532.1136],[23.5679,-6.3111,548.4992],[23.569,-6.3142,527.9387],[23.5764,-6.3188,556.8623],[23.5771,-6.3207,553.6022],[23.5701,-6.3266,556.0748],[23.5659,-6.3358,535.7657],[23.5593,-6.3394,564.5717],[23.5598,-6.3412,565.7269],[23.5676,-6.3414,534.5093],[23.5697,-6.3455,531.9647],[23.5678,-6.3506,539.3786],[23.5625,-6.3554,537.4529],[23.5577,-6.371,558.0511],[23.5519,-6.3728,566.9926],[23.5462,-6.3859,561.7823],[23.54,-6.3917,547.4409],[23.5404,-6.3956,539.4668],[23.5452,-6.4009,545.1793],[23.5395,-6.4066,571.0287],[23.5353,-6.4165,547.2594],[23.5326,-6.419,547.1715],[23.531,-6.4186,553.2743],[23.5294,-6.4073,568.555],[23.5245,-6.4068,546.2115],[23.5204,-6.4034,558.2547],[23.513,-6.4034,553.1822],[23.5133,-6.412,565.8712],[23.5199,-6.4196,548.8379],[23.5181,-6.4232,558.3669],[23.5218,-6.4414,571.4246],[23.5202,-6.4421,574.4673],[23.516,-6.4397,575.3699],[23.511,-6.4411,570.5652],[23.5046,-6.4404,594.0506],[23.5006,-6.4479,585.7115],[23.4981,-6.4486,585.7007],[23.4891,-6.441,570.6782],[23.4873,-6.4376,571.1512],[23.4839,-6.4169,587.2863],[23.4793,-6.4134,576.5586],[23.4718,-6.4156,583.1505],[23.4655,-6.4152,601.259],[23.4613,-6.42,589.1943],[23.4625,-6.4277,578.3846],[23.4663,-6.4304,572.9249],[23.4688,-6.4359,574.6074],[23.4661,-6.4522,603.8636],[23.4617,-6.4564,624.5538],[23.45,-6.4596,617.1349],[23.4482,-6.4649,631.4322],[23.4504,-6.4718,630.5685],[23.447,-6.4922,617.0319],[23.4476,-6.5058,628.6978],[23.4447,-6.5129,645.7692],[23.4462,-6.5221,624.7869],[23.4398,-6.5446,648.3726],[23.4409,-6.5474,642.6807],[23.4464,-6.5462,631.6299],[23.4467,-6.549,634.4159],[23.4393,-6.5561,653.222],[23.4342,-6.5678,676.011],[23.4303,-6.5704,661.0142],[23.4276,-6.5763,675.2458],[23.4211,-6.5807,671.4161],[23.4167,-6.5809,673.8186],[23.4165,-6.5846,660.42],[23.4197,-6.5906,643.6613],[23.42,-6.6012,659.5579],[23.4283,-6.6094,657.6729],[23.427,-6.6156,652.3365],[23.4316,-6.623,648.0034],[23.4341,-6.6416,677.6573],[23.4408,-6.6474,680.1605],[23.442,-6.6455,684.5074],[23.4461,-6.6448,697.3641],[23.4502,-6.6465,688.8814],[23.4578,-6.6566,687.5029],[23.4684,-6.6601,705.1215],[23.475,-6.666,722.2894],[23.4778,-6.6706,703.2666],[23.4805,-6.6854,723.4678],[23.4879,-6.6911,721.6492],[23.4957,-6.7063,758.1945],[23.5072,-6.7167,757.921],[23.5145,-6.718,771.0496],[23.5343,-6.7362,751.2118],[23.5421,-6.7412,756.8353],[23.5867,-6.7655,791.0278],[23.599,-6.7704,751.694],[23.6164,-6.7714,744.0822],[23.6193,-6.7693,749.7916],[23.6242,-6.7533,737.9912],[23.628,-6.7486,723.498],[23.6383,-6.7459,724.494],[23.6484,-6.7463,715.9734],[23.6691,-6.7434,680.6617],[23.6751,-6.7411,685.657],[23.6909,-6.7271,676.4651],[23.6954,-6.7266,672.4148],[23.702,-6.7299,647.625],[23.7047,-6.7483,693.0499],[23.7091,-6.7487,681.8562],[23.7374,-6.7278,632.3334],[23.7289,-6.7216,606.2109],[23.7279,-6.7192,638.1774],[23.7468,-6.6919,602.9094],[23.7551,-6.6754,596.0242],[23.7595,-6.6719,620.2388],[23.765,-6.6703,600.7389],[23.7719,-6.6731,591.0377],[23.7774,-6.6722,598.5639],[23.7857,-6.6672,591.3522],[23.7839,-6.6616,589.6665],[23.7788,-6.6563,619.2543],[23.7733,-6.654,629.3694],[23.7607,-6.6529,597.0005],[23.7565,-6.6508,602.9259],[23.763,-6.643,613.1048],[23.7577,-6.64,655.7712],[23.7466,-6.6402,588.7977],[23.7437,-6.6381,588.1565],[23.7402,-6.6315,591.4133],[23.7473,-6.625,639.1587],[23.7487,-6.6211,619.1283],[23.7471,-6.6156,637.4404],[23.7483,-6.6085,607.6064],[23.7455,-6.5947,597.6873],[23.7483,-6.5811,608.5411],[23.7557,-6.5839,613.6385],[23.7623,-6.5842,603.6489],[23.7674,-6.5809,584.4637],[23.7711,-6.5747,564.795],[23.7667,-6.5653,577.4647],[23.7704,-6.5529,580.732],[23.7697,-6.5465,583.1439],[23.7718,-6.5389,574.2349],[23.7776,-6.5251,572.5442],[23.7828,-6.5249,561.6166],[23.7861,-6.5223,575.6459],[23.7849,-6.5201,576.3844],[23.7753,-6.5171,561.3965],[23.7732,-6.5125,563.0673],[23.7668,-6.5108,571.8037],[23.7656,-6.5078,572.1432],[23.779,-6.4977,562.409],[23.7808,-6.4929,559.3177],[23.7803,-6.489,561.5345],[23.776,-6.4828,580.6403],[23.7764,-6.4787,577.7668],[23.787,-6.4791,560.03],[23.7928,-6.466,569.0083],[23.7969,-6.4637,566.6836],[23.7997,-6.4539,559.8625],[23.7972,-6.4481,632.7108],[23.7985,-6.4454,624.0259],[23.8031,-6.444,630.1027],[23.8052,-6.4396,622.1068],[23.8052,-6.4362,570.376],[23.7986,-6.4235,556.8806],[23.7914,-6.4168,597.8883],[23.7935,-6.4125,557.8785],[23.7942,-6.3969,597.4448],[23.796,-6.3936,610.3776],[23.7993,-6.3941,575.9271],[23.8075,-6.4033,547.8031],[23.8133,-6.4035,559.3337],[23.8151,-6.4012,545.3538],[23.814,-6.3978,552.3047],[23.8087,-6.3939,608.9003],[23.8082,-6.3904,583.6907],[23.8393,-6.3677,541.3433],[23.8432,-6.3695,538.0],[23.8425,-6.3633,540.938],[23.8444,-6.347,540.2427],[23.843,-6.3413,537.0],[23.8315,-6.3291,539.4571],[23.8248,-6.3171,572.2457],[23.8159,-6.3127,545.887],[23.8085,-6.3136,538.0912],[23.8044,-6.3104,536.2605],[23.8016,-6.2978,597.2935],[23.8111,-6.2865,540.8438],[23.8168,-6.2658,582.3499],[23.829,-6.2638,534.5],[23.8352,-6.2597,535.2285],[23.843,-6.2477,533.5],[23.8403,-6.2442,538.1418],[23.832,-6.2445,534.5415],[23.8265,-6.2389,573.0443],[23.8235,-6.2385,579.1779],[23.8164,-6.2447,535.3447],[23.7982,-6.2401,532.8559]],
[[23.6652,-6.4966,831.0341],[23.6558,-6.4976,807.3724],[23.6493,-6.4959,815.6371],[23.6415,-6.4914,752.9498],[23.638,-6.4866,733.3936],[23.6402,-6.4768,741.4756],[23.643,-6.4717,723.7299],[23.6552,-6.4671,745.5322],[23.6632,-6.4677,705.2749],[23.6703,-6.4725,661.4344],[23.6723,-6.4821,694.6924],[23.6704,-6.492,735.4437],[23.6652,-6.4966,831.0341]]]]}
,"properties": {"GID_2": "COD.8.8_1","GID_0": "COD","country": "DemocraticRepublicoftheCongo","GID_1": "COD.8_1","province": "Kasaï-Oriental","NL_NAME_1": "NA","county": "Tshilenge","VARNAME_2": "NA","NL_NAME_2": "NA","TYPE_2": "Territoire","ENGTYPE_2": "Territory","CC_2": "NA","HASC_2": "NA","name": "Tshilenge.county","area_km2": 1872.621,"hist_schema_id": "Elevation0-9000","hist_area_km2": {"525": 26.577,"550": 55.339,"575": 102.026,"600": 167.629,"625": 242.808,"650": 282.881,"675": 308.502,"700": 282.332,"725": 235.778,"750": 111.653,"775": 38.941,"800": 15.921,"825": 2.233}}}