{"type":"Feature","properties":{"GID_2":"COD.24.7_1","GID_0":"COD","country":"DemocraticRepublicoftheCongo","GID_1":"COD.24_1","province":"Tanganyika","NL_NAME_1":"NA","county":"Manono","VARNAME_2":"NA","NL_NAME_2":"NA","TYPE_2":"Territoire","ENGTYPE_2":"Territory","CC_2":"NA","HASC_2":"NA","name":"Manono.county"},
"geometry":{"type": "MultiPolygon","coordinates": [[[[27.9843,-8.361,1046.7002],[27.9906,-8.3639,1062.2332],[27.9956,-8.3721,1090.833],[28.0058,-8.3749,1082.4524],[28.0208,-8.3858,1097.2202],[28.0301,-8.4001,1124.9185],[28.0431,-8.4065,1148.5867],[28.0554,-8.4077,1171.2695],[28.0624,-8.4123,1190.825],[28.0705,-8.412,1211.3519],[28.0814,-8.406,1272.4009],[28.0893,-8.4039,1356.9434],[28.0729,-8.3642,1422.9426],[28.0627,-8.3479,1328.3645],[28.0663,-8.3436,1348.2445],[28.0838,-8.3557,1426.1995],[28.0977,-8.3593,1372.2914],[28.108,-8.3418,1359.0859],[28.1153,-8.3381,1339.1708],[28.1317,-8.3369,1306.1348],[28.1613,-8.3167,1292.2725],[28.1646,-8.3084,1301.101],[28.1749,-8.2971,1310.1024],[28.1859,-8.2788,1322.075],[28.2033,-8.2744,1364.2046],[28.2198,-8.2544,1352.8074],[28.2319,-8.2489,1027.0718],[28.2621,-8.2537,1069.0979],[28.2638,-8.281,1265.7783],[28.2722,-8.284,1283.3673],[28.3031,-8.2803,1260.5759],[28.3128,-8.2688,1257.0443],[28.3383,-8.2451,1333.0234],[28.3918,-8.1996,1348.4581],[28.4082,-8.1833,1328.0303],[28.4324,-8.1675,1400.9536],[28.4404,-8.1535,1327.0857],[28.438,-8.1365,1199.1147],[28.4308,-8.1232,1191.259],[28.4261,-8.1008,1249.714],[28.4294,-8.048,1153.6783],[28.4397,-8.0414,1132.1385],[28.4561,-8.0268,1212.2452],[28.4798,-8.0092,1289.4025],[28.5263,-7.9066,782.4771],[28.53,-7.8915,1211.073],[28.5261,-7.8818,1138.3872],[28.5038,-7.8669,1062.6648],[28.4839,-7.8645,999.9642],[28.4709,-7.8597,1063.2611],[28.432,-7.8382,999.6042],[28.4252,-7.8106,1125.7299],[28.4047,-7.7994,1087.3113],[28.3781,-7.7882,1016.9818],[28.3606,-7.7864,1120.4501],[28.3558,-7.7755,894.9446],[28.368,-7.7549,1010.6222],[28.3972,-7.7221,1380.0662],[28.407,-7.6942,1415.3873],[28.4131,-7.6875,1153.7045],[28.4288,-7.6862,1144.8955],[28.4415,-7.6881,908.0995],[28.461,-7.6793,904.4641],[28.467,-7.6683,924.0929],[28.4736,-7.6678,925.6555],[28.4757,-7.6648,921.2482],[28.4706,-7.6582,926.6609],[28.4715,-7.6556,940.8336],[28.4593,-7.6456,1010.3945],[28.4491,-7.628,1073.798],[28.4335,-7.608,1123.5991],[28.399,-7.6031,1146.0791],[28.3954,-7.5922,1172.7272],[28.3967,-7.5813,1327.7676],[28.4224,-7.5266,1345.9054],[28.4363,-7.5181,1243.0249],[28.449,-7.5169,1095.8259],[28.4677,-7.5333,1204.4597],[28.475,-7.5278,1110.5192],[28.4835,-7.5253,1073.699],[28.4973,-7.5326,1133.6888],[28.5215,-7.5326,1171.9703],[28.5379,-7.5277,1067.2881],[28.5561,-7.518,1148.3927],[28.5688,-7.5174,1179.781],[28.5881,-7.5228,1193.3438],[28.5966,-7.5216,1205.3649],[28.6075,-7.5155,1171.2406],[28.6353,-7.5124,1276.9553],[28.6486,-7.5209,1266.2981],[28.6703,-7.5172,1363.7793],[28.6794,-7.5118,1371.6694],[28.679,-7.4863,1305.0396],[28.6704,-7.4698,1219.5825],[28.6681,-7.468,1220.1384],[28.658,-7.4375,1156.047],[28.6518,-7.4304,1100.3468],[28.6512,-7.4077,1078.6938],[28.6466,-7.4024,1037.6207],[28.6451,-7.3825,1018.6361],[28.6471,-7.3756,1025.3911],[28.6457,-7.3703,1014.7596],[28.6628,-7.3727,1025.0311],[28.6687,-7.3647,1039.8442],[28.6745,-7.3658,1065.0925],[28.6758,-7.3616,1065.8864],[28.6797,-7.3623,1079.8345],[28.6809,-7.3584,1082.4014],[28.6839,-7.3575,1093.5093],[28.6926,-7.3629,1147.3508],[28.7041,-7.3636,1164.5413],[28.7094,-7.3608,1164.209],[28.7145,-7.3603,1177.6927],[28.7246,-7.3506,1191.178],[28.7287,-7.3511,1194.2693],[28.7378,-7.3368,1232.7162],[28.7446,-7.3064,1258.9263],[28.744,-7.2986,1240.4366],[28.7404,-7.2943,1242.5389],[28.7163,-7.2798,1171.0886],[28.6921,-7.2713,1092.0229],[28.6867,-7.2658,1054.2939],[28.6808,-7.2506,1045.6473],[28.6579,-7.2276,1057.9016],[28.6422,-7.2148,1037.7876],[28.6391,-7.1978,909.4279],[28.6469,-7.195,914.197],[28.6557,-7.1998,939.4199],[28.6603,-7.1984,927.1805],[28.6665,-7.2,928.5812],[28.674,-7.1965,992.0953],[28.6761,-7.1986,982.7714],[28.6729,-7.2045,940.0564],[28.6874,-7.2068,961.6309],[28.6907,-7.21,989.5313],[28.699,-7.2079,963.6953],[28.7043,-7.2134,963.4396],[28.7236,-7.2146,1002.3061],[28.7349,-7.2082,1024.6812],[28.7445,-7.2076,1051.4207],[28.7472,-7.1994,1074.7672],[28.7509,-7.1984,1054.4567],[28.7555,-7.2028,1072.0334],[28.7611,-7.2011,1072.4661],[28.7694,-7.2045,1100.4758],[28.7767,-7.1819,1195.4761],[28.7737,-7.1746,1236.4248],[28.7646,-7.1643,1120.1276],[28.7508,-7.1564,1060.5059],[28.7351,-7.154,1037.8064],[28.7229,-7.1607,1052.3347],[28.7139,-7.1589,1037.8589],[28.703,-7.1504,1027.2908],[28.6831,-7.1468,993.8817],[28.6608,-7.1358,946.6362],[28.6389,-7.038,957.012],[28.6353,-7.0283,986.1116],[28.6191,-7.0016,993.9105],[28.6211,-6.9803,1001.8912],[28.6296,-6.9669,915.3687],[28.6246,-6.9325,824.2564],[28.6147,-6.9245,863.0049],[28.6128,-6.9245,871.5524],[28.6108,-6.9335,815.8335],[28.6007,-6.9384,836.3445],[28.5812,-6.9362,823.1501],[28.5639,-6.9166,831.5641],[28.564,-6.902,860.3712],[28.5683,-6.885,916.0674],[28.5699,-6.8211,907.45],[28.5818,-6.7214,921.0726],[28.5965,-6.697,961.5438],[28.6165,-6.6763,988.3171],[28.6287,-6.6696,1068.7074],[28.6474,-6.6629,1084.7806],[28.6761,-6.6106,1203.7192],[28.6871,-6.5856,1167.811],[28.6866,-6.5747,1149.4882],[28.6123,-6.565,1138.5358],[28.5718,-6.5614,1070.0486],[28.5591,-6.5657,1045.4521],[28.5403,-6.5761,1022.3679],[28.5106,-6.5895,955.0379],[28.4773,-6.5816,850.1757],[28.4526,-6.5701,896.7906],[28.4339,-6.5689,889.1235],[28.4133,-6.5628,872.3525],[28.4043,-6.5549,866.8953],[28.3934,-6.5525,839.3853],[28.3638,-6.558,768.1484],[28.3583,-6.5629,783.8101],[28.3583,-6.5708,783.5623],[28.3612,-6.5836,787.2983],[28.3672,-6.5957,802.7354],[28.3793,-6.5951,803.2974],[28.3847,-6.5975,828.994],[28.3877,-6.6042,869.8658],[28.3887,-6.648,785.9819],[28.3687,-6.6669,788.8029],[28.3447,-6.6861,740.5428],[28.3107,-6.7092,801.8494],[28.3001,-6.7071,796.319],[28.2701,-6.6695,747.5969],[28.2589,-6.6634,742.7563],[28.2375,-6.6592,727.8959],[28.2378,-6.6555,725.4075],[28.2348,-6.6488,733.6796],[28.2298,-6.6197,713.2245],[28.2273,-6.6128,717.7966],[28.2183,-6.6131,711.4325],[28.2128,-6.6149,722.0466],[28.199,-6.6233,777.145],[28.191,-6.626,746.7624],[28.1786,-6.6293,766.949],[28.1655,-6.6305,727.9694],[28.1574,-6.6289,752.2178],[28.1411,-6.6207,725.2643],[28.1328,-6.6192,733.0858],[28.115,-6.6094,718.8021],[28.0669,-6.6017,729.8796],[28.0628,-6.5988,704.9923],[28.0538,-6.596,709.7367],[28.0374,-6.5812,691.1533],[28.0173,-6.5518,676.6638],[28.0138,-6.5422,727.369],[28.0126,-6.5309,695.423],[28.0149,-6.5215,720.1969],[28.0217,-6.5086,711.1774],[28.0019,-6.5016,683.9126],[27.9979,-6.5019,703.1202],[27.9891,-6.5077,702.1379],[27.9681,-6.5308,748.9916],[27.9496,-6.5457,746.2861],[27.9342,-6.5534,797.2994],[27.9181,-6.5558,742.1457],[27.8888,-6.5534,797.1074],[27.8493,-6.5413,742.8129],[27.8317,-6.5404,720.51],[27.8036,-6.5526,798.854],[27.7685,-6.5593,779.2714],[27.7398,-6.5548,729.9601],[27.725,-6.5484,729.0345],[27.7032,-6.5457,748.7452],[27.6672,-6.5467,749.1057],[27.6494,-6.5507,722.7325],[27.6373,-6.5568,741.932],[27.6266,-6.5668,776.1578],[27.5956,-6.604,706.1891],[27.5638,-6.6195,696.858],[27.5464,-6.6209,668.2704],[27.5449,-6.6303,661.0739],[27.5337,-6.6462,656.9922],[27.5332,-6.6543,652.4333],[27.5198,-6.6911,638.0404],[27.5161,-6.6927,651.0652],[27.5077,-6.7098,625.0211],[27.4854,-6.6923,671.0519],[27.4437,-6.6799,653.8009],[27.3704,-6.6526,658.4014],[27.3303,-6.6286,652.5544],[27.2895,-6.6347,629.4483],[27.2519,-6.6433,623.5377],[27.2145,-6.6409,671.2386],[27.1976,-6.6275,667.8984],[27.1819,-6.6227,634.3469],[27.1093,-6.6228,583.1992],[27.038,-6.6277,592.968],[27.0174,-6.6338,598.8898],[26.9698,-6.6399,553.0],[26.9712,-6.5663,557.5981],[26.9789,-6.5378,558.3033],[26.9835,-6.5277,554.084],[26.9841,-6.4925,556.2688],[26.9881,-6.47,555.6315],[26.9844,-6.4516,553.5641],[26.9885,-6.4509,554.3678],[26.9952,-6.4534,553.6224],[26.9998,-6.4518,554.1387],[26.995,-6.4479,553.6678],[26.9807,-6.447,553.9421],[26.974,-6.4344,553.827],[26.9552,-6.4351,554.4656],[26.9443,-6.4306,554.2567],[26.9333,-6.4299,564.0737],[26.9303,-6.4322,563.2811],[26.9326,-6.4359,555.2748],[26.9308,-6.4396,555.2757],[26.9179,-6.4401,558.7519],[26.9133,-6.4447,555.5476],[26.9057,-6.4415,566.797],[26.8966,-6.4447,562.753],[26.8899,-6.4429,567.3245],[26.8805,-6.448,556.6364],[26.8777,-6.4528,557.0903],[26.8734,-6.4535,556.589],[26.8644,-6.4519,557.0502],[26.8559,-6.4545,557.5379],[26.8412,-6.4474,558.3479],[26.8278,-6.4486,558.5909],[26.8255,-6.4518,558.5182],[26.8212,-6.4514,559.0394],[26.8166,-6.4477,558.96],[26.8019,-6.4498,560.3318],[26.7913,-6.4604,560.5513],[26.7881,-6.459,564.5271],[26.7817,-6.4595,566.3986],[26.7789,-6.4577,573.3718],[26.7619,-6.4641,573.5609],[26.7548,-6.4761,570.3935],[26.7516,-6.475,571.6002],[26.7472,-6.4704,570.0952],[26.7421,-6.4706,570.8959],[26.7346,-6.4773,572.3901],[26.7206,-6.4856,576.5732],[26.7093,-6.499,573.9131],[26.6985,-6.5034,569.8203],[26.688,-6.5117,567.5307],[26.6853,-6.5193,567.1138],[26.6586,-6.5375,574.3228],[26.6568,-6.5474,568.8412],[26.6507,-6.5628,569.9765],[26.6378,-6.5725,579.8021],[26.6406,-6.584,572.4948],[26.6434,-6.5869,573.5074],[26.6438,-6.5959,573.8991],[26.6342,-6.6065,582.1368],[26.6265,-6.6237,573.9482],[26.6196,-6.6265,578.4933],[26.6186,-6.6295,578.0153],[26.6203,-6.6348,576.4119],[26.618,-6.6488,575.2053],[26.615,-6.6534,575.8378],[26.6056,-6.6594,587.5798],[26.5916,-6.665,591.2283],[26.5765,-6.674,577.5488],[26.5746,-6.6793,578.9444],[26.5615,-6.6775,579.0521],[26.5604,-6.6724,579.3796],[26.5569,-6.6706,580.9481],[26.5209,-6.6304,624.9307],[26.5202,-6.6265,604.2869],[26.5253,-6.6155,595.9473],[26.5239,-6.6123,600.465],[26.5165,-6.6058,596.1007],[26.5071,-6.6052,608.9019],[26.5004,-6.5974,598.4515],[26.4935,-6.5955,600.3784],[26.4741,-6.5859,609.067],[26.4606,-6.5832,604.9235],[26.4419,-6.5819,606.7568],[26.4058,-6.5845,623.0239],[26.3766,-6.5843,660.4626],[26.3514,-6.5889,656.8891],[26.344,-6.5908,653.1696],[26.3167,-6.6076,640.8375],[26.3056,-6.6109,655.0332],[26.296,-6.6116,672.8503],[26.2875,-6.6079,696.0895],[26.2691,-6.6079,669.6124],[26.2571,-6.6158,667.9427],[26.2496,-6.6165,697.1871],[26.2279,-6.6128,692.6938],[26.2272,-6.6149,684.4221],[26.2309,-6.619,675.5948],[26.2289,-6.6216,695.6176],[26.2213,-6.6204,679.8109],[26.205,-6.6301,685.8986],[26.1967,-6.6301,714.8235],[26.1937,-6.6324,725.3312],[26.1928,-6.6403,701.5537],[26.1891,-6.6423,724.8075],[26.182,-6.6444,724.8344],[26.1769,-6.6414,762.4727],[26.1691,-6.6408,816.8954],[26.1654,-6.6387,802.1555],[26.1562,-6.6385,829.0284],[26.136,-6.6438,850.9073],[26.1284,-6.6486,849.3521],[26.1142,-6.6494,852.541],[26.1048,-6.6537,866.0319],[26.0811,-6.6712,865.2949],[26.071,-6.6752,866.3263],[26.0404,-6.675,896.521],[26.028199999999998,-6.6771,906.1385],[26.0117,-6.6828,899.5486],[26.0062,-6.7021,908.9636],[26.0105,-6.7114,925.0017],[26.0317,-6.7129,961.0563],[26.0343,-6.7235,993.6028],[26.0322,-6.739,936.2872],[26.037,-6.7508,896.3108],[26.0604,-6.7595,887.3746],[26.0854,-6.7637,936.5243],[26.0908,-6.7896,898.0082],[26.1009,-6.7884,915.4958],[26.1129,-6.7932,853.4846],[26.1205,-6.7914,793.0396],[26.1258,-6.7946,771.9728],[26.1336,-6.7953,748.8834],[26.1348,-6.8138,764.0436],[26.1118,-6.8141,809.4314],[26.0949,-6.8108,833.7266],[26.0948,-6.8194,823.8376],[26.0867,-6.8359,957.736],[26.0798,-6.8425,940.591],[26.0816,-6.8543,952.1336],[26.0756,-6.863,975.2755],[26.045,-6.871,1020.5129],[26.0382,-6.8793,1016.7391],[26.0408,-6.8885,1012.6743],[26.0525,-6.9,998.1925],[26.0728,-6.9058,976.213],[26.1086,-6.9106,771.0308],[26.1134,-6.9157,754.6439],[26.1139,-6.9215,743.1865],[26.1092,-6.93,759.6914],[26.1023,-6.9353,757.515],[26.0943,-6.9474,805.8546],[26.1016,-6.96,794.3564],[26.1167,-6.9619,771.6472],[26.1503,-6.962,870.8862],[26.1763,-6.9442,882.1839],[26.2035,-6.9423,793.9227],[26.2168,-6.9429,766.0344],[26.2204,-6.9514,725.9097],[26.2207,-6.9684,769.9604],[26.2181,-6.9783,773.364],[26.2149,-6.9808,769.5352],[26.2132,-6.9865,785.0853],[26.2239,-7.0038,780.6274],[26.2261,-7.0139,757.2056],[26.2348,-7.0308,724.4129],[26.2698,-7.0439,890.863],[26.2789,-7.0432,786.3624],[26.287,-7.0366,742.6605],[26.2984,-7.013,713.7117],[26.315,-7.0212,686.727],[26.3388,-7.0437,674.8159],[26.363,-7.0503,662.7118],[26.3999,-7.0518,645.6296],[26.4134,-7.0452,628.8226],[26.4141,-7.0411,626.4103],[26.4191,-7.0369,626.832],[26.4338,-7.0387,637.7747],[26.4434,-7.0446,653.9222],[26.4857,-7.0618,659.5079],[26.4775,-7.0904,714.571],[26.4815,-7.1029,728.0106],[26.4755,-7.1171,712.9414],[26.4692,-7.1443,708.2533],[26.4572,-7.152,709.4718],[26.4072,-7.1605,650.9728],[26.3859,-7.21,649.322],[26.3855,-7.2164,654.7056],[26.3825,-7.2247,655.5259],[26.38,-7.227,659.6906],[26.3823,-7.2327,660.0923],[26.3816,-7.2375,660.1213],[26.378,-7.2431,658.179],[26.3768,-7.2619,672.5584],[26.381,-7.2624,663.3298],[26.3833,-7.2649,664.2883],[26.3828,-7.2669,667.1547],[26.3785,-7.2699,665.2009],[26.3716,-7.2835,666.3104],[26.3689,-7.295,669.2119],[26.3643,-7.301,674.8352],[26.3595,-7.3139,675.9413],[26.3526,-7.3242,678.2678],[26.3524,-7.3272,682.0884],[26.3729,-7.3743,708.9982],[26.3877,-7.37,728.986],[26.3962,-7.37,739.9667],[26.4177,-7.418,796.569],[26.424,-7.4189,816.2195],[26.4337,-7.4161,827.4563],[26.4383,-7.4076,797.803],[26.4362,-7.3988,790.9788],[26.4284,-7.3882,777.5064],[26.4219,-7.3739,758.4645],[26.4219,-7.363,731.827],[26.4277,-7.3587,746.8912],[26.4346,-7.3578,739.3109],[26.444,-7.3621,753.9911],[26.4497,-7.3669,761.1674],[26.4545,-7.3724,780.7893],[26.4608,-7.3842,851.5263],[26.4714,-7.4328,907.7351],[26.4755,-7.4335,927.5515],[26.4792,-7.4298,838.7089],[26.4792,-7.4259,819.764],[26.4822,-7.4255,797.37],[26.4833,-7.4225,787.7354],[26.484,-7.4163,771.4016],[26.4909,-7.4094,753.0757],[26.4957,-7.4073,745.9598],[26.498,-7.4087,755.7393],[26.5105,-7.4084,736.9109],[26.5158,-7.4132,734.7383],[26.5211,-7.4148,736.3817],[26.525,-7.4178,733.8868],[26.5273,-7.4226,722.8983],[26.5285,-7.4437,695.0015],[26.5306,-7.4504,689.6816],[26.5345,-7.4582,684.6318],[26.5398,-7.463,691.9694],[26.5493,-7.4662,688.5966],[26.5771,-7.4689,674.9801],[26.5864,-7.4771,666.0923],[26.5873,-7.4808,656.3917],[26.6124,-7.5,658.45],[26.6214,-7.5007,651.3497],[26.6304,-7.5083,646.0824],[26.6477,-7.5089,641.5934],[26.6511,-7.511,635.5345],[26.6497,-7.5191,670.0309],[26.6511,-7.5394,655.2549],[26.6536,-7.5446,636.8398],[26.6611,-7.553,642.6953],[26.6713,-7.5472,628.1547],[26.6823,-7.549,626.266],[26.6855,-7.5463,630.5563],[26.6915,-7.5458,636.4702],[26.6991,-7.5375,638.922],[26.7011,-7.5331,625.8475],[26.6967,-7.5271,614.8777],[26.6988,-7.5228,614.0967],[26.7362,-7.5504,719.0881],[26.7449,-7.5504,656.1687],[26.7528,-7.5466,643.0485],[26.7637,-7.5353,626.8788],[26.7754,-7.5335,603.2563],[26.7943,-7.5397,583.6116],[26.803,-7.545,576.6882],[26.8083,-7.5512,575.229],[26.809,-7.5684,573.5282],[26.8111,-7.5757,581.2134],[26.8261,-7.5762,562.6927],[26.8266,-7.5807,567.0113],[26.823,-7.5883,571.7343],[26.8145,-7.5968,579.3522],[26.808,-7.626,571.364],[26.8372,-7.629,559.4542],[26.8483,-7.6285,562.335],[26.8656,-7.6312,569.3981],[26.8868,-7.6371,579.2665],[26.9061,-7.6376,587.171],[26.9248,-7.6414,617.3903],[26.9411,-7.6359,629.6273],[26.9496,-7.6349,647.4365],[26.9547,-7.6367,653.3273],[26.9556,-7.6257,647.8626],[26.9694,-7.6324,689.1901],[26.9972,-7.6367,686.2341],[27.0541,-7.6293,650.6915],[27.0879,-7.6347,653.4115],[27.14,-7.6219,633.126],[27.1908,-7.6152,679.0648],[27.215,-7.6146,700.2573],[27.2253,-7.6109,746.3962],[27.2223,-7.6067,736.6169],[27.2193,-7.5915,714.3699],[27.2255,-7.5593,676.4685],[27.2202,-7.546,668.9709],[27.219,-7.532,645.8544],[27.2252,-7.512,639.4288],[27.2277,-7.4956,640.9363],[27.2339,-7.486,633.2476],[27.2374,-7.491,630.2274],[27.2556,-7.4981,636.1802],[27.2602,-7.5064,639.249],[27.266,-7.5121,642.283],[27.2685,-7.521,643.9854],[27.2787,-7.5272,647.6965],[27.2805,-7.532,649.384],[27.2799,-7.5357,650.2035],[27.2854,-7.5414,649.4833],[27.3042,-7.5422,670.8179],[27.3194,-7.5386,705.3599],[27.3333,-7.5379,755.9064],[27.354,-7.5389,698.1027],[27.3563,-7.529,694.1559],[27.3627,-7.5187,684.6687],[27.3684,-7.5127,679.1887],[27.3811,-7.5087,668.91],[27.3889,-7.5018,666.0767],[27.3971,-7.5006,660.2242],[27.4029,-7.4967,656.2007],[27.4199,-7.4788,648.9316],[27.4291,-7.4776,639.7819],[27.4332,-7.4737,637.8363],[27.4394,-7.4725,633.3906],[27.4452,-7.4787,635.1143],[27.4443,-7.4837,641.1726],[27.4475,-7.489,637.4641],[27.4434,-7.4987,639.7961],[27.4441,-7.5046,645.4398],[27.4418,-7.5134,647.124],[27.4437,-7.5191,648.2115],[27.4428,-7.534,657.2097],[27.464,-7.5262,693.5977],[27.4978,-7.5195,659.3775],[27.5033,-7.5135,658.8113],[27.4998,-7.4849,637.5868],[27.5107,-7.4819,630.4618],[27.5289,-7.4849,649.9553],[27.553,-7.4988,699.4148],[27.5753,-7.5049,712.6754],[27.5862,-7.5127,715.1844],[27.594,-7.5206,706.6418],[27.5976,-7.5267,686.3473],[27.5975,-7.5346,670.194],[27.5861,-7.5606,655.7888],[27.5922,-7.5746,655.7175],[27.5949,-7.5771,656.3302],[27.615,-7.5837,666.3942],[27.6182,-7.5908,670.0345],[27.624,-7.5952,669.8665],[27.6278,-7.6159,676.7459],[27.6324,-7.6179,675.9209],[27.6504,-7.6406,687.3417],[27.6613,-7.6515,683.6173],[27.6667,-7.6678,690.0899],[27.6736,-7.6728,694.0344],[27.6415,-7.6911,765.3533],[27.6318,-7.7033,734.3641],[27.6268,-7.7348,775.5822],[27.6303,-7.7615,846.8529],[27.6301,-7.7858,815.7263],[27.6397,-7.8064,884.255],[27.692,-7.8658,966.0914],[27.7041,-7.8749,982.117],[27.724,-7.8785,933.675],[27.7343,-7.8779,918.0509],[27.7743,-7.8633,886.3871],[27.7895,-7.8432,877.2353],[27.8078,-7.8489,830.1989],[27.809,-7.8537,836.0359],[27.806,-7.8567,837.4586],[27.8061,-7.8643,842.862],[27.8093,-7.8668,848.5865],[27.8068,-7.8767,856.4059],[27.808,-7.8813,872.6403],[27.8481,-7.8882,884.0191],[27.8528,-7.9045,898.8062],[27.8514,-7.9093,910.0969],[27.8542,-7.9203,923.4584],[27.8453,-7.9392,956.5573],[27.8412,-7.9431,965.6356],[27.8415,-7.956,985.834],[27.8367,-7.9661,1015.405],[27.833,-7.9682,1018.4022],[27.828,-7.9856,1087.808],[27.8144,-8.0074,1155.1162],[27.8076,-8.0154,1198.2942],[27.7969,-8.0353,1270.0701],[27.7882,-8.0467,1319.1521],[27.7817,-8.0603,1358.9177],[27.7751,-8.0622,1341.6223],[27.7666,-8.0707,1340.004],[27.7449,-8.0859,1349.5021],[27.7396,-8.0954,1359.0143],[27.7375,-8.1071,1414.9607],[27.7305,-8.1174,1438.1799],[27.7253,-8.1191,1461.4418],[27.7088,-8.135,1489.184],[27.7087,-8.1471,1530.5696],[27.716,-8.1562,1504.7024],[27.7259,-8.1436,1484.2633],[27.7407,-8.1316,1398.0215],[27.7453,-8.1304,1401.9015],[27.7497,-8.131,1260.5479],[27.762,-8.1388,1189.2222],[27.7683,-8.1392,1166.1158],[27.7719,-8.1359,1157.3969],[27.8007,-8.1337,1226.7211],[27.8473,-8.1203,1009.5591],[27.8534,-8.1227,916.9126],[27.8375,-8.1445,1156.9597],[27.8193,-8.1615,1061.2786],[27.7932,-8.1755,1176.6169],[27.752,-8.2083,1321.3257],[27.7307,-8.2325,1375.9983],[27.7215,-8.2483,1415.3488],[27.7354,-8.2459,1363.6938],[27.7476,-8.2349,1346.5939],[27.7579,-8.2337,1327.301],[27.7609,-8.241,1316.2281],[27.7437,-8.2816,1433.2939],[27.7516,-8.287,1416.9453],[27.7637,-8.2792,1345.0354],[27.7737,-8.2695,1351.3599],[27.7766,-8.2639,1348.5753],[27.7846,-8.2362,1174.2997],[27.79,-8.2285,1123.8605],[27.802,-8.2173,1081.5928],[27.8073,-8.2062,1032.5781],[27.8187,-8.1977,1003.8068],[27.8272,-8.1851,960.4995],[27.840699999999998,-8.1812,953.9167],[27.8403,-8.2065,1004.8105],[27.837,-8.2277,1031.3168],[27.8325,-8.2335,1043.3591],[27.8339,-8.2463,1081.7913],[27.8515,-8.2445,1160.4878],[27.8745,-8.2511,1040.6379],[27.889,-8.2469,1061.6823],[27.8903,-8.242,1077.5679],[27.8981,-8.2457,1137.422],[27.9005,-8.2541,1268.0035],[27.9047,-8.2602,1189.585],[27.9107,-8.2626,1088.7842],[27.9603,-8.2723,985.9614],[27.9682,-8.2644,1045.0461],[27.9718,-8.2565,1007.7404],[27.9719,-8.2419,972.1606],[27.981,-8.228,905.4801],[27.9859,-8.2286,884.0706],[27.9881,-8.234,881.1641],[27.9837,-8.2432,887.4958],[27.986,-8.2584,897.6996],[27.9855,-8.2687,920.8019],[27.9908,-8.2787,925.3163],[27.9887,-8.2863,939.2062],[27.9895,-8.2918,942.6945],[27.9858,-8.3038,959.3561],[27.9773,-8.3164,997.6484],[27.9814,-8.3264,1006.6841],[27.9859,-8.3475,1034.6868],[27.9843,-8.361,1046.7002]],
[[27.4665,-7.3433,642.7854],[27.4485,-7.3545,611.8593],[27.39,-7.3399,676.5076],[27.3844,-7.3376,673.2554],[27.372,-7.3264,649.8307],[27.3653,-7.3073,622.5093],[27.3653,-7.2892,619.5337],[27.3755,-7.2521,622.4001],[27.3945,-7.2422,620.2225],[27.4096,-7.2137,613.597],[27.4214,-7.208,615.2706],[27.4395,-7.213,594.6371],[27.462,-7.2141,611.8267],[27.48,-7.2175,646.7474],[27.4924,-7.2287,668.6145],[27.5025,-7.2444,696.7872],[27.5104,-7.268,697.0618],[27.5104,-7.2804,654.7443],[27.507,-7.3017,690.5133],[27.4913,-7.3186,643.2916],[27.4812,-7.3332,680.2952],[27.4665,-7.3433,642.7854]]]]}}