{"type":"Feature","properties":{"GID_2":"COD.11.2_1","GID_0":"COD","country":"DemocraticRepublicoftheCongo","GID_1":"COD.11_1","province":"Kongo-Central","NL_NAME_1":"NA","county":"Boma","VARNAME_2":"NA","NL_NAME_2":"NA","TYPE_2":"Territoire","ENGTYPE_2":"Territory","CC_2":"NA","HASC_2":"NA","name":"Boma.county"},
"geometry":{"type": "MultiPolygon","coordinates": [[[[13.1006,-5.8786,2.5],[13.1061,-5.8762,6.4904],[13.1097,-5.8769,4.5369],[13.1105,-5.86,20.8445],[13.1044,-5.8289,135.6619],[13.1072,-5.7964,150.1581],[13.1144,-5.7709,191.3845],[13.1091,-5.7596,179.3239],[13.0332,-5.7635,53.6392],[12.9979,-5.7673,50.6312],[13.0,-5.8,87.8619],[12.9879,-5.8369,36.9376],[12.9848,-5.8571,2.2285],[12.9957,-5.859,2.0],[13.0051,-5.8557,3.0365],[13.0301,-5.8596,2.0],[13.0385,-5.8573,2.9071],[13.0587,-5.8614,2.5],[13.0619,-5.8607,10.6376],[13.0659,-5.8634,2.5],[13.0734,-5.8644,8.2355],[13.0832,-5.862,10.1074],[13.0933,-5.8663,3.0423],[13.1006,-5.8786,2.5]]]]}}