{"type": "Feature","bbox": [22.2465,-6.0437,22.684,-5.7481],"geometry": {"type": "MultiPolygon","coordinates": [[[[22.2465,-5.8539,497.6468],[22.2481,-5.8595,500.5697],[22.2543,-5.8664,495.1962],[22.2678,-5.8745,509.6042],[22.2712,-5.8848,511.8411],[22.2845,-5.8913,507.65],[22.2911,-5.8908,521.7242],[22.2971,-5.8978,514.1858],[22.3074,-5.8983,513.5638],[22.3198,-5.9255,515.1505],[22.3236,-5.9265,521.4124],[22.3303,-5.9251,520.3737],[22.3348,-5.929,518.1543],[22.3409,-5.9298,522.1901],[22.3428,-5.9396,525.6369],[22.3386,-5.9448,528.6476],[22.3384,-5.9478,523.4931],[22.3437,-5.952,524.0336],[22.3568,-5.9506,527.3482],[22.3581,-5.9522,527.2187],[22.3572,-5.9665,532.148],[22.3601,-5.9692,531.243],[22.369,-5.9704,533.4477],[22.3705,-5.9907,540.9443],[22.3716,-5.9921,538.8474],[22.3792,-5.9914,564.6111],[22.3822,-5.9942,546.6564],[22.3831,-5.999,551.5889],[22.3897,-6.0034,548.5],[22.392,-6.0087,553.6378],[22.3923,-6.0229,552.3173],[22.397,-6.031,563.7424],[22.4076,-6.0296,559.188],[22.4156,-6.026,574.6363],[22.4193,-6.0189,607.1366],[22.431,-6.0145,599.5384],[22.4345,-6.0106,627.55],[22.435,-6.0058,613.2374],[22.4485,-5.9992,636.6022],[22.4531,-5.9992,628.6254],[22.4559,-6.0022,606.6455],[22.469,-6.0015,615.6996],[22.4798,-6.0075,617.478],[22.4936,-6.012,620.0552],[22.5,-6.0122,622.9887],[22.5257,-6.0024,627.2064],[22.5345,-6.0056,642.8696],[22.5515,-6.0159,658.0061],[22.559,-6.0241,683.0886],[22.5658,-6.029,696.5112],[22.5755,-6.0401,684.593],[22.5768,-6.0435,690.615],[22.5853,-6.0437,702.2871],[22.5971,-6.041,703.8574],[22.6017,-6.0294,719.483],[22.5978,-6.0091,656.3467],[22.5868,-5.9906,643.0684],[22.5742,-5.9814,635.0377],[22.5764,-5.974,650.1763],[22.584,-5.9662,650.5576],[22.5892,-5.9639,638.2104],[22.593,-5.9505,662.2561],[22.5922,-5.8473,663.9033],[22.6496,-5.8298,603.2119],[22.6727,-5.8269,575.4729],[22.6782,-5.8213,572.0527],[22.6799,-5.8147,602.1394],[22.684,-5.8087,554.0172],[22.6829,-5.8046,555.5698],[22.6368,-5.7481,574.147],[22.6267,-5.7497,603.8353],[22.6175,-5.7641,621.895],[22.6165,-5.7715,583.5085],[22.6115,-5.7789,606.9787],[22.5815,-5.8031,603.4598],[22.5664,-5.8185,590.988],[22.5322,-5.8252,610.8965],[22.5206,-5.8262,629.7617],[22.4974,-5.825,573.1346],[22.4922,-5.8209,566.7595],[22.4894,-5.7967,605.7037],[22.4855,-5.7823,623.7906],[22.482,-5.7778,590.0686],[22.4789,-5.7779,616.6332],[22.4764,-5.7809,633.3771],[22.4759,-5.7858,586.9875],[22.4737,-5.7893,597.4943],[22.47,-5.7911,603.9171],[22.4447,-5.7897,591.0425],[22.4405,-5.7839,576.0491],[22.4398,-5.7765,597.8117],[22.4361,-5.7718,606.452],[22.4318,-5.7714,605.6823],[22.4276,-5.7732,620.4749],[22.4245,-5.7776,588.4227],[22.4196,-5.7907,626.3522],[22.402,-5.8068,563.6129],[22.3952,-5.8087,582.5314],[22.3884,-5.8084,597.539],[22.3753,-5.8049,600.6105],[22.3664,-5.8109,554.4686],[22.3594,-5.8186,537.3428],[22.34,-5.8282,553.7989],[22.3162,-5.8324,589.7863],[22.2619,-5.8364,580.9087],[22.2543,-5.8398,556.2748],[22.2465,-5.8539,497.6468]]]]}
,"properties": {"GID_2": "COD.7.4_1","GID_0": "COD","country": "DemocraticRepublicoftheCongo","GID_1": "COD.7_1","province": "Kasaï-Central","NL_NAME_1": "NA","county": "Kananga","VARNAME_2": "NA","NL_NAME_2": "NA","TYPE_2": "Territoire","ENGTYPE_2": "Territory","CC_2": "NA","HASC_2": "NA","name": "Kananga.county","area_km2": 760.34,"hist_schema_id": "Elevation0-9000","hist_area_km2": {"500": 5.5891,"525": 40.3246,"550": 83.0133,"575": 134.119,"600": 161.0077,"625": 148.8528,"650": 115.2081,"675": 62.378,"700": 9.3835,"725": 0.4639}}}