{"type": "Feature","bbox": [23.638,-6.4976,23.6723,-6.4671],"geometry": {"type": "MultiPolygon","coordinates": [[[[23.6652,-6.4966,831.0341],[23.6704,-6.492,735.4437],[23.6723,-6.4821,694.6924],[23.6703,-6.4725,661.4344],[23.6632,-6.4677,705.2749],[23.6552,-6.4671,745.5322],[23.643,-6.4717,723.7299],[23.6402,-6.4768,741.4756],[23.638,-6.4866,733.3936],[23.6415,-6.4914,752.9498],[23.6493,-6.4959,815.6371],[23.6558,-6.4976,807.3724],[23.6652,-6.4966,831.0341]]]]}
,"properties": {"GID_2": "COD.8.3_1","GID_0": "COD","country": "DemocraticRepublicoftheCongo","GID_1": "COD.8_1","province": "Kasaï-Oriental","NL_NAME_1": "NA","county": "Lukalaba","VARNAME_2": "NA","NL_NAME_2": "NA","TYPE_2": "Ville","ENGTYPE_2": "Town","CC_2": "NA","HASC_2": "NA","name": "Lukalaba.county","area_km2": 10.006659,"hist_schema_id": "Elevation0-9000","hist_area_km2": {"650": 0.042134,"675": 1.053348,"700": 1.053342,"725": 1.411476,"750": 1.727471,"775": 1.832802,"800": 2.064507,"825": 0.821579}}}