{"type":"Feature","properties":{"GID_2":"COD.6.5_1","GID_0":"COD","country":"DemocraticRepublicoftheCongo","GID_1":"COD.6_1","province":"Ituri","NL_NAME_1":"NA","county":"Djugu","VARNAME_2":"NA","NL_NAME_2":"NA","TYPE_2":"Territoire","ENGTYPE_2":"Territory","CC_2":"NA","HASC_2":"NA","name":"Djugu.county"},
"geometry":{"type": "MultiPolygon","coordinates": [[[[29.623,2.1872,1134.4895],[29.6239,2.1558,1116.7013],[29.6503,2.1255,1175.0283],[29.652,2.1134,1154.5745],[29.6646,2.1011,1202.2734],[29.6701,2.0894,1232.174],[29.6697,2.081,1241.2628],[29.6718,2.0768,1225.7699],[29.6822,2.0812,1246.424],[29.6906,2.0764,1237.4305],[29.7067,2.0331,1232.4606],[29.7147,2.025,1214.3788],[29.7165,2.0163,1232.5654],[29.722,2.0096,1161.5509],[29.7179,1.9982,1249.5723],[29.7083,1.997,1187.1055],[29.7167,1.9857,1283.2322],[29.7251,1.9781,1191.2454],[29.7284,1.9617,1188.6984],[29.8387,1.8723,1190.3704],[29.8869,1.8375,1126.7954],[29.8995,1.8307,1127.5469],[29.946,1.8001,1091.0784],[29.9892,1.779,949.8387],[29.9869,1.7714,978.9119],[29.9892,1.7606,970.7124],[30.0,1.7591,1005.7045],[30.0,1.7451,947.8463],[30.0207,1.7427,1000.8531],[30.0382,1.7299,1046.045],[30.0381,1.7218,1098.2688],[29.998,1.6862,1072.1552],[29.9909,1.6644,1008.8801],[30.0008,1.6532,1036.556],[30.0369,1.6606,1098.5056],[30.0591,1.6607,1113.3844],[30.0691,1.6543,1150.2317],[30.0809,1.6398,1098.9324],[30.0908,1.6502,1145.7607],[30.0964,1.6639,1181.5471],[30.1228,1.6938,1310.9297],[30.1273,1.7028,1297.9719],[30.1445,1.6901,1304.8826],[30.1598,1.6853,1363.5247],[30.1691,1.6861,1394.5598],[30.1783,1.6902,1572.1495],[30.2025,1.7069,1578.7346],[30.2028,1.7011,1555.4036],[30.2051,1.6993,1527.6333],[30.2137,1.704,1581.6694],[30.2236,1.7009,1549.0348],[30.2466,1.6994,1442.4924],[30.258,1.693,1330.866],[30.2616,1.6774,1285.8711],[30.271,1.6705,1324.8628],[30.2794,1.6697,1304.5577],[30.3032,1.6722,1272.8899],[30.3185,1.6618,1335.0857],[30.3214,1.6481,1309.2128],[30.3298,1.6385,1335.6538],[30.3373,1.6144,1342.4595],[30.3172,1.5966,1312.4261],[30.2987,1.586,1294.2772],[30.2963,1.5779,1307.7476],[30.2985,1.5602,1371.6996],[30.2961,1.5514,1386.9351],[30.2791,1.5328,1348.4862],[30.2759,1.5215,1316.7454],[30.2817,1.4887,1282.975],[30.2891,1.4789,1339.5892],[30.2958,1.4541,1419.3339],[30.289,1.4337,1445.7224],[30.2919,1.4168,1317.054],[30.298,1.4112,1193.0813],[30.3325,1.4097,814.3911],[30.341,1.4138,766.1317],[30.3412,1.4404,1073.9586],[30.3513,1.4485,879.8466],[30.3843,1.4518,690.5956],[30.4034,1.4487,670.4941],[30.4218,1.4477,662.4241],[30.4502,1.4218,638.1273],[30.4599,1.4166,629.0386],[30.4615,1.4123,626.6367],[30.4689,1.4129,621.8756],[30.5075,1.3869,620.0],[30.5252,1.3783,620.0],[30.5569,1.3687,620.0],[30.5946,1.3485,620.0],[30.6,1.3484,620.0],[30.6208,1.3908,620.0],[30.6325,1.411,620.0],[30.658,1.445,620.0],[30.701,1.496,620.0],[30.813,1.583,620.0],[30.819,1.585,620.0],[30.846,1.609,620.0],[30.952,1.693,620.0],[30.9989,1.728,620.0],[31.0259,1.75,620.0],[31.0347,1.7594,620.0],[31.0227,1.7747,620.0],[31.006,1.7846,620.0],[30.9962,1.796,620.0],[30.9939,1.8059,620.0],[30.9796,1.8303,620.0],[30.9652,1.8485,620.0],[30.9463,1.8782,620.0],[30.9289,1.8995,620.0],[30.921,1.9061,621.1279],[30.9163,1.9148,763.8781],[30.9139,1.9284,820.4086],[30.9158,1.9422,833.1222],[30.9237,1.9595,872.7092],[30.9397,1.9783,931.0013],[30.9608,1.9951,956.3107],[30.9649,2.0027,943.0256],[30.9508,2.0276,1790.3682],[30.9327,2.0483,2088.062],[30.913,2.0656,2048.5312],[30.9074,2.074,2064.0588],[30.9183,2.1194,2085.8755],[30.9192,2.1295,2087.8433],[30.9119,2.1409,1997.7162],[30.9018,2.1487,2043.3026],[30.8946,2.1502,1983.2705],[30.8868,2.1478,1971.3568],[30.8838,2.1289,2051.0791],[30.8749,2.1254,2062.8142],[30.8712,2.1194,2064.6106],[30.8708,2.112,2058.1655],[30.8624,2.1135,2035.8347],[30.8489,2.1263,2021.978],[30.8433,2.1291,2027.0851],[30.8334,2.1288,2006.2246],[30.8283,2.1304,1973.4106],[30.8221,2.14,1903.324],[30.812,2.1455,1902.4578],[30.7803,2.155,1862.0715],[30.7708,2.1565,1820.5027],[30.7664,2.1564,1797.9874],[30.7456,2.1428,1800.6603],[30.7379,2.1346,1753.9033],[30.7302,2.1316,1743.1649],[30.7164,2.1296,1744.8315],[30.6992,2.1404,1706.406],[30.6819,2.1377,1704.2744],[30.664,2.1371,1716.62],[30.6586,2.1345,1675.0343],[30.6475,2.1383,1685.9271],[30.6391,2.1432,1702.7026],[30.6335,2.149,1716.5316],[30.6096,2.1545,1677.871],[30.5772,2.172,1677.8687],[30.5549,2.1801,1605.0917],[30.5475,2.1874,1620.7134],[30.5397,2.1923,1625.2852],[30.5325,2.1916,1598.9703],[30.5126,2.1736,1558.2625],[30.5114,2.1642,1546.9871],[30.5062,2.1551,1580.4492],[30.4978,2.1486,1541.9858],[30.4914,2.1479,1585.0935],[30.4829,2.1496,1580.9329],[30.4749,2.1537,1560.9905],[30.4655,2.1526,1532.3666],[30.4494,2.156,1541.7632],[30.4466,2.193,1584.0415],[30.4355,2.1922,1609.1724],[30.4113,2.1814,1611.1841],[30.4041,2.1801,1610.9033],[30.3979,2.1839,1570.2177],[30.3952,2.1988,1563.718],[30.3968,2.2022,1589.9006],[30.4,2.2046,1580.4752],[30.4102,2.2075,1568.2327],[30.4301,2.2102,1578.5767],[30.4344,2.2123,1530.3269],[30.4403,2.2188,1465.0494],[30.4423,2.2244,1485.4902],[30.4397,2.2324,1493.5919],[30.4314,2.2403,1400.7104],[30.4249,2.2419,1399.5632],[30.4134,2.2542,1377.7991],[30.3957,2.2807,1369.1483],[30.3867,2.2884,1362.7372],[30.36,2.2738,1382.3208],[30.3506,2.2708,1400.9043],[30.314,2.2804,1376.6296],[30.3159,2.2968,1346.436],[30.3152,2.3166,1336.0573],[30.3022,2.3159,1352.8103],[30.2968,2.3089,1349.4082],[30.2863,2.3041,1380.8186],[30.2747,2.3021,1405.6486],[30.269,2.3111,1369.5992],[30.2732,2.3281,1362.5364],[30.2711,2.3349,1379.1274],[30.2628,2.3401,1380.9802],[30.2564,2.3578,1349.1239],[30.2523,2.3791,1333.5432],[30.2349,2.3815,1308.7257],[30.2221,2.3963,1306.395],[30.2074,2.3998,1298.0015],[30.2003,2.4031,1289.3029],[30.1928,2.4152,1299.4497],[30.1894,2.4168,1287.3217],[30.1853,2.4163,1261.0055],[30.181,2.4107,1233.9329],[30.178,2.3909,1220.7927],[30.1726,2.3812,1209.3557],[30.1689,2.3881,1234.9153],[30.1659,2.3885,1230.9711],[30.1614,2.3841,1198.1111],[30.1566,2.3856,1220.5076],[30.1522,2.3847,1191.7303],[30.1439,2.3747,1183.3474],[30.1361,2.3695,1179.8553],[30.1256,2.3699,1191.9297],[30.1215,2.3721,1186.3213],[30.1146,2.3714,1173.2148],[30.1067,2.366,1169.071],[30.0982,2.3673,1190.7157],[30.0792,2.3608,1211.0829],[30.0722,2.3603,1183.0493],[30.0666,2.3625,1159.4437],[30.0609,2.3685,1155.1677],[30.0572,2.3689,1149.5315],[30.0536,2.3658,1150.0406],[30.043,2.3287,1175.2617],[30.0333,2.3136,1110.0968],[30.0304,2.3046,1121.0123],[30.0273,2.283,1118.6663],[30.0138,2.2768,1100.452],[30.0,2.2749,1081.7793],[29.9978,2.2794,1108.0125],[29.9948,2.2748,1110.7915],[29.9893,2.2734,1111.9626],[29.9875,2.2713,1103.7469],[29.9886,2.2654,1085.0333],[29.9824,2.2488,1107.056],[29.9751,2.247,1080.885],[29.9712,2.2514,1081.3679],[29.9694,2.2507,1101.5492],[29.9696,2.2468,1102.8287],[29.9666,2.2447,1071.3923],[29.9644,2.2456,1066.6145],[29.9639,2.2486,1074.3486],[29.9571,2.2574,1062.5259],[29.9509,2.2698,1092.679],[29.9468,2.2675,1076.4702],[29.945,2.2606,1089.2092],[29.9367,2.2517,1067.3595],[29.9298,2.2498,1078.0715],[29.9257,2.2379,1062.3966],[29.9248,2.2266,1055.4301],[29.9213,2.2222,1055.6085],[29.9204,2.2174,1044.5266],[29.9215,2.2121,1057.2284],[29.9174,2.2055,1056.25],[29.9158,2.1967,1073.7781],[29.9165,2.19,1055.4568],[29.9144,2.1866,1047.9299],[29.9105,2.1848,1046.6407],[29.9039,2.1885,1061.2579],[29.8984,2.1859,1050.4215],[29.8897,2.1866,1054.5056],[29.884,2.1844,1064.0254],[29.8792,2.186,1046.1969],[29.875,2.1756,1034.0308],[29.8734,2.1759,1034.0308],[29.8706,2.1837,1071.6659],[29.8514,2.1483,1113.5061],[29.8615,2.1499,1035.3972],[29.8656,2.1494,1039.9741],[29.869,2.1467,1027.6833],[29.8729,2.1391,1052.8257],[29.8699,2.123,1052.0776],[29.8713,2.1197,1068.2285],[29.877,2.1218,1024.6001],[29.8797,2.1209,1050.5317],[29.8838,2.1149,1051.5145],[29.8905,2.1105,1035.176],[29.8991,2.1123,1050.1003],[29.9035,2.1095,1033.0643],[29.9037,2.0994,1040.0652],[29.8991,2.096,1059.3174],[29.8968,2.0888,1056.33],[29.9018,2.073,1108.8059],[29.8977,2.0661,1061.3757],[29.8972,2.0562,1022.7661],[29.8951,2.0557,1023.6197],[29.886,2.0672,1036.3806],[29.8821,2.0684,1043.5861],[29.8787,2.0735,1028.3925],[29.8687,2.0804,1027.5732],[29.8527,2.0767,1065.3586],[29.8481,2.0786,1091.6575],[29.8399,2.0782,1036.6036],[29.8337,2.083,1031.2178],[29.8204,2.0858,1048.0938],[29.8088,2.0916,1058.5332],[29.8013,2.0992,1049.4788],[29.7949,2.1026,1039.3612],[29.7864,2.1146,1063.0592],[29.7837,2.1252,1074.505],[29.7755,2.1312,1057.9657],[29.7716,2.1445,1056.0366],[29.765,2.1526,1044.3608],[29.7477,2.1678,1047.4015],[29.7413,2.1715,1046.1545],[29.7346,2.1731,1059.6187],[29.717,2.1895,1062.7002],[29.7027,2.1951,1100.578],[29.6956,2.1948,1093.5206],[29.6903,2.1976,1104.4224],[29.6807,2.1921,1095.2708],[29.6745,2.1949,1103.0278],[29.6706,2.1931,1105.6387],[29.6633,2.1942,1106.0559],[29.656,2.1894,1112.4144],[29.623,2.1872,1134.4895]],
[[30.245,1.8054,1341.7639],[30.2406,1.8035,1326.7314],[30.2304,1.8044,1318.5349],[30.2226,1.809,1348.4414],[30.22,1.8207,1373.6478],[30.2228,1.828,1399.3584],[30.2288,1.832,1340.9229],[30.2436,1.8329,1320.7083],[30.2445,1.8248,1349.4814],[30.2504,1.8178,1341.293],[30.2509,1.8099,1331.5112],[30.245,1.8054,1341.7639]]]]}}