{"type":"Feature","properties":{"GID_2":"COD.20.3_1","GID_0":"COD","country":"DemocraticRepublicoftheCongo","GID_1":"COD.20_1","province":"Nord-Ubangi","NL_NAME_1":"NA","county":"Gbadolite","VARNAME_2":"NA","NL_NAME_2":"NA","TYPE_2":"Territoire","ENGTYPE_2":"Territory","CC_2":"NA","HASC_2":"NA","name":"Gbadolite.county"},
"geometry":{"type": "MultiPolygon","coordinates": [[[[20.624,4.402,375.3831],[20.6257,4.3876,377.7776],[20.6355,4.3721,379.5443],[20.6459,4.3692,379.555],[20.6541,4.369,389.9492],[20.6657,4.3604,388.0275],[20.6756,4.357,386.4485],[20.6922,4.3454,400.3107],[20.7002,4.3436,387.1363],[20.7035,4.3386,396.0235],[20.704,4.3335,389.9749],[20.6985,4.3252,391.8633],[20.7102,4.3078,392.4107],[20.7141,4.3042,395.0371],[20.7334,4.2984,388.5698],[20.7364,4.2963,387.5715],[20.7404,4.2895,393.5996],[20.7418,4.2833,386.8809],[20.7392,4.2726,388.8477],[20.7479,4.2407,395.0845],[20.7519,4.2343,394.373],[20.7515,4.2281,388.539],[20.7631,4.216,392.1927],[20.7645,4.2105,392.4731],[20.7628,4.1888,390.5702],[20.7672,4.161,393.8551],[20.7666,4.1557,395.5827],[20.7726,4.1443,406.668],[20.7789,4.1413,402.6306],[20.7833,4.1338,397.0453],[20.7893,4.1299,399.0356],[20.79,4.1253,397.9336],[20.786,4.1154,403.5535],[20.7888,4.1032,397.3831],[20.788,4.0981,403.443],[20.7919,4.0936,412.9894],[20.7936,4.083,410.5339],[20.8029,4.0725,435.5428],[20.8113,4.0676,433.4212],[20.8204,4.0655,451.162],[20.8572,4.0649,413.3156],[20.8607,4.0624,417.7505],[20.8646,4.0625,412.1633],[20.8794,4.0764,441.0266],[20.8837,4.0826,466.8646],[20.8919,4.0892,476.7246],[20.9,4.104,452.886],[20.9059,4.0994,490.4629],[20.9125,4.1059,493.1705],[20.9213,4.1108,502.0637],[20.9371,4.1259,457.711],[20.9404,4.1268,451.823],[20.9545,4.1374,447.1813],[20.9539,4.1454,451.676],[20.9504,4.1569,442.2124],[20.9526,4.1657,424.5789],[20.9549,4.1668,426.5058],[20.9588,4.1627,430.8027],[20.9623,4.1623,426.804],[20.9717,4.1652,421.1584],[20.9751,4.1679,420.0279],[20.9773,4.1762,428.2657],[20.9807,4.1786,422.0344],[20.9894,4.1793,429.0073],[20.9944,4.1835,408.2649],[20.9774,4.1496,469.4616],[20.9816,4.1512,447.9555],[21.0361,4.1998,564.6377],[21.0423,4.2076,464.4186],[21.0473,4.2206,450.2762],[21.0785,4.2602,435.9759],[21.0787,4.2662,438.5887],[21.0741,4.2708,426.0649],[21.0741,4.2777,414.8309],[21.0689,4.2875,418.837],[21.0691,4.2979,405.6649],[21.0647,4.3009,403.0703],[21.057,4.3107,398.8108],[21.0556,4.3153,402.7067],[21.0564,4.3349,400.7316],[21.0538,4.3413,398.3218],[21.0595,4.3485,401.8228],[21.0563,4.3685,411.1969],[21.0603,4.3782,395.104],[21.0566,4.3988,384.8583],[21.054,4.401,375.5],[21.047,4.402,394.7015],[21.0244,4.4021,391.5378],[21.0085,4.408,391.8156],[20.988,4.4217,376.749],[20.97,4.428,378.7904],[20.9534,4.4296,378.1501],[20.9467,4.4282,375.0343],[20.9341,4.4302,374.6894],[20.911,4.439,374.5],[20.8848,4.4376,374.5],[20.8655,4.4458,374.0],[20.857,4.4455,376.0516],[20.8101,4.4193,373.5],[20.7945,4.414,411.6017],[20.7833,4.4125,375.0945],[20.7573,4.4133,378.2777],[20.7466,4.4151,376.3873],[20.7351,4.4206,378.9893],[20.728,4.421,373.489],[20.671,4.415,380.4023],[20.6637,4.4124,373.0],[20.656,4.4217,373.0],[20.6375,4.4164,374.3796],[20.631,4.405,376.3867],[20.624,4.402,375.3831]]]]}}