{"type":"Feature","properties":{"GID_2":"COD.11.7_1","GID_0":"COD","country":"DemocraticRepublicoftheCongo","GID_1":"COD.11_1","province":"Kongo-Central","NL_NAME_1":"NA","county":"Lukula","VARNAME_2":"NA","NL_NAME_2":"NA","TYPE_2":"Territoire","ENGTYPE_2":"Territory","CC_2":"NA","HASC_2":"NA","name":"Lukula.county"},
"geometry":{"type": "MultiPolygon","coordinates": [[[[12.5206,-5.6622,141.6218],[12.5562,-5.6573,137.6988],[12.575,-5.6513,153.3542],[12.5819,-5.6469,161.9987],[12.5889,-5.646,143.0446],[12.6058,-5.6504,201.6977],[12.6117,-5.6535,183.288],[12.6233,-5.6716,106.7066],[12.6377,-5.6737,67.1803],[12.6639,-5.6711,178.3037],[12.6991,-5.6646,51.1127],[12.7174,-5.6595,81.2295],[12.7253,-5.6551,52.2498],[12.7296,-5.641,81.8386],[12.7265,-5.626,84.1313],[12.7149,-5.5877,124.8859],[12.7128,-5.5726,140.8525],[12.7186,-5.5619,100.7722],[12.73,-5.5528,150.5668],[12.7398,-5.5414,172.6395],[12.751,-5.5146,207.3466],[12.7545,-5.5158,218.9334],[12.7685,-5.5283,171.6746],[12.7789,-5.5326,170.293],[12.823,-5.5349,74.8586],[12.8304,-5.5241,95.4288],[12.8333,-5.5156,100.3181],[12.8332,-5.5037,124.0176],[12.8267,-5.4888,131.2729],[12.8241,-5.4717,133.2782],[12.826,-5.4701,158.6022],[12.833,-5.4707,160.2326],[12.8405,-5.4757,152.5933],[12.8479,-5.4831,115.7552],[12.852,-5.4932,90.6853],[12.857,-5.4998,99.0957],[12.8619,-5.499,102.462],[12.8747,-5.484,113.118],[12.8791,-5.4763,129.6895],[12.8835,-5.4677,169.3182],[12.8854,-5.4543,123.5101],[12.8925,-5.4706,181.4274],[12.9035,-5.4901,74.3519],[12.9125,-5.5009,154.9676],[12.9449,-5.5148,171.4831],[12.9538,-5.5226,177.4616],[12.9559,-5.5284,158.8603],[12.9555,-5.5423,203.8594],[12.9506,-5.5539,153.3563],[12.9507,-5.5721,121.8412],[12.9528,-5.5858,116.0668],[12.9541,-5.6237,89.0318],[12.9571,-5.6324,124.3867],[12.9705,-5.6306,112.885],[12.9912,-5.6209,143.5332],[13.0066,-5.6171,226.19],[13.0367,-5.6029,160.6993],[13.0427,-5.6026,194.5237],[13.0452,-5.6049,180.1138],[13.0452,-5.6128,180.0514],[13.0492,-5.6204,220.022],[13.0597,-5.6336,148.7459],[13.0662,-5.6386,169.29],[13.0771,-5.6395,203.8678],[13.1029,-5.6345,183.454],[13.1148,-5.6338,286.4175],[13.1232,-5.6362,200.4421],[13.1416,-5.6351,219.878],[13.145,-5.6384,227.4171],[13.1456,-5.6467,207.5896],[13.1496,-5.6539,214.7466],[13.1536,-5.6551,239.7071],[13.162,-5.6546,194.8073],[13.1754,-5.6494,220.6628],[13.203,-5.6329,253.4841],[13.2069,-5.6268,215.6461],[13.2049,-5.6061,263.3016],[13.2186,-5.5732,336.6645],[13.2081,-5.5412,412.9182],[13.2048,-5.5364,388.2643],[13.204,-5.5308,334.3616],[13.2096,-5.5199,358.7854],[13.2275,-5.4942,565.9208],[13.2323,-5.4832,480.5873],[13.2274,-5.4744,553.3564],[13.212,-5.4565,463.9347],[13.2055,-5.4437,331.2782],[13.2014,-5.4317,296.4705],[13.199,-5.4174,310.4434],[13.1981,-5.4039,351.7209],[13.194,-5.3824,348.4176],[13.1997,-5.3722,505.2464],[13.2078,-5.3661,493.9641],[13.2111,-5.3583,369.6486],[13.211,-5.3448,255.9374],[13.2013,-5.3358,261.8872],[13.1875,-5.3354,312.2792],[13.1777,-5.3328,330.6791],[13.1761,-5.324,337.2115],[13.168,-5.3277,267.8923],[13.1527,-5.3285,330.7465],[13.1421,-5.3172,306.6692],[13.13,-5.2989,337.8177],[13.1285,-5.2908,315.6559],[13.1331,-5.2797,416.2419],[13.1492,-5.2627,312.5199],[13.1431,-5.2512,324.9814],[13.134,-5.2535,309.4008],[13.1256,-5.2602,298.7019],[13.118,-5.2534,327.5341],[13.1196,-5.2416,311.4416],[13.1265,-5.234,328.0217],[13.0699,-5.2113,197.5582],[13.0552,-5.2187,209.6959],[13.0465,-5.2187,210.08],[13.041,-5.2237,245.2646],[13.0373,-5.2246,193.1686],[13.0286,-5.2329,223.5528],[13.0183,-5.2371,309.9665],[12.9986,-5.2178,258.4198],[12.95,-5.1832,370.0085],[12.9218,-5.1937,332.6995],[12.9074,-5.1854,266.8206],[12.901,-5.179,223.076],[12.8863,-5.1531,253.4397],[12.8687,-5.1593,235.4036],[12.8457,-5.184,289.743],[12.8351,-5.1881,293.6036],[12.8275,-5.1849,296.638],[12.8146,-5.1638,276.3767],[12.8087,-5.1482,258.2201],[12.7961,-5.0985,127.9752],[12.777,-5.1042,133.0217],[12.7701,-5.1118,208.2814],[12.749,-5.1192,156.1622],[12.7274,-5.1302,105.3815],[12.7178,-5.1378,103.3913],[12.7088,-5.1401,46.1862],[12.6944,-5.1359,23.5728],[12.6762,-5.1364,16.7242],[12.6643,-5.1423,40.4627],[12.6411,-5.1472,53.1965],[12.6338,-5.1522,30.7934],[12.6253,-5.1485,25.0207],[12.6232,-5.1492,18.3791],[12.6216,-5.1554,26.8956],[12.6188,-5.1547,25.725],[12.617,-5.1471,26.6822],[12.6172,-5.1333,20.7814],[12.614,-5.1313,23.3586],[12.5879,-5.1338,18.4218],[12.5789,-5.1379,7.1898],[12.5681,-5.1358,4.8666],[12.5571,-5.1367,13.3174],[12.553,-5.1379,8.1235],[12.5479,-5.1427,18.1375],[12.5376,-5.1407,12.8974],[12.5392,-5.1921,6.9324],[12.5372,-5.4612,195.6315],[12.5089,-5.4701,81.3625],[12.5092,-5.6641,156.5759],[12.5206,-5.6622,141.6218]],
[[12.9661,-5.3877,118.6084],[12.946,-5.3845,117.1359],[12.9347,-5.3771,101.5383],[12.9453,-5.3507,98.8881],[12.9535,-5.3377,147.8043],[12.965,-5.3374,124.349],[12.9707,-5.3403,131.2011],[12.9755,-5.3501,196.1783],[12.9765,-5.3544,178.4603],[12.9751,-5.3602,182.4157],[12.9802,-5.3715,157.3072],[12.9713,-5.3846,151.7606],[12.9661,-5.3877,118.6084]]],
[[[12.5275,-5.1333,6.5736],[12.5286,-5.1335,39.4539],[12.5234,-5.1324,28.7743],[12.5265,-5.1332,6.6454],[12.5275,-5.1333,6.5736]]]]}}