{"type": "Feature","bbox": [23.1314,-6.6069,23.5218,-5.9784],"geometry": {"type": "MultiPolygon","coordinates": [[[[23.1399,-6.4584,716.4926],[23.1504,-6.4588,727.7667],[23.1518,-6.4604,726.2119],[23.1555,-6.4759,714.3132],[23.1536,-6.4844,729.1678],[23.1476,-6.488,727.6947],[23.1511,-6.4924,720.6862],[23.1607,-6.4966,729.5676],[23.1621,-6.5007,726.9029],[23.1679,-6.5037,732.4722],[23.166,-6.5083,723.5132],[23.1674,-6.5124,718.8984],[23.1651,-6.5175,720.4301],[23.1662,-6.5225,718.56],[23.1724,-6.5253,727.8779],[23.1719,-6.5336,723.3468],[23.1683,-6.5423,729.1563],[23.1696,-6.5469,721.2819],[23.1685,-6.5513,726.5275],[23.1714,-6.5575,723.4481],[23.1797,-6.5639,740.5284],[23.1739,-6.5796,726.6047],[23.1764,-6.5945,746.6412],[23.1732,-6.5986,754.8003],[23.1734,-6.6018,753.8298],[23.1799,-6.6069,754.6331],[23.1807,-6.605,746.4724],[23.1942,-6.6018,752.8605],[23.2024,-6.5963,772.7959],[23.2068,-6.5953,787.6481],[23.2178,-6.5989,808.833],[23.2465,-6.5925,830.6165],[23.2559,-6.5884,803.6349],[23.276,-6.5771,782.6629],[23.3082,-6.5496,742.5729],[23.3222,-6.5356,733.4219],[23.3402,-6.5383,721.9036],[23.3605,-6.5256,690.4608],[23.3642,-6.5247,696.7861],[23.3692,-6.5259,699.597],[23.3793,-6.5353,688.6899],[23.386,-6.539,694.175],[23.3929,-6.5395,707.798],[23.4007,-6.5301,678.5593],[23.4042,-6.5299,682.7548],[23.4134,-6.5342,681.2919],[23.4256,-6.5262,672.7369],[23.429,-6.5283,663.1465],[23.4322,-6.5359,647.4257],[23.4377,-6.5327,649.2473],[23.4426,-6.5327,645.9728],[23.4462,-6.5221,624.7869],[23.4447,-6.5129,645.7692],[23.4476,-6.5058,628.6978],[23.447,-6.4922,617.0319],[23.4504,-6.4718,630.5685],[23.4482,-6.4649,631.4322],[23.45,-6.4596,617.1349],[23.4617,-6.4564,624.5538],[23.4661,-6.4522,603.8636],[23.4688,-6.4359,574.6074],[23.4663,-6.4304,572.9249],[23.4625,-6.4277,578.3846],[23.4613,-6.42,589.1943],[23.4655,-6.4152,601.259],[23.4718,-6.4156,583.1505],[23.4793,-6.4134,576.5586],[23.4839,-6.4169,587.2863],[23.4873,-6.4376,571.1512],[23.4891,-6.441,570.6782],[23.4981,-6.4486,585.7007],[23.5006,-6.4479,585.7115],[23.5046,-6.4404,594.0506],[23.511,-6.4411,570.5652],[23.516,-6.4397,575.3699],[23.5202,-6.4421,574.4673],[23.5218,-6.4414,571.4246],[23.5181,-6.4232,558.3669],[23.5199,-6.4196,548.8379],[23.5133,-6.412,565.8712],[23.513,-6.4034,553.1822],[23.5088,-6.4026,552.9406],[23.5023,-6.3857,559.5968],[23.4981,-6.3806,570.9353],[23.4896,-6.3791,589.0449],[23.4871,-6.3765,581.2991],[23.4811,-6.3769,572.4045],[23.4795,-6.373,586.4402],[23.477,-6.3723,586.3715],[23.4754,-6.3663,577.5317],[23.4568,-6.3509,606.911],[23.4448,-6.3364,625.0278],[23.4388,-6.3312,629.363],[23.424,-6.3233,613.4286],[23.4216,-6.3199,628.9636],[23.4138,-6.2767,728.1001],[23.3952,-6.2198,776.731],[23.3886,-6.2209,724.7767],[23.3758,-6.2185,711.6628],[23.3691,-6.2079,666.5378],[23.3727,-6.1933,661.4728],[23.3764,-6.1893,637.3645],[23.385,-6.1851,669.9952],[23.3888,-6.1659,724.0799],[23.3837,-6.1494,695.8796],[23.3808,-6.1321,668.6643],[23.3819,-6.1167,653.8472],[23.3797,-6.0953,631.655],[23.3765,-6.0847,624.9282],[23.3707,-6.0797,589.1877],[23.3613,-6.0767,580.71],[23.3567,-6.0725,602.8389],[23.3551,-6.0645,610.9408],[23.3572,-6.0557,583.7597],[23.3501,-6.0447,586.716],[23.346,-6.0327,550.4627],[23.3421,-6.0299,557.6856],[23.3423,-6.0205,575.7898],[23.3382,-6.0109,534.4474],[23.3352,-6.0102,536.5356],[23.3297,-6.0044,542.3865],[23.3221,-6.0053,529.5195],[23.3166,-6.0028,517.6242],[23.3086,-5.9915,509.4774],[23.304,-5.9883,538.7332],[23.3017,-5.9837,507.7487],[23.2948,-5.9827,489.4629],[23.2909,-5.9784,483.2052],[23.2803,-5.9889,570.0018],[23.2856,-5.9931,494.0211],[23.2801,-6.0013,547.497],[23.2826,-6.0052,523.4081],[23.2858,-6.0062,491.6208],[23.2863,-6.0085,508.8682],[23.2778,-6.0158,552.2174],[23.2669,-6.0284,527.8588],[23.2605,-6.0287,581.4716],[23.2504,-6.0339,539.7919],[23.2492,-6.0408,567.7523],[23.2506,-6.0445,573.021],[23.2612,-6.0484,547.3404],[23.2563,-6.053,592.1004],[23.2549,-6.0565,573.0798],[23.2437,-6.0555,557.8528],[23.2384,-6.0583,577.3318],[23.2407,-6.0603,563.3766],[23.246,-6.0599,549.5417],[23.2469,-6.0634,560.2184],[23.2455,-6.0666,570.4337],[23.2405,-6.0705,565.1006],[23.2414,-6.0723,558.3824],[23.2506,-6.0735,556.8965],[23.2379,-6.0813,563.2379],[23.2388,-6.0838,572.1116],[23.2416,-6.0852,554.1149],[23.2338,-6.0951,557.2698],[23.2321,-6.0948,562.3839],[23.2349,-6.087,569.3583],[23.2317,-6.0819,563.5018],[23.2326,-6.0785,556.2419],[23.2315,-6.0767,552.7146],[23.2287,-6.0762,560.4332],[23.2262,-6.078,583.8758],[23.2255,-6.081,594.9709],[23.2271,-6.0852,560.3756],[23.225,-6.087,556.9346],[23.2221,-6.0824,554.5862],[23.2184,-6.0808,564.4565],[23.2165,-6.0741,558.6185],[23.2124,-6.0739,564.6697],[23.2108,-6.0771,556.8521],[23.2129,-6.0805,566.6764],[23.2032,-6.0826,596.3144],[23.2041,-6.084,580.4214],[23.211,-6.0844,557.6123],[23.2122,-6.087,554.184],[23.2108,-6.0888,560.7062],[23.2039,-6.0899,606.1309],[23.2041,-6.0918,600.8228],[23.2117,-6.0939,568.3596],[23.2121,-6.0966,561.225],[23.2105,-6.0987,559.8245],[23.205,-6.0982,559.3176],[23.2032,-6.0998,561.5177],[23.2078,-6.1044,558.9096],[23.2052,-6.1088,577.9658],[23.2059,-6.11,589.1521],[23.2128,-6.11,558.5656],[23.214,-6.1164,566.0767],[23.2174,-6.1192,566.536],[23.2153,-6.1245,594.5432],[23.2096,-6.1286,580.7506],[23.2022,-6.1435,589.4973],[23.2022,-6.1483,585.673],[23.1971,-6.1527,598.8079],[23.199,-6.155,598.047],[23.2031,-6.1543,589.3671],[23.2038,-6.1564,568.6524],[23.1957,-6.1624,590.0358],[23.1987,-6.1647,573.5195],[23.1937,-6.1688,615.7023],[23.1953,-6.1704,605.4955],[23.2019,-6.1686,575.3049],[23.2033,-6.1697,586.7811],[23.1957,-6.1757,574.2378],[23.1904,-6.1738,586.5782],[23.1858,-6.1872,598.2393],[23.1858,-6.1922,601.2611],[23.1892,-6.1975,593.5837],[23.1908,-6.204,650.1712],[23.1895,-6.2109,649.0024],[23.1842,-6.2159,642.029],[23.1791,-6.2168,628.2719],[23.1747,-6.215,631.2629],[23.1722,-6.2157,639.0848],[23.1678,-6.2221,690.6656],[23.1653,-6.2343,655.4865],[23.1607,-6.2395,684.4818],[23.1616,-6.248,691.5359],[23.1637,-6.2503,691.2603],[23.168,-6.2501,686.6682],[23.1692,-6.2515,686.248],[23.162,-6.2644,711.437],[23.1622,-6.268,697.1578],[23.1586,-6.2726,716.1171],[23.1572,-6.2798,696.9536],[23.1588,-6.2848,699.5763],[23.1516,-6.3002,700.1658],[23.1528,-6.3057,693.5507],[23.1509,-6.3138,702.297],[23.1527,-6.3239,696.3135],[23.1585,-6.3322,697.2874],[23.1557,-6.3352,704.9947],[23.1511,-6.3361,714.4659],[23.1463,-6.34,710.6484],[23.1463,-6.3473,707.9163],[23.1437,-6.3515,723.8619],[23.1444,-6.3549,723.6762],[23.1412,-6.3593,719.4108],[23.1419,-6.3611,708.7216],[23.1469,-6.3625,701.6903],[23.1442,-6.368,708.2496],[23.1499,-6.3772,701.9031],[23.149,-6.3798,700.4014],[23.1416,-6.379,732.7386],[23.14,-6.3846,719.959],[23.1372,-6.3832,741.0378],[23.1331,-6.3845,747.6892],[23.1398,-6.3931,701.538],[23.1411,-6.3997,701.5764],[23.14,-6.4048,712.5183],[23.1423,-6.4089,719.4666],[23.1487,-6.4122,714.2646],[23.1494,-6.4152,720.1941],[23.1475,-6.4168,704.567],[23.1441,-6.4165,707.5216],[23.1404,-6.4195,719.8263],[23.1358,-6.4172,728.3571],[23.1342,-6.4179,728.3571],[23.1335,-6.4248,720.2508],[23.1314,-6.428,733.9501],[23.1339,-6.434,716.007],[23.1413,-6.4397,707.787],[23.1422,-6.4446,704.5627],[23.1362,-6.4554,740.5659],[23.1399,-6.4584,716.4926]]]]}
,"properties": {"GID_2": "COD.8.6_1","GID_0": "COD","country": "DemocraticRepublicoftheCongo","GID_1": "COD.8_1","province": "Kasaï-Oriental","NL_NAME_1": "NA","county": "Miabi","VARNAME_2": "NA","NL_NAME_2": "NA","TYPE_2": "Territoire","ENGTYPE_2": "Territory","CC_2": "NA","HASC_2": "NA","name": "Miabi.county","area_km2": 1634.896,"hist_schema_id": "Elevation0-9000","hist_area_km2": {"475": 0.675,"500": 2.931,"525": 6.094,"550": 23.19,"575": 73.46,"600": 115.781,"625": 160.124,"650": 161.308,"675": 152.552,"700": 178.507,"725": 220.638,"750": 225.788,"775": 176.492,"800": 97.162,"825": 37.815,"850": 2.38}}}