{"type":"Feature","properties":{"GID_2":"COD.11.19_1","GID_0":"COD","country":"DemocraticRepublicoftheCongo","GID_1":"COD.11_1","province":"Kongo-Central","NL_NAME_1":"NA","county":"Tshela(ville)","VARNAME_2":"NA","NL_NAME_2":"NA","TYPE_2":"Ville","ENGTYPE_2":"Town","CC_2":"NA","HASC_2":"NA","name":"Tshela(ville).county"},
"geometry":{"type": "MultiPolygon","coordinates": [[[[12.9448,-4.99,135.6357],[12.9492,-4.9918,153.1263],[12.9533,-4.9906,156.1922],[12.9661,-4.9817,225.2042],[12.9648,-4.9795,229.9496],[12.9661,-4.9761,228.3606],[12.9612,-4.9679,214.5266],[12.9572,-4.9646,195.9891],[12.9427,-4.9639,199.4793],[12.9353,-4.9653,169.0051],[12.9308,-4.9694,160.0148],[12.9269,-4.9817,165.0598],[12.9448,-4.99,135.6357]]]]}}