{"type": "Feature","bbox": [24.5934,-8.0444,26.4857,-6.144],"geometry": {"type": "MultiPolygon","coordinates": [[[[26.0252,-8.0342,626.0603],[26.0248,-8.0246,626.3528],[26.0298,-8.0165,631.0985],[26.0312,-7.9931,633.1283],[26.0296,-7.9897,631.7806],[26.0239,-7.9874,637.0817],[26.0188,-7.981,637.7832],[26.0123,-7.9803,656.2601],[26.0102,-7.9769,646.2958],[26.0054,-7.9741,649.6316],[26.0042,-7.962,652.593],[26.0079,-7.9558,656.8157],[26.0134,-7.9349,667.1359],[26.0203,-7.9241,666.252],[26.0184,-7.9183,671.4827],[26.0189,-7.9119,673.7568],[26.0142,-7.9018,676.7185],[26.0161,-7.8851,683.3373],[26.0101,-7.8775,685.9522],[26.0117,-7.8697,679.3663],[26.0096,-7.8646,684.1691],[26.0121,-7.86,680.7628],[26.0077,-7.8474,688.7427],[25.9999,-7.841,689.7554],[25.9959,-7.8357,690.2351],[25.9962,-7.8325,689.0123],[26.0249,-7.8178,702.4517],[26.0318,-7.8113,696.6014],[26.035,-7.8061,695.8156],[26.0345,-7.7973,699.5468],[26.0278,-7.7744,703.4967],[26.0319,-7.7416,709.0985],[26.0275,-7.7276,712.5659],[26.0275,-7.7216,717.1601],[26.0336,-7.6929,727.0843],[26.038,-7.6867,728.7206],[26.038,-7.6837,725.5912],[26.0345,-7.6789,736.1566],[26.0306,-7.6589,748.0245],[26.0331,-7.6495,744.4985],[26.0368,-7.6451,734.1434],[26.0359,-7.6412,741.165],[26.031,-7.6417,748.2119],[26.0278,-7.6401,745.1334],[26.0248,-7.6297,735.4965],[26.0462,-7.6265,749.702],[26.0494,-7.6127,754.5135],[26.0646,-7.6005,774.1141],[26.0682,-7.5934,786.3572],[26.0707,-7.5766,794.0089],[26.0775,-7.5613,817.5759],[26.0772,-7.548,833.1193],[26.0876,-7.507,828.6726],[26.0979,-7.482,816.9066],[26.1037,-7.4419,773.3038],[26.1097,-7.4353,752.5709],[26.1351,-7.4151,727.1816],[26.1434,-7.4132,727.5315],[26.1657,-7.4017,719.6592],[26.173,-7.4012,718.7584],[26.1797,-7.3985,733.6801],[26.1939,-7.3886,718.7942],[26.2061,-7.384,714.1479],[26.2149,-7.3835,710.1226],[26.2303,-7.3796,719.6882],[26.2388,-7.3754,705.8237],[26.257,-7.3761,701.2568],[26.2655,-7.3781,699.6014],[26.2701,-7.3765,699.0522],[26.3037,-7.3792,700.837],[26.3182,-7.3865,701.5062],[26.3442,-7.3672,686.4459],[26.3582,-7.3391,682.2832],[26.3524,-7.3272,682.0884],[26.3526,-7.3242,678.2678],[26.3595,-7.3139,675.9413],[26.3643,-7.301,674.8352],[26.3689,-7.295,669.2119],[26.3716,-7.2835,666.3104],[26.3785,-7.2699,665.2009],[26.3828,-7.2669,667.1547],[26.3833,-7.2649,664.2883],[26.381,-7.2624,663.3298],[26.3768,-7.2619,672.5584],[26.378,-7.2431,658.179],[26.3816,-7.2375,660.1213],[26.3823,-7.2327,660.0923],[26.38,-7.227,659.6906],[26.3825,-7.2247,655.5259],[26.3855,-7.2164,654.7056],[26.3859,-7.21,649.322],[26.4072,-7.1605,650.9728],[26.4572,-7.152,709.4718],[26.4692,-7.1443,708.2533],[26.4755,-7.1171,712.9414],[26.4815,-7.1029,728.0106],[26.4775,-7.0904,714.571],[26.4857,-7.0618,659.5079],[26.4434,-7.0446,653.9222],[26.4338,-7.0387,637.7747],[26.4191,-7.0369,626.832],[26.4141,-7.0411,626.4103],[26.4134,-7.0452,628.8226],[26.3999,-7.0518,645.6296],[26.363,-7.0503,662.7118],[26.3388,-7.0437,674.8159],[26.315,-7.0212,686.727],[26.2984,-7.013,713.7117],[26.287,-7.0366,742.6605],[26.2789,-7.0432,786.3624],[26.2698,-7.0439,890.863],[26.2348,-7.0308,724.4129],[26.2261,-7.0139,757.2056],[26.2239,-7.0038,780.6274],[26.2132,-6.9865,785.0853],[26.2149,-6.9808,769.5352],[26.2181,-6.9783,773.364],[26.2207,-6.9684,769.9604],[26.2204,-6.9514,725.9097],[26.2168,-6.9429,766.0344],[26.2035,-6.9423,793.9227],[26.1763,-6.9442,882.1839],[26.1503,-6.962,870.8862],[26.1167,-6.9619,771.6472],[26.1016,-6.96,794.3564],[26.0943,-6.9474,805.8546],[26.1023,-6.9353,757.515],[26.1092,-6.93,759.6914],[26.1139,-6.9215,743.1865],[26.1134,-6.9157,754.6439],[26.1086,-6.9106,771.0308],[26.0728,-6.9058,976.213],[26.0525,-6.9,998.1925],[26.0408,-6.8885,1012.6743],[26.0382,-6.8793,1016.7391],[26.045,-6.871,1020.5129],[26.0756,-6.863,975.2755],[26.0816,-6.8543,952.1336],[26.0798,-6.8425,940.591],[26.0867,-6.8359,957.736],[26.0948,-6.8194,823.8376],[26.0949,-6.8108,833.7266],[26.1118,-6.8141,809.4314],[26.1348,-6.8138,764.0436],[26.1336,-6.7953,748.8834],[26.1258,-6.7946,771.9728],[26.1205,-6.7914,793.0396],[26.1129,-6.7932,853.4846],[26.1009,-6.7884,915.4958],[26.0908,-6.7896,898.0082],[26.0854,-6.7637,936.5243],[26.0604,-6.7595,887.3746],[26.037,-6.7508,896.3108],[26.0322,-6.739,936.2872],[26.0343,-6.7235,993.6028],[26.0317,-6.7129,961.0563],[26.0105,-6.7114,925.0017],[26.0062,-6.7021,908.9636],[26.0146,-6.6707,911.6859],[26.0171,-6.6535,912.5836],[26.0106,-6.6459,937.5377],[25.9997,-6.6243,975.4409],[25.9837,-6.6064,951.8334],[25.9659,-6.6028,978.8041],[25.9521,-6.6034,944.1415],[25.9345,-6.6019,989.6395],[25.9344,-6.5901,967.0051],[25.9373,-6.578,946.8141],[25.9342,-6.5616,940.4376],[25.9303,-6.5548,959.0923],[25.9419,-6.5449,939.196],[25.9479,-6.537,947.1688],[25.9491,-6.5168,935.8822],[25.9437,-6.4659,877.5768],[25.9458,-6.4609,875.7404],[25.9756,-6.4643,865.1328],[25.9846,-6.4632,879.1176],[25.985,-6.4565,880.5496],[25.9811,-6.4442,877.1563],[25.984,-6.43,866.4594],[25.9879,-6.4238,853.1001],[25.9956,-6.426,843.7324],[26.0104,-6.4363,842.2823],[26.0241,-6.4336,844.8507],[26.0512,-6.4176,881.2219],[26.0555,-6.4101,850.0856],[26.0597,-6.3862,849.037],[26.0635,-6.377,846.6316],[26.1051,-6.3197,861.8336],[26.1165,-6.2955,854.7132],[26.1127,-6.2857,830.2737],[26.0851,-6.2967,799.4397],[26.0722,-6.2961,788.7888],[26.0652,-6.2842,782.6695],[26.0604,-6.2711,827.4382],[26.0552,-6.2664,815.9617],[26.0461,-6.2641,803.703],[26.0366,-6.2648,808.4988],[26.028,-6.2626,790.9602],[26.0199,-6.2104,788.8094],[26.0165,-6.2044,789.4768],[26.0057,-6.2055,781.9988],[25.9859,-6.2195,767.8383],[25.9822,-6.2493,782.9151],[25.9771,-6.2732,771.4319],[25.9711,-6.2756,758.2745],[25.9598,-6.2649,784.9553],[25.949,-6.2475,753.4821],[25.9489,-6.2341,734.5976],[25.9522,-6.2186,732.1602],[25.9393,-6.2055,738.4361],[25.9255,-6.1972,747.3553],[25.9117,-6.1862,728.3516],[25.8942,-6.1774,733.3972],[25.883,-6.1684,690.7796],[25.8657,-6.1626,661.849],[25.8471,-6.1489,622.8717],[25.8291,-6.144,647.7457],[25.8259,-6.1468,662.902],[25.8034,-6.1514,689.5991],[25.8029,-6.1567,652.8175],[25.814,-6.1641,633.4125],[25.8115,-6.1767,641.275],[25.8034,-6.1834,650.8743],[25.7973,-6.1947,636.5542],[25.7913,-6.199,641.0062],[25.7777,-6.2041,656.1404],[25.761,-6.2069,670.0482],[25.7527,-6.2127,637.2405],[25.7398,-6.2152,660.7789],[25.7359,-6.217,663.309],[25.7281,-6.2249,683.3355],[25.7219,-6.2274,684.0889],[25.7093,-6.2276,670.964],[25.7061,-6.2297,670.6877],[25.7031,-6.2357,661.527],[25.6992,-6.238,668.6479],[25.6912,-6.238,731.3677],[25.6847,-6.2569,672.8102],[25.6811,-6.2615,673.1571],[25.671,-6.2656,655.4155],[25.6432,-6.2693,762.2704],[25.636,-6.2753,742.1831],[25.6131,-6.2772,834.8594],[25.6059,-6.2733,850.7846],[25.6013,-6.279,884.2598],[25.5984,-6.2804,869.1217],[25.5873,-6.2793,870.0404],[25.5793,-6.2827,874.7982],[25.5614,-6.2864,918.6238],[25.5421,-6.2986,831.9882],[25.5368,-6.3065,824.847],[25.5115,-6.309,847.2424],[25.5037,-6.3118,873.0609],[25.4959,-6.3092,879.9231],[25.4929,-6.299,894.9868],[25.4868,-6.2943,894.8457],[25.4399,-6.318,847.2675],[25.4278,-6.3203,838.1149],[25.4153,-6.3193,847.2149],[25.3885,-6.3008,815.7635],[25.3829,-6.299,785.654],[25.3682,-6.3026,768.2599],[25.2959,-6.3275,807.4326],[25.2933,-6.3363,818.0289],[25.3009,-6.3793,867.167],[25.3057,-6.3949,910.5751],[25.3063,-6.4164,895.633],[25.2869,-6.4316,847.3621],[25.2827,-6.4378,822.5129],[25.2724,-6.4416,792.4495],[25.2751,-6.4485,788.3874],[25.2797,-6.4517,787.3135],[25.2818,-6.4609,794.9904],[25.2887,-6.4621,800.8225],[25.2929,-6.4696,778.9919],[25.2968,-6.4722,779.6069],[25.3057,-6.4715,840.5029],[25.309,-6.4735,841.9549],[25.3145,-6.4804,795.7216],[25.3143,-6.4878,823.2505],[25.3292,-6.5066,783.7543],[25.3518,-6.5275,841.6866],[25.3566,-6.5301,843.6251],[25.3591,-6.5342,843.8875],[25.3683,-6.5408,842.5635],[25.3739,-6.5413,846.6834],[25.3799,-6.5341,839.9335],[25.3837,-6.5328,853.6652],[25.3911,-6.5351,838.0374],[25.3964,-6.547,825.1171],[25.4005,-6.5468,815.8151],[25.4047,-6.5443,828.4128],[25.4084,-6.545,828.8249],[25.412,-6.5507,828.4321],[25.4111,-6.5617,829.086],[25.4178,-6.5624,827.3915],[25.4233,-6.5672,829.8265],[25.4293,-6.5762,828.4088],[25.4399,-6.5766,867.1027],[25.4447,-6.5792,870.2967],[25.4475,-6.5895,835.1475],[25.4549,-6.5904,832.0082],[25.4583,-6.5934,847.8204],[25.465699999999998,-6.6123,830.6934],[25.4669,-6.6251,832.0372],[25.4632,-6.6426,835.6566],[25.4632,-6.6548,829.4778],[25.4616,-6.6601,831.9077],[25.4515,-6.6702,854.1715],[25.4407,-6.6895,864.9277],[25.4449,-6.701,854.7925],[25.4437,-6.704,852.4972],[25.4382,-6.7077,854.539],[25.4412,-6.7152,836.2999],[25.4483,-6.724,836.677],[25.4329,-6.7332,864.6746],[25.4217,-6.749,854.5765],[25.4098,-6.7598,867.32],[25.3941,-6.7702,879.8924],[25.3774,-6.787,874.4835],[25.3677,-6.7918,859.1255],[25.3456,-6.799,870.0439],[25.3376,-6.8049,878.128],[25.3102,-6.8086,872.2061],[25.2985,-6.805,877.121],[25.3015,-6.7912,926.6221],[25.3009,-6.7672,896.2718],[25.284,-6.7565,934.9241],[25.2662,-6.7302,910.4478],[25.2575,-6.7242,901.7828],[25.2414,-6.7214,855.111],[25.2225,-6.7094,893.5739],[25.1952,-6.6804,879.4803],[25.1814,-6.6731,868.858],[25.1732,-6.6746,860.9312],[25.1594,-6.6799,877.1713],[25.1426,-6.6914,868.8369],[25.1375,-6.6917,843.3819],[25.1094,-6.6837,902.7904],[25.0968,-6.6764,899.6232],[25.067,-6.6726,863.9662],[25.0549,-6.6669,877.0212],[25.0493,-6.6585,907.4557],[25.0441,-6.6563,913.9012],[25.0342,-6.6582,926.0156],[25.029,-6.6645,933.083],[25.0218,-6.6858,909.6479],[25.0102,-6.6982,892.1779],[24.9442,-6.6993,878.6313],[24.9352,-6.7033,881.6365],[24.9275,-6.7104,870.97],[24.931,-6.7255,887.0486],[24.9324,-6.7461,886.7629],[24.9264,-6.7502,894.7215],[24.8945,-6.7506,871.3878],[24.8755,-6.7578,861.1695],[24.8481,-6.7835,868.6829],[24.8408,-6.7947,811.8151],[24.8461,-6.8153,748.9895],[24.8475,-6.8272,755.6956],[24.8169,-6.8417,743.8907],[24.8031,-6.8582,716.9681],[24.7902,-6.8688,719.9771],[24.787,-6.8748,721.6581],[24.7843,-6.887,705.3898],[24.7813,-6.8902,697.5283],[24.7769,-6.8918,692.5533],[24.7488,-6.8899,689.6924],[24.7341,-6.9028,700.4246],[24.7373,-6.9086,685.5601],[24.7355,-6.9109,691.3976],[24.7256,-6.9145,693.8702],[24.7281,-6.9184,679.1067],[24.7275,-6.9203,678.8174],[24.7206,-6.9212,683.8379],[24.7217,-6.9265,679.056],[24.7169,-6.9263,690.5984],[24.7148,-6.9288,682.5955],[24.7102,-6.929,693.7892],[24.7056,-6.9334,686.9926],[24.7063,-6.9387,686.288],[24.7049,-6.9419,674.2086],[24.6987,-6.9433,694.7308],[24.698,-6.9483,683.0502],[24.695,-6.9485,685.2271],[24.6904,-6.9531,663.8554],[24.6828,-6.9524,689.0978],[24.669,-6.9552,657.1869],[24.6612,-6.9506,666.7749],[24.6564,-6.9508,651.5754],[24.6527,-6.9573,684.0122],[24.6437,-6.9607,722.8577],[24.6426,-6.9754,664.6314],[24.644,-6.9802,679.387],[24.6513,-6.9874,683.9597],[24.6543,-6.9938,722.7963],[24.653,-7.0046,726.1423],[24.6479,-7.0115,675.5914],[24.629,-7.0234,729.3979],[24.6277,-7.0333,716.8099],[24.6224,-7.0384,714.027],[24.6143,-7.0563,765.2252],[24.6095,-7.06,783.4639],[24.6086,-7.0671,798.9418],[24.6145,-7.0797,777.4793],[24.6095,-7.0866,810.514],[24.612,-7.0951,832.8832],[24.6028,-7.105,856.4146],[24.5973,-7.1167,858.7238],[24.5991,-7.1268,863.4106],[24.5934,-7.1434,861.4454],[24.6057,-7.1429,908.9618],[24.6108,-7.1446,915.8233],[24.6187,-7.1543,920.5732],[24.631,-7.1877,947.0454],[24.6335,-7.1904,944.6095],[24.6369,-7.2048,933.7522],[24.6452,-7.2218,968.7596],[24.6513,-7.2329,979.9073],[24.6604,-7.2387,989.7428],[24.6596,-7.2505,1011.8217],[24.6623,-7.2563,1027.9125],[24.6759,-7.2579,1018.8533],[24.7043,-7.2517,954.3769],[24.7094,-7.2487,963.0089],[24.7352,-7.2452,971.6473],[24.7666,-7.2324,899.8853],[24.7867,-7.2587,967.8057],[24.7864,-7.2611,975.9336],[24.7754,-7.27,955.3156],[24.768,-7.2804,993.1451],[24.7671,-7.2858,1012.6005],[24.7739,-7.2963,1041.9839],[24.7883,-7.2996,1032.4688],[24.7904,-7.2948,1015.1767],[24.7863,-7.2782,976.8561],[24.7869,-7.2738,970.0291],[24.7915,-7.2706,969.9922],[24.8044,-7.2676,962.9167],[24.8247,-7.2589,967.7756],[24.8325,-7.258,965.7341],[24.8449,-7.2534,955.0911],[24.8525,-7.2477,946.6545],[24.859,-7.2483,963.2621],[24.8643,-7.2454,946.9988],[24.8785,-7.2458,926.8979],[24.8813,-7.2435,934.1509],[24.8852,-7.2433,931.4616],[24.8919,-7.2463,953.3104],[24.899,-7.2454,935.6854],[24.9064,-7.2474,922.2124],[24.9103,-7.246,926.9684],[24.919,-7.2385,914.4749],[24.9278,-7.2346,910.9944],[24.9423,-7.2343,912.2574],[24.9499,-7.2371,910.5134],[24.9542,-7.2359,901.8752],[24.9595,-7.2486,906.5582],[24.971,-7.2614,902.6573],[24.9846,-7.2658,907.8223],[24.9977,-7.266,909.8628],[25.0053,-7.263,909.364],[25.0265,-7.263,890.2949],[25.0484,-7.26,898.4277],[25.0819,-7.2504,882.7532],[25.1079,-7.2368,878.548],[25.1224,-7.2338,876.8069],[25.1265,-7.2388,883.8442],[25.1293,-7.2473,904.4022],[25.1255,-7.2553,906.9832],[25.1148,-7.2693,933.5056],[25.1119,-7.2767,920.4139],[25.1125,-7.3094,1009.9145],[25.0991,-7.3226,958.9055],[25.0869,-7.3301,1004.4998],[25.0587,-7.3431,1007.0457],[25.0477,-7.3529,1006.7274],[25.0436,-7.3618,1022.9537],[25.0458,-7.3689,1007.8563],[25.0618,-7.3822,993.1858],[25.0643,-7.3881,959.7579],[25.0646,-7.419,1002.9711],[25.0587,-7.4344,1014.6083],[25.0579,-7.4406,1010.0736],[25.0576,-7.446,1012.5739],[25.061,-7.4545,985.1509],[25.0653,-7.4579,968.8533],[25.08,-7.4643,937.9487],[25.1156,-7.4753,964.1412],[25.125,-7.4802,963.3743],[25.1307,-7.4858,977.7715],[25.1294,-7.5011,954.6617],[25.1255,-7.5062,951.0151],[25.1158,-7.5313,923.9738],[25.1113,-7.5544,916.6478],[25.1119,-7.5626,926.1001],[25.1185,-7.5841,896.9995],[25.1209,-7.5899,881.7145],[25.1239,-7.5923,873.8885],[25.1261,-7.6034,878.0427],[25.1316,-7.6101,902.0675],[25.132,-7.6157,901.342],[25.139,-7.6242,910.4755],[25.141,-7.6457,912.4335],[25.1444,-7.6575,899.6448],[25.1471,-7.6624,875.9721],[25.1541,-7.6688,870.2068],[25.1601,-7.6697,871.3798],[25.164,-7.6738,866.6217],[25.1716,-7.672,869.8439],[25.1757,-7.669,866.059],[25.1773,-7.6527,871.5863],[25.2001,-7.6359,873.8267],[25.2052,-7.6352,864.6616],[25.2086,-7.6323,878.422],[25.2103,-7.6373,864.5227],[25.2126,-7.6368,866.385],[25.2162,-7.6322,866.1136],[25.2238,-7.6338,863.9861],[25.228,-7.632,863.7822],[25.2317,-7.6242,863.6856],[25.2414,-7.6233,863.2393],[25.2462,-7.6271,883.3643],[25.2519,-7.627,915.6111],[25.2686,-7.6389,963.4615],[25.2767,-7.6418,977.4432],[25.3067,-7.6429,963.7014],[25.3104,-7.638,943.2653],[25.3232,-7.6397,959.4117],[25.3299,-7.6426,927.2405],[25.3464,-7.6398,930.1041],[25.3574,-7.6346,936.9053],[25.367,-7.6266,918.3359],[25.3699,-7.62,883.4486],[25.3807,-7.6175,869.1475],[25.3838,-7.6248,867.8586],[25.3834,-7.6332,842.8859],[25.3891,-7.6459,844.7104],[25.3931,-7.6622,859.4259],[25.3968,-7.6688,838.123],[25.4037,-7.6752,815.3384],[25.4092,-7.678,801.5216],[25.415,-7.6785,802.3959],[25.4228,-7.6718,811.4744],[25.4497,-7.6679,789.46],[25.453,-7.6692,787.4316],[25.4559,-7.6747,796.8458],[25.4564,-7.6796,815.4521],[25.459,-7.6809,801.6383],[25.4647,-7.6947,819.5075],[25.4675,-7.6952,792.4116],[25.4719,-7.7018,798.9561],[25.4873,-7.7064,770.0223],[25.4958,-7.719,798.5952],[25.5087,-7.7316,776.7651],[25.518,-7.7367,771.1851],[25.5217,-7.7461,760.6705],[25.5313,-7.7534,751.9103],[25.5366,-7.7608,760.9064],[25.5415,-7.7631,769.0507],[25.5436,-7.7713,767.6666],[25.5498,-7.775,760.2355],[25.5523,-7.7821,744.1545],[25.5625,-7.7867,749.2123],[25.5763,-7.8014,741.9269],[25.5839,-7.8032,739.1656],[25.5876,-7.8062,745.3226],[25.5911,-7.8142,727.8694],[25.6074,-7.8289,719.1915],[25.616,-7.8325,717.2853],[25.6238,-7.8332,716.6974],[25.6302,-7.8364,718.6417],[25.6424,-7.8344,708.9215],[25.653,-7.8348,709.2962],[25.6634,-7.8387,706.3149],[25.6752,-7.8456,702.8979],[25.6871,-7.8416,699.887],[25.6899,-7.8428,703.0161],[25.6922,-7.8497,701.6318],[25.6957,-7.8485,699.2386],[25.701,-7.8529,694.205],[25.7056,-7.8545,693.8947],[25.7058,-7.8607,690.915],[25.7097,-7.8614,698.191],[25.721,-7.8749,688.7507],[25.7247,-7.877,691.0461],[25.7319,-7.8779,691.0295],[25.7356,-7.8813,693.0373],[25.7431,-7.879,684.3163],[25.7464,-7.882,684.2772],[25.7503,-7.8813,683.4355],[25.7547,-7.8863,682.7399],[25.7593,-7.8817,678.907],[25.7639,-7.8824,678.0242],[25.7671,-7.8797,676.0284],[25.7712,-7.8824,679.6438],[25.7747,-7.881,676.3802],[25.777,-7.8822,675.8345],[25.7802,-7.8923,672.5598],[25.7823,-7.8936,669.876],[25.7849,-7.9035,675.0734],[25.7879,-7.8987,671.7677],[25.7987,-7.9079,669.7559],[25.8026,-7.9083,671.0747],[25.8072,-7.9177,669.2826],[25.8052,-7.923,668.4264],[25.8082,-7.929,666.3959],[25.8066,-7.9319,663.8363],[25.8073,-7.9356,662.9751],[25.8147,-7.948,663.887],[25.8209,-7.948,661.6776],[25.8209,-7.9514,670.7886],[25.8239,-7.956,657.4443],[25.823,-7.9595,665.4669],[25.826,-7.9606,655.8841],[25.8354,-7.9581,657.793],[25.8449,-7.9663,652.8419],[25.849,-7.9743,654.2556],[25.8569,-7.9782,655.0461],[25.8601,-7.9824,650.0505],[25.8635,-7.9824,648.1438],[25.8652,-7.9858,654.4789],[25.8691,-7.9872,644.0054],[25.8712,-7.9913,660.3528],[25.8739,-7.9922,657.8597],[25.8762,-7.9888,643.4182],[25.8817,-7.9901,644.2659],[25.8838,-7.9883,642.7053],[25.8861,-7.9885,640.208],[25.885,-7.9938,642.5968],[25.8946,-8.0,643.7737],[25.9063,-8.0104,644.1946],[25.9107,-8.0117,640.5172],[25.918,-8.0107,642.2225],[25.9239,-8.0164,636.1919],[25.9396,-8.0192,639.7614],[25.9436,-8.0249,636.7993],[25.945,-8.0334,629.3923],[25.9499,-8.0338,636.5725],[25.9611,-8.0256,627.818],[25.965699999999998,-8.0285,628.7258],[25.9702,-8.0406,633.5254],[25.9811,-8.0444,628.3822],[25.9857,-8.0434,627.683],[26.0014,-8.0316,625.6997],[26.0076,-8.029,625.2277],[26.0077,-8.0354,624.2349],[26.0116,-8.0372,627.0523],[26.019,-8.0341,627.8143],[26.0252,-8.0342,626.0603]]]]}
,"properties": {"GID_2": "COD.4.2_1","GID_0": "COD","country": "DemocraticRepublicoftheCongo","GID_1": "COD.4_1","province": "Haut-Lomami","NL_NAME_1": "NA","county": "Kabongo","VARNAME_2": "NA","NL_NAME_2": "NA","TYPE_2": "Territoire","ENGTYPE_2": "Territory","CC_2": "NA","HASC_2": "NA","name": "Kabongo.county","area_km2": 20669.98,"hist_schema_id": "Elevation0-9000","hist_area_km2": {"600": 1.29,"625": 80.71,"650": 182.59,"675": 359.62,"700": 588.41,"725": 732.45,"750": 819.39,"775": 786.45,"800": 791.06,"825": 950.75,"850": 1439.47,"875": 1977.04,"900": 2470.82,"925": 2616.66,"950": 2304.63,"975": 1837.36,"1000": 1258.01,"1025": 724.4,"1050": 446.22,"1075": 236.75,"1100": 45.63,"1125": 20.16}}}