{"type":"Feature","properties":{"GID_2":"COD.14.1_1","GID_0":"COD","country":"DemocraticRepublicoftheCongo","GID_1":"COD.14_1","province":"Lomami","NL_NAME_1":"NA","county":"Kabinda","VARNAME_2":"NA","NL_NAME_2":"NA","TYPE_2":"Territoire","ENGTYPE_2":"Territory","CC_2":"NA","HASC_2":"NA","name":"Kabinda.county"},
"geometry":{"type": "MultiPolygon","coordinates": [[[[25.3829,-6.299,785.654],[25.3757,-6.2999,761.3606],[25.373,-6.2957,754.4611],[25.3543,-6.2783,762.645],[25.3529,-6.2744,753.9465],[25.3563,-6.2632,770.5618],[25.3609,-6.2547,732.9495],[25.3703,-6.25,749.4686],[25.3756,-6.2434,744.5208],[25.3793,-6.2342,730.9232],[25.3744,-6.2204,720.223],[25.3744,-6.2121,712.9169],[25.3721,-6.2094,710.4554],[25.3668,-6.2077,724.4351],[25.3645,-6.2043,694.854],[25.365,-6.2006,712.7156],[25.3533,-6.1972,742.7069],[25.3615,-6.191,749.6909],[25.3615,-6.1626,769.5529],[25.3572,-6.1,754.426],[25.3603,-6.0524,717.9727],[25.3539,-6.056,721.7693],[25.3283,-6.0592,745.8256],[25.3046,-6.0708,758.4021],[25.2805,-6.0774,752.2167],[25.2706,-6.091,778.2275],[25.2603,-6.0929,774.8241],[25.2564,-6.0952,797.0045],[25.2585,-6.0986,799.0338],[25.2557,-6.1023,815.1703],[25.219,-6.1159,838.6797],[25.1732,-6.1218,777.8314],[25.1555,-6.1187,743.4605],[25.093,-6.0849,690.0912],[25.077,-6.0779,704.97],[25.0663,-6.0789,659.5817],[25.0489,-6.0658,659.845],[25.0394,-6.0479,668.2689],[25.0367,-6.0343,651.5654],[25.027,-6.0322,667.834],[25.0171,-6.0356,665.7308],[25.002,-6.0442,670.3131],[24.9848,-6.0599,691.1974],[24.9779,-6.0628,671.1839],[24.9429,-6.0608,659.9236],[24.9374,-6.0578,656.0059],[24.9342,-6.0523,640.3577],[24.9289,-6.0486,672.3262],[24.9195,-6.0364,657.7091],[24.9246,-6.0331,637.3067],[24.9282,-6.0246,675.0246],[24.9277,-6.0142,672.1969],[24.9247,-6.0062,709.377],[24.9099,-5.9908,731.7288],[24.9002,-5.9876,742.5255],[24.8522,-5.9861,763.1875],[24.8361,-5.9808,769.7474],[24.8287,-5.9767,757.7828],[24.8173,-5.9671,783.9296],[24.8086,-5.954,778.4183],[24.785,-5.9481,736.2091],[24.7809,-5.9452,723.4247],[24.7784,-5.9396,699.0342],[24.7761,-5.9383,704.4364],[24.7699,-5.939,708.0779],[24.7664,-5.9373,690.0361],[24.7561,-5.9176,687.251],[24.7528,-5.8911,651.9347],[24.7561,-5.8753,638.2026],[24.7554,-5.8654,654.3655],[24.748,-5.8417,622.4594],[24.7487,-5.8329,664.8927],[24.7526,-5.8256,629.7824],[24.7618,-5.7879,680.2338],[24.7516,-5.7672,636.5859],[24.7514,-5.7554,639.1499],[24.7461,-5.7412,644.9177],[24.731,-5.737,682.1661],[24.7209,-5.7253,690.0754],[24.7207,-5.7165,695.1438],[24.7172,-5.7098,713.5087],[24.7126,-5.7057,710.1792],[24.6864,-5.6997,635.0096],[24.6703,-5.682,649.6395],[24.6478,-5.6515,695.6227],[24.6175,-5.6016,741.0443],[24.618,-5.5966,741.5853],[24.6216,-5.5928,759.1361],[24.6559,-5.572,720.7592],[24.6677,-5.5582,702.1638],[24.6799,-5.5511,711.4728],[24.68,-5.5475,708.5776],[24.675,-5.5389,720.8784],[24.6557,-5.5202,750.9114],[24.6438,-5.5118,713.438],[24.6381,-5.5116,751.9326],[24.6312,-5.5063,746.1519],[24.6271,-5.4957,733.6058],[24.6271,-5.4867,713.5449],[24.6293,-5.4801,716.066],[24.6417,-5.4531,662.6227],[24.6389,-5.443,680.557],[24.6448,-5.4344,690.631],[24.6497,-5.409,700.4547],[24.6475,-5.4005,691.1145],[24.6425,-5.3963,665.6171],[24.6309,-5.3917,644.1383],[24.5826,-5.3645,693.7878],[24.5735,-5.3589,669.1082],[24.5625,-5.3491,663.4789],[24.5525,-5.3453,669.8693],[24.5185,-5.3816,738.3043],[24.5075,-5.3884,751.8396],[24.4995,-5.3928,731.508],[24.4895,-5.3928,724.3275],[24.479,-5.3907,734.4137],[24.4604,-5.3819,656.8114],[24.4554,-5.3781,675.0762],[24.44,-5.3457,602.1829],[24.4362,-5.3419,625.5076],[24.4308,-5.3436,625.3203],[24.4238,-5.3514,647.3313],[24.4216,-5.3717,607.2542],[24.4164,-5.3777,642.1503],[24.4116,-5.3794,628.1036],[24.3909,-5.3789,586.96],[24.3828,-5.3816,549.7288],[24.3701,-5.39,653.306],[24.3391,-5.404,656.7635],[24.3053,-5.4105,666.0549],[24.2851,-5.4081,586.3219],[24.2381,-5.389,638.5479],[24.1828,-5.3777,577.5903],[24.1637,-5.3717,610.4527],[24.1492,-5.3811,639.5201],[24.1263,-5.3716,527.2303],[24.1258,-5.3856,582.2472],[24.1207,-5.3956,625.3956],[24.1185,-5.4111,613.385],[24.1084,-5.4222,651.3572],[24.1026,-5.4194,646.3394],[24.0909,-5.4181,644.0886],[24.089,-5.4098,596.8917],[24.086,-5.4103,632.1696],[24.0805,-5.4163,639.3239],[24.0777,-5.416,620.5798],[24.0734,-5.3965,653.027],[24.0664,-5.3852,640.1887],[24.0648,-5.39,642.2811],[24.057,-5.3975,637.1725],[24.0487,-5.4124,580.0062],[24.045,-5.4245,615.6259],[24.0446,-5.4666,649.6407],[24.0606,-5.5566,611.047],[24.0624,-5.5829,636.421],[24.066,-5.5919,690.5393],[24.0714,-5.5958,692.494],[24.1028,-5.6045,690.6245],[24.1147,-5.6104,694.3467],[24.1248,-5.613,719.9568],[24.1461,-5.6387,715.8386],[24.1501,-5.6469,713.8594],[24.1703,-5.6604,634.5858],[24.1703,-5.666,661.2364],[24.1724,-5.6692,670.2118],[24.1705,-5.6766,637.041],[24.1731,-5.6876,685.53],[24.1708,-5.6927,658.5117],[24.1731,-5.6977,662.2388],[24.171,-5.7016,668.8894],[24.1737,-5.7056,708.7427],[24.1747,-5.7111,728.4576],[24.1721,-5.718,665.1031],[24.1753,-5.7214,682.1802],[24.1763,-5.7263,746.6425],[24.1802,-5.7279,712.9125],[24.1836,-5.7456,682.9441],[24.1942,-5.7483,733.4653],[24.1951,-5.75,722.8043],[24.19,-5.7608,715.9429],[24.1923,-5.767,731.5035],[24.199,-5.773,759.9174],[24.1997,-5.7764,733.2642],[24.1903,-5.787,726.1628],[24.1877,-5.7987,710.6406],[24.179,-5.7994,722.865],[24.1574,-5.7911,738.2582],[24.1367,-5.7894,736.4189],[24.1165,-5.7916,737.8],[24.0951,-5.7982,729.973],[24.0875,-5.7991,722.3884],[24.0666,-5.7975,678.9437],[24.0622,-5.7996,678.5319],[24.0553,-5.8101,690.4911],[24.0499,-5.8144,678.0656],[24.0242,-5.8121,639.9628],[24.013,-5.8168,620.0642],[24.0113,-5.8273,622.9575],[24.0076,-5.8315,616.2371],[23.9982,-5.8259,631.2294],[23.9929,-5.8257,645.5873],[23.9865,-5.8287,631.8396],[23.975,-5.8252,631.4426],[23.9715,-5.8213,607.8152],[23.9644,-5.8197,595.4482],[23.961,-5.8167,630.5227],[23.9575,-5.816,635.721],[23.9556,-5.8231,571.0356],[23.9559,-5.8324,608.6446],[23.9576,-5.8409,670.4736],[23.9612,-5.845,644.7013],[23.9564,-5.853,646.1006],[23.9597,-5.8687,636.0008],[23.9645,-5.8772,675.3407],[23.9689,-5.8802,665.9094],[23.9705,-5.8861,689.6432],[23.9763,-5.9392,685.4484],[23.9815,-5.9433,678.3302],[24.005,-5.9426,682.2729],[24.0113,-5.9464,657.652],[24.0152,-5.9522,693.1677],[24.0152,-5.9613,684.6826],[24.0078,-5.9797,673.0612],[24.0026,-6.0062,673.7477],[23.9974,-6.0212,583.2242],[23.9896,-6.0255,576.5483],[23.9923,-6.0287,574.5976],[23.9965,-6.0304,578.618],[24.0087,-6.0246,584.5493],[24.0165,-6.0288,593.1444],[24.0245,-6.0373,612.4387],[24.03,-6.0398,593.6594],[24.0413,-6.0398,601.1879],[24.0523,-6.0355,610.7776],[24.0558,-6.0359,612.8658],[24.0578,-6.0373,626.6135],[24.062,-6.049,698.4064],[24.0714,-6.0569,662.3177],[24.076,-6.0573,664.2616],[24.0803,-6.0553,667.2831],[24.0884,-6.0548,707.5552],[24.0955,-6.0488,726.502],[24.1063,-6.0486,704.8381],[24.1118,-6.0514,749.1058],[24.1169,-6.0587,708.0417],[24.1189,-6.0654,741.8477],[24.1304,-6.0631,773.035],[24.1398,-6.0659,783.1169],[24.1454,-6.0624,811.6396],[24.1516,-6.0622,787.551],[24.1548,-6.0645,795.0821],[24.161,-6.0751,730.8615],[24.1633,-6.0852,743.8965],[24.1683,-6.088,731.9602],[24.1748,-6.1029,779.9208],[24.1727,-6.1071,772.8582],[24.1662,-6.113,775.0197],[24.1623,-6.114,787.2017],[24.1557,-6.1197,791.2209],[24.1428,-6.1259,796.6597],[24.1398,-6.1289,822.7701],[24.1391,-6.1362,806.9454],[24.1405,-6.1411,824.4856],[24.1392,-6.1459,821.0949],[24.114,-6.1769,836.7413],[24.1079,-6.1926,862.2167],[24.1003,-6.1928,849.7987],[24.0954,-6.1891,868.2863],[24.0904,-6.1914,824.4695],[24.0858,-6.1892,827.4885],[24.0814,-6.1894,800.7736],[24.0759,-6.1954,808.2783],[24.0658,-6.1954,825.9509],[24.0612,-6.2062,835.7168],[24.0581,-6.2085,831.9659],[24.0366,-6.2056,847.6459],[24.0295,-6.2097,865.7739],[24.008,-6.2175,833.9572],[24.0053,-6.2293,872.2302],[24.0008,-6.2892,915.6549],[24.0041,-6.2965,853.1046],[24.0093,-6.3014,818.5865],[24.0202,-6.3053,825.8712],[24.077,-6.3368,717.7709],[24.0914,-6.355,623.1019],[24.1032,-6.345,642.4947],[24.107,-6.3441,653.3642],[24.1099,-6.348,640.5833],[24.113,-6.3654,689.6547],[24.1238,-6.3668,695.4327],[24.1308,-6.3742,732.0991],[24.1296,-6.3907,715.3143],[24.1187,-6.4264,683.638],[24.1216,-6.4306,717.2418],[24.1341,-6.4393,664.1373],[24.1459,-6.4562,638.7388],[24.1758,-6.4901,634.9677],[24.1847,-6.4941,630.0066],[24.192,-6.4927,633.5397],[24.2214,-6.4783,651.223],[24.2556,-6.4751,663.2796],[24.26,-6.4709,689.162],[24.262,-6.4609,704.6273],[24.2657,-6.4529,680.3752],[24.2691,-6.4497,680.4156],[24.2924,-6.4515,701.3157],[24.3394,-6.4617,679.4477],[24.3412,-6.4945,706.808],[24.3452,-6.5046,690.8047],[24.3729,-6.5411,694.3522],[24.4036,-6.5877,663.6755],[24.4181,-6.6042,669.3247],[24.43,-6.6049,675.4375],[24.4374,-6.6091,685.9333],[24.448,-6.6097,693.0311],[24.4707,-6.6008,799.0598],[24.4765,-6.5955,779.9407],[24.497,-6.5953,758.0054],[24.5022,-6.5916,768.435],[24.508,-6.5907,825.2744],[24.5142,-6.5921,791.8162],[24.5381,-6.5865,816.8818],[24.6304,-6.582,694.0118],[24.6363,-6.5877,712.52],[24.6338,-6.6022,690.5204],[24.6342,-6.6107,690.933],[24.6462,-6.6259,693.1713],[24.6471,-6.6346,688.9422],[24.6522,-6.6394,673.3229],[24.6554,-6.6457,672.4589],[24.6565,-6.6592,685.3781],[24.6513,-6.676,673.4355],[24.6526,-6.6923,688.2544],[24.6563,-6.6958,667.7687],[24.6724,-6.696,684.979],[24.6786,-6.6912,704.3771],[24.6885,-6.6905,676.7515],[24.6931,-6.687,697.8063],[24.7053,-6.6884,683.1878],[24.7136,-6.6778,691.9838],[24.7182,-6.6774,679.4518],[24.7246,-6.6705,696.7435],[24.734,-6.6811,687.1674],[24.7428,-6.6801,696.9771],[24.7469,-6.6831,683.7713],[24.7536,-6.6942,722.8389],[24.758,-6.6985,699.7054],[24.7639,-6.6987,689.9632],[24.7734,-6.6946,716.3748],[24.781,-6.6944,712.0862],[24.7895,-6.6969,700.1509],[24.8037,-6.6925,717.3613],[24.8187,-6.7024,726.0246],[24.8251,-6.7029,722.4016],[24.8325,-6.7077,739.3307],[24.8472,-6.707,733.3724],[24.8555,-6.7091,732.5746],[24.8626,-6.7089,738.7483],[24.8792,-6.7003,813.6542],[24.8939,-6.6992,856.8871],[24.9017,-6.6964,869.0245],[24.9063,-6.6983,869.17],[24.9137,-6.6948,871.86],[24.9219,-6.6937,897.2221],[24.9286,-6.7019,872.6838],[24.9275,-6.7104,870.97],[24.9352,-6.7033,881.6365],[24.9442,-6.6993,878.6313],[25.0102,-6.6982,892.1779],[25.0218,-6.6858,909.6479],[25.029,-6.6645,933.083],[25.0342,-6.6582,926.0156],[25.0441,-6.6563,913.9012],[25.0493,-6.6585,907.4557],[25.0549,-6.6669,877.0212],[25.067,-6.6726,863.9662],[25.0968,-6.6764,899.6232],[25.1094,-6.6837,902.7904],[25.1375,-6.6917,843.3819],[25.1426,-6.6914,868.8369],[25.1594,-6.6799,877.1713],[25.1814,-6.6731,868.858],[25.1952,-6.6804,879.4803],[25.2225,-6.7094,893.5739],[25.2414,-6.7214,855.111],[25.2575,-6.7242,901.7828],[25.2662,-6.7302,910.4478],[25.284,-6.7565,934.9241],[25.3009,-6.7672,896.2718],[25.3015,-6.7912,926.6221],[25.2985,-6.805,877.121],[25.3102,-6.8086,872.2061],[25.3376,-6.8049,878.128],[25.3456,-6.799,870.0439],[25.3677,-6.7918,859.1255],[25.3774,-6.787,874.4835],[25.3941,-6.7702,879.8924],[25.4098,-6.7598,867.32],[25.4217,-6.749,854.5765],[25.4329,-6.7332,864.6746],[25.4483,-6.724,836.677],[25.4412,-6.7152,836.2999],[25.4382,-6.7077,854.539],[25.4437,-6.704,852.4972],[25.4449,-6.701,854.7925],[25.4407,-6.6895,864.9277],[25.4515,-6.6702,854.1715],[25.4616,-6.6601,831.9077],[25.4632,-6.6548,829.4778],[25.4632,-6.6426,835.6566],[25.4669,-6.6251,832.0372],[25.465699999999998,-6.6123,830.6934],[25.4583,-6.5934,847.8204],[25.4549,-6.5904,832.0082],[25.4475,-6.5895,835.1475],[25.4447,-6.5792,870.2967],[25.4399,-6.5766,867.1027],[25.4293,-6.5762,828.4088],[25.4233,-6.5672,829.8265],[25.4178,-6.5624,827.3915],[25.4111,-6.5617,829.086],[25.412,-6.5507,828.4321],[25.4084,-6.545,828.8249],[25.4047,-6.5443,828.4128],[25.4005,-6.5468,815.8151],[25.3964,-6.547,825.1171],[25.3911,-6.5351,838.0374],[25.3837,-6.5328,853.6652],[25.3799,-6.5341,839.9335],[25.3739,-6.5413,846.6834],[25.3683,-6.5408,842.5635],[25.3591,-6.5342,843.8875],[25.3566,-6.5301,843.6251],[25.3518,-6.5275,841.6866],[25.3292,-6.5066,783.7543],[25.3143,-6.4878,823.2505],[25.3145,-6.4804,795.7216],[25.309,-6.4735,841.9549],[25.3057,-6.4715,840.5029],[25.2968,-6.4722,779.6069],[25.2929,-6.4696,778.9919],[25.2887,-6.4621,800.8225],[25.2818,-6.4609,794.9904],[25.2797,-6.4517,787.3135],[25.2751,-6.4485,788.3874],[25.2724,-6.4416,792.4495],[25.2827,-6.4378,822.5129],[25.2869,-6.4316,847.3621],[25.3063,-6.4164,895.633],[25.3057,-6.3949,910.5751],[25.3009,-6.3793,867.167],[25.2933,-6.3363,818.0289],[25.2959,-6.3275,807.4326],[25.3682,-6.3026,768.2599],[25.3829,-6.299,785.654]],
[[24.5077,-6.1664,880.5731],[24.4851,-6.1686,878.6229],[24.4681,-6.1646,829.5866],[24.4542,-6.1572,895.6233],[24.4481,-6.149,830.2209],[24.4438,-6.1372,798.6315],[24.4429,-6.1233,814.3626],[24.4487,-6.1131,811.4817],[24.4852,-6.1,759.3268],[24.505,-6.0946,743.5927],[24.5096,-6.1042,745.3961],[24.5329,-6.1118,816.7775],[24.5314,-6.1538,777.2081],[24.5077,-6.1664,880.5731]]]]}}