{"type":"Feature","properties":{"GID_2":"COD.6.7_1","GID_0":"COD","country":"DemocraticRepublicoftheCongo","GID_1":"COD.6_1","province":"Ituri","NL_NAME_1":"NA","county":"Irumu","VARNAME_2":"NA","NL_NAME_2":"NA","TYPE_2":"Territoire","ENGTYPE_2":"Territory","CC_2":"NA","HASC_2":"NA","name":"Irumu.county"},
"geometry":{"type": "MultiPolygon","coordinates": [[[[30.2995,1.5865,1297.2622],[30.3172,1.5966,1312.4261],[30.3373,1.6144,1342.4595],[30.3298,1.6385,1335.6538],[30.3214,1.6481,1309.2128],[30.3185,1.6618,1335.0857],[30.3131,1.6666,1315.061],[30.3032,1.6722,1272.8899],[30.2794,1.6697,1304.5577],[30.271,1.6705,1324.8628],[30.2616,1.6774,1285.8711],[30.258,1.693,1330.866],[30.2466,1.6994,1442.4924],[30.2236,1.7009,1549.0348],[30.2137,1.704,1581.6694],[30.2051,1.6993,1527.6333],[30.2028,1.7011,1555.4036],[30.2025,1.7069,1578.7346],[30.1783,1.6902,1572.1495],[30.1691,1.6861,1394.5598],[30.1598,1.6853,1363.5247],[30.1445,1.6901,1304.8826],[30.1273,1.7028,1297.9719],[30.1228,1.6938,1310.9297],[30.0964,1.6639,1181.5471],[30.0908,1.6502,1145.7607],[30.0809,1.6398,1098.9324],[30.0691,1.6543,1150.2317],[30.0591,1.6607,1113.3844],[30.0369,1.6606,1098.5056],[30.0008,1.6532,1036.556],[29.9909,1.6644,1008.8801],[29.998,1.6862,1072.1552],[30.0381,1.7218,1098.2688],[30.0382,1.7299,1046.045],[30.0207,1.7427,1000.8531],[30.0,1.7451,947.8463],[29.9978,1.7413,945.583],[29.9973,1.7288,942.4413],[30.0,1.7238,966.6295],[29.9937,1.7219,960.7867],[29.9921,1.7148,953.6929],[29.9854,1.704,968.9631],[29.9481,1.657,1005.5143],[29.9428,1.6533,950.8481],[29.9343,1.6528,927.0179],[29.9307,1.6496,941.9149],[29.9222,1.6349,929.9423],[29.9206,1.6276,915.9319],[29.9174,1.6232,928.8892],[29.9167,1.6184,917.3201],[29.904,1.5922,907.1196],[29.902,1.5821,907.3607],[29.8905,1.5775,901.3578],[29.8508,1.5863,1033.2349],[29.8366,1.5866,1003.1006],[29.8177,1.5912,932.6121],[29.8044,1.5848,909.7371],[29.79,1.5747,906.8303],[29.782,1.5637,916.8824],[29.7781,1.5625,904.3258],[29.7687,1.5646,910.5143],[29.7689,1.5582,921.8101],[29.7609,1.5347,911.548],[29.7565,1.529,890.5082],[29.7577,1.5246,904.9774],[29.7538,1.518,879.6326],[29.7547,1.5111,906.8346],[29.7533,1.509,893.8514],[29.7471,1.5065,889.271],[29.7469,1.5017,885.4375],[29.7437,1.4998,878.5027],[29.7354,1.4702,858.9038],[29.7278,1.4555,847.4751],[29.7242,1.4437,847.1553],[29.7248,1.4366,842.4788],[29.6954,1.4323,897.3828],[29.6739,1.4333,893.5624],[29.6645,1.4388,916.4497],[29.6552,1.4563,919.0801],[29.633,1.457,925.91],[29.6205,1.4497,908.416],[29.614,1.4428,916.9161],[29.5875,1.4074,941.5494],[29.5846,1.368,970.1837],[29.56,1.3672,931.5219],[29.5451,1.3613,916.4339],[29.5284,1.3468,878.2485],[29.5282,1.3441,883.9428],[29.5319,1.3365,938.0064],[29.528,1.3257,921.5215],[29.5295,1.3153,880.3317],[29.5183,1.3048,881.2388],[29.5121,1.2965,879.6573],[29.5051,1.2935,858.6556],[29.4959,1.2859,861.5439],[29.4806,1.2795,855.9011],[29.479,1.2742,841.532],[29.481,1.266,838.3588],[29.475,1.2303,821.4094],[29.4732,1.2266,823.11],[29.4723,1.2163,830.2761],[29.4739,1.2096,829.3055],[29.4643,1.1998,832.7332],[29.4604,1.1919,835.9413],[29.4494,1.1878,840.4691],[29.4451,1.1984,854.1693],[29.4412,1.2014,825.8211],[29.4359,1.2014,841.6766],[29.4339,1.1989,834.3592],[29.4439,1.1878,836.2036],[29.4416,1.1846,829.66],[29.4339,1.1807,819.3964],[29.4243,1.186,829.2809],[29.4126,1.1833,818.2225],[29.4053,1.1711,826.9356],[29.4055,1.1684,822.9414],[29.4124,1.1677,828.7611],[29.414,1.1653,845.4739],[29.3986,1.1458,841.6589],[29.3975,1.141,840.1688],[29.3991,1.1343,831.6216],[29.3952,1.127,837.6039],[29.3883,1.1203,830.4369],[29.3739,1.1116,830.6104],[29.3723,1.1047,834.5573],[29.3764,1.0923,857.6611],[29.3753,1.0819,838.4578],[29.3778,1.076,852.5272],[29.3764,1.0656,848.1874],[29.3732,1.0597,824.7859],[29.3743,1.0436,833.1768],[29.3718,1.0406,830.6174],[29.3654,1.0394,848.3992],[29.3603,1.0362,834.669],[29.3585,1.0305,825.5404],[29.3576,1.0162,841.8126],[29.3519,1.0116,825.7053],[29.35,0.9951,822.4247],[29.3484,0.993,816.1642],[29.337,0.9877,839.5734],[29.3251,0.9873,840.6857],[29.3158,0.9917,839.1625],[29.313,0.991,837.2096],[29.3103,0.9784,810.5287],[29.297,0.9625,812.1716],[29.2938,0.9616,828.137],[29.2899,0.9575,834.3376],[29.2974,0.9533,849.0438],[29.2995,0.9485,844.3705],[29.2979,0.9418,833.9139],[29.2988,0.9388,836.1628],[29.3086,0.9358,835.86],[29.3127,0.9326,832.3795],[29.3141,0.9285,839.8525],[29.312,0.9216,848.2571],[29.3136,0.9147,848.0488],[29.3214,0.9089,855.8829],[29.3296,0.9087,857.0947],[29.3369,0.9048,852.787],[29.3433,0.8988,860.2892],[29.3522,0.8847,869.3019],[29.3585,0.882,872.6185],[29.3615,0.876,888.1825],[29.3683,0.8709,892.903],[29.3697,0.8684,893.2054],[29.3676,0.8631,903.8074],[29.3718,0.8587,913.3696],[29.3697,0.8525,908.7131],[29.3715,0.8447,902.5908],[29.3793,0.839,906.9909],[29.3827,0.8256,919.5307],[29.3884,0.819,917.799],[29.3961,0.8164,922.1368],[29.3986,0.8116,922.2945],[29.4046,0.81,928.567],[29.4096,0.815,923.3838],[29.4158,0.8157,923.6581],[29.4199,0.8233,931.0948],[29.4297,0.8302,930.6055],[29.442,0.834,936.6348],[29.4448,0.8373,931.8516],[29.4471,0.8474,938.6033],[29.4519,0.852,945.9106],[29.4549,0.8586,943.0182],[29.4581,0.8602,961.9031],[29.4754,0.8528,968.0709],[29.4813,0.845,970.7544],[29.4861,0.842,972.5582],[29.4946,0.801,1003.1301],[29.5096,0.7902,1020.3191],[29.5369,0.7887,1044.8691],[29.5291,0.813,1035.183],[29.5282,0.8375,1108.6577],[29.5216,0.8471,1003.722],[29.5208,0.8543,990.8331],[29.5229,0.8612,991.4216],[29.5373,0.8633,1007.8434],[29.5598,0.8748,1032.6782],[29.5725,0.871,1028.6749],[29.5859,0.8619,1048.1177],[29.6001,0.8612,1070.7102],[29.6138,0.8546,1097.6576],[29.6232,0.8535,1155.6355],[29.6275,0.8563,1163.63],[29.6262,0.8736,1084.4761],[29.6274,0.8816,1112.679],[29.634,0.8861,1113.6145],[29.6367,0.8954,1125.6714],[29.6409,0.901,1232.1729],[29.6485,0.9015,1273.6158],[29.6591,0.9077,1176.9779],[29.6636,0.9061,1172.3223],[29.6689,0.8977,1173.311],[29.696,0.8683,1150.646],[29.7047,0.8644,1100.875],[29.7268,0.8655,1071.674],[29.7352,0.8745,1035.5339],[29.741,0.8749,1084.506],[29.7453,0.8873,1089.2937],[29.7435,0.897,1157.9116],[29.7561,0.908,1124.1062],[29.7629,0.9092,1128.542],[29.7946,0.9064,1150.4635],[29.7981,0.9096,1165.5585],[29.8078,0.9105,1207.4186],[29.8216,0.9308,1203.4326],[29.826,0.932,1203.9785],[29.8381,0.9414,1210.6195],[29.8515,0.9399,1359.2021],[29.8612,0.9542,1435.917],[29.8626,0.9505,1424.3483],[29.8628,0.9307,1438.5029],[29.8602,0.8974,1162.7593],[29.865,0.8898,1170.7599],[29.8684,0.8889,1073.8807],[29.8752,0.8907,937.5081],[29.8768,0.8882,846.3876],[29.875,0.8666,819.0266],[29.8788,0.8578,811.6587],[29.8879,0.8475,749.7906],[29.8952,0.8438,731.4802],[29.8986,0.8344,729.4528],[29.8998,0.8242,758.3654],[29.9089,0.8137,701.6925],[29.907,0.8109,701.9504],[29.907,0.8051,695.9942],[29.9107,0.8047,686.0532],[29.9203,0.7991,689.0762],[29.9237,0.7987,698.6141],[29.9365,0.8072,679.9115],[29.945,0.817,687.9962],[29.9495,0.8168,686.4072],[29.9538,0.8133,673.9197],[29.9571,0.8163,680.5349],[29.9557,0.8227,680.8882],[29.9646,0.8319,676.2452],[29.9701,0.8349,671.0524],[29.9828,0.8366,674.1025],[29.984,0.8409,675.3782],[29.9885,0.8391,679.3494],[29.9855,0.8506,679.0704],[29.9875,0.8492,676.7809],[29.9911,0.8504,679.1205],[30.0,0.848,673.9878],[29.9996,0.8524,681.3494],[30.0029,0.853,681.1532],[30.0044,0.8562,689.183],[30.0093,0.8572,669.9409],[30.0109,0.8561,671.6408],[30.0105,0.8542,665.8877],[30.0156,0.8537,679.4979],[30.0199,0.8616,668.8097],[30.0269,0.8605,668.5289],[30.0226,0.8649,666.589],[30.0228,0.8671,667.9087],[30.0248,0.8681,667.0425],[30.031,0.862,662.5082],[30.0333,0.8639,666.466],[30.0326,0.8663,665.6134],[30.0445,0.8714,669.4733],[30.0511,0.8723,665.2917],[30.0634,0.8708,664.5685],[30.0677,0.8775,661.9155],[30.0726,0.882,659.1031],[30.0881,0.8873,662.6093],[30.088,0.8899,661.6089],[30.090699999999998,0.8882,660.5735],[30.0961,0.8901,661.0852],[30.0977,0.8928,662.871],[30.1026,0.8926,663.0258],[30.1031,0.8956,657.9119],[30.1076,0.8941,662.8553],[30.1094,0.8971,658.5962],[30.113,0.8919,664.8123],[30.1148,0.894,658.1666],[30.1139,0.8963,658.7027],[30.1158,0.8973,659.7195],[30.1288,0.8927,660.6982],[30.1318,0.8941,662.3566],[30.1336,0.8919,654.4683],[30.1412,0.89,656.9346],[30.1429,0.8867,654.5441],[30.1448,0.8905,657.0494],[30.1488,0.8892,653.2354],[30.1526,0.8982,652.7559],[30.1483,0.9,651.3161],[30.1531,0.8996,651.0625],[30.1542,0.9022,650.6137],[30.1588,0.9031,649.7719],[30.1591,0.9054,650.4369],[30.1613,0.9036,650.2322],[30.1645,0.9075,649.1522],[30.1613,0.9127,649.5655],[30.1634,0.9133,650.7911],[30.166,0.9109,651.4686],[30.1716,0.9157,651.0032],[30.1734,0.9199,648.5418],[30.1722,0.935,646.2666],[30.1733,0.9396,647.661],[30.1753,0.9408,646.3798],[30.1745,0.9445,650.091],[30.1768,0.9462,645.8248],[30.1739,0.9487,646.0355],[30.1766,0.9493,646.84],[30.1804,0.9468,647.0464],[30.1833,0.9493,646.9993],[30.1886,0.9497,647.3176],[30.1913,0.9518,647.3448],[30.194,0.9569,646.6721],[30.1946,0.9679,645.3956],[30.1973,0.9711,644.5005],[30.2111,0.9796,642.6793],[30.212,0.9811,643.2725],[30.2098,0.9817,643.5587],[30.2096,0.9832,640.5761],[30.215,0.9864,642.0217],[30.2141,0.9902,640.8988],[30.2159,0.9907,640.8406],[30.2177,0.9885,642.3374],[30.2205,0.9931,641.5709],[30.2244,0.9949,640.4935],[30.2262,0.9999,640.6086],[30.2227,1.0105,639.4208],[30.2249,1.0158,637.163],[30.2243,1.0196,638.6787],[30.2195,1.0185,639.2535],[30.2239,1.0261,637.8527],[30.2223,1.0304,638.6269],[30.2265,1.0305,636.2279],[30.2267,1.0389,637.3018],[30.2245,1.0401,637.4825],[30.2224,1.0359,636.9268],[30.2204,1.0387,637.2599],[30.2222,1.0413,636.8636],[30.2269,1.0426,637.4697],[30.2286,1.0458,635.7626],[30.2268,1.0476,636.3999],[30.2211,1.048,635.3424],[30.2234,1.0532,635.314],[30.2217,1.0561,635.3066],[30.2278,1.0592,635.5522],[30.2249,1.0623,635.1245],[30.2244,1.0668,634.7828],[30.2252,1.0692,634.7148],[30.2291,1.0711,633.8546],[30.2252,1.0744,634.4232],[30.23,1.0765,634.3641],[30.2269,1.0808,634.2527],[30.229,1.0844,634.4738],[30.228,1.0881,633.1793],[30.231,1.0867,634.5154],[30.2315,1.0908,632.6287],[30.235,1.0942,632.7147],[30.2376,1.0941,632.0551],[30.2376,1.0975,632.5449],[30.2399,1.1004,632.1477],[30.2387,1.1032,631.7864],[30.2401,1.1113,632.3232],[30.2481,1.1114,632.0433],[30.2506,1.1083,631.8214],[30.264,1.1049,631.4158],[30.2711,1.1195,630.1134],[30.2847,1.1277,628.8736],[30.2903,1.1351,628.4796],[30.301,1.1398,628.2618],[30.3066,1.1477,627.706],[30.32,1.157,629.1853],[30.3235,1.1568,627.1978],[30.3295,1.1514,628.778],[30.3326,1.1519,626.8453],[30.3363,1.1556,626.3724],[30.3413,1.1797,626.0498],[30.3472,1.1862,628.0445],[30.3472,1.1894,626.2294],[30.354,1.1954,626.0466],[30.36,1.2052,627.3273],[30.3709,1.2023,625.91],[30.3767,1.1956,625.928],[30.3838,1.1956,623.9564],[30.3892,1.1909,623.3679],[30.3947,1.1936,623.0925],[30.3972,1.1926,623.1224],[30.4056,1.1963,623.4351],[30.4068,1.1993,623.1484],[30.412,1.2007,623.7102],[30.417,1.1989,622.37],[30.4182,1.1946,622.5555],[30.4225,1.1943,621.9408],[30.4323,1.2007,623.0009],[30.4375,1.2006,622.363],[30.4426,1.2046,622.1742],[30.4496,1.2032,622.2469],[30.4582,1.2047,622.0886],[30.4693,1.2108,622.3145],[30.4698,1.2139,622.4895],[30.4723,1.2145,622.3394],[30.4755,1.2127,623.5104],[30.5198,1.2662,620.0],[30.5497,1.2663,620.0],[30.562,1.2822,620.0],[30.6,1.3484,620.0],[30.5946,1.3485,620.0],[30.5569,1.3687,620.0],[30.5252,1.3783,620.0],[30.5075,1.3869,620.0],[30.4689,1.4129,621.8756],[30.4615,1.4123,626.6367],[30.4599,1.4166,629.0386],[30.4502,1.4218,638.1273],[30.4218,1.4477,662.4241],[30.4034,1.4487,670.4941],[30.3843,1.4518,690.5956],[30.3513,1.4485,879.8466],[30.3412,1.4404,1073.9586],[30.341,1.4138,766.1317],[30.3325,1.4097,814.3911],[30.298,1.4112,1193.0813],[30.2919,1.4168,1317.054],[30.289,1.4337,1445.7224],[30.2958,1.4541,1419.3339],[30.2891,1.4789,1339.5892],[30.2817,1.4887,1282.975],[30.2705,1.4913,1338.4285],[30.2571,1.4969,1239.8064],[30.2489,1.4934,1231.3372],[30.2412,1.4926,1229.9554],[30.2326,1.4872,1228.6683],[30.2216,1.4843,1197.7144],[30.2235,1.4953,1201.068],[30.2236,1.5158,1226.8008],[30.2328,1.5548,1256.4528],[30.2298,1.5801,1224.6323],[30.2193,1.5822,1210.068],[30.2279,1.5914,1225.3342],[30.2505,1.5972,1256.5426],[30.2684,1.5978,1283.0505],[30.2835,1.594,1306.4871],[30.2995,1.5865,1297.2622]]]]}}