{"type": "Feature","bbox": [28.5145,-1.7819,29.2236,-0.9702],"geometry": {"type": "MultiPolygon","coordinates": [[[[29.1531,-1.6104,1541.1167],[29.1606,-1.5993,1584.9666],[29.1679,-1.5828,1665.318],[29.1677,-1.5788,1675.5585],[29.1564,-1.5646,1689.1067],[29.1561,-1.5323,1879.6381],[29.1869,-1.5005,2102.3062],[29.2181,-1.4747,2261.1033],[29.2236,-1.4666,2279.427],[29.2113,-1.3938,2675.3696],[29.1412,-1.3653,2094.45],[29.1364,-1.3647,2075.9861],[29.127,-1.3585,2065.0298],[29.1093,-1.342,2016.0878],[29.0958,-1.3382,1995.0568],[29.0887,-1.3339,1980.9775],[29.0772,-1.3103,1860.9033],[29.0602,-1.2981,1762.5889],[29.0522,-1.2888,1738.3252],[29.0406,-1.2791,1728.6215],[29.0362,-1.2726,1715.7268],[29.0358,-1.2638,1709.0035],[29.0392,-1.2608,1708.679],[29.0428,-1.2465,1729.074],[29.0529,-1.227,1643.2577],[29.0444,-1.2203,1631.1016],[29.0361,-1.2043,1608.1862],[29.0283,-1.1958,1580.5668],[29.0272,-1.1912,1579.9833],[29.0296,-1.1866,1571.9927],[29.0294,-1.1816,1564.5804],[29.0362,-1.1737,1545.329],[29.0353,-1.1696,1538.6345],[29.0416,-1.1558,1534.3677],[29.0345,-1.1537,1547.8684],[29.0331,-1.1512,1620.4773],[29.0381,-1.1445,1504.0835],[29.0374,-1.1388,1526.7086],[29.0401,-1.133,1508.5454],[29.0401,-1.1287,1500.2725],[29.0322,-1.1117,1487.5208],[29.0358,-1.1025,1477.4207],[29.0342,-1.0988,1508.4077],[29.028199999999998,-1.0993,1463.5466],[29.0257,-1.0979,1462.6091],[29.028,-1.0952,1482.027],[29.0277,-1.0869,1506.6211],[29.0195,-1.0899,1471.0988],[29.0174,-1.0879,1458.2405],[29.0193,-1.0842,1460.9097],[29.016,-1.0791,1465.1964],[29.0128,-1.0821,1457.0371],[29.0092,-1.0822,1452.8097],[29.0094,-1.0796,1459.4137],[29.0055,-1.0746,1441.2367],[29.0078,-1.0716,1457.6016],[29.0045,-1.0631,1458.3813],[28.999,-1.062,1430.993],[28.9963,-1.0588,1442.1628],[28.991,-1.0565,1438.6621],[28.9889,-1.0522,1416.3397],[28.9862,-1.0506,1493.3828],[28.9832,-1.0552,1457.947],[28.9784,-1.0559,1512.8029],[28.9702,-1.055,1397.1235],[28.9633,-1.0509,1418.7939],[28.9608,-1.0537,1389.4995],[28.9549,-1.0523,1435.2245],[28.9485,-1.0464,1435.0487],[28.9438,-1.0345,1373.4268],[28.9298,-1.0159,1339.6123],[28.9202,-1.0123,1333.9402],[28.8838,-0.9911,1340.7461],[28.8701,-0.9921,1258.4224],[28.8593,-0.9896,1404.2328],[28.8516,-0.992,1877.1132],[28.8431,-0.9922,2056.7837],[28.8347,-0.9881,1807.7192],[28.823,-0.979,1500.3549],[28.8143,-0.9784,1618.8481],[28.806,-0.9717,1359.7806],[28.8014,-0.9702,1195.6313],[28.7845,-0.9721,1348.5122],[28.7698,-0.9924,1151.8518],[28.7516,-1.0079,1452.1274],[28.7418,-1.0068,1440.7365],[28.7219,-0.9986,1376.6478],[28.7107,-0.9991,1285.9996],[28.7039,-1.0037,969.9637],[28.6987,-1.0127,990.9385],[28.6928,-1.0178,967.3008],[28.697,-1.0435,1003.9825],[28.6943,-1.052,1081.2144],[28.6875,-1.0647,1008.5418],[28.6818,-1.0686,986.4089],[28.6898,-1.0743,1143.1448],[28.6933,-1.0803,1390.6755],[28.6964,-1.0987,1035.4247],[28.6991,-1.1021,1088.5679],[28.7099,-1.1089,1112.0159],[28.7101,-1.1126,1108.839],[28.7059,-1.1269,1178.2719],[28.7158,-1.1377,1264.9297],[28.7201,-1.1465,1528.8179],[28.7185,-1.1642,1168.1388],[28.7129,-1.1767,1179.5773],[28.7028,-1.1813,1197.4568],[28.696,-1.1772,1194.4727],[28.6819,-1.1772,1228.5459],[28.6735,-1.1823,1254.7626],[28.6595,-1.1919,1463.1666],[28.646,-1.2107,1695.4565],[28.6433,-1.221,1866.7999],[28.6456,-1.233,1828.777],[28.6496,-1.2387,1955.3755],[28.6492,-1.2799,1458.3402],[28.6409,-1.3038,1447.2294],[28.6371,-1.321,1612.4648],[28.6242,-1.3403,1761.0692],[28.5991,-1.3928,1411.7568],[28.5751,-1.4207,1336.1647],[28.5577,-1.4463,1222.8116],[28.5561,-1.4646,1119.6246],[28.5441,-1.4835,1242.2157],[28.529,-1.4831,1319.8325],[28.5217,-1.4806,1295.8606],[28.5186,-1.5044,1112.2173],[28.5188,-1.541,1174.2527],[28.5145,-1.5769,1605.4458],[28.518,-1.6218,1038.2103],[28.5222,-1.6264,1050.5626],[28.5285,-1.6484,1067.4891],[28.5335,-1.6532,1066.3824],[28.5417,-1.6564,1099.229],[28.5505,-1.6697,1113.355],[28.5597,-1.6777,1130.5557],[28.6069,-1.7032,1243.7826],[28.6124,-1.7092,1244.9663],[28.6101,-1.711,1170.8571],[28.6069,-1.7097,1190.3413],[28.6037,-1.7115,1174.9841],[28.6069,-1.7149,1179.1853],[28.6068,-1.7186,1180.7725],[28.6048,-1.7207,1170.9441],[28.6128,-1.7197,1173.3755],[28.6161,-1.7235,1173.447],[28.6183,-1.7218,1173.9591],[28.6246,-1.7211,1218.6858],[28.6253,-1.7246,1193.901],[28.6312,-1.7284,1210.2207],[28.6361,-1.726,1189.9343],[28.6371,-1.7287,1189.709],[28.6476,-1.7289,1184.8494],[28.6461,-1.7325,1192.8361],[28.6511,-1.7355,1196.8641],[28.6505,-1.7377,1204.2268],[28.6526,-1.7378,1193.9749],[28.6588,-1.7445,1215.1191],[28.6583,-1.7496,1217.0435],[28.6608,-1.7513,1241.6995],[28.663,-1.7501,1210.7273],[28.6678,-1.7525,1215.0532],[28.6654,-1.7429,1246.5718],[28.6677,-1.7398,1289.4259],[28.6846,-1.7419,1536.5562],[28.6993,-1.7632,1304.6278],[28.7161,-1.7802,1319.0032],[28.7495,-1.7819,1705.0115],[28.7552,-1.7795,1760.5308],[28.7645,-1.7714,1857.5093],[28.7903,-1.7704,2157.1077],[28.8052,-1.7664,2174.2634],[28.8166,-1.7675,2160.1455],[28.8253,-1.7615,2318.2449],[28.8315,-1.753,2301.1938],[28.8327,-1.7447,2362.748],[28.8359,-1.7398,2355.1633],[28.8523,-1.7236,2603.5608],[28.8627,-1.707,2712.4548],[28.883,-1.7287,2350.9868],[28.9033,-1.7331,2643.2803],[28.917,-1.7422,2837.8733],[28.9356,-1.7449,2233.2412],[28.9692,-1.7417,1701.8464],[28.9795,-1.733,1775.9819],[28.9839,-1.7098,1868.2583],[28.9991,-1.6897,1646.291],[29.0117,-1.6828,1519.704],[29.0183,-1.6753,1461.0],[29.0189,-1.6736,1465.9104],[29.0168,-1.6699,1495.3855],[29.0179,-1.6673,1461.7904],[29.0251,-1.6603,1466.2167],[29.0259,-1.6561,1461.887],[29.0294,-1.6528,1469.8907],[29.0288,-1.6389,1464.012],[29.0309,-1.631,1476.5852],[29.033,-1.6295,1477.744],[29.0265,-1.626,1461.0],[29.0231,-1.6274,1492.15],[29.0215,-1.6205,1462.3259],[29.0258,-1.6178,1506.0856],[29.0332,-1.6208,1470.6787],[29.031,-1.617,1483.7063],[29.0318,-1.6158,1465.9878],[29.0347,-1.6173,1461.0],[29.0329,-1.6118,1473.4043],[29.0378,-1.6078,1464.1995],[29.0367,-1.6022,1464.0424],[29.0404,-1.5957,1468.3677],[29.0406,-1.5923,1464.7764],[29.0466,-1.5901,1461.0],[29.0495,-1.584,1489.9585],[29.0551,-1.5855,1461.7275],[29.0576,-1.584,1466.6206],[29.0626,-1.586,1466.2144],[29.067,-1.5852,1463.0397],[29.0758,-1.5957,1461.9543],[29.0795,-1.5956,1464.5314],[29.0812,-1.5986,1463.5314],[29.0864,-1.6005,1461.0],[29.0872,-1.6099,1461.0],[29.0928,-1.6202,1461.0],[29.0969,-1.6199,1468.8239],[29.0993,-1.6238,1461.0],[29.1036,-1.6238,1463.7463],[29.11,-1.6276,1462.3555],[29.1124,-1.6274,1465.3005],[29.1152,-1.6303,1461.0],[29.118,-1.6299,1461.0],[29.1182,-1.6282,1461.0],[29.1268,-1.6303,1461.0],[29.1316,-1.6286,1484.7501],[29.1317,-1.6307,1465.2275],[29.1337,-1.6307,1468.818],[29.1349,-1.6402,1467.62],[29.1382,-1.6426,1464.5449],[29.142,-1.6426,1485.3685],[29.1446,-1.6388,1472.0585],[29.1425,-1.6308,1475.218],[29.1439,-1.6259,1482.1592],[29.1531,-1.6104,1541.1167]]]]}
,"properties": {"GID_2": "COD.19.5_1","GID_0": "COD","country": "DemocraticRepublicoftheCongo","GID_1": "COD.19_1","province": "Nord-Kivu","NL_NAME_1": "NA","county": "Masisi","VARNAME_2": "NA","NL_NAME_2": "NA","TYPE_2": "Territoire","ENGTYPE_2": "Territory","CC_2": "NA","HASC_2": "NA","name": "Masisi.county","area_km2": 4336.734,"hist_schema_id": "Elevation0-9000","hist_area_km2": {"950": 0.042,"975": 1.887,"1000": 4.346,"1025": 6.041,"1050": 6.444,"1075": 6.762,"1100": 18.059,"1125": 24.142,"1150": 22.022,"1175": 23.21,"1200": 26.198,"1225": 38.66,"1250": 47.667,"1275": 55.658,"1300": 59.665,"1325": 64.011,"1350": 61.913,"1375": 63.333,"1400": 63.567,"1425": 65.962,"1450": 67.107,"1475": 91.438,"1500": 88.599,"1525": 93.898,"1550": 95.489,"1575": 101.636,"1600": 109.732,"1625": 118.148,"1650": 123.573,"1675": 123.975,"1700": 150.215,"1725": 145.87,"1750": 136.141,"1775": 131.309,"1800": 125.522,"1825": 120.881,"1850": 116.536,"1875": 112.763,"1900": 108.926,"1925": 105.725,"1950": 100.235,"1975": 97.649,"2000": 104.389,"2025": 107.441,"2050": 95.02,"2075": 87.92,"2100": 74.397,"2125": 66.808,"2150": 59.664,"2175": 59.092,"2200": 51.8,"2225": 45.039,"2250": 41.308,"2275": 41.181,"2300": 37.726,"2325": 34.759,"2350": 31.728,"2375": 32.893,"2400": 32.321,"2425": 30.752,"2450": 27.149,"2475": 23.038,"2500": 18.502,"2525": 14.772,"2550": 12.102,"2575": 9.368,"2600": 8.689,"2625": 8.605,"2650": 8.223,"2675": 7.1,"2700": 5.828,"2725": 5.722,"2750": 4.387,"2775": 4.175,"2800": 3.857,"2825": 3.518,"2850": 3.264,"2875": 2.374,"2900": 1.462,"2925": 1.484,"2950": 2.586,"2975": 0.763,"3000": 0.212,"3025": 0.318,"3050": 0.042}}}