{"type":"Feature","properties":{"GID_2":"COD.24.10_1","GID_0":"COD","country":"DemocraticRepublicoftheCongo","GID_1":"COD.24_1","province":"Tanganyika","NL_NAME_1":"NA","county":"Nyunzu","VARNAME_2":"NA","NL_NAME_2":"NA","TYPE_2":"Territoire","ENGTYPE_2":"Territory","CC_2":"NA","HASC_2":"NA","name":"Nyunzu.county"},
"geometry":{"type": "MultiPolygon","coordinates": [[[[27.6736,-5.01,723.5604],[27.6717,-5.013,718.3561],[27.6719,-5.0224,716.256],[27.684,-5.035,714.1733],[27.6937,-5.0589,712.434],[27.6935,-5.0663,752.0529],[27.6874,-5.0868,828.1005],[27.6847,-5.1112,645.952],[27.6869,-5.1184,639.0054],[27.7151,-5.1463,730.9595],[27.716,-5.171,793.8708],[27.7193,-5.1799,865.236],[27.7196,-5.186,925.6185],[27.7153,-5.1941,951.4598],[27.7026,-5.2096,829.9291],[27.7034,-5.2182,771.9736],[27.7134,-5.2339,812.1562],[27.7161,-5.2337,808.9368],[27.7289,-5.2553,1161.1498],[27.7298,-5.261,1076.9293],[27.7321,-5.264,1015.8497],[27.681,-5.2918,1037.4874],[27.6672,-5.3035,1077.0776],[27.659,-5.3183,823.4949],[27.6657,-5.3426,747.6404],[27.6698,-5.3672,767.7398],[27.6625,-5.3748,814.4554],[27.6512,-5.3805,804.3362],[27.6434,-5.3919,744.1874],[27.6288,-5.422,804.8151],[27.6086,-5.4494,707.2971],[27.5999,-5.4552,694.4713],[27.5956,-5.4662,679.1454],[27.5958,-5.4906,721.4072],[27.5837,-5.5062,738.036],[27.5729,-5.5141,742.1707],[27.5634,-5.5259,712.1454],[27.5516,-5.5205,760.3147],[27.5368,-5.5194,734.4583],[27.5246,-5.5222,753.6301],[27.5177,-5.5302,757.2239],[27.5125,-5.5292,784.231],[27.5067,-5.5154,1010.9012],[27.4997,-5.511,940.9459],[27.4867,-5.5108,948.6081],[27.4164,-5.5437,653.722],[27.3843,-5.5619,650.3141],[27.367,-5.5697,652.4031],[27.3435,-5.5782,625.2731],[27.3265,-5.5788,627.7448],[27.3062,-5.5895,621.4688],[27.2806,-5.6125,603.8718],[27.2433,-5.6199,587.7116],[27.1939,-5.6609,607.4739],[27.0999,-5.7245,573.3147],[27.0486,-5.7539,582.0423],[27.0625,-5.7652,572.3822],[27.0917,-5.7823,586.5637],[27.1193,-5.79,588.4001],[27.1413,-5.8005,580.1613],[27.1525,-5.8139,582.4329],[27.1559,-5.8234,566.1294],[27.15,-5.8331,565.0266],[27.1417,-5.841,564.2954],[27.1698,-5.8573,576.9011],[27.1845,-5.8739,584.2435],[27.184,-5.8934,579.5801],[27.173,-5.9351,583.1688],[27.1712,-5.9724,561.0989],[27.1743,-5.9781,557.8231],[27.1716,-5.9913,556.6916],[27.1778,-5.9947,556.7036],[27.1843,-5.9958,556.0078],[27.1976,-6.0064,557.0562],[27.2121,-6.0082,558.1858],[27.2213,-6.0127,558.5256],[27.2285,-6.0191,558.8306],[27.2519,-6.0216,559.7632],[27.2806,-6.0162,559.1865],[27.2845,-6.0185,560.3491],[27.304,-6.0152,561.9799],[27.3186,-6.0242,588.6431],[27.3298,-6.02,560.6339],[27.3335,-6.0195,563.5595],[27.3374,-6.0218,572.2344],[27.3537,-6.0174,561.3556],[27.3608,-6.0224,561.704],[27.3707,-6.0233,561.7234],[27.3829,-6.0334,572.6185],[27.3926,-6.0333,563.3959],[27.3995,-6.0296,563.6658],[27.404,-6.0296,563.3418],[27.4383,-6.0346,566.3959],[27.4395,-6.0389,576.3181],[27.4379,-6.0472,577.0666],[27.4414,-6.0601,585.7079],[27.4426,-6.0757,601.1724],[27.4477,-6.0884,604.7332],[27.4583,-6.0996,600.1248],[27.4634,-6.1241,630.6837],[27.4726,-6.1225,633.0527],[27.48,-6.1047,607.4658],[27.4865,-6.1002,623.5785],[27.4953,-6.1071,617.112],[27.5084,-6.1091,638.6293],[27.526,-6.1185,665.7872],[27.5438,-6.1367,687.3723],[27.6017,-6.1128,642.1118],[27.6426,-6.1201,644.3964],[27.664,-6.1161,607.1624],[27.6886,-6.1144,592.2639],[27.6909,-6.1202,587.614],[27.7008,-6.1227,588.2996],[27.705,-6.1305,592.2943],[27.7308,-6.1451,591.2391],[27.7382,-6.1524,599.6271],[27.7428,-6.1641,593.5362],[27.7424,-6.1736,595.2679],[27.7459,-6.1811,594.8333],[27.7526,-6.1859,599.3598],[27.7546,-6.1912,602.1085],[27.7616,-6.1965,598.1081],[27.7639,-6.2022,599.3434],[27.768,-6.205,597.8103],[27.7736,-6.2061,606.1901],[27.7757,-6.218,606.1125],[27.7835,-6.2286,606.5923],[27.7889,-6.2428,602.1998],[27.7919,-6.2467,604.087],[27.791,-6.2596,604.9558],[27.798,-6.2761,606.3027],[27.8014,-6.2821,608.8524],[27.8051,-6.2839,608.8961],[27.822,-6.313,615.356],[27.8289,-6.3188,620.4526],[27.8354,-6.3187,611.9601],[27.8372,-6.3222,612.5144],[27.838,-6.3305,616.8991],[27.8426,-6.3323,618.2448],[27.8431,-6.3488,620.5198],[27.845,-6.3569,615.8636],[27.8489,-6.3644,617.5839],[27.8506,-6.3752,619.6968],[27.8533,-6.3778,624.2881],[27.8568,-6.3777,619.5831],[27.8577,-6.3805,620.2408],[27.8577,-6.3869,631.9697],[27.8541,-6.3904,630.9312],[27.8534,-6.4001,627.7446],[27.8548,-6.4033,624.0782],[27.8636,-6.4053,626.3359],[27.8714,-6.4138,636.137],[27.8712,-6.4191,638.9457],[27.873,-6.4198,640.7097],[27.8779,-6.4379,643.5387],[27.8869,-6.4397,682.5381],[27.9028,-6.4357,684.4625],[27.9106,-6.4359,673.2732],[27.9145,-6.4341,644.1508],[27.9281,-6.4377,648.7643],[27.9331,-6.4317,641.6734],[27.9375,-6.431,640.5901],[27.9485,-6.4379,645.1244],[27.9699,-6.4405,663.0035],[27.9761,-6.4437,685.3925],[27.9918,-6.4591,659.0913],[28.004,-6.4671,682.2965],[28.0103,-6.4753,675.8444],[28.0182,-6.4909,693.3714],[28.0224,-6.5033,690.0103],[28.0217,-6.5086,711.1774],[28.0149,-6.5215,720.1969],[28.0126,-6.5309,695.423],[28.0138,-6.5422,727.369],[28.0173,-6.5518,676.6638],[28.0374,-6.5812,691.1533],[28.0538,-6.596,709.7367],[28.0628,-6.5988,704.9923],[28.0669,-6.6017,729.8796],[28.115,-6.6094,718.8021],[28.1328,-6.6192,733.0858],[28.1411,-6.6207,725.2643],[28.1574,-6.6289,752.2178],[28.1655,-6.6305,727.9694],[28.1786,-6.6293,766.949],[28.191,-6.626,746.7624],[28.199,-6.6233,777.145],[28.2128,-6.6149,722.0466],[28.2183,-6.6131,711.4325],[28.2273,-6.6128,717.7966],[28.2298,-6.6197,713.2245],[28.2348,-6.6488,733.6796],[28.2378,-6.6555,725.4075],[28.2375,-6.6592,727.8959],[28.2589,-6.6634,742.7563],[28.2701,-6.6695,747.5969],[28.3001,-6.7071,796.319],[28.3107,-6.7092,801.8494],[28.3447,-6.6861,740.5428],[28.3687,-6.6669,788.8029],[28.3887,-6.648,785.9819],[28.3877,-6.6042,869.8658],[28.3847,-6.5975,828.994],[28.3793,-6.5951,803.2974],[28.3672,-6.5957,802.7354],[28.3612,-6.5836,787.2983],[28.3583,-6.5708,783.5623],[28.3583,-6.5629,783.8101],[28.3464,-6.5579,797.9297],[28.342,-6.5489,821.4838],[28.341,-6.5373,844.1713],[28.343,-6.5118,869.9961],[28.349,-6.5025,864.192],[28.3793,-6.4779,953.5647],[28.3953,-6.4505,891.059],[28.3991,-6.4335,893.6489],[28.3972,-6.4139,879.3339],[28.39,-6.4096,901.8151],[28.3858,-6.4013,915.7646],[28.3865,-6.3972,870.416],[28.3766,-6.388,847.3141],[28.3667,-6.3858,857.7985],[28.3504,-6.3868,859.3787],[28.3439,-6.3847,868.8405],[28.3326,-6.3841,870.0023],[28.3227,-6.3795,853.4293],[28.311,-6.3807,877.2563],[28.2923,-6.3865,863.0795],[28.2868,-6.3777,843.6234],[28.2872,-6.3684,843.9058],[28.3018,-6.3396,862.5519],[28.3099,-6.3185,877.7515],[28.3102,-6.2984,903.9744],[28.3075,-6.2898,917.6642],[28.2944,-6.2738,874.5365],[28.2858,-6.2327,845.9614],[28.2931,-6.2149,940.4655],[28.3069,-6.199,890.5874],[28.3927,-6.1344,862.7021],[28.3983,-6.1256,843.4737],[28.3943,-6.1199,860.357],[28.346,-6.1195,866.3005],[28.3141,-6.1095,858.7906],[28.2837,-6.1102,854.5823],[28.2607,-6.1192,824.9003],[28.2388,-6.1094,760.4916],[28.2283,-6.0992,782.079],[28.2276,-6.0919,765.2973],[28.2216,-6.0864,748.5651],[28.2126,-6.0726,734.7869],[28.2045,-6.0708,749.0457],[28.1944,-6.0612,730.7305],[28.1873,-6.0608,746.9984],[28.1813,-6.0573,739.131],[28.1769,-6.0505,730.5397],[28.1635,-6.0363,727.3854],[28.1568,-6.0358,730.0001],[28.1501,-6.0292,706.542],[28.1453,-6.0269,703.2584],[28.1382,-6.0276,694.0095],[28.1315,-6.0253,711.4546],[28.1266,-6.0192,687.029],[28.1115,-6.0121,700.1147],[28.1086,-6.0029,693.7646],[28.112,-5.9825,766.0799],[28.1209,-5.9583,759.3201],[28.1257,-5.9524,762.011],[28.1514,-5.8636,659.1464],[28.1401,-5.8524,648.5546],[28.1302,-5.8308,641.9509],[28.123,-5.8239,642.4778],[28.1184,-5.8152,640.553],[28.1078,-5.8058,643.0164],[28.1043,-5.7992,634.691],[28.0914,-5.7834,625.0241],[28.0732,-5.7772,624.0111],[28.0649,-5.7664,630.1783],[28.0752,-5.7616,632.2728],[28.0959,-5.7351,740.9368],[28.0718,-5.7073,704.3596],[28.0324,-5.6716,695.1589],[28.0393,-5.6657,682.5203],[28.0759,-5.6655,706.3588],[28.1592,-5.6359,686.7485],[28.1899,-5.6323,684.7566],[28.1957,-5.6351,686.562],[28.2003,-5.6488,695.0681],[28.2116,-5.6582,737.2543],[28.2113,-5.6773,753.1403],[28.2131,-5.686,768.0332],[28.2173,-5.692,781.7892],[28.2399,-5.7108,788.8566],[28.2541,-5.7146,806.4163],[28.2585,-5.7183,807.3453],[28.2655,-5.7284,817.2289],[28.3011,-5.7557,806.9474],[28.3102,-5.7567,828.2604],[28.3289,-5.7522,836.0056],[28.3509,-5.7331,773.2609],[28.3565,-5.7374,775.2361],[28.359,-5.7418,781.4785],[28.3606,-5.7411,780.5906],[28.3657,-5.7475,784.5724],[28.379,-5.747,785.6071],[28.383,-5.7536,814.6036],[28.3919,-5.751,790.8974],[28.3942,-5.7526,795.482],[28.3997,-5.7512,793.0254],[28.4025,-5.754,806.4365],[28.4068,-5.7535,804.3016],[28.4115,-5.7613,827.8488],[28.4154,-5.7622,817.3542],[28.4209,-5.7723,832.9084],[28.429,-5.7785,831.0289],[28.4364,-5.7789,828.2512],[28.4426,-5.7832,841.4673],[28.4522,-5.7832,842.1923],[28.46,-5.7797,844.051],[28.4845,-5.7864,853.8247],[28.5121,-5.7839,891.5798],[28.5341,-5.7862,914.9037],[28.567,-5.8065,994.8603],[28.58,-5.809,980.2596],[28.6028,-5.8075,1013.0245],[28.6084,-5.8029,1068.7683],[28.6073,-5.8006,1047.6514],[28.5937,-5.7837,1109.3809],[28.5469,-5.7094,1097.7141],[28.5228,-5.6536,1243.521],[28.5182,-5.6484,1257.0718],[28.511,-5.6466,1176.1395],[28.5007,-5.6387,920.6525],[28.4917,-5.6279,939.3528],[28.4901,-5.6137,1116.2035],[28.4952,-5.6029,1143.9358],[28.4992,-5.5851,1160.161],[28.491,-5.5634,1126.3855],[28.4637,-5.5419,1120.5358],[28.4577,-5.5237,1101.6042],[28.4621,-5.4973,1020.02],[28.4707,-5.491,936.893],[28.4828,-5.4754,925.6648],[28.4936,-5.4569,978.6561],[28.5082,-5.437,1034.8719],[28.5166,-5.4289,1084.0479],[28.5431,-5.4129,972.9824],[28.5515,-5.4002,906.0646],[28.5555,-5.3877,901.416],[28.5663,-5.377,853.0922],[28.577,-5.3685,842.8124],[28.6028,-5.3526,816.9989],[28.6062,-5.3333,800.6187],[28.6137,-5.3162,797.9726],[28.6054,-5.3172,806.0093],[28.5987,-5.3087,807.8929],[28.592,-5.3085,812.5082],[28.5781,-5.3141,836.012],[28.5652,-5.3144,849.3574],[28.5562,-5.3117,859.4837],[28.5475,-5.3138,874.7578],[28.5363,-5.3111,891.4785],[28.5205,-5.3137,962.2417],[28.547,-5.2854,845.6616],[28.5617,-5.2652,849.3038],[28.561,-5.2267,802.0347],[28.5439,-5.2098,790.7832],[28.4755,-5.2042,864.0922],[28.4511,-5.2046,1046.0598],[28.4105,-5.1868,1117.2297],[28.401,-5.1875,1089.2711],[28.3922,-5.1788,1156.6917],[28.3842,-5.1541,1085.2631],[28.4097,-5.1317,1121.2681],[28.4517,-5.0995,846.6789],[28.4564,-5.0789,789.2087],[28.4442,-5.0644,791.1861],[28.4366,-5.0592,820.0544],[28.4329,-5.0546,812.4067],[28.4298,-5.0401,802.4156],[28.4259,-5.0362,801.2098],[28.4202,-5.036,818.22],[28.4153,-5.0289,807.9477],[28.4121,-5.0275,810.728],[28.4111,-5.0213,815.9103],[28.407,-5.0197,811.611],[27.6736,-5.01,723.5604]]]]}}