{"type": "Feature","bbox": [17.4682,-5.8867,18.6607,-4.1391],"geometry": {"type": "MultiPolygon","coordinates": [[[[18.5713,-5.8565,728.6439],[18.5723,-5.8108,735.6382],[18.5764,-5.8048,767.3466],[18.5722,-5.7924,734.1244],[18.5722,-5.7866,718.3083],[18.5749,-5.7834,744.2123],[18.5735,-5.776,710.8453],[18.5755,-5.7703,703.3887],[18.575,-5.7657,738.2859],[18.5708,-5.7576,720.2355],[18.5719,-5.7464,709.7254],[18.5697,-5.7351,704.6277],[18.5713,-5.7238,700.3179],[18.5749,-5.7171,690.4922],[18.5739,-5.7024,702.7387],[18.5706,-5.6985,688.6442],[18.5387,-5.7011,722.2578],[18.5318,-5.6995,717.9686],[18.5166,-5.6898,816.5759],[18.5035,-5.6877,723.7001],[18.4987,-5.6932,743.5598],[18.4829,-5.6984,829.253],[18.4741,-5.7035,829.2986],[18.4603,-5.7151,829.7937],[18.4331,-5.7218,623.3044],[18.3921,-5.7214,717.788],[18.3879,-5.7249,769.1211],[18.3775,-5.7426,832.7578],[18.3735,-5.7455,830.4748],[18.3703,-5.7458,833.0973],[18.3666,-5.7422,833.3858],[18.3649,-5.7248,730.7844],[18.3612,-5.7148,760.5839],[18.3496,-5.6916,594.0374],[18.3411,-5.6864,560.9194],[18.324,-5.6796,489.4382],[18.3082,-5.6773,470.9152],[18.2987,-5.6729,424.8657],[18.3001,-5.6704,460.6129],[18.3035,-5.6692,446.804],[18.3088,-5.6708,442.5992],[18.3118,-5.6698,448.3759],[18.3095,-5.6639,435.4003],[18.311,-5.6606,476.689],[18.3154,-5.6601,429.6821],[18.3181,-5.6553,429.0899],[18.3223,-5.6543,479.9017],[18.3211,-5.65,429.0108],[18.3231,-5.6467,444.251],[18.3244,-5.6341,457.1437],[18.3214,-5.6307,431.1122],[18.3326,-5.6248,439.0292],[18.3417,-5.6105,462.365],[18.3403,-5.6082,441.5867],[18.3321,-5.6085,437.5587],[18.3314,-5.6071,423.4557],[18.3389,-5.6029,456.1631],[18.34,-5.5972,443.6416],[18.3425,-5.5939,433.0678],[18.3411,-5.5873,425.7928],[18.3429,-5.5831,440.1072],[18.3445,-5.5827,471.7658],[18.3508,-5.5872,453.2761],[18.3498,-5.5794,444.6808],[18.3585,-5.5812,427.4251],[18.3603,-5.5724,435.2604],[18.3651,-5.5736,458.1953],[18.3679,-5.5717,465.8442],[18.3628,-5.5671,439.0038],[18.3646,-5.5618,414.8297],[18.3627,-5.5549,442.5144],[18.3689,-5.5563,422.2144],[18.3705,-5.5524,439.8407],[18.3679,-5.5462,432.9764],[18.3693,-5.5427,430.7888],[18.3769,-5.5438,422.1941],[18.3789,-5.541,462.7494],[18.3725,-5.5365,407.5008],[18.3782,-5.5316,430.0677],[18.377,-5.5284,419.5876],[18.3704,-5.5291,424.6557],[18.3683,-5.5259,414.6717],[18.3715,-5.522,433.8616],[18.3774,-5.5206,434.3842],[18.3783,-5.5185,441.2241],[18.3769,-5.516,412.1526],[18.3689,-5.5114,406.3326],[18.3721,-5.5089,447.0053],[18.3771,-5.5093,443.6801],[18.3829,-5.5159,435.563],[18.3887,-5.5171,442.7866],[18.3893,-5.5095,462.9333],[18.3913,-5.5078,447.2597],[18.3941,-5.5007,437.4148],[18.3996,-5.5,445.5563],[18.3984,-5.4949,402.6736],[18.3995,-5.4917,448.9948],[18.4018,-5.4914,433.4728],[18.4053,-5.494,422.0228],[18.4151,-5.4937,445.8578],[18.4219,-5.4959,436.9337],[18.4297,-5.5116,440.7292],[18.4332,-5.5156,459.5212],[18.4429,-5.5219,586.8649],[18.4544,-5.5229,602.3253],[18.4627,-5.5213,673.2518],[18.4734,-5.5185,801.9344],[18.4822,-5.5125,800.0226],[18.4855,-5.5075,756.5757],[18.4861,-5.5019,707.1058],[18.4874,-5.4655,532.1276],[18.4954,-5.4402,463.1373],[18.4962,-5.4324,451.7653],[18.5049,-5.4211,458.4412],[18.5223,-5.4118,472.4679],[18.5278,-5.4122,453.9481],[18.5349,-5.4151,466.8589],[18.5397,-5.4121,469.5748],[18.5453,-5.4128,478.6464],[18.5481,-5.4183,458.6853],[18.554,-5.4139,432.3274],[18.5496,-5.4047,422.178],[18.5559,-5.395,437.4429],[18.5566,-5.3915,429.7753],[18.5559,-5.3892,454.2655],[18.5497,-5.3838,472.5177],[18.5498,-5.3789,419.9229],[18.5539,-5.3702,448.4131],[18.5534,-5.3649,412.4508],[18.546,-5.3465,399.6042],[18.5476,-5.346,394.7843],[18.5569,-5.3315,472.0223],[18.5605,-5.3308,422.1484],[18.5619,-5.334,450.0511],[18.562,-5.3432,451.1389],[18.5717,-5.3447,394.9234],[18.5737,-5.3353,450.2502],[18.5785,-5.3399,458.2027],[18.5822,-5.341,444.7624],[18.5875,-5.3377,415.3328],[18.5911,-5.3379,429.7191],[18.5936,-5.3352,470.7369],[18.5927,-5.3326,487.7975],[18.5865,-5.3281,440.9634],[18.5846,-5.3237,444.3224],[18.585,-5.3166,412.6252],[18.5877,-5.3127,434.0792],[18.5907,-5.3129,440.2194],[18.5979,-5.3206,453.9618],[18.6018,-5.3195,418.7012],[18.607,-5.3137,448.4119],[18.6128,-5.315,397.9512],[18.6118,-5.3047,396.9435],[18.6131,-5.3003,449.3213],[18.6157,-5.301,438.3802],[18.6191,-5.3051,401.2158],[18.623,-5.3016,416.1147],[18.629,-5.3059,430.7119],[18.6343,-5.2992,438.9805],[18.6425,-5.2953,429.2148],[18.6415,-5.2907,448.87],[18.6321,-5.293,408.8746],[18.6319,-5.2882,420.2951],[18.6378,-5.282,468.7501],[18.6364,-5.279,452.4133],[18.6313,-5.2751,454.6443],[18.6375,-5.2688,477.1602],[18.6487,-5.2672,427.9813],[18.6501,-5.2598,444.1713],[18.6537,-5.2586,403.5863],[18.6546,-5.2547,449.6295],[18.6535,-5.2529,457.9782],[18.6477,-5.2522,415.7448],[18.6454,-5.2472,395.7253],[18.6483,-5.2407,437.2997],[18.6511,-5.2393,449.3705],[18.6545,-5.2397,443.5735],[18.6577,-5.2432,409.6691],[18.6607,-5.2409,444.2507],[18.6604,-5.2284,429.7732],[18.6572,-5.2264,393.2719],[18.6553,-5.2213,428.9387],[18.6496,-5.2209,399.2471],[18.6465,-5.2074,390.7855],[18.6292,-5.2072,408.9732],[18.6153,-5.2097,467.5392],[18.5799,-5.2265,467.1967],[18.5593,-5.2308,518.8253],[18.537,-5.2379,651.114],[18.5271,-5.238,695.5191],[18.4976,-5.2111,620.4125],[18.4794,-5.2045,698.6237],[18.4658,-5.2044,701.35],[18.4325,-5.2137,530.1384],[18.4227,-5.214,689.8615],[18.4169,-5.2093,652.1378],[18.4136,-5.203,637.3375],[18.4081,-5.1978,688.3214],[18.4006,-5.1972,705.9553],[18.3847,-5.1989,649.5067],[18.368,-5.2034,750.3656],[18.3555,-5.204,740.2404],[18.3168,-5.2032,718.2205],[18.311,-5.2014,729.8221],[18.3077,-5.1983,702.5718],[18.3065,-5.1911,674.1219],[18.3088,-5.1845,655.0029],[18.3175,-5.1773,647.032],[18.3316,-5.157,680.1411],[18.3519,-5.1399,700.7451],[18.3549,-5.1265,623.8005],[18.3539,-5.1193,615.6758],[18.3448,-5.1,617.267],[18.3461,-5.0945,681.8539],[18.3416,-5.074,592.6618],[18.3379,-5.0672,630.1787],[18.3424,-5.0508,645.5162],[18.3384,-5.0398,607.7747],[18.3393,-5.0333,586.913],[18.3372,-5.0246,564.1277],[18.3366,-5.0103,632.2912],[18.3387,-5.0041,606.6157],[18.3378,-5.0,559.0929],[18.3482,-4.9792,661.9932],[18.3514,-4.9655,647.3997],[18.3502,-4.9547,615.7563],[18.3441,-4.944,649.403],[18.3367,-4.9136,650.2948],[18.3287,-4.9043,639.1691],[18.3051,-4.8929,478.2776],[18.3029,-4.8901,496.8377],[18.3031,-4.8866,567.9891],[18.3135,-4.8769,474.4986],[18.3228,-4.8726,490.4391],[18.3401,-4.872,658.8735],[18.3606,-4.8738,653.7524],[18.3663,-4.8726,631.0812],[18.3687,-4.8682,585.6405],[18.3725,-4.8411,504.4055],[18.3748,-4.8071,554.6318],[18.3707,-4.8019,504.123],[18.35,-4.7952,637.3719],[18.3421,-4.7902,609.4375],[18.3383,-4.7832,551.8966],[18.3382,-4.7774,548.2634],[18.3362,-4.7727,625.3099],[18.3296,-4.7653,683.995],[18.3265,-4.7633,642.4261],[18.312,-4.762,622.7812],[18.3025,-4.7586,592.8727],[18.2997,-4.7534,570.9235],[18.2964,-4.7264,462.6093],[18.2911,-4.7184,589.3248],[18.2855,-4.7154,530.6705],[18.2435,-4.7143,433.1588],[18.2333,-4.7122,411.5992],[18.2106,-4.6906,406.9039],[18.1968,-4.6456,447.6502],[18.1874,-4.6378,408.2722],[18.189,-4.6061,399.4285],[18.1873,-4.598,395.2959],[18.1889,-4.584,436.4741],[18.1869,-4.5723,390.0136],[18.1825,-4.5661,423.4975],[18.1753,-4.5132,380.6177],[18.1709,-4.501,373.0431],[18.1718,-4.492,381.3649],[18.1638,-4.4716,392.3803],[18.1645,-4.4661,374.6413],[18.1601,-4.4606,376.9879],[18.157,-4.4392,388.2688],[18.1506,-4.4192,407.5715],[18.1513,-4.4132,376.6502],[18.1499,-4.4084,411.8556],[18.145,-4.4011,422.3167],[18.1461,-4.3912,393.9913],[18.1447,-4.379,378.6853],[18.1388,-4.3539,410.8058],[18.1424,-4.3417,387.995],[18.1407,-4.3259,402.2839],[18.1343,-4.3084,433.835],[18.1377,-4.2987,438.0978],[18.1342,-4.2872,396.272],[18.1418,-4.2508,364.663],[18.1359,-4.2258,377.4592],[18.1331,-4.2189,351.5084],[18.1289,-4.2143,346.4795],[18.1208,-4.195,381.537],[18.1159,-4.19,374.9493],[18.1005,-4.1837,354.2476],[18.0932,-4.1761,395.2869],[18.0793,-4.1679,346.5464],[18.0755,-4.1718,349.7578],[18.0709,-4.1707,352.0331],[18.0624,-4.1648,352.0492],[18.0513,-4.1616,344.0959],[18.0361,-4.147,374.2171],[18.0251,-4.1392,354.3296],[18.0164,-4.1391,347.7118],[18.0145,-4.1433,335.9199],[18.0088,-4.1483,339.6265],[17.9933,-4.1539,374.9436],[17.9807,-4.1565,372.257],[17.978,-4.1595,359.7922],[17.9773,-4.1627,374.3353],[17.9792,-4.171,351.1468],[17.9827,-4.18,380.1538],[17.9802,-4.1878,376.7032],[17.9851,-4.1968,364.5964],[17.9791,-4.2,383.4176],[17.9654,-4.2012,346.0176],[17.9619,-4.2036,360.7879],[17.9604,-4.207,362.6016],[17.9659,-4.2146,342.8055],[17.9671,-4.2203,362.9111],[17.9605,-4.2234,344.1559],[17.9469,-4.2239,338.5396],[17.936,-4.229,368.3467],[17.9165,-4.2423,369.4876],[17.9127,-4.2467,371.9482],[17.9102,-4.2591,392.9905],[17.9055,-4.2651,405.3426],[17.9011,-4.2642,346.6528],[17.8978,-4.258,356.9009],[17.8919,-4.2636,350.7544],[17.8867,-4.2735,389.4218],[17.8833,-4.2859,422.3743],[17.8804,-4.2869,409.8849],[17.8785,-4.2846,422.777],[17.8776,-4.2786,418.3516],[17.875,-4.277,399.8109],[17.8688,-4.2777,376.2242],[17.8654,-4.2803,385.0277],[17.8634,-4.2863,378.6717],[17.8667,-4.2971,384.9156],[17.8644,-4.3042,399.9705],[17.8569,-4.3114,405.7647],[17.8537,-4.3188,411.2183],[17.8491,-4.322,348.9621],[17.8443,-4.3234,372.3776],[17.8345,-4.3223,396.6002],[17.8289,-4.3173,333.8041],[17.8257,-4.3169,336.1389],[17.8221,-4.3268,395.669],[17.8034,-4.3363,401.542],[17.7972,-4.344,394.672],[17.7933,-4.3463,349.102],[17.7773,-4.3494,364.2691],[17.7748,-4.3533,375.1563],[17.773,-4.3639,341.2323],[17.7701,-4.3687,366.8172],[17.7484,-4.3843,351.9922],[17.7433,-4.3836,343.375],[17.7392,-4.3875,369.4712],[17.7362,-4.3869,364.3617],[17.7307,-4.3818,345.3708],[17.728,-4.3819,348.01],[17.7246,-4.3904,385.587],[17.7205,-4.3936,359.7462],[17.7156,-4.3927,342.6068],[17.7115,-4.3884,345.9523],[17.7087,-4.3889,349.0274],[17.7042,-4.4045,386.7654],[17.7052,-4.4119,354.8185],[17.7041,-4.416,351.9845],[17.696,-4.4087,346.651],[17.6938,-4.4216,354.2123],[17.6842,-4.4293,344.1324],[17.6868,-4.4373,370.5052],[17.6797,-4.4454,352.2277],[17.6747,-4.4558,357.9203],[17.6708,-4.4533,352.4525],[17.6671,-4.4462,372.131],[17.663,-4.4485,341.9091],[17.6612,-4.4559,348.5811],[17.6631,-4.4653,341.3358],[17.6723,-4.4675,372.9067],[17.6634,-4.4752,350.7348],[17.6576,-4.4699,376.5309],[17.6525,-4.4706,366.8491],[17.6469,-4.4799,351.0104],[17.6742,-4.4825,347.3162],[17.677,-4.4857,348.7358],[17.6752,-4.497,345.6506],[17.6766,-4.5018,350.4814],[17.6895,-4.5146,355.0195],[17.6859,-4.519,371.6789],[17.693,-4.5224,361.9732],[17.6967,-4.5304,398.1144],[17.6961,-4.5371,365.5806],[17.6883,-4.5445,373.7833],[17.6867,-4.5482,360.9195],[17.6881,-4.5505,360.715],[17.6815,-4.5581,372.8912],[17.6769,-4.557,384.7473],[17.6743,-4.5513,363.7422],[17.6704,-4.5495,351.1842],[17.6464,-4.5625,355.6209],[17.6522,-4.5659,368.4061],[17.6527,-4.5687,363.4465],[17.6433,-4.58,383.3055],[17.6371,-4.5795,354.9028],[17.6346,-4.5821,366.7112],[17.6356,-4.6014,356.924],[17.6409,-4.6032,367.3128],[17.6425,-4.6058,370.2757],[17.6373,-4.6143,362.2912],[17.6376,-4.6283,373.7781],[17.6328,-4.6295,358.5687],[17.6315,-4.633,370.9404],[17.6322,-4.6383,356.8169],[17.6228,-4.6505,359.6121],[17.6164,-4.6533,370.2169],[17.6185,-4.6606,403.1383],[17.6165,-4.6648,398.2714],[17.6048,-4.663,360.2619],[17.6014,-4.6681,374.8616],[17.6021,-4.6752,387.3049],[17.6003,-4.678,396.7248],[17.5923,-4.6785,353.946],[17.5865,-4.6813,373.3397],[17.5882,-4.6898,372.4562],[17.5868,-4.693,387.5145],[17.5816,-4.694,372.5558],[17.5784,-4.6965,366.7806],[17.5766,-4.7083,388.6546],[17.5716,-4.7145,365.8469],[17.5644,-4.7495,371.7666],[17.5612,-4.7528,365.0373],[17.5541,-4.7558,362.7347],[17.5533,-4.7634,365.9832],[17.5453,-4.7694,366.8471],[17.5407,-4.7791,363.0866],[17.5417,-4.7823,373.0797],[17.5463,-4.7862,419.2994],[17.5466,-4.7956,403.168],[17.5464,-4.8009,370.7444],[17.5398,-4.8127,386.7169],[17.5414,-4.8155,366.3335],[17.546,-4.8168,367.2986],[17.5472,-4.8191,389.6887],[17.5364,-4.827,379.0941],[17.5347,-4.8475,370.6694],[17.5326,-4.8505,381.1968],[17.5235,-4.8519,364.0656],[17.5214,-4.854,366.1453],[17.5235,-4.859,376.6374],[17.5219,-4.8618,394.9761],[17.5174,-4.8653,377.4655],[17.5142,-4.874,403.5104],[17.5082,-4.8766,380.2736],[17.5041,-4.881,392.1862],[17.4998,-4.8898,397.9349],[17.5019,-4.8955,426.2914],[17.4988,-4.9098,412.6639],[17.5036,-4.9139,378.9434],[17.5043,-4.9176,382.6528],[17.5009,-4.927,404.8925],[17.5024,-4.9335,404.8682],[17.5067,-4.9369,411.5573],[17.5189,-4.9366,404.0585],[17.5191,-4.9398,407.0132],[17.5146,-4.9442,426.2648],[17.5135,-4.9479,383.7726],[17.5195,-4.966,415.3342],[17.5148,-4.9806,399.8806],[17.5164,-4.9902,389.4139],[17.5155,-4.9937,413.2762],[17.5105,-4.9967,416.4404],[17.5076,-5.0008,376.7624],[17.5046,-5.0103,371.6342],[17.5051,-5.0135,383.5234],[17.509,-5.0153,393.6129],[17.5097,-5.0179,395.5811],[17.5075,-5.0245,393.3755],[17.5093,-5.0305,375.4511],[17.5153,-5.0353,408.6406],[17.528,-5.0399,393.9795],[17.5257,-5.0445,400.6902],[17.5259,-5.0484,416.5275],[17.5297,-5.0582,404.4802],[17.5292,-5.0626,394.826],[17.5242,-5.0677,419.3513],[17.5213,-5.0751,421.1881],[17.5135,-5.0836,377.7716],[17.5149,-5.0862,381.5448],[17.5241,-5.0903,381.1461],[17.5283,-5.0955,402.3681],[17.5223,-5.102,393.487],[17.5254,-5.1082,444.4785],[17.5309,-5.1093,407.6445],[17.535,-5.1127,398.3787],[17.5378,-5.1134,402.8932],[17.541,-5.1111,421.7724],[17.5435,-5.1127,426.1892],[17.5367,-5.1213,413.2291],[17.539,-5.1247,379.753],[17.545,-5.1258,392.5051],[17.5411,-5.1389,433.0767],[17.5359,-5.1417,402.1212],[17.5327,-5.1549,405.4037],[17.5293,-5.1526,452.4921],[17.5261,-5.1528,433.0624],[17.5195,-5.1621,402.5895],[17.517,-5.1752,387.8344],[17.5141,-5.1791,408.0863],[17.5103,-5.181,414.8746],[17.5093,-5.1881,404.9327],[17.5015,-5.1951,407.3172],[17.4956,-5.1967,407.1139],[17.4921,-5.1999,414.0024],[17.491,-5.2039,414.0117],[17.4943,-5.2107,418.1378],[17.4911,-5.2183,406.9778],[17.4863,-5.2218,420.2354],[17.4822,-5.2281,448.2863],[17.4882,-5.2365,420.9342],[17.4873,-5.2379,424.1218],[17.4802,-5.2375,389.6756],[17.4802,-5.2483,436.4494],[17.4777,-5.2518,429.3341],[17.4807,-5.2573,426.7452],[17.4764,-5.2672,423.6325],[17.4813,-5.2801,461.908],[17.4811,-5.2847,444.8068],[17.4768,-5.2881,414.7029],[17.4812,-5.2932,459.8926],[17.4789,-5.2957,419.368],[17.4774,-5.3121,455.292],[17.4772,-5.3238,429.1949],[17.4793,-5.3332,422.0737],[17.4764,-5.339,442.5838],[17.4766,-5.3456,453.6085],[17.4725,-5.3473,437.8536],[17.4712,-5.3641,473.9234],[17.4687,-5.368,455.3325],[17.469,-5.3717,427.4473],[17.4752,-5.3783,485.4926],[17.4682,-5.3919,443.9718],[17.4707,-5.4011,408.833],[17.4744,-5.4036,429.855],[17.4775,-5.4144,479.1129],[17.4741,-5.4275,477.1687],[17.4713,-5.4283,461.1599],[17.4702,-5.4313,400.2735],[17.473,-5.4358,424.124],[17.4778,-5.4379,510.9318],[17.4788,-5.4436,445.22],[17.4871,-5.4489,505.7755],[17.4793,-5.4572,478.5891],[17.4793,-5.4627,473.7108],[17.4771,-5.4641,487.2429],[17.4748,-5.4717,539.6787],[17.4765,-5.4834,577.2029],[17.4852,-5.4887,524.4193],[17.485,-5.4963,511.0815],[17.4876,-5.5036,560.1417],[17.4918,-5.5084,475.6566],[17.5001,-5.513,584.5905],[17.5077,-5.5141,523.01],[17.5093,-5.5215,481.3596],[17.5141,-5.5205,503.6279],[17.5155,-5.5219,482.5168],[17.5135,-5.5253,470.1609],[17.5142,-5.5276,460.2376],[17.5201,-5.5281,485.1215],[17.5266,-5.5398,499.0296],[17.5342,-5.5457,485.5644],[17.5226,-5.5667,430.0919],[17.5243,-5.5704,460.1624],[17.5224,-5.5729,497.1159],[17.5234,-5.5773,568.9158],[17.5205,-5.5874,474.4472],[17.5231,-5.601,497.7697],[17.5217,-5.6065,445.8142],[17.5149,-5.6146,434.9034],[17.5197,-5.6192,490.8173],[17.5184,-5.6332,477.5437],[17.5207,-5.6382,466.8921],[17.521,-5.644,437.2391],[17.5161,-5.6617,486.5875],[17.5233,-5.6757,477.8581],[17.532,-5.686,499.1446],[17.5373,-5.6869,527.5399],[17.5399,-5.691,512.7361],[17.542,-5.6993,508.0621],[17.5402,-5.7078,512.7625],[17.5517,-5.7066,525.319],[17.5574,-5.7082,533.6182],[17.5655,-5.7063,547.9306],[17.5735,-5.7077,545.0432],[17.5797,-5.7046,576.9592],[17.5935,-5.7027,719.7144],[17.5999,-5.7036,576.7579],[17.606,-5.6934,735.2098],[17.6134,-5.692,661.4666],[17.615,-5.6966,671.0003],[17.6196,-5.6968,746.2706],[17.6245,-5.6998,697.4608],[17.6274,-5.6968,741.7755],[17.6304,-5.6975,728.945],[17.6314,-5.703,772.1306],[17.6357,-5.705,777.2012],[17.6374,-5.7119,787.244],[17.6416,-5.7197,847.2446],[17.6643,-5.6978,780.589],[17.6728,-5.6933,777.0593],[17.6786,-5.6933,718.8603],[17.6847,-5.6937,725.2656],[17.698,-5.7019,760.0243],[17.7101,-5.7026,812.303],[17.7328,-5.7097,831.0884],[17.7535,-5.7089,783.9081],[17.767,-5.7144,818.2403],[17.778199999999998,-5.7153,873.85],[17.7828,-5.7173,825.1465],[17.7954,-5.7133,801.7287],[17.8,-5.709,782.5563],[17.8159,-5.6806,841.3823],[17.8202,-5.6688,831.3905],[17.8309,-5.654,795.3928],[17.8458,-5.639,812.4191],[17.8496,-5.6286,775.9342],[17.8554,-5.6286,836.0345],[17.8767,-5.6366,762.0789],[17.913,-5.6388,784.8832],[17.9165,-5.6411,790.7148],[17.9131,-5.6478,775.0924],[17.9138,-5.6531,780.4533],[17.9125,-5.6572,737.9988],[17.914,-5.6663,783.1977],[17.9218,-5.6696,800.5897],[17.9505,-5.6987,797.3976],[17.9573,-5.7034,868.8105],[17.964,-5.7061,868.5446],[17.9861,-5.7059,795.5187],[18.0015,-5.7023,833.4755],[18.0282,-5.6909,733.2092],[18.0319,-5.7182,742.8605],[18.0828,-5.7197,822.08],[18.0889,-5.7203,869.7765],[18.0929,-5.7236,869.3947],[18.0901,-5.7419,781.2498],[18.0932,-5.7446,813.2323],[18.1163,-5.7523,849.4021],[18.1188,-5.7562,866.3245],[18.1193,-5.7615,803.9194],[18.1191,-5.7686,785.0934],[18.0999,-5.7943,766.3344],[18.0997,-5.8142,839.2446],[18.1048,-5.8204,878.5544],[18.1142,-5.8151,788.0834],[18.1294,-5.8018,818.8997],[18.1328,-5.8033,795.2469],[18.1392,-5.8145,763.1231],[18.14,-5.8293,853.9344],[18.1393,-5.837,819.6343],[18.1347,-5.8438,756.7328],[18.1168,-5.8542,802.8256],[18.1016,-5.8574,873.2985],[18.0974,-5.8606,829.6552],[18.097,-5.8651,865.286],[18.1041,-5.8722,776.1426],[18.1126,-5.8722,788.6426],[18.1234,-5.8693,800.4333],[18.1394,-5.8687,821.936],[18.1489,-5.8729,783.3708],[18.1631,-5.8836,736.04],[18.169,-5.8836,761.6112],[18.1731,-5.8812,636.2218],[18.1814,-5.8634,550.1211],[18.1798,-5.8576,533.0454],[18.1839,-5.8509,577.111],[18.1829,-5.8484,533.8818],[18.1788,-5.8505,528.8521],[18.1781,-5.847,535.3047],[18.1806,-5.8381,545.1608],[18.1856,-5.8332,577.986],[18.1844,-5.8268,537.2777],[18.1882,-5.8182,522.6323],[18.1857,-5.813,503.7944],[18.1981,-5.8076,530.4718],[18.2074,-5.7905,509.8709],[18.2043,-5.785,504.3558],[18.2043,-5.7818,469.3614],[18.211,-5.7804,473.0705],[18.2164,-5.7728,527.2341],[18.2234,-5.7697,580.1918],[18.2329,-5.7842,683.2338],[18.2417,-5.8082,844.3074],[18.2453,-5.8266,848.436],[18.2442,-5.8609,861.0935],[18.2469,-5.8689,802.5844],[18.2497,-5.8701,780.118],[18.2543,-5.8684,782.1862],[18.2639,-5.8608,775.3251],[18.2693,-5.8446,754.6638],[18.2748,-5.8405,768.7987],[18.28,-5.8465,834.6948],[18.2757,-5.8557,814.6323],[18.2746,-5.8652,854.6544],[18.285,-5.8693,848.3694],[18.2943,-5.869,855.0609],[18.3092,-5.8635,852.9493],[18.3161,-5.8573,726.3088],[18.3221,-5.8371,768.4656],[18.3267,-5.8354,737.7061],[18.3412,-5.8342,703.9808],[18.3495,-5.8166,703.8098],[18.3685,-5.7978,707.6974],[18.3827,-5.7996,701.4836],[18.3922,-5.7813,694.0372],[18.3968,-5.7801,693.7579],[18.3995,-5.7951,708.5832],[18.4048,-5.8077,699.9955],[18.4127,-5.8141,703.2885],[18.4298,-5.8155,734.5953],[18.442,-5.8146,775.8615],[18.4466,-5.8161,737.96],[18.461,-5.8351,765.4948],[18.4705,-5.8389,802.7482],[18.4779,-5.844,833.9197],[18.4804,-5.8526,831.5632],[18.4902,-5.8659,744.4442],[18.519,-5.8663,778.5826],[18.5224,-5.8684,767.7375],[18.526,-5.8755,800.983],[18.535,-5.8867,848.657],[18.5394,-5.8853,851.3895],[18.5433,-5.8808,847.2925],[18.5546,-5.8572,782.8618],[18.5594,-5.8533,754.8817],[18.5649,-5.8533,741.5868],[18.5713,-5.8565,728.6439]],
[[17.8947,-4.7874,403.8108],[17.8873,-4.7864,384.2657],[17.881,-4.7836,449.0622],[17.8787,-4.7804,411.186],[17.878,-4.7737,445.3899],[17.8793,-4.7697,425.0815],[17.886,-4.763,391.876],[17.8893,-4.762,394.7008],[17.8978,-4.7624,431.6865],[17.9047,-4.7676,371.8355],[17.9021,-4.7814,387.9814],[17.9006,-4.7844,404.2361],[17.8947,-4.7874,403.8108]]]]}
,"properties": {"GID_2": "COD.13.12_1","GID_0": "COD","country": "DemocraticRepublicoftheCongo","GID_1": "COD.13_1","province": "Kwilu","NL_NAME_1": "NA","county": "Masi-Manimba","VARNAME_2": "NA","NL_NAME_2": "NA","TYPE_2": "Territoire","ENGTYPE_2": "Territory","CC_2": "NA","HASC_2": "NA","name": "Masi-Manimba.county","area_km2": 14432.86,"hist_schema_id": "Elevation0-9000","hist_area_km2": {"325": 7.99,"350": 233.83,"375": 744.68,"400": 1258.56,"425": 1523.05,"450": 1360.24,"475": 972.04,"500": 651.74,"525": 519.76,"550": 423.47,"575": 357.72,"600": 323.96,"625": 378.08,"650": 464.59,"675": 544.34,"700": 735.57,"725": 850.86,"750": 855.58,"775": 759.68,"800": 610.31,"825": 551.67,"850": 264.83,"875": 40.3}}}