{"type": "Feature","bbox": [18.0653,1.9023,19.3329,3.1954],"geometry": {"type": "MultiPolygon","coordinates": [[[[19.1255,2.1264,331.2203],[19.1383,2.1424,330.0113],[19.1467,2.1487,330.5795],[19.1814,2.1981,323.1996],[19.1886,2.2039,324.4177],[19.195,2.2056,337.6631],[19.2011,2.2114,333.5702],[19.2056,2.2216,336.8675],[19.218,2.2344,339.5551],[19.2261,2.2519,343.2756],[19.2333,2.2582,341.0525],[19.2371,2.2654,345.6944],[19.2373,2.2746,340.2215],[19.2412,2.2956,330.7131],[19.24,2.2984,330.7682],[19.2478,2.2966,337.3987],[19.2558,2.2974,342.8402],[19.2607,2.3034,342.5062],[19.2634,2.3124,335.5072],[19.2625,2.3506,332.2678],[19.2262,2.3832,335.1553],[19.2053,2.3995,339.3881],[19.1947,2.4405,335.8066],[19.1939,2.4569,337.9038],[19.182,2.4719,342.1499],[19.1896,2.4925,337.1716],[19.198,2.502,346.0182],[19.2018,2.511,341.6321],[19.2029,2.5324,357.0085],[19.2078,2.5447,356.9861],[19.2162,2.5947,351.2387],[19.2383,2.62,361.1926],[19.2525,2.6414,358.441],[19.2598,2.6449,360.5782],[19.2718,2.6563,361.8959],[19.2775,2.6582,361.6049],[19.2847,2.6638,362.1947],[19.2908,2.6752,364.491],[19.3075,2.7211,368.5035],[19.3115,2.7253,369.8234],[19.3266,2.7317,369.9875],[19.3329,2.7408,367.9354],[19.3328,2.7497,393.8388],[19.3065,2.7764,359.7448],[19.2935,2.7867,389.9297],[19.2871,2.7959,424.5689],[19.2484,2.8602,425.7169],[19.2256,2.9041,384.3343],[19.226,2.9067,381.2662],[19.2371,2.9145,380.0219],[19.3128,2.9638,381.2397],[19.3137,2.9701,392.6309],[19.3093,2.9906,373.3127],[19.2998,3.0168,362.4418],[19.2908,3.0347,370.5053],[19.281,3.048,362.6426],[19.2674,3.0614,364.6629],[19.2578,3.056,362.8495],[19.2537,3.0561,363.8436],[19.25,3.0596,364.8584],[19.2497,3.0681,362.6501],[19.2466,3.0772,361.7545],[19.2441,3.0802,361.8419],[19.2237,3.0795,360.2009],[19.2164,3.0712,359.386],[19.2116,3.0704,357.893],[19.2061,3.0722,357.8903],[19.1756,3.072,359.0871],[19.1549,3.0673,352.9189],[19.1527,3.085,351.5116],[19.1408,3.1009,352.6522],[19.1272,3.1114,353.7182],[19.1206,3.1235,358.1759],[19.113,3.1269,350.993],[19.1057,3.1263,356.242],[19.0989,3.1205,348.5264],[19.0939,3.12,346.8583],[19.0856,3.1267,346.1734],[19.0826,3.1321,351.5396],[19.0812,3.1448,343.7631],[19.0856,3.1697,341.7128],[19.0846,3.1954,334.5017],[19.08,3.1914,358.1414],[19.0779,3.1771,339.0123],[19.0668,3.1869,363.254],[19.0611,3.1852,335.3675],[19.0596,3.179,335.8722],[19.0603,3.173,336.815],[19.0563,3.1658,342.377],[19.0529,3.1653,336.7725],[19.0442,3.1783,339.2327],[19.0408,3.1785,348.2166],[19.0367,3.1755,333.957],[19.0312,3.1745,337.7791],[19.0283,3.171,353.4533],[19.0333,3.1577,332.1964],[19.0415,3.1541,334.1242],[19.0448,3.1498,338.0628],[19.0412,3.1465,343.1354],[19.035,3.1444,344.4014],[19.0307,3.1377,333.3051],[19.029,3.1324,341.0649],[19.0305,3.117,348.0884],[19.0289,3.1144,366.0863],[19.0241,3.116,361.3568],[19.0181,3.1205,348.7426],[19.0119,3.1207,340.5389],[19.0078,3.1188,343.7896],[18.997,3.1069,383.6725],[18.9935,3.1071,367.1901],[18.9852,3.1148,340.9143],[18.9824,3.1226,332.6516],[18.9789,3.1256,332.4507],[18.9739,3.1258,340.5023],[18.9702,3.122,337.4298],[18.9678,3.1112,343.0694],[18.9514,3.0975,338.119],[18.9453,3.0971,337.3969],[18.9267,3.1052,348.1689],[18.9229,3.0966,337.0893],[18.9159,3.0915,350.61],[18.9047,3.0884,337.7805],[18.9028,3.0902,343.0381],[18.9064,3.102,343.5241],[18.9054,3.105,359.4136],[18.9033,3.1068,358.2709],[18.8985,3.107,338.448],[18.8924,3.0972,348.3668],[18.8877,3.0937,347.0433],[18.8866,3.0836,352.159],[18.8848,3.0815,345.0879],[18.8796,3.0807,339.613],[18.8708,3.085,340.5919],[18.8676,3.084,349.1291],[18.8574,3.0752,359.1194],[18.8536,3.0698,345.7289],[18.8486,3.0682,356.7642],[18.8451,3.0707,333.9873],[18.8438,3.0826,355.7891],[18.837,3.0761,358.7383],[18.8313,3.0763,355.0159],[18.8263,3.079,351.989],[18.8236,3.0741,355.1491],[18.819,3.0747,337.0662],[18.815,3.0782,343.9665],[18.8116,3.0866,357.3833],[18.8087,3.0891,339.2241],[18.8003,3.087,352.5969],[18.7967,3.0832,352.3378],[18.7961,3.0754,353.3736],[18.7918,3.0775,342.2987],[18.7904,3.0753,351.5851],[18.7901,3.0595,341.1532],[18.7824,3.0462,341.83],[18.7875,3.0458,339.0596],[18.793,3.0429,352.0655],[18.7914,3.041,355.2143],[18.7841,3.041,330.4214],[18.7828,3.0391,331.0298],[18.7752,3.0383,330.6252],[18.7753,3.0324,332.7653],[18.7633,3.0371,335.1068],[18.7585,3.0365,342.6942],[18.7574,3.0347,352.9281],[18.7606,3.0319,345.4326],[18.768,3.0314,337.7449],[18.7721,3.0263,347.6702],[18.7656,3.02,348.0936],[18.758,3.0227,348.3723],[18.7484,3.0208,350.8056],[18.7516,3.0178,335.2851],[18.7615,3.0154,343.9018],[18.7629,3.0131,345.3038],[18.7602,3.0117,341.5379],[18.7471,3.0168,344.5664],[18.7423,3.017,343.8186],[18.7442,3.009,344.7364],[18.7422,3.0046,342.1973],[18.7386,3.0013,339.6769],[18.7267,2.9991,343.0449],[18.726,2.9943,345.4997],[18.7242,2.9931,345.3031],[18.7254,2.9897,345.8871],[18.7165,2.984,343.6342],[18.7131,2.9874,347.9193],[18.7041,2.9876,336.0491],[18.697,2.9942,339.7328],[18.6946,2.9801,336.2194],[18.6909,2.9805,344.7421],[18.6865,2.986,332.5935],[18.6778,2.987,354.6346],[18.676,2.984,344.7817],[18.6784,2.9808,352.488],[18.6841,2.98,343.944],[18.6853,2.9768,347.7149],[18.6839,2.9744,350.6547],[18.675,2.9762,350.6612],[18.6704,2.9736,351.4413],[18.6683,2.9621,350.265],[18.6653,2.9581,353.8326],[18.6607,2.9594,351.0229],[18.6577,2.9642,348.5594],[18.6585,2.9723,348.4078],[18.6524,2.9708,351.6564],[18.6448,2.9744,349.7496],[18.6432,2.9712,351.1096],[18.6405,2.9698,344.3561],[18.6334,2.9555,330.9001],[18.6379,2.9548,332.3145],[18.6389,2.9449,335.1757],[18.6281,2.9291,348.9922],[18.6236,2.9286,337.6428],[18.6229,2.9261,345.6855],[18.6259,2.9243,350.1663],[18.6223,2.9201,352.329],[18.6152,2.9182,352.9452],[18.6088,2.9188,347.1053],[18.6049,2.9155,346.5641],[18.5992,2.9154,348.4582],[18.594,2.91,349.6544],[18.5952,2.9039,342.0146],[18.6003,2.8989,340.5054],[18.6019,2.9031,341.6945],[18.6087,2.9073,339.0059],[18.6156,2.9037,352.5747],[18.6182,2.9005,351.0486],[18.6168,2.8961,351.5732],[18.6189,2.8924,348.9639],[18.6153,2.8866,336.4948],[18.6182,2.8779,356.8882],[18.6148,2.8728,343.4287],[18.6076,2.872,335.4293],[18.6117,2.8647,334.925],[18.612,2.8599,336.6935],[18.6084,2.8589,349.9045],[18.6089,2.8553,327.6761],[18.6066,2.8525,326.0158],[18.6115,2.8479,325.4086],[18.6124,2.8433,345.8065],[18.6119,2.8307,344.8576],[18.6085,2.8233,345.5307],[18.5969,2.8213,353.6485],[18.5922,2.8146,337.7756],[18.5821,2.813,339.5086],[18.5796,2.8151,325.0399],[18.5759,2.8153,323.9605],[18.5654,2.8108,327.261],[18.556,2.8114,325.463],[18.5292,2.8005,326.7463],[18.5227,2.8018,324.9156],[18.5146,2.7957,325.1325],[18.5075,2.7954,323.1208],[18.5036,2.7923,334.9571],[18.5003,2.7863,328.0605],[18.487,2.7843,333.6414],[18.4746,2.7849,325.6369],[18.4696,2.7825,330.2299],[18.4647,2.7764,328.2752],[18.4576,2.7771,326.2785],[18.4523,2.7747,332.6942],[18.4422,2.7638,323.3563],[18.421,2.752,320.0],[18.4113,2.7398,320.0],[18.401,2.733,319.625],[18.394,2.71,346.8264],[18.384,2.699,319.5],[18.343,2.622,316.5],[18.3388,2.5989,316.25],[18.33,2.5845,347.1729],[18.3124,2.5736,319.2826],[18.2952,2.5525,316.1401],[18.2769,2.5445,315.5],[18.268,2.538,315.375],[18.242,2.507,342.6948],[18.237,2.495,338.5096],[18.2281,2.4639,332.7329],[18.229,2.452,314.5],[18.227,2.44,314.5],[18.214,2.417,314.5],[18.212,2.399,314.0],[18.203,2.384,314.0],[18.193,2.376,314.0],[18.19,2.37,314.0],[18.19,2.359,314.0],[18.185,2.345,314.0],[18.168,2.325,314.0],[18.1538,2.3045,322.0023],[18.1442,2.2991,331.9431],[18.1235,2.2794,333.2847],[18.1165,2.2757,322.7803],[18.106,2.2666,314.0],[18.095,2.238,318.2719],[18.092,2.211,314.0],[18.0908,2.1273,321.5749],[18.0888,2.0896,338.3099],[18.0787,2.0639,314.0],[18.0751,2.0607,315.4047],[18.0708,2.0514,323.3198],[18.0716,2.0388,324.6884],[18.0653,2.027,314.0],[18.0672,2.0213,314.0],[18.0842,2.0048,314.0],[18.0864,1.9841,314.0],[18.0977,1.988,331.3825],[18.2941,1.983,340.869],[18.319,1.9807,336.1194],[18.4092,1.9776,328.9438],[18.5139,1.9754,337.0717],[18.5907,1.977,333.7937],[18.5935,1.976,331.1742],[18.6012,1.9653,332.748],[18.6028,1.9586,325.4122],[18.6018,1.9522,333.3457],[18.6043,1.9495,326.828],[18.6144,1.9487,329.1185],[18.623,1.9396,329.0463],[18.6291,1.9387,328.4341],[18.6342,1.9351,326.1918],[18.6425,1.934,328.4302],[18.6457,1.9315,325.4527],[18.6497,1.9235,326.6247],[18.6639,1.9207,316.3456],[18.6676,1.9178,315.6353],[18.6727,1.9095,315.72],[18.6865,1.9023,315.6655],[18.6894,1.9063,315.9333],[18.6952,1.9045,319.619],[18.699,1.9069,321.8625],[18.7031,1.9069,321.5315],[18.7087,1.9028,329.804],[18.7132,1.9047,328.1513],[18.7197,1.9124,329.1006],[18.7252,1.9143,328.6087],[18.735,1.9367,316.4903],[18.7531,1.9526,323.2859],[18.7554,1.9558,322.6038],[18.7573,1.9664,321.0683],[18.7627,1.9722,316.9637],[18.7723,1.9728,323.3341],[18.7784,1.9802,316.4454],[18.7803,1.9747,318.8244],[18.7824,1.9732,322.4201],[18.7976,1.9784,316.6576],[18.8001,1.9819,316.0443],[18.8059,1.9796,316.5365],[18.8104,1.9813,316.6874],[18.8148,1.9772,316.5037],[18.818,1.977,317.59],[18.8215,1.972,325.2373],[18.8246,1.9771,316.4749],[18.8313,1.9744,325.1628],[18.8335,1.977,320.5109],[18.8429,1.9768,317.035],[18.8468,1.9796,317.0428],[18.8491,1.9767,325.4995],[18.8523,1.9774,330.4824],[18.8539,1.9818,326.2898],[18.8568,1.9837,327.6094],[18.8609,1.9821,326.0276],[18.8664,1.9829,333.3489],[18.8718,1.9896,316.8829],[18.8803,1.9899,318.8951],[18.8869,1.9944,316.8584],[18.8946,1.9944,318.4475],[18.8971,1.9965,317.0188],[18.8973,1.9989,317.0845],[18.903,2.0033,316.6075],[18.9186,2.0,317.0463],[18.9392,2.012,317.3214],[18.9411,2.0099,316.9783],[18.9468,2.01,318.3716],[18.9502,2.014,317.3525],[18.9582,2.0138,318.6126],[18.9643,2.0215,316.6208],[18.9713,2.0268,317.8714],[18.9893,2.034,326.9105],[18.9911,2.0363,328.3417],[18.9888,2.0418,329.8906],[18.9937,2.0478,330.9691],[19.0045,2.0482,331.3821],[19.0115,2.0519,326.6823],[19.0222,2.0527,334.9516],[19.0283,2.0588,340.5608],[19.0308,2.0662,332.9887],[19.0371,2.0741,330.4554],[19.0419,2.0743,333.8394],[19.0491,2.0834,330.773],[19.0573,2.0888,330.2041],[19.0609,2.0962,332.9642],[19.0647,2.0997,332.2569],[19.0734,2.1012,327.0294],[19.0945,2.1157,328.577],[19.1107,2.12,332.8151],[19.1255,2.1264,331.2203]]]]}
,"properties": {"GID_2": "COD.23.4_1","GID_0": "COD","country": "DemocraticRepublicoftheCongo","GID_1": "COD.23_1","province": "Sud-Ubangi","NL_NAME_1": "NA","county": "Kungu","VARNAME_2": "NA","NL_NAME_2": "NA","TYPE_2": "Territoire","ENGTYPE_2": "Territory","CC_2": "NA","HASC_2": "NA","name": "Kungu.county","area_km2": 12196.71,"hist_schema_id": "Elevation0-9000","hist_area_km2": {"300": 0.318,"325": 2872.104,"350": 5588.34,"375": 1940.253,"400": 1076.979,"425": 590.021,"450": 123.655,"475": 5.04}}}