{"type":"Feature","properties":{"ISO3166-1-Alpha-3":"COD","country":"Democratic Republic of the Congo","fill":"#00F","id":"1884","name":"Kinshasa City"},
"geometry":{"type": "Polygon","coordinates": [[[15.9882,-3.9873,454.3719],[15.95456,-3.97883,561.5529],[15.89074,-3.94296,272.5],[15.88802,-3.94052,315.5602],[15.88299,-3.94534,277.013],[15.84423,-3.9656,272.5],[15.8,-3.97883,272.5],[15.75514,-3.98565,272.0],[15.71122,-3.99216,272.0],[15.56683,-4.03805,271.5],[15.54906,-4.04621,271.5],[15.53376,-4.05799,271.5],[15.52115,-4.0768,271.5],[15.49035,-4.1752,268.0],[15.48498,-4.18388,268.0],[15.46286,-4.20713,274.9572],[15.45893,-4.21385,274.2866],[15.45025,-4.21726,275.3672],[15.42545,-4.23018,281.3276],[15.38658,-4.24434,271.9823],[15.27527,-4.30036,263.75],[15.25574,-4.31307,258.5],[15.22835,-4.32485,254.5],[15.20396,-4.33901,284.1957],[15.19342,-4.35875,295.6038],[15.18804,-4.37219,271.2031],[15.15068,-4.42515,295.1423],[15.27579,-4.60132,443.2366],[15.32297,-4.64504,354.4383],[15.33512,-4.65289,366.4684],[15.3469,-4.6578,330.8691],[15.35853,-4.66003,346.7648],[15.37031,-4.65889,352.6368],[15.38193,-4.65522,335.7119],[15.39222,-4.64855,355.441],[15.39981,-4.63899,338.2073],[15.40509,-4.62799,380.066],[15.40803,-4.6162,347.521],[15.4085,-4.60401,336.9006],[15.40493,-4.58019,331.9352],[15.40726,-4.56871,313.5226],[15.41361,-4.55776,338.5695],[15.42276,-4.54778,326.9836],[15.43346,-4.53977,311.0852],[15.44477,-4.53404,362.9344],[15.46591,-4.53269,321.5533],[15.4949,-4.53502,369.8009],[15.60135,-4.55295,723.6213],[15.64528,-4.55104,367.8677],[15.67168,-4.55352,338.5205],[15.68285,-4.56179,373.7649],[15.68548,-4.57197,413.309],[15.68037,-4.58329,353.4868],[15.66481,-4.60721,418.312],[15.66812,-4.6223,448.6828],[15.68145,-4.63992,683.5767],[15.72507,-4.6684,721.8187],[15.74305,-4.68628,619.6624],[15.75328,-4.70121,706.6172],[15.7522,-4.71243,716.5048],[15.73468,-4.75764,450.838],[15.72941,-4.78084,446.7676],[15.72538,-4.83004,470.6118],[15.723,-4.84244,569.8837],[15.71773,-4.85392,503.5255],[15.70936,-4.86399,438.3423],[15.6985,-4.87185,491.5724],[15.6875,-4.87686,546.8196],[15.67587,-4.87965,454.4708],[15.63892,-4.88482,414.1259],[15.62807,-4.88962,435.4544],[15.62218,-4.90099,430.7015],[15.62342,-4.91613,454.8787],[15.63582,-4.93897,466.3122],[15.649,-4.95437,412.7799],[15.67525,-4.97722,437.1906],[15.70176,-4.9952,785.2331],[15.73313,-5.0122,784.1437],[15.7584,-5.02104,738.0555],[15.80806,-5.03153,757.1815],[15.83317,-5.03199,682.3151],[15.84625,-5.0292,744.6147],[15.85865,-5.02393,741.8916],[15.86904,-5.01592,763.3409],[15.8757,-5.00776,761.7156],[15.87927,-5.00186,696.8508],[15.88299,-4.99055,760.0322],[15.88609,-4.96688,767.8854],[15.88718,-4.93727,710.7644],[15.88909,-4.92414,728.6088],[15.89529,-4.9166,752.906],[15.90552,-4.92001,744.0472],[15.9173,-4.92807,735.9484],[15.94474,-4.95138,751.9671],[15.98836,-4.9661,661.778],[16.0343,-4.98729,637.4916],[16.27868,-4.99995,633.0792],[16.27294,-4.88518,579.7352],[16.26224,-4.83149,635.3912],[16.25976,-4.80637,573.4611],[16.26054,-4.79449,595.5723],[16.26519,-4.78271,556.879],[16.27263,-4.77154,627.8375],[16.32012,-4.71382,715.2142],[16.42177,-4.53254,695.1937],[16.4306,-4.52102,675.3308],[16.4413,-4.51213,658.1718],[16.45246,-4.50851,510.595],[16.48445,-4.50789,338.0],[16.49003,-4.50577,351.6696],[16.49143,-4.50262,352.9091],[16.49468,-4.49626,368.369],[16.49685,-4.48774,354.349],[16.50621,-4.47513,424.8795],[16.50838,-4.46831,534.5618],[16.51158,-4.45053,511.4059],[16.51975,-4.42867,572.947],[16.53075,-4.40867,565.5587],[16.54248,-4.39632,414.4068],[16.54248,-4.39012,429.3309],[16.53856,-4.37973,507.6747],[16.54419,-4.36573,446.0917],[16.54807,-4.34929,467.2035],[16.53484,-4.32278,417.7925],[16.53659,-4.31214,422.2955],[16.54042,-4.30087,491.8593],[16.54248,-4.29018,597.8741],[16.54016,-4.27777,570.6198],[16.52254,-4.25013,566.3826],[16.51251,-4.24315,485.8016],[16.49685,-4.22941,504.603],[16.47282,-4.21292,552.5233],[16.45934,-4.19871,549.3226],[16.44843,-4.18512,531.2188],[16.40378,-4.11272,584.8769],[16.38963,-4.0997,605.969],[16.26255,-4.03273,577.6981],[16.21615,-4.0011,579.8311],[16.20033,-3.99355,620.0237],[16.17599,-3.98653,595.1501],[16.14819,-3.98141,616.8787],[16.0728,-3.97712,599.3217],[15.9882,-3.9873,454.3719]]]}}