{"type":"Feature","properties":{"GID_2":"COD.5.2_1","GID_0":"COD","country":"DemocraticRepublicoftheCongo","GID_1":"COD.5_1","province":"Haut-Uele","NL_NAME_1":"NA","county":"Dungu","VARNAME_2":"NA","NL_NAME_2":"NA","TYPE_2":"Territoire","ENGTYPE_2":"Territory","CC_2":"NA","HASC_2":"NA","name":"Dungu.county"},
"geometry":{"type": "MultiPolygon","coordinates": [[[[26.9702,5.1522,667.447],[26.9774,5.1427,659.9125],[26.9817,5.1319,675.3541],[26.9883,5.1219,659.5726],[26.9875,5.0955,678.663],[26.9807,5.0921,696.2009],[26.965,5.0927,679.1825],[26.9444,5.0876,662.1355],[26.9364,5.0815,678.1732],[26.9365,5.0579,652.5808],[26.9413,5.0485,632.2244],[26.9409,5.0437,629.171],[26.9314,5.034,659.3256],[26.9289,5.0249,649.6925],[26.9293,5.0108,630.24],[26.9443,5.0023,642.2432],[26.947,4.9973,650.1804],[26.9562,4.9943,634.2552],[26.9661,4.9948,658.8042],[26.9653,4.9887,638.1303],[26.9504,4.9757999999999996,687.9688],[26.9575,4.9651,690.2126],[26.9823,4.9376,683.4138],[26.9869,4.9207,673.4387],[26.9888,4.8848,686.5886],[26.9988,4.8642,680.7076],[27.0136,4.8527,686.6049],[27.0391,4.8452,703.3207],[27.0468,4.8384,661.2396],[27.0464,4.8179,672.2989],[27.0354,4.7972,654.4578],[27.0304,4.7972,649.1596],[27.0107,4.787,636.7288],[27.0024,4.7865,643.8614],[26.9971,4.7891,657.808],[26.9838,4.7884,642.0375],[26.9774,4.7849,636.2603],[26.9889,4.7522,659.8797],[27.0062,4.7352,658.9878],[27.0172,4.718,659.0558],[27.0275,4.6973,672.2297],[27.0278,4.6931,662.7902],[27.025,4.6876,669.6454],[27.0138,4.6763,676.2221],[27.0026,4.6682,672.9692],[26.9941,4.6516,675.958],[26.9811,4.6415,714.3762],[26.9767,4.636,724.7177],[26.9814,4.6245,764.6782],[26.9811,4.6042,706.9271],[26.9763,4.5975,682.7123],[26.9704,4.5927,660.7444],[26.9683,4.5849,680.2706],[26.972,4.5757,667.9753],[26.9793,4.569,658.7848],[26.9805,4.5621,665.0863],[26.9727,4.5531,673.4855],[26.97,4.5476,669.1327],[26.9698,4.5377,651.4797],[26.9599,4.51,633.0035],[26.9696,4.5066,629.4872],[26.9808,4.5098,628.5483],[26.9888,4.5066,626.742],[26.995,4.5071,637.5278],[27.006,4.5113,650.0718],[27.0168,4.511,646.0503],[27.0308,4.5019,630.6829],[27.0338,4.5049,638.0491],[27.0375,4.5049,640.711],[27.0402,4.5074,646.9144],[27.0719,4.4879,637.0096],[27.0779,4.4819,643.4205],[27.09,4.4828,659.7449],[27.112,4.4741,652.0472],[27.1327,4.4716,655.847],[27.1375,4.4686,652.6229],[27.1453,4.467,653.854],[27.1552,4.4553,664.3259],[27.1643,4.4514,661.5645],[27.1719,4.4516,663.0306],[27.1811,4.4491,659.8425],[27.1884,4.4445,665.1475],[27.1944,4.4441,671.6301],[27.2102,4.4519,678.5754],[27.2173,4.4584,686.7607],[27.2556,4.4616,698.2057],[27.2728,4.4706,712.4776],[27.281,4.4709,709.199],[27.2922,4.4647,724.7626],[27.2947,4.4595,721.628],[27.2943,4.4551,712.2855],[27.2918,4.4513,710.1498],[27.2669,4.4178,712.7092],[27.2647,4.4058,695.8818],[27.2655,4.3664,717.2016],[27.2465,4.331,698.592],[27.2409,4.3117,706.8727],[27.2395,4.2619,695.5062],[27.2405,4.2248,700.8265],[27.2323,4.2248,700.7748],[27.2279,4.2218,702.2988],[27.2261,4.2148,694.4846],[27.2291,4.2024,691.1321],[27.2145,4.1518,679.1935],[27.2152,4.1449,670.4396],[27.2136,4.1347,681.8862],[27.2008,4.1216,670.9962],[27.1983,4.1057,667.1871],[27.1912,4.079,666.5593],[27.1976,4.059,659.0602],[27.2009,4.0544,656.9797],[27.2084,4.0514,661.1812],[27.218,4.0507,666.9526],[27.221,4.0475,661.5382],[27.2236,4.0364,663.7144],[27.2201,4.0298,663.4022],[27.222,4.0224,665.6562],[27.2245,4.0217,670.4034],[27.2293,4.0109,655.2463],[27.2275,4.0003,660.3015],[27.2241,3.9957,667.2806],[27.2236,3.9872,678.217],[27.2271,3.9679,674.2243],[27.2326,3.957,654.7294],[27.2507,3.9451,652.7231],[27.256,3.937,655.1744],[27.2562,3.9228,647.8005],[27.2583,3.9143,646.4721],[27.265,3.9078,649.8867],[27.2707,3.8986,657.6315],[27.2774,3.8793,663.2511],[27.2597,3.8733,652.8356],[27.2565,3.8701,668.3846],[27.2545,3.8567,664.8723],[27.2763,3.8517,652.3881],[27.288,3.8441,648.6241],[27.2953,3.8349,644.0],[27.3033,3.8209,656.0917],[27.3102,3.814,652.2379],[27.3173,3.8004,650.7654],[27.3226,3.7946,650.6943],[27.3274,3.7967,651.188],[27.3318,3.7946,651.9611],[27.3393,3.7953,650.9842],[27.3442,3.7903,655.1429],[27.3474,3.7898,660.7077],[27.3622,3.7967,666.6907],[27.3659,3.7965,664.5984],[27.3684,3.7945,666.229],[27.3703,3.7843,652.7396],[27.3735,3.7843,653.8002],[27.3762,3.7864,668.0985],[27.3797,3.7961,662.0884],[27.384,3.8007,664.2026],[27.3927,3.8011,672.195],[27.3978,3.8037,660.0986],[27.4053,3.8048,667.977],[27.4085,3.8019,668.6815],[27.4122,3.8028,662.9225],[27.4152,3.8097,659.4746],[27.4243,3.8122,659.0347],[27.431,3.8118,663.877],[27.4362,3.8046,664.8218],[27.4367,3.7975,664.324],[27.4427,3.7954,666.3406],[27.4525,3.78,669.3638],[27.4587,3.774,663.327],[27.4658,3.7745,671.2568],[27.4677,3.7777,667.5461],[27.4661,3.7814,661.6653],[27.461,3.7839,661.3701],[27.4587,3.7991,665.7469],[27.4511,3.8053,669.2985],[27.4516,3.807,667.5396],[27.4587,3.8111,658.2314],[27.4594,3.8176,669.9573],[27.469,3.818,662.9337],[27.4786,3.824,667.0403],[27.4821,3.8219,670.9122],[27.4857,3.8229,670.2242],[27.4912,3.8369,665.662],[27.4956,3.8401,670.4386],[27.5034,3.8358,665.7139],[27.5107,3.8381,668.7626],[27.513,3.8404,675.4669],[27.521,3.8367,673.6384],[27.5237,3.8418,674.0487],[27.5263,3.8411,668.9689],[27.5272,3.8351,672.9296],[27.5292,3.8344,673.9336],[27.5322,3.8383,677.231],[27.5379,3.8409,677.1808],[27.5393,3.8466,677.3629],[27.5345,3.857,677.0612],[27.5407,3.8632,675.3553],[27.5471,3.8634,672.1372],[27.5496,3.868,669.5767],[27.5535,3.869,669.3168],[27.5604,3.88,678.0699],[27.5592,3.8869,676.0318],[27.5714,3.8851,675.9866],[27.5785,3.8929,678.1615],[27.5821,3.8821,678.8416],[27.5858,3.8805,677.5618],[27.5991,3.8863,671.7144],[27.5986,3.8948,672.7841],[27.6028,3.8957,677.74],[27.6034,3.8985,678.065],[27.6002,3.9063,667.2528],[27.6025,3.9146,678.4665],[27.6087,3.9178,674.9396],[27.6098,3.9203,672.4078],[27.6078,3.9261,671.9413],[27.6107,3.9302,669.1901],[27.6135,3.9295,669.6028],[27.6185,3.9226,677.9794],[27.6211,3.925,675.1561],[27.6273,3.9236,669.6107],[27.6403,3.9273,671.9724],[27.647,3.9254,676.975],[27.6492,3.93,682.5747],[27.6513,3.9307,678.1851],[27.6559,3.9264,683.6959],[27.6673,3.9365,664.2134],[27.6712,3.9351,666.7518],[27.674,3.931,670.0916],[27.6795,3.9321,665.441],[27.6827,3.9296,664.4733],[27.6859,3.9301,665.5934],[27.6873,3.9358,665.3391],[27.69,3.9379,666.7394],[27.6976,3.9381,671.6769],[27.701,3.9397,659.1132],[27.7033,3.9384,663.0562],[27.7045,3.9344,664.9631],[27.712,3.9377,670.2396],[27.7164,3.9448,668.3798],[27.7152,3.9496,666.779],[27.7161,3.9559,665.0759],[27.7184,3.9577,665.29],[27.7221,3.9563,665.4483],[27.7331,3.9586,659.9644],[27.7407,3.952,660.1898],[27.7425,3.9568,660.418],[27.7491,3.9536,661.7358],[27.7528,3.9575,663.6193],[27.7494,3.9619,661.1889],[27.742,3.9653,671.7338],[27.7455,3.9738,662.8044],[27.7496,3.9697,660.7388],[27.7565,3.9725,661.771],[27.7659,3.969,660.9468],[27.7686,3.9722,665.5219],[27.7727,3.9738,661.9468],[27.775,3.9789,673.5918],[27.7787,3.9794,665.0026],[27.7863,3.9766,661.7419],[27.7881,3.981,662.5321],[27.7856,3.9842,675.5204],[27.7791,3.9844,661.9423],[27.7769,3.9883,672.8828],[27.7773,3.9929,669.4151],[27.7869,4.0019,665.8732],[27.7876,4.0121,676.4652],[27.7904,4.0178,673.6605],[27.7888,4.0243,670.2881],[27.7933,4.0321,676.9802],[27.797,4.033,672.5476],[27.7981,4.0381,673.6953],[27.803,4.0404,669.1887],[27.8046,4.0448,666.1057],[27.8027,4.0489,669.217],[27.7984,4.0503,668.5914],[27.7958,4.0542,686.4373],[27.7979,4.0579,662.3961],[27.8045,4.057,662.7391],[27.8064,4.0616,669.4832],[27.8158,4.0671,684.5923],[27.8284,4.0611,663.9351],[27.8309,4.0556,665.3276],[27.8362,4.057,665.1795],[27.8433,4.0485,682.0549],[27.8527,4.0487,670.6378],[27.8832,4.0432,682.6877],[27.8923,4.0377,683.772],[27.8951,4.0397,672.1039],[27.9006,4.0404,677.4779],[27.9063,4.0453,679.4253],[27.9586,4.0549,681.3807],[27.9588,4.0181,694.0029],[27.9612,3.9988,697.6452],[27.9672,3.9868,704.2172],[27.9783,3.9762,711.9453],[27.9982,3.9613,697.2355],[28.0079,3.9564,694.519],[28.0205,3.9417,688.5457],[28.029,3.9277,691.8473],[28.0365,3.9221,693.9105],[28.039,3.9162,701.1495],[28.0407,3.9046,706.1079],[28.0374,3.8977,699.7037],[28.0425,3.8853,701.0345],[28.0413,3.8782,694.269],[28.051,3.8671,691.3096],[28.0528,3.8618,686.1324],[28.0503,3.8522,692.7015],[28.0508,3.8439,691.343],[28.0692,3.824,699.4269],[28.0865,3.8114,712.5996],[28.1032,3.8066,701.3896],[28.1395,3.808,681.8369],[28.1461,3.8026,679.915],[28.1515,3.7918,678.2958],[28.1523,3.7827,678.9733],[28.1475,3.7799,672.7781],[28.1449,3.7725,671.3319],[28.1475,3.7695,674.2011],[28.1429,3.7686,673.3569],[28.1362,3.7728,687.0304],[28.1351,3.7711,682.4896],[28.1383,3.7654,677.2396],[28.1376,3.7629,675.9746],[28.1305,3.7645,680.489],[28.1266,3.7626,682.5785],[28.1207,3.7631,677.141],[28.1188,3.7613,677.4189],[28.1195,3.7569,681.1818],[28.1172,3.7539,676.731],[28.1113,3.7546,682.8588],[28.1014,3.75,682.6871],[28.0982,3.7456,677.106],[28.0922,3.7449,677.1484],[28.0856,3.747,679.6049],[28.0732,3.7461,673.7844],[28.0611,3.7546,675.4371],[28.0565,3.7511,680.6902],[28.0505,3.7518,673.3169],[28.0457,3.7467,661.9904],[28.0615,3.744,677.4491],[28.0698,3.7359,665.0129],[28.0803,3.7359,660.875],[28.0842,3.732,661.0],[28.1028,3.7253,661.5],[28.111,3.7256,667.9421],[28.1191,3.7281,662.5],[28.1266,3.7249,663.9532],[28.133,3.7244,680.4301],[28.1468,3.7276,671.3298],[28.1775,3.723,668.9414],[28.1853,3.7189,682.1617],[28.1898,3.7134,666.4104],[28.1933,3.7042,669.1838],[28.1958,3.7014,666.5787],[28.2244,3.6887,667.0],[28.2274,3.6696,676.719],[28.2437,3.6383,681.2262],[28.2547,3.6268,680.9595],[28.2558,3.6238,677.9613],[28.2538,3.6119,682.2197],[28.2554,3.6063,676.0999],[28.2629,3.6017,676.541],[28.2689,3.5957,675.6838],[28.2792,3.5911,680.6748],[28.2842,3.5914,678.0862],[28.289,3.5985,675.7313],[28.3005,3.6066,673.7457],[28.3298,3.6047,683.1189],[28.341,3.6206,675.9413],[28.3433,3.6312,681.6268],[28.3507,3.6507,677.4327],[28.3536,3.6542,684.3302],[28.3621,3.6567,679.9495],[28.3637,3.6652,676.0],[28.3672,3.6662,684.8103],[28.3974,3.6613,680.3746],[28.4056,3.6581,679.6195],[28.4114,3.6583,678.0],[28.4192,3.6625,691.0137],[28.437,3.6438,690.0088],[28.4466,3.6404,686.4221],[28.469,3.6373,695.8955],[28.4913,3.6519,719.2493],[28.5372,3.6579,721.2596],[28.5589,3.6557,707.4012],[28.5697,3.6519,722.1663],[28.587,3.6416,693.4986],[28.5994,3.6247,699.7394],[28.6091,3.5981,694.0732],[28.6075,3.5791,730.8442],[28.5929,3.5617,724.6128],[28.5508,3.5378,713.3957],[28.5372,3.5351,733.8595],[28.5257,3.5353,735.0788],[28.5207,3.5099,725.1486],[28.5089,3.474,751.6425],[28.4918,3.4336,737.0905],[28.4829,3.4029,736.8357],[28.474,3.3909,753.1935],[28.4723,3.3854,753.4137],[28.4967,3.3843,765.3799],[28.5057,3.3759,769.9799],[28.4938,3.3626,763.7642],[28.5082,3.341,751.9556],[28.5154,3.3332,761.4557],[28.5283,3.3231,758.4912],[28.5228,3.3204,754.3744],[28.521,3.3121,740.5087],[28.5187,3.3098,739.601],[28.4924,3.3105,732.6353],[28.4795,3.3089,733.3365],[28.4624,3.2979,732.3721],[28.4566,3.2979,730.7457],[28.4502,3.3008,719.8276],[28.445,3.2953,714.6541],[28.4328,3.3043,713.8448],[28.4234,3.3045,712.9804],[28.4143,3.3112,715.9239],[28.4065,3.3119,710.2308],[28.3928,3.322,702.7028],[28.3756,3.3246,718.4341],[28.371,3.3225,709.0093],[28.368,3.323,707.4716],[28.3673,3.3195,710.1178],[28.3699,3.3089,702.8263],[28.3802,3.2997,707.1552],[28.3742,3.2811,710.0651],[28.3753,3.2721,712.8388],[28.3714,3.2597,721.616],[28.3735,3.2495,715.0358],[28.3724,3.2419,720.0145],[28.3678,3.2334,721.6418],[28.3623,3.2134,719.1816],[28.3515,3.2031,739.3613],[28.3447,3.201,718.5098],[28.3376,3.1938,732.8472],[28.3318,3.1909,727.8153],[28.3218,3.1747,734.6752],[28.3206,3.1667,728.0623],[28.3236,3.1478,748.8628],[28.3183,3.1335,744.5348],[28.3131,3.1294,751.4256],[28.3076,3.1179,751.6381],[28.3018,3.0993,761.3444],[28.2952,3.0887,768.5295],[28.29,3.0678,775.0009],[28.2888,3.0506,775.9596],[28.3029,3.0393,781.0303],[28.3205,3.0423,783.1597],[28.3264,3.04,792.7101],[28.3319,3.0192,798.8152],[28.3332,2.9897,789.8754],[28.3315,2.9698,792.4774],[28.3264,2.9596,785.8662],[28.3309,2.9457,767.0942],[28.3384,2.948,769.9807],[28.346,2.937,764.7108],[28.3421,2.9305,764.6909],[28.3444,2.9186,766.284],[28.3478,2.9114,763.4365],[28.3604,2.8944,767.5962],[28.3684,2.8886,787.6447],[28.381,2.8893,779.2651],[28.3865,2.885,782.782],[28.3936,2.8847,784.5192],[28.3966,2.8923,766.6229],[28.4,2.8919,766.5681],[28.4071,2.8843,800.5996],[28.4217,2.8815,771.6088],[28.432,2.8764,785.5074],[28.4446,2.8769,787.1275],[28.4462,2.8748,785.3891],[28.4426,2.8704,785.4504],[28.4433,2.8684,786.8887],[28.4485,2.867,768.225],[28.4549,2.8622,785.7197],[28.4577,2.8617,783.8378],[28.4613,2.8647,758.8154],[28.4632,2.8628,785.3359],[28.4602,2.8555,784.5965],[28.4705,2.8364,787.4714],[28.4696,2.8299,807.7349],[28.4714,2.8272,805.9442],[28.4817,2.8299,787.4056],[28.4867,2.826,807.4774],[28.5007,2.8274,790.3704],[28.508,2.8198,806.1438],[28.5124,2.8196,812.9103],[28.5206,2.8292,784.8868],[28.5261,2.8327,820.6296],[28.5357,2.8336,915.481],[28.5375,2.8373,823.9478],[28.5314,2.861,779.3788],[28.5266,2.8642,786.3657],[28.5192,2.8753,826.659],[28.5195,2.8785,791.6178],[28.5218,2.8801,773.7647],[28.5302,2.8799,781.4019],[28.5419,2.8831,788.7708],[28.5449,2.887,776.3408],[28.5474,2.8877,776.1854],[28.5492,2.8872,781.001],[28.5547,2.8653,791.2214],[28.5533,2.8554,788.8514],[28.5666,2.8426,794.4582],[28.5613,2.8345,780.7672],[28.5613,2.8175,784.0994],[28.559,2.8126,794.234],[28.5638,2.8018,849.2807],[28.5659,2.8007,836.2801],[28.5696,2.8115,788.1792],[28.5789,2.8138,802.7597],[28.581,2.8211,783.9059],[28.5877,2.8299,802.7805],[28.5861,2.8343,781.7133],[28.5883,2.8372,795.1477],[28.5929,2.8366,835.3155],[28.5975,2.8407,843.5974],[28.6069,2.843,817.3165],[28.6078,2.8458,816.2968],[28.6067,2.8494,810.6826],[28.5996,2.8566,794.487],[28.6003,2.8586,771.3619],[28.6112,2.8598,788.4326],[28.6236,2.8543,792.9042],[28.6268,2.8563,795.7713],[28.6348,2.8568,802.7188],[28.6456,2.8727,778.2377],[28.6529,2.8727,775.3015],[28.6584,2.8628,775.2902],[28.668,2.8591,813.5911],[28.6723,2.8515,792.7291],[28.6691,2.8443,794.4564],[28.6698,2.8418,784.8872],[28.6765,2.8381,800.5358],[28.6813,2.8386,806.0953],[28.6819,2.8476,787.6767],[28.684,2.8515,818.9275],[28.7037,2.851,787.0048],[28.7094,2.8602,793.068],[28.7115,2.8719,818.1431],[28.7099,2.8784,796.4355],[28.7069,2.8802,797.8605],[28.6955,2.8807,795.3918],[28.6918,2.8832,795.5252],[28.6914,2.8871,788.783],[28.6948,2.8901,813.2863],[28.6978,2.903,800.1414],[28.7053,2.9074,789.6042],[28.7042,2.9143,787.804],[28.7078,2.9175,830.9449],[28.7104,2.9228,810.8436],[28.7117,2.9325,804.6188],[28.7351,2.9435,810.8071],[28.7476,2.9677,795.9524],[28.7502,2.9778,831.8866],[28.75,2.9879,787.2459],[28.7464,3.0003,796.2811],[28.7486,3.0105,798.5482],[28.7441,3.0261,800.3538],[28.756,3.0461,802.4922],[28.7647,3.0493,789.4744],[28.7894,3.0468,793.8646],[28.7935,3.0512,790.4792],[28.8046,3.0448,813.5904],[28.8457,3.0423,834.1029],[28.8561,3.0499,826.3342],[28.8677,3.0656,845.7686],[28.8769,3.0702,832.1377],[28.8796,3.0746,838.8462],[28.8803,3.0803,832.3625],[28.879,3.1052,826.5301],[28.8813,3.1121,816.277],[28.89,3.1183,802.5992],[28.8955,3.1197,810.5715],[28.9067,3.118,799.9542],[28.9135,3.1217,805.516],[28.9266,3.1364,800.5618],[28.9296,3.1424,799.6441],[28.9415,3.1523,798.8575],[28.9452,3.168,802.4283],[28.9477,3.1693,797.5963],[28.9532,3.1689,796.9175],[28.9598,3.1848,788.4175],[28.9595,3.2017,811.5056],[28.9621,3.2128,789.8862],[28.9748,3.2336,773.1991],[28.9891,3.2457,796.4067],[29.0224,3.2593,864.886],[29.0459,3.2796,897.9352],[29.0678,3.3079,877.6431],[29.1111,3.3568,866.2353],[29.1253,3.3767,838.0781],[29.1274,3.3899,802.558],[29.1318,3.3931,794.7936],[29.1341,3.3972,810.69],[29.1288,3.4065,793.907],[29.13,3.42,782.29],[29.1261,3.4237,786.8421],[29.1247,3.4355,759.1183],[29.1208,3.4456,750.7142],[29.1215,3.4502,748.452],[29.1392,3.4693,737.4391],[29.1433,3.4684,739.2429],[29.1465,3.47,737.2246],[29.1488,3.4748,730.5582],[29.158,3.484,754.6704],[29.1715,3.4713,726.4958],[29.18,3.4688,738.8621],[29.1838,3.4623,733.6846],[29.188,3.4596,740.704],[29.1886,3.4531,733.8854],[29.1909,3.4493,725.951],[29.2012,3.4473,729.2666],[29.206,3.4446,727.5366],[29.2129,3.4338,727.8149],[29.2154,3.4363,725.7781],[29.2175,3.443,732.1681],[29.225,3.4413,728.3884],[29.2289,3.445,736.6854],[29.234,3.4466,764.1071],[29.2459,3.4443,738.2708],[29.2525,3.4523,741.4371],[29.2583,3.4539,750.4992],[29.2608,3.4521,744.3568],[29.2594,3.4482,738.1097],[29.2658,3.4452,739.6398],[29.2667,3.4397,746.863],[29.2818,3.4325,748.8467],[29.283,3.4293,746.5594],[29.294,3.4201,750.7727],[29.2972,3.4115,755.3165],[29.2999,3.4088,759.3079],[29.3061,3.4074,754.5283],[29.315,3.3929,754.1569],[29.3253,3.3896,755.3949],[29.3427,3.3882,770.6769],[29.3481,3.3835,763.9902],[29.3654,3.4021,775.5352],[29.3707,3.4132,770.6039],[29.3774,3.4416,791.6866],[29.3937,3.4828,810.0872],[29.399,3.488,786.3382],[29.407,3.4892,795.3528],[29.4229,3.4835,782.5865],[29.4309,3.4859,774.8674],[29.4431,3.4992,774.8068],[29.4451,3.5134,764.1828],[29.4533,3.5384,761.207],[29.4609,3.5559,756.1891],[29.468,3.5641,756.4863],[29.4664,3.5685,758.7641],[29.4685,3.5738,760.9117],[29.4676,3.5807,752.0001],[29.4733,3.5883,756.9295],[29.4715,3.604,759.9637],[29.4653,3.6088,761.4954],[29.4601,3.6102,761.6877],[29.4573,3.6173,761.9854],[29.4543,3.6201,760.4415],[29.4369,3.6286,754.2196],[29.4324,3.6342,750.1106],[29.4299,3.6431,743.1769],[29.431,3.6524,753.3016],[29.4379,3.6521,742.2403],[29.4725,3.663,770.3125],[29.5153,3.6824,778.242],[29.5504,3.6952,780.1038],[29.5535,3.6868,786.3319],[29.5636,3.6754,775.183],[29.6065,3.6852,761.9568],[29.616,3.7003,768.6665],[29.6331,3.7352,772.2493],[29.6789,3.7655,764.3444],[29.6979,3.773,767.3987],[29.6951,3.7787,775.9657],[29.6922,3.7801,763.4684],[29.6899,3.784,759.2405],[29.6904,3.7912,765.6608],[29.6878,3.7933,772.5699],[29.6823,3.793,769.2055],[29.6743,3.7954,769.6155],[29.6668,3.7947,756.1132],[29.6654,3.7961,758.1078],[29.6643,3.8027,780.1873],[29.6553,3.812,770.9782],[29.6524,3.8196,783.1015],[29.6462,3.8221,763.8198],[29.6455,3.8251,759.8973],[29.6492,3.8378,753.5216],[29.6446,3.8419,766.4613],[29.6375,3.841,763.209],[29.6348,3.8433,752.5231],[29.6327,3.8511,773.4058],[29.6256,3.8539,763.2889],[29.6227,3.859,764.7703],[29.6462,3.9071,774.6749],[29.6416,3.939,808.0872],[29.6299,3.9525,788.3323],[29.6096,3.9623,791.3956],[29.5673,3.9745,760.647],[29.5613,3.9775,753.6989],[29.5568,3.985,763.1659],[29.5555,3.9938,743.0828],[29.5789,4.0008,745.2118],[29.5949,4.0096,749.8364],[29.603,4.0084,753.1627],[29.6107,4.0116,752.0422],[29.6151,4.0079,760.5728],[29.6181,4.0077,765.4004],[29.6351,4.018,763.3893],[29.6408,4.027,771.541],[29.6442,4.0297,767.993],[29.6484,4.0309,760.6424],[29.6523,4.029,765.2974],[29.6557,4.0295,769.5135],[29.6589,4.0327,766.4912],[29.6612,4.0387,767.9078],[29.6631,4.0587,766.5466],[29.6691,4.0663,764.6436],[29.6716,4.0748,773.7671],[29.6723,4.0868,767.3541],[29.6703,4.0941,770.7209],[29.6712,4.1036,778.8754],[29.6673,4.1227,784.9275],[29.6745,4.1404,797.8412],[29.6781,4.1441,803.524],[29.6786,4.1471,801.5265],[29.6736,4.1572,786.9034],[29.6738,4.16,792.9675],[29.6828,4.1655,808.3412],[29.691,4.1864,807.5909],[29.6883,4.2055,807.9637],[29.6842,4.2124,805.6726],[29.6908,4.2341,815.1461],[29.697,4.2434,825.0338],[29.7104,4.2519,827.2748],[29.7208,4.2567,816.0676],[29.7336,4.2568,798.7401],[29.7361,4.26,810.304],[29.7432,4.2616,813.8334],[29.7644,4.2813,824.1316],[29.7722,4.2997,824.1069],[29.7825,4.3112,830.3524],[29.7926,4.3335,841.1491],[29.803,4.3487,840.6471],[29.8055,4.3563,866.8557],[29.8064,4.3617,872.2017],[29.7984,4.3683,890.1252],[29.7953,4.3816,868.9752],[29.7986,4.3952,888.4139],[29.7954,4.4072,871.7079],[29.7957,4.4144,885.0817],[29.7985,4.424,888.7251],[29.7956,4.4371,886.4165],[29.7989,4.4458,881.1122],[29.8004,4.4654,892.9075],[29.8032,4.4688,892.3741],[29.806,4.4828,900.0696],[29.8058,4.4911,902.5815],[29.7942,4.5039,906.2032],[29.7931,4.5089,910.4528],[29.7971,4.5177,904.634],[29.8084,4.5256,929.5555],[29.8208,4.5373,929.8008],[29.8248,4.549,944.3761],[29.8203,4.5587,948.8291],[29.8141,4.5618,954.822],[29.8075,4.5629,962.2396],[29.7912,4.5617,962.8101],[29.7841,4.5633,940.8652],[29.7757,4.5754,956.4712],[29.7684,4.5828,963.576],[29.7626,4.5833,963.6361],[29.75,4.5732,949.1393],[29.7449,4.5707,955.0272],[29.7392,4.5708,944.2853],[29.7332,4.5745,946.6735],[29.7157,4.6013,918.712],[29.7135,4.6087,906.8228],[29.708,4.6163,914.5907],[29.6998,4.6205,930.3564],[29.6927,4.621,918.2023],[29.6803,4.6248,922.1063],[29.6726,4.6317,947.6401],[29.6602,4.6348,944.228],[29.6479,4.6469,933.9991],[29.6401,4.6494,904.8987],[29.6325,4.6495,909.3299],[29.6232,4.6528,903.9465],[29.6147,4.6609,916.2932],[29.611,4.6609,903.9318],[29.6016,4.6511,904.931],[29.5954,4.6481,909.3896],[29.5901,4.6488,885.257],[29.5837,4.6562,893.7964],[29.5737,4.6623,895.0764],[29.5686,4.6625,908.0388],[29.559,4.6589,906.6323],[29.556,4.6596,896.8365],[29.5533,4.6661,902.7472],[29.5494,4.6664,928.1647],[29.5309,4.6531,921.0007],[29.5245,4.6545,893.2863],[29.5209,4.6665,988.7053],[29.5026,4.6853,883.6428],[29.4945,4.6849,897.8455],[29.4845,4.6714,898.7278],[29.4755,4.6674,884.1205],[29.4685,4.6385,871.1584],[29.4752,4.6079,869.011],[29.4716,4.6013,838.4641],[29.4717,4.5956,841.7316],[29.4691,4.5966,839.4416],[29.4401,4.5484,839.8354],[29.4408,4.5416,844.6703],[29.4379,4.5239,815.39],[29.4087,4.4833,810.2804],[29.3993,4.476,806.36],[29.3873,4.4708,821.346],[29.375,4.469,821.439],[29.3685,4.4621,792.481],[29.3478,4.4369,796.8553],[29.3425,4.411,783.5995],[29.3383,4.4013,775.0919],[29.3214,4.3846,801.5248],[29.306,4.3783,800.213],[29.2957,4.379,786.2146],[29.2911,4.3841,794.6971],[29.2863,4.3867,802.3094],[29.2776,4.386,804.2518],[29.2679,4.3908,811.8848],[29.2568,4.3775,814.1819],[29.2538,4.3648,820.8505],[29.2146,4.3526,777.8211],[29.199,4.3562,800.8755],[29.1805,4.3711,784.8822],[29.1506,4.4017,796.6461],[29.1392,4.4275,782.3829],[29.1249,4.4304,797.7858],[29.0953,4.4267,795.6299],[29.092,4.4281,794.1328],[29.0885,4.4309,797.2262],[29.0938,4.4495,778.8566],[29.0884,4.4549,773.207],[29.0795,4.4549,796.6027],[29.0688,4.4572,784.9689],[29.0544,4.465,780.2045],[29.0347,4.4889,780.8324],[29.0281,4.4907,787.452],[29.0002,4.481,793.5562],[28.9958,4.4819,832.4982],[28.9887,4.4782,794.5951],[28.9754,4.4752,786.7572],[28.947,4.4789,781.2196],[28.9323,4.4736,781.9294],[28.9249,4.473,777.3766],[28.9123,4.4774,801.4569],[28.9027,4.471,775.0192],[28.8953,4.4738,794.0602],[28.8825,4.4827,773.7424],[28.8688,4.4878,788.5031],[28.866,4.4867,793.4801],[28.8573,4.4768,774.0151],[28.8451,4.4734,784.673],[28.83,4.4737,794.5116],[28.8219,4.4779,788.235],[28.8064,4.4904,792.1635],[28.8035,4.4967,787.3936],[28.8095,4.5086,792.7733],[28.8055,4.5317,761.8542],[28.7977,4.5386,755.5222],[28.7866,4.5582,750.6008],[28.7781,4.558,756.9333],[28.7682,4.551,739.2884],[28.7673,4.5482,750.9581],[28.7599,4.5432,751.4182],[28.7576,4.5393,749.7046],[28.7516,4.537,753.2511],[28.7213,4.5362,765.7993],[28.7166,4.534,758.1224],[28.7043,4.4998,749.8045],[28.7026,4.4718,739.7616],[28.6902,4.451,745.3094],[28.6792,4.4369,755.0966],[28.6654,4.4286,756.4001],[28.6622,4.4196,743.9921],[28.6365,4.4147,748.6793],[28.6264,4.4111,752.2755],[28.6223,4.4122,754.3763],[28.6179,4.4164,760.0647],[28.6055,4.4132,750.0743],[28.6021,4.4144,759.9578],[28.5959,4.4102,754.8854],[28.5922,4.4039,745.1838],[28.5895,4.3875,759.9791],[28.5823,4.3782,756.1694],[28.54,4.3753,771.2824],[28.5239,4.3716,774.0558],[28.5117,4.3613,772.9227],[28.4949,4.3219,767.5715],[28.4881,4.3114,769.8538],[28.4804,4.3032,767.082],[28.4649,4.2986,780.3902],[28.4536,4.2878,780.3629],[28.4379,4.2838,768.9179],[28.4145,4.2828,774.8965],[28.3854,4.2995,754.3589],[28.3676,4.3165,748.0421],[28.3661,4.3244,745.0605],[28.3634,4.3286,734.1786],[28.3535,4.3377,731.9386],[28.3379,4.3388,725.8042],[28.3315,4.336,719.2308],[28.3214,4.3365,721.8928],[28.3166,4.3323,718.4036],[28.2893,4.3328,714.8639],[28.2726,4.3275,718.989],[28.2652,4.3289,708.7046],[28.2554,4.328,710.3759],[28.2386,4.3296,711.374],[28.2313,4.334,709.5961],[28.2189,4.3374,710.027],[28.2001,4.3462,705.1487],[28.1834,4.3674,706.0746],[28.1753,4.3753,698.7795],[28.1675,4.3797,708.3651],[28.1366,4.3895,719.8354],[28.132,4.3939,726.6679],[28.1309,4.4003,715.8594],[28.1397,4.413,731.208],[28.1427,4.4208,721.1403],[28.1425,4.4256,724.9056],[28.14,4.4305,723.7238],[28.1322,4.436,731.4235],[28.1221,4.4315,740.9806],[28.118,4.4326,742.6256],[28.1107,4.4404,719.0748],[28.1027,4.4369,726.3369],[28.0857,4.435,714.0946],[28.0768,4.438,712.8744],[28.0666,4.4479,711.106],[28.0389,4.467,705.0082],[28.0339,4.4769,709.2413],[28.0324,4.4854,712.9536],[28.0272,4.5282,720.8589],[28.0283,4.5347,719.0326],[28.0263,4.5381,727.7617],[28.0146,4.5462,732.0544],[28.0084,4.5478,729.0229],[27.9935,4.5466,735.6873],[27.988,4.5489,730.4074],[27.9809,4.5445,731.4436],[27.9641,4.548,738.1107],[27.9535,4.5516,750.188],[27.9442,4.557,737.6229],[27.9334,4.5516,729.0775],[27.9302,4.544,732.452],[27.9267,4.5437,733.0265],[27.9194,4.5477,726.8617],[27.8683,4.5479,715.3934],[27.8628,4.55,716.7134],[27.8545,4.5576,709.7902],[27.844,4.5731,715.7803],[27.8331,4.5748,715.9813],[27.8322,4.5849,713.8617],[27.8173,4.5872,716.8027],[27.8141,4.5909,720.769],[27.8109,4.5999,728.6408],[27.8063,4.6009,730.0671],[27.7934,4.5931,730.1642],[27.7838,4.5971,728.1508],[27.7809,4.6012,733.8029],[27.782,4.6086,737.8706],[27.7871,4.6166,751.6226],[27.786,4.6286,732.7312],[27.776,4.6528,736.1188],[27.7749,4.6611,747.6899],[27.7769,4.6662,753.9563],[27.791,4.685,729.0462],[27.791,4.6934,717.4654],[27.7892,4.709,718.3085],[27.789,4.7541,724.9437],[27.7818,4.7697,729.6041],[27.7752,4.7757,732.4077],[27.7717,4.7756,730.1202],[27.766,4.7854,724.079],[27.7587,4.7907,728.757],[27.7426,4.791,726.8298],[27.7282,4.7856,739.022],[27.7137,4.7859,749.0527],[27.7054,4.795,735.8834],[27.7004,4.8227,731.4546],[27.7023,4.8279,732.1263],[27.6945,4.8529,709.3741],[27.6902,4.8612,705.4675],[27.684,4.8684,715.1878],[27.6575,4.8913,712.4052],[27.6446,4.8934,728.7748],[27.6015,4.8933,722.6577],[27.5941,4.8924,706.7269],[27.5803,4.8854,712.9429],[27.568,4.8951,689.7499],[27.5584,4.9105,665.9584],[27.5504,4.9152,707.9534],[27.5387,4.9189,694.6866],[27.5328,4.9261,685.659],[27.5257,4.942,690.5547],[27.526,4.9588,693.8243],[27.5192,4.9747,683.9009],[27.5146,4.9775,673.938],[27.5013,4.981,684.0208],[27.4972,4.9849,680.571],[27.4913,4.9948,690.4202],[27.4842,5.0006,693.4252],[27.4702,5.0082,698.2908],[27.4634,5.0162,700.7064],[27.4521,5.0152,709.5239],[27.4447,5.0175,727.0763],[27.4411,5.022,728.9901],[27.4422,5.0377,712.4325],[27.4465,5.0476,706.6061],[27.4463,5.0529,704.5439],[27.4426,5.0635,719.0465],[27.4382,5.0708,699.1511],[27.4316,5.0777,700.4582],[27.4146,5.0878,692.8165],[27.3941,5.0961,693.9188],[27.3735,5.1002,692.0377],[27.340699999999998,5.1108,682.6118],[27.3331,5.1147,681.7286],[27.3243,5.123,680.2758],[27.3181,5.1264,681.1356],[27.3062,5.1285,676.1035],[27.2906,5.1351,663.5333],[27.2575,5.1431,674.3635],[27.2318,5.1523,664.8907],[27.196,5.1721,658.5815],[27.1817,5.1849,655.0206],[27.1574,5.1996,644.8619],[27.1429,5.2042,644.4448],[27.1122,5.2067,648.0616],[27.0787,5.2041,637.7749],[27.0667,5.2009,640.8857],[27.0509,5.1933,641.0663],[27.0291,5.187,638.9854],[27.0188,5.181,639.7428],[27.0012,5.167,642.5484],[26.9702,5.1522,667.447]]]]}}