{"type":"Feature","properties":{"GID_1":"COD.12_1","GID_0":"COD","country":"DemocraticRepublicoftheCongo","province":"Kwango","VARNAME_1":"NA","NL_NAME_1":"NA","TYPE_1":"Province","ENGTYPE_1":"Province","CC_1":"NA","HASC_1":"CD.KG","ISO_1":"CD-KG","name":"Kwango.province"},
"geometry":{"type": "MultiPolygon","coordinates": [[[[19.2846,-8.0,1039.1283],[19.4357,-7.9985,1068.1847],[19.4406,-7.9796,1068.4597],[19.4365,-7.9582,1057.6416],[19.3574,-7.9282,1025.1528],[19.357,-7.913,1017.5287],[19.354,-7.908,1011.3465],[19.3439,-7.9012,1010.8544],[19.3479,-7.8845,1010.7027],[19.356,-7.879,1005.928],[19.3567,-7.8657,1001.5282],[19.364,-7.861,997.7665],[19.3647,-7.8485,998.4822],[19.3617,-7.8337,997.9342],[19.3616,-7.812,993.1032],[19.3649,-7.806,998.0627],[19.37,-7.8021,991.4335],[19.3803,-7.7884,988.9442],[19.387,-7.783,988.1189],[19.388,-7.7732,999.9861],[19.3914,-7.7687,1012.887],[19.3902,-7.7597,1006.7639],[19.401,-7.719,1002.1402],[19.402,-7.709,981.8091],[19.408,-7.704,974.982],[19.409,-7.701,974.3274],[19.4069,-7.682,983.9084],[19.4014,-7.6746,972.7751],[19.399,-7.6659,971.1899],[19.3979,-7.651,1007.137],[19.3871,-7.6371,986.6196],[19.3846,-7.6279,979.7475],[19.3777,-7.6169,975.4],[19.3687,-7.5831,972.7495],[19.3799,-7.5771,956.8513],[19.381,-7.5701,955.3122],[19.462,-7.571,990.4934],[19.474,-7.567,975.7462],[19.4838,-7.5563,969.1826],[19.4845,-7.5534,970.8359],[19.4824,-7.5503,974.8556],[19.4842,-7.5436,969.9439],[19.4939,-7.533,960.507],[19.4927,-7.5253,966.7903],[19.4853,-7.5039,968.4693],[19.496,-7.5,950.4999],[19.512,-7.489,962.6398],[19.5168,-7.4839,962.9538],[19.5219,-7.4739,957.6759],[19.5366,-7.4685,940.4109],[19.5419,-7.4688,938.5107],[19.5492,-7.4736,939.8069],[19.55,-7.472,949.8192],[19.5447,-7.457,951.7887],[19.537,-7.449,954.2003],[19.5294,-7.447,944.2133],[19.5264,-7.4427,937.4802],[19.5268,-7.4361,935.9439],[19.5317,-7.4351,949.9791],[19.5328,-7.4319,936.0836],[19.521,-7.4246,954.9572],[19.515,-7.408,948.9907],[19.4957,-7.3705,927.1309],[19.5,-7.358,921.8547],[19.503,-7.355,965.6985],[19.501,-7.342,917.7511],[19.4991,-7.3414,918.0714],[19.496,-7.331,917.0298],[19.4906,-7.3238,916.3652],[19.4876,-7.3151,915.8762],[19.492,-7.308,945.0829],[19.4884,-7.3022,923.0135],[19.493,-7.295,964.4373],[19.4922,-7.2906,923.7245],[19.495,-7.287,918.8459],[19.4927,-7.274,919.3144],[19.4939,-7.2675,904.9236],[19.5009,-7.252,901.2116],[19.5002,-7.2442,913.5955],[19.503,-7.234,912.2131],[19.5001,-7.229,898.717],[19.504,-7.22,898.2898],[19.5034,-7.2159,911.9054],[19.5051,-7.2091,899.6744],[19.5015,-7.1981,914.0369],[19.503,-7.193,894.7846],[19.4979,-7.1839,917.7448],[19.4965,-7.176,914.6381],[19.5034,-7.17,898.8002],[19.5085,-7.137,894.4974],[19.5222,-7.113,815.1868],[19.5332,-7.0881,766.96],[19.5375,-7.0817,762.1962],[19.552,-7.0693,637.9426],[19.5595,-7.059,627.2347],[19.5636,-7.0573,613.0159],[19.5473,-7.0302,743.4371],[19.5437,-7.0124,783.5984],[19.5439,-6.9998,705.7845],[19.6762,-7.0005,917.806],[19.706,-6.999,914.0981],[19.834,-6.998,877.3448],[19.868,-7.0,741.3057],[19.9558,-6.9994,635.1744],[19.9572,-6.9968,646.4882],[19.9688,-6.9918,618.594],[19.9628,-6.9856,660.3473],[19.9644,-6.9835,651.7333],[19.97,-6.982,593.8815],[19.9656,-6.9778,625.3926],[19.9622,-6.9686,635.2794],[19.9641,-6.964,601.9683],[19.9591,-6.9562,605.9104],[19.9596,-6.9389,580.3966],[19.9518,-6.9373,580.8401],[19.9493,-6.9334,582.0568],[19.9507,-6.9272,605.7516],[19.9537,-6.9246,582.0255],[19.9506,-6.9115,576.8663],[19.9522,-6.906,572.4691],[19.9462,-6.903,574.9611],[19.9446,-6.8998,609.2531],[19.9463,-6.8927,570.1064],[19.9376,-6.8933,587.1489],[19.9361,-6.8726,559.4002],[19.931,-6.8634,558.1208],[19.9306,-6.8581,619.6869],[19.9176,-6.8475,570.7101],[19.9075,-6.8426,575.2507],[19.9011,-6.8294,554.3573],[19.903,-6.8212,641.6205],[19.9003,-6.8172,661.8303],[19.8908,-6.8156,582.0562],[19.89,-6.8062,606.6459],[19.887,-6.8043,561.1571],[19.8881,-6.8013,595.7384],[19.8873,-6.7965,647.7795],[19.8774,-6.7969,637.1956],[19.8758,-6.7946,629.1745],[19.8763,-6.7877,596.9793],[19.866,-6.7754,640.6566],[19.8579,-6.7736,622.6904],[19.8559,-6.7717,603.4772],[19.8532,-6.7639,603.6115],[19.8458,-6.7627,618.8027],[19.8433,-6.7604,600.6426],[19.8463,-6.756,635.4532],[19.8351,-6.7419,571.732],[19.8365,-6.7369,576.6893],[19.8347,-6.7332,619.3632],[19.8267,-6.7345,613.3304],[19.8247,-6.7223,590.4182],[19.8231,-6.7203,607.595],[19.818,-6.7198,596.2136],[19.8155,-6.7168,608.9383],[19.8183,-6.711,609.201],[19.8176,-6.7069,586.7919],[19.8119,-6.7073,572.0466],[19.8119,-6.6992,618.2239],[19.8053,-6.6965,594.5233],[19.7957,-6.6859,595.6824],[19.786,-6.6819,533.0129],[19.7851,-6.6805,542.7488],[19.787,-6.6743,584.1202],[19.7796,-6.6699,583.2515],[19.7774,-6.6651,592.78],[19.7723,-6.6655,521.5124],[19.7696,-6.6561,549.6732],[19.7628,-6.6491,602.0683],[19.7598,-6.6406,583.8501],[19.7566,-6.6385,589.396],[19.7546,-6.6295,584.1142],[19.7403,-6.6271,518.3934],[19.736,-6.6216,523.625],[19.7342,-6.6152,523.0875],[19.7257,-6.6119,556.9156],[19.7223,-6.6066,561.6509],[19.7198,-6.5983,517.2751],[19.7162,-6.5937,535.1166],[19.7139,-6.5849,512.6612],[19.7096,-6.5808,528.5853],[19.7078,-6.5734,577.1356],[19.7088,-6.5608,565.0593],[19.712,-6.5571,572.9742],[19.7102,-6.5534,556.0717],[19.7047,-6.552,508.7657],[19.7024,-6.5476,524.3578],[19.702,-6.5384,532.6946],[19.7073,-6.5313,591.774],[19.7016,-6.5216,524.075],[19.7014,-6.5182,514.8927],[19.7081,-6.5164,588.5889],[19.71,-6.5123,538.5954],[19.7086,-6.507,504.8687],[19.7038,-6.5,549.7255],[19.7048,-6.4971,524.6133],[19.7165,-6.4978,558.6727],[19.7147,-6.4937,543.4102],[19.7085,-6.4872,522.101],[19.7085,-6.484,504.6958],[19.7152,-6.4767,551.1754],[19.7137,-6.4546,505.3159],[19.7048,-6.4472,502.4477],[19.706,-6.4414,508.7284],[19.7159,-6.4385,502.8706],[19.7185,-6.4351,498.9106],[19.7203,-6.4257,508.132],[19.7185,-6.4192,506.0697],[19.714,-6.4153,517.818],[19.7131,-6.4114,570.2062],[19.7096,-6.4097,533.6339],[19.7069,-6.4047,499.7288],[19.7067,-6.3959,502.5353],[19.7035,-6.3911,495.875],[19.7045,-6.3867,536.5649],[19.7011,-6.3821,512.8609],[19.697,-6.3683,494.3899],[19.6958,-6.3462,554.8218],[19.6896,-6.3434,527.6541],[19.6873,-6.339,501.9711],[19.6878,-6.337,511.3446],[19.6836,-6.3367,530.0822],[19.6769,-6.3415,562.695],[19.6604,-6.3444,582.1355],[19.6558,-6.3464,505.7776],[19.6472,-6.3542,546.8218],[19.6345,-6.358,520.2286],[19.6103,-6.3543,558.78],[19.5745,-6.3427,614.7612],[19.5584,-6.3416,611.3838],[19.5524,-6.3399,577.2691],[19.5296,-6.3257,649.5857],[19.5174,-6.3211,650.5669],[19.5036,-6.3052,615.5716],[19.4997,-6.3036,581.8748],[19.4905,-6.3072,618.8129],[19.4758,-6.3021,544.0254],[19.4728,-6.2995,568.6979],[19.4699,-6.2901,657.902],[19.4568,-6.2826,671.8783],[19.4545,-6.2838,651.2436],[19.4454,-6.2816,636.952],[19.4405,-6.2864,591.9967],[19.4297,-6.2923,669.8757],[19.4234,-6.3038,706.3102],[19.414,-6.3306,826.6421],[19.4062,-6.3469,732.1057],[19.3985,-6.3711,837.4256],[19.3908,-6.3826,816.2169],[19.3827,-6.3867,811.9337],[19.366,-6.3913,819.5198],[19.3523,-6.3896,693.8859],[19.3425,-6.3831,691.0566],[19.3372,-6.3822,683.9435],[19.3305,-6.3836,671.1157],[19.332,-6.3678,712.372],[19.3314,-6.3538,695.9146],[19.324,-6.3549,671.2373],[19.3207,-6.3348,667.0787],[19.3143,-6.3251,673.2342],[19.3133,-6.3026,832.031],[19.3108,-6.2973,828.4328],[19.3026,-6.2878,745.3967],[19.2992,-6.2807,812.9216],[19.2984,-6.263,814.9216],[19.2947,-6.2593,813.2527],[19.3048,-6.2322,812.7288],[19.3056,-6.2173,643.077],[19.3102,-6.2159,702.9382],[19.3136,-6.2113,651.1595],[19.3161,-6.2141,740.3877],[19.3191,-6.2144,805.1069],[19.3301,-6.1901,614.1286],[19.3347,-6.1848,629.0103],[19.3684,-6.1689,652.2488],[19.382,-6.1575,678.985],[19.3813,-6.1529,668.325],[19.3827,-6.1483,637.4827],[19.3943,-6.1415,724.3639],[19.3964,-6.1365,797.5527],[19.3957,-6.1323,777.411],[19.3911,-6.1298,653.8705],[19.3921,-6.1238,724.844],[19.3863,-6.1224,689.1539],[19.3652,-6.1245,644.276],[19.356,-6.1208,731.3882],[19.3372,-6.1202,659.2404],[19.3307,-6.1215,644.9464],[19.321,-6.1316,681.8973],[19.3153,-6.1341,687.9051],[19.3074,-6.1347,676.2855],[19.2639,-6.1174,827.0094],[19.2518,-6.1112,824.7619],[19.235,-6.1085,781.5719],[19.2244,-6.104,818.7717],[19.2172,-6.0932,819.1906],[19.2056,-6.1078,790.2514],[19.2059,-6.1228,827.9147],[19.2011,-6.1322,830.5295],[19.189,-6.148,830.0254],[19.1824,-6.1681,842.592],[19.1824,-6.1764,843.7652],[19.1786,-6.1824,844.1611],[19.1576,-6.1883,845.4272],[19.1446,-6.1962,846.8395],[19.1329,-6.1947,844.1899],[19.1114,-6.1754,840.5198],[19.1064,-6.1766,796.3562],[19.1011,-6.181,759.0288],[19.098,-6.189,765.9617],[19.0954,-6.2124,805.8706],[19.0822,-6.2159,826.2277],[19.0769,-6.2189,810.8062],[19.0696,-6.2337,796.6388],[19.0592,-6.2662,865.3864],[19.0554,-6.2701,867.8517],[19.0521,-6.2721,865.5462],[19.0242,-6.2744,814.3465],[19.0058,-6.2782,790.1986],[18.9934,-6.2847,844.5621],[18.9696,-6.3072,875.8895],[18.9556,-6.3119,835.3501],[18.9489,-6.3107,856.5462],[18.944,-6.3083,874.1918],[18.9318,-6.297,803.9908],[18.932,-6.2942,791.9173],[18.9361,-6.2905,839.6143],[18.933,-6.282,803.6802],[18.9334,-6.2772,818.8952],[18.9309,-6.2738,822.4976],[18.9315,-6.2655,785.4291],[18.9301,-6.2616,783.4857],[18.9347,-6.2556,829.2205],[18.9263,-6.2423,853.1228],[18.9228,-6.24,829.358],[18.9251,-6.232,811.4958],[18.9234,-6.2278,810.1791],[18.9165,-6.2263,793.6908],[18.909,-6.2274,785.0944],[18.9014,-6.2309,824.8138],[18.8943,-6.2365,865.9412],[18.879,-6.2436,855.6224],[18.8734,-6.246,800.4784],[18.8673,-6.2463,862.1204],[18.8417,-6.2128,808.797],[18.8347,-6.2009,835.4827],[18.8318,-6.189,859.4676],[18.8328,-6.184,862.6001],[18.8386,-6.1843,854.0181],[18.8486,-6.1903,868.5651],[18.8603,-6.2001,866.6402],[18.8655,-6.2013,862.9285],[18.87,-6.1965,864.2849],[18.872,-6.1243,828.5408],[18.8689,-6.1201,779.2842],[18.8639,-6.1219,778.7113],[18.8494,-6.1438,856.433],[18.8456,-6.1459,850.2286],[18.8379,-6.1423,791.442],[18.833,-6.1372,850.0486],[18.8289,-6.1289,840.7206],[18.8293,-6.123,837.6547],[18.8383,-6.1133,859.8627],[18.8417,-6.1047,858.0846],[18.8346,-6.0973,853.7432],[18.8279,-6.0982,853.2386],[18.7972,-6.1182,852.661],[18.7793,-6.1223,856.524],[18.771,-6.1309,854.5365],[18.7476,-6.138,758.6297],[18.7294,-6.1225,753.0399],[18.7279,-6.1117,752.3357],[18.7306,-6.1078,755.2271],[18.7249,-6.103,750.3109],[18.7246,-6.0981,780.9232],[18.7269,-6.0938,804.8214],[18.7208,-6.0855,766.9659],[18.7122,-6.066,743.2526],[18.7101,-6.0564,736.6348],[18.7063,-6.0502,632.549],[18.7047,-6.0396,649.9258],[18.7003,-6.0383,617.0109],[18.6982,-6.0312,648.1861],[18.6933,-6.0266,579.6725],[18.6963,-6.022,634.0547],[18.6955,-6.0181,634.9482],[18.7028,-6.0091,645.8774],[18.7021,-5.9976,585.3622],[18.7032,-5.9946,579.6318],[18.7069,-5.9922,611.0696],[18.7054,-5.9812,572.3467],[18.7002,-5.9786,631.092],[18.6669,-5.9773,823.0311],[18.6443,-5.9731,821.4125],[18.5767,-5.9925,849.1485],[18.5535,-5.9892,775.6064],[18.5401,-5.9915,832.3979],[18.5357,-5.9939,804.99],[18.5328,-5.9912,857.9129],[18.535,-5.9871,854.0555],[18.5462,-5.9791,815.589],[18.5463,-5.974,793.7094],[18.5484,-5.971,794.6009],[18.5488,-5.9586,784.7418],[18.5459,-5.9416,824.2125],[18.5391,-5.9241,767.8797],[18.5411,-5.914,763.3943],[18.5486,-5.9089,759.3937],[18.5525,-5.8967,747.8951],[18.5632,-5.8856,742.9376],[18.5713,-5.8565,728.6439],[18.5649,-5.8533,741.5868],[18.5594,-5.8533,754.8817],[18.5546,-5.8572,782.8618],[18.5433,-5.8808,847.2925],[18.5394,-5.8853,851.3895],[18.535,-5.8867,848.657],[18.526,-5.8755,800.983],[18.5224,-5.8684,767.7375],[18.519,-5.8663,778.5826],[18.4902,-5.8659,744.4442],[18.4804,-5.8526,831.5632],[18.4779,-5.844,833.9197],[18.4705,-5.8389,802.7482],[18.461,-5.8351,765.4948],[18.4466,-5.8161,737.96],[18.442,-5.8146,775.8615],[18.4298,-5.8155,734.5953],[18.4127,-5.8141,703.2885],[18.4048,-5.8077,699.9955],[18.3995,-5.7951,708.5832],[18.3968,-5.7801,693.7579],[18.3922,-5.7813,694.0372],[18.3827,-5.7996,701.4836],[18.3685,-5.7978,707.6974],[18.3495,-5.8166,703.8098],[18.3412,-5.8342,703.9808],[18.3267,-5.8354,737.7061],[18.3221,-5.8371,768.4656],[18.3161,-5.8573,726.3088],[18.3092,-5.8635,852.9493],[18.2943,-5.869,855.0609],[18.285,-5.8693,848.3694],[18.2746,-5.8652,854.6544],[18.2757,-5.8557,814.6323],[18.28,-5.8465,834.6948],[18.2748,-5.8405,768.7987],[18.2693,-5.8446,754.6638],[18.2639,-5.8608,775.3251],[18.2543,-5.8684,782.1862],[18.2497,-5.8701,780.118],[18.2469,-5.8689,802.5844],[18.2442,-5.8609,861.0935],[18.2453,-5.8266,848.436],[18.2417,-5.8082,844.3074],[18.2329,-5.7842,683.2338],[18.2265,-5.7727,619.3458],[18.2234,-5.7697,580.1918],[18.2164,-5.7728,527.2341],[18.211,-5.7804,473.0705],[18.2043,-5.7818,469.3614],[18.2043,-5.785,504.3558],[18.2074,-5.7905,509.8709],[18.1981,-5.8076,530.4718],[18.1857,-5.813,503.7944],[18.1882,-5.8182,522.6323],[18.1844,-5.8268,537.2777],[18.1856,-5.8332,577.986],[18.1806,-5.8381,545.1608],[18.1781,-5.847,535.3047],[18.1788,-5.8505,528.8521],[18.1829,-5.8484,533.8818],[18.1839,-5.8509,577.111],[18.1798,-5.8576,533.0454],[18.1814,-5.8634,550.1211],[18.1731,-5.8812,636.2218],[18.169,-5.8836,761.6112],[18.1631,-5.8836,736.04],[18.1489,-5.8729,783.3708],[18.1394,-5.8687,821.936],[18.1234,-5.8693,800.4333],[18.1126,-5.8722,788.6426],[18.1041,-5.8722,776.1426],[18.097,-5.8651,865.286],[18.0974,-5.8606,829.6552],[18.1016,-5.8574,873.2985],[18.1168,-5.8542,802.8256],[18.1347,-5.8438,756.7328],[18.1393,-5.837,819.6343],[18.14,-5.8293,853.9344],[18.1392,-5.8145,763.1231],[18.1328,-5.8033,795.2469],[18.1294,-5.8018,818.8997],[18.1142,-5.8151,788.0834],[18.1048,-5.8204,878.5544],[18.0997,-5.8142,839.2446],[18.0999,-5.7943,766.3344],[18.1191,-5.7686,785.0934],[18.1193,-5.7615,803.9194],[18.1188,-5.7562,866.3245],[18.1163,-5.7523,849.4021],[18.0932,-5.7446,813.2323],[18.0901,-5.7419,781.2498],[18.0929,-5.7236,869.3947],[18.0889,-5.7203,869.7765],[18.0828,-5.7197,822.08],[18.0319,-5.7182,742.8605],[18.0282,-5.6909,733.2092],[18.0015,-5.7023,833.4755],[17.9861,-5.7059,795.5187],[17.964,-5.7061,868.5446],[17.9573,-5.7034,868.8105],[17.9505,-5.6987,797.3976],[17.9218,-5.6696,800.5897],[17.914,-5.6663,783.1977],[17.9125,-5.6572,737.9988],[17.9138,-5.6531,780.4533],[17.9131,-5.6478,775.0924],[17.9165,-5.6411,790.7148],[17.913,-5.6388,784.8832],[17.8767,-5.6366,762.0789],[17.8554,-5.6286,836.0345],[17.8496,-5.6286,775.9342],[17.8458,-5.639,812.4191],[17.8309,-5.654,795.3928],[17.8202,-5.6688,831.3905],[17.8159,-5.6806,841.3823],[17.8,-5.709,782.5563],[17.7954,-5.7133,801.7287],[17.789,-5.7164,828.8142],[17.7828,-5.7173,825.1465],[17.778199999999998,-5.7153,873.85],[17.767,-5.7144,818.2403],[17.7535,-5.7089,783.9081],[17.7328,-5.7097,831.0884],[17.7101,-5.7026,812.303],[17.698,-5.7019,760.0243],[17.6847,-5.6937,725.2656],[17.6786,-5.6933,718.8603],[17.6728,-5.6933,777.0593],[17.6643,-5.6978,780.589],[17.6416,-5.7197,847.2446],[17.6374,-5.7119,787.244],[17.6357,-5.705,777.2012],[17.6314,-5.703,772.1306],[17.6304,-5.6975,728.945],[17.6274,-5.6968,741.7755],[17.6245,-5.6998,697.4608],[17.6196,-5.6968,746.2706],[17.615,-5.6966,671.0003],[17.6134,-5.692,661.4666],[17.606,-5.6934,735.2098],[17.5999,-5.7036,576.7579],[17.5935,-5.7027,719.7144],[17.5797,-5.7046,576.9592],[17.5735,-5.7077,545.0432],[17.5655,-5.7063,547.9306],[17.5574,-5.7082,533.6182],[17.5517,-5.7066,525.319],[17.5402,-5.7078,512.7625],[17.542,-5.6993,508.0621],[17.5399,-5.691,512.7361],[17.5373,-5.6869,527.5399],[17.532,-5.686,499.1446],[17.5233,-5.6757,477.8581],[17.5161,-5.6617,486.5875],[17.521,-5.644,437.2391],[17.5207,-5.6382,466.8921],[17.5184,-5.6332,477.5437],[17.5197,-5.6192,490.8173],[17.5149,-5.6146,434.9034],[17.5217,-5.6065,445.8142],[17.5231,-5.601,497.7697],[17.5205,-5.5874,474.4472],[17.5234,-5.5773,568.9158],[17.5224,-5.5729,497.1159],[17.5243,-5.5704,460.1624],[17.5226,-5.5667,430.0919],[17.5342,-5.5457,485.5644],[17.5266,-5.5398,499.0296],[17.5201,-5.5281,485.1215],[17.5142,-5.5276,460.2376],[17.5135,-5.5253,470.1609],[17.5155,-5.5219,482.5168],[17.5141,-5.5205,503.6279],[17.5093,-5.5215,481.3596],[17.5077,-5.5141,523.01],[17.5001,-5.513,584.5905],[17.4918,-5.5084,475.6566],[17.4876,-5.5036,560.1417],[17.485,-5.4963,511.0815],[17.4852,-5.4887,524.4193],[17.4765,-5.4834,577.2029],[17.4748,-5.4717,539.6787],[17.4771,-5.4641,487.2429],[17.4793,-5.4627,473.7108],[17.4793,-5.4572,478.5891],[17.4871,-5.4489,505.7755],[17.4788,-5.4436,445.22],[17.4778,-5.4379,510.9318],[17.473,-5.4358,424.124],[17.4702,-5.4313,400.2735],[17.4713,-5.4283,461.1599],[17.4741,-5.4275,477.1687],[17.4775,-5.4144,479.1129],[17.4744,-5.4036,429.855],[17.4707,-5.4011,408.833],[17.4682,-5.3919,443.9718],[17.4752,-5.3783,485.4926],[17.469,-5.3717,427.4473],[17.4687,-5.368,455.3325],[17.4712,-5.3641,473.9234],[17.4725,-5.3473,437.8536],[17.4766,-5.3456,453.6085],[17.4764,-5.339,442.5838],[17.4793,-5.3332,422.0737],[17.4772,-5.3238,429.1949],[17.4774,-5.3121,455.292],[17.4789,-5.2957,419.368],[17.4812,-5.2932,459.8926],[17.4768,-5.2881,414.7029],[17.4811,-5.2847,444.8068],[17.4813,-5.2801,461.908],[17.4764,-5.2672,423.6325],[17.4807,-5.2573,426.7452],[17.4777,-5.2518,429.3341],[17.4802,-5.2483,436.4494],[17.4802,-5.2375,389.6756],[17.4873,-5.2379,424.1218],[17.4882,-5.2365,420.9342],[17.4822,-5.2281,448.2863],[17.4863,-5.2218,420.2354],[17.4911,-5.2183,406.9778],[17.4943,-5.2107,418.1378],[17.491,-5.2039,414.0117],[17.4921,-5.1999,414.0024],[17.4956,-5.1967,407.1139],[17.5015,-5.1951,407.3172],[17.5093,-5.1881,404.9327],[17.5103,-5.181,414.8746],[17.5141,-5.1791,408.0863],[17.517,-5.1752,387.8344],[17.5195,-5.1621,402.5895],[17.5261,-5.1528,433.0624],[17.5293,-5.1526,452.4921],[17.5327,-5.1549,405.4037],[17.5359,-5.1417,402.1212],[17.5411,-5.1389,433.0767],[17.545,-5.1258,392.5051],[17.539,-5.1247,379.753],[17.5367,-5.1213,413.2291],[17.5435,-5.1127,426.1892],[17.541,-5.1111,421.7724],[17.5378,-5.1134,402.8932],[17.535,-5.1127,398.3787],[17.5309,-5.1093,407.6445],[17.5254,-5.1082,444.4785],[17.5223,-5.102,393.487],[17.5283,-5.0955,402.3681],[17.5241,-5.0903,381.1461],[17.5149,-5.0862,381.5448],[17.5135,-5.0836,377.7716],[17.5213,-5.0751,421.1881],[17.5242,-5.0677,419.3513],[17.5292,-5.0626,394.826],[17.5297,-5.0582,404.4802],[17.5259,-5.0484,416.5275],[17.5257,-5.0445,400.6902],[17.528,-5.0399,393.9795],[17.5153,-5.0353,408.6406],[17.5093,-5.0305,375.4511],[17.5075,-5.0245,393.3755],[17.5097,-5.0179,395.5811],[17.509,-5.0153,393.6129],[17.5051,-5.0135,383.5234],[17.5046,-5.0103,371.6342],[17.5076,-5.0008,376.7624],[17.5105,-4.9967,416.4404],[17.5155,-4.9937,413.2762],[17.5164,-4.9902,389.4139],[17.5148,-4.9806,399.8806],[17.5195,-4.966,415.3342],[17.5135,-4.9479,383.7726],[17.5146,-4.9442,426.2648],[17.5191,-4.9398,407.0132],[17.5189,-4.9366,404.0585],[17.5067,-4.9369,411.5573],[17.5024,-4.9335,404.8682],[17.5009,-4.927,404.8925],[17.5043,-4.9176,382.6528],[17.5036,-4.9139,378.9434],[17.4988,-4.9098,412.6639],[17.5019,-4.8955,426.2914],[17.4998,-4.8898,397.9349],[17.5041,-4.881,392.1862],[17.5082,-4.8766,380.2736],[17.5142,-4.874,403.5104],[17.5174,-4.8653,377.4655],[17.5219,-4.8618,394.9761],[17.5235,-4.859,376.6374],[17.5214,-4.854,366.1453],[17.5235,-4.8519,364.0656],[17.5326,-4.8505,381.1968],[17.5347,-4.8475,370.6694],[17.5364,-4.827,379.0941],[17.5472,-4.8191,389.6887],[17.546,-4.8168,367.2986],[17.5414,-4.8155,366.3335],[17.5398,-4.8127,386.7169],[17.5464,-4.8009,370.7444],[17.5466,-4.7956,403.168],[17.5463,-4.7862,419.2994],[17.5417,-4.7823,373.0797],[17.5407,-4.7791,363.0866],[17.5453,-4.7694,366.8471],[17.5533,-4.7634,365.9832],[17.5541,-4.7558,362.7347],[17.5612,-4.7528,365.0373],[17.5644,-4.7495,371.7666],[17.5716,-4.7145,365.8469],[17.5766,-4.7083,388.6546],[17.5784,-4.6965,366.7806],[17.5816,-4.694,372.5558],[17.5868,-4.693,387.5145],[17.5882,-4.6898,372.4562],[17.5865,-4.6813,373.3397],[17.5923,-4.6785,353.946],[17.6003,-4.678,396.7248],[17.6021,-4.6752,387.3049],[17.6014,-4.6681,374.8616],[17.6048,-4.663,360.2619],[17.6165,-4.6648,398.2714],[17.6185,-4.6606,403.1383],[17.6164,-4.6533,370.2169],[17.6228,-4.6505,359.6121],[17.6322,-4.6383,356.8169],[17.6315,-4.633,370.9404],[17.6328,-4.6295,358.5687],[17.6376,-4.6283,373.7781],[17.6373,-4.6143,362.2912],[17.6425,-4.6058,370.2757],[17.6409,-4.6032,367.3128],[17.6356,-4.6014,356.924],[17.6346,-4.5821,366.7112],[17.6371,-4.5795,354.9028],[17.6433,-4.58,383.3055],[17.6527,-4.5687,363.4465],[17.6522,-4.5659,368.4061],[17.6464,-4.5625,355.6209],[17.6704,-4.5495,351.1842],[17.6743,-4.5513,363.7422],[17.6769,-4.557,384.7473],[17.6815,-4.5581,372.8912],[17.6881,-4.5505,360.715],[17.6867,-4.5482,360.9195],[17.6883,-4.5445,373.7833],[17.6961,-4.5371,365.5806],[17.6967,-4.5304,398.1144],[17.693,-4.5224,361.9732],[17.6859,-4.519,371.6789],[17.6895,-4.5146,355.0195],[17.6766,-4.5018,350.4814],[17.6752,-4.497,345.6506],[17.677,-4.4857,348.7358],[17.6742,-4.4825,347.3162],[17.6469,-4.4799,351.0104],[17.6525,-4.4706,366.8491],[17.6576,-4.4699,376.5309],[17.6634,-4.4752,350.7348],[17.6723,-4.4675,372.9067],[17.6631,-4.4653,341.3358],[17.6612,-4.4559,348.5811],[17.663,-4.4485,341.9091],[17.6671,-4.4462,372.131],[17.6708,-4.4533,352.4525],[17.6747,-4.4558,357.9203],[17.6797,-4.4454,352.2277],[17.6868,-4.4373,370.5052],[17.6842,-4.4293,344.1324],[17.6938,-4.4216,354.2123],[17.696,-4.4087,346.651],[17.7041,-4.416,351.9845],[17.7052,-4.4119,354.8185],[17.7042,-4.4045,386.7654],[17.7087,-4.3889,349.0274],[17.7115,-4.3884,345.9523],[17.7156,-4.3927,342.6068],[17.7205,-4.3936,359.7462],[17.7246,-4.3904,385.587],[17.728,-4.3819,348.01],[17.7307,-4.3818,345.3708],[17.7362,-4.3869,364.3617],[17.7392,-4.3875,369.4712],[17.7433,-4.3836,343.375],[17.7484,-4.3843,351.9922],[17.7701,-4.3687,366.8172],[17.773,-4.3639,341.2323],[17.7748,-4.3533,375.1563],[17.7773,-4.3494,364.2691],[17.7933,-4.3463,349.102],[17.7972,-4.344,394.672],[17.8034,-4.3363,401.542],[17.8221,-4.3268,395.669],[17.8257,-4.3169,336.1389],[17.8251,-4.3096,360.6425],[17.82,-4.2989,388.7993],[17.8065,-4.283,386.2662],[17.7939,-4.2751,411.451],[17.7875,-4.2782,404.9996],[17.7608,-4.2992,365.0949],[17.7215,-4.3203,456.2311],[17.6809,-4.3342,437.5491],[17.652,-4.341,448.5868],[17.6382,-4.3413,442.0519],[17.6328,-4.3391,416.2169],[17.6277,-4.334,450.3412],[17.6262,-4.3299,473.7564],[17.6261,-4.326,468.6191],[17.6326,-4.3094,502.7164],[17.6341,-4.2945,481.896],[17.6384,-4.2894,439.0613],[17.6365,-4.2772,465.9142],[17.6298,-4.2634,448.1626],[17.6245,-4.257,458.3411],[17.6254,-4.2469,454.6335],[17.624,-4.2432,453.2539],[17.6122,-4.2331,422.7114],[17.6007,-4.2362,446.0469],[17.5527,-4.2414,453.4625],[17.5179,-4.2378,404.5604],[17.5074,-4.2434,444.1154],[17.494,-4.2552,417.625],[17.4575,-4.2921,462.4711],[17.4284,-4.2987,446.1869],[17.4237,-4.3014,469.01],[17.3902,-4.3319,513.2183],[17.3615,-4.3548,503.5742],[17.3406,-4.3685,475.0426],[17.32,-4.3785,508.9912],[17.3007,-4.3855,399.7142],[17.2847,-4.3881,370.143],[17.259,-4.3881,462.7291],[17.2434,-4.3995,501.924],[17.2265,-4.4167,463.6057],[17.2133,-4.4337,453.5466],[17.2019,-4.4568,508.9337],[17.1951,-4.4817,391.1816],[17.1907,-4.5115,399.8255],[17.1813,-4.5422,410.6211],[17.1779,-4.5488,473.1089],[17.1736,-4.5554,488.8896],[17.1675,-4.5608,497.6703],[17.1536,-4.5665,450.6024],[17.1406,-4.565,356.0688],[17.1253,-4.5569,363.56],[17.1192,-4.5518,346.3467],[17.1068,-4.55,355.4148],[17.0948,-4.54,363.9845],[17.0753,-4.5325,374.3831],[17.0675,-4.5249,358.7182],[17.0582,-4.5125,397.7811],[17.0543,-4.5045,381.7267],[17.0361,-4.4839,387.7491],[17.0319,-4.4834,419.2162],[17.0243,-4.4791,433.4494],[17.0122,-4.4789,485.3007],[16.9951,-4.4974,455.6078],[16.9841,-4.5034,402.6291],[16.9596,-4.5055,474.3534],[16.9509,-4.501,475.1877],[16.9463,-4.4951,529.7272],[16.9406,-4.481,530.5477],[16.9393,-4.4662,519.6963],[16.9405,-4.4619,504.1049],[16.9603,-4.4469,523.1572],[16.9734,-4.4291,454.8182],[16.973,-4.4096,386.8722],[16.9701,-4.401,396.6253],[16.9672,-4.3984,373.786],[16.9628,-4.398,372.7809],[16.9458,-4.4037,415.2646],[16.9386,-4.4037,375.6525],[16.9357,-4.4011,418.9677],[16.9282,-4.388,458.756],[16.9252,-4.3743,405.6591],[16.9197,-4.3611,437.9692],[16.9111,-4.3479,468.3417],[16.8924,-4.3312,546.8476],[16.8629,-4.2973,581.6597],[16.8563,-4.2944,569.7789],[16.8518,-4.3144,448.1493],[16.8519,-4.3363,526.288],[16.8489,-4.3469,466.1177],[16.8398,-4.3543,578.3068],[16.826,-4.3543,561.7576],[16.819,-4.359,603.7583],[16.8073,-4.3595,546.6799],[16.8031,-4.3623,557.4326],[16.7958,-4.3556,561.0243],[16.7859,-4.3528,636.0145],[16.782,-4.3535,636.1191],[16.775,-4.3578,667.2695],[16.7704,-4.3663,662.1101],[16.7606,-4.3785,670.1555],[16.7537,-4.3823,629.9688],[16.7469,-4.3819,470.1265],[16.745,-4.3766,403.4935],[16.7447,-4.3449,605.8482],[16.7419,-4.3337,610.1783],[16.7371,-4.3284,651.4554],[16.7313,-4.3284,636.7658],[16.7289,-4.3303,503.3943],[16.7241,-4.3422,425.0808],[16.7198,-4.3482,422.5806],[16.7132,-4.3521,389.0302],[16.7081,-4.3339,466.2763],[16.7027,-4.3224,420.9513],[16.6954,-4.3284,359.6669],[16.6897,-4.3299,361.3541],[16.6798,-4.3292,362.4259],[16.6687,-4.3417,392.4332],[16.6659,-4.3504,524.217],[16.663,-4.3532,531.1144],[16.6584,-4.3535,414.5667],[16.6541,-4.3581,438.6485],[16.6474,-4.3606,509.0129],[16.636,-4.3623,431.7392],[16.6284,-4.3695,542.6944],[16.6209,-4.3704,538.4009],[16.6166,-4.3729,525.2302],[16.6103,-4.3847,583.4188],[16.6063,-4.4117,658.9664],[16.6104,-4.4724,611.9066],[16.6119,-4.5337,699.3185],[16.6098,-4.5534,615.0023],[16.6073,-4.5559,613.449],[16.5989,-4.5545,612.0279],[16.5877,-4.5474,622.469],[16.5433,-4.5129,590.4952],[16.5149,-4.486,403.0718],[16.4975,-4.4837,337.5],[16.4787,-4.4828,482.2269],[16.4753,-4.4849,538.957],[16.4642,-4.4836,497.5405],[16.4532,-4.4783,620.2573],[16.4417,-4.4754,642.8304],[16.4196,-4.4566,683.6353],[16.4157,-4.4573,679.6676],[16.4061,-4.4652,637.6517],[16.4041,-4.4686,587.3845],[16.4018,-4.4815,664.2556],[16.3971,-4.4891,661.4978],[16.3971,-4.5051,666.4142],[16.3949,-4.5215,689.0286],[16.3886,-4.5357,690.4385],[16.383,-4.545,686.5487],[16.3716,-4.5576,686.3289],[16.3653,-4.5674,701.2317],[16.3486,-4.5998,678.5425],[16.3229,-4.6575,689.3241],[16.3124,-4.6775,711.6105],[16.2909,-4.7284,709.1837],[16.2836,-4.7371,689.5874],[16.2625,-4.7478,550.7589],[16.2641,-4.7514,556.5457],[16.2625,-4.7541,559.4983],[16.2627,-4.76,556.5789],[16.2614,-4.7604,556.5789],[16.2622,-4.7626,553.7172],[16.2608,-4.7629,553.6365],[16.2617,-4.767,553.0548],[16.2557,-4.7718,554.7125],[16.2595,-4.7787,555.1694],[16.2525,-4.7856,553.9879],[16.2502,-4.7917,552.8848],[16.2516,-4.7979,557.8137],[16.2488,-4.8052,554.7796],[16.2502,-4.8058,556.2208],[16.2517,-4.8041,559.4623],[16.2502,-4.8075,554.2068],[16.2523,-4.8085,552.9932],[16.2522,-4.8111,554.6888],[16.2487,-4.8162,561.3722],[16.2519,-4.8187,560.4136],[16.2521,-4.8235,564.4085],[16.2454,-4.8246,557.7673],[16.2411,-4.8291,563.077],[16.2434,-4.8336,564.2186],[16.2402,-4.8351,558.0746],[16.2433,-4.8407,573.8282],[16.2402,-4.8533,571.0245],[16.2453,-4.8531,563.2625],[16.248,-4.8557,562.9592],[16.2532,-4.8557,572.4572],[16.2586,-4.8589,575.4618],[16.2574,-4.8674,580.7932],[16.2672,-4.883,577.2178],[16.2649,-4.8892,575.1136],[16.2674,-4.8909,575.8345],[16.2659,-4.891,575.8345],[16.2661,-4.8931,573.9329],[16.2689,-4.8948,576.751],[16.2677,-4.8971,573.9993],[16.2693,-4.8974,573.9993],[16.2663,-4.9002,573.3439],[16.2658,-4.9067,581.6818],[16.263,-4.9074,578.032],[16.2631,-4.9141,581.9337],[16.2652,-4.9152,573.0656],[16.2654,-4.9214,573.9474],[16.2679,-4.9225,581.3678],[16.2675,-4.9271,576.976],[16.2686,-4.9279,576.976],[16.2652,-4.9388,579.3506],[16.2662,-4.9399,580.7773],[16.2639,-4.9431,574.4965],[16.2654,-4.9484,572.7347],[16.2637,-4.9522,573.953],[16.2661,-4.9587,580.4456],[16.2653,-4.9608,574.6157],[16.2629,-4.9613,575.143],[16.2637,-4.9633,574.793],[16.2606,-4.9651,576.6794],[16.2599,-4.9684,575.0431],[16.257,-4.9696,586.0255],[16.2681,-4.9806,621.1871],[16.2693,-4.9868,609.4214],[16.2679,-4.9928,592.59],[16.2578,-5.0032,623.7544],[16.256,-5.0097,625.1147],[16.2586,-5.0179,580.2986],[16.2577,-5.0212,583.0685],[16.2472,-5.0302,592.6808],[16.2463,-5.0336,612.9272],[16.2506,-5.0394,582.0099],[16.2491,-5.0474,619.231],[16.2502,-5.0513,626.0021],[16.2457,-5.0555,620.359],[16.2421,-5.0705,591.8257],[16.243,-5.0769,592.248],[16.24,-5.0852,612.0079],[16.2355,-5.09,594.6562],[16.2318,-5.1063,611.9235],[16.2317,-5.1165,619.9811],[16.2397,-5.1204,635.6172],[16.2457,-5.1273,626.2287],[16.252,-5.1383,616.7864],[16.2518,-5.153,616.6351],[16.2537,-5.1601,615.7599],[16.2526,-5.173,620.0814],[16.2565,-5.1746,617.2445],[16.2544,-5.1785,622.9861],[16.2487,-5.1832,629.1619],[16.2458,-5.214,623.2325],[16.2397,-5.2262,623.7524],[16.237,-5.2375,656.2552],[16.2329,-5.244,635.7994],[16.2272,-5.272,648.7749],[16.2247,-5.2769,648.9059],[16.2212,-5.3036,610.6094],[16.218,-5.3082,611.8577],[16.2171,-5.3197,619.5188],[16.213,-5.3335,629.8716],[16.213,-5.3379,619.5057],[16.217,-5.3427,610.6118],[16.217,-5.3531,600.9824],[16.2143,-5.3586,613.936],[16.2123,-5.3775,619.4113],[16.2155,-5.3839,606.2432],[16.2142,-5.3959,618.1625],[16.2112,-5.3975,633.786],[16.2065,-5.418,618.0995],[16.2093,-5.4262,603.7458],[16.2061,-5.4375,601.0867],[16.2029,-5.4412,586.8621],[16.2069,-5.4601,586.4999],[16.2016,-5.4716,602.9155],[16.2013,-5.4944,604.2722],[16.2062,-5.5187,571.7358],[16.2023,-5.5247,551.8578],[16.2014,-5.5321,573.3555],[16.2021,-5.5362,583.3441],[16.2056,-5.5394,623.3683],[16.2084,-5.5571,541.1062],[16.2121,-5.5675,582.1019],[16.2083,-5.5744,547.7115],[16.2117,-5.5836,516.7401],[16.2113,-5.5962,510.2943],[16.2125,-5.6007999999999996,509.3015],[16.2178,-5.6068,580.1194],[16.2146,-5.6112,587.6816],[16.2169,-5.6144,549.7049],[16.2162,-5.6164,521.6782],[16.2105,-5.6158,499.7955],[16.2103,-5.6183,547.6846],[16.2144,-5.6238,548.0262],[16.2131,-5.6282,509.0433],[16.2147,-5.6328,521.8833],[16.2179,-5.6325,538.7162],[16.2186,-5.6348,521.1044],[16.2154,-5.6406,537.6939],[16.2159,-5.6464,562.2444],[16.2113,-5.6523,490.0074],[16.2141,-5.6576,571.5065],[16.2102,-5.6611,512.7061],[16.2119,-5.6712,550.8989],[16.2107,-5.6737,517.0366],[16.2063,-5.6738,476.8989],[16.2059,-5.677,489.5298],[16.2135,-5.6885,563.7595],[16.2122,-5.6951,600.9059],[16.2071,-5.6949,598.2448],[16.206,-5.6991,569.2026],[16.2067,-5.7073,502.2581],[16.2051,-5.7142,529.0405],[16.2091,-5.7283,601.9584],[16.2054,-5.7329,544.1611],[16.2052,-5.7412,554.4453],[16.2011,-5.752,474.4797],[16.2044,-5.7561,463.928],[16.2087,-5.7538,469.251],[16.2094,-5.7568,563.59],[16.2076,-5.7644,493.299],[16.2109,-5.7699,558.2219],[16.2109,-5.774,532.2522],[16.2075,-5.7789,475.8383],[16.2062,-5.7948,521.7195],[16.1993,-5.8082,559.6445],[16.1935,-5.8098,551.4054],[16.1641,-5.8102,515.0803],[16.1504,-5.8188,516.9466],[16.1416,-5.8423,579.6718],[16.1394,-5.8586,540.4667],[16.1949,-5.8599,559.6725],[16.2222,-5.8686,569.5583],[16.3659,-5.8647,509.0186],[16.3848,-5.868,432.8684],[16.3913,-5.8742,435.7508],[16.3964,-5.8824,421.3803],[16.4045,-5.8884,408.9307],[16.4146,-5.8922,413.3177],[16.4433,-5.8962,425.4504],[16.4546,-5.8963,442.038],[16.4626,-5.893,452.491],[16.4782,-5.8828,507.0087],[16.4952,-5.882,503.2227],[16.5043,-5.878,508.7121],[16.5121,-5.8787,438.7831],[16.5202,-5.8855,463.079],[16.5311,-5.8903,583.1379],[16.5465,-5.8932,529.3599],[16.5629,-5.9048,535.0484],[16.5693,-5.9073,557.8482],[16.5905,-5.9108,438.5915],[16.5997,-5.9186,564.9994],[16.598,-5.928,529.4971],[16.6006,-5.9422,410.1456],[16.5919,-5.9579,449.7462],[16.5892,-5.9667,391.3023],[16.5892,-5.9745,401.6311],[16.5915,-5.9783,441.2684],[16.5961,-5.9809,456.0013],[16.6035,-5.9821,395.4471],[16.6059,-5.9877,405.3389],[16.6031,-5.994,409.0928],[16.5997,-5.9965,408.0892],[16.5983,-6.0018,402.1001],[16.6061,-6.0217,506.5245],[16.6053,-6.0342,419.6492],[16.6069,-6.0424,489.7832],[16.599,-6.0588,401.8144],[16.6025,-6.0655,437.9015],[16.6101,-6.0659,429.3299],[16.6226,-6.0608,393.0],[16.628,-6.0612,400.2555],[16.6325,-6.0669,475.5631],[16.63,-6.073,430.5251],[16.6253,-6.0753,416.5764],[16.6081,-6.0754,543.0171],[16.6053,-6.0813,569.6805],[16.6067,-6.0857,553.613],[16.6116,-6.0917,456.5504],[16.6192,-6.0937,454.5494],[16.6332,-6.0941,485.8968],[16.6428,-6.0967,401.7306],[16.6481,-6.1018,432.1851],[16.6482,-6.1124,528.549],[16.643,-6.1173,519.8342],[16.6425,-6.1226,513.0192],[16.6455,-6.1274,556.7479],[16.6595,-6.1243,527.5298],[16.6634,-6.1271,546.2401],[16.6674,-6.1354,554.5417],[16.6706,-6.1379,558.4504],[16.6891,-6.1395,584.5356],[16.6976,-6.1459,465.2309],[16.7026,-6.1534,520.9388],[16.7216,-6.1663,421.4027],[16.722,-6.1705,416.4131],[16.72,-6.1763,442.5506],[16.7211,-6.18,413.4051],[16.7295,-6.1882,432.593],[16.7303,-6.1955,462.2676],[16.7259,-6.2124,518.3004],[16.7233,-6.2171,535.3085],[16.7161,-6.2234,412.4972],[16.7104,-6.2357,411.4553],[16.7111,-6.2407,399.422],[16.7183,-6.2544,452.7361],[16.7185,-6.2595,440.7576],[16.7115,-6.2793,402.8514],[16.7095,-6.2908,406.8716],[16.7106,-6.2947,412.4662],[16.7167,-6.3029,404.3901],[16.7188,-6.3117,428.0006],[16.7181,-6.3262,412.1844],[16.7249,-6.3388,465.2824],[16.7249,-6.3441,473.4232],[16.7221,-6.3562,571.4861],[16.7197,-6.36,574.7054],[16.7139,-6.3612,579.4054],[16.6994,-6.3559,442.8455],[16.69,-6.3555,412.7151],[16.6875,-6.3611,411.2656],[16.6882,-6.3643,401.3316],[16.6905,-6.3661,401.839],[16.6976,-6.3672,486.6502],[16.7028,-6.3736,493.4233],[16.7007,-6.3828,487.7122],[16.6918,-6.3944,408.6785],[16.69,-6.4006,480.3051],[16.6907,-6.4056,458.0206],[16.6935,-6.4102,474.9471],[16.7004,-6.4111,448.2362],[16.7132,-6.4076,447.8543],[16.7243,-6.4142,417.1596],[16.7298,-6.4197,445.1361],[16.7323,-6.4257,441.4329],[16.7297,-6.4319,528.7595],[16.726,-6.4347,456.8798],[16.7161,-6.4375,504.933],[16.7132,-6.4398,406.3719],[16.7111,-6.4462,412.9503],[16.7137,-6.4534,427.0917],[16.7275,-6.4643,433.6191],[16.7334,-6.4725,429.8192],[16.7357,-6.4803,440.9596],[16.7331,-6.4866,467.3751],[16.7272,-6.4908,424.8405],[16.7251,-6.4958,409.1117],[16.7272,-6.5009,403.5],[16.7337,-6.5075,415.4315],[16.7558,-6.5187,470.4834],[16.7613,-6.5259,469.7067],[16.7631,-6.5327,476.035],[16.7621,-6.5383,453.5618],[16.7512,-6.5578,518.4891],[16.7491,-6.5659,594.934],[16.7494,-6.573,450.4073],[16.7513,-6.5792,452.3621],[16.7571,-6.5851,455.5367],[16.7637,-6.5844,463.8119],[16.7692,-6.5872,545.2546],[16.7766,-6.594,522.5147],[16.7796,-6.6048,516.1027],[16.78,-6.6273,442.3449],[16.7831,-6.6422,451.5446],[16.792,-6.6539,469.2495],[16.794,-6.6627,457.5461],[16.7923,-6.6716,482.5453],[16.7938,-6.6826,483.2166],[16.7978,-6.6947,468.1397],[16.8064,-6.7032,486.4698],[16.8167,-6.7092,468.6548],[16.8223,-6.7101,492.2271],[16.8259,-6.7137,479.1777],[16.8288,-6.7197,544.5162],[16.8307,-6.7336,471.1715],[16.8284,-6.7528,567.9872],[16.8299,-6.7604,499.1993],[16.8327,-6.7664,508.3934],[16.8507,-6.7893,494.0328],[16.8682,-6.8009,652.3027],[16.8717,-6.8053,656.0978],[16.8739,-6.8128,600.5963],[16.8763,-6.8469,461.6325],[16.8795,-6.8505,495.9283],[16.8841,-6.8515,544.6658],[16.8954,-6.858,608.5121],[16.9103,-6.8513,579.6703],[16.9154,-6.8529,647.5892],[16.9175,-6.8598,636.6896],[16.9205,-6.8632,524.6583],[16.9316,-6.866,650.0433],[16.9378,-6.87,664.2418],[16.9404,-6.8748,660.6799],[16.9418,-6.8879,643.1874],[16.9369,-6.9151,574.4766],[16.9438,-6.9215,549.9967],[16.9469,-6.9312,484.6675],[16.9455,-6.9387,429.6337],[16.9403,-6.9465,547.2546],[16.9371,-6.9578,616.8848],[16.9387,-6.9661,537.0411],[16.9501,-6.9807,561.0801],[16.9709,-6.9837,670.1697],[16.9739,-7.0001,627.9827],[16.9802,-7.0134,489.1472],[16.9827,-7.0233,529.107],[16.9805,-7.0307,554.4738],[16.9709,-7.044,427.7646],[16.9693,-7.0526,424.8486],[16.9705,-7.0691,422.7706],[16.9687,-7.0731,423.8423],[16.9616,-7.0792,421.0728],[16.9543,-7.0783,431.893],[16.9485,-7.0737,505.591],[16.9433,-7.0614,533.228],[16.939,-7.0607,528.8649],[16.9319,-7.0644,541.8351],[16.9289,-7.0686,534.5291],[16.928,-7.0842,437.5712],[16.9336,-7.0913,433.2127],[16.9404,-7.1131,424.922],[16.9482,-7.1202,429.6575],[16.9502,-7.1248,433.1666],[16.9504,-7.1443,436.5635],[16.9537,-7.1526,435.8336],[16.9627,-7.1574,435.239],[16.9689,-7.1635,443.1808],[16.9704,-7.1702,445.3102],[16.9685,-7.1757,436.9804],[16.9584,-7.1836,442.0574],[16.9548,-7.1886,435.4186],[16.9537,-7.2033,420.9554],[16.9558,-7.2075,419.5],[16.9803,-7.2221,444.9802],[16.9886,-7.2308,449.013],[16.9949,-7.2468,451.2384],[17.0039,-7.2633,457.6408],[17.0049,-7.2702,455.0111],[17.002,-7.2929,427.3604],[17.0055,-7.3,427.2569],[17.0305,-7.2979,426.725],[17.0367,-7.3012,442.8864],[17.0406,-7.3143,425.115],[17.0452,-7.3212,423.5],[17.0519,-7.325,435.4699],[17.0648,-7.3275,425.6367],[17.0765,-7.3428,424.0],[17.0919,-7.345,429.4485],[17.1036,-7.3435,471.5392],[17.1096,-7.3462,439.5284],[17.1164,-7.3576,448.9461],[17.1167,-7.3645,437.4325],[17.1117,-7.3765,436.2027],[17.1128,-7.3904,436.927],[17.1084,-7.4176,425.778],[17.1102,-7.4227,430.0815],[17.1136,-7.4254,426.0],[17.1279,-7.4263,432.9278],[17.133,-7.4249,435.956],[17.1373,-7.4209,435.4912],[17.1389,-7.4092,428.9584],[17.1432,-7.4058,432.468],[17.1483,-7.4078,451.3742],[17.153,-7.4193,428.8859],[17.1608,-7.4252,428.787],[17.1775,-7.4266,427.0],[17.1843,-7.4314,440.4337],[17.1885,-7.4377,538.1688],[17.1878,-7.4449,499.0246],[17.1851,-7.4487,444.8137],[17.1706,-7.449,428.7924],[17.1598,-7.4541,430.4237],[17.1537,-7.464,433.8364],[17.1562,-7.4751,430.8552],[17.1667,-7.4837,431.4899],[17.1747,-7.4878,428.7926],[17.1869,-7.4898,428.5],[17.1999,-7.4994,499.331],[17.2052,-7.5123,484.2868],[17.198,-7.533,438.1773],[17.1999,-7.5389,439.2655],[17.2061,-7.543,448.9346],[17.2154,-7.5606,448.307],[17.2175,-7.5737,437.8552],[17.2206,-7.5781,433.3858],[17.2326,-7.5855,455.2161],[17.2375,-7.5959,451.7294],[17.2451,-7.5968,466.317],[17.2499,-7.6034,451.8917],[17.257,-7.6019,477.6638],[17.2663,-7.6091,479.1063],[17.2728,-7.611,488.7116],[17.2799,-7.6178,486.9717],[17.2961,-7.6232,493.802],[17.3063,-7.6369,543.6461],[17.3004,-7.647,509.1983],[17.2988,-7.6567,529.2816],[17.2998,-7.6799,516.7605],[17.2925,-7.6859,523.1619],[17.2909,-7.6896,525.9576],[17.2923,-7.6937,542.8679],[17.2988,-7.6965,565.1945],[17.3064,-7.7033,565.0906],[17.3161,-7.7006,568.6075],[17.3195,-7.7062,586.1339],[17.3182,-7.7126,581.822],[17.3198,-7.7163,585.1625],[17.3233,-7.7181,586.87],[17.3303,-7.7168,583.1876],[17.3321,-7.722,587.5096],[17.3275,-7.7415,595.7772],[17.3202,-7.7494,586.5842],[17.3198,-7.7542,589.6985],[17.3214,-7.7585,588.1133],[17.3295,-7.7626,595.6185],[17.3441,-7.7782,597.4612],[17.3513,-7.7813,595.0464],[17.3787,-7.786,594.1102],[17.3853,-7.7893,592.426],[17.3884,-7.7924,599.8469],[17.391,-7.8,604.8771],[17.3855,-7.8135,596.2037],[17.3867,-7.8209,594.9186],[17.3918,-7.8234,596.0383],[17.4047,-7.8195,638.7336],[17.4113,-7.8247,635.8919],[17.4091,-7.8309,595.4014],[17.4027,-7.835,596.974],[17.4016,-7.8387,592.1848],[17.4053,-7.8431,594.9082],[17.4199,-7.8373,596.0485],[17.4261,-7.8376,597.2845],[17.4314,-7.844,597.4304],[17.424,-7.8581,597.4041],[17.4222,-7.865,595.7704],[17.4248,-7.8696,595.812],[17.4333,-7.8744,597.5877],[17.4455,-7.8727,597.8251],[17.4526,-7.8787,601.9422],[17.4555,-7.8883,621.8358],[17.4541,-7.8933,620.6279],[17.4473,-7.9025,597.4559],[17.4439,-7.9115,599.4016],[17.4414,-7.9223,593.4095],[17.4424,-7.9273,596.8616],[17.4529,-7.9366,614.5764],[17.4581,-7.944,609.1465],[17.4708,-7.9469,599.4874],[17.4676,-7.9559,597.0717],[17.4683,-7.9596,609.7831],[17.4725,-7.9616,606.4788],[17.4835,-7.9512,597.8112],[17.4888,-7.9523,599.9432],[17.4909,-7.9585,600.5928],[17.4885,-7.9813,601.104],[17.4893,-7.9934,601.3386],[17.492,-7.9985,601.8994],[17.4838,-8.0,600.6588],[17.4955,-8.0042,601.4852],[17.5075,-8.0132,600.4226],[17.5288,-8.0369,598.5],[17.5326,-8.0439,618.3768],[17.53,-8.0482,602.778],[17.5243,-8.045,601.6835],[17.5172,-8.0465,598.5],[17.514,-8.0581,601.9935],[17.5047,-8.0688,602.1119],[17.5035,-8.0755,602.4277],[17.5055,-8.0828,600.025],[17.5237,-8.0892,602.3334],[17.5283,-8.0929,602.8266],[17.5294,-8.1019,601.9166],[17.543,-8.1154,603.1591],[17.5603,-8.1274,605.5503],[17.583,-8.1291,606.8181],[17.6113,-8.1285,609.1135],[17.6306,-8.1231,610.6528],[17.6442,-8.1151,637.0444],[17.6612,-8.1109,614.3974],[17.6852,-8.1015,615.9896],[17.7191,-8.0971,642.0027],[17.7287,-8.0965,621.1229],[17.7573,-8.1014,632.9543],[17.7837,-8.1128,632.2276],[17.7968,-8.1109,630.1411],[17.8053,-8.108,631.3304],[17.8121,-8.1028,635.2994],[17.8179,-8.0953,639.9666],[17.8252,-8.0915,636.3594],[17.8479,-8.0853,645.9487],[17.8783,-8.0814,645.7923],[17.885,-8.079,650.3666],[17.9399,-8.0824,670.8139],[17.9588,-8.091,684.1901],[17.972,-8.109,702.0129],[17.982,-8.113,773.5393],[18.0,-8.098,740.1863],[18.1004,-8.0991,746.1364],[18.1035,-8.0873,665.2231],[18.0875,-8.068,700.7061],[18.095,-8.0549,692.6021],[18.0983,-8.0402,698.9001],[18.135,-8.035,676.3795],[18.153,-8.009,787.0679],[18.1814,-8.0,797.9005],[18.209,-7.994,809.3777],[18.217,-7.9895,780.5383],[18.2265,-7.9892,796.8864],[18.2421,-7.9931,780.5417],[18.2613,-7.9939,811.7249],[18.2851,-7.9878,785.8036],[18.3012,-7.9902,811.1555],[18.3074,-7.9937,792.6016],[18.2998,-8.0,756.6709],[18.302,-8.012,725.4905],[18.304,-8.014,743.6407],[18.313,-8.018,804.8611],[18.319,-8.018,794.0278],[18.327,-8.0135,807.502],[18.3309,-8.019,783.1205],[18.354,-8.0265,820.9697],[18.3593,-8.0259,763.8875],[18.3649,-8.0214,751.6646],[18.3757,-8.0273,787.9846],[18.3879,-8.0175,788.4176],[18.398,-8.013,796.6773],[18.3911,-8.0,819.6311],[18.527,-8.0,965.4889],[18.531,-7.9939,946.8044],[18.533,-7.972,933.7422],[18.545,-7.9632,981.4144],[18.5557,-7.9484,954.8915],[18.5582,-7.9336,953.0975],[18.7776,-7.9221,1060.1375],[18.7816,-7.9275,1067.7241],[18.7829,-7.9472,1073.5177],[18.7828,-7.9583,1055.601],[18.779,-7.9603,1044.3474],[18.7781,-7.9637,1045.0969],[18.7799,-7.9668,1046.9609],[18.7857,-7.9692,1044.6553],[18.791,-7.981,1070.8201],[18.8,-7.9934,1058.9728],[18.8002,-8.0,1067.6051],[19.2846,-8.0,1039.1283]]]]}}