{"type":"Feature","properties":{"GID_2":"COD.11.9_1","GID_0":"COD","country":"DemocraticRepublicoftheCongo","GID_1":"COD.11_1","province":"Kongo-Central","NL_NAME_1":"NA","county":"Luozi","VARNAME_2":"NA","NL_NAME_2":"NA","TYPE_2":"Territoire","ENGTYPE_2":"Territory","CC_2":"NA","HASC_2":"NA","name":"Luozi.county"},
"geometry":{"type": "MultiPolygon","coordinates": [[[[14.43,-4.8964,263.3742],[14.4291,-4.8944,184.1753],[14.4162,-4.8975,172.0],[14.412,-4.8936,172.0],[14.4092,-4.8745,308.8996],[14.403,-4.8609,346.4589],[14.404,-4.8301,355.7418],[14.4011,-4.8064,361.3202],[14.4057,-4.7956,349.0498],[14.4166,-4.7831,360.892],[14.4159,-4.7785,365.0857],[14.409,-4.7705,392.6821],[14.4078,-4.7661,412.2711],[14.4097,-4.724,631.1802],[14.411,-4.7209,606.9457],[14.4083,-4.6931,576.0173],[14.406,-4.688,582.2709],[14.3869,-4.6702,556.9277],[14.3813,-4.6628,478.4011],[14.3804,-4.6496,592.4849],[14.3861,-4.6378,568.0621],[14.3811,-4.6326,585.8749],[14.378,-4.6155,547.6449],[14.3816,-4.596,540.0786],[14.3572,-4.583,556.519],[14.3524,-4.5749,560.8513],[14.3493,-4.5641,582.0531],[14.3507,-4.5561,568.0593],[14.3582,-4.5466,575.0252],[14.3589,-4.5436,558.8853],[14.3817,-4.5249,485.3836],[14.4014,-4.5149,445.1115],[14.406,-4.5169,449.9937],[14.4119,-4.5138,465.7619],[14.414,-4.5195,446.0964],[14.4213,-4.5142,444.7882],[14.4238,-4.514,445.2195],[14.4259,-4.516,446.0329],[14.4284,-4.5158,443.7703],[14.4319,-4.5202,454.0177],[14.4353,-4.4988,457.3045],[14.433,-4.4933,442.7119],[14.4385,-4.4923,452.717],[14.4426,-4.4829,448.2028],[14.4474,-4.481,442.3122],[14.46,-4.47,459.7292],[14.4661,-4.4511,435.6358],[14.4696,-4.446,435.482],[14.4805,-4.4363,434.1093],[14.4581,-4.4277,451.8716],[14.4388,-4.4126,447.1966],[14.4208,-4.3906,469.8385],[14.4171,-4.3825,468.2163],[14.3873,-4.3412,583.5555],[14.3866,-4.3373,573.6101],[14.3958,-4.3313,553.7361],[14.4031,-4.3232,533.3251],[14.4084,-4.3077,475.1094],[14.3817,-4.2981,505.0591],[14.37,-4.3018,537.8654],[14.3622,-4.3023,527.0522],[14.3617,-4.31,526.9272],[14.3583,-4.3142,539.1198],[14.34,-4.3127,577.9813],[14.3206,-4.3141,568.7367],[14.3138,-4.3174,584.5468],[14.3013,-4.3301,573.6208],[14.286,-4.3374,549.5228],[14.2517,-4.3612,583.7795],[14.1993,-4.3909,625.9584],[14.1849,-4.3977,631.9301],[14.1714,-4.4009,623.2581],[14.1557,-4.4087,597.0291],[14.1283,-4.4156,597.7692],[14.0823,-4.4146,585.6852],[14.0535,-4.4201,600.8232],[14.0205,-4.4308,623.4507],[14.0176,-4.434,614.9119],[14.001,-4.4739,644.449],[13.9691,-4.5113,626.8807],[13.9597,-4.5182,637.09],[13.9441,-4.5185,642.6736],[13.9193,-4.5096,656.9598],[13.8957,-4.5081,659.9046],[13.8835,-4.5012,684.5748],[13.8768,-4.4946,673.5231],[13.8694,-4.478,658.9495],[13.8673,-4.4672,659.0922],[13.8551,-4.4539,696.6059],[13.8528,-4.4482,704.2799],[13.8288,-4.4278,742.4517],[13.8192,-4.4225,743.7685],[13.8077,-4.4221,803.3314],[13.7816,-4.4252,773.9963],[13.7633,-4.4423,753.9276],[13.7624,-4.4448,753.0631],[13.756,-4.4457,762.115],[13.7359,-4.4578,745.7922],[13.7304,-4.4693,727.4899],[13.7305,-4.4939,733.5428],[13.7386,-4.5155,586.3308],[13.7462,-4.524,530.2416],[13.7501,-4.5321,534.397],[13.7506,-4.5382999999999996,504.7459],[13.7483,-4.5503,526.6455],[13.7502,-4.5578,493.5737],[13.7482,-4.5673,501.9583],[13.7354,-4.5931,526.4903],[13.7302,-4.6005,545.3362],[13.7163,-4.6509,312.2671],[13.7107,-4.6555,304.3963],[13.7114,-4.6691,376.3275],[13.7132,-4.6734,429.2388],[13.7233,-4.6788,327.3037],[13.7308,-4.6858,314.4442],[13.7315,-4.7033,332.2585],[13.7225,-4.7205,324.2235],[13.7169,-4.725,309.7079],[13.7099,-4.7246,306.3517],[13.689,-4.7191,310.2427],[13.6807,-4.7195,327.5753],[13.6784,-4.7269,329.1177],[13.6895,-4.7401,344.5793],[13.6923,-4.7484,346.8961],[13.6924,-4.7593,350.0608],[13.6902,-4.7683,380.559],[13.6856,-4.7686,414.3356],[13.6785,-4.764,463.7148],[13.6732,-4.7626,420.2077],[13.6634,-4.7513,364.2537],[13.6582,-4.7491,345.7039],[13.6497,-4.7406,372.7781],[13.6352,-4.7395,355.1968],[13.6307,-4.7423,388.1031],[13.6074,-4.781,459.4141],[13.6013,-4.8025,469.5427],[13.5944,-4.8138,466.4856],[13.5823,-4.8194,451.968],[13.5652,-4.8123,375.29],[13.5503,-4.8018,425.5704],[13.5433,-4.783,444.0606],[13.5401,-4.7784,481.1827],[13.5275,-4.7766,433.9109],[13.5187,-4.7835,439.9374],[13.5034,-4.7995,400.9666],[13.4983,-4.8123,443.7358],[13.5067,-4.831,445.3835],[13.5044,-4.8351,432.9881],[13.472,-4.8653,699.5897],[13.4631,-4.8694,677.5033],[13.4436,-4.868,710.2347],[13.4276,-4.8825,726.3068],[13.435,-4.892,718.3544],[13.4383,-4.9056,704.2307],[13.4365,-4.9171,700.4535],[13.4346,-4.9196,650.261],[13.431,-4.9199,714.9825],[13.4257,-4.9164,648.207],[13.4079,-4.8963,531.4028],[13.3861,-4.9046,665.7318],[13.3764,-4.9132999999999996,695.9133],[13.376,-4.9258,583.5162],[13.379,-4.9329,597.077],[13.3857,-4.9394,593.6279],[13.3886,-4.9465,614.3579],[13.396,-4.9506,640.6499],[13.3974,-4.9555,627.4034],[13.4013,-4.9594,608.0527],[13.4075,-4.9596,667.5767],[13.4095,-4.9654,629.9359],[13.4155,-4.9709,721.2762],[13.419,-4.9713,730.4957],[13.4231,-4.9764,677.9355],[13.4281,-4.9752,709.2139],[13.4362,-4.9801,585.0117],[13.4403,-4.9904,673.7649],[13.4387,-4.9946,737.1339],[13.4442,-4.9987,715.6147],[13.4461,-5.0026,693.8987],[13.4433,-5.0075,632.0535],[13.4435,-5.0134,656.981],[13.4495,-5.0217,586.6837],[13.4509,-5.0275,576.2813],[13.4605,-5.0314,545.2104],[13.4647,-5.0357,546.1416],[13.4713,-5.0318,530.4249],[13.4752,-5.0321,560.4305],[13.4805,-5.0357,551.6968],[13.4991,-5.0581,545.9375],[13.501,-5.0587,507.4962],[13.5039,-5.0567,473.1386],[13.5071,-5.0578,521.4233],[13.5055,-5.0624,468.6505],[13.5016,-5.0659,562.5235],[13.5039,-5.0725,603.9636],[13.4968,-5.0795,487.0021],[13.5012,-5.0939,545.8773],[13.5072,-5.099,495.6102],[13.5155,-5.119,442.8811],[13.5196,-5.122,435.6099],[13.5207,-5.1266,392.4499],[13.5242,-5.1278,393.7693],[13.5251,-5.1349,340.6249],[13.5286,-5.1429,413.3361],[13.5267,-5.1475,406.1099],[13.5332,-5.1489,341.8981],[13.5348,-5.1574,294.5526],[13.5322,-5.163,339.5997],[13.5382,-5.1689,315.4422],[13.5345,-5.1728,312.3719],[13.5394,-5.1791,295.7036],[13.5389,-5.1841,281.2943],[13.5408,-5.1901,363.6959],[13.5502,-5.1915,299.405],[13.5607,-5.2103,278.9053],[13.5669,-5.2122,289.1418],[13.5715,-5.2163,287.1276],[13.5725,-5.2184,288.6754],[13.5681,-5.2209,276.0707],[13.5656,-5.2251,281.386],[13.566,-5.2271,328.2184],[13.5807,-5.2345,356.7545],[13.5846,-5.2322,241.0208],[13.586,-5.2264,273.4428],[13.5929,-5.2271,252.3036],[13.5892,-5.2359,302.2399],[13.5998,-5.2444,239.5744],[13.6026,-5.249,221.815],[13.609,-5.249,228.4808],[13.612,-5.2533,228.5663],[13.6154,-5.2522,220.9987],[13.6218,-5.2545,245.5515],[13.6225,-5.2572,206.0565],[13.62,-5.2646,213.6717],[13.6336,-5.2844,151.0],[13.6381,-5.2874,172.3009],[13.6471,-5.2862,153.0],[13.6621,-5.2975,154.0],[13.6802,-5.3147,164.8612],[13.6853,-5.317,154.0],[13.6961,-5.331,154.0],[13.7163,-5.3393,198.8419],[13.7294,-5.3395,179.7293],[13.7351,-5.3313,181.0347],[13.7358,-5.3271,166.8251],[13.7335,-5.3165,176.2082],[13.7358,-5.3048,175.8317],[13.7468,-5.2951,176.9724],[13.7498,-5.2891,219.3954],[13.7527,-5.2887,217.2524],[13.7548,-5.2825,189.0735],[13.7596,-5.2808,209.8099],[13.767,-5.2742,169.1063],[13.7759,-5.2746,156.8647],[13.7876,-5.2838,154.5],[13.7925,-5.293,154.5],[13.7978,-5.2969,154.5],[13.8035,-5.3105,155.0],[13.8212,-5.3261,155.0],[13.8348,-5.3316,155.0],[13.8501,-5.3332,155.0],[13.8589,-5.336,180.5658],[13.8605,-5.3266,157.0655],[13.8641,-5.3263,254.6838],[13.8674,-5.3192,282.8669],[13.868,-5.313,283.7307],[13.8664,-5.3105,192.5122],[13.8689,-5.3075,155.125],[13.8751,-5.3056,233.668],[13.877,-5.3012,209.8237],[13.8731,-5.2934,179.8299],[13.8721,-5.2847,197.4482],[13.8758,-5.2863,155.5],[13.8811,-5.2946,177.2159],[13.8859,-5.292,186.459],[13.8875,-5.2881,203.4257],[13.8886,-5.275,199.5888],[13.885,-5.2677,177.2318],[13.8836,-5.2479,175.5239],[13.8937,-5.243,184.1319],[13.8987,-5.2324,159.5988],[13.9024,-5.2357,164.3157],[13.9063,-5.2345,156.5],[13.9088,-5.2398,162.4162],[13.912,-5.2414,185.6841],[13.9159,-5.2405,157.0],[13.9198,-5.2442,158.4376],[13.9237,-5.2439,167.7178],[13.9295,-5.2409,157.0],[13.9345,-5.2418,175.3431],[13.938,-5.2386,159.9391],[13.941,-5.2391,171.7792],[13.9448,-5.2354,157.0],[13.9474,-5.24,176.3907],[13.9504,-5.2384,174.0578],[13.9559,-5.2262,159.2385],[13.9588,-5.2252,157.5],[13.9634,-5.2271,190.1711],[13.9669,-5.2225,161.3145],[13.971,-5.2202,193.029],[13.9696,-5.2167,183.9576],[13.9724,-5.2062,183.2444],[13.9861,-5.1771,180.0755],[13.9911,-5.1707,181.9688],[13.9971,-5.155,200.4537],[13.9939,-5.147,207.6436],[13.9996,-5.1406,192.1187],[13.9975,-5.1366,204.6255],[13.9996,-5.1304,234.5909],[13.997,-5.0975,229.819],[13.9927,-5.0922,220.3908],[13.9945,-5.0828,288.8147],[13.991,-5.0778,202.1495],[13.9857,-5.0577,173.9568],[13.9885,-5.0536,198.7666],[13.9935,-5.0547,165.2204],[13.9951,-5.0587,186.9685],[14.0045,-5.0522,232.3081],[14.0096,-5.0506,187.3729],[14.0123,-5.0476,225.0677],[14.0103,-5.0393,194.6673],[14.0123,-5.0345,221.0338],[14.0153,-5.0319,212.9718],[14.027,-5.0322,163.0],[14.0438,-5.0466,181.1137],[14.047,-5.0476,185.3476],[14.0635,-5.0455,194.4648],[14.1036,-5.0203,188.5575],[14.122,-5.0132,193.8551],[14.1346,-5.0021,196.4625],[14.1467,-4.9862,184.71],[14.1669,-4.9669,201.6624],[14.1752,-4.9614,197.6516],[14.1818,-4.954,186.4155],[14.1864,-4.9545,186.4664],[14.1864,-4.9508,188.3385],[14.1924,-4.9466,190.6331],[14.1942,-4.9427,184.5688],[14.2075,-4.9404,179.1243],[14.2098,-4.9379,190.2421],[14.2229,-4.9408,254.5419],[14.2279,-4.9388,263.198],[14.2392,-4.9399,263.5322],[14.2428,-4.9374,256.2315],[14.2555,-4.9396,239.5895],[14.2607,-4.9442,239.5632],[14.2649,-4.9452,238.3739],[14.2681,-4.9507,253.052],[14.2715,-4.9523,278.5947],[14.283,-4.9513,255.5983],[14.2874,-4.9467,270.5865],[14.2968,-4.9423,270.2994],[14.3115,-4.9396,277.6066],[14.3165,-4.9432,277.5829],[14.3316,-4.9412,241.0833],[14.3479,-4.9326,245.9511],[14.3745,-4.922,219.3546],[14.3812,-4.9229,237.6217],[14.3982,-4.9199,275.3198],[14.43,-4.8964,263.3742]]]]}}