{"type":"Feature","properties":{"GID_2":"COD.17.5_1","GID_0":"COD","country":"DemocraticRepublicoftheCongo","GID_1":"COD.17_1","province":"Maniema","NL_NAME_1":"NA","county":"Kasongo(ville)","VARNAME_2":"NA","NL_NAME_2":"NA","TYPE_2":"Ville","ENGTYPE_2":"Town","CC_2":"NA","HASC_2":"NA","name":"Kasongo(ville).county"},
"geometry":{"type": "MultiPolygon","coordinates": [[[[26.7226,-4.4916,544.4232],[26.7399,-4.4842,563.8857],[26.7499,-4.4756,559.985],[26.7536,-4.4623,552.5984],[26.7554,-4.4431,555.1179],[26.7531,-4.4289,556.9411],[26.7477,-4.4147,583.4782],[26.7376,-4.3987,575.1292],[26.7249,-4.3914,618.0193],[26.7112,-4.3868,600.8377],[26.6889,-4.3827,572.0077],[26.6438,-4.391,559.7339],[26.6342,-4.4024,607.1642],[26.6297,-4.433,639.2672],[26.6429,-4.4673,570.4496],[26.6661,-4.4815,617.9649],[26.7007,-4.4929,552.6593],[26.7226,-4.4916,544.4232]]]]}}