{"type": "Feature","bbox": [28.7823,-3.6591,29.2606,-2.738],"geometry": {"type": "MultiPolygon","coordinates": [[[[29.217,-3.3241,774.9601],[29.2242,-3.3245,775.0054],[29.225,-3.3174,775.2841],[29.2145,-3.3171,776.0373],[29.217,-3.3241,774.9601]]],
[[[29.2412,-3.2691,778.2041],[29.2369,-3.2719,778.5275],[29.239,-3.2757,778.6013],[29.2377,-3.2785,780.1595],[29.2325,-3.2801,778.109],[29.2277,-3.2842,778.4387],[29.2264,-3.2906,777.805],[29.229,-3.2907,777.8052],[29.2296,-3.2844,778.1273],[29.241,-3.2776,780.8558],[29.2389,-3.2727,778.3134],[29.2414,-3.2708,779.1592],[29.2412,-3.2691,778.2041]]],
[[[29.2327,-3.261,779.1854],[29.2301,-3.2507,780.355],[29.2312,-3.2436,780.2317],[29.2258,-3.2332,781.6268],[29.2259,-3.2284,781.5555],[29.2267,-3.2231,780.8983],[29.2311,-3.2201,782.9628],[29.2312,-3.2158,781.5144],[29.2345,-3.2137,782.1592],[29.2331,-3.2096,781.6883],[29.2274,-3.2036,784.8672],[29.2291,-3.2012,782.7207],[29.2254,-3.2018,783.7569],[29.2223,-3.1991,782.5329],[29.225,-3.1871,783.6603],[29.2286,-3.1871,783.8929],[29.2313,-3.1844,783.845],[29.2284,-3.1819,785.9174],[29.2255,-3.1823,784.7318],[29.2242,-3.179,785.368],[29.2289,-3.1744,786.1156],[29.2304,-3.1695,786.0923],[29.2329,-3.1686,786.7302],[29.2324,-3.1653,786.3862],[29.2283,-3.1626,785.8308],[29.2284,-3.1587,787.2768],[29.2315,-3.1581,787.0333],[29.2336,-3.1559,786.4418],[29.2347,-3.151,787.3751],[29.2395,-3.1487,787.2899],[29.2398,-3.1393,787.8648],[29.244,-3.1385,788.6126],[29.2436,-3.1322,787.596],[29.2452,-3.1279,789.1274],[29.2493,-3.1294,790.2118],[29.2465,-3.1234,789.4033],[29.248,-3.1223,789.6609],[29.2524,-3.1247,789.8082],[29.2546,-3.1223,792.6323],[29.2562,-3.1162,790.8329],[29.2606,-3.1149,793.3275],[29.2605,-3.1143,790.4344],[29.2564,-3.1137,791.5809],[29.2504,-3.1076,791.5683],[29.2543,-3.1015,791.405],[29.2473,-3.0976,794.3698],[29.2464,-3.0956,792.5178],[29.249,-3.0942,792.6036],[29.2536,-3.0946,792.6366],[29.2517,-3.0896,794.1544],[29.2527,-3.0881,793.9784],[29.2567,-3.088,793.1113],[29.2573,-3.0863,793.986],[29.2551,-3.0769,794.4332],[29.2569,-3.0681,794.5916],[29.2549,-3.0675,796.1185],[29.2546,-3.0648,796.0447],[29.2495,-3.0618,797.8153],[29.2521,-3.0587,795.8182],[29.2517,-3.0539,798.4088],[29.2539,-3.0524,796.906],[29.2448,-3.0439,796.5184],[29.2396,-3.0415,798.2149],[29.2392,-3.0391,799.2786],[29.2412,-3.0365,797.7449],[29.2338,-3.0357,799.7833],[29.2313,-3.0326,798.9404],[29.2355,-3.029,798.7991],[29.2359,-3.0254,798.7827],[29.2289,-3.0263,800.9427],[29.2248,-3.0206,799.3596],[29.22,-3.0231,801.8677],[29.215,-3.0217,799.8158],[29.2076,-3.0225,801.6811],[29.2051,-3.0209,800.4494],[29.2033,-3.0229,800.911],[29.1965,-3.0172,801.5086],[29.1934,-3.0087,802.3353],[29.185,-3.009,803.9641],[29.1835,-3.0037,810.4086],[29.1851,-3.0005,803.6823],[29.1773,-2.9923,805.5531],[29.1703,-2.9972,808.0692],[29.1678,-2.9964,807.2308],[29.1654,-2.9915,825.1952],[29.1676,-2.9902,807.9327],[29.1714,-2.9821,808.6852],[29.1657,-2.9711,811.6067],[29.1686,-2.968,810.4414],[29.1661,-2.9645,810.8752],[29.1677,-2.9597,819.9658],[29.1614,-2.9569,812.8572],[29.1605,-2.9531,813.6859],[29.1581,-2.9544,814.9415],[29.1549,-2.952,816.8922],[29.1551,-2.9495,816.6943],[29.1531,-2.9466,816.0032],[29.1521,-2.9468,815.7812],[29.1506,-2.9493,817.4699],[29.1426,-2.9469,860.8666],[29.1394,-2.9396,819.8351],[29.1322,-2.936,821.0135],[29.1285,-2.9301,821.0962],[29.1222,-2.9309,824.5625],[29.1099,-2.9227,831.8426],[29.1077,-2.9225,824.1079],[29.1046,-2.9253,832.0181],[29.1013,-2.924,829.1685],[29.1,-2.9207,826.9728],[29.0967,-2.9206,828.8088],[29.0894,-2.8995,830.3113],[29.09,-2.8907,831.5072],[29.0944,-2.8828,837.5396],[29.0908,-2.8715,840.8124],[29.0892,-2.8708,838.293],[29.0879,-2.873,861.6592],[29.0857,-2.873,847.0035],[29.0836,-2.8696,838.1687],[29.0772,-2.8676,838.9498],[29.0752,-2.8635,840.1073],[29.0694,-2.8643,841.0376],[29.0679,-2.8604,843.3652],[29.0703,-2.8577,843.6638],[29.0657,-2.8542,853.6119],[29.0688,-2.8495,858.0099],[29.067,-2.8457,850.3132],[29.0643,-2.846,858.1394],[29.0605,-2.8425,853.3213],[29.0617,-2.8388,856.0315],[29.0601,-2.8346,861.0364],[29.0567,-2.8291,860.0216],[29.0519,-2.8264,867.6737],[29.0501,-2.82,865.2202],[29.0459,-2.8193,865.9451],[29.0392,-2.824,868.6065],[29.0279,-2.8263,872.8231],[29.0251,-2.8226,874.1388],[29.0126,-2.8208,879.3672],[29.006,-2.8166,883.353],[29.0017,-2.8102,884.7475],[29.0021,-2.8034,886.8257],[29.0005,-2.799,889.8614],[29.0007,-2.7857,897.9093],[29.0041,-2.7802,897.7996],[29.0047,-2.7757,901.6133],[28.9959,-2.7691,918.3239],[28.993,-2.7641,909.835],[28.994,-2.7579,913.3723],[28.9917,-2.7586,913.3635],[28.9917,-2.7557,921.6102],[28.9888,-2.7554,919.3041],[28.9863,-2.7571,921.3166],[28.9852,-2.7554,920.986],[28.9803,-2.7546,925.4946],[28.9802,-2.752,944.7272],[28.9778,-2.7517,941.0733],[28.9739,-2.7537,952.3829],[28.975,-2.7546,986.9037],[28.9738,-2.7557,958.8196],[28.9716,-2.7556,979.4012],[28.9697,-2.7545,1028.2742],[28.9708,-2.7505,1006.9361],[28.9649,-2.7498,1008.282],[28.9636,-2.7461,1020.4684],[28.9592,-2.7508,1013.034],[28.9545,-2.7472,1035.2761],[28.9482,-2.7493,1072.6384],[28.9458,-2.7438,1167.6678],[28.9425,-2.7451,1136.0002],[28.9396,-2.7423,1127.9788],[28.9336,-2.744,1165.7496],[28.9249,-2.7394,1194.9304],[28.9221,-2.7428,1206.8945],[28.9162,-2.738,1219.886],[28.911,-2.7438,1250.8949],[28.9095,-2.7433,1222.723],[28.9083,-2.7476,1241.397],[28.9042,-2.7479,1228.7585],[28.898,-2.7573,1325.5769],[28.8949,-2.7591,1275.3295],[28.8928,-2.7584,1310.2896],[28.8926,-2.7618,1334.0382],[28.8884,-2.7632,1344.0563],[28.8836,-2.7693,1457.0244],[28.8836,-2.7715,1512.2522],[28.8818,-2.7712,1504.2433],[28.8823,-2.7728,1488.5056],[28.8672,-2.7697,1565.0909],[28.8718,-2.793,1659.8398],[28.878,-2.7996,1900.0182],[28.8807,-2.805,2096.6453],[28.8736,-2.8227,1904.2101],[28.8807,-2.8462,1519.2568],[28.8769,-2.8523,1607.5726],[28.8669,-2.8577,1788.1774],[28.8641,-2.8658,1889.0889],[28.8599,-2.8983,2713.0276],[28.8592,-2.9261,2694.2576],[28.8556,-2.9431,2652.562],[28.8408,-2.9705,2725.3267],[28.8288,-2.9969,2859.1296],[28.819,-2.9987,2768.8179],[28.8117,-2.9969,2771.0171],[28.8044,-2.9879,3030.2729],[28.8087,-3.0087,2959.3569],[28.8199,-3.0324,2839.2175],[28.8194,-3.051,2789.2954],[28.8139,-3.0686,2778.043],[28.8048,-3.0796,2753.248],[28.7942,-3.0866,3011.4768],[28.7913,-3.0958,2953.0515],[28.7915,-3.1127,3037.0767],[28.7841,-3.1226,3239.8789],[28.7823,-3.1411,2991.4932],[28.7891,-3.1555,2995.7603],[28.7874,-3.1794,3016.3223],[28.7903,-3.1977,2941.0764],[28.8056,-3.2042,2863.1709],[28.8127,-3.2095,2989.918],[28.8207,-3.2299,2927.7424],[28.8256,-3.2513,2848.2437],[28.8307,-3.2596,2582.5161],[28.8447,-3.2699,2297.6689],[28.8498,-3.2703,2385.5803],[28.8544,-3.2783,2434.1594],[28.8583,-3.2815,2564.2939],[28.8714,-3.2875,2770.085],[28.8818,-3.3008,2728.4875],[28.8922,-3.3189,2760.9504],[28.8869,-3.3237,2653.9578],[28.8799,-3.3357,2463.3765],[28.8709,-3.3632,2679.158],[28.8723,-3.3687,2620.2166],[28.885,-3.387,2693.5],[28.8878,-3.3998,2651.5168],[28.8744,-3.4206,2711.1235],[28.862,-3.4344,2698.4055],[28.8424,-3.45,2469.0244],[28.8441,-3.4611,2384.6902],[28.8449,-3.5042,2257.1445],[28.8422,-3.509,2252.7219],[28.8442,-3.5118,2246.4082],[28.8444,-3.5156,2245.3926],[28.8408,-3.5236,2250.085],[28.8425,-3.525,2275.0188],[28.8416,-3.529,2232.4507],[28.8433,-3.5329,2266.6851],[28.8411,-3.5346,2196.752],[28.8429,-3.5375,2188.0132],[28.8422,-3.5473,2183.4673],[28.8401,-3.5522,2175.6177],[28.8357,-3.5546,2196.5186],[28.8307,-3.5621,2172.2256],[28.8329,-3.5714,2182.1111],[28.8296,-3.5808,2227.1387],[28.831,-3.5832,2148.0359],[28.828,-3.5909,2132.6611],[28.8293,-3.5924,2146.8086],[28.8287,-3.5989,2133.5439],[28.8303,-3.5984,2125.1179],[28.8337,-3.6012,2133.1006],[28.8373,-3.5992,2141.6348],[28.8404,-3.6002,2227.8367],[28.84,-3.6027,2146.1831],[28.8476,-3.6063,2175.9424],[28.8498,-3.6127,2327.3918],[28.8554,-3.6163,2482.0586],[28.86,-3.6164,2376.2021],[28.8617,-3.6192,2450.7161],[28.8683,-3.6217,2407.4277],[28.8713,-3.6269,2441.2319],[28.874,-3.6248,2386.854],[28.876,-3.6258,2456.2583],[28.881,-3.6317,2478.0569],[28.8811,-3.6348,2485.0537],[28.8876,-3.6408,2454.4019],[28.8908,-3.6378,2469.4663],[28.9009,-3.6501,2578.1606],[28.923,-3.6487,2593.083],[28.9464,-3.658,2674.0051],[28.9581,-3.6591,2862.4504],[28.982,-3.6578,2859.5029],[28.993,-3.6564,2518.624],[28.9941,-3.6489,2886.1338],[29.0001,-3.6416,2784.0813],[29.0012,-3.6342,2642.0427],[29.0132,-3.6195,2842.7212],[29.0268,-3.5849,2794.4744],[29.0463,-3.548,2837.27],[29.0553,-3.5484,3010.6277],[29.0646,-3.5428,2986.8081],[29.0695,-3.5422,2979.1018],[29.0735,-3.5448,2763.4326],[29.083,-3.556,2379.7793],[29.0896,-3.5554,2034.252],[29.1066,-3.5418,1361.5179],[29.1312,-3.5427,1202.3164],[29.1548,-3.5577,776.9697],[29.16,-3.5628,770.0],[29.2083,-3.5628,770.0],[29.2349,-3.5583,770.0],[29.2331,-3.5485,770.0],[29.2282,-3.5383,770.0],[29.2159,-3.458,770.0],[29.2084,-3.4288,770.0],[29.1974,-3.4319,770.0],[29.192,-3.4312,770.0],[29.1729,-3.4337,770.0],[29.1629,-3.4332,770.0],[29.1408,-3.4277,770.0],[29.1289,-3.4231,821.7628],[29.1268,-3.4203,851.144],[29.1238,-3.4073,912.0865],[29.129,-3.391,1155.8533],[29.1339,-3.3869,922.7052],[29.1622,-3.3877,770.0],[29.1971,-3.385,770.0],[29.1975,-3.3474,771.7866],[29.2035,-3.3463,771.6802],[29.2009,-3.3087,776.1216],[29.2038,-3.2972,778.8275],[29.2079,-3.2902,779.6108],[29.2346,-3.2687,777.8936],[29.2397,-3.2689,778.2041],[29.2327,-3.261,779.1854]]]]}
,"properties": {"GID_2": "COD.22.11_1","GID_0": "COD","country": "DemocraticRepublicoftheCongo","GID_1": "COD.22_1","province": "Sud-Kivu","NL_NAME_1": "NA","county": "Uvira","VARNAME_2": "NA","NL_NAME_2": "NA","TYPE_2": "Territoire","ENGTYPE_2": "Territory","CC_2": "NA","HASC_2": "NA","name": "Uvira.county","area_km2": 3487.93,"hist_schema_id": "Elevation0-9000","hist_area_km2": {"775": 221.889,"800": 114.655,"825": 64.062,"850": 51.913,"875": 90.497,"900": 112.264,"925": 67.669,"950": 61.359,"975": 55.832,"1000": 48.23,"1025": 42.386,"1050": 39.528,"1075": 36.754,"1100": 33.112,"1125": 33.811,"1150": 29.873,"1175": 27.057,"1200": 24.305,"1225": 24.58,"1250": 22.314,"1275": 21.488,"1300": 20.938,"1325": 21.636,"1350": 21.234,"1375": 19.837,"1400": 21.403,"1425": 20.303,"1450": 20.324,"1475": 19.774,"1500": 21.7,"1525": 21.531,"1550": 21.277,"1575": 22.06,"1600": 22.696,"1625": 22.166,"1650": 20.896,"1675": 18.25,"1700": 18.525,"1725": 18.377,"1750": 17.148,"1775": 16.556,"1800": 16.069,"1825": 16.852,"1850": 16.238,"1875": 15.751,"1900": 16.831,"1925": 16.915,"1950": 16.788,"1975": 17.021,"2000": 16.576,"2025": 17.761,"2050": 17.698,"2075": 15.496,"2100": 16.512,"2125": 17.507,"2150": 22.989,"2175": 21.719,"2200": 22.206,"2225": 20.723,"2250": 22.438,"2275": 21.993,"2300": 21.865,"2325": 21.971,"2350": 23.621,"2375": 25.251,"2400": 25.315,"2425": 23.833,"2450": 24.404,"2475": 24.319,"2500": 24.255,"2525": 24.213,"2550": 24.763,"2575": 26.054,"2600": 27.133,"2625": 38.797,"2650": 68.986,"2675": 59.862,"2700": 62.105,"2725": 65.725,"2750": 67.756,"2775": 73.535,"2800": 74.656,"2825": 75.121,"2850": 79.247,"2875": 78.167,"2900": 76.748,"2925": 69.509,"2950": 61.361,"2975": 48.703,"3000": 39.665,"3025": 34.098,"3050": 25.758,"3075": 19.218,"3100": 14.605,"3125": 11.409,"3150": 9.864,"3175": 8.318,"3200": 5.778,"3225": 3.344,"3250": 1.799,"3275": 0.445,"3300": 0.064}}}