{"type": "Feature","bbox": [26.4312,-1.4804,26.4839,-1.4322],"geometry": {"type": "MultiPolygon","coordinates": [[[[26.4644,-1.4792,585.5506],[26.4726,-1.4764,581.9503],[26.4809,-1.4652,542.1982],[26.4839,-1.4564,530.787],[26.4819,-1.4418,515.3885],[26.475,-1.4354,538.5577],[26.4632,-1.4322,519.6067],[26.4495,-1.4328,526.0958],[26.4398,-1.437,522.2808],[26.4346,-1.4438,531.1031],[26.4312,-1.4526,552.9214],[26.4326,-1.4676,546.2],[26.4388,-1.4774,557.4584],[26.4547,-1.4804,609.2495],[26.4644,-1.4792,585.5506]]]]}
,"properties": {"GID_2": "COD.17.13_1","GID_0": "COD","country": "DemocraticRepublicoftheCongo","GID_1": "COD.17_1","province": "Maniema","NL_NAME_1": "NA","county": "Punia(ville)","VARNAME_2": "NA","NL_NAME_2": "NA","TYPE_2": "Ville","ENGTYPE_2": "Town","CC_2": "NA","HASC_2": "NA","name": "Punia(ville).county","area_km2": 25.32846,"hist_schema_id": "Elevation0-9000","hist_area_km2": {"500": 0.59347,"525": 7.29124,"550": 8.26619,"575": 7.94823,"600": 1.12335,"625": 0.08478,"650": 0.0212}}}