{"type": "Feature","bbox": [13.4262,-5.8951,13.5512,-5.7881],"geometry": {"type": "MultiPolygon","coordinates": [[[[13.5248,-5.8756,202.4216],[13.5186,-5.8717,155.9562],[13.4745,-5.8291,194.3663],[13.4777,-5.8077,9.5],[13.4709,-5.8046,60.5199],[13.465,-5.7881,264.5425],[13.4498,-5.7894,173.5144],[13.4364,-5.7945,354.1263],[13.4329,-5.8069,271.4414],[13.4355,-5.8269,15.7357],[13.4322,-5.8293,47.5575],[13.4329,-5.857,27.0684],[13.4262,-5.862,5.0],[13.4303,-5.8746,12.9798],[13.4389,-5.8778,256.2979],[13.4432,-5.8778,279.3423],[13.4567,-5.8748,340.107],[13.4816,-5.8739,439.1448],[13.4939,-5.8779,481.3099],[13.5162,-5.89,147.0798],[13.531,-5.8951,212.0851],[13.5512,-5.8946,221.8115],[13.5248,-5.8756,202.4216]]]]}
,"properties": {"GID_2": "COD.11.11_1","GID_0": "COD","country": "DemocraticRepublicoftheCongo","GID_1": "COD.11_1","province": "Kongo-Central","NL_NAME_1": "NA","county": "Matadi","VARNAME_2": "NA","NL_NAME_2": "NA","TYPE_2": "Ville","ENGTYPE_2": "Town","CC_2": "NA","HASC_2": "NA","name": "Matadi.county","area_km2": 64.22496,"hist_schema_id": "Elevation0-9000","hist_area_km2": {"0": 5.23104,"25": 1.96162,"50": 2.17255,"75": 2.78423,"100": 3.64902,"125": 5.01992,"150": 4.89332,"175": 4.19725,"200": 5.42051,"225": 4.82999,"250": 3.90195,"275": 3.29032,"300": 3.41687,"325": 2.6576,"350": 1.6241,"375": 0.84365,"400": 1.6873,"425": 1.77166,"450": 2.29894,"475": 1.79275,"500": 0.75928,"525": 0.02109}}}