{"type":"Feature","properties":{"GID_2":"COD.18.2_1","GID_0":"COD","country":"DemocraticRepublicoftheCongo","GID_1":"COD.18_1","province":"Mongala","NL_NAME_1":"NA","county":"Bumba","VARNAME_2":"NA","NL_NAME_2":"NA","TYPE_2":"Territoire","ENGTYPE_2":"Territory","CC_2":"NA","HASC_2":"NA","name":"Bumba.county"},
"geometry":{"type": "MultiPolygon","coordinates": [[[[22.6159,3.3333,546.3319],[22.625,3.3149,553.8207],[22.6212,3.2959,558.5571],[22.6037,3.2685,554.3578],[22.5705,3.2035,558.556],[22.5559,3.1705,567.8437],[22.5579,3.1448,526.3021],[22.5573,3.1238,513.7582],[22.5551,3.1185,516.5762],[22.5512,3.115,514.6581],[22.5499,3.1088,526.1255],[22.5433,3.0998,505.5223],[22.533,3.0969,488.1207],[22.5214,3.0858,491.5574],[22.5142,3.0639,448.9817],[22.518,3.0503,460.4934],[22.509,3.0351,464.5168],[22.5089,3.0162,475.2691],[22.4865,2.9785,408.3204],[22.4807,2.9801,412.5356],[22.4759,2.9849,400.0126],[22.4738,2.9925,437.9014],[22.4623,2.9998,404.3303],[22.4341,3.0033,409.7502],[22.4162,3.0073,437.5007],[22.3724,3.0249,408.6437],[22.3648,3.0315,398.3366],[22.3547,3.0319,393.738],[22.3419,3.0263,394.1347],[22.3178,3.0087,406.5674],[22.3036,3.0097,392.3954],[22.2833,2.9953,392.3183],[22.2755,2.995,403.0444],[22.2664,2.9917,395.2211],[22.2595,2.9912,398.6112],[22.2522,2.9879,397.2301],[22.2385,2.9869,396.7756],[22.231,2.9813,392.4319],[22.2214,2.9776,395.5015],[22.2122,2.9777,398.116],[22.2045,2.9705,393.437],[22.1919,2.967,397.2547],[22.1858,2.9623,400.1855],[22.1599,2.961,399.0553],[22.1538,2.955,396.2445],[22.1497,2.9536,396.2992],[22.1452,2.9482,399.455],[22.1339,2.9486,395.1287],[22.1166,2.9443,390.2397],[22.1086,2.9443,392.5199],[22.0871,2.9322,407.3568],[22.0764,2.9332,392.3726],[22.0691,2.9306,388.8457],[22.0632,2.9237,405.956],[22.0602,2.9223,408.1793],[22.051,2.9229,397.0794],[22.0437,2.9203,396.5333],[22.0383,2.9159,392.9124],[22.03,2.9145,392.4082],[22.0024,2.9032,393.1782],[21.996,2.9034,403.7804],[21.9901,2.9059,392.4625],[21.9825,2.9049,388.8556],[21.9805,2.9033,391.1131],[21.9669,2.9089,391.9062],[21.9646,2.9087,394.3248],[21.9551,2.8992,400.9859],[21.9496,2.8984,404.7968],[21.9469,2.8963,401.0808],[21.9393,2.8995,391.5471],[21.9171,2.903,394.6836],[21.9011,2.8985,405.6174],[21.894,2.9015,388.9453],[21.8894,2.9014,394.8803],[21.8732,2.8958,393.1492],[21.8566,2.903,388.8609],[21.8463,2.9039,401.709],[21.8415,2.907,391.2984],[21.8273,2.9069,384.9519],[21.8186,2.9135,386.6652],[21.8103,2.9142,379.0327],[21.7947,2.9244,373.2883],[21.7846,2.9289,376.3874],[21.7814,2.9259,376.441],[21.7488,2.9307,372.542],[21.7456,2.9332,377.037],[21.7404,2.9323,372.2419],[21.7239,2.9248,378.0286],[21.7052,2.9265,374.2685],[21.6985,2.9241,378.814],[21.6903,2.9252,371.837],[21.6858,2.9192,382.8635],[21.6833,2.9182,379.0996],[21.6754,2.9218,369.2228],[21.6725,2.92,369.2077],[21.6636,2.9206,367.8654],[21.6534,2.9258,368.6332],[21.6471,2.9205,375.8294],[21.6442,2.9055,382.3955],[21.6454,2.9011,377.2876],[21.6614,2.8782,387.4952],[21.6662,2.8764,391.1787],[21.6791,2.8634,394.145],[21.6928,2.846,393.4787],[21.6999,2.8429,396.6483],[21.71,2.8335,394.1035],[21.714,2.8259,392.645],[21.7248,2.8196,393.4976],[21.717,2.7951,427.0098],[21.7104,2.7843,397.0938],[21.7049,2.76,400.7961],[21.6976,2.7524,402.4894],[21.6784,2.7173,414.4592],[21.6635,2.7038,410.2962],[21.6567,2.6895,410.7875],[21.6547,2.6784,412.6939],[21.6555,2.6669,412.4404],[21.6616,2.6474,421.3569],[21.6807,2.6091,454.0351],[21.6809,2.6047,453.9106],[21.6922,2.6013,472.33],[21.7133,2.5902,502.004],[21.7169,2.5153,470.531],[21.7174,2.4296,463.3804],[21.7235,2.372,484.7687],[21.7327,2.3661,444.5837],[21.7478,2.3402,399.9233],[21.7569,2.32,377.1183],[21.7584,2.2915,373.4323],[21.7615,2.2823,383.7052],[21.7797,2.2691,376.4698],[21.7925,2.2637,369.1098],[21.814,2.2413,359.3757],[21.8149,2.2376,364.1444],[21.8102,2.2242,365.5091],[21.8078,2.2109,356.8466],[21.8079,2.1955,349.2537],[21.805,2.1865,338.5],[21.8064,2.1805,356.8871],[21.8446,2.1778,342.1606],[21.8659,2.1819,339.0],[21.8791,2.182,339.0],[21.8816,2.1838,339.0],[21.8934,2.1861,343.9699],[21.9066,2.1843,339.5],[21.9253,2.1874,339.5],[21.9408,2.1944,339.5],[21.9632,2.1987,340.0],[21.975,2.2036,360.7014],[22.0059,2.2069,342.4593],[22.0244,2.2059,354.4624],[22.0308,2.2041,340.0],[22.0415,2.2071,356.6279],[22.095,2.2108,344.5599],[22.1057,2.2148,340.5],[22.1067,2.2132,340.5],[22.1227,2.2163,341.0],[22.1465,2.213,354.542],[22.1519,2.2137,359.7855],[22.1829,2.2089,358.0165],[22.201,2.2046,343.471],[22.2035,2.2026,341.5],[22.2296,2.2019,341.5],[22.2511,2.1942,342.0],[22.2514,2.1926,342.0],[22.3066,2.1856,371.8732],[22.3258,2.1775,343.8277],[22.3253,2.1761,348.9893],[22.3286,2.1738,351.7137],[22.3409,2.1737,348.213],[22.3462,2.1707,354.9414],[22.3545,2.162,344.735],[22.3719,2.158,352.0554],[22.3865,2.1572,343.0],[22.387,2.154,343.0],[22.3996,2.1541,343.0],[22.439,2.1465,343.5],[22.4465,2.1839,349.2642],[22.4551,2.1885,357.7721],[22.4575,2.2006,354.5056],[22.4569,2.206,352.6191],[22.4737,2.2039,362.2426],[22.4895,2.1993,360.7305],[22.5095,2.1884,360.7005],[22.5224,2.1805,360.9715],[22.5332,2.1675,357.9196],[22.544,2.1503,357.4294],[22.5465,2.139,344.0],[22.5465,2.114,360.2636],[22.5773,2.1075,344.5],[22.6053,2.0971,362.1682],[22.6229,2.097,350.0572],[22.6314,2.0938,349.1982],[22.6447,2.0861,345.0],[22.6809,2.05,345.0],[22.6865,2.0659,356.9632],[22.6935,2.0694,362.7007],[22.7018,2.0623,345.0],[22.7132,2.0624,356.593],[22.7162,2.0606,356.7442],[22.7232,2.0507,360.5602],[22.7271,2.0491,345.0],[22.7396,2.051,368.2931],[22.7481,2.0477,358.3008],[22.755,2.0399,349.3969],[22.7642,2.0349,362.4586],[22.7801,2.0177,356.0],[22.784,2.0175,346.0],[22.7903,2.0219,351.2051],[22.8019,2.0344,346.0],[22.8088,2.0352,350.8347],[22.8267,2.0279,355.5966],[22.833,2.033,364.8674],[22.8419,2.0441,351.4094],[22.8462,2.0465,357.9056],[22.8558,2.047,347.6909],[22.8597,2.0491,348.9012],[22.8682,2.0655,347.0],[22.8735,2.0703,347.0],[22.8778,2.0713,351.4409],[22.8886,2.069,347.5],[22.8922,2.0741,348.9835],[22.8926,2.084,349.8916],[22.8903,2.0925,369.7747],[22.8946,2.1006,349.9381],[22.8977,2.1029,353.1236],[22.9051,2.1027,358.6213],[22.9119,2.0989,352.8231],[22.9186,2.0916,352.3867],[22.9239,2.0912,349.2251],[22.9289,2.096,350.3748],[22.9345,2.1071,348.0],[22.9382,2.111,360.1081],[22.9489,2.118,373.4137],[22.9486,2.123,373.7028],[22.9458,2.1263,348.5],[22.9458,2.129,352.2853],[22.9339,2.1361,362.2874],[22.9341,2.1425,367.3903],[22.9386,2.1471,352.2025],[22.9443,2.149,349.0],[22.9584,2.1602,349.0],[22.9742,2.1584,375.1988],[22.9756,2.1619,349.5],[22.9711,2.1757,352.4872],[22.9722,2.1805,357.8283],[22.9781,2.186,353.5118],[22.9848,2.187,374.1695],[22.9972,2.1756,373.6946],[23.0006,2.1738,357.456],[23.0045,2.1752,360.6937],[23.0068,2.1782,356.6737],[23.0033,2.1897,350.0],[23.0073,2.2062,358.5691],[23.0132,2.2104,363.58],[23.0166,2.2164,355.6027],[23.0209,2.219,354.4163],[23.0305,2.2188,368.9384],[23.0413,2.2125,368.7935],[23.0487,2.2116,374.4004],[23.0496,2.204,378.9432],[23.0576,2.2022,375.5796],[23.0648,2.1956,377.9564],[23.0758,2.192,379.3866],[23.0898,2.1778,381.7133],[23.098,2.1758,384.8694],[23.1049,2.1717,384.3465],[23.1105,2.1662,398.5699],[23.1149,2.1556,381.3029],[23.1238,2.1483,385.0768],[23.1308,2.1366,388.199],[23.1473,2.1284,396.4777],[23.1553,2.1191,407.473],[23.1672,2.1187,412.1171],[23.1758,2.1079,415.4185],[23.1774,2.0994,435.3152],[23.188,2.093,444.95],[23.1939,2.0928,456.6608],[23.2103,2.0861,474.1099],[23.2243,2.0854,467.4448],[23.2328,2.086,454.3511],[23.2565,2.1004,477.238],[23.2712,2.1061,473.8423],[23.3126,2.0899,459.0312],[23.3153,2.0984,457.3339],[23.3219,2.1056,456.3791],[23.3195,2.1184,432.2079],[23.3219,2.1334,419.4818],[23.3265,2.141,439.0445],[23.3144,2.1679,420.2666],[23.3155,2.1794,436.0941],[23.312,2.1948,423.656],[23.3133,2.201,408.318],[23.3197,2.2082,437.5692],[23.3209,2.2236,431.0085],[23.3142,2.2459,407.7241],[23.3134,2.259,408.7329],[23.3175,2.271,402.5743],[23.3231,2.2784,391.2966],[23.3291,2.2821,382.9808],[23.3327,2.281,381.9565],[23.3461,2.2698,384.7757],[23.3621,2.2607,386.8451],[23.3647,2.2558,384.2078],[23.3704,2.2504,382.2432],[23.3764,2.2476,388.771],[23.3892,2.2454,389.2542],[23.4096,2.2342,387.7409],[23.4133,2.2308,389.123],[23.422,2.2311,399.9722],[23.4254,2.2297,423.8665],[23.4289,2.2233,390.3465],[23.4342,2.2217,413.0152],[23.4436,2.2147,417.1148],[23.4498,2.2126,426.0043],[23.456,2.2041,402.6075],[23.4652,2.2001,398.2209],[23.4705,2.193,403.1826],[23.4849,2.185,393.0822],[23.5249,2.1836,393.8404],[23.5462,2.1932,393.291],[23.5798,2.1931,418.4608],[23.5612,2.36,554.0196],[23.5726,2.3962,518.1144],[23.5669,2.4162,521.3742],[23.5473,2.4357,526.447],[23.5429,2.4456,489.1386],[23.5364,2.4513,464.2122],[23.5204,2.4556,420.674],[23.4917,2.4745,418.6487],[23.4876,2.4758,401.648],[23.4579,2.4985,410.818],[23.4519,2.5111,401.1067],[23.4327,2.5117,397.0829],[23.4273,2.5029,397.2318],[23.4245,2.51,394.899],[23.4132,2.5265,385.2039],[23.4088,2.5302,384.5293],[23.4001,2.5336,389.8442],[23.3911,2.5295,382.0012],[23.3829,2.5438,358.8284],[23.3771,2.5431,365.379],[23.3739,2.5451,381.5578],[23.3633,2.5628,367.2322],[23.3594,2.5651,382.0625],[23.356,2.5632,383.8274],[23.3499,2.551,385.3124],[23.3479,2.5289,371.3799],[23.3386,2.5175,378.9388],[23.3384,2.5134,375.1887],[23.3442,2.5008,366.9287],[23.3427,2.4927,373.6194],[23.3381,2.4878999999999998,368.7178],[23.3345,2.4874,368.8458],[23.326,2.4873,373.8327],[23.3189,2.4926,380.0393],[23.3159,2.4919,371.8336],[23.3148,2.49,371.1282],[23.3167,2.4822,372.1688],[23.3142,2.4762,376.4519],[23.317,2.4659,370.9763],[23.3145,2.4564,369.4729],[23.3084,2.4511,379.2566],[23.2938,2.4503,380.4369],[23.2903,2.4517,382.4753],[23.282,2.468,374.2117],[23.2776,2.4679,378.5555],[23.2738,2.4649,380.2481],[23.2742,2.4702,378.2302],[23.284,2.4726,366.9405],[23.2884,2.4685,376.9496],[23.2936,2.4667,381.4024],[23.2986,2.4743,373.1034],[23.2979,2.4775,376.069],[23.2733,2.4987,375.5645],[23.2566,2.5099,397.1886],[23.2403,2.5181,384.2551],[23.2153,2.5237,390.737],[23.2141,2.5255,392.6822],[23.1974,2.5294,403.8465],[23.1804,2.5362,394.3676],[23.169,2.5377,408.2384],[23.1571,2.5425,427.2174],[23.1213,2.5618,433.5364],[23.1071,2.5631,423.4354],[23.1027,2.5605,445.3752],[23.0984,2.5531,464.1528],[23.0889,2.5597,466.7024],[23.075,2.56,470.5645],[23.0646,2.5636,483.0837],[23.0472,2.5745,432.3543],[23.0296,2.5906,450.6137],[22.8997,2.7234,497.2036],[22.887,2.7386,463.4249],[22.879,2.7574,442.2365],[22.8802,2.7644,459.7096],[22.886,2.7772,445.6651],[22.8849,2.7948,479.5671],[22.9058,2.8099,528.6163],[22.9162,2.8098,526.0332],[22.9324,2.8028,542.1284],[22.9428,2.7922,559.2368],[22.9486,2.7746,555.0564],[22.9521,2.7992,560.3452],[22.9541,2.853,483.7303],[22.9832,2.8897,437.1017],[23.0211,2.9597,519.5739],[23.0333,2.9889,542.8186],[23.0597,3.0334,496.0477],[23.0508,3.0336,507.3738],[23.0381,3.0453,515.0902],[23.028,3.0503,536.719],[23.0232,3.0679,542.9254],[23.0197,3.0714,564.0902],[23.0122,3.0708,566.8622],[23.0,3.0569,570.7388],[22.9913,3.0534,555.4311],[22.9659,3.0775,555.5134],[22.9554,3.0804,557.916],[22.9415,3.0817,565.0834],[22.9218,3.0806,571.3762],[22.9056,3.0771,564.7492],[22.8917,3.0678,565.5903],[22.8579,3.02,557.9382],[22.844,3.0166,563.4101],[22.8278,3.019,565.7947],[22.8115,3.0249,560.1243],[22.7884,3.0402,555.2125],[22.7815,3.0543,565.3309],[22.7817,3.1057,548.2895],[22.7696,3.1181,575.0411],[22.7597,3.124,579.0548],[22.7261,3.1188,548.7645],[22.715699999999998,3.1276,546.528],[22.7007,3.133,539.5245],[22.696,3.133,540.2481],[22.6706,3.1477,556.2244],[22.6596,3.1524,546.8447],[22.5953,3.1539,530.9113],[22.5843,3.1569,539.7709],[22.5774,3.161,536.4398],[22.5745,3.1692,545.5343],[22.5885,3.2025,560.4248],[22.606,3.2228,551.5711],[22.613,3.2392,555.2076],[22.6235,3.2544,546.0796],[22.6514,3.2838,539.8466],[22.6529,3.3045,518.082],[22.6486,3.3124,537.5623],[22.6402,3.3186,553.0223],[22.6286,3.3233,549.3057],[22.6159,3.3333,546.3319]]]]}}