{"type":"Feature","properties":{"GID_2":"COD.17.1_1","GID_0":"COD","country":"DemocraticRepublicoftheCongo","GID_1":"COD.17_1","province":"Maniema","NL_NAME_1":"NA","county":"Kabambare","VARNAME_2":"NA","NL_NAME_2":"NA","TYPE_2":"Territoire","ENGTYPE_2":"Territory","CC_2":"NA","HASC_2":"NA","name":"Kabambare.county"},
"geometry":{"type": "MultiPolygon","coordinates": [[[[27.5516,-3.9934,810.5725],[27.5313,-3.9934,733.7865],[27.4772,-3.9769,665.6206],[27.4638,-3.9769,650.2177],[27.4594,-3.9799,642.1613],[27.4516,-3.9966,635.7681],[27.4491,-3.992,635.4564],[27.4469,-3.9944,635.7798],[27.4459,-3.9913,637.6318],[27.4472,-3.9902,633.1966],[27.4425,-3.9834,631.5302],[27.436,-3.98,628.9871],[27.4314,-3.9814,640.5382],[27.4263,-3.9765,631.468],[27.426,-3.9744,635.3735],[27.4226,-3.9737,638.0803],[27.4244,-3.9685,629.2384],[27.4169,-3.9647,628.844],[27.4184,-3.9617,633.2528],[27.4133,-3.9604,629.4965],[27.4143,-3.9564,645.8237],[27.4126,-3.9573,630.7402],[27.4031,-3.9497,625.2438],[27.4002,-3.9498,624.3839],[27.3995,-3.9452,624.8276],[27.3953,-3.941,629.6022],[27.3904,-3.9389,621.9465],[27.386,-3.9395,625.4897],[27.3866,-3.9353,624.6745],[27.3822,-3.9353,623.6647],[27.3791,-3.9379,625.3118],[27.3758,-3.9354,620.8699],[27.3703,-3.9355,617.0524],[27.3685,-3.9389,631.8296],[27.3651,-3.9381,627.9977],[27.3627,-3.9342,612.5342],[27.3613,-3.9354,612.8192],[27.3606,-3.9341,610.1984],[27.3592,-3.9354,618.7376],[27.3466,-3.9353,612.7668],[27.3388,-3.9305,613.9535],[27.3368,-3.9277,607.55],[27.338,-3.9248,607.0474],[27.3346,-3.9271,609.8887],[27.3346,-3.9243,606.9605],[27.3304,-3.9243,607.3254],[27.3295,-3.9223,612.5033],[27.3278,-3.9254,611.4226],[27.324,-3.9215,608.0412],[27.3223,-3.9229,605.975],[27.3203,-3.9219,610.3278],[27.3209,-3.9201,605.0814],[27.3184,-3.9186,607.7443],[27.3191,-3.9167,602.2844],[27.3169,-3.917,606.1895],[27.3164,-3.9156,602.9433],[27.3157,-3.9173,606.1895],[27.3125,-3.9154,603.6013],[27.3097,-3.918,609.3566],[27.3054,-3.9168,603.6941],[27.3034,-3.9187,604.4507],[27.304,-3.9162,605.179],[27.3016,-3.916,601.2627],[27.2981,-3.918,610.0482],[27.2961,-3.9171,606.1091],[27.2918,-3.9205,604.8467],[27.2915,-3.9187,602.0564],[27.2902,-3.9202,608.1624],[27.2882,-3.9176,602.6229],[27.2842,-3.9164,602.3652],[27.2814,-3.9171,597.9467],[27.2816,-3.9186,600.566],[27.2801,-3.9187,602.2363],[27.2803,-3.9167,598.1593],[27.2777,-3.9185,606.5331],[27.2806,-3.9133,609.4199],[27.2773,-3.9121,606.0469],[27.2753,-3.908,609.7136],[27.2689,-3.9085,609.6083],[27.2668,-3.9051,600.4209],[27.2637,-3.9043,603.5561],[27.2623,-3.899,608.229],[27.2604,-3.8994,601.2587],[27.2617,-3.9009,605.6954],[27.2607,-3.9031,611.2508],[27.2534,-3.9033,600.6404],[27.2523,-3.9019,596.7156],[27.2501,-3.9026,599.1245],[27.2497,-3.9045,598.8451],[27.2444,-3.9005,599.9644],[27.2391,-3.9016,604.2338],[27.2379,-3.8995,613.6342],[27.2376,-3.9015,604.2338],[27.236,-3.9,594.8068],[27.2347,-3.9011,602.9691],[27.2342,-3.898,593.1818],[27.2323,-3.8992,600.5139],[27.2317,-3.8972,595.7354],[27.2285,-3.8955,595.6241],[27.2271,-3.898,606.4263],[27.2247,-3.8955,596.1558],[27.2218,-3.8975,597.6945],[27.2218,-3.8952,592.6169],[27.2201,-3.897,592.5178],[27.2211,-3.8984,602.0018],[27.219,-3.8991,598.4994],[27.2177,-3.8977,601.0345],[27.217,-3.8997,601.3024],[27.2143,-3.8985,590.0758],[27.2135,-3.8998,595.8094],[27.2112,-3.8966,591.7343],[27.2101,-3.8988,598.2822],[27.2093,-3.8964,590.5803],[27.2064,-3.8973,604.6814],[27.2056,-3.8943,591.5158],[27.2039,-3.8946,605.9449],[27.202,-3.8913,591.736],[27.201,-3.8927,591.736],[27.1975,-3.8884,591.042],[27.1949,-3.8876,589.6112],[27.1946,-3.8891,592.2422],[27.1925,-3.8892,591.4573],[27.1933,-3.8877,590.9208],[27.1912,-3.889,593.5322],[27.1912,-3.8877,588.5719],[27.1887,-3.8893,592.6438],[27.1871,-3.8866,589.6662],[27.1879,-3.8842,589.6772],[27.1859,-3.8831,589.6772],[27.1873,-3.8795,601.637],[27.1861,-3.8769,608.1346],[27.1811,-3.8736,605.7787],[27.1809,-3.87,595.0383],[27.1758,-3.8611,602.9072],[27.1772,-3.8571,597.1807],[27.174,-3.8579,597.0384],[27.1714,-3.8561,602.2676],[27.1697,-3.8578,589.7443],[27.1645,-3.8518,606.879],[27.1644,-3.8504,595.9651],[27.1669,-3.8496,602.6838],[27.1663,-3.8485,605.8386],[27.1624,-3.8502,598.491],[27.1624,-3.8486,597.9005],[27.1642,-3.8481,597.3657],[27.1635,-3.8446,593.3525],[27.1672,-3.8456,602.5078],[27.1637,-3.8424,595.6656],[27.1636,-3.839,591.2734],[27.1652,-3.8373,598.3179],[27.1597,-3.8376,593.7803],[27.1544,-3.8229,596.0627],[27.1494,-3.819,597.2742],[27.1442,-3.8185,597.7139],[27.142,-3.8206,597.1012],[27.1333,-3.8211,628.4843],[27.0975,-3.83,635.707],[27.061,-3.8315,648.9957],[27.0448,-3.8551,662.0597],[27.0355,-3.8561,655.6967],[27.0247,-3.8787,727.7501],[27.024,-3.9006,822.9917],[27.0191,-3.9124,809.7437],[27.0184,-3.9216,740.1447],[26.9783,-3.9393,626.4709],[26.9548,-3.9534,628.481],[26.9412,-3.953,621.7284],[26.9391,-3.9594,614.6472],[26.9339,-3.9652,616.0207],[26.9245,-3.9717,627.3022],[26.922,-3.9818,596.6648],[26.9101,-3.9938,598.7712],[26.9047,-3.9968,604.3992],[26.9033,-4.0033,586.8622],[26.8996,-4.0092,588.6234],[26.9026,-4.0138,592.5906],[26.9109,-4.0127,612.012],[26.9148,-4.0154,593.3853],[26.9295,-4.0145,599.0586],[26.9389,-4.0236,608.164],[26.9442,-4.0227,586.0684],[26.9478,-4.0252,590.4124],[26.9529,-4.0247,587.0864],[26.9572,-4.0275,593.2649],[26.9712,-4.0263,594.4232],[26.9786,-4.032,592.717],[26.9836,-4.0323,597.1312],[27.0001,-4.0285,589.0834],[27.0086,-4.0297,600.761],[27.0135,-4.0697,638.9057],[27.0138,-4.0949,676.6599],[27.0219,-4.1168,706.0048],[27.018,-4.1237,703.2251],[27.0199,-4.1302,688.3464],[27.0183,-4.1325,694.168],[27.0117,-4.1355,688.3172],[27.0081,-4.1496,641.1789],[27.0193,-4.1754,638.7517],[27.0222,-4.1929,627.6537],[27.0564,-4.2166,649.4905],[27.0616,-4.2243,653.1045],[27.0569,-4.278,904.4204],[27.0518,-4.2997,704.6904],[27.0482,-4.3059,718.8283],[27.0505,-4.3121,711.7436],[27.056,-4.313,674.4838],[27.0583,-4.3174,674.4375],[27.056,-4.3215,675.9319],[27.0437,-4.3328,629.1503],[27.0423,-4.337,637.6242],[27.0451,-4.3522,632.9132],[27.0442,-4.36,624.4937],[27.0397,-4.3651,603.6276],[27.0558,-4.3945,627.7864],[27.0626,-4.4199,607.0863],[27.0572,-4.4366,596.8397],[27.0541,-4.4433,592.1958],[27.045,-4.4541,591.0815],[27.0392,-4.4511,590.9406],[27.0325,-4.4519,574.9664],[27.0326,-4.4502,572.6395],[27.0272,-4.4507,572.5288],[27.0257,-4.4531,585.5446],[27.021,-4.4535,577.6299],[27.0203,-4.45,572.2781],[27.0173,-4.4484,571.4963],[27.0152,-4.45,570.9196],[27.015,-4.4528,571.8452],[27.0123,-4.4509,579.9523],[27.0093,-4.4514,577.5385],[27.0086,-4.4563,570.5718],[27.0012,-4.4553,572.5303],[26.9921,-4.4598,570.2399],[26.9911,-4.4641,569.5534],[26.9883,-4.4648,597.4482],[26.991,-4.4712,572.4977],[26.9868,-4.4728,569.5881],[26.983,-4.4809,574.9242],[26.9787,-4.4853,570.3993],[26.9763,-4.4906,565.6537],[26.9772,-4.4949,573.5376],[26.9736,-4.4951,564.9401],[26.9746,-4.4923,570.0886],[26.9733,-4.4909,584.4259],[26.9722,-4.4932,571.3289],[26.9685,-4.4933,561.8767],[26.9689,-4.4958,561.1312],[26.9662,-4.4935,561.6328],[26.9649,-4.4975,562.1584],[26.957,-4.4962,569.609],[26.9565,-4.5041,565.3254],[26.951,-4.5043,563.2976],[26.9483,-4.5063,568.9419],[26.9501,-4.5101,571.3885],[26.9478,-4.5106,569.0897],[26.9482,-4.5164,564.9647],[26.946,-4.5172,564.9633],[26.9472,-4.521,569.6033],[26.9353,-4.5202,562.6042],[26.9345,-4.5232,561.4218],[26.9287,-4.5275,564.7227],[26.929,-4.5295,570.6994],[26.927,-4.5306,558.2726],[26.9279,-4.5322,558.3212],[26.9235,-4.537,561.3077],[26.9292,-4.5448,594.2518],[26.9297,-4.5524,578.6992],[26.9341,-4.5554,581.4005],[26.9355,-4.5586,580.9277],[26.9467,-4.5666,591.3761],[26.9594,-4.5869,605.7723],[26.9452,-4.6093,653.3325],[26.9094,-4.6504,876.6594],[26.9098,-4.701,590.9935],[26.9246,-4.7107,619.5645],[26.9334,-4.7133,870.4296],[26.9368,-4.7159,916.4352],[26.941,-4.728,593.498],[26.9383,-4.7434,486.5462],[26.9428,-4.7458,488.2333],[26.9465,-4.7503,499.4288],[26.9473,-4.7546,489.6337],[26.9506,-4.7568,488.2719],[26.9516,-4.7735,489.4997],[26.9543,-4.7781,498.8275],[26.9585,-4.7789,489.1302],[26.9563,-4.7856,519.2913],[26.9648,-4.8097,540.7322],[26.9724,-4.8249,527.2601],[26.9524,-4.8292,506.1795],[26.932,-4.8306,485.4903],[26.931,-4.8396,487.0079],[26.9235,-4.8549,499.4478],[26.9192,-4.861,489.3072],[26.915,-4.8625,489.5322],[26.9164,-4.8702,493.397],[26.9138,-4.875,487.355],[26.9262,-4.897,488.1761],[26.9259,-4.9075,490.5197],[26.9237,-4.9098,496.3448],[26.9231,-4.9211,489.3208],[26.9266,-4.9324,498.4214],[26.9425,-4.9542,504.0879],[26.9469,-4.957,523.9666],[26.9487,-4.9657,500.7736],[26.9554,-4.9799,523.7734],[26.9611,-4.9858,499.772],[26.9684,-4.9995,523.7717],[27.6021,-5.0166,625.573],[27.6736,-5.01,723.5604],[28.407,-5.0197,811.611],[28.8035,-5.0103,832.5951],[28.8014,-5.0012,835.1925],[28.7957,-4.9935,822.4044],[28.7887,-4.9912,835.3302],[28.785,-4.9943,817.0154],[28.7761,-4.9838,819.9263],[28.7713,-4.973,814.2568],[28.775,-4.9713,820.3133],[28.7758,-4.9679,804.0203],[28.7776,-4.9669,804.0557],[28.7767,-4.966,833.2871],[28.7726,-4.9651,802.5782],[28.7719,-4.967,802.6052],[28.7696,-4.9673,812.9604],[28.7645,-4.9654,809.8663],[28.7615,-4.9605,810.0402],[28.7546,-4.9609,812.2175],[28.7515,-4.9505,800.8987],[28.7489,-4.9472,794.9669],[28.7491,-4.9437,794.5852],[28.751,-4.9452,796.3853],[28.752,-4.9425,797.3423],[28.7539,-4.9429,799.7997],[28.76,-4.9388,789.9044],[28.757,-4.9334,792.6345],[28.7572,-4.9271,790.5118],[28.7555,-4.9237,788.8418],[28.7689,-4.9178,785.7352],[28.7682,-4.9142,783.1412],[28.7609,-4.9077,783.5723],[28.7522,-4.9039,778.2141],[28.7526,-4.9024,781.3268],[28.75,-4.9009,779.6196],[28.7493,-4.8985,776.799],[28.7506,-4.8979,778.8479],[28.7462,-4.8902,774.8671],[28.7458,-4.8817,793.0391],[28.7417,-4.8761,767.9682],[28.7438,-4.8733,791.7443],[28.7414,-4.8726,772.55],[28.7417,-4.8693,783.7247],[28.7388,-4.8655,766.625],[28.7411,-4.8631,769.3768],[28.7377,-4.8587,769.2207],[28.7373,-4.853,765.7739],[28.7347,-4.8489,768.2233],[28.7269,-4.8482,770.181],[28.7281,-4.8449,773.885],[28.7188,-4.8395,762.8098],[28.7132,-4.8342,760.431],[28.7117,-4.8304,758.2124],[28.7125,-4.8284,757.7698],[28.7138,-4.826,760.1927],[28.7163,-4.8264,759.749],[28.7173,-4.825,756.9136],[28.7161,-4.82,754.0186],[28.7039,-4.8108,752.1163],[28.6978,-4.8091,747.4037],[28.6951,-4.81,753.644],[28.6973,-4.8029,748.4248],[28.6964,-4.801,749.9908],[28.6899,-4.7995,752.0229],[28.6871,-4.7821,743.6823],[28.685,-4.7781,741.8836],[28.687,-4.7773,741.4099],[28.6877,-4.774,741.8904],[28.6847,-4.7685,742.7585],[28.689,-4.756,746.6987],[28.685,-4.7522,742.5829],[28.6834,-4.7535,743.6465],[28.6795,-4.7507,745.5567],[28.6838,-4.7396,741.9424],[28.6818,-4.7396,744.2859],[28.6776,-4.7359,738.3423],[28.677,-4.7309,736.4922],[28.6744,-4.73,735.0692],[28.6747,-4.7257,744.3922],[28.6694,-4.7246,743.1779],[28.6655,-4.7206,740.5938],[28.6634,-4.7145,729.0612],[28.6639,-4.7108,732.1385],[28.6593,-4.7057,742.3528],[28.6569,-4.7058,734.8166],[28.6556,-4.7033,722.4321],[28.6477,-4.7033,731.6094],[28.6461,-4.7015,732.8291],[28.6349,-4.701,730.7498],[28.6335,-4.6978,735.4588],[28.6305,-4.6983,730.1743],[28.6196,-4.6913,736.066],[28.6138,-4.6861,738.1517],[28.6073,-4.6766,757.4526],[28.5674,-4.5406,1006.0722],[28.5528,-4.5234,832.1447],[28.5546,-4.4642,1152.4578],[28.5531,-4.4601,1133.1052],[28.513,-4.4595,827.5289],[28.5034,-4.461,824.8276],[28.4939,-4.4546,801.5054],[28.4918,-4.4085,1081.6349],[28.4808,-4.3967,1133.3656],[28.4457,-4.3873,765.1503],[28.4168,-4.3751,753.6234],[28.4025,-4.3642,723.6155],[28.4036,-4.3599,713.0687],[28.3964,-4.3348,745.6713],[28.4,-4.327,795.8709],[28.3974,-4.3217,767.9738],[28.3997,-4.3171,740.7906],[28.3971,-4.3061,779.0209],[28.3935,-4.3038,780.2521],[28.3789,-4.2744,907.4004],[28.3733,-4.2731,968.7682],[28.3584,-4.282,1022.082],[28.3076,-4.2431,810.8165],[28.2427,-4.1996,880.5458],[28.2247,-4.178,811.0885],[28.2172,-4.1594,730.7849],[28.2103,-4.1366,763.8055],[28.2052,-4.1266,811.4088],[28.1982,-4.1213,896.9669],[28.186,-4.1192,804.4875],[28.1812,-4.123,801.3798],[28.1746,-4.1363,769.1133],[28.1851,-4.1573,706.5897],[28.1808,-4.1602,679.6942],[28.179,-4.1647,684.6145],[28.1796,-4.1673,681.7793],[28.1823,-4.1672,683.1691],[28.1822,-4.1686,687.9903],[28.1791,-4.1759,681.3481],[28.1755,-4.178,674.4564],[28.1742,-4.1809,676.3646],[28.1768,-4.1822,676.0788],[28.1783,-4.1855,681.8591],[28.1748,-4.1856,674.412],[28.1756,-4.1909,671.9407],[28.1697,-4.1972,674.5955],[28.1692,-4.2051,673.4104],[28.166,-4.2119,679.7111],[28.1622,-4.2134,667.3124],[28.1617,-4.2157,674.9457],[28.16,-4.2146,670.4308],[28.1605,-4.2131,665.3096],[28.158,-4.214,666.4709],[28.1512,-4.2209,670.9592],[28.1457,-4.223,674.2907],[28.1375,-4.2226,663.4471],[28.1361,-4.2238,657.8899],[28.1297,-4.2164,673.006],[28.1263,-4.2156,662.0544],[28.1214,-4.2261,668.5875],[28.1179,-4.227,673.5669],[28.1161,-4.2258,664.6929],[28.1148,-4.2195,672.6978],[28.1068,-4.2119,660.2317],[28.104,-4.2111,668.6708],[28.1001,-4.2128,662.916],[28.0936,-4.2086,660.8636],[28.0829,-4.1961,664.0667],[28.0719,-4.1963,683.145],[28.0743,-4.1895,659.5176],[28.0659,-4.1872,660.3239],[28.0611,-4.1835,660.4916],[28.0552,-4.1839,661.9886],[28.0494,-4.1806,663.4386],[28.0392,-4.19,664.7507],[28.0372,-4.1903,665.147],[28.031,-4.1856,661.3903],[28.0246,-4.1899,658.6113],[28.0178,-4.1909,657.3793],[28.0168,-4.1847,672.6068],[28.0215,-4.175,668.9445],[28.0163,-4.1712,662.2222],[28.0239,-4.1662,651.5719],[28.0244,-4.1631,651.6546],[28.0225,-4.1552,651.9155],[28.0166,-4.1458,656.9572],[28.0298,-4.1395,658.8965],[28.0336,-4.1339,650.2431],[28.0362,-4.1225,694.9024],[28.0034,-4.1189,686.683],[27.9831,-4.1114,700.9994],[27.9857,-4.109,696.3254],[27.9669,-4.105,704.7537],[27.9437,-4.1223,666.1081],[27.9435,-4.1213,666.1081],[27.9414,-4.1221,663.2521],[27.9408,-4.1258,675.4136],[27.9422,-4.1272,687.7369],[27.9366,-4.1259,672.5789],[27.9337,-4.128,688.6641],[27.9307,-4.1265,676.5217],[27.9251,-4.1274,664.9698],[27.924,-4.1256,672.069],[27.919,-4.1245,677.5744],[27.9155,-4.1251,674.9923],[27.9136,-4.1287,681.8134],[27.9106,-4.1241,665.0603],[27.9048,-4.1243,670.1573],[27.903199999999998,-4.1225,670.097],[27.8997,-4.1237,676.4534],[27.8988,-4.1221,670.758],[27.8951,-4.1257,682.4146],[27.8924,-4.1193,686.0599],[27.8876,-4.1193,671.8529],[27.8834,-4.1157,677.5497],[27.8781,-4.1151,682.8431],[27.8755,-4.1165,697.6592],[27.8742,-4.1132,690.3369],[27.8655,-4.1144,689.5251],[27.8604,-4.1116,695.2814],[27.8584,-4.1096,706.7053],[27.8586,-4.1063,693.1458],[27.8542,-4.1042,694.6486],[27.8543,-4.1016,686.7771],[27.8509,-4.099,691.5068],[27.8461,-4.0985,706.7994],[27.8472,-4.0971,699.9425],[27.8418,-4.0943,692.0034],[27.8415,-4.0919,697.324],[27.8385,-4.0923,697.7235],[27.8343,-4.0899,700.4431],[27.8336,-4.0791,753.8402],[27.8223,-4.0704,740.2667],[27.8233,-4.0587,772.2723],[27.8281,-4.0544,787.3142],[27.8271,-4.0442,795.2715],[27.8378,-4.0224,1128.98],[27.8183,-4.019,1022.549],[27.7986,-4.004,1321.1727],[27.7672,-4.004,889.924],[27.6364,-4.0219,848.835],[27.6185,-4.0204,1136.6938],[27.605,-4.0137,889.3773],[27.6023,-4.0181,807.3286],[27.594,-4.0239,783.7241],[27.5767,-4.0282,714.7721],[27.5684,-4.0259,742.4696],[27.5566,-4.0159,873.5937],[27.5526,-4.0075,946.2523],[27.5516,-3.9934,810.5725]]]]}}