{"type": "Feature","bbox": [18.2818,-0.2745,20.5767,1.4581],"geometry": {"type": "MultiPolygon","coordinates": [[[[19.4467,1.4581,340.9005],[19.4366,1.4549,342.1073],[19.4042,1.4394,343.9013],[19.3772,1.4197,337.4655],[19.3659,1.4143,333.9105],[19.297,1.3888,335.7497],[19.2702,1.3748,336.0554],[19.245,1.3654,335.887],[19.2129,1.3498,336.4638],[19.1507,1.3046,333.4642],[19.0944,1.2703,327.1634],[19.0636,1.2568,322.2676],[19.0468,1.2551,322.3237],[19.0337,1.2495,323.0285],[18.9992,1.2264,324.6171],[18.9776,1.2143,329.4662],[18.9434,1.2025,332.057],[18.9106,1.1775,330.784],[18.9009,1.1743,331.2225],[18.8902,1.1731,332.0542],[18.8846,1.1695,328.5311],[18.8522,1.1451,332.1513],[18.8304,1.1244,325.7565],[18.8233,1.1199,327.459],[18.7892,1.1103,326.3927],[18.7289,1.0505,325.9961],[18.695,1.0423,327.9443],[18.6849,1.0373,326.1348],[18.428,0.7872,321.0003],[18.4164,0.7776,324.6388],[18.3849,0.7565,304.5],[18.3821,0.7432,319.3627],[18.3697,0.7134,315.2773],[18.3681,0.7134,313.1021],[18.3647,0.7064,304.5],[18.3635,0.6935,304.5],[18.3609,0.6866,304.5],[18.3697,0.6348,303.5],[18.3657,0.6262,309.582],[18.3653,0.5858,302.5],[18.359,0.5581,301.5],[18.3561,0.5296,301.0],[18.3571,0.5236,301.0],[18.3558,0.516,301.0],[18.3596,0.5078,302.3521],[18.358,0.503,304.5813],[18.3595,0.4947,320.9777],[18.3564,0.4869,320.8654],[18.3562,0.4823,328.6812],[18.3621,0.4674,320.6902],[18.3629,0.4603,317.5859],[18.3616,0.4538,314.235],[18.3551,0.4443,314.5181],[18.3527,0.4314,315.4814],[18.3453,0.4244,311.7276],[18.3417,0.4154,320.819],[18.3318,0.4071,300.5],[18.3312,0.3969,300.5],[18.3279,0.3893,312.4583],[18.3223,0.3837,312.4468],[18.3203,0.3791,309.8824],[18.3177,0.3619,310.7078],[18.3183,0.3522,300.0],[18.3235,0.3378,305.3176],[18.3136,0.291,300.0],[18.3047,0.2677,313.2233],[18.3029,0.2516,315.7775],[18.3051,0.237,308.3898],[18.3009,0.2277,318.092],[18.2983,0.2102,318.4369],[18.2923,0.2012,319.6196],[18.2827,0.1455,317.1514],[18.284,0.114,305.1879],[18.2863,0.1074,303.5101],[18.2834,0.1069,300.7753],[18.2818,0.103,311.1681],[18.2854,0.0931,304.0715],[18.2893,0.0877,301.0221],[18.2891,0.0693,303.8092],[18.3002,0.0765,298.5],[18.3246,0.072,306.4748],[18.3499,0.0557,298.5],[18.3627,0.0438,298.5],[18.3699,0.013,298.5],[18.3708,0.0057,306.3465],[18.3695,-0.0039,305.7738],[18.3935,-0.0267,306.6597],[18.3947,-0.036,313.5185],[18.4216,-0.0225,317.1604],[18.4515,-0.0279,321.749],[18.4565,-0.0303,319.5299],[18.4614,-0.0391,318.4989],[18.4662,-0.0429,317.1336],[18.473,-0.044,316.2553],[18.4823,-0.0293,323.061],[18.4866,-0.0283,318.755],[18.5121,-0.0495,318.0672],[18.5386,-0.0581,318.6791],[18.5579,-0.0715,306.5299],[18.5589,-0.0627,322.9466],[18.5634,-0.0515,319.108],[18.5716,-0.0434,317.0687],[18.5882,-0.0332,321.0677],[18.589,-0.0235,319.3056],[18.5919,-0.0185,317.8402],[18.5924,-0.0125,317.5893],[18.9232,-0.1199,330.1495],[18.9533,-0.1317,330.7119],[18.9624,-0.1376,330.6309],[18.9983,-0.1464,330.5381],[19.0643,-0.1689,329.3744],[19.0728,-0.1705,332.4118],[19.0655,-0.2049,328.7101],[19.0725,-0.2178,323.7384],[19.0761,-0.215,323.1262],[19.0823,-0.2148,321.3974],[19.0877,-0.2172,321.8998],[19.1005,-0.2285,324.699],[19.1221,-0.2377,316.9735],[19.1283,-0.2386,322.7139],[19.1373,-0.2356,326.33],[19.1397,-0.2295,329.3307],[19.1399,-0.2234,331.9432],[19.1373,-0.2173,330.3789],[19.1266,-0.2092,324.5746],[19.1232,-0.2011,333.1256],[19.1221,-0.1924,329.8263],[19.1238,-0.1855,328.876],[19.1277,-0.1796,328.4524],[19.1332,-0.1766,327.2806],[19.1563,-0.1717,340.915],[19.1823,-0.1703,337.003],[19.1859,-0.1729,348.1003],[19.2003,-0.1714,331.738],[19.2136,-0.1678,340.9472],[19.2192,-0.1692,346.6125],[19.2286,-0.1676,324.0877],[19.2387,-0.1636,320.3535],[19.2531,-0.1616,324.2569],[19.2707,-0.1539,331.9456],[19.2899,-0.1536,332.6265],[19.2958,-0.1516,331.566],[19.3118,-0.1411,332.8142],[19.334,-0.1312,331.1959],[19.3404,-0.1301,334.3691],[19.3454,-0.1335,334.0616],[19.355,-0.1341,324.5816],[19.3844,-0.1324,324.6525],[19.4035,-0.1128,332.5056],[19.4224,-0.1097,331.6513],[19.4345,-0.1105,327.7159],[19.4435,-0.1029,331.6605],[19.4467,-0.1032,331.0246],[19.4619,-0.1194,334.5896],[19.465,-0.1284,323.2155],[19.4736,-0.1309,326.8836],[19.4764,-0.1302,326.8345],[19.4849,-0.1147,335.4575],[19.4913,-0.1095,336.7044],[19.4973,-0.1097,333.9572],[19.5095,-0.0949,335.3626],[19.5158,-0.0938,337.8271],[19.5217,-0.0965,333.7438],[19.5301,-0.115,332.9973],[19.5416,-0.1339,333.056],[19.5475,-0.1397,332.2987],[19.5596,-0.1439,330.5691],[19.5643,-0.1513,329.315],[19.5716,-0.1561,327.3499],[19.5798,-0.1589,329.9466],[19.5935,-0.1588,317.4133],[19.5987,-0.1547,325.7754],[19.6264,-0.1468,332.2877],[19.6321,-0.148,325.7435],[19.635,-0.1512,325.2487],[19.6446,-0.1529,322.6024],[19.6509,-0.1635,322.9019],[19.6578,-0.1675,322.9048],[19.6623,-0.1737,323.3397],[19.6664,-0.1737,323.4391],[19.673,-0.1705,324.6881],[19.6813,-0.155,326.8008],[19.6825,-0.1495,325.8226],[19.6764,-0.1347,325.2801],[19.6772,-0.1311,325.4922],[19.6808,-0.1304,326.1468],[19.6878,-0.1417,327.0569],[19.6928,-0.1463,328.4306],[19.6976,-0.1482,329.5186],[19.7168,-0.1433,328.7479],[19.7241,-0.1435,329.5956],[19.7275,-0.1459,328.0099],[19.7329,-0.1558,326.5962],[19.7454,-0.168,325.8054],[19.76,-0.1717,331.9552],[19.7787,-0.1726,328.6405],[19.823,-0.1666,330.3433],[19.8373,-0.1375,337.9037],[19.833,-0.1362,340.8109],[19.8282,-0.1391,335.4013],[19.8252,-0.1361,342.8214],[19.8245,-0.1311,347.7621],[19.8273,-0.1251,346.693],[19.8358,-0.1203,341.5853],[19.8497,-0.1225,337.8597],[19.864,-0.0975,340.5716],[19.8662,-0.096,340.0332],[19.8907,-0.0911,336.6632],[19.897,-0.0938,348.0873],[19.9041,-0.0932,351.1809],[19.91,-0.0967,350.7651],[19.9176,-0.0979,337.1736],[19.9182,-0.107,332.9669],[19.9227,-0.1098,331.8073],[19.9321,-0.1092,333.0811],[19.9422,-0.1019,327.0534],[19.9472,-0.1012,336.2476],[19.9545,-0.105,333.773],[19.9636,-0.1048,344.6484],[19.9697,-0.1074,343.9981],[19.9878,-0.1075,336.0748],[19.9958,-0.11,333.0674],[20.0026,-0.1167,349.7997],[20.0073,-0.1246,347.3932],[20.0113,-0.14,343.1052],[20.0145,-0.146,339.6582],[20.0202,-0.1504,341.9131],[20.025,-0.1506,341.2025],[20.0394,-0.1468,340.9852],[20.0501,-0.1496,342.5764],[20.0675,-0.1685,344.6869],[20.0746,-0.1723,342.7382],[20.0833,-0.1714,346.1343],[20.0908,-0.1677,350.5128],[20.0941,-0.1538,346.7244],[20.0904,-0.1494,344.9728],[20.085,-0.1473,348.6562],[20.0802,-0.1427,345.5729],[20.0788,-0.1459,344.0366],[20.0729,-0.1463,345.3534],[20.0706,-0.1428,346.175],[20.0702,-0.1382,353.5747],[20.0728,-0.1323,347.5908],[20.0787,-0.1273,357.5953],[20.0865,-0.1253,366.1551],[20.1173,-0.1224,373.7009],[20.1259,-0.1236,366.0936],[20.1387,-0.1182,352.3033],[20.1442,-0.118,352.5678],[20.1638,-0.1243,354.3091],[20.1734,-0.1258,360.6655],[20.1887,-0.1199,358.5351],[20.194,-0.1199,352.7894],[20.1989,-0.1227,352.8242],[20.2082,-0.1344,355.234],[20.2091,-0.1409,348.3339],[20.2068,-0.1558,346.3913],[20.1923,-0.1814,353.7561],[20.1897,-0.1913,344.2493],[20.1922,-0.2016,331.9128],[20.196,-0.2085,330.308],[20.2064,-0.2198,330.5621],[20.2135,-0.2217,335.6705],[20.2198,-0.2322,331.3276],[20.2199,-0.2396,333.1776],[20.2248,-0.2445,336.3109],[20.2229,-0.2505,333.5154],[20.2267,-0.2677,330.2999],[20.2299,-0.2712,330.3007],[20.2358,-0.2735,330.806],[20.2443,-0.2745,329.6978],[20.2465,-0.2731,329.463],[20.2505,-0.2683,329.8202],[20.2535,-0.2587,333.2672],[20.2572,-0.2527,342.3354],[20.2686,-0.2445,333.7903],[20.2727,-0.245,339.1016],[20.2882,-0.2584,343.7954],[20.2948,-0.2603,333.254],[20.3043,-0.2594,335.9443],[20.3108,-0.2546,334.9312],[20.3154,-0.2471,333.426],[20.3218,-0.2411,331.1938],[20.3259,-0.2402,330.6744],[20.3307,-0.2419,330.2589],[20.3389,-0.249,329.5256],[20.3437,-0.2424,329.6253],[20.3388,-0.2244,329.7039],[20.3355,-0.1944,353.136],[20.339,-0.1629,348.7756],[20.3469,-0.1373,354.2717],[20.3746,-0.1193,349.4371],[20.3806,-0.1122,348.9669],[20.387,-0.1079,347.0961],[20.3996,-0.1029,339.9985],[20.4135,-0.0933,340.6036],[20.4247,-0.0897,338.6954],[20.4369,-0.0778,351.3485],[20.4476,-0.0724,347.3636],[20.4556,-0.0706,343.5079],[20.4579,-0.0749,347.1887],[20.4734,-0.0711,343.6135],[20.5275,-0.0627,349.7999],[20.549,-0.0635,350.7067],[20.5543,-0.0519,350.8644],[20.5764,-0.0187,353.7394],[20.5666,-0.0041,371.4759],[20.562,-0.0016,376.2872],[20.5279,0.0038,372.1366],[20.4722,0.0063,370.6319],[20.4682,0.0092,363.7558],[20.4648,0.0143,351.6594],[20.4637,0.0302,367.1591],[20.4654,0.0351,352.1799],[20.4757,0.0456,372.0432],[20.5372,0.0853,372.6913],[20.564,0.0992,367.0334],[20.5701,0.1057,378.6544],[20.5761,0.1173,397.5278],[20.5767,0.1317,386.5687],[20.5747,0.1381,377.7478],[20.571,0.1425,383.7382],[20.5633,0.145,381.7919],[20.5483,0.1542,376.8109],[20.531,0.1559,373.8214],[20.5173,0.1606,376.5246],[20.5069,0.1665,374.0699],[20.4952,0.176,365.2023],[20.4685,0.2017,367.974],[20.4471,0.242,366.3596],[20.4306,0.2503,363.2056],[20.4265,0.2544,369.3884],[20.4225,0.2629,372.9261],[20.3985,0.2929,374.9294],[20.3919,0.2956,382.9843],[20.379,0.3054,371.9244],[20.379,0.3082,372.235],[20.3762,0.3095,352.0531],[20.3725,0.3161,371.9127],[20.3619,0.3241,379.2764],[20.3578,0.33,374.3979],[20.3535,0.3479,372.1114],[20.3399,0.3595,342.9605],[20.2951,0.3751,344.3822],[20.2903,0.3748,339.36],[20.2837,0.3679,344.2212],[20.278,0.3678,341.0277],[20.2735,0.3643,345.3907],[20.265,0.3659,344.5892],[20.2607,0.3631,343.5527],[20.2575,0.3635,343.53],[20.2525,0.3674,335.6527],[20.25,0.3671,337.7584],[20.2457,0.3627,342.5591],[20.2367,0.3681,343.7349],[20.2278,0.3696,336.9908],[20.2196,0.3643,337.2093],[20.2117,0.3642,341.2968],[20.2082,0.3665,339.63],[20.2018,0.3659,339.1893],[20.19,0.3613,343.1049],[20.1813,0.3621,343.3623],[20.1777,0.3641,339.4195],[20.1658,0.3642,341.925],[20.1598,0.3665,342.0505],[20.1469,0.3636,340.9032],[20.1363,0.3683,337.4203],[20.1224,0.3642,342.9677],[20.1179,0.3601,340.1883],[20.1077,0.3595,344.0606],[20.104,0.3634,335.6476],[20.0902,0.3658,341.3496],[20.0827,0.3694,340.6584],[20.074,0.3656,338.6209],[20.0741,0.364,339.3134],[20.0679,0.3632,341.059],[20.0635,0.3678,341.3011],[20.0562,0.3684,336.3757],[20.0518,0.3713,340.629],[20.0443,0.3701,340.496],[20.0389,0.3662,337.9575],[20.0296,0.3645,338.4685],[20.0233,0.3581,342.1833],[20.0166,0.3563,342.9399],[20.0116,0.3567,343.8484],[20.0054,0.3645,339.5674],[19.9944,0.3636,339.4862],[19.9889,0.3675,337.4839],[19.9809,0.3665,327.1212],[19.9744,0.3623,332.8558],[19.9577,0.3617,336.6671],[19.948,0.354,324.5325],[19.9407,0.3523,336.5043],[19.9335,0.3614,333.8216],[19.9169,0.3601,341.8531],[19.9113,0.369,335.7319],[19.893,0.3707,336.3261],[19.8892,0.3672,336.7326],[19.8823,0.3701,337.2692],[19.8807,0.3682,337.6505],[19.8771,0.3684,337.0128],[19.8737,0.3656,335.6147],[19.8707,0.3654,336.197],[19.8638,0.369,333.665],[19.8565,0.3698,334.1418],[19.8509,0.3652,353.8013],[19.8493,0.3615,338.1513],[19.8411,0.3626,340.2209],[19.8374,0.3696,339.8932],[19.8184,0.3711,351.3031],[19.8177,0.3743,345.1762],[19.8106,0.3802,337.1629],[19.806,0.3799,337.038],[19.803,0.3847,336.6183],[19.7977,0.386,337.5337],[19.7945,0.3894,335.941],[19.7854,0.3883,334.9395],[19.779,0.3909,336.0292],[19.7715,0.3873,332.9672],[19.768,0.3928,333.0216],[19.7639,0.3909,332.7893],[19.7593,0.3969,333.2468],[19.7507,0.392,335.1793],[19.7427,0.3926,332.5579],[19.7378,0.398,331.4367],[19.733,0.3973,331.3827],[19.7246,0.3926,333.3527],[19.7182,0.3999,332.1525],[19.7127,0.4026,333.6827],[19.7085,0.4069,333.8719],[19.7021,0.4055,334.3223],[19.698,0.4125,333.46],[19.6927,0.413,335.8547],[19.6877,0.4104,342.025],[19.6809,0.4128,336.2293],[19.6765,0.4126,336.0771],[19.667,0.4079,337.7766],[19.6617,0.4071,337.4177],[19.6555,0.4119,330.4869],[19.6526,0.4116,329.2608],[19.6499,0.4088,333.5295],[19.6462,0.4115,333.6027],[19.6444,0.4058,333.6505],[19.6428,0.4055,328.94],[19.6382,0.4092,331.0046],[19.6243,0.4092,329.6851],[19.6188,0.4138,332.5011],[19.6113,0.4093,330.0132],[19.6033,0.4125,331.4634],[19.5987,0.4097,333.2849],[19.5932,0.413,334.4937],[19.5861,0.4118,335.0531],[19.5906,0.4199,335.799],[19.5961,0.4416,328.3381],[19.6042,0.4497,331.9845],[19.6085,0.4603,330.6815],[19.6102,0.47,330.1292],[19.6085,0.4794,343.9352],[19.6013,0.4929,339.2635],[19.6018,0.5094,353.239],[19.595,0.5245,343.5054],[19.5947,0.5326,359.2408],[19.5891,0.5419,360.3106],[19.5883,0.5571,347.3959],[19.5836,0.5662,345.1301],[19.5845,0.5694,345.2582],[19.589,0.5727,365.1097],[19.5942,0.5833,345.4855],[19.5987,0.6105,342.127],[19.5956,0.6335,364.1476],[19.597,0.6357,363.3912],[19.5969,0.6437,349.8343],[19.6049,0.6531,370.5324],[19.6039,0.6559,363.7444],[19.6009,0.6575,362.0251],[19.5775,0.6567,370.7867],[19.5592,0.6583,349.4258],[19.5477,0.6629,374.2746],[19.5191,0.6785,357.2237],[19.5012,0.6781,360.6495],[19.4939,0.6809,376.0733],[19.4896,0.6978,369.5619],[19.488,0.7201,376.2586],[19.4826,0.7476,349.18],[19.478,0.7542,346.3945],[19.4768,0.7641,350.7032],[19.4778,0.7758,347.8089],[19.4737,0.7974,349.729],[19.4664,0.8187,343.7828],[19.4578,0.8283,356.3188],[19.4536,0.8432,347.5995],[19.4346,0.8682,343.2959],[19.4166,0.8841,342.6782],[19.4181,0.8922,340.3272],[19.4146,0.8991,340.5444],[19.4174,0.9189,344.0007],[19.4223,0.9233,343.3926],[19.426,0.9399,343.3866],[19.4242,0.9433,343.0558],[19.4199,0.9396,341.8065],[19.414,0.9374,339.4194],[19.3911,0.9367,343.3548],[19.3785,0.924,355.3177],[19.3631,0.9139,359.9785],[19.354,0.9101,367.4482],[19.3472,0.9041,354.4641],[19.3418,0.891,361.0697],[19.3415,0.9011,366.1605],[19.3528,0.9285,347.6291],[19.3582,0.95,352.6663],[19.3582,0.9667,354.6142],[19.3556,0.9831,340.9476],[19.3485,0.9935,341.9487],[19.3448,0.9952,345.0618],[19.3215,0.99,348.0817],[19.315,0.9906,347.6881],[19.31,0.993,348.0235],[19.3066,0.9974,349.1377],[19.3052,1.0162,352.1479],[19.3103,1.052,346.7246],[19.3101,1.0762,347.3015],[19.3043,1.0843,345.1194],[19.2848,1.0984,340.8967],[19.2831,1.1033,341.515],[19.2839,1.1093,339.8538],[19.2915,1.1164,339.5306],[19.2867,1.1168,338.5295],[19.2829,1.1216,338.2235],[19.2713,1.1265,328.407],[19.2726,1.1288,328.9529],[19.2875,1.1393,341.3996],[19.2882,1.1423,339.0653],[19.2842,1.1558,332.8956],[19.2905,1.1656,336.4409],[19.2951,1.1783,331.3838],[19.3026,1.1818,338.933],[19.3096,1.189,338.9096],[19.3142,1.1909,335.4757],[19.3238,1.1908,335.9952],[19.3364,1.1858,335.6162],[19.343,1.1854,334.4557],[19.3567,1.1913,336.4189],[19.3643,1.2002,337.158],[19.3706,1.2131,335.6799],[19.3796,1.224,338.2725],[19.3878,1.2289,337.5739],[19.3955,1.2361,336.1609],[19.4037,1.2367,337.9857],[19.4214,1.2431,338.3771],[19.4351,1.2501,337.7023],[19.4428,1.2516,338.2324],[19.4473,1.2631,340.4195],[19.4456,1.2846,334.5811],[19.4462,1.3773,340.6432],[19.4447,1.4004,340.6421],[19.4466,1.4087,340.5943],[19.4467,1.4581,340.9005]]]]}
,"properties": {"GID_2": "COD.2.4_1","GID_0": "COD","country": "DemocraticRepublicoftheCongo","GID_1": "COD.2_1","province": "Équateur","NL_NAME_1": "NA","county": "Bolomba","VARNAME_2": "NA","NL_NAME_2": "NA","TYPE_2": "Territoire","ENGTYPE_2": "Territory","CC_2": "NA","HASC_2": "NA","name": "Bolomba.county","area_km2": 23751.27,"hist_schema_id": "Elevation0-9000","hist_area_km2": {"300": 444.3,"325": 10027.67,"350": 9933.99,"375": 3280.45,"400": 64.86}}}