{"type":"Feature","properties":{"GID_1":"COD.21_1","GID_0":"COD","country":"DemocraticRepublicoftheCongo","province":"Sankuru","VARNAME_1":"NA","NL_NAME_1":"NA","TYPE_1":"Province","ENGTYPE_1":"Province","CC_1":"NA","HASC_1":"CD.SN","ISO_1":"CD-SA","name":"Sankuru.province"},
"geometry":{"type": "MultiPolygon","coordinates": [[[[23.7562,-5.6217,478.7984],[23.7584,-5.625,507.4828],[23.7457,-5.6341,585.5327],[23.7507,-5.6426,509.1006],[23.7509,-5.646,445.0],[23.748,-5.6499,468.7701],[23.7447,-5.6509,490.0949],[23.7305,-5.6628,497.0836],[23.7247,-5.6757,448.0],[23.7257,-5.6812,470.284],[23.7323,-5.6851,462.4074],[23.7378,-5.6932,536.7142],[23.7337,-5.7047,453.3369],[23.735,-5.7139,473.875],[23.7261,-5.7392,455.1147],[23.7203,-5.7504,466.9043],[23.712,-5.7527,458.0071],[23.7104,-5.7585,493.7036],[23.712,-5.7635,462.521],[23.7187,-5.7666,472.5842],[23.721,-5.764,478.5145],[23.7366,-5.7631,511.0735],[23.7412,-5.7698,487.9815],[23.7506,-5.7746,508.8902],[23.7598,-5.7748,536.7335],[23.7621,-5.7788,503.5819],[23.7655,-5.7797,545.7189],[23.7715,-5.77,611.4758],[23.7805,-5.7611,654.191],[23.7858,-5.762,627.7737],[23.7968,-5.7519,677.1017],[23.8069,-5.7482,669.0291],[23.8124,-5.7443,689.2327],[23.8237,-5.7418,669.2296],[23.8329,-5.742,668.244],[23.8434,-5.7483,694.329],[23.8482,-5.7484,725.4557],[23.8441,-5.7534,664.5376],[23.8434,-5.7592,696.5798],[23.84,-5.7599,716.0762],[23.837,-5.7631,718.7506],[23.8366,-5.7707,717.7192],[23.8336,-5.7718,690.0539],[23.8288,-5.779,671.0909],[23.8256,-5.793,700.1387],[23.8274,-5.7996,710.1883],[23.8366,-5.796,717.7188],[23.8376,-5.7925,680.0317],[23.8477,-5.7982,687.0226],[23.8571,-5.8007,674.5397],[23.873,-5.801,612.9198],[23.8806,-5.8044,633.6979],[23.8918,-5.8194,630.9627],[23.8996,-5.8231,615.1364],[23.901,-5.8456,569.7719],[23.8996,-5.8488,597.5833],[23.9038,-5.8495,597.117],[23.9063,-5.8456,594.2495],[23.9116,-5.8491,591.1498],[23.9153,-5.8442,641.5875],[23.93,-5.8408,601.3893],[23.9359,-5.8344,595.7067],[23.9357,-5.8307,609.1583],[23.9396,-5.8266,606.2228],[23.9451,-5.827,603.9053],[23.947,-5.8194,583.2643],[23.9575,-5.816,635.721],[23.961,-5.8167,630.5227],[23.9644,-5.8197,595.4482],[23.9715,-5.8213,607.8152],[23.975,-5.8252,631.4426],[23.9865,-5.8287,631.8396],[23.9929,-5.8257,645.5873],[23.9982,-5.8259,631.2294],[24.0076,-5.8315,616.2371],[24.0113,-5.8273,622.9575],[24.013,-5.8168,620.0642],[24.0242,-5.8121,639.9628],[24.0499,-5.8144,678.0656],[24.0553,-5.8101,690.4911],[24.0622,-5.7996,678.5319],[24.0666,-5.7975,678.9437],[24.0875,-5.7991,722.3884],[24.0951,-5.7982,729.973],[24.1165,-5.7916,737.8],[24.1367,-5.7894,736.4189],[24.1574,-5.7911,738.2582],[24.179,-5.7994,722.865],[24.1877,-5.7987,710.6406],[24.1903,-5.787,726.1628],[24.1997,-5.7764,733.2642],[24.199,-5.773,759.9174],[24.1923,-5.767,731.5035],[24.19,-5.7608,715.9429],[24.1951,-5.75,722.8043],[24.1942,-5.7483,733.4653],[24.1836,-5.7456,682.9441],[24.1802,-5.7279,712.9125],[24.1763,-5.7263,746.6425],[24.1753,-5.7214,682.1802],[24.1721,-5.718,665.1031],[24.1747,-5.7111,728.4576],[24.1737,-5.7056,708.7427],[24.171,-5.7016,668.8894],[24.1731,-5.6977,662.2388],[24.1708,-5.6927,658.5117],[24.1731,-5.6876,685.53],[24.1705,-5.6766,637.041],[24.1724,-5.6692,670.2118],[24.1703,-5.666,661.2364],[24.1703,-5.6604,634.5858],[24.1501,-5.6469,713.8594],[24.1461,-5.6387,715.8386],[24.1248,-5.613,719.9568],[24.1147,-5.6104,694.3467],[24.1028,-5.6045,690.6245],[24.0714,-5.5958,692.494],[24.066,-5.5919,690.5393],[24.0624,-5.5829,636.421],[24.0606,-5.5566,611.047],[24.0446,-5.4666,649.6407],[24.045,-5.4245,615.6259],[24.0512,-5.4072,618.2424],[24.057,-5.3975,637.1725],[24.0648,-5.39,642.2811],[24.0664,-5.3852,640.1887],[24.0734,-5.3965,653.027],[24.0777,-5.416,620.5798],[24.0805,-5.4163,639.3239],[24.086,-5.4103,632.1696],[24.089,-5.4098,596.8917],[24.0909,-5.4181,644.0886],[24.1026,-5.4194,646.3394],[24.1084,-5.4222,651.3572],[24.1185,-5.4111,613.385],[24.1207,-5.3956,625.3956],[24.1258,-5.3856,582.2472],[24.1263,-5.3716,527.2303],[24.1492,-5.3811,639.5201],[24.1637,-5.3717,610.4527],[24.1828,-5.3777,577.5903],[24.2381,-5.389,638.5479],[24.2851,-5.4081,586.3219],[24.3053,-5.4105,666.0549],[24.3391,-5.404,656.7635],[24.3701,-5.39,653.306],[24.3828,-5.3816,549.7288],[24.3909,-5.3789,586.96],[24.4116,-5.3794,628.1036],[24.4164,-5.3777,642.1503],[24.4216,-5.3717,607.2542],[24.4238,-5.3514,647.3313],[24.4308,-5.3436,625.3203],[24.4362,-5.3419,625.5076],[24.44,-5.3457,602.1829],[24.4554,-5.3781,675.0762],[24.4604,-5.3819,656.8114],[24.479,-5.3907,734.4137],[24.4895,-5.3928,724.3275],[24.4995,-5.3928,731.508],[24.5075,-5.3884,751.8396],[24.5185,-5.3816,738.3043],[24.5476,-5.3516,677.0326],[24.5564,-5.3368,657.1703],[24.5573,-5.3291,685.3414],[24.5536,-5.301,711.8193],[24.546,-5.2734,682.9828],[24.529,-5.2244,636.6622],[24.5279,-5.2117,625.2441],[24.5182,-5.185,595.2845],[24.5159,-5.1684,576.755],[24.518,-5.165,630.1052],[24.5224,-5.164,646.42],[24.532,-5.165,684.4209],[24.54,-5.1634,674.2987],[24.5543,-5.1652,676.0979],[24.5593,-5.1721,658.0219],[24.5611,-5.1723,675.2876],[24.5597,-5.168,681.5468],[24.5635,-5.1508,685.7783],[24.5789,-5.1202,643.2413],[24.5751,-5.0955,625.6831],[24.5847,-5.0776,637.0712],[24.5832,-5.0643,629.8906],[24.5773,-5.0552,608.2892],[24.5754,-5.0447,665.0966],[24.58,-5.0396,638.7404],[24.5891,-5.0382999999999996,620.9993],[24.6137,-5.03,564.6964],[24.6468,-5.0161,610.5089],[24.6594,-5.0103,634.1152],[24.6661,-5.0043,535.7054],[24.675,-5.0002,535.4537],[24.713,-5.0,631.8691],[24.7178,-4.9967,660.5919],[24.7568,-4.9356,623.5502],[24.7644,-4.9281,655.9839],[24.7713,-4.9273,670.1115],[24.7958,-4.9369,660.247],[24.8055,-4.9365,671.395],[24.8144,-4.9392,671.8084],[24.8333,-4.9524,584.5781],[24.8404,-4.9556,606.8673],[24.8443,-4.9549,593.8818],[24.8483,-4.9478,604.6295],[24.8402,-4.9147,638.8018],[24.8265,-4.8943,684.8362],[24.8221,-4.8847,619.553],[24.8412,-4.8612,581.7913],[24.8466,-4.8588,620.9832],[24.8529,-4.8587,623.9545],[24.8953,-4.8666,605.2023],[24.9205,-4.8657,559.5958],[24.9336,-4.8608,653.6192],[24.9464,-4.8473,634.5703],[24.9536,-4.8432,597.0889],[24.9837,-4.8353,505.519],[24.9775,-4.8263,502.0085],[24.9764,-4.8173,508.9115],[24.9633,-4.8063,504.6428],[24.9603,-4.7992,506.546],[24.9491,-4.7992,504.2393],[24.9415,-4.793,506.0924],[24.9325,-4.7902,500.0668],[24.9296,-4.7868,503.1878],[24.9266,-4.7725,505.8555],[24.9236,-4.7688,502.7084],[24.9096,-4.7658,498.687],[24.9018,-4.7564,500.0689],[24.8953,-4.7444,500.5706],[24.8963,-4.7368,499.7232],[24.8901,-4.729,499.6955],[24.8882,-4.724,500.8968],[24.8898,-4.7194,505.4141],[24.8878,-4.7154,516.2423],[24.8804,-4.7145,497.7993],[24.8731,-4.7026,506.65],[24.8639,-4.6943,507.636],[24.8653,-4.6911,505.4077],[24.8735,-4.6862,514.5465],[24.8696,-4.6812,496.5],[24.8676,-4.6726,503.3076],[24.8593,-4.6655,499.2234],[24.8579,-4.6607,515.6025],[24.8597,-4.6542,500.8578],[24.8595,-4.6455,498.482],[24.8639,-4.6425,502.5116],[24.859,-4.6338,500.2446],[24.8639,-4.6271,499.4441],[24.868,-4.616,510.4775],[24.8723,-4.6128,498.5094],[24.8735,-4.6101,496.2994],[24.871,-4.6052,501.5062],[24.8721,-4.6027,506.6216],[24.8783,-4.6013,497.4446],[24.8801,-4.597,495.5],[24.8788,-4.5896,496.2203],[24.8831,-4.5871,495.0],[24.89,-4.5866,498.0406],[24.8973,-4.5838,497.8653],[24.9021,-4.5762,508.4616],[24.9058,-4.5652,504.4174],[24.9086,-4.5647,510.5089],[24.9122,-4.5673,506.7985],[24.9168,-4.567,507.7525],[24.9175,-4.5682,510.1232],[24.9205,-4.5615,505.3202],[24.9163,-4.5495,504.3838],[24.9177,-4.5463,512.6343],[24.9274,-4.5468,500.4538],[24.928,-4.5415,494.0],[24.9221,-4.5334,506.3419],[24.9274,-4.5277,495.5228],[24.9292,-4.5196,529.1607],[24.9537,-4.5019,506.5847],[24.9613,-4.4948,509.8763],[24.9652,-4.4821,510.8419],[24.9679,-4.4812,504.838],[24.9725,-4.483,513.1073],[24.9782,-4.472,497.9521],[24.9879,-4.4731,492.5],[24.9938,-4.4706,504.0469],[25.0,-4.466,502.4965],[25.0021,-4.4607,494.4893],[24.9984,-4.4536,504.7714],[24.9991,-4.4504,492.0],[25.005,-4.4478,499.6684],[25.0076,-4.4425,503.3613],[24.9924,-4.4283,495.4721],[24.9915,-4.4255,488.0],[24.9952,-4.4186,500.569],[24.9947,-4.4158,488.1536],[24.9791,-4.4025,486.6584],[24.9736,-4.3931,487.1408],[24.9729,-4.3855,490.3117],[24.9917,-4.3682,482.1214],[24.9937,-4.3597,482.1512],[24.991,-4.3351,483.438],[24.9946,-4.3118,492.2863],[25.0175,-4.2819,486.9879],[25.0205,-4.2732,486.6133],[25.0191,-4.2702,487.2827],[25.0132,-4.266,496.8268],[25.0067,-4.2518,493.0907],[25.009,-4.2442,498.8441],[25.0015,-4.2308,508.6231],[25.0053,-4.2226,500.5095],[24.9989,-4.2134,507.5721],[25.0014,-4.2092,486.5792],[25.0069,-4.2051,500.4074],[25.0097,-4.1975,494.2075],[25.0021,-4.183,485.8924],[25.0131,-4.1765,480.8236],[25.0159,-4.1724,483.2894],[25.0131,-4.169,479.5061],[24.989,-4.16,507.3872],[24.9863,-4.1572,507.041],[24.984,-4.1492,512.0128],[24.9849,-4.1455,515.2263],[24.9954,-4.1381,484.1203],[25.0,-4.1324,483.03],[25.0016,-4.1252,488.8589],[25.0007,-4.119,497.308],[24.9979,-4.1149,483.4542],[24.9924,-4.111,496.4177],[24.9768,-4.1084,513.9707],[24.9729,-4.1015,504.1145],[24.9839,-4.0707,487.8635],[24.9839,-4.065,528.8043],[24.9796,-4.0558,486.999],[24.9816,-4.0507,481.4454],[24.98,-4.0479,485.144],[24.9713,-4.0461,485.9757],[24.9651,-4.0346,483.8954],[24.9624,-4.033,484.1444],[24.952,-4.0321,481.0496],[24.9493,-4.03,475.294],[24.9468,-4.0302,502.1028],[24.9454,-4.0323,490.0979],[24.9397,-4.0445,477.4072],[24.9328,-4.0447,489.8611],[24.9268,-4.047,515.3378],[24.9239,-4.0468,503.9257],[24.9209,-4.044,514.64],[24.9163,-4.0229,476.6767],[24.9083,-4.0201,481.5352],[24.905,-4.0137,479.5291],[24.8975,-4.0121,518.7576],[24.8956,-4.0091,517.8928],[24.8954,-4.0022,529.8345],[24.8995,-3.986,484.6437],[24.9059,-3.9798,472.4233],[24.9062,-3.9769,477.9214],[24.9009,-3.9699,479.1661],[24.889,-3.9683,488.636],[24.8874,-3.9667,486.4661],[24.8881,-3.9596,487.2209],[24.8715,-3.9439,473.6258],[24.858,-3.9449,467.827],[24.8539,-3.9396,495.8121],[24.853,-3.9347,477.3593],[24.8585,-3.9177,476.718],[24.8543,-3.9067,471.989],[24.8511,-3.9051,469.5673],[24.8477,-3.9078,484.542],[24.8436,-3.9186,482.0382],[24.8367,-3.9196,482.1896],[24.8303,-3.9166,476.2233],[24.8239,-3.9094,470.442],[24.8177,-3.8899,482.1491],[24.8133,-3.8839,472.41],[24.803,-3.8763,471.6263],[24.8009,-3.8694,474.0224],[24.803,-3.8604,469.9027],[24.8078,-3.8574,471.2314],[24.8121,-3.8579,464.5],[24.8204,-3.8625,472.2253],[24.8222,-3.859,468.5795],[24.8197,-3.8542,476.0205],[24.7961,-3.8446,471.585],[24.7821,-3.8432,464.5],[24.767,-3.8381,468.0742],[24.7663,-3.8356,468.4131],[24.7794,-3.8337,472.7334],[24.7814,-3.8305,468.232],[24.7794,-3.8273,469.4778],[24.7734,-3.8252,468.128],[24.7645,-3.8271,466.5926],[24.7613,-3.8257,468.259],[24.7649,-3.8183,464.7288],[24.764,-3.8146,466.5602],[24.7615,-3.8146,467.3734],[24.759,-3.8174,470.2092],[24.7555,-3.8183,468.1377],[24.7484,-3.8096,473.5686],[24.7431,-3.8107,470.6501],[24.7413,-3.8057,472.0319],[24.7422,-3.7997,467.5371],[24.7337,-3.7907,467.4565],[24.7305,-3.7808,482.1499],[24.7316,-3.7747,500.4753],[24.7381,-3.7758,469.4933],[24.7406,-3.7815,471.9038],[24.7427,-3.7822,474.4081],[24.7473,-3.776,477.04],[24.753,-3.7594,473.4064],[24.7621,-3.755,469.6181],[24.7651,-3.7468,466.8455],[24.7635,-3.7447,466.7106],[24.7527,-3.7435,464.1698],[24.7516,-3.741,473.844],[24.7546,-3.7362,474.4236],[24.758,-3.7343,468.0924],[24.7612,-3.7343,467.4171],[24.7663,-3.7373,467.0327],[24.7676,-3.7233,474.0737],[24.7761,-3.7152,465.9529],[24.778199999999998,-3.7081,471.9903],[24.7814,-3.707,469.7107],[24.7972,-3.7109,474.6971],[24.7976,-3.6991,470.71],[24.8011,-3.6904,468.0657],[24.7951,-3.6789,464.2309],[24.7974,-3.6761,465.8443],[24.8059,-3.6722,470.0275],[24.8075,-3.6665,471.2264],[24.804,-3.6589,468.8343],[24.7995,-3.6577,465.3596],[24.7889,-3.66,464.9038],[24.7857,-3.6561,468.553],[24.7862,-3.6515,464.9469],[24.7958,-3.648,463.6615],[24.7978,-3.6444,465.1889],[24.7967,-3.6399,464.6035],[24.7882,-3.6365,466.1147],[24.788,-3.6324,462.9092],[24.7917,-3.6273,463.1488],[24.7811,-3.6283,463.5041],[24.7788,-3.6243,473.1544],[24.7807,-3.6204,463.396],[24.7859,-3.6184,466.8803],[24.7882,-3.6138,462.9951],[24.7882,-3.6105,463.0219],[24.7827,-3.6025,462.3905],[24.7838,-3.5942,464.2387],[24.7733,-3.5949,460.5],[24.7692,-3.594,478.5842],[24.7669,-3.5912,465.9995],[24.7703,-3.5875,460.5],[24.7772,-3.5845,465.0412],[24.7777,-3.5797,462.5545],[24.7757,-3.5756,464.1649],[24.7694,-3.5682,463.3138],[24.7715,-3.5654,465.6004],[24.7772,-3.5643,463.7372],[24.7786,-3.5613,459.5],[24.7733,-3.548,479.0345],[24.774,-3.5457,471.2339],[24.777,-3.5454,469.6708],[24.7831,-3.5496,474.6962],[24.7877,-3.5491,471.8658],[24.7912,-3.5523,460.731],[24.793,-3.5477,467.739],[24.7921,-3.5427,483.9409],[24.7939,-3.5397,479.9514],[24.8058,-3.5369,481.4551],[24.8076,-3.5328,489.481],[24.8001,-3.5187,491.1656],[24.7985,-3.5042,467.2692],[24.7891,-3.4941,464.5707],[24.7799,-3.4902,483.4471],[24.7751,-3.4856,488.7023],[24.7726,-3.4822,486.2982],[24.7744,-3.4757,470.7578],[24.7982,-3.455,483.8384],[24.8023,-3.4543,487.6991],[24.8163,-3.4591,465.687],[24.8248,-3.4589,498.8391],[24.8307,-3.4541,507.2482],[24.834,-3.4444,506.633],[24.8339,-3.4281,484.1261],[24.8371,-3.4255,493.6043],[24.8507,-3.4239,499.9254],[24.8552,-3.4198,487.3732],[24.86,-3.4083,480.5926],[24.8648,-3.3837,476.8006],[24.8676,-3.3777,482.5124],[24.8717,-3.3749,475.1211],[24.8997,-3.3738,472.204],[24.9031,-3.3712,472.5364],[24.9065,-3.3636,472.1067],[24.9063,-3.3459,476.409],[24.9101,-3.3314,463.2691],[24.9079,-3.3172,472.8295],[24.9097,-3.3107,463.3106],[24.9179,-3.3004,467.4954],[24.9156,-3.296,465.3295],[24.9017,-3.2955,468.0936],[24.8978,-3.293,467.3849],[24.8966,-3.2898,475.6962],[24.8982,-3.282,475.294],[24.9019,-3.2741,483.0678],[24.9122,-3.2652,460.0069],[24.925,-3.2629,475.5974],[24.941,-3.2645,482.1099],[24.9491,-3.2693,473.7493],[24.9562,-3.2698,466.0505],[24.9603,-3.2679,469.7601],[24.9635,-3.2617,481.3749],[24.9632,-3.2569,473.2539],[24.9575,-3.2401,478.7639],[24.9587,-3.2339,479.366],[24.9674,-3.2235,462.6404],[24.9699,-3.2178,464.2998],[24.9644,-3.2014,476.1309],[24.9662,-3.1954,470.1013],[24.9696,-3.1934,465.726],[24.99,-3.1927,476.2365],[24.9948,-3.1892,464.2075],[24.9971,-3.1851,464.5082],[24.9989,-3.1738,472.8986],[24.9982,-3.1632,467.57],[25.0,-3.1529,475.7739],[25.0071,-3.1462,483.8831],[25.0202,-3.1427,468.1463],[25.0232,-3.1386,462.1129],[25.0236,-3.134,457.1265],[25.009,-3.1236,458.0566],[25.0076,-3.1207,477.8156],[25.0085,-3.1165,472.0601],[25.0183,-3.1057,479.4648],[25.0208,-3.0926,455.511],[25.0192,-3.0887,459.2071],[25.0147,-3.085,454.0],[25.0046,-3.0813,468.0815],[25.0017,-3.078,457.735],[25.0012,-3.0742,454.0],[25.0089,-3.0636,461.7961],[25.0137,-3.0634,458.1363],[25.0183,-3.0657,454.0],[25.0309,-3.0776,467.2484],[25.0343,-3.0781,461.2212],[25.0364,-3.0744,472.1013],[25.0368,-3.0659,463.1772],[25.0272,-3.05,472.0077],[25.0277,-3.047,477.1745],[25.0318,-3.0417,461.705],[25.0313,-3.0401,461.7281],[25.019,-3.0378,470.9834],[25.0117,-3.0337,463.1429],[25.0079,-3.0298,472.6601],[25.0074,-3.0243,466.1804],[25.0091,-3.0212,460.6338],[25.0167,-3.0155,472.3819],[25.0231,-2.9992,469.0086],[25.0247,-2.9849,452.5],[25.0329,-2.9739,471.0125],[25.0432,-2.9515,473.5721],[25.0505,-2.9294,490.0677],[25.0649,-2.9034,483.985],[25.0688,-2.8777,478.8599],[25.0724,-2.8675,479.0502],[25.0866,-2.8416,473.2608],[25.0884,-2.8307,478.7904],[25.0944,-2.8231,450.9543],[25.1026,-2.8167,451.9511],[25.1049,-2.8109,475.0164],[25.1081,-2.7872,454.2325],[25.1124,-2.7744,470.7222],[25.1101,-2.7615,458.1266],[25.097,-2.7428,461.9237],[25.0954,-2.7309,464.5426],[25.0867,-2.7024,465.4052],[25.0869,-2.6971,481.9173],[25.0823,-2.6805,476.5846],[25.0835,-2.6686,460.8322],[25.0814,-2.6573,472.3681],[25.0828,-2.6458,477.7224],[25.0773,-2.6311,482.8079],[25.0743,-2.6007,465.1367],[25.0588,-2.6024,467.8766],[25.047,-2.595,467.0609],[25.036,-2.5836,464.2466],[25.0068,-2.5622,442.5322],[25.0017,-2.5453,459.9027],[25.0039,-2.5308,470.0718],[25.0344,-2.5095,465.7792],[25.0467,-2.4963,448.8219],[25.0378,-2.4917,465.7516],[25.018,-2.4928,464.4384],[25.0027,-2.4862,442.6515],[24.9995,-2.4723,463.704],[25.0049,-2.4643,471.0622],[25.0329,-2.4444,439.0],[25.0493,-2.4247,469.7382],[25.0483,-2.4119,464.8679],[25.0263,-2.4135,466.6948],[24.9891,-2.4208,463.6997],[24.979,-2.4163,463.8589],[24.9607,-2.3989,482.0244],[24.9315,-2.3979,478.6584],[24.9315,-2.3742,479.9568],[24.926,-2.3724,480.9192],[24.8685,-2.3695,496.1324],[24.7846,-2.3692,488.2499],[24.7199,-2.3653,514.7762],[24.7062,-2.3689,504.0192],[24.6943,-2.3625,492.7051],[24.6896,-2.3225,514.064],[24.6811,-2.1896,551.0165],[24.6636,-2.1395,573.0983],[24.6216,-2.0911,631.7551],[24.6087,-2.0647,577.7173],[24.5984,-1.9808,611.1696],[24.5733,-1.9434,543.9327],[24.5325,-1.9124,484.5151],[24.5151,-1.904,481.64],[24.4894,-1.8187,490.3387],[24.444,-1.7153,563.1646],[24.4397,-1.7165,583.3199],[24.3705,-1.7145,482.5605],[24.2672,-1.7091,496.3532],[24.1959,-1.7167,426.5983],[24.1883,-1.7126,477.9803],[24.1701,-1.7126,494.4785],[24.1669,-1.7089,498.6711],[24.1616,-1.7089,490.8329],[24.1476,-1.7149,515.2623],[24.1332,-1.7142,559.9493],[24.125,-1.7061,576.4292],[24.1216,-1.7049,582.218],[24.1024,-1.7091,547.8444],[24.0962,-1.7047,553.3705],[24.091,-1.7052,524.0588],[24.0853,-1.7091,528.4928],[24.0576,-1.7047,494.9819],[24.0409,-1.7079,498.127],[24.0279,-1.7028,520.3506],[24.0197,-1.7046,517.7874],[24.0107,-1.7026,495.5664],[23.9991,-1.7032,519.9695],[23.9879,-1.6975,521.6137],[23.9677,-1.6983,464.1588],[23.9649,-1.7089,468.609],[23.9558,-1.7158,455.5717],[23.9547,-1.737,463.3326],[23.947,-1.739,477.2216],[23.9182,-1.7351,483.8004],[23.8743,-1.734,470.5461],[23.8112,-1.7356,446.1838],[23.7973,-1.7409,454.5898],[23.7773,-1.7598,426.9175],[23.7676,-1.7651,436.3773],[23.714,-1.7735,499.421],[23.7025,-1.7812,445.8518],[23.6939,-1.7907,422.3409],[23.6854,-1.8151,443.9102],[23.6781,-1.8217,425.3759],[23.6612,-1.8245,448.8339],[23.5791,-1.7941,515.9087],[23.5623,-1.7933,471.9031],[23.5592,-1.8011,479.6501],[23.5649,-1.8207,524.0203],[23.5761,-1.8391,487.395],[23.5841,-1.8644,472.7857],[23.5884,-1.8718,460.4873],[23.5925,-1.8846,530.6361],[23.5854,-1.9177,490.9432],[23.5879,-1.9249,486.5981],[23.5867,-1.9295,501.4297],[23.5876,-1.9343,507.8933],[23.586,-1.9373,519.7284],[23.5824,-1.9389,520.2651],[23.5821,-1.9635,528.7179],[23.5844,-1.9748,498.6794],[23.5835,-1.9835,487.1252],[23.5855,-1.9904,494.7645],[23.4597,-2.0302,457.7372],[23.4459,-2.0276,441.3295],[23.4353,-2.0107,483.881],[23.424,-1.9974,477.8157],[23.3275,-2.0293,438.8976],[23.303,-2.0739,440.7393],[23.2875,-2.0878,456.0924],[23.2804,-2.0808,466.9271],[23.2744,-2.0798,468.4584],[23.2669,-2.0715,476.644],[23.2555,-2.0625,462.0976],[23.2516,-2.0552,431.3199],[23.2413,-2.0437,458.2755],[23.2377,-2.0333,431.1862],[23.2295,-2.0227,418.3758],[23.2108,-1.9889,455.9063],[23.2014,-1.9792,457.4833],[23.1781,-1.9614,454.9023],[23.1468,-1.9448,410.8978],[23.1077,-1.9282,434.3258],[23.1029,-1.9243,444.3902],[23.0732,-1.915,437.3264],[23.0383,-1.9145,393.2358],[23.0291,-1.9119,427.2999],[23.0156,-1.9114,433.8142],[23.0067,-1.9073,417.2152],[22.99,-1.9063,392.5867],[22.9843,-1.9024,399.127],[22.9608,-1.8945,435.6629],[22.9485,-1.8851,446.2404],[22.9366,-1.883,405.3297],[22.9316,-1.8781,409.6827],[22.9247,-1.8772,430.9882],[22.9144,-1.8788,452.597],[22.9096,-1.8769,448.8455],[22.9025,-1.8795,420.4911],[22.8938,-1.8787,408.8138],[22.8874,-1.8826,434.3942],[22.878,-1.8817,428.6718],[22.8705,-1.8831,432.382],[22.8684,-1.8849,414.8661],[22.8428,-1.8759,416.1956],[22.8304,-1.8749,418.3013],[22.8291,-1.869,425.0425],[22.8306,-1.8665,430.1698],[22.8249,-1.8628,426.4304],[22.8117,-1.8645,397.2854],[22.8078,-1.8611,401.5435],[22.7955,-1.8575,419.2275],[22.7887,-1.8563,416.6113],[22.7801,-1.8601,428.1575],[22.7765,-1.8601,426.5587],[22.7703,-1.8567,413.7179],[22.7593,-1.8555,407.4507],[22.7518,-1.8424,401.3138],[22.7478,-1.8389,403.9785],[22.7388,-1.8336,410.286],[22.7227,-1.8287,401.4592],[22.716,-1.8211,422.2742],[22.7115,-1.8206,404.991],[22.7002,-1.8155,420.4828],[22.6936,-1.8094,393.4868],[22.6903,-1.8083,396.0505],[22.6747,-1.8094,398.5981],[22.6631,-1.8059,392.0649],[22.6551,-1.8097,382.7418],[22.6488,-1.8108,399.8784],[22.6444,-1.8162,406.2896],[22.6381,-1.8156,384.1596],[22.6297,-1.8012,418.6586],[22.6217,-1.8023,377.5173],[22.6188,-1.7856,413.6914],[22.6229,-1.779,414.2454],[22.6225,-1.7771,410.8065],[22.6185,-1.7754,417.9318],[22.6095,-1.7769,405.5212],[22.6074,-1.7695,414.5414],[22.5964,-1.7598,400.5177],[22.5928,-1.752,423.9026],[22.5896,-1.7508,422.0193],[22.5843,-1.7582,406.5094],[22.5775,-1.7614,404.5514],[22.5738,-1.7664,398.715],[22.5227,-1.8603,390.0912],[22.5061,-1.8985,414.8774],[22.498,-1.913,391.6627],[22.4927,-1.9168,429.3865],[22.4804,-1.9142,441.5757],[22.3988,-1.8822,418.0921],[22.2328,-1.8221,501.1432],[22.1954,-1.8109,484.6113],[22.1854,-1.8228,472.8837],[22.1815,-1.8322,461.3355],[22.1688,-1.8469,435.3855],[22.1591,-1.8501,467.4742],[22.152,-1.8599,402.4816],[22.1348,-1.8734,438.7495],[22.1336,-1.8773,449.8306],[22.1397,-1.8985,447.603],[22.1389,-1.9059,400.2082],[22.1513,-1.9352,421.8611],[22.151,-1.9646,394.6786],[22.1471,-1.9731,400.5519],[22.1445,-1.997,439.7024],[22.1463,-2.0046,433.587],[22.162,-2.0414,448.6882],[22.1599,-2.0669,468.7567],[22.1624,-2.0789,456.6951],[22.1772,-2.1095,437.114],[22.1812,-2.1254,442.6823],[22.1818,-2.1645,427.5716],[22.1857,-2.1769,414.5115],[22.1833,-2.1956,464.0598],[22.1929,-2.217,427.5268],[22.1866,-2.2338,421.8522],[22.188,-2.2476,447.5411],[22.1921,-2.2598,443.4381],[22.1914,-2.2683,471.2029],[22.1954,-2.2761,499.3302],[22.2026,-2.3258,454.8911],[22.2101,-2.3408,490.9526],[22.209,-2.3516,486.7988],[22.2126,-2.3716,476.5529],[22.213,-2.3875,462.0055],[22.2205,-2.3949,442.1324],[22.2235,-2.4002,462.1635],[22.2234,-2.4069,447.7682],[22.2118,-2.4202,476.9189],[22.2008,-2.4277,476.7921],[22.1917,-2.4289,486.7582],[22.1551,-2.4491,478.9125],[22.1486,-2.4487,476.1252],[22.1312,-2.4337,485.3806],[22.1304,-2.3985,497.7716],[22.0937,-2.3625,496.4477],[22.0928,-2.3556,491.9981],[22.0945,-2.3222,518.3439],[22.0933,-2.3071,487.6649],[22.0886,-2.303,493.2348],[22.0835,-2.3019,490.9704],[22.0612,-2.3008,486.831],[22.0515,-2.3063,507.8447],[22.0425,-2.3157,544.2043],[22.0115,-2.3625,525.6957],[22.0054,-2.3754,559.3586],[21.9921,-2.3942,551.5493],[21.9513,-2.4293,503.943],[21.9266,-2.455,564.4172],[21.9089,-2.4765,464.2857],[21.8927,-2.4899,542.718],[21.8765,-2.5063,476.0489],[21.8441,-2.5324,516.1204],[21.831,-2.5304,440.8152],[21.8451,-2.5454,509.3981],[21.8512,-2.5586,423.4185],[21.8709,-2.5706,464.0543],[21.8933,-2.5769,467.6934],[21.8988,-2.582,482.1953],[21.9035,-2.5841,495.7634],[21.9191,-2.5859,513.8759],[21.9257,-2.5966,466.7156],[21.9367,-2.606,479.9814],[21.9485,-2.6125,508.9583],[21.9743,-2.6418,463.1733],[21.9944,-2.6513,439.2519],[22.0147,-2.6744,469.6257],[22.0135,-2.6852,512.4185],[22.0217,-2.7066,474.5639],[22.0329,-2.7297,423.5524],[22.0502,-2.7509,426.8186],[22.0559,-2.7539,434.092],[22.0634,-2.7631,461.8098],[22.0753,-2.7735,449.2946],[22.0787,-2.7786,445.1103],[22.0823,-2.7984,446.1665],[22.0853,-2.8044,457.8151],[22.1026,-2.8189,453.2868],[22.1092,-2.83,469.5953],[22.1238,-2.8625,459.015],[22.1341,-2.877,564.3721],[22.1429,-2.8966,569.6841],[22.1516,-2.9042,507.4745],[22.1669,-2.9226,545.3341],[22.1818,-2.9312,542.5682],[22.2065,-2.929,501.7654],[22.2154,-2.9249,525.9359],[22.2213,-2.9288,500.166],[22.2148,-2.9378,523.7664],[22.1885,-2.9507,546.8562],[22.1812,-2.9568,540.5641],[22.1699,-3.0011,499.3367],[22.1642,-3.0118,569.2939],[22.1599,-3.0168,550.0648],[22.1492,-3.024,523.4325],[22.128,-3.0429,584.8536],[22.1083,-3.0638,549.145],[22.1013,-3.0829,500.0272],[22.112,-3.1008,489.6432],[22.1147,-3.1088,483.482],[22.114,-3.1218,490.1513],[22.1082,-3.1736,479.4984],[22.0957,-3.2094,457.959],[22.0866,-3.2225,452.7295],[22.0558,-3.2531,502.9382],[22.0354,-3.2704,508.5913],[22.0064,-3.2884,524.3895],[21.9982,-3.2961,535.2463],[21.9963,-3.3021,556.9186],[21.9957,-3.3806,452.1251],[21.9894,-3.4011,441.5631],[21.9772,-3.4178,436.0402],[21.9699,-3.4247,431.8171],[21.9412,-3.4417,420.6327],[21.9303,-3.4886,469.6238],[21.9294,-3.5042,473.9292],[21.9383,-3.5222,469.2304],[21.9417,-3.5419,428.5143],[21.9415,-3.5537,468.0489],[21.9383,-3.5686,491.3075],[21.9396,-3.5746,495.3972],[21.9447,-3.5847,466.972],[21.9573,-3.592,475.5116],[21.9586,-3.6015,475.4303],[21.971,-3.6019,412.0073],[21.9733,-3.5918,487.6603],[21.9891,-3.5801,412.6543],[21.9965,-3.5769,441.8996],[22.0043,-3.5779,442.8132],[22.0146,-3.5724,456.3174],[22.0288,-3.5759,486.76],[22.0416,-3.5692,448.9108],[22.0595,-3.5808,435.0805],[22.062,-3.584,421.8275],[22.0863,-3.5823,398.0402],[22.1076,-3.5727,461.0774],[22.1144,-3.5748,442.0329],[22.1182,-3.5715,419.6174],[22.1225,-3.5703,425.6101],[22.1287,-3.578,426.5366],[22.1366,-3.605,405.4293],[22.1377,-3.6144,431.0655],[22.1401,-3.6545,447.7284],[22.1348,-3.6853,478.7485],[22.1331,-3.7101,524.1732],[22.1388,-3.7311,601.2241],[22.1375,-3.7431,596.3721],[22.1422,-3.7616,570.0966],[22.1329,-3.7717,602.9207],[22.1321,-3.7787,578.7878],[22.1561,-3.7964,623.984],[22.1562,-3.8039,630.7001],[22.1529,-3.8094,580.8408],[22.0683,-3.8779,537.9565],[22.0581,-3.884,486.5756],[22.0375,-3.8889,486.2931],[22.0292,-3.8885,529.7711],[22.0201,-3.8924,488.9844],[22.0122,-3.9025,460.6199],[22.009,-3.9097,438.8598],[21.9955,-3.9195,453.9813],[21.9876,-3.9395,452.0024],[21.9761,-3.9519,410.8158],[21.9683,-3.9694,378.8823],[21.9682,-3.9751,393.1449],[21.9889,-3.9618,376.5],[21.9946,-3.9612,386.8968],[22.0047,-3.9683,381.6911],[22.0208,-3.9675,392.847],[22.0297,-3.9707,377.0],[22.0485,-3.9735,377.5],[22.0578,-3.9793,377.5],[22.0814,-3.9833,378.7178],[22.0922,-3.9875,383.4581],[22.0991,-3.9921,386.9802],[22.1116,-4.0175,389.4638],[22.1175,-4.0244,383.6424],[22.121,-4.0262,383.5025],[22.1354,-4.0286,383.7943],[22.14,-4.0321,386.7066],[22.1565,-4.0392,384.545],[22.1629,-4.0402,380.0],[22.1672,-4.0393,386.5547],[22.1783,-4.0308,380.0],[22.187,-4.029,380.5],[22.1939,-4.0249,382.3063],[22.2017,-4.023,384.3193],[22.2097,-4.0159,390.3847],[22.2226,-4.0118,399.5036],[22.2389,-3.9992,384.2015],[22.2471,-3.9965,381.0],[22.2726,-3.998,391.6142],[22.2815,-4.0023,468.5097],[22.2925,-4.0095,476.5171],[22.3048,-4.0222,493.6335],[22.3123,-4.036,491.8444],[22.3162,-4.0503,437.4396],[22.3226,-4.0584,515.2594],[22.3299,-4.0805,487.0524],[22.3397,-4.0906,476.6568],[22.3644,-4.0999,412.9706],[22.3727,-4.1057,478.8178],[22.3818,-4.1175,425.5083],[22.3878,-4.1214,407.8475],[22.3985,-4.1391,451.2982],[22.4033,-4.1442,465.2566],[22.4106,-4.1468,455.4249],[22.4262,-4.1477,473.4491],[22.4416,-4.1588,476.6269],[22.4477,-4.1616,461.9192],[22.4675,-4.1589,501.4578],[22.4718,-4.1614,443.3871],[22.4789,-4.1702,478.9108],[22.4919,-4.1801,512.8497],[22.5036,-4.1868,457.4669],[22.5135,-4.1882,478.7783],[22.5425,-4.2159,474.2843],[22.5824,-4.2287,512.7128],[22.5867,-4.2322,492.5322],[22.5952,-4.2324,493.9464],[22.6083,-4.2428,526.8613],[22.6271,-4.2435,503.7412],[22.6374,-4.2491,496.4713],[22.6477,-4.2638,483.3665],[22.6628,-4.2694,526.384],[22.6738,-4.2807,505.798],[22.6838,-4.2998,521.4046],[22.7032,-4.3261,512.4655],[22.7081,-4.3266,541.291],[22.7149,-4.3374,522.9137],[22.7204,-4.34,547.9318],[22.7259,-4.3478,529.6039],[22.7483,-4.3626,524.0688],[22.7506,-4.3713,535.709],[22.7552,-4.3764,538.7848],[22.7556,-4.3854,487.3521],[22.7728,-4.4082,533.662],[22.7836,-4.4103,464.0632],[22.7877,-4.4131,537.5897],[22.8028,-4.434,488.6054],[22.811,-4.4368,474.0097],[22.8154,-4.4414,481.4093],[22.8186,-4.4474,501.5481],[22.8208,-4.4596,488.5898],[22.8277,-4.4732,504.4991],[22.8332,-4.4792,528.8395],[22.8694,-4.5005,497.0737],[22.8721,-4.5055,482.269],[22.8778,-4.5101,497.26369999999997],[22.8841,-4.5184,538.1555],[22.9192,-4.5264,562.7754],[22.9418,-4.5271,571.5927],[22.9904,-4.5238,577.8162],[23.0267,-4.5153,589.8176],[23.0587,-4.5198,532.3112],[23.0744,-4.5262,546.1255],[23.0773,-4.535,514.1061],[23.0886,-4.5357,508.0719],[23.097,-4.5449,504.055],[23.1009,-4.5617,511.0647],[23.1328,-4.6487,492.4332],[23.1887,-4.7682,478.1946],[23.1877,-4.7848,491.9701],[23.1809,-4.7864,499.0505],[23.1705,-4.799,519.08],[23.1655,-4.8,513.008],[23.1606,-4.797,508.2905],[23.154,-4.7976,530.1041],[23.1483,-4.7939,499.9161],[23.1425,-4.793,481.5537],[23.1359,-4.7942,515.5081],[23.1313,-4.7999,523.5015],[23.1226,-4.799,506.5339],[23.1198,-4.8003,514.7615],[23.1161,-4.81,480.4897],[23.107,-4.8198,507.3931],[23.0891,-4.8184,530.8869],[23.0767,-4.8221,543.5562],[23.0621,-4.8282,522.8688],[23.0401,-4.8415,554.8947],[22.9748,-4.8625,568.1963],[22.9423,-4.8752,605.2791],[22.9241,-4.9062,586.197],[22.9258,-4.9194,623.6776],[22.9336,-4.9233,567.7807],[22.9595,-4.9213,568.7537],[22.9702,-4.9244,565.4526],[22.9747,-4.9318,571.7302],[22.9578,-4.9475,598.914],[22.926,-4.9635,616.9368],[22.9144,-4.9824,607.5229],[22.9121,-5.0092,624.8945],[22.9051,-5.0297,588.0501],[22.9138,-5.032,568.8486],[22.9282,-5.0417,582.3307],[22.9457,-5.0429,602.5818],[22.9512,-5.0457,574.0302],[22.9562,-5.0528,556.241],[22.9606,-5.0637,581.8849],[22.9647,-5.0676,588.5664],[22.978,-5.0752,590.2462],[22.9949,-5.0923,544.9299],[23.0153,-5.1049,573.0227],[23.025,-5.108,555.9127],[23.0265,-5.1165,529.3575],[23.0422,-5.1348,574.4844],[23.0792,-5.1686,548.6284],[23.1117,-5.2089,568.3485],[23.1212,-5.2147,525.1958],[23.1504,-5.2437,558.9559],[23.175,-5.3012,581.8435],[23.1851,-5.3093,618.3739],[23.1968,-5.3006,575.6874],[23.2278,-5.2887,611.1465],[23.2469,-5.2832,547.3562],[23.2529,-5.2791,554.222],[23.2598,-5.2701,560.5833],[23.2683,-5.269,580.8688],[23.2765,-5.2633,607.5789],[23.2853,-5.2624,544.3601],[23.2967,-5.258,562.1215],[23.3057,-5.2516,583.2909],[23.3144,-5.2482,569.3681],[23.3209,-5.2477,526.3968],[23.3275,-5.2496,551.11],[23.3438,-5.2487,541.6279],[23.3594,-5.2561,492.209],[23.3826,-5.26,501.7491],[23.3872,-5.2566,499.0044],[23.3955,-5.2557,523.5078],[23.4205,-5.2396,502.1229],[23.4242,-5.2398,511.7634],[23.4274,-5.2449,500.3958],[23.4276,-5.2483,480.8419],[23.4228,-5.2578,511.9828],[23.4239,-5.2615,509.2989],[23.4317,-5.2674,448.2924],[23.4324,-5.2697,446.2224],[23.4269,-5.2716,484.4335],[23.4262,-5.2764,475.3236],[23.4317,-5.2875,481.6557],[23.4305,-5.2944,478.8449],[23.4328,-5.2992,450.9326],[23.4372,-5.2962,438.7458],[23.4381,-5.301,453.6071],[23.4358,-5.307,470.5111],[23.4516,-5.3104,531.8516],[23.4775,-5.3085,543.0648],[23.4865,-5.3095,527.5627],[23.5039,-5.3209,563.7059],[23.5219,-5.3296,590.7222],[23.5466,-5.336,568.6754],[23.6371,-5.3503,639.4172],[23.6764,-5.3524,625.2457],[23.6944,-5.3549,669.3082],[23.7046,-5.3592,653.1383],[23.7093,-5.3751,649.5554],[23.7032,-5.4379,572.8074],[23.7071,-5.4654,672.3987],[23.7149,-5.4858,695.2468],[23.7205,-5.5216,661.5516],[23.7175,-5.5338,654.6451],[23.7182,-5.5416,655.757],[23.7143,-5.5503,618.9814],[23.7177,-5.5572,629.6893],[23.7189,-5.5713,645.9501],[23.7239,-5.5777,580.8936],[23.7324,-5.6042,552.2013],[23.7482,-5.6102,555.149],[23.7535,-5.615,505.2395],[23.7562,-5.6217,478.7984]]]]}}