{"type": "Feature","bbox": [27.2271,-2.0658,29.0689,-0.1024],"geometry": {"type": "MultiPolygon","coordinates": [[[[27.2271,-1.2049,575.2267],[27.2354,-1.2051,572.3401],[27.2397,-1.2122,577.8231],[27.2608,-1.2317,588.7806],[27.2647,-1.2393,584.23],[27.2824,-1.2521,597.6892],[27.2867,-1.2645,587.5281],[27.2961,-1.2729,596.874],[27.3092,-1.2791,614.2363],[27.3207,-1.2931,631.8839],[27.3264,-1.2977,635.1199],[27.3332,-1.2995,646.4557],[27.3415,-1.2969,632.6057],[27.3453,-1.2974,630.4589],[27.3559,-1.3045,620.9294],[27.363,-1.3047,634.0278],[27.3648,-1.3067,637.7637],[27.3482,-1.3392,609.869],[27.3458,-1.3496,616.7218],[27.3469,-1.3608,633.671],[27.3521,-1.3688,653.2141],[27.3558,-1.3793,719.769],[27.3914,-1.4501,624.7872],[27.4033,-1.4587,701.2425],[27.4115,-1.4581,691.7428],[27.4306,-1.4462,617.9148],[27.4494,-1.4593,617.9241],[27.4522,-1.4664,614.8807],[27.4545,-1.4848,641.0693],[27.4585,-1.4947,633.4408],[27.4722,-1.5075,620.5608],[27.4986,-1.5387,683.2171],[27.5079,-1.5752,658.4465],[27.5063,-1.5837,707.8143],[27.5082,-1.5897,733.3183],[27.5153,-1.601,686.0309],[27.5194,-1.6019,632.2139],[27.5256,-1.609,664.7946],[27.5263,-1.6189,681.0045],[27.5284,-1.6221,707.9082],[27.5408,-1.6271,692.3141],[27.544,-1.6349,654.505],[27.5479,-1.6379,615.08],[27.5607,-1.6369,811.3841],[27.5676,-1.6458,861.8312],[27.5715,-1.6472,827.8585],[27.574,-1.6444,816.3656],[27.5781,-1.6442,779.5647],[27.5873,-1.6564,933.1662],[27.59,-1.6582,864.3378],[27.5973,-1.6588,920.7252],[27.6061,-1.6694,946.8187],[27.6154,-1.6728,1005.8596],[27.618,-1.6813,984.484],[27.623,-1.685,993.8063],[27.6454,-1.6867,876.548],[27.6535,-1.6911,894.7244],[27.6581,-1.7007,844.6799],[27.6553,-1.7053,877.3812],[27.6558,-1.7074,896.038],[27.659,-1.7106,916.4481],[27.6684,-1.7087,876.9219],[27.6728,-1.7211,861.9174],[27.6774,-1.7252,856.8232],[27.6781,-1.7278,862.4004],[27.6733,-1.743,1091.8423],[27.6738,-1.7459,1102.6841],[27.6804,-1.7524,982.8751],[27.6807,-1.7641,981.0703],[27.6846,-1.7717,1054.1548],[27.694,-1.7709,1028.152],[27.6974,-1.7741,1011.4802],[27.7123,-1.7693,972.4275],[27.7205,-1.7695,1098.9968],[27.7272,-1.7729,1093.4963],[27.7366,-1.782,1073.7902],[27.7391,-1.7901,985.1212],[27.7432,-1.7882,1004.2775],[27.7467,-1.7894,986.527],[27.7476,-1.794,979.6467],[27.7413,-1.8269,1126.061],[27.742,-1.831,1182.4454],[27.7491,-1.8388,1191.7632],[27.7555,-1.8415,1081.7833],[27.7562,-1.8448,1106.2327],[27.7517,-1.8556,993.2538],[27.7517,-1.8588,1035.1721],[27.7547,-1.8638,1039.0939],[27.7541,-1.8682,982.98],[27.7486,-1.8731,1039.8757],[27.7505,-1.9043,1124.5903],[27.7435,-1.9269,1072.6638],[27.7429,-1.9391,1163.0181],[27.7465,-1.9777,1085.8745],[27.7428,-1.9867,1124.4948],[27.7397,-2.0006,1126.5321],[27.7846,-2.0288,1084.5872],[27.8155,-2.0329,1079.7817],[27.8384,-2.0339,1142.4019],[27.8616,-2.0133,1064.2559],[27.885,-2.0015,1056.9869],[27.9087,-1.9992,1233.5955],[27.9498,-2.0002,1215.9884],[27.962,-2.0163,1264.722],[27.9737,-2.0092,1164.3087],[27.9847,-2.0068,1174.7661],[27.9886,-2.0085,1164.9568],[27.9906,-2.0252,1173.6018],[27.9979,-2.0324,1166.619],[28.0116,-2.0118,1151.448],[28.043,-2.004,1154.2064],[28.0777,-1.9986,1134.3143],[28.0871,-1.9987,1122.3],[28.1008,-2.0083,1098.1804],[28.0949,-2.0251,1090.3444],[28.1001,-2.0474,1141.3141],[28.0998,-2.0658,1178.588],[28.1475,-2.0469,1135.5555],[28.1586,-2.0478,1053.2526],[28.1671,-2.046,1121.2317],[28.1613,-2.0352,1039.9385],[28.1516,-2.0246,1100.5066],[28.1512,-2.02,1031.3977],[28.1545,-2.0099,952.0344],[28.155,-2.0009,1007.075],[28.1717,-1.9939,1160.8414],[28.24,-1.9905,1223.0051],[28.2664,-1.994,1354.5776],[28.3042,-1.9905,1451.8636],[28.3157,-1.9787,1446.9993],[28.3271,-1.9762,1388.687],[28.3384,-1.9891,1318.1482],[28.3503,-1.994,1206.3903],[28.3743,-1.9932,1283.791],[28.3823,-1.9779,1277.9608],[28.377,-1.9609,1302.519],[28.3502,-1.9476,1252.9404],[28.3539,-1.9399,1246.9646],[28.3593,-1.9347,1296.7227],[28.3624,-1.9277,1225.2622],[28.372,-1.9215,1227.7377],[28.4244,-1.8999,946.1281],[28.4334,-1.8994,892.5558],[28.4508,-1.8929,909.3687],[28.4498,-1.8805,883.6293],[28.4513,-1.8686,813.0493],[28.4497,-1.8651,817.2572],[28.4596,-1.8669,944.3035],[28.4717,-1.8747,1015.8767],[28.4816,-1.8767,1052.8542],[28.4987,-1.8787,1152.0511],[28.506,-1.8759,1151.7352],[28.5111,-1.8768,1183.2383],[28.5143,-1.8798,1207.7053],[28.5214,-1.8942,1209.4885],[28.5242,-1.8968,1261.889],[28.5416,-1.8969,1173.8658],[28.5585,-1.9046,1324.739],[28.5668,-1.9048,1550.5465],[28.5793,-1.8907,1664.5984],[28.5911,-1.8845,1720.5988],[28.6055,-1.8807,1815.6863],[28.6172,-1.8802,1837.7559],[28.63,-1.8836,1846.0342],[28.6376,-1.8905,1778.7946],[28.641,-1.8909,1767.3785],[28.6442,-1.8854,1744.4187],[28.6474,-1.8831,1746.4355],[28.6617,-1.8777,1832.9775],[28.6777,-1.8677,1786.4827],[28.7003,-1.8286,1721.578],[28.6963,-1.8165,1876.8499],[28.6957,-1.806,1582.5115],[28.6689,-1.7939,1346.3208],[28.6751,-1.77,1450.0211],[28.6678,-1.7525,1215.0532],[28.663,-1.7501,1210.7273],[28.6589,-1.7506,1217.0435],[28.6588,-1.7445,1215.1191],[28.6526,-1.7378,1193.9749],[28.6505,-1.7377,1204.2268],[28.6511,-1.7355,1196.8641],[28.6458,-1.732,1192.8361],[28.6476,-1.7289,1184.8494],[28.6371,-1.7287,1189.709],[28.6361,-1.726,1189.9343],[28.6312,-1.7284,1210.2207],[28.6253,-1.7246,1193.901],[28.6246,-1.7211,1218.6858],[28.6183,-1.7218,1173.9591],[28.6161,-1.7235,1173.447],[28.6128,-1.7197,1173.3755],[28.6048,-1.7207,1170.9441],[28.6068,-1.7186,1180.7725],[28.6069,-1.7149,1179.1853],[28.6037,-1.7115,1174.9841],[28.6069,-1.7097,1190.3413],[28.6101,-1.711,1170.8571],[28.6124,-1.7092,1244.9663],[28.6069,-1.7032,1243.7826],[28.5597,-1.6777,1130.5557],[28.5505,-1.6697,1113.355],[28.5417,-1.6564,1099.229],[28.5335,-1.6532,1066.3824],[28.5285,-1.6484,1067.4891],[28.5222,-1.6264,1050.5626],[28.518,-1.6218,1038.2103],[28.5145,-1.5769,1605.4458],[28.5188,-1.541,1174.2527],[28.5186,-1.5044,1112.2173],[28.5217,-1.4806,1295.8606],[28.529,-1.4831,1319.8325],[28.5441,-1.4835,1242.2157],[28.5561,-1.4646,1119.6246],[28.5577,-1.4463,1222.8116],[28.5751,-1.4207,1336.1647],[28.5991,-1.3928,1411.7568],[28.6242,-1.3403,1761.0692],[28.6371,-1.321,1612.4648],[28.6409,-1.3038,1447.2294],[28.6492,-1.2799,1458.3402],[28.6496,-1.2387,1955.3755],[28.6456,-1.233,1828.777],[28.6433,-1.221,1866.7999],[28.646,-1.2107,1695.4565],[28.6595,-1.1919,1463.1666],[28.6735,-1.1823,1254.7626],[28.6819,-1.1772,1228.5459],[28.696,-1.1772,1194.4727],[28.7028,-1.1813,1197.4568],[28.7129,-1.1767,1179.5773],[28.7185,-1.1642,1168.1388],[28.7201,-1.1465,1528.8179],[28.7158,-1.1377,1264.9297],[28.7059,-1.1269,1178.2719],[28.7101,-1.1126,1108.839],[28.7099,-1.1089,1112.0159],[28.6991,-1.1021,1088.5679],[28.6964,-1.0987,1035.4247],[28.6933,-1.0803,1390.6755],[28.6898,-1.0743,1143.1448],[28.6818,-1.0686,986.4089],[28.6875,-1.0647,1008.5418],[28.6943,-1.052,1081.2144],[28.697,-1.0435,1003.9825],[28.6928,-1.0178,967.3008],[28.6987,-1.0127,990.9385],[28.7039,-1.0037,969.9637],[28.7107,-0.9991,1285.9996],[28.7155,-0.9982,1397.5513],[28.7219,-0.9986,1376.6478],[28.7418,-1.0068,1440.7365],[28.7516,-1.0079,1452.1274],[28.7698,-0.9924,1151.8518],[28.7845,-0.9721,1348.5122],[28.8014,-0.9702,1195.6313],[28.806,-0.9717,1359.7806],[28.8143,-0.9784,1618.8481],[28.823,-0.979,1500.3549],[28.8347,-0.9881,1807.7192],[28.8431,-0.9922,2056.7837],[28.8516,-0.992,1877.1132],[28.8593,-0.9896,1404.2328],[28.8701,-0.9921,1258.4224],[28.8838,-0.9911,1340.7461],[28.9202,-1.0123,1333.9402],[28.9298,-1.0159,1339.6123],[28.9438,-1.0345,1373.4268],[28.9632,-1.0307,1842.6682],[28.9751,-1.0306,1598.7191],[28.9858,-1.0278,1515.3407],[29.0062,-1.0328,1630.2064],[29.0327,-1.013,1894.6609],[29.0378,-1.0061,1903.0273],[29.0523,-0.9799,1825.6586],[29.0578,-0.9656,1714.696],[29.0589,-0.9554,1660.3562],[29.0537,-0.9388,1664.125],[29.0452,-0.9279,1759.5585],[29.0372,-0.9096,1618.203],[29.0299,-0.9038,1624.5408],[29.0124,-0.9003,1694.8496],[28.9982,-0.8917,1793.0969],[28.9694,-0.8779,1361.4978],[28.9653,-0.8698,1283.7053],[28.9706,-0.8664,1342.3776],[28.9831,-0.8663,1365.438],[28.987,-0.864,1413.3],[28.9929,-0.866,1437.6594],[28.9977,-0.8646,1347.0315],[29.0053,-0.8659,1476.4314],[29.0139,-0.8636,1342.4766],[29.0212,-0.8645,1393.5712],[29.0301,-0.8605,1384.8379],[29.0623,-0.8577,1482.1372],[29.0684,-0.8411,1481.4861],[29.0689,-0.8349,1465.2662],[29.0657,-0.8221,1393.1462],[29.0559,-0.8148,1393.939],[29.0443,-0.7685,1452.8809],[29.0387,-0.7627,1483.3748],[29.0184,-0.7638,1573.113],[29.0037,-0.7609,1650.2445],[28.9861,-0.7322,1697.9265],[28.9781,-0.711,1863.5947],[28.9769,-0.6973,1941.8452],[28.9802,-0.6922,1870.2311],[28.9846,-0.6734,1872.2998],[28.9839,-0.6522,1888.1393],[28.976,-0.6166,1887.489],[28.9726,-0.6123,1916.486],[28.9705,-0.6045,1930.4232],[28.9675,-0.6013,1895.8693],[28.9659,-0.5939,1883.9517],[28.961,-0.5838,1922.83],[28.9639,-0.5765,1861.6233],[28.9589,-0.5705,1832.334],[28.9573,-0.5632,1849.3937],[28.9545,-0.5609,1828.3612],[28.9385,-0.5571,1782.0167],[28.9292,-0.5587,1773.6052],[28.9189,-0.5574,1766.8911],[28.9095,-0.5627,1754.9382],[28.9004,-0.5653,1767.8346],[28.8871,-0.565,1755.4657],[28.8719,-0.5672,1766.3047],[28.8657,-0.5734,1756.0004],[28.8528,-0.5734,1770.2875],[28.8488,-0.5711,1791.4916],[28.8431,-0.5642,1759.8479],[28.8326,-0.5604,1753.7108],[28.8214,-0.5627,1670.2274],[28.8169,-0.5653,1641.51],[28.8068,-0.5646,1663.7695],[28.8011,-0.5667,1632.1931],[28.7904,-0.5647,1644.8728],[28.7856,-0.5661,1659.313],[28.777,-0.5649,1701.0225],[28.7715,-0.5615,1731.3978],[28.7573,-0.5464,1843.8265],[28.7393,-0.5369,1753.6378],[28.724,-0.5243,1811.9769],[28.7092,-0.4973,1522.8347],[28.7018,-0.4882,1610.7036],[28.6797,-0.4727,1619.5104],[28.6698,-0.4569,1595.4357],[28.6684,-0.4525,1615.4255],[28.6695,-0.4472,1439.4465],[28.6758,-0.4371,1312.7069],[28.6799,-0.4228,1247.4785],[28.6768,-0.4045,1158.2964],[28.6736,-0.3999,1120.7476],[28.6629,-0.399,1106.7974],[28.6567,-0.3936,1107.0319],[28.6519,-0.3933,1100.5339],[28.643,-0.3978,1250.5627],[28.6334,-0.3978,1084.1615],[28.6234,-0.3907,1037.3325],[28.6189,-0.3781,1092.6904],[28.6132,-0.3718,1116.3358],[28.607,-0.3603,1109.8513],[28.6058,-0.3518,1099.5895],[28.6376,-0.2862,1170.5709],[28.6296,-0.2809,1151.5461],[28.6235,-0.2816,1153.6138],[28.6202,-0.2704,1147.7704],[28.6143,-0.2686,1142.8977],[28.6108,-0.2638,1141.7571],[28.5978,-0.2581,1125.953],[28.5655,-0.2353,1077.5687],[28.5539,-0.2328,1104.641],[28.5365,-0.2219,1000.7786],[28.5319,-0.2228,997.2769],[28.5269,-0.2272,951.3354],[28.5235,-0.2226,985.9473],[28.5298,-0.2118,962.202],[28.532,-0.1992,1012.4255],[28.5304,-0.1907,1014.3076],[28.5358,-0.1847,953.8716],[28.5338,-0.1783,954.4592],[28.5242,-0.1786,917.1119],[28.5219,-0.1843,956.3237],[28.5192,-0.1852,940.2861],[28.5179,-0.1926,964.4673],[28.5154,-0.1942,953.1187],[28.5108,-0.1887,942.5035],[28.5044,-0.1869,900.3763],[28.5012,-0.1839,923.6368],[28.4989,-0.1803,948.5498],[28.5032,-0.1754,958.0886],[28.5015,-0.1672,957.7976],[28.4986,-0.1665,961.3252],[28.4885,-0.1548,925.455],[28.4783,-0.1349,937.1885],[28.4746,-0.1253,886.9297],[28.473,-0.1147,853.7819],[28.467,-0.1053,882.7462],[28.464,-0.1024,853.9281],[28.4592,-0.1024,899.634],[28.4492,-0.1075,918.6951],[28.4096,-0.1127,886.1624],[28.3966,-0.116,843.8049],[28.374,-0.1246,892.444],[28.3615,-0.124,835.0667],[28.3487,-0.1298,843.4496],[28.3365,-0.1415,824.433],[28.3082,-0.1573,899.6986],[28.2872,-0.1557,860.9936],[28.2831,-0.1585,847.0686],[28.2759,-0.1719,905.6012],[28.27,-0.1774,875.136],[28.2461,-0.1848,849.8891],[28.2174,-0.2015,824.136],[28.2115,-0.2073,794.3979],[28.1993,-0.233,804.8955],[28.192,-0.2393,800.298],[28.1877,-0.2407,762.7496],[28.1815,-0.24,747.7485],[28.1699,-0.2334,806.7295],[28.1605,-0.2371,773.7367],[28.1535,-0.236,785.5594],[28.145,-0.23,766.0667],[28.1437,-0.2418,783.3147],[28.1469,-0.2477,777.8424],[28.1528,-0.2539,894.6638],[28.1545,-0.2587,856.0715],[28.1531,-0.2654,967.7322],[28.1504,-0.2691,789.6407],[28.1393,-0.2778,771.0596],[28.1336,-0.2797,771.0812],[28.1183,-0.277,776.9456],[28.1135,-0.2777,754.9276],[28.1069,-0.2844,747.1328],[28.1007,-0.2865,753.3511],[28.0962,-0.2936,761.9715],[28.088,-0.2946,771.9777],[28.0732,-0.308,776.8518],[28.0356,-0.309,755.3447],[28.0094,-0.3169,761.4816],[27.9962,-0.3287,744.3464],[27.9908,-0.3397,759.1537],[27.9856,-0.3609,773.8017],[27.9704,-0.3761,766.4218],[27.9633,-0.3782,762.0952],[27.9515,-0.3877,766.2505],[27.9463,-0.4022,800.5626],[27.942,-0.4065,813.0801],[27.9498,-0.4162,840.1698],[27.9571,-0.432,836.1699],[27.9693,-0.4443,786.8245],[27.9739,-0.4618,803.7799],[27.9781,-0.47,766.5687],[27.9756,-0.4884,790.7208],[27.9787,-0.5132,782.1501],[27.9776,-0.5235,796.3119],[27.9708,-0.5387,924.4732],[27.9704,-0.5447,838.5342],[27.9627,-0.55,784.55],[27.9474,-0.5498,779.8728],[27.9415,-0.5545,850.1318],[27.9381,-0.5616,802.421],[27.9356,-0.5763,869.6147],[27.9116,-0.5848,793.5898],[27.9038,-0.594,861.4681],[27.8869,-0.5962,908.4182],[27.841,-0.596,881.6271],[27.8346,-0.6098,1046.7716],[27.8308,-0.6114,1007.5271],[27.8244,-0.6252,1088.8162],[27.8227,-0.6537,873.5765],[27.8273,-0.656,858.4874],[27.831,-0.6663,818.8516],[27.8269,-0.6739,851.7961],[27.8176,-0.6815,865.7843],[27.8089,-0.6861,867.9285],[27.8055,-0.6903,845.9025],[27.8044,-0.6949,822.6235],[27.806,-0.7084,770.9913],[27.8052,-0.7213,785.5092],[27.8082,-0.7314,808.9468],[27.8041,-0.7394,780.7335],[27.8064,-0.7468,847.6616],[27.8053,-0.75,895.2079],[27.8019,-0.7466,791.1608],[27.8,-0.747,812.0232],[27.7978,-0.7539,969.0667],[27.7896,-0.7611,991.4331],[27.7823,-0.7735,972.4219],[27.7801,-0.7804,967.6708],[27.7831,-0.7928,785.0297],[27.7788,-0.8071,813.9575],[27.7795,-0.8154,877.6844],[27.7691,-0.8331,1027.1249],[27.7671,-0.8409,971.5544],[27.7722,-0.865,782.6224],[27.7722,-0.8708,763.4245],[27.7691,-0.8829,641.8837],[27.7663,-0.8857,656.5697],[27.7597,-0.8873,865.0974],[27.7524,-0.8915,753.3128],[27.7203,-0.8948,635.6974],[27.7166,-0.8978,680.1332],[27.712,-0.8967,780.1559],[27.7081,-0.8926,643.7542],[27.7063,-0.8931,760.4501],[27.698,-0.9154,762.4719],[27.69,-0.9237,880.7947],[27.6795,-0.9299,945.8663],[27.6631,-0.9281,894.9681],[27.6533,-0.9305,719.512],[27.6462,-0.927,657.2092],[27.6425,-0.9333,635.011],[27.6384,-0.9344,626.7468],[27.6352,-0.9328,631.4178],[27.6299,-0.9239,637.7335],[27.6208,-0.9244,624.756],[27.6135,-0.9182,621.9689],[27.6071,-0.9159,630.8485],[27.5893,-0.9137,626.8431],[27.5751,-0.9034,625.2936],[27.5554,-0.9051,610.1412],[27.5481,-0.9099,596.7012],[27.5433,-0.9095,602.517],[27.5292,-0.9031,602.7358],[27.5269,-0.9006,605.4658],[27.5218,-0.9011,602.4095],[27.5173,-0.899,589.9263],[27.4997,-0.9004,604.5508],[27.4853,-0.9065,601.3419],[27.4824,-0.9062,596.1003],[27.4637,-0.9148,607.549],[27.457,-0.9157,583.2752],[27.449,-0.9126,595.7302],[27.4417,-0.9135,596.6874],[27.424,-0.9214,596.2177],[27.4094,-0.9299,605.4192],[27.3932,-0.9426,591.309],[27.3859,-0.9452,600.051],[27.3724,-0.9482,602.5752],[27.366,-0.9473,594.0794],[27.3569,-0.943,591.7668],[27.3468,-0.9425,582.0819],[27.3418,-0.9442,585.0164],[27.3345,-0.9502,578.4859],[27.3265,-0.9504,586.6754],[27.3215,-0.9534,584.0903],[27.3108,-0.9551,588.8306],[27.2976,-0.9696,582.3392],[27.2858,-0.9788,586.9041],[27.2821,-0.9802,577.6477],[27.2762,-0.9779,591.4648],[27.2743,-0.9802,589.1048],[27.2767,-0.9958,584.3267],[27.2687,-1.0117,556.8918],[27.2685,-1.0181,554.5],[27.2775,-1.0383,569.1978],[27.278199999999998,-1.0526,565.3392],[27.2698,-1.0611,575.5732],[27.2666,-1.0676,579.5015],[27.2683,-1.0784,585.402],[27.2754,-1.0852,583.9528],[27.2804,-1.0877,582.5765],[27.2841,-1.0923,579.1069],[27.2883,-1.1238,597.0482],[27.2904,-1.1293,599.6429],[27.295,-1.1355,625.8524],[27.3124,-1.1462,588.0629],[27.3215,-1.1556,583.3611],[27.3248,-1.1634,551.5],[27.3335,-1.1715,574.6142],[27.3381,-1.1818,580.8474],[27.3344,-1.1889,554.2824],[27.3272,-1.1924,581.3546],[27.3224,-1.1924,549.5],[27.3027,-1.1814,579.2925],[27.2951,-1.1812,577.9106],[27.2876,-1.1838,547.5],[27.2771,-1.1903,547.0],[27.2751,-1.1893,547.0],[27.2686,-1.1758,576.1855],[27.2652,-1.1728,575.5243],[27.2506,-1.174,545.0],[27.2321,-1.1881,547.9698],[27.2283,-1.1927,571.2087],[27.2271,-1.2049,575.2267]]]]}
,"properties": {"GID_2": "COD.19.11_1","GID_0": "COD","country": "DemocraticRepublicoftheCongo","GID_1": "COD.19_1","province": "Nord-Kivu","NL_NAME_1": "NA","county": "Walikale","VARNAME_2": "NA","NL_NAME_2": "NA","TYPE_2": "Territoire","ENGTYPE_2": "Territory","CC_2": "NA","HASC_2": "NA","name": "Walikale.county","area_km2": 23799.42,"hist_schema_id": "Elevation0-9000","hist_area_km2": {"550": 15.35,"575": 205.6,"600": 683.92,"625": 895.64,"650": 1097.19,"675": 755.58,"700": 610.82,"725": 601.21,"750": 679.02,"775": 903.1,"800": 821.41,"825": 754.16,"850": 803.6,"875": 838.23,"900": 834.83,"925": 791.36,"950": 793.55,"975": 861.33,"1000": 892.94,"1025": 844.06,"1050": 705.74,"1075": 612.27,"1100": 577.78,"1125": 554.53,"1150": 556.25,"1175": 498.5,"1200": 431.61,"1225": 413.32,"1250": 395.98,"1275": 341.37,"1300": 306.95,"1325": 278.4,"1350": 248.43,"1375": 226.66,"1400": 210.0,"1425": 182.98,"1450": 171.17,"1475": 153.34,"1500": 139.72,"1525": 126.62,"1550": 118.6,"1575": 116.34,"1600": 108.41,"1625": 106.29,"1650": 101.82,"1675": 97.03,"1700": 99.83,"1725": 140.13,"1750": 213.48,"1775": 197.37,"1800": 143.71,"1825": 115.11,"1850": 99.38,"1875": 92.11,"1900": 64.38,"1925": 44.05,"1950": 30.49,"1975": 26.18,"2000": 20.2,"2025": 14.76,"2050": 11.83,"2075": 8.2,"2100": 5.94,"2125": 3.92,"2150": 2.25,"2175": 1.36,"2200": 0.76,"2225": 0.57}}}