{"type": "Feature","bbox": [21.5641,-0.4037,23.3565,1.7626],"geometry": {"type": "MultiPolygon","coordinates": [[[[21.6339,0.7256,410.1392],[21.6322,0.7109,422.2185],[21.6249,0.6999,429.7216],[21.6079,0.6908,416.7981],[21.6022,0.6821,412.7499],[21.5717,0.6662,398.8825],[21.5668,0.6624,382.6053],[21.5641,0.6577,389.4382],[21.5686,0.6528,398.6366],[21.5803,0.6469,397.4089],[21.5901,0.6463,389.6499],[21.6856,0.6037,385.3318],[21.698,0.604,392.165],[21.7217,0.6099,405.1732],[21.7428,0.5947,410.1322],[21.7474,0.5944,404.9685],[21.7604,0.6006,409.5625],[21.777,0.5987,409.0104],[21.7864,0.599,397.9608],[21.7938,0.6013,393.4466],[21.7975,0.6004,387.8848],[21.8039,0.5951,391.947],[21.8156,0.5941,391.3978],[21.8197,0.5969,380.9407],[21.8238,0.5971,386.8954],[21.8313,0.5928,395.3419],[21.843,0.5931,399.337],[21.8516,0.5976,400.6265],[21.8598,0.5995,423.364],[21.8863,0.5951,409.2007],[21.9053,0.5959,401.5558],[21.9126,0.593,418.9772],[21.9206,0.5937,416.4703],[21.9405,0.5897,404.6056],[21.95,0.5905,403.336],[21.959,0.5876,415.7656],[21.9642,0.5925,411.8128],[21.9717,0.59,421.3046],[22.0226,0.5895,425.0781],[22.0321,0.578,429.2881],[22.05,0.5625,398.0519],[22.0733,0.5558,444.785],[22.0868,0.5548,448.9365],[22.1011,0.5597,450.1317],[22.1155,0.56,455.5807],[22.1272,0.5571,451.369],[22.1615,0.5432,462.0481],[22.1703,0.5214,455.6265],[22.1872,0.494,437.3444],[22.1899,0.4836,431.7993],[22.2052,0.3741,432.4371],[22.2079,0.3661,436.3783],[22.2261,0.3396,406.9452],[22.2713,0.2827,425.2303],[22.2783,0.2509,432.1608],[22.2701,0.2001,433.0511],[22.2409,0.1862,412.5671],[22.2268,0.1835,428.9366],[22.2183,0.1801,393.1679],[22.2135,0.1746,391.6942],[22.2067,0.1403,419.8841],[22.1979,0.12,376.081],[22.1914,0.1131,380.7232],[22.1878,0.1,388.688],[22.1775,0.0804,388.7458],[22.187,0.083,398.7922],[22.1891,0.0816,397.955],[22.1912,0.0701,399.1194],[22.1967,0.0683,398.9073],[22.2032,0.0789,390.3961],[22.2078,0.0794,381.6559],[22.2262,0.0933,400.541],[22.2344,0.093,411.74],[22.2389,0.0976,402.3974],[22.2469,0.0967,408.3689],[22.2517,0.091,403.642],[22.2613,0.0975,400.7704],[22.2649,0.0987,396.7114],[22.272,0.0976,408.8786],[22.2765,0.1024,408.3041],[22.2813,0.1018,406.1959],[22.2824,0.1043,405.4315],[22.2868,0.1039,391.6499],[22.2896,0.0984,412.1555],[22.2918,0.0973,400.1373],[22.2952,0.1012,408.8026],[22.2989,0.1017,397.5913],[22.3086,0.1137,389.4527],[22.3152,0.1181,393.6404],[22.3227,0.1202,388.2612],[22.3396,0.1146,390.0307],[22.3806,0.055,429.6464],[22.3982,0.0478,444.7533],[22.4137,0.0446,422.3975],[22.44,0.0272,472.4847],[22.4624,0.0157,455.4709],[22.4911,0.0079,481.3528],[22.5327,0.0005,468.1537],[22.595,0.0,413.0983],[22.5997,-0.0019,454.1488],[22.6231,-0.0183,411.6113],[22.6389,-0.0326,477.0689],[22.6518,-0.0411,500.5711],[22.6609,-0.0682,506.0062],[22.6581,-0.0751,487.5966],[22.6588,-0.0783,498.2542],[22.6659,-0.0838,488.5992],[22.6686,-0.1026,447.411],[22.6747,-0.1164,466.9654],[22.6834,-0.1291,470.4672],[22.6783,-0.1387,505.0871],[22.6838,-0.1452,477.7525],[22.705,-0.1457,457.7529],[22.7118,-0.1484,454.8935],[22.7168,-0.154,488.3317],[22.7326,-0.1593,499.9867],[22.762,-0.178,463.7654],[22.7984,-0.2072,492.2995],[22.8515,-0.272,428.8743],[22.8612,-0.2895,429.5089],[22.8694,-0.3165,418.0641],[22.877,-0.3319,415.539],[22.8828,-0.3366,410.5769],[22.8979,-0.3408,427.5402],[22.9096,-0.351,409.9104],[22.9204,-0.3663,415.155],[22.9374,-0.3973,405.228],[22.9436,-0.4037,408.5851],[22.9665,-0.3761,400.168],[22.9786,-0.3656,398.8847],[22.9852,-0.3544,406.683],[22.9923,-0.3505,407.4244],[22.9987,-0.3406,425.862],[23.0049,-0.3363,417.1271],[23.0102,-0.3289,417.1609],[23.0248,-0.3179,412.015],[23.0316,-0.3159,418.6851],[23.0419,-0.3095,429.7007],[23.0538,-0.2989,421.4276],[23.0579,-0.2976,423.8877],[23.0846,-0.2772,428.1407],[23.1384,-0.2895,452.7099],[23.1922,-0.2872,434.0161],[23.2756,-0.2952,425.5529],[23.277,-0.2854,428.0027],[23.2799,-0.2819,432.0219],[23.2884,-0.2785,419.9865],[23.2925,-0.2741,419.7274],[23.3053,-0.2542,422.0249],[23.3197,-0.2358,431.0947],[23.3275,-0.2186,442.7067],[23.3565,-0.1877,437.2839],[23.3474,-0.1707,450.547],[23.3458,-0.1638,468.8515],[23.3214,-0.1429,479.083],[23.3082,-0.1238,459.5443],[23.2934,-0.1208,463.1436],[23.2868,-0.1123,490.6877],[23.2804,-0.1093,490.7695],[23.2631,-0.0893,472.6703],[23.2549,-0.0849,500.378],[23.2426,-0.0741,519.6608],[23.2383,-0.0722,483.0343],[23.2294,-0.0729,464.8559],[23.2241,-0.0692,456.1693],[23.1584,0.0,424.885],[23.1535,0.0075,439.2873],[23.1411,0.0118,420.6064],[23.0935,0.0531,428.3639],[23.0869,0.0647,428.3489],[23.0682,0.0869,433.6946],[23.0526,0.1138,454.3033],[23.049,0.1509,443.4481],[23.0451,0.1573,486.979],[23.0378,0.1639,513.7206],[23.0348,0.1733,537.7116],[23.0315,0.1772,538.9271],[23.0292,0.1788,535.8635],[23.0181,0.1794,554.5322],[23.0139,0.1819,533.8965],[23.0057,0.191,523.3278],[22.996,0.2066,536.0948],[22.9868,0.2157,519.5018],[22.9773,0.252,439.4347],[22.9715,0.2654,457.7405],[22.9563,0.2805,512.4437],[22.9413,0.308,445.3509],[22.9302,0.3369,527.8872],[22.9301,0.3442,531.1668],[22.9588,0.3534,488.3759],[22.9629,0.358,475.1926],[22.9679,0.3603,475.0016],[22.9712,0.3688,495.1688],[22.9694,0.3775,541.3381],[22.9698,0.3844,542.0457],[22.9585,0.4048,497.4152],[22.9527,0.4117,516.8864],[22.9522,0.4149,525.0313],[22.9561,0.4225,517.555],[22.9523,0.4409,471.6493],[22.9534,0.4491,460.0677],[22.952,0.4549,472.7071],[22.9423,0.4642,498.3329],[22.9319,0.4869,522.6225],[22.9275,0.5025,539.1578],[22.9362,0.5363,439.4204],[22.9354,0.5432,444.0876],[22.9372,0.5515,433.5513],[22.9467,0.5683,440.7652],[22.9371,0.5738,440.4456],[22.937,0.5857,439.1043],[22.9324,0.5912,445.1996],[22.9246,0.593,441.3529],[22.9161,0.6033,426.6131],[22.9102,0.6056,419.8488],[22.9035,0.6172,444.8714],[22.8963,0.6257,432.3297],[22.8876,0.6302,428.604],[22.8752,0.6421,442.1133],[22.8745,0.6506,440.4367],[22.871,0.6625,415.4976],[22.8634,0.671,443.3837],[22.8461,0.6989,448.7203],[22.8502,0.7031,443.9709],[22.8499,0.7054,444.6654],[22.8463,0.7076,441.7719],[22.8478,0.712,445.7723],[22.8453,0.7148,447.1778],[22.848,0.724,425.4128],[22.8518,0.7298,419.7369],[22.8495,0.7373,437.8923],[22.8536,0.7438,434.9971],[22.8533,0.7481,432.877],[22.8498,0.7546,436.5918],[22.8528,0.7587,434.5007],[22.85,0.7642,421.6556],[22.8575,0.7771,407.34],[22.8535,0.7879,432.8443],[22.8546,0.7978,408.0988],[22.849,0.8106,428.7827],[22.8494,0.8166,424.7849],[22.8478,0.8191,425.3343],[22.8487,0.8253,420.7256],[22.8391,0.8299,428.5076],[22.84,0.8349,424.0592],[22.8309,0.8519,436.6112],[22.8329,0.8616,407.4509],[22.8286,0.8743,433.9146],[22.8263,0.8747,435.1403],[22.8223,0.8822,438.0477],[22.8208,0.8946,405.0957],[22.8219,0.9017,423.8093],[22.8328,0.913,428.6431],[22.8319,0.9156,425.9839],[22.8264,0.9153,437.9352],[22.8239,0.9176,436.4897],[22.8246,0.9203,436.8843],[22.8204,0.9279,413.7377],[22.8227,0.9311,425.3218],[22.8231,0.9364,432.5714],[22.8203,0.9419,430.1126],[22.8226,0.9463,421.0846],[22.8223,0.9555,410.2793],[22.8259,0.9603,403.4539],[22.8238,0.9643,417.1302],[22.8233,0.9721,419.3964],[22.8256,0.9764,408.522],[22.8181,0.9913,408.9103],[22.8117,0.997,413.588],[22.805,1.0062,410.4621],[22.7976,1.0245,403.1325],[22.7928,1.0261,405.4302],[22.7852,1.0373,406.0454],[22.7836,1.0442,402.0135],[22.7889,1.0608,384.2855],[22.7884,1.0659,392.2018],[22.7836,1.0677,399.2275],[22.7824,1.0752,398.2445],[22.7748,1.0851,400.5735],[22.7787,1.0892,397.4577],[22.7743,1.0966,398.5124],[22.7681,1.0958,410.5828],[22.7592,1.0988,400.7411],[22.7495,1.1141,402.03],[22.749,1.1247,400.6332],[22.7402,1.1334,418.4365],[22.7413,1.143,405.385],[22.7365,1.1474,416.5064],[22.7365,1.151,416.94],[22.7403,1.1626,389.531],[22.735,1.1731,392.3943],[22.7272,1.1698,397.1877],[22.7235,1.1716,395.689],[22.721,1.1801,401.5861],[22.7257,1.1848,389.2861],[22.726,1.1873,399.1159],[22.718,1.187,409.009],[22.712,1.1964,410.1285],[22.7149,1.2038,392.3931],[22.7142,1.2086,395.0977],[22.7107,1.2122,393.5318],[22.7055,1.2125,403.5149],[22.7027,1.2143,401.922],[22.7008,1.22,400.8746],[22.6906,1.2204,410.4356],[22.6871,1.2231,396.4378],[22.6905,1.2274,400.6786],[22.6875,1.2314,412.8322],[22.6818,1.2332,412.9173],[22.6831,1.2371,414.8798],[22.6808,1.241,415.769],[22.6868,1.2424,410.8111],[22.6865,1.2443,406.1694],[22.6815,1.2461,414.8727],[22.6748,1.2513,413.7692],[22.6807,1.2613,402.6728],[22.6814,1.2652,403.8393],[22.6784,1.2691,396.5539],[22.6729,1.2711,405.6421],[22.6735,1.2764,402.1504],[22.6694,1.2803,389.6055],[22.6695,1.2888,393.1575],[22.6586,1.2908,393.808],[22.6544,1.2935,398.5414],[22.6537,1.2963,394.5139],[22.6553,1.3,392.9731],[22.6498,1.3038,394.6628],[22.6491,1.307,392.4827],[22.655,1.3121,390.8733],[22.6552,1.316,394.0449],[22.6476,1.3217,400.1796],[22.6467,1.3252,398.4796],[22.6483,1.3284,391.2928],[22.6469,1.3302,391.3186],[22.6386,1.335,408.8711],[22.6379,1.3387,392.8628],[22.6399,1.3442,396.5992],[22.6273,1.3513,408.5154],[22.63,1.3568,398.079],[22.6245,1.3671,396.3319],[22.6213,1.3698,393.3648],[22.6176,1.3648,396.2366],[22.6066,1.3674,401.6591],[22.6046,1.3709,402.2114],[22.6052,1.3746,406.0204],[22.5988,1.3789,403.0038],[22.5988,1.3853,403.5717],[22.5944,1.3885,407.1575],[22.5944,1.3927,402.4409],[22.590699999999998,1.3963,400.3403],[22.5861,1.3984,393.2504],[22.5779,1.3951,407.2256],[22.5721,1.4031,405.6153],[22.5627,1.4095,399.3626],[22.5616,1.4127,396.1845],[22.5627,1.417,390.2093],[22.5597,1.4207,393.1103],[22.5603,1.4251,389.4995],[22.5569,1.4287,391.4406],[22.55,1.4305,391.7428],[22.5479,1.4347,390.451],[22.5413,1.436,376.2295],[22.5399,1.4387,380.8042],[22.5351,1.4412,389.321],[22.5275,1.4412,383.4365],[22.5241,1.4446,384.7084],[22.5229,1.4483,384.5486],[22.5145,1.4468,386.5896],[22.5105,1.4551,380.4156],[22.5025,1.4603,385.1044],[22.4979,1.4612,381.7247],[22.4952,1.4564,381.8208],[22.4925,1.4557,390.5262],[22.4916,1.4593,387.6118],[22.4895,1.4609,382.2076],[22.484,1.4616,385.1203],[22.484,1.4666,379.983],[22.4803,1.4685,380.8106],[22.4794,1.4726,387.8134],[22.4768,1.4739,391.1143],[22.4757,1.4682,381.1623],[22.4739,1.4663,382.8842],[22.4691,1.4658,394.8243],[22.4631,1.4734,388.0327],[22.4651,1.4796,371.4045],[22.463,1.484,378.811],[22.4612,1.4824,367.3885],[22.4601,1.4768,389.0897],[22.4572,1.4738,383.7233],[22.4485,1.4756,385.3054],[22.4446,1.4726,389.2739],[22.4419,1.4758,395.3016],[22.4345,1.4748,406.6529],[22.4297,1.4819,387.3167],[22.4231,1.4749,399.3832],[22.4197,1.4756,386.8382],[22.4132,1.4839,380.5302],[22.4066,1.4877,381.1628],[22.4,1.4851,385.929],[22.3956,1.486,384.6567],[22.3926,1.4895,385.7574],[22.3965,1.4971,371.5006],[22.3848,1.4991,385.6115],[22.3851,1.4903,387.1006],[22.3828,1.4876,388.0038],[22.3805,1.4873,388.8161],[22.3776,1.4893,388.1441],[22.3718,1.4989,383.0834],[22.3645,1.5015,383.8129],[22.3626,1.4987,381.6754],[22.3537,1.4981,385.7324],[22.3508,1.4908,385.9539],[22.3465,1.4903,384.9688],[22.3373,1.4946,388.2085],[22.3357,1.4999,385.6911],[22.3331,1.5024,382.9969],[22.3272,1.5003,383.4732],[22.3238,1.5034,376.5344],[22.3224,1.4988,389.3579],[22.3199,1.4984,388.9611],[22.3167,1.4933,380.2761],[22.3113,1.4928,380.5165],[22.3,1.4987,388.7196],[22.2905,1.4954,390.2809],[22.2877,1.5018,392.2474],[22.2854,1.5025,388.1892],[22.2813,1.499,391.661],[22.2772,1.4997,390.0451],[22.2739,1.5079,387.282],[22.27,1.5111,387.528],[22.2634,1.5106,389.0898],[22.2597,1.5143,387.3185],[22.2513,1.5119,386.6385],[22.2473,1.5264,386.5797],[22.2543,1.537,376.1195],[22.2572,1.5483,378.0455],[22.2534,1.565,397.2696],[22.2536,1.571,401.48],[22.2619,1.5849,383.8837],[22.2621,1.5945,390.7375],[22.2654,1.6038,399.9582],[22.2672,1.6185,400.0034],[22.2648,1.6281,409.5406],[22.2684,1.6408,387.8263],[22.2767,1.6531,389.6044],[22.2848,1.672,389.4241],[22.3091,1.6815,451.7645],[22.3338,1.6959,427.9685],[22.3724,1.7107,424.6578],[22.3341,1.7527,443.1412],[22.324,1.7574,477.2974],[22.3027,1.7507,465.7194],[22.2812,1.738,423.7724],[22.2713,1.7377,457.8956],[22.198,1.7592,417.666],[22.1778,1.7619,438.6848],[22.1274,1.7626,420.276],[22.0726,1.7614,443.513],[22.0519,1.7592,457.4472],[21.9963,1.7406,487.038],[21.9483,1.7223,449.705],[21.9218,1.7164,447.7285],[21.92,1.7146,438.2826],[21.8981,1.7117,432.2287],[21.8937,1.7096,446.7785],[21.8906,1.7038,457.7523],[21.8757,1.7012,477.8589],[21.8696,1.5554,390.5641],[21.8664,1.4206,486.5015],[21.8621,1.3952,458.2566],[21.861,1.3509,452.3529],[21.8631,1.3322,450.175],[21.8658,1.3289,441.9068],[21.8834,1.3237,397.0132],[21.891,1.3181,395.243],[21.8982,1.3093,431.054],[21.9054,1.2977,443.6093],[21.9133,1.2773,379.6509],[21.9347,1.232,382.3693],[21.9377,1.1429,408.6063],[22.0173,1.1231,402.8744],[22.0447,1.0939,407.0763],[22.054,1.0798,390.3635],[22.0662,1.0556,396.3016],[22.0681,1.0467,394.3607],[22.0779,1.0338,405.7495],[22.0859,1.0123,412.2895],[22.1022,0.957,449.2076],[22.1059,0.928,426.5869],[22.0902,0.935,446.2458],[22.0377,0.9464,403.3057],[22.0106,0.9502,437.9733],[21.9671,0.9511,463.8786],[21.9508,0.9451,453.9835],[21.91,0.9162,455.5345],[21.8636,0.8651,440.3767],[21.7957,0.8581,440.7965],[21.7636,0.8888,409.2484],[21.7425,0.8985,392.2791],[21.7277,0.9027,391.8279],[21.7094,0.9002,385.694],[21.6598,0.8862,442.8205],[21.6581,0.8825,425.532],[21.6644,0.8659,418.8045],[21.666,0.845,425.2322],[21.6642,0.8196,427.6526],[21.6486,0.757,394.5024],[21.6339,0.7256,410.1392]]]]}
,"properties": {"GID_2": "COD.26.5_1","GID_0": "COD","country": "DemocraticRepublicoftheCongo","GID_1": "COD.26_1","province": "Tshuapa","NL_NAME_1": "NA","county": "Djolu","VARNAME_2": "NA","NL_NAME_2": "NA","TYPE_2": "Territoire","ENGTYPE_2": "Territory","CC_2": "NA","HASC_2": "NA","name": "Djolu.county","area_km2": 18933.73,"hist_schema_id": "Elevation0-9000","hist_area_km2": {"350": 15.98,"375": 709.72,"400": 2336.3,"425": 4105.6,"450": 5055.26,"475": 3764.58,"500": 2191.84,"525": 683.56,"550": 70.73,"575": 0.15}}}