{"type":"Feature","properties":{"GID_2":"COD.14.8_1","GID_0":"COD","country":"DemocraticRepublicoftheCongo","GID_1":"COD.14_1","province":"Lomami","NL_NAME_1":"NA","county":"Ngandajika","VARNAME_2":"NA","NL_NAME_2":"NA","TYPE_2":"Territoire","ENGTYPE_2":"Territory","CC_2":"NA","HASC_2":"NA","name":"Ngandajika.county"},
"geometry":{"type": "MultiPolygon","coordinates": [[[[24.9275,-6.7104,870.97],[24.9286,-6.7019,872.6838],[24.9219,-6.6937,897.2221],[24.9137,-6.6948,871.86],[24.9063,-6.6983,869.17],[24.9017,-6.6964,869.0245],[24.8939,-6.6992,856.8871],[24.8792,-6.7003,813.6542],[24.8626,-6.7089,738.7483],[24.8555,-6.7091,732.5746],[24.8472,-6.707,733.3724],[24.8325,-6.7077,739.3307],[24.8251,-6.7029,722.4016],[24.8187,-6.7024,726.0246],[24.8037,-6.6925,717.3613],[24.7895,-6.6969,700.1509],[24.781,-6.6944,712.0862],[24.7734,-6.6946,716.3748],[24.7639,-6.6987,689.9632],[24.758,-6.6985,699.7054],[24.7536,-6.6942,722.8389],[24.7469,-6.6831,683.7713],[24.7428,-6.6801,696.9771],[24.734,-6.6811,687.1674],[24.7246,-6.6705,696.7435],[24.7182,-6.6774,679.4518],[24.7136,-6.6778,691.9838],[24.7053,-6.6884,683.1878],[24.6931,-6.687,697.8063],[24.6885,-6.6905,676.7515],[24.6786,-6.6912,704.3771],[24.6724,-6.696,684.979],[24.6563,-6.6958,667.7687],[24.6526,-6.6923,688.2544],[24.6513,-6.676,673.4355],[24.6565,-6.6592,685.3781],[24.6554,-6.6457,672.4589],[24.6522,-6.6394,673.3229],[24.6471,-6.6346,688.9422],[24.6462,-6.6259,693.1713],[24.6342,-6.6107,690.933],[24.6338,-6.6022,690.5204],[24.6363,-6.5877,712.52],[24.6304,-6.582,694.0118],[24.5381,-6.5865,816.8818],[24.5142,-6.5921,791.8162],[24.508,-6.5907,825.2744],[24.5022,-6.5916,768.435],[24.497,-6.5953,758.0054],[24.4765,-6.5955,779.9407],[24.4707,-6.6008,799.0598],[24.448,-6.6097,693.0311],[24.4374,-6.6091,685.9333],[24.43,-6.6049,675.4375],[24.4181,-6.6042,669.3247],[24.4036,-6.5877,663.6755],[24.3729,-6.5411,694.3522],[24.3452,-6.5046,690.8047],[24.3412,-6.4945,706.808],[24.3394,-6.4617,679.4477],[24.2924,-6.4515,701.3157],[24.2691,-6.4497,680.4156],[24.2657,-6.4529,680.3752],[24.262,-6.4609,704.6273],[24.26,-6.4709,689.162],[24.2556,-6.4751,663.2796],[24.2214,-6.4783,651.223],[24.192,-6.4927,633.5397],[24.1847,-6.4941,630.0066],[24.1758,-6.4901,634.9677],[24.1459,-6.4562,638.7388],[24.1341,-6.4393,664.1373],[24.1216,-6.4306,717.2418],[24.1187,-6.4264,683.638],[24.1296,-6.3907,715.3143],[24.1308,-6.3742,732.0991],[24.1238,-6.3668,695.4327],[24.113,-6.3654,689.6547],[24.1099,-6.348,640.5833],[24.107,-6.3441,653.3642],[24.1032,-6.345,642.4947],[24.0914,-6.355,623.1019],[24.0882,-6.3598,614.7718],[24.0833,-6.3586,623.4973],[24.0762,-6.3626,616.1729],[24.0765,-6.369,608.6906],[24.0676,-6.3749,610.3243],[24.0657,-6.3798,601.2772],[24.0565,-6.3793,607.2444],[24.0482,-6.3852,598.2265],[24.0427,-6.3855,599.4717],[24.0379,-6.3895,589.7591],[24.0216,-6.3874,584.7278],[24.0165,-6.395,587.5358],[23.9905,-6.3934,586.4761],[23.9845,-6.3996,572.595],[23.9799,-6.3996,570.4175],[23.9749,-6.3959,593.6889],[23.9701,-6.4003,566.8823],[23.9659,-6.3996,567.8522],[23.9487,-6.4062,614.8261],[23.9402,-6.4122,556.3284],[23.9351,-6.4103,554.4577],[23.9285,-6.4048,612.3203],[23.9271,-6.4064,598.5966],[23.9273,-6.4103,566.7526],[23.9234,-6.4083,591.7731],[23.917,-6.4082,553.843],[23.9126,-6.4046,546.9103],[23.9073,-6.403,546.6884],[23.9094,-6.3988,546.518],[23.9066,-6.3885,547.1329],[23.9046,-6.3866,549.8277],[23.8963,-6.3887,544.886],[23.8816,-6.385,553.3437],[23.8767,-6.391,556.3938],[23.862,-6.3905,548.1854],[23.8551,-6.3935,543.0042],[23.8526,-6.3925,542.8871],[23.8466,-6.3833,544.329],[23.8489,-6.3759,544.3378],[23.8432,-6.3695,538.0],[23.8393,-6.3677,541.3433],[23.8082,-6.3904,583.6907],[23.8087,-6.3939,608.9003],[23.814,-6.3978,552.3047],[23.8151,-6.4012,545.3538],[23.8133,-6.4035,559.3337],[23.8075,-6.4033,547.8031],[23.7993,-6.3941,575.9271],[23.796,-6.3936,610.3776],[23.7942,-6.3969,597.4448],[23.7935,-6.4125,557.8785],[23.7914,-6.4168,597.8883],[23.7986,-6.4235,556.8806],[23.8052,-6.4362,570.376],[23.8052,-6.4396,622.1068],[23.8031,-6.444,630.1027],[23.7985,-6.4454,624.0259],[23.7972,-6.4481,632.7108],[23.7997,-6.4539,559.8625],[23.7969,-6.4637,566.6836],[23.7928,-6.466,569.0083],[23.787,-6.4791,560.03],[23.7764,-6.4787,577.7668],[23.776,-6.4828,580.6403],[23.7803,-6.489,561.5345],[23.7808,-6.4929,559.3177],[23.779,-6.4977,562.409],[23.7656,-6.5078,572.1432],[23.7668,-6.5108,571.8037],[23.7732,-6.5125,563.0673],[23.7753,-6.5171,561.3965],[23.7849,-6.5201,576.3844],[23.7861,-6.5223,575.6459],[23.7828,-6.5249,561.6166],[23.7776,-6.5251,572.5442],[23.7718,-6.5389,574.2349],[23.7697,-6.5465,583.1439],[23.7704,-6.5529,580.732],[23.7667,-6.5653,577.4647],[23.7711,-6.5747,564.795],[23.7674,-6.5809,584.4637],[23.7623,-6.5842,603.6489],[23.7557,-6.5839,613.6385],[23.7483,-6.5811,608.5411],[23.7455,-6.5947,597.6873],[23.7483,-6.6085,607.6064],[23.7471,-6.6156,637.4404],[23.7487,-6.6211,619.1283],[23.7473,-6.625,639.1587],[23.7402,-6.6315,591.4133],[23.7437,-6.6381,588.1565],[23.7466,-6.6402,588.7977],[23.7577,-6.64,655.7712],[23.763,-6.643,613.1048],[23.7565,-6.6508,602.9259],[23.7607,-6.6529,597.0005],[23.7733,-6.654,629.3694],[23.7788,-6.6563,619.2543],[23.7839,-6.6616,589.6665],[23.7857,-6.6672,591.3522],[23.7774,-6.6722,598.5639],[23.7719,-6.6731,591.0377],[23.765,-6.6703,600.7389],[23.7595,-6.6719,620.2388],[23.7551,-6.6754,596.0242],[23.7468,-6.6919,602.9094],[23.7279,-6.7192,638.1774],[23.7289,-6.7216,606.2109],[23.7374,-6.7278,632.3334],[23.7338,-6.7437,657.3097],[23.7417,-6.7504,657.5813],[23.7531,-6.7501,659.8595],[23.779,-6.7589,688.842],[23.7878,-6.7588,687.0003],[23.7969,-6.7554,685.4857],[23.8056,-6.7567,690.9742],[23.8095,-6.7616,674.2946],[23.806,-6.7769,673.0425],[23.8076,-6.7827,698.2889],[23.815,-6.7902,684.7684],[23.8234,-6.7888,698.2703],[23.8347,-6.7996,695.0474],[23.8621,-6.7993,698.6056],[23.8728,-6.8054,711.9955],[23.8728,-6.8181,690.5284],[23.8705,-6.8243,689.1112],[23.863,-6.8341,678.6788],[23.8604,-6.8423,683.8471],[23.8617,-6.847,695.0739],[23.867,-6.8519,694.3892],[23.9045,-6.8635,717.6879],[23.9084,-6.8672,719.7407],[23.9101,-6.8719,715.8968],[23.9094,-6.8842,729.6826],[23.9144,-6.8913,718.4684],[23.9262,-6.8996,757.288],[23.9348,-6.9003,761.7205],[23.9901,-6.8922,710.9888],[24.0185,-6.8833,717.6787],[24.0384,-6.887,722.6493],[24.0507,-6.9006,704.0376],[24.0597,-6.9168,697.2222],[24.0717,-6.9303,668.9979],[24.0776,-6.9267,665.0119],[24.1048,-6.9262,672.174],[24.1131,-6.9216,656.8157],[24.1234,-6.9118,722.3345],[24.1299,-6.9111,716.3741],[24.1352,-6.9056,651.0075],[24.1375,-6.9067,622.637],[24.1423,-6.9026,711.4268],[24.1471,-6.9031,628.0455],[24.1508,-6.9012,628.2669],[24.1598,-6.9019,625.414],[24.1775,-6.9063,631.4288],[24.1795,-6.9093,639.3799],[24.1874,-6.9109,629.6248],[24.191,-6.9224,646.033],[24.2012,-6.9258,632.9514],[24.2074,-6.9357,635.7426],[24.2106,-6.9447,640.1245],[24.217,-6.9504,635.7902],[24.2191,-6.9592,637.8239],[24.2281,-6.9741,638.7103],[24.2258,-6.9851,640.2203],[24.2287,-6.9932,642.7716],[24.2283,-6.9982,639.3268],[24.2264,-7.0021,640.6287],[24.2232,-7.0026,640.3716],[24.2198,-7.0058,641.2557],[24.2179,-7.0099,641.4404],[24.2255,-7.0171,651.1395],[24.231,-7.015,644.4568],[24.2324,-7.0182,652.863],[24.2359,-7.0196,660.8964],[24.2416,-7.0178,646.9866],[24.2448,-7.0203,656.3917],[24.2499,-7.0205,657.8767],[24.2538,-7.0166,648.1083],[24.2665,-7.0173,666.1248],[24.2715,-7.0205,662.7069],[24.2738,-7.0251,666.5944],[24.2796,-7.0249,666.1637],[24.2869,-7.0295,670.8969],[24.2922,-7.0284,659.7026],[24.2973,-7.0332,672.9524],[24.301,-7.0334,666.3299],[24.304,-7.0314,662.2869],[24.3067,-7.0323,664.9637],[24.3097,-7.0408,683.3174],[24.3164,-7.0422,673.5074],[24.3224,-7.0502,678.3232],[24.3451,-7.0587,686.8267],[24.3527,-7.0553,685.869],[24.3796,-7.0581,725.7015],[24.3974,-7.0463,760.8613],[24.4135,-7.0466,804.6591],[24.4315,-7.0518,823.2834],[24.452,-7.0539,809.1147],[24.483,-7.0541,787.1536],[24.5046,-7.0442,795.9464],[24.5162,-6.9959,778.6916],[24.5204,-6.9901,753.9778],[24.5241,-6.9876,737.4833],[24.5293,-6.9876,716.0382],[24.5471,-7.0091,765.6085],[24.5538,-7.0129,773.3516],[24.6195,-6.9833,785.9562],[24.644,-6.9802,679.387],[24.6426,-6.9754,664.6314],[24.6437,-6.9607,722.8577],[24.6527,-6.9573,684.0122],[24.6564,-6.9508,651.5754],[24.6612,-6.9506,666.7749],[24.669,-6.9552,657.1869],[24.6828,-6.9524,689.0978],[24.6904,-6.9531,663.8554],[24.695,-6.9485,685.2271],[24.698,-6.9483,683.0502],[24.6987,-6.9433,694.7308],[24.7049,-6.9419,674.2086],[24.7063,-6.9387,686.288],[24.7056,-6.9334,686.9926],[24.7102,-6.929,693.7892],[24.7148,-6.9288,682.5955],[24.7169,-6.9263,690.5984],[24.7217,-6.9265,679.056],[24.7206,-6.9212,683.8379],[24.7275,-6.9203,678.8174],[24.7281,-6.9184,679.1067],[24.7256,-6.9145,693.8702],[24.7355,-6.9109,691.3976],[24.7373,-6.9086,685.5601],[24.7341,-6.9028,700.4246],[24.7488,-6.8899,689.6924],[24.7769,-6.8918,692.5533],[24.7813,-6.8902,697.5283],[24.7843,-6.887,705.3898],[24.787,-6.8748,721.6581],[24.7902,-6.8688,719.9771],[24.8031,-6.8582,716.9681],[24.8169,-6.8417,743.8907],[24.8475,-6.8272,755.6956],[24.8461,-6.8153,748.9895],[24.8408,-6.7947,811.8151],[24.8481,-6.7835,868.6829],[24.8755,-6.7578,861.1695],[24.8945,-6.7506,871.3878],[24.9264,-6.7502,894.7215],[24.9324,-6.7461,886.7629],[24.931,-6.7255,887.0486],[24.9275,-6.7104,870.97]],
[[23.9795,-6.7781,765.8942],[23.9673,-6.7805,776.5513],[23.9527,-6.78,742.3499],[23.9414,-6.7762,739.7855],[23.9324,-6.771,729.2793],[23.9272,-6.7466,748.2004],[23.939,-6.7296,763.1451],[23.9574,-6.7254,796.7412],[23.9644,-6.7221,785.0504],[23.9748,-6.7207,736.7181],[23.987,-6.724,732.4788],[23.9913,-6.7287,725.9362],[24.0007,-6.748,709.5363],[24.0007,-6.7569,709.5197],[23.9927,-6.7696,743.2198],[23.9795,-6.7781,765.8942]]]]}}