{"type": "Feature","bbox": [18.8454,-4.399,21.0233,-1.895],"geometry": {"type": "MultiPolygon","coordinates": [[[[21.0163,-2.4944,429.7685],[21.0198,-2.4653,418.6741],[21.0201,-2.4346,415.6746],[21.0233,-2.417,434.4147],[21.0231,-2.4088,402.1548],[21.0223,-2.4037,440.3784],[21.015,-2.3922,412.7282],[21.0118,-2.3838,409.682],[20.9869,-2.3712,447.2909],[20.9609,-2.347,504.5691],[20.9575,-2.3401,456.1841],[20.9548,-2.3244,468.3941],[20.9298,-2.2902,429.2926],[20.9278,-2.2769,477.5412],[20.921,-2.2656,465.422],[20.9055,-2.2471,405.2022],[20.8887,-2.2146,413.4769],[20.878,-2.2054,412.9501],[20.8602,-2.203,397.4515],[20.8435,-2.1932,406.2212],[20.8319,-2.1766,387.1488],[20.8242,-2.1683,385.3165],[20.8112,-2.159,406.0253],[20.7976,-2.1438,394.8128],[20.786,-2.1265,381.2045],[20.7803,-2.1207,384.8642],[20.7741,-2.1177,393.3019],[20.7675,-2.1119,372.6064],[20.7587,-2.0992,406.0275],[20.7395,-2.0807,383.4036],[20.7311,-2.0639,402.7133],[20.7223,-2.051,373.3839],[20.7169,-2.036,379.1682],[20.7107,-2.027,387.8764],[20.6864,-2.0034,422.011],[20.6832,-1.996,388.973],[20.6686,-1.9785,400.0369],[20.6575,-1.9605,382.1453],[20.6502,-1.9655,409.3287],[20.6465,-1.9731,413.5632],[20.6416,-1.9942,432.3853],[20.6379,-1.9997,440.4625],[20.6299,-2.005,410.4309],[20.6255,-2.0132,438.1872],[20.6136,-2.0178,427.7971],[20.5835,-2.0249,455.119],[20.5433,-2.0313,425.527],[20.5379,-2.0348,419.288],[20.5214,-2.0601,415.8857],[20.5074,-2.0716,409.434],[20.4953,-2.074,405.7272],[20.4708,-2.0895,412.5891],[20.433,-2.0965,411.432],[20.4276,-2.0994,386.1678],[20.4142,-2.1118,405.1829],[20.3977,-2.1195,373.6498],[20.3852,-2.1051,419.9456],[20.3588,-2.0852,364.7455],[20.3476,-2.0808,395.7511],[20.3262,-2.065,417.2439],[20.3157,-2.0528,369.5105],[20.2885,-2.0407,402.0927],[20.268,-2.0369,411.139],[20.2554,-2.0331,381.7196],[20.2474,-2.0289,388.9089],[20.242,-2.0229,386.5874],[20.2395,-2.0176,390.3429],[20.2386,-2.0064,372.3337],[20.2419,-1.9992,384.952],[20.2355,-1.9875,384.3438],[20.2235,-1.975,370.9457],[20.1895,-1.9617,365.2146],[20.1849,-1.9585,351.6196],[20.1761,-1.9451,347.0275],[20.1658,-1.9347,347.4515],[20.1613,-1.9245,348.3853],[20.1535,-1.9191,353.4724],[20.1436,-1.9162,366.1945],[20.1215,-1.916,370.9075],[19.9695,-1.8957,352.9772],[19.933,-1.895,356.3076],[19.9276,-1.8972,356.7302],[19.9339,-1.9034,359.8005],[19.9407,-1.9276,383.7592],[19.9479,-1.9405,391.9423],[19.9494,-1.9548,361.1798],[19.9526,-1.9608,387.0215],[19.9537,-1.9684,380.3058],[19.9498,-1.9759,367.8617],[19.945,-1.9817,386.146],[19.9307,-1.9864,380.3132],[19.8924,-1.9871,364.0644],[19.8841,-1.9907,371.3068],[19.8778,-2.0018,364.9904],[19.8755,-2.0114,368.9425],[19.8786,-2.0287,361.025],[19.8763,-2.0381,375.175],[19.8386,-2.0382,351.5577],[19.8264,-2.043,364.3946],[19.8179,-2.0483,356.9012],[19.8141,-2.0567,354.1574],[19.813,-2.0651,362.587],[19.8146,-2.0722,361.0302],[19.7918,-2.0941,346.2814],[19.7706,-2.1191,342.7148],[19.7488,-2.1403,338.5437],[19.7286,-2.1437,329.842],[19.7211,-2.1471,331.5102],[19.7056,-2.1626,329.1165],[19.691,-2.1717,321.1121],[19.6673,-2.1819,317.0283],[19.6538,-2.1841,314.5847],[19.6418,-2.1895,321.0569],[19.6212,-2.2039,317.9784],[19.5577,-2.2307,318.6894],[19.5522,-2.2295,322.8232],[19.5408,-2.2322,321.3368],[19.525,-2.239,323.1722],[19.5133,-2.2396,322.384],[19.4998,-2.2441,314.4518],[19.4839,-2.2615,324.9572],[19.4802,-2.2633,320.8916],[19.4759,-2.2631,323.6005],[19.4635,-2.2699,320.5184],[19.4362,-2.2805,319.6462],[19.4213,-2.2825,317.534],[19.4082,-2.2909,318.5923],[19.4032,-2.2904,317.403],[19.3932,-2.2848,319.0159],[19.3874,-2.2855,319.6267],[19.3766,-2.2944,320.6872],[19.362,-2.2885,316.5926],[19.3493,-2.2756,318.9937],[19.3356,-2.2808,320.3183],[19.304,-2.2748,319.7638],[19.2999,-2.2766,321.6754],[19.2994,-2.2916,322.0066],[19.3075,-2.307,321.312],[19.3109,-2.3059,322.5018],[19.3216,-2.3168,321.4415],[19.3241,-2.3262,321.7737],[19.3279,-2.3306,319.149],[19.3288,-2.3407,317.2177],[19.3405,-2.3664,323.8643],[19.3473,-2.3756,324.1271],[19.3509,-2.3839,320.7457],[19.3488,-2.4041,323.6658],[19.3399,-2.4303,324.6408],[19.3415,-2.4361,323.3192],[19.3478,-2.4423,319.9123],[19.3695,-2.4535,326.5591],[19.3821,-2.4529,332.7343],[19.3668,-2.4978,317.9733],[19.3332,-2.5446,321.5615],[19.3295,-2.5531,323.9655],[19.3281,-2.6844,330.3378],[19.3265,-2.6986,336.519],[19.3222,-2.7076,332.7573],[19.311,-2.7092,336.5275],[19.2993,-2.7077,319.6426],[19.2821,-2.7119,331.0959],[19.2741,-2.7397,338.3575],[19.2725,-2.7517,333.7764],[19.2689,-2.7603,335.4578],[19.2657,-2.7608,337.1995],[19.2604,-2.7587,338.2886],[19.2546,-2.7535,338.3478],[19.1666,-2.6702,336.0255],[19.121,-2.631,339.0374],[19.0865,-2.5948,324.0619],[19.0724,-2.5831,326.4489],[19.0662,-2.5759,332.8761],[19.0416,-2.5661,319.8099],[19.0332,-2.5849,320.0796],[19.0276,-2.609,316.4756],[19.0268,-2.6216,322.9658],[19.0271,-2.6419,332.097],[19.03,-2.6582,327.1278],[19.0417,-2.693,334.2761],[19.0407,-2.708,330.1483],[19.0442,-2.7331,330.1441],[19.0437,-2.7404,335.8643],[19.0313,-2.7671,357.1177],[19.0407,-2.8361,335.4031],[19.0452,-2.8548,348.3198],[19.0514,-2.897,356.3708],[19.0516,-2.9209,367.4484],[19.0468,-2.948,386.6484],[19.038,-2.9654,354.2394],[19.0297,-2.9764,377.997],[19.0161,-2.9865,369.573],[19.0,-2.9957,343.8466],[18.9966,-3.0015,337.3821],[18.9865,-3.0308,369.4599],[18.9815,-3.0361,363.6226],[18.9676,-3.0429,365.9403],[18.9582,-3.0441,364.1822],[18.9336,-3.0551,387.021],[18.9146,-3.0612,389.585],[18.9007,-3.0677,371.1021],[18.8948,-3.0735,358.8431],[18.8894,-3.083,334.0717],[18.8775,-3.1226,337.6949],[18.8723,-3.1333,366.4871],[18.8481,-3.1686,336.7189],[18.8456,-3.1774,322.8111],[18.8454,-3.1836,322.1957],[18.8505,-3.185,325.8405],[18.8533,-3.1882,320.3668],[18.8536,-3.1969,330.1853],[18.8571,-3.2061,355.3084],[18.8665,-3.2189,315.6908],[18.8737,-3.2221,321.797],[18.8863,-3.2222,355.8863],[18.8936,-3.2298,319.0049],[18.9012,-3.2286,350.5657],[18.9053,-3.2221,359.1031],[18.9142,-3.2218,365.4347],[18.9201,-3.2169,366.8975],[18.9464,-3.2126,347.5786],[18.9501,-3.2133,341.1316],[18.9575,-3.2238,338.8052],[18.9787,-3.2377,349.886],[18.9913,-3.2371,370.7243],[18.9966,-3.241,333.6055],[18.9945,-3.2454,334.1793],[18.9958,-3.2562,338.6937],[18.9942,-3.2661,328.634],[18.9913,-3.2721,325.9224],[18.9665,-3.2925,320.1138],[18.9526,-3.3005,321.6237],[18.9316,-3.3218,332.1128],[18.9207,-3.3357,328.8245],[18.9174,-3.3456,342.6682],[18.911,-3.3557,350.8946],[18.8858,-3.378,379.3863],[18.8715,-3.399,339.1429],[18.8582,-3.4314,342.5424],[18.8585,-3.4454,341.9624],[18.867,-3.4709,347.5281],[18.8848,-3.4912,394.5202],[18.9025,-3.5049,404.7261],[18.9111,-3.5168,386.7337],[18.9184,-3.5232,434.7518],[18.9235,-3.5305,418.054],[18.9271,-3.5457,434.2004],[18.9135,-3.5614,413.2715],[18.914,-3.5681,387.3359],[18.9256,-3.5892,381.7397],[18.9268,-3.5954,364.8705],[18.9259,-3.6019,357.8272],[18.9196,-3.6128999999999998,346.2216],[18.909,-3.6441,330.3756],[18.9039,-3.6704,340.3784],[18.9074,-3.6729,343.3616],[18.9315,-3.6791,340.2292],[18.9368,-3.6851,332.2182],[18.9545,-3.6953,321.0],[18.9639,-3.6989,321.5],[18.9759,-3.6995,334.1372],[18.9883,-3.7103,321.5],[19.0,-3.7115,336.7844],[19.0191,-3.7253,342.8832],[19.0417,-3.7319,341.8792],[19.0483,-3.7368,346.6491],[19.0579,-3.7488,341.7534],[19.0654,-3.7539,321.5],[19.0835,-3.7593,322.0],[19.0951,-3.7661,322.5],[19.1047,-3.7671,322.5],[19.1313,-3.7656,324.2788],[19.1466,-3.7738,330.2561],[19.1551,-3.7757,340.3864],[19.1594,-3.7817,331.3278],[19.1786,-3.7919,324.1066],[19.202,-3.7969,326.4621],[19.2195,-3.8088,333.136],[19.23,-3.8123,325.4946],[19.2444,-3.8232,324.0],[19.2629,-3.8267,330.5591],[19.2754,-3.8346,343.4618],[19.2823,-3.8435,337.753],[19.2946,-3.8526,344.8107],[19.3022,-3.8568,325.5],[19.3205,-3.8573,350.1185],[19.3527,-3.876,388.7643],[19.3563,-3.881,360.4365],[19.3689,-3.8913,346.1044],[19.373,-3.8931,348.2819],[19.3831,-3.8939,351.1007],[19.3954,-3.9062,381.2044],[19.426,-3.9255,386.2075],[19.442,-3.9325,350.2727],[19.4517,-3.9468,390.7723],[19.4554,-3.9477,387.3074],[19.4621,-3.9464,359.7854],[19.4778,-3.952,376.5166],[19.4975,-3.9671,355.1077],[19.5016,-3.9736,331.5079],[19.5347,-3.9878,350.7072],[19.5374,-3.9924,335.4128],[19.5482,-3.9992,353.1113],[19.5543,-3.9995,377.2625],[19.5603,-4.0034,350.4794],[19.5685,-4.0037,367.4086],[19.5833,-4.0176,354.2404],[19.5881,-4.0282,340.7022],[19.5963,-4.0368,347.6092],[19.605,-4.0419,332.0],[19.6158,-4.0408,343.2703],[19.6233,-4.0422,344.6029],[19.6338,-4.0469,342.5978],[19.6643,-4.0519,346.4628],[19.6709,-4.0579,349.5932],[19.6888,-4.0585,352.3192],[19.6982,-4.0551,394.8624],[19.7062,-4.0561,400.7274],[19.7126,-4.06,382.6314],[19.7303,-4.0606,385.8302],[19.7341,-4.0636,387.7758],[19.7554,-4.0674,356.9008],[19.7579,-4.0725,358.7128],[19.7602,-4.073,350.7433],[19.7644,-4.0686,376.3387],[19.7699,-4.0661,372.2537],[19.7802,-4.0662,366.7084],[19.8017,-4.0788,343.9839],[19.8113,-4.0878,347.4763],[19.8209,-4.0913,352.7882],[19.8394,-4.0912,354.3589],[19.8452,-4.0894,358.1972],[19.8507,-4.0896,362.9988],[19.8562,-4.0922,363.8118],[19.8739,-4.1121,353.0468],[19.8801,-4.1243,355.1734],[19.8862,-4.1317,373.796],[19.8909,-4.1435,357.8615],[19.9024,-4.15,381.727],[19.9154,-4.1512,386.3962],[19.9241,-4.1547,355.8746],[19.938,-4.1668,422.6826],[19.9414,-4.1772,413.8123],[19.9448,-4.1804,402.8298],[19.9499,-4.182,370.088],[19.9584,-4.1745,364.5122],[19.965699999999998,-4.1739,393.0869],[19.9801,-4.1838,373.5031],[19.9853,-4.2004,356.382],[19.9892,-4.2039,358.9474],[19.9963,-4.2065,369.6202],[20.0011,-4.2116,381.9434],[20.0047,-4.2196,383.778],[20.01,-4.2222,384.7447],[20.0179,-4.2333,396.7681],[20.0181,-4.2492,386.0732],[20.0292,-4.2614,432.5984],[20.0306,-4.2697,392.4336],[20.0335,-4.2737,424.2924],[20.038,-4.2859,341.0],[20.055,-4.2901,341.0],[20.0716,-4.291,341.5],[20.0922,-4.2873,341.5],[20.1013,-4.292,342.3502],[20.1089,-4.2932,342.0],[20.1261,-4.2925,349.0138],[20.1304,-4.2944,350.0163],[20.1377,-4.3005,347.5842],[20.1409,-4.3088,351.254],[20.1455,-4.312,342.5],[20.1553,-4.3139,342.5],[20.1644,-4.3213,343.0],[20.1662,-4.3363,343.0],[20.1698,-4.3405,343.0],[20.1735,-4.3423,343.0],[20.1797,-4.3414,343.5],[20.185,-4.3428,343.5],[20.2006,-4.3349,343.5],[20.2164,-4.3387,344.0],[20.2313,-4.3488,391.3793],[20.2342,-4.3613,353.7687],[20.2307,-4.3689,344.5],[20.2341,-4.382,419.2734],[20.2503,-4.3849,344.5],[20.2542,-4.3869,344.5],[20.2601,-4.3973,401.3948],[20.2661,-4.399,394.1697],[20.2817,-4.3906,363.1281],[20.2952,-4.3897,424.7726],[20.3022,-4.3844,411.3752],[20.3081,-4.3836,376.584],[20.3134,-4.3852,345.5],[20.3271,-4.3938,358.6352],[20.3399,-4.3982,435.2267],[20.3525,-4.3988,469.5805],[20.3615,-4.3935,468.8883],[20.3627,-4.3908,472.1772],[20.3597,-4.3848,462.7658],[20.371,-4.3715,469.1274],[20.3726,-4.3671,452.9413],[20.3629,-4.3482,429.922],[20.3652,-4.3413,423.2572],[20.3717,-4.3312,422.9515],[20.377,-4.3108,350.963],[20.3828,-4.2998,351.4593],[20.3874,-4.2975,347.5],[20.3988,-4.297,347.5],[20.4018,-4.2943,351.6009],[20.4081,-4.2925,348.0],[20.4157,-4.2843,348.0],[20.427,-4.2891,350.6704],[20.4466,-4.2892,352.2433],[20.4601,-4.2955,367.6323],[20.4692,-4.2946,363.4985],[20.4746,-4.2907,357.8976],[20.4798,-4.271,359.3972],[20.4849,-4.2656,349.5],[20.5064,-4.262,350.0],[20.5356,-4.2456,350.5],[20.5886,-4.226,351.5],[20.5932,-4.2221,351.5],[20.6061,-4.2213,355.8197],[20.6139,-4.2133,358.8135],[20.6307,-4.2074,355.394],[20.6311,-4.2028,356.1157],[20.6271,-4.1979,358.4041],[20.6275,-4.1938,358.3649],[20.6356,-4.183,359.9896],[20.6357,-4.1685,364.1559],[20.6373,-4.1644,364.6829],[20.6486,-4.1589,357.865],[20.6564,-4.1478,364.029],[20.6599,-4.1307,366.3864],[20.6621,-4.1034,402.8542],[20.6602,-4.0796,443.481],[20.6617,-4.0583,482.2697],[20.6534,-3.9995,425.9012],[20.6435,-3.9711,414.7156],[20.6467,-3.8915,418.3439],[20.6442,-3.85,519.1017],[20.6408,-3.7267,527.4325],[20.6306,-3.5613,421.9574],[20.631,-3.487,375.7648],[20.6256,-3.4262,347.5429],[20.6288,-3.4083,346.3146],[20.6253,-3.3453,378.8009],[20.6253,-3.3269,386.9284],[20.6275,-3.3164,397.1984],[20.6388,-3.2937,359.2553],[20.6578,-3.236,410.9632],[20.6585,-3.2331,411.7859],[20.6569,-3.2324,402.2413],[20.6558,-3.2261,423.4143],[20.6582,-3.2094,398.7072],[20.6654,-3.1848,452.8196],[20.6673,-3.1691,405.8774],[20.672,-3.1508,402.0609],[20.6757,-3.1439,405.1162],[20.6842,-3.1366,465.3437],[20.6902,-3.1069,453.0706],[20.7266,-2.998,442.0692],[20.7459,-2.9454,414.8966],[20.7758,-2.8729,394.6783],[20.8004,-2.8218,419.5064],[20.8068,-2.8039,398.574],[20.817,-2.7897,431.0797],[20.8282,-2.7776,393.463],[20.8654,-2.7486,451.0603],[20.8645,-2.7023,432.2341],[20.8746,-2.6771,404.0578],[20.8933,-2.6466,452.9275],[20.9232,-2.6065,451.4002],[20.9499,-2.5581,443.4919],[20.9574,-2.5344,521.135],[20.9574,-2.515,466.7469],[20.9621,-2.4898,420.1686],[21.0163,-2.4944,429.7685]]]]}
,"properties": {"GID_2": "COD.16.10_1","GID_0": "COD","country": "DemocraticRepublicoftheCongo","GID_1": "COD.16_1","province": "Mai-Ndombe","NL_NAME_1": "NA","county": "Oshwe","VARNAME_2": "NA","NL_NAME_2": "NA","TYPE_2": "Territoire","ENGTYPE_2": "Territory","CC_2": "NA","HASC_2": "NA","name": "Oshwe.county","area_km2": 41792.32,"hist_schema_id": "Elevation0-9000","hist_area_km2": {"300": 100.67,"325": 4170.56,"350": 7328.32,"375": 9599.54,"400": 8016.28,"425": 5713.82,"450": 3344.82,"475": 1810.0,"500": 1112.27,"525": 483.29,"550": 89.45,"575": 19.76,"600": 3.53}}}