{"type":"Feature","properties":{"GID_2":"COD.19.8_1","GID_0":"COD","country":"DemocraticRepublicoftheCongo","GID_1":"COD.19_1","province":"Nord-Kivu","NL_NAME_1":"NA","county":"Oïcha(ville)","VARNAME_2":"NA","NL_NAME_2":"NA","TYPE_2":"Ville","ENGTYPE_2":"Town","CC_2":"NA","HASC_2":"NA","name":"Oïcha(ville).county"},
"geometry":{"type": "MultiPolygon","coordinates": [[[[29.56,0.7209,1063.7489],[29.5439,0.733,1059.2029],[29.5139,0.731,1028.3413],[29.4899,0.7229,1042.2446],[29.4879,0.6967,1053.719],[29.5059,0.6665,1061.4518],[29.5319,0.6584,1002.8439],[29.552,0.6665,1003.0298],[29.562,0.6866,949.1063],[29.562,0.7048,973.201],[29.56,0.7209,1063.7489]]]]}}