{"type":"Feature","properties":{"GID_2":"COD.17.9_1","GID_0":"COD","country":"DemocraticRepublicoftheCongo","GID_1":"COD.17_1","province":"Maniema","NL_NAME_1":"NA","county":"Lubutu(ville)","VARNAME_2":"NA","NL_NAME_2":"NA","TYPE_2":"Ville","ENGTYPE_2":"Town","CC_2":"NA","HASC_2":"NA","name":"Lubutu(ville).county"},
"geometry":{"type": "MultiPolygon","coordinates": [[[[26.5977,-0.7562,529.1462],[26.6037,-0.7524,535.0599],[26.6066,-0.7465,534.5107],[26.6066,-0.7416,535.5567],[26.6042,-0.7387,534.8823],[26.595,-0.733,524.4894],[26.5877,-0.7316,525.9072],[26.582,-0.7334,515.5896],[26.5748,-0.739,516.931],[26.5748,-0.7453,514.5925],[26.5795,-0.7514,513.7778],[26.5864,-0.7568,521.877],[26.5911,-0.7579,525.752],[26.5977,-0.7562,529.1462]]]]}}