{"type":"Feature","properties":{"GID_2":"COD.7.6_1","GID_0":"COD","country":"DemocraticRepublicoftheCongo","GID_1":"COD.7_1","province":"Kasaï-Central","NL_NAME_1":"NA","county":"Luiza","VARNAME_2":"NA","NL_NAME_2":"NA","TYPE_2":"Territoire","ENGTYPE_2":"Territory","CC_2":"NA","HASC_2":"NA","name":"Luiza.county"},
"geometry":{"type": "MultiPolygon","coordinates": [[[[21.8294,-7.6372,758.3983],[21.8351,-7.6591,768.2739],[21.8394,-7.6638,786.9337],[21.8734,-7.6764,785.7443],[21.9286,-7.6811,864.3044],[21.9409,-7.684,910.1127],[21.97,-7.7033,881.4629],[21.9947,-7.6916,844.3343],[21.9948,-7.6881,852.1555],[22.0024,-7.6764,837.5175],[22.0024,-7.6721,833.1683],[22.0237,-7.675,882.7229],[22.0335,-7.6826,878.8083],[22.0388,-7.6968,858.799],[22.0425,-7.7217,916.4977],[22.0526,-7.7345,903.4145],[22.0666,-7.7474,921.1414],[22.1322,-7.8285,945.1728],[22.1437,-7.8527,941.2466],[22.152,-7.8619,968.0117],[22.1605,-7.8661,967.4211],[22.1633,-7.8702,967.5143],[22.1651,-7.8814,977.4411],[22.1891,-7.8821,986.2466],[22.2536,-7.874,886.8534],[22.2911,-7.8712,903.7463],[22.3298,-7.8591,860.3259],[22.3485,-7.8513,877.3953],[22.4101,-7.8165,942.5098],[22.4213,-7.8045,925.9639],[22.427,-7.8063,909.2726],[22.4326,-7.8169,911.5044],[22.4328,-7.8215,914.0092],[22.4469,-7.8304,928.468],[22.4732,-7.8438,934.0738],[22.4854,-7.8475,947.3666],[22.4966,-7.8449,922.3859],[22.5219,-7.8201,863.2591],[22.5245,-7.8024,844.1535],[22.5427,-7.7816,841.5166],[22.5453,-7.7747,844.1017],[22.5538,-7.7653,818.1917],[22.5598,-7.761,817.5756],[22.5709,-7.7566,823.3093],[22.5817,-7.7558,815.4075],[22.5916,-7.7521,821.1457],[22.6002,-7.7446,813.2011],[22.608,-7.743,797.9612],[22.6055,-7.7375,793.4482],[22.5997,-7.7363,792.947],[22.6043,-7.7331,794.7336],[22.6094,-7.7326,798.5283],[22.6108,-7.7345,800.433],[22.611,-7.7416,796.0688],[22.6168,-7.7434,805.1345],[22.6246,-7.7513,800.546],[22.6315,-7.7531,807.7145],[22.637,-7.7605,803.874],[22.6455,-7.7646,802.3646],[22.6517,-7.7754,800.5092],[22.651,-7.7791,800.9235],[22.6427,-7.7851,804.0796],[22.647,-7.7954,803.1354],[22.6449,-7.803,803.0413],[22.6472,-7.8117,806.2071],[22.6449,-7.8158,807.5],[22.6465,-7.8234,802.9108],[22.6495,-7.8271,805.8466],[22.6569,-7.8292,806.1841],[22.6637,-7.8368,821.9088],[22.6711,-7.8508,807.4427],[22.6755,-7.8517,822.9811],[22.6771,-7.8554,807.5183],[22.675,-7.8593,806.7233],[22.6665,-7.8666,831.6458],[22.6662,-7.8802,808.7827],[22.6611,-7.896,809.2541],[22.6877,-7.8822,824.832],[22.7194,-7.8596,887.3768],[22.7664,-7.8177,872.1029],[22.7738,-7.8176,921.7709],[22.7775,-7.8214,897.7468],[22.7988,-7.8197,951.4564],[22.8172,-7.8226,930.6008],[22.8349,-7.8301,939.8293],[22.8923,-7.8634,983.8694],[22.9173,-7.8816,998.6652],[22.9409,-7.8883,1008.9708],[22.9637,-7.872,1013.5618],[22.9843,-7.8648,1015.697],[23.0004,-7.8708,993.8159],[23.0453,-7.865,948.2795],[23.0703,-7.8733,946.761],[23.084,-7.8749,924.8848],[23.0916,-7.8508,916.0116],[23.1034,-7.8265,912.9758],[23.1209,-7.8119,912.5941],[23.1507,-7.7766,886.58989999999994],[23.1668,-7.7725,897.9082],[23.1705,-7.7695,888.95],[23.185,-7.7688,867.6089],[23.1838,-7.7601,870.2038],[23.1862,-7.7544,875.1814],[23.1933,-7.7496,870.3456],[23.2037,-7.7296,873.3523],[23.2069,-7.7174,869.4445],[23.2109,-7.7145,865.6215],[23.2139,-7.7062,863.8358],[23.2185,-7.7025,862.1279],[23.2196,-7.6964,872.6226],[23.2127,-7.6943,871.3413],[23.2111,-7.692,868.3746],[23.2132,-7.6894,862.9527],[23.2164,-7.689,865.3704],[23.2134,-7.6823,867.7434],[23.2148,-7.6793,870.7832],[23.2199,-7.6768,871.1407],[23.219,-7.6695,872.2239],[23.2254,-7.667,875.2422],[23.2294,-7.6566,876.5687],[23.228,-7.6488,878.4567],[23.2296,-7.6452,864.7234],[23.2262,-7.6392,876.3371],[23.2273,-7.6346,876.0975],[23.2264,-7.6305,860.0543],[23.22,-7.6249,879.007],[23.2195,-7.6226,884.656],[23.2227,-7.6181,869.4733],[23.2209,-7.6105,871.9219],[23.2251,-7.6008,873.7587],[23.2193,-7.5985,873.5912],[23.2184,-7.5916,897.0605],[23.2191,-7.588,905.5139],[23.2249,-7.5822,877.6377],[23.2235,-7.5779,885.3884],[23.2276,-7.5733,864.442],[23.2283,-7.5701,867.7091],[23.2189,-7.5584,877.2917],[23.2198,-7.5528,863.5411],[23.2187,-7.5501,868.6342],[23.2143,-7.5473,853.2891],[23.2148,-7.5414,847.2137],[23.2095,-7.5386,850.9576],[23.2086,-7.5358,844.6391],[23.2121,-7.5182,854.2877],[23.2077,-7.5133,870.241],[23.2077,-7.5113,863.2906],[23.2142,-7.511,863.9849],[23.2142,-7.5062,883.6954],[23.2204,-7.5012,853.4744],[23.2275,-7.5028,851.537],[23.2296,-7.5003,868.0183],[23.2319,-7.4948,867.2197],[23.2361,-7.4911,843.0146],[23.2344,-7.4867,844.2782],[23.2393,-7.4778,842.7933],[23.243,-7.4773,843.7505],[23.2453,-7.4746,838.4123],[23.2439,-7.4714,842.5291],[23.2448,-7.4665,860.2261],[23.2504,-7.4624,849.6033],[23.2545,-7.4505,836.138],[23.2465,-7.4372,846.4068],[23.2451,-7.4323,841.9307],[23.2465,-7.4277,840.3466],[23.2449,-7.425,848.6588],[23.2412,-7.425,840.649],[23.2403,-7.4286,835.4609],[23.2373,-7.4279,843.3298],[23.2323,-7.4137,851.2131],[23.2392,-7.4041,834.0564],[23.236,-7.3995,849.9077],[23.2452,-7.3944,835.2009],[23.2452,-7.3917,835.0231],[23.2496,-7.385,834.8154],[23.2491,-7.3795,838.6243],[23.2546,-7.3699,836.0184],[23.2558,-7.3644,831.373],[23.2475,-7.3575,841.6577],[23.2494,-7.3464,836.6738],[23.2475,-7.3441,831.5547],[23.2381,-7.3439,834.9261],[23.2264,-7.337,840.0933],[23.2296,-7.3273,847.334],[23.2273,-7.3209,852.8032],[23.2315,-7.3113,834.3664],[23.2347,-7.2892,836.6412],[23.2357,-7.2568,843.0785],[23.2394,-7.2497,829.272],[23.2387,-7.247,830.0135],[23.232,-7.2529,831.8441],[23.2307,-7.2511,833.3494],[23.2374,-7.2295,828.5942],[23.2335,-7.2279,831.5456],[23.2351,-7.2189,828.4556],[23.2339,-7.2139,832.7128],[23.2374,-7.2084,835.5079],[23.2326,-7.2035,828.8884],[23.231,-7.1959,827.2866],[23.2314,-7.184,829.0008],[23.2349,-7.1721,827.5427],[23.2319,-7.17,827.7463],[23.219,-7.1693,831.1071],[23.2144,-7.167,831.7155],[23.2165,-7.1635,830.7753],[23.2145,-7.1612,834.4161],[23.2163,-7.1592,835.7777],[23.2161,-7.1514,824.2225],[23.2198,-7.1332,834.6417],[23.223,-7.1291,821.3113],[23.2228,-7.1169,833.9529],[23.2251,-7.1144,846.4564],[23.2286,-7.1139,847.4752],[23.2311,-7.1082,842.9688],[23.2318,-7.102,824.4812],[23.2272,-7.1004,827.8522],[23.2275,-7.0936,826.1414],[23.2304,-7.0834,822.994],[23.2291,-7.0788,824.0352],[23.2323,-7.0747,819.1621],[23.2312,-7.0703,819.0385],[23.2353,-7.0627,818.5911],[23.2335,-7.0597,820.7171],[23.2441,-7.054,816.7929],[23.2411,-7.051,820.6749],[23.2478,-7.045,822.1847],[23.254,-7.0492,816.5256],[23.2554,-7.0407,820.5394],[23.2602,-7.0425,817.7303],[23.2615,-7.04,822.0728],[23.2591,-7.0301,815.9398],[23.26,-7.0258,815.678],[23.2519,-7.0207,818.3535],[23.2547,-7.0173,817.8922],[23.2513,-7.0147,816.3871],[23.2513,-7.0115,816.2631],[23.2471,-7.0106,817.6855],[23.2467,-7.008,823.8352],[23.2515,-7.0005,815.6854],[23.2494,-6.9927,824.8945],[23.2511,-6.9904,817.8065],[23.258,-6.9888,814.6736],[23.263,-6.9768,815.2282],[23.2702,-6.9748,815.5123],[23.2647,-6.9704,814.4011],[23.2651,-6.9674,814.4355],[23.2718,-6.9628,814.0136],[23.2737,-6.9585,813.8445],[23.2716,-6.9493,815.4297],[23.2169,-6.9439,888.6923],[23.1873,-6.9313,890.2022],[23.1669,-6.9303,872.045],[23.1452,-6.9348,864.704],[23.1378,-6.934,852.9354],[23.1395,-6.9154,880.2008],[23.138,-6.9057,868.7476],[23.1259,-6.895,834.3286],[23.0838,-6.8811,841.4727],[23.0651,-6.877,879.1456],[23.0452,-6.8685,866.5412],[23.0395,-6.8687,872.9949],[23.0339,-6.8712,865.7096],[23.0325,-6.8761,888.4433],[23.0358,-6.8911,917.8406],[23.0312,-6.9021,900.1247],[23.0261,-6.9052,859.5388],[23.0137,-6.9076,870.8919],[22.998,-6.921,882.7845],[22.9823,-6.951,870.9807],[22.9775,-6.952,865.1028],[22.9629,-6.9431,850.6893],[22.9582,-6.929,868.0855],[22.9616,-6.9087,853.4387],[22.9581,-6.8994,818.9282],[22.9485,-6.8852,867.5123],[22.9431,-6.8848,872.0909],[22.9224,-6.9021,846.7563],[22.8938,-6.9008,898.8556],[22.8875,-6.8973,895.3824],[22.8838,-6.8923,874.2717],[22.8775,-6.8903,845.7571],[22.8629,-6.8951,883.2683],[22.8581,-6.9004,871.4303],[22.8471,-6.9025,845.5042],[22.842,-6.9059,835.7389],[22.8376,-6.8969,819.9598],[22.8259,-6.8893,846.7972],[22.7992,-6.8888,824.0747],[22.7813,-6.8752,808.0823],[22.7726,-6.8715,819.0104],[22.7615,-6.8708,804.4423],[22.7553,-6.8648,798.2076],[22.7448,-6.8657,805.4914],[22.7326,-6.8587,799.2205],[22.7298,-6.8521,792.6552],[22.7234,-6.8481,797.5523],[22.7202,-6.8394,787.5526],[22.7163,-6.8376,798.0927],[22.7124,-6.8313,796.6832],[22.7056,-6.8024,780.6267],[22.6996,-6.7987,778.1372],[22.6962,-6.7915,779.5438],[22.6907,-6.7912,775.4206],[22.6795,-6.8021,789.4207],[22.673,-6.8061,790.2242],[22.6441,-6.8028,762.155],[22.6305,-6.7987,762.5558],[22.6225,-6.7939,769.3634],[22.6083,-6.7904,744.0],[22.6044,-6.7833,777.7664],[22.5984,-6.7773,780.2415],[22.5911,-6.7761,775.0498],[22.5849,-6.7818,780.7234],[22.5653,-6.7793,754.4683],[22.5591,-6.7691,747.6439],[22.5645,-6.7485,744.6193],[22.5622,-6.7363,744.436],[22.5666,-6.7319,751.7438],[22.5427,-6.6951,757.5524],[22.5278,-6.6863,787.0172],[22.5241,-6.6875,785.4159],[22.5135,-6.6966,746.6907],[22.5092,-6.6968,746.1349],[22.5044,-6.6931,773.7425],[22.4935,-6.6945,756.0991],[22.4899,-6.6901,742.7114],[22.4927,-6.6772,740.5865],[22.4879,-6.6662,736.3272],[22.4934,-6.6506,734.6354],[22.4882,-6.6372,735.1031],[22.4898,-6.634,739.8779],[22.4965,-6.6313,735.3435],[22.4994,-6.6276,737.1443],[22.4958,-6.6203,735.1687],[22.499,-6.6148,733.5834],[22.497,-6.612,736.5685],[22.4889,-6.6104,745.6534],[22.4848,-6.6053,738.9864],[22.4765,-6.6034,747.5897],[22.4742,-6.6011,742.6056],[22.4765,-6.5965,739.891],[22.4742,-6.5903,717.8707],[22.4747,-6.585,719.8604],[22.472,-6.5809,721.9752],[22.4745,-6.5678,700.0],[22.4709,-6.5554,712.5944],[22.4633,-6.5512,698.9053],[22.4635,-6.5455,709.8451],[22.4546,-6.5415,692.9938],[22.4546,-6.5376,691.375],[22.4475,-6.5277,711.796],[22.4356,-6.5208,689.5638],[22.4335,-6.5139,687.2451],[22.4312,-6.5127,684.5],[22.4314,-6.5072,695.4695],[22.41,-6.5251,717.6849],[22.41,-6.5285,695.7714],[22.4133,-6.535,711.7272],[22.4048,-6.5465,733.6063],[22.4021,-6.5818,790.3793],[22.3918,-6.6129,773.5966],[22.387,-6.6195,793.6029],[22.384,-6.6281,803.082],[22.3802,-6.6454,825.6727],[22.3721,-6.6626,840.7571],[22.3744,-6.6748,819.7156],[22.3783,-6.6788,802.149],[22.3853,-6.6788,807.0601],[22.3914,-6.6761,803.4395],[22.3982,-6.6755,796.265],[22.4024,-6.6769,816.3584],[22.4063,-6.6812,807.4146],[22.4056,-6.6984,825.9079],[22.4127,-6.7122,795.2426],[22.4122,-6.7234,779.0949],[22.3971,-6.7275,787.5159],[22.3946,-6.7321,794.5041],[22.3879,-6.7379,788.1015],[22.3818,-6.7661,799.0571],[22.3857,-6.7829,810.8172],[22.3904,-6.8222,844.0182],[22.3844,-6.8449,852.5483],[22.371,-6.8581,861.2852],[22.3645,-6.8616,870.6399],[22.3508,-6.8654,857.6479],[22.3365,-6.8672,857.1843],[22.3127,-6.8738,804.6288],[22.2691,-6.8711,776.6005],[22.2642,-6.8734,785.3066],[22.2599,-6.8784,791.9666],[22.2411,-6.9145,849.2086],[22.2365,-6.9152,857.0657],[22.2309,-6.9126,839.4865],[22.226,-6.9076,852.2621],[22.2255,-6.8915,826.6652],[22.2214,-6.8888,809.4609],[22.2158,-6.8884,801.07],[22.2109,-6.8903,809.0341],[22.2037,-6.9012,830.4214],[22.1977,-6.9014,825.7129],[22.1818,-6.8947,794.6875],[22.1761,-6.8888,805.7325],[22.1667,-6.8875,799.472],[22.1699,-6.8976,789.0749],[22.1692,-6.9013,792.1357],[22.1813,-6.9174,786.0154],[22.1838,-6.9275,789.787],[22.1882,-6.9344,783.8796],[22.1971,-6.9443,807.5028],[22.2024,-6.9584,819.7212],[22.2088,-6.9614,812.4775],[22.2152,-6.969,810.3768],[22.2224,-6.9688,828.6449],[22.2283,-6.9713,839.6514],[22.2331,-6.9694,851.3253],[22.2413,-6.969,849.4618],[22.2456,-6.975,845.9389],[22.2477,-6.9988,821.7319],[22.2563,-7.0187,788.9015],[22.2537,-7.024,793.4085],[22.2521,-7.0353,809.7139],[22.247,-7.0401,800.8912],[22.2394,-7.0518,802.2697],[22.2368,-7.0593,778.5583],[22.2341,-7.06,774.4584],[22.2308,-7.0653,750.3876],[22.2244,-7.0664,782.1212],[22.214,-7.0655,745.4083],[22.1958,-7.0721,773.5048],[22.1928,-7.0767,733.5969],[22.1799,-7.0808,729.3477],[22.1717,-7.0745,736.4423],[22.1684,-7.0803,742.1337],[22.1661,-7.0805,743.0875],[22.1609,-7.0754,728.9485],[22.1558,-7.0745,735.0427],[22.1489,-7.0786,728.0286],[22.1372,-7.0779,754.9354],[22.133,-7.0829,736.2188],[22.1238,-7.0781,774.9902],[22.1247,-7.0751,746.8],[22.1222,-7.0647,730.4437],[22.1195,-7.0633,739.9728],[22.1158,-7.0645,742.8987],[22.1098,-7.0635,769.3524],[22.1066,-7.0656,734.6506],[22.1043,-7.0642,768.5902],[22.0979,-7.0681,727.3419],[22.0942,-7.066,720.6577],[22.0838,-7.0648,721.0621],[22.079,-7.0605,720.3177],[22.0723,-7.063,721.9291],[22.0702,-7.0685,719.3919],[22.0679,-7.0696,721.3575],[22.0645,-7.0687,719.0749],[22.0604,-7.0613,718.8733],[22.0505,-7.0631,718.8573],[22.0463,-7.061,722.752],[22.0397,-7.0631,718.2322],[22.0364,-7.0658,718.8076],[22.0314,-7.0649,717.7987],[22.0226,-7.0681,718.5253],[22.0171,-7.072,717.3931],[22.0097,-7.0722,723.5953],[21.9998,-7.0763,716.8892],[21.9913,-7.0751,717.8915],[21.9862,-7.0762,715.4754],[21.9796,-7.073,715.5483],[21.9701,-7.0732,725.7125],[21.9623,-7.0778,728.3226],[21.9596,-7.0764,728.1792],[21.9589,-7.0734,722.2222],[21.9614,-7.0681,724.4767],[21.9605,-7.0663,736.7838],[21.9577,-7.0679,736.0524],[21.9559,-7.0727,716.3732],[21.9513,-7.0722,714.9546],[21.9497,-7.0685,703.8427],[21.9534,-7.0616,701.446],[21.9539,-7.0573,700.7806],[21.9486,-7.054,731.0681],[21.9382,-7.0593,690.9802],[21.9354,-7.0595,691.2579],[21.9322,-7.0561,717.2784],[21.9267,-7.0611,723.5182],[21.9124,-7.0689,694.4733],[21.9044,-7.0714,697.8762],[21.8935,-7.0704,700.5971],[21.888,-7.0639,687.7673],[21.8837,-7.063,692.732],[21.8784,-7.0653,694.0339],[21.8713,-7.063,684.9296],[21.859,-7.0703,698.0806],[21.853,-7.0771,688.2907],[21.8411,-7.0785,687.5506],[21.836,-7.0847,684.6885],[21.8219,-7.0844,703.7803],[21.8208,-7.092,684.4659],[21.8187,-7.0943,683.1245],[21.8153,-7.0917,690.6536],[21.8109,-7.0926,687.1494],[21.8083,-7.0981,682.3758],[21.806,-7.0986,687.1402],[21.8019,-7.0958,683.183],[21.7984,-7.099,683.7424],[21.7936,-7.0974,685.0439],[21.792,-7.0891,687.921],[21.7879,-7.093,704.4376],[21.7838,-7.0859,683.8603],[21.778,-7.0879,681.5135],[21.7734,-7.0849,684.2219],[21.7649,-7.0906,683.8346],[21.7598,-7.092,680.8192],[21.7554,-7.0908,682.9757],[21.7449,-7.0823,697.725],[21.7428,-7.0758,683.0797],[21.738,-7.0737,699.8829],[21.7341,-7.0804,676.3997],[21.7184,-7.079,679.3784],[21.7187,-7.0751,678.308],[21.7136,-7.0725,677.417],[21.6927,-7.0708,688.5504],[21.6888,-7.0738,676.2572],[21.6833,-7.0722,681.4483],[21.6786,-7.074,681.6332],[21.6722,-7.0684,675.239],[21.6658,-7.0659,680.3574],[21.6551,-7.0681,671.3317],[21.6536,-7.0697,705.4844],[21.6583,-7.0774,685.3544],[21.6617,-7.0907,682.9052],[21.6629,-7.1058,684.3442],[21.6618,-7.1105,700.8578],[21.6635,-7.1174,690.0916],[21.672,-7.1234,692.0802],[21.6807,-7.1351,697.1917],[21.6842,-7.1347,692.87],[21.6883,-7.1377,688.0219],[21.6955,-7.1342,690.4964],[21.6998,-7.1338,682.7095],[21.7017,-7.1356,685.5881],[21.7037,-7.1529,691.6906],[21.7076,-7.1642,693.3752],[21.7133,-7.1745,688.6254],[21.7148,-7.1885,695.3681],[21.713,-7.1931,699.8405],[21.7137,-7.1963,717.7986],[21.7148,-7.1979,703.2491],[21.7203,-7.1989,694.6321],[21.7345,-7.2194,722.5829],[21.7449,-7.2254,691.1105],[21.7483,-7.2295,693.3018],[21.7501,-7.2355,703.3434],[21.7572,-7.244,723.9709],[21.7611,-7.2457,697.5109],[21.7754,-7.2453,694.0092],[21.7786,-7.2522,697.294],[21.7832,-7.2538,692.2252],[21.7869,-7.2579,693.5482],[21.7875,-7.2611,694.7139],[21.7797,-7.2747,715.9413],[21.7813,-7.2846,740.6988],[21.7843,-7.2876,732.877],[21.7843,-7.2927,725.0667],[21.7986,-7.3111,731.4896],[21.8029,-7.3135,720.785],[21.8085,-7.3207,722.7564],[21.8203,-7.3289,722.8302],[21.8275,-7.349,728.147],[21.8292,-7.3655,729.0592],[21.8348,-7.3725,730.8508],[21.838,-7.384,729.3038],[21.8356,-7.391,749.9723],[21.8302,-7.396,740.0764],[21.8288,-7.4029,737.5581],[21.8397,-7.4174,729.7991],[21.8461,-7.4226,732.4338],[21.8514,-7.4237,729.6604],[21.8532,-7.4278,730.5618],[21.8557,-7.4425,742.3959],[21.8533,-7.4489,732.3513],[21.8433,-7.4566,743.8533],[21.843,-7.4591,736.6087],[21.8437,-7.463,751.6525],[21.8464,-7.4653,730.5],[21.8516,-7.466,738.3337],[21.8567,-7.4702,740.9761],[21.8569,-7.4748,737.4489],[21.8484,-7.4958,757.7099],[21.8403,-7.5061,736.0871],[21.8364,-7.52,742.9844],[21.8389,-7.5317,755.0425],[21.8532,-7.5553,741.278],[21.8516,-7.5721,741.2215],[21.8453,-7.5771,754.6797],[21.8426,-7.5831,743.7504],[21.8484,-7.5999,742.3184],[21.8477,-7.6049,748.2312],[21.8368,-7.6175,756.6272],[21.8282,-7.6222,777.2496],[21.8294,-7.6372,758.3983]]]]}}