{"type":"Feature","properties":{"GID_2":"COD.22.13_1","GID_0":"COD","country":"DemocraticRepublicoftheCongo","GID_1":"COD.22_1","province":"Sud-Kivu","NL_NAME_1":"NA","county":"Walungu","VARNAME_2":"NA","NL_NAME_2":"NA","TYPE_2":"Territoire","ENGTYPE_2":"Territory","CC_2":"NA","HASC_2":"NA","name":"Walungu.county"},
"geometry":{"type": "MultiPolygon","coordinates": [[[[29.0388,-2.7509,923.903],[29.0402,-2.7431,921.5653],[29.0362,-2.7388,925.8977],[29.0347,-2.7336,957.3153],[29.0318,-2.7328,928.8735],[29.0208,-2.7192,940.5846],[29.016,-2.7167,941.4013],[29.0039,-2.7042,952.1429],[28.9988,-2.7037,953.6751],[28.9957,-2.6994,975.6202],[28.9914,-2.6982,962.0689],[28.9886,-2.6996,1016.3779],[28.9832,-2.6939,972.3604],[28.9801,-2.6941,980.6603],[28.9754,-2.6949,983.9918],[28.9713,-2.6981,992.3253],[28.969,-2.7032,1012.5794],[28.9667,-2.7035,1010.2405],[28.9591,-2.6936,1033.057],[28.9475,-2.6908,1085.7899],[28.943,-2.6926,1109.8092],[28.9409,-2.6899,1118.623],[28.9405,-2.6845,1142.5703],[28.9375,-2.6819,1155.7294],[28.9351,-2.6809,1147.3073],[28.934,-2.6832,1151.3391],[28.9314,-2.6814,1146.4818],[28.9236,-2.6821,1166.7585],[28.9178,-2.6804,1208.7148],[28.91,-2.6684,1295.2528],[28.91,-2.665,1280.8123],[28.9071,-2.6638,1239.1807],[28.9056,-2.6649,1250.8406],[28.903,-2.6621,1293.2493],[28.8984,-2.6614,1288.5728],[28.8962,-2.6586,1309.5428],[28.8954,-2.6528,1318.0343],[28.8765,-2.6448,1585.3938],[28.862,-2.6321,1570.431],[28.8542,-2.6188,1581.8385],[28.8511,-2.6085,1598.1154],[28.8393,-2.5849,1819.0339],[28.8223,-2.5747,2019.2076],[28.7848,-2.5639,2033.8247],[28.7627,-2.561,1940.0212],[28.7593,-2.5582,1883.0892],[28.7525,-2.5476,1897.5791],[28.7404,-2.5432,1904.2324],[28.7353,-2.5429,1949.2169],[28.7071,-2.5493,2149.084],[28.6907,-2.5509,2095.6104],[28.633,-2.5465,2502.6589],[28.6167,-2.5514,2300.2061],[28.6053,-2.5604,1980.0369],[28.5866,-2.5825,1995.7939],[28.5825,-2.5973,1893.6117],[28.5597,-2.6308,2025.3508],[28.5426,-2.6456,2074.3755],[28.5086,-2.6564,1551.4036],[28.5073,-2.6587,1551.9872],[28.4878,-2.6697,1492.2192],[28.4779,-2.6783,1474.4602],[28.4669,-2.6931,1442.4946],[28.4651,-2.6981,1403.9768],[28.4623,-2.6993,1420.8888],[28.4439,-2.6999,1501.0276],[28.4118,-2.6965,1557.509],[28.3749,-2.6698,1424.8923],[28.371,-2.6657,1332.4937],[28.3694,-2.6546,1258.9042],[28.3565,-2.6524,1292.1343],[28.3568,-2.6632,1321.7698],[28.3724,-2.6721,1406.0002],[28.3736,-2.6776,1453.3741],[28.3773,-2.6824,1473.7306],[28.3759,-2.687,1442.4524],[28.3561,-2.698,1240.3076],[28.3383,-2.7115,1490.5669],[28.3423,-2.7504,1102.9963],[28.3371,-2.7639,1037.7202],[28.3181,-2.7925,1240.9808],[28.321,-2.8156,939.7484],[28.3134,-2.8283,958.2308],[28.3197,-2.8279,888.6559],[28.3238,-2.8297,893.7823],[28.3292,-2.8298,867.8968],[28.3316,-2.8278,859.8258],[28.3379,-2.8318,873.9283],[28.3407,-2.8294,891.3589],[28.3466,-2.8388,847.0194],[28.3506,-2.8359,854.8119],[28.3596,-2.8342,854.0676],[28.3635,-2.8298,851.6198],[28.3643,-2.8256,846.5006],[28.3767,-2.8163,905.7981],[28.3756,-2.8086,859.5605],[28.3771,-2.7999,860.5226],[28.3824,-2.7922,865.5751],[28.3869,-2.7917,856.9704],[28.3901,-2.7941,872.3303],[28.393,-2.793,877.5117],[28.3944,-2.789,872.54],[28.397,-2.7912,856.0483],[28.4013,-2.7915,876.8207],[28.4015,-2.7881,856.665],[28.4047,-2.7833,866.4608],[28.4075,-2.7851,895.4471],[28.4097,-2.7824,856.1655],[28.4147,-2.7826,883.279],[28.4182,-2.7837,882.1121],[28.4217,-2.7881,875.7349],[28.4283,-2.7883,898.2833],[28.4313,-2.7943,868.7158],[28.4351,-2.7958,867.3154],[28.4398,-2.7947,873.6293],[28.4351,-2.7971,868.6204],[28.4343,-2.8017,863.9299],[28.4321,-2.8039,866.3241],[28.4325,-2.8062,864.1145],[28.4395,-2.8049,866.9919],[28.4411,-2.8078,866.498],[28.4466,-2.8085,867.4833],[28.4493,-2.8054,868.1282],[28.4503,-2.8062,881.8624],[28.4507,-2.8086,869.5784],[28.4474,-2.8099,866.4338],[28.4465,-2.8161,908.265],[28.4477,-2.819,864.4711],[28.4491,-2.8175,865.0515],[28.4506,-2.8188,864.8613],[28.4502,-2.816,864.3599],[28.452,-2.8166,891.3551],[28.4543,-2.8143,864.2267],[28.453,-2.813,866.8572],[28.4551,-2.8069,900.6694],[28.4571,-2.8068,864.4695],[28.4587,-2.8103,867.3098],[28.4617,-2.8099,867.0541],[28.462,-2.8084,864.6721],[28.4643,-2.8097,888.0913],[28.4637,-2.8077,869.1548],[28.4686,-2.7999,889.4854],[28.4761,-2.8034,874.6138],[28.4785,-2.8011,891.8334],[28.4804,-2.8037,885.7294],[28.477,-2.8095,880.7139],[28.483,-2.8169,908.2322],[28.4844,-2.821,941.9004],[28.4906,-2.826,895.1794],[28.4967,-2.8262,924.4366],[28.4973,-2.829,894.8121],[28.4994,-2.8283,893.4193],[28.5028,-2.8339,889.8216],[28.5081,-2.8348,878.4957],[28.5079,-2.8378,874.9197],[28.51,-2.8372,877.4254],[28.5097,-2.8394,874.1221],[28.5137,-2.8417,894.6204],[28.5168,-2.8389,877.0201],[28.5191,-2.8399,891.3214],[28.5224,-2.8337,877.6287],[28.5218,-2.8323,881.652],[28.5235,-2.8323,880.4677],[28.5275,-2.8275,877.8032],[28.529,-2.8212,900.5323],[28.5359,-2.8232,980.3537],[28.5361,-2.8198,884.5641],[28.5379,-2.8195,911.694],[28.5391,-2.8202,895.1876],[28.5384,-2.8241,911.9833],[28.5415,-2.8273,934.0359],[28.5448,-2.8352,922.3755],[28.5467,-2.8361,913.6656],[28.5487,-2.8345,919.5409],[28.5488,-2.8316,925.6054],[28.5507,-2.8311,929.1636],[28.5552,-2.8339,926.2519],[28.5584,-2.8387,926.4086],[28.5622,-2.8399,937.2433],[28.5633,-2.8419,942.1125],[28.5608,-2.8456,943.3323],[28.5616,-2.8467,960.9211],[28.5586,-2.8501,930.9976],[28.5593,-2.8519,934.3347],[28.5612,-2.8513,986.3834],[28.5603,-2.8533,970.455],[28.5637,-2.8576,937.1987],[28.5618,-2.858,944.4409],[28.561,-2.8607,1032.7689],[28.5574,-2.8613,955.9559],[28.5597,-2.8649,1038.6692],[28.5646,-2.8669,1131.441],[28.5789,-2.8592,948.1597],[28.5806,-2.8606,954.1051],[28.5841,-2.8589,947.1721],[28.5873,-2.8541,985.5317],[28.5915,-2.8523,1005.8891],[28.591,-2.8503,977.3268],[28.5932,-2.8498,980.1118],[28.5939,-2.8469,989.8151],[28.5997,-2.8443,1017.8613],[28.6033,-2.8449,1028.9518],[28.6033,-2.8399,1003.2037],[28.6073,-2.8382,1011.07],[28.61,-2.842,1017.5983],[28.6175,-2.8443,1016.9364],[28.6184,-2.843,1041.5613],[28.617,-2.841,1024.9736],[28.6231,-2.8355,1024.3466],[28.6256,-2.8353,1040.2314],[28.6275,-2.8303,1039.5052],[28.6287,-2.8341,1044.8953],[28.6342,-2.8397,1090.6968],[28.639,-2.8416,1150.1324],[28.6387,-2.844,1097.1899],[28.6412,-2.8449,1200.4969],[28.6438,-2.8432,1103.8519],[28.6446,-2.8453,1153.6494],[28.6471,-2.8456,1109.8202],[28.6494,-2.8424,1109.8812],[28.6533,-2.8418,1168.7196],[28.6571,-2.8352,1170.0208],[28.6547,-2.829,1167.8202],[28.6587,-2.8218,1204.8574],[28.6584,-2.8188,1277.6492],[28.6636,-2.8117,1473.6265],[28.6625,-2.8099,1379.1353],[28.6644,-2.8093,1385.5338],[28.663,-2.8031,1460.1545],[28.6693,-2.7981,1408.9373],[28.6728,-2.7998,1451.6051],[28.6782,-2.7962,1447.5864],[28.6796,-2.7919,1432.8507],[28.6783,-2.792,1432.8507],[28.6767,-2.7857,1458.8459],[28.6802,-2.7776,1470.3079],[28.6843,-2.7771,1507.7784],[28.6861,-2.7798,1538.2279],[28.6836,-2.781,1531.3136],[28.6878,-2.7831,1506.7795],[28.6867,-2.7847,1511.1667],[28.693,-2.7865,1589.5957],[28.6912,-2.7901,1553.3687],[28.6939,-2.794,1540.0864],[28.6939,-2.7967,1539.0209],[28.6926,-2.7971,1539.0209],[28.6935,-2.7997,1542.9445],[28.6952,-2.8006,1550.0381],[28.6991,-2.8007,1574.9973],[28.702,-2.8033,1705.0471],[28.7075,-2.8012,1766.1296],[28.7096,-2.8033,1877.3158],[28.7118,-2.8032,1948.8438],[28.7108,-2.8087,1882.0958],[28.7316,-2.798,2066.0667],[28.7434,-2.7983,2274.4385],[28.7532,-2.8055,2116.0068],[28.7629,-2.8183,2129.6064],[28.7705,-2.8371,1830.467],[28.7728,-2.8574,2124.3159],[28.793,-2.8721,2849.9111],[28.7995,-2.8824,3043.7275],[28.7978,-2.9389,2999.1255],[28.8111,-2.9623,3073.9927],[28.8085,-2.978,3029.8975],[28.8044,-2.9879,3030.2729],[28.8117,-2.9969,2771.0171],[28.819,-2.9987,2768.8179],[28.8288,-2.9969,2859.1296],[28.8408,-2.9705,2725.3267],[28.8556,-2.9431,2652.562],[28.8592,-2.9261,2694.2576],[28.8599,-2.8983,2713.0276],[28.8641,-2.8658,1889.0889],[28.8669,-2.8577,1788.1774],[28.8769,-2.8523,1607.5726],[28.8807,-2.8462,1519.2568],[28.8736,-2.8227,1904.2101],[28.8807,-2.805,2096.6453],[28.878,-2.7996,1900.0182],[28.8718,-2.793,1659.8398],[28.8672,-2.7697,1565.0909],[28.8823,-2.7728,1488.5056],[28.8818,-2.7712,1504.2433],[28.8836,-2.7715,1512.2522],[28.8836,-2.7693,1457.0244],[28.8884,-2.7632,1344.0563],[28.8926,-2.7618,1334.0382],[28.8928,-2.7584,1310.2896],[28.8949,-2.7591,1275.3295],[28.898,-2.7573,1325.5769],[28.9042,-2.7479,1228.7585],[28.9083,-2.7476,1241.397],[28.9095,-2.7433,1222.723],[28.911,-2.7438,1250.8949],[28.9162,-2.738,1219.886],[28.9221,-2.7428,1206.8945],[28.9249,-2.7394,1194.9304],[28.9336,-2.744,1165.7496],[28.9396,-2.7423,1127.9788],[28.9425,-2.7451,1136.0002],[28.9458,-2.7438,1167.6678],[28.9482,-2.7493,1072.6384],[28.9545,-2.7472,1035.2761],[28.9592,-2.7508,1013.034],[28.9636,-2.7461,1020.4684],[28.9649,-2.7498,1008.282],[28.9708,-2.7505,1006.9361],[28.9697,-2.7545,1028.2742],[28.9716,-2.7556,979.4012],[28.9738,-2.7557,958.8196],[28.975,-2.7546,986.9037],[28.9739,-2.7537,952.3829],[28.9778,-2.7517,941.0733],[28.9802,-2.752,944.7272],[28.9803,-2.7546,925.4946],[28.9852,-2.7554,920.986],[28.9863,-2.7571,921.3166],[28.9911,-2.7554,921.6102],[28.9917,-2.7586,913.3635],[28.994,-2.7579,913.3723],[28.993,-2.7641,909.835],[28.9959,-2.7691,918.3239],[29.0045,-2.7753,901.6133],[29.0043,-2.7808,897.7996],[29.0077,-2.7792,899.9675],[29.0119,-2.7736,901.8861],[29.018,-2.7705,904.2809],[29.027,-2.7604,910.8611],[29.0325,-2.759,914.1016],[29.0382,-2.761,918.486],[29.0388,-2.7509,923.903]]]]}}