{"type": "Feature","id": "1898","bbox": [27.20592,-2.06189,29.98219,0.96061],"geometry": {"type": "Polygon","coordinates": [[[29.98219,0.84902,678.5034],[29.98182,0.8492,678.5034],[29.91728,0.88052,848.1495],[29.90575,0.88806,837.9003],[29.89521,0.89871,838.347],[29.88684,0.91044,937.5858],[29.86684,0.94893,1415.7153],[29.85909,0.95834,1409.2582],[29.84927,0.96061,1352.8584],[29.83857,0.95772,1277.0808],[29.79279,0.93865,1150.118],[29.78224,0.93209,1148.614],[29.74938,0.89757,1133.9729],[29.73553,0.88744,1117.649],[29.71863,0.88062,1291.4929],[29.70406,0.87948,1340.4043],[29.67703,0.88356,1150.3901],[29.63951,0.88,1307.6848],[29.60908,0.88196,1081.3728],[29.59807,0.8801,1069.5459],[29.58753,0.87473,1060.4995],[29.57962,0.86098,1033.256],[29.576,0.83628,1038.2],[29.56872,0.82548,1056.0686],[29.55244,0.81871,1034.787],[29.53756,0.81768,1047.1859],[29.52329,0.81902,1061.1244],[29.51239,0.82166,1039.6653],[29.44227,0.85323,958.3679],[29.42878,0.85752,987.1431],[29.41545,0.85757,1002.124],[29.40439,0.85282,1037.2662],[29.39524,0.84258,947.3007],[29.37943,0.8184,930.6241],[29.36656,0.79365,950.3786],[29.36253,0.78109,980.6073],[29.36036,0.76812,970.8225],[29.36191,0.75634,958.7811],[29.36702,0.74502,937.5262],[29.37478,0.73417,938.0947],[29.38501,0.72404,936.4446],[29.39663,0.71639,948.8636],[29.40857,0.71091,963.2223],[29.45854,0.6966,1022.9823],[29.4696,0.68973,1032.5428],[29.47704,0.67898,1050.7007],[29.47813,0.66735,1061.5762],[29.46738,0.65335,1047.0138],[29.45048,0.63965,1038.4443],[29.42025,0.62368,994.1063],[29.40129,0.61821,988.3081],[29.38516,0.61841,954.3691],[29.37199,0.62389,954.5176],[29.33302,0.64802,927.8856],[29.32015,0.65422,932.0758],[29.3076,0.65794,939.8126],[29.29437,0.65779,1007.2911],[29.26491,0.64952,943.895],[29.25406,0.64926,918.0165],[29.24863,0.65014,907.5117],[29.24615,0.65174,905.5614],[29.22393,0.66999,843.3466],[29.2106,0.67784,898.1016],[29.19789,0.68254,954.6755],[29.18636,0.68533,865.7634],[29.16869,0.68652,806.6058],[29.14885,0.68383,848.6006],[29.13598,0.67918,869.5415],[29.10663,0.66456,847.3997],[29.052,0.63009,916.1406],[29.03092,0.61965,904.5619],[29.01366,0.61386,938.1086],[28.97087,0.61567,892.4673],[28.92881,0.62399,873.7216],[28.81677,0.63133,865.2063],[28.73668,0.62467,880.3848],[28.58371,0.58735,910.2266],[28.57085,0.5858,888.7679],[28.55793,0.58679,853.5694],[28.54583,0.58937,844.6877],[28.53374,0.59361,828.9852],[28.52118,0.5995,818.485],[28.50036,0.61314,821.0023],[28.4816,0.62854,787.5075],[28.4138,0.70528,795.2646],[28.38987,0.72642,786.7997],[28.37701,0.7336,775.8082],[28.36367,0.73809,814.9062],[28.34988,0.73985,794.4087],[28.33525,0.73965,744.0105],[28.06261,0.70047,646.6342],[28.00959,0.68404,656.2501],[27.9731,0.6674,653.0211],[27.96194,0.65944,644.9869],[27.91864,0.61355,628.3099],[27.9067,0.60425,654.0278],[27.89363,0.59753,654.939],[27.8806,0.59247,653.5057],[27.86789,0.58916,634.5529],[27.81652,0.58208,635.2392],[27.78314,0.58441,633.6737],[27.77741,0.5842,634.5446],[27.7664,0.57924,615.9855],[27.76082,0.57748,608.5626],[27.74873,0.57573,607.9175],[27.74407,0.5719,608.1965],[27.74159,0.56539,611.8789],[27.74392,0.55066,584.0],[27.74795,0.54389,623.6465],[27.75291,0.53935,637.5737],[27.78862,0.52777,621.2169],[27.81807,0.50927,622.0573],[27.83001,0.50028,629.0347],[27.83373,0.49687,637.7505],[27.8372,0.49429,629.8898],[27.84169,0.49201,605.743],[27.85843,0.48839,635.5881],[27.86355,0.48674,621.1304],[27.87239,0.4825,611.6123],[27.87735,0.48219,625.4112],[27.88153,0.484,628.2009],[27.88913,0.48943,620.9652],[27.89321,0.49036,597.5],[27.89724,0.48907,620.349],[27.90065,0.48695,625.2958],[27.90437,0.48643,631.4257],[27.90779,0.48834,634.1063],[27.9112,0.49082,631.3029],[27.91507,0.49191,633.5152],[27.91879,0.49036,632.1704],[27.92282,0.48788,638.7087],[27.92747,0.48581,628.9411],[27.93802,0.48276,631.9756],[27.95171,0.47594,695.7008],[27.95698,0.47465,719.2677],[27.96287,0.47408,738.0234],[27.99109,0.47842,641.5467],[27.99558,0.47796,638.3214],[27.99853,0.47558,636.6583],[28.00209,0.46974,664.5156],[28.00504,0.46695,651.2328],[28.00959,0.46524,640.9395],[28.01455,0.464,613.125],[28.01873,0.46157,654.211],[28.02168,0.4577,621.1877],[28.02339,0.45243,623.812],[28.02432,0.44654,664.4794],[28.02571,0.44111,683.0375],[28.0285,0.43692,664.5765],[28.04121,0.42938,679.5597],[28.04431,0.42566,718.1382],[28.0454,0.4209,744.175],[28.04447,0.41563,752.078],[28.04075,0.40876,666.8895],[28.03858,0.40153,627.699],[28.03889,0.39036,679.9617],[28.04214,0.38504,731.3452],[28.05098,0.37894,744.4667],[28.05362,0.37476,681.6999],[28.05532,0.36954,686.9984],[28.0561,0.36199,683.1508],[28.05346,0.31812,691.1141],[28.05424,0.31187,681.5536],[28.06323,0.2727,725.2336],[28.06948,0.25807,724.4012],[28.07181,0.25368,791.6248],[28.07475,0.2497,753.6429],[28.07832,0.24645,722.193],[28.08142,0.24257,708.6659],[28.08839,0.23595,763.7402],[28.09274,0.23342,778.9603],[28.09754,0.23146,718.7565],[28.11366,0.22722,847.768],[28.1179,0.22464,806.7902],[28.121,0.22014,754.4471],[28.12255,0.21394,728.3396],[28.12049,0.19622,708.6321],[28.121,0.19043,717.2059],[28.12364,0.18681,713.8676],[28.13092,0.18051,700.8901],[28.13418,0.17699,722.8881],[28.13713,0.17286,711.3992],[28.13945,0.16841,711.9217],[28.14069,0.1617,697.4278],[28.14085,0.15327,728.6343],[28.13635,0.13798,722.4514],[28.13216,0.12883,729.2804],[28.12426,0.12082,720.7045],[28.11273,0.11493,717.0609],[28.10839,0.11095,741.2527],[28.10498,0.10547,711.7511],[28.10002,0.08811,740.1837],[28.09878,0.08134,738.9504],[28.09878,0.06971,743.4186],[28.09413,0.0478,750.7928],[28.09382,0.0416,747.4418],[28.08979,0.01938,764.8716],[28.09041,0.014,782.8706],[28.09413,0.00016,766.2628],[28.09785,-0.05426,745.3213],[28.10033,-0.06563,749.3899],[28.10762,-0.08671,751.7935],[28.10839,-0.09276,760.7279],[28.10979,-0.11762,736.6377],[28.11211,-0.12914,737.3451],[28.12131,-0.15451,764.2287],[28.1224,-0.16087,765.2327],[28.11987,-0.182,792.5199],[28.11382,-0.20629,739.011],[28.1056,-0.22872,749.2922],[28.09522,-0.24257,745.0609],[28.07925,-0.25833,747.1202],[28.02463,-0.29419,741.6705],[28.00897,-0.30132,736.5715],[27.97016,-0.31481,760.5442],[27.95559,-0.32489,751.2599],[27.93988,-0.34003,777.4534],[27.91833,-0.37005,781.9951],[27.89456,-0.41693,816.3278],[27.87177,-0.45207,844.0123],[27.81637,-0.51134,880.9204],[27.78438,-0.53604,923.5079],[27.73028,-0.56705,1050.2743],[27.81218,-0.64518,859.8522],[27.81776,-0.66177,849.485],[27.82149,-0.68228,884.2869],[27.81559,-0.6967,820.0947],[27.80614,-0.74471,813.8123],[27.77849,-0.81091,916.4315],[27.76981,-0.8601,786.4537],[27.76299,-0.87431,705.7511],[27.74966,-0.8846,829.663],[27.6862,-0.92191,840.6937],[27.6708,-0.92723,993.1296],[27.65374,-0.92987,719.512],[27.60455,-0.9293,609.2903],[27.59835,-0.93126,608.9567],[27.58315,-0.93147,608.7084],[27.57757,-0.9325,605.2029],[27.56176,-0.93715,609.1381],[27.55597,-0.93767,605.6651],[27.55039,-0.9372,599.1981],[27.54559,-0.93581,590.989],[27.54264,-0.9341,602.4612],[27.54,-0.93188,612.9633],[27.53706,-0.92878,602.4553],[27.53396,-0.92599,607.9376],[27.52931,-0.92418,613.5215],[27.52419,-0.92325,611.0767],[27.51908,-0.92144,618.0775],[27.51597,-0.91782,622.8235],[27.51225,-0.90821,604.209],[27.50869,-0.90496,608.7618],[27.50497,-0.90315,609.3589],[27.50109,-0.90356,602.9233],[27.49809,-0.90449,600.8875],[27.47887,-0.91478,594.486],[27.47329,-0.91633,609.1729],[27.4674,-0.91633,599.5001],[27.45577,-0.91457,581.2009],[27.44988,-0.91426,601.2314],[27.44456,-0.91509,599.0848],[27.43944,-0.91674,602.5023],[27.43495,-0.91912,600.5563],[27.39867,-0.94728,588.2085],[27.39164,-0.95064,591.7772],[27.38544,-0.951,586.6458],[27.37319,-0.95002,601.4393],[27.35738,-0.94511,593.1626],[27.3518,-0.94449,585.0869],[27.34451,-0.94682,587.1009],[27.33645,-0.95131,573.7479],[27.32353,-0.96175,584.8777],[27.31594,-0.96671,582.3821],[27.30942,-0.96997,588.0538],[27.30167,-0.97172,585.2463],[27.29253,-0.97493,585.5273],[27.27806,-0.98304,576.2724],[27.27139,-0.98888,562.4912],[27.26767,-0.99431,576.5167],[27.26674,-1.00051,576.8703],[27.26782,-1.03348,569.3658],[27.26658,-1.04149,579.0668],[27.25976,-1.06097,585.474],[27.25852,-1.06738,684.8086],[27.26007,-1.07182,651.2229],[27.26379,-1.07477,643.6726],[27.26844,-1.07694,577.6207],[27.27263,-1.07957,559.0991],[27.2762,-1.08298,577.1588],[27.2793,-1.08701,582.5765],[27.28462,-1.09533,588.6257],[27.28663,-1.09998,582.8712],[27.28756,-1.10567,577.8385],[27.28679,-1.11347,585.6827],[27.28694,-1.12009,596.2134],[27.28865,-1.12484,610.8552],[27.29113,-1.12784,594.3788],[27.29361,-1.1298,588.7923],[27.31361,-1.14117,580.7109],[27.32105,-1.14701,580.8935],[27.32787,-1.15368,582.5276],[27.33087,-1.15786,578.2194],[27.33304,-1.16267,576.8379],[27.33407,-1.1682,579.7947],[27.33459,-1.17445,579.7599],[27.33221,-1.18737,577.9292],[27.32834,-1.19083,578.1573],[27.32338,-1.19269,549.5],[27.31795,-1.19285,584.5047],[27.31299,-1.19145,581.5767],[27.3088,-1.18907,590.1072],[27.30493,-1.18603,589.5459],[27.30105,-1.18365,590.1465],[27.29687,-1.18256,580.2954],[27.29268,-1.18396,578.4021],[27.284,-1.18799,551.7793],[27.27919,-1.18804,570.3671],[27.27496,-1.18603,547.0],[27.2717,-1.18256,573.7155],[27.26798,-1.17941,582.1075],[27.26348,-1.17714,585.9352],[27.25868,-1.17564,576.0902],[27.25325,-1.17538,583.1218],[27.24845,-1.17688,572.2845],[27.24364,-1.18013,583.7373],[27.22752,-1.19559,564.9066],[27.22235,-1.19869,574.6365],[27.21739,-1.20024,567.5359],[27.21165,-1.20132,561.5858],[27.207,-1.20349,572.2397],[27.20592,-1.21202,588.3817],[27.20902,-1.22566,776.7508],[27.21615,-1.24308,724.2088],[27.24224,-1.28385,685.2499],[27.45004,-1.5227,650.931],[27.49799,-1.60455,808.1224],[27.51939,-1.63303,770.5631],[27.53473,-1.64874,805.3691],[27.60625,-1.70274,815.129],[27.64522,-1.75312,1020.3369],[27.66119,-1.76925,1044.323],[27.6955,-1.78997,1063.4812],[27.70976,-1.80702,1062.0703],[27.71658,-1.83808,1153.2444],[27.71875,-1.91389,1105.5352],[27.72247,-1.93471,1129.9768],[27.72702,-1.94546,1068.5947],[27.76004,-2.00091,1173.4729],[27.81311,-1.97161,1083.4596],[27.83358,-1.96639,1037.6774],[27.85719,-1.96334,1195.3007],[27.87471,-1.96929,1087.0573],[27.88975,-1.98014,1221.9125],[27.92143,-2.01843,1256.8318],[27.93647,-2.03228,1441.9318],[27.96039,-2.04737,1198.8268],[27.98101,-2.0546,1188.7747],[27.9976,-2.05827,1183.5874],[28.06354,-2.06189,1224.5652],[28.0856,-2.05724,1183.9091],[28.13154,-2.03466,1099.2615],[28.16844,-2.02132,1019.5662],[28.28063,-2.00117,1326.005],[28.30316,-1.9945,1399.0134],[28.3199,-1.98112,1459.3905],[28.32812,-1.96562,1237.3702],[28.33339,-1.94376,1248.6619],[28.3368,-1.86981,1261.3961],[28.34135,-1.85048,1235.2593],[28.34848,-1.83425,1299.3275],[28.35794,-1.82289,1436.7234],[28.37158,-1.81379,1109.2622],[28.38429,-1.811,1046.3777],[28.39592,-1.81167,1094.1782],[28.40682,-1.81581,929.2044],[28.41628,-1.82247,901.2094],[28.4245,-1.83146,878.4091],[28.43054,-1.84201,879.3702],[28.44682,-1.90004,939.6948],[28.45054,-1.90712,893.0668],[28.45649,-1.91048,841.8001],[28.47772,-1.91699,1148.7319],[28.49369,-1.92448,1528.3014],[28.5094,-1.92862,1307.3635],[28.53545,-1.93125,1189.6274],[28.55917,-1.92645,1367.5918],[28.5786,-1.91931,1792.8562],[28.59519,-1.90712,1832.3739],[28.60867,-1.88981,1735.9971],[28.6203,-1.86691,1792.4613],[28.64299,-1.80418,1563.5333],[28.65198,-1.79276,1392.5966],[28.66779,-1.78361,1276.7129],[28.68753,-1.78258,1436.6372],[28.71234,-1.78537,1310.6718],[28.74711,-1.78599,1631.2219],[28.76928,-1.77793,1991.696],[28.78649,-1.76335,2055.4548],[28.83491,-1.69587,2409.9092],[28.84654,-1.68357,2361.5542],[28.86581,-1.66899,2349.2275],[28.87837,-1.66667,2435.6045],[28.88845,-1.67023,2421.5239],[28.89341,-1.67731,2473.4207],[28.90741,-1.71214,2695.7546],[28.91269,-1.7216,2879.9478],[28.92431,-1.72935,2842.9768],[28.94214,-1.73416,2472.6975],[29.02038,-1.72687,1584.5149],[29.05262,-1.72734,1461.0],[29.18626,-1.73958,1461.0],[29.18664,-1.73962,1461.0],[29.21225,-1.69865,1461.0],[29.23334,-1.65866,1539.1217],[29.24543,-1.64098,1600.8977],[29.29369,-1.60099,1903.4904],[29.30382,-1.58786,1936.9353],[29.33121,-1.53143,2015.2731],[29.34279,-1.51655,2038.6488],[29.3585,-1.50993,2222.4067],[29.43493,-1.50683,3570.8372],[29.43741,-1.50621,3766.5256],[29.43963,-1.50476,3830.2334],[29.4417,-1.50259,3870.0703],[29.44507,-1.49729,3801.9949],[29.46433,-1.46694,3105.9016],[29.49875,-1.43107,2674.8252],[29.53864,-1.40234,2659.9456],[29.57792,-1.38839,3027.2844],[29.58732,-1.32969,2100.7139],[29.58711,-1.31056,1965.2466],[29.58319,-1.2993,1911.7554],[29.57151,-1.27925,1801.4507],[29.57099,-1.2686,1786.3412],[29.58045,-1.24328,1786.4568],[29.58143,-1.23481,1740.1364],[29.57554,-1.21321,1717.4124],[29.56525,-1.19791,1733.0632],[29.55704,-1.18179,1674.8898],[29.55693,-1.15771,1747.8907],[29.56913,-1.0959,1480.3629],[29.57006,-1.07792,1413.5486],[29.56593,-1.05859,1384.6116],[29.5512,-1.02014,1220.4603],[29.54846,-1.00257,1188.7141],[29.55135,-0.99058,1211.2269],[29.55152,-0.99031,1211.2269],[29.55652,-0.9818,1204.8787],[29.56035,-0.97208,1222.0526],[29.55916,-0.9573,1230.9189],[29.55528,-0.93849,1208.8922],[29.55466,-0.92857,1247.7253],[29.556,-0.91948,1242.9539],[29.56717,-0.90191,1275.6465],[29.59673,-0.89188,1539.1804],[29.60799,-0.87845,1244.7509],[29.61078,-0.86398,1158.1171],[29.61337,-0.80383,1109.8357],[29.61109,-0.78274,1083.1389],[29.6022,-0.74378,1026.5934],[29.60303,-0.7229,1064.5133],[29.61554,-0.64415,1005.8384],[29.61884,-0.63898,1003.9373],[29.62442,-0.63484,956.5586],[29.62928,-0.62978,944.6296],[29.63057,-0.62203,945.804],[29.62825,-0.61603,937.0206],[29.6205,-0.60539,977.9546],[29.61884,-0.59939,970.6685],[29.62287,-0.58844,960.4894],[29.63218,-0.58575,969.0546],[29.64282,-0.58503,940.1443],[29.65088,-0.57955,937.7517],[29.65305,-0.5656,933.6392],[29.64975,-0.50431,921.3205],[29.64509,-0.48891,915.7256],[29.63461,-0.46697,912.0],[29.63187,-0.46121,912.0],[29.62938,-0.4424,912.0],[29.64386,-0.35799,912.0],[29.65098,-0.31645,912.0],[29.65398,-0.29895,912.0],[29.67057,-0.20087,912.0],[29.67662,-0.16511,912.0],[29.68126,-0.1379,912.0],[29.69403,-0.0631,1045.7059],[29.70902,-0.0263,1067.526],[29.71434,-0.00749,1098.5022],[29.71346,0.01163,1086.3257],[29.70163,0.05524,1111.717],[29.70308,0.0725,1280.3093],[29.71181,0.09958,1593.0675],[29.75579,0.16087,2215.4775],[29.76126,0.17214,1930.4893],[29.77305,0.16748,1859.0293],[29.78038,0.16118,1937.7505],[29.7872,0.15849,2025.0591],[29.79713,0.1648,2036.5874],[29.80064,0.17245,2194.9668],[29.83263,0.33698,2906.6157],[29.8396,0.35848,3216.5967],[29.85108,0.37719,4103.9336],[29.90391,0.43823,4481.3159],[29.92291,0.46018,3869.134],[29.92608,0.46707,3745.6001],[29.94048,0.49832,2833.0247],[29.938,0.53728,2178.4316],[29.9195,0.6181,969.4769],[29.92001,0.63867,930.0388],[29.93231,0.72316,774.4556],[29.92683,0.77489,755.5062],[29.92828,0.78502,759.5139],[29.9473,0.8246,722.1373],[29.96022,0.8321,687.2495],[29.98219,0.84902,678.5034]]]}
,"properties": {"ISO3166-1-Alpha-3": "COD","country": "Democratic Republic of the Congo","fill": "#F0F","name": "Nord-Kivu","area_km2": 59926.39,"hist_schema_id": "Elevation0-9000","hist_area_km2": {"550": 15.75,"575": 208.89,"600": 697.82,"625": 1060.94,"650": 1462.79,"675": 941.21,"700": 896.84,"725": 1096.04,"750": 1478.46,"775": 1860.21,"800": 1764.51,"825": 1679.07,"850": 1690.31,"875": 1712.98,"900": 3280.6,"925": 2071.52,"950": 1934.89,"975": 1994.48,"1000": 1993.44,"1025": 1945.92,"1050": 1812.85,"1075": 1609.05,"1100": 1430.95,"1125": 1371.08,"1150": 1274.37,"1175": 1112.02,"1200": 950.74,"1225": 822.18,"1250": 751.71,"1275": 655.04,"1300": 595.12,"1325": 554.84,"1350": 518.49,"1375": 488.18,"1400": 468.23,"1425": 440.11,"1450": 630.66,"1475": 480.61,"1500": 491.3,"1525": 508.11,"1550": 530.97,"1575": 551.11,"1600": 526.56,"1625": 528.34,"1650": 521.91,"1675": 514.13,"1700": 560.56,"1725": 616.32,"1750": 683.11,"1775": 655.02,"1800": 576.58,"1825": 557.59,"1850": 564.38,"1875": 530.69,"1900": 441.69,"1925": 376.48,"1950": 321.21,"1975": 292.37,"2000": 283.87,"2025": 272.18,"2050": 243.8,"2075": 233.29,"2100": 221.87,"2125": 218.2,"2150": 215.13,"2175": 201.33,"2200": 176.69,"2225": 148.71,"2250": 131.69,"2275": 122.1,"2300": 109.24,"2325": 104.25,"2350": 98.72,"2375": 94.67,"2400": 91.37,"2425": 84.98,"2450": 75.36,"2475": 69.89,"2500": 62.18,"2525": 49.84,"2550": 42.16,"2575": 38.18,"2600": 36.61,"2625": 30.44,"2650": 29.3,"2675": 24.8,"2700": 22.07,"2725": 19.67,"2750": 16.58,"2775": 16.94,"2800": 16.58,"2825": 14.18,"2850": 11.91,"2875": 10.64,"2900": 8.31,"2925": 7.4,"2950": 8.35,"2975": 6.08,"3000": 6.27,"3025": 5.68,"3050": 5.81,"3075": 5.81,"3100": 4.75,"3125": 4.75,"3150": 4.52,"3175": 4.62,"3200": 4.92,"3225": 4.05,"3250": 4.62,"3275": 4.24,"3300": 4.24,"3325": 3.86,"3350": 4.01,"3375": 3.43,"3400": 3.35,"3425": 3.48,"3450": 3.2,"3475": 3.16,"3500": 3.31,"3525": 2.73,"3550": 3.33,"3575": 2.99,"3600": 2.97,"3625": 3.01,"3650": 2.23,"3675": 2.44,"3700": 2.71,"3725": 2.63,"3750": 2.4,"3775": 1.95,"3800": 2.14,"3825": 2.42,"3850": 2.08,"3875": 2.18,"3900": 2.27,"3925": 1.74,"3950": 1.7,"3975": 2.04,"4000": 1.61,"4025": 1.61,"4050": 1.38,"4075": 1.1,"4100": 1.12,"4125": 0.95,"4150": 0.85,"4175": 1.1,"4200": 1.12,"4225": 0.83,"4250": 0.76,"4275": 0.72,"4300": 0.55,"4325": 0.72,"4350": 0.47,"4375": 0.55,"4400": 0.51}}}