{"type": "Feature","bbox": [28.834883631250165,-2.4775490799952138,29.363855967705774,-1.5865088671676519],"geometry": {"type": "Polygon","coordinates": [[[29.333242098484078,-2.0513098239085541,1461.0],[29.340012473408109,-2.0448338131116661,1461.0],[29.349726489603455,-2.0389465305690351,1465.0665],[29.350315217857712,-2.04424508485738,1461.0],[29.355613772146086,-2.0513098239085541,1466.4098],[29.361206690561602,-2.0513098239085541,1483.49],[29.363855967705774,-2.0357085251705769,1461.0],[29.359734869925944,-2.020990318814,1561.2487],[29.352081402620513,-2.0056833842031381,1476.2842],[29.346488484205025,-1.988904628956647,1472.5646],[29.349726489603455,-1.970065324820212,1654.0995],[29.337657560391051,-1.976835699744242,1572.4465],[29.331475913721306,-1.9712427813287261,1531.1956],[29.322350625780217,-1.9497542000481189,1461.0],[29.321467533398817,-1.945044374014032,1461.0],[29.3167577073647,-1.9332698089287419,1467.7583],[29.311753517203471,-1.9256163416233389,1603.0541],[29.3091042400593,-1.932681080674485,1660.817],[29.28496638163449,-1.9079544939954189,1471.3455],[29.2758410936934,-1.8873490050962121,1461.0],[29.288204387032948,-1.867626608578405,1464.1462],[29.279667827346117,-1.8484929403148269,1461.0],[29.277018550201944,-1.799039766956724,1535.6699],[29.261417251463968,-1.779023006311746,1461.0],[29.270542539405028,-1.767542805353628,1461.0],[29.273191816549229,-1.7542964196327091,1461.0],[29.272014360040686,-1.7410500339117621,1482.228],[29.268187626388,-1.730452925335044,1484.5327],[29.263772164481026,-1.7269205558094429,1620.5656],[29.250525778760078,-1.72338818628387,1461.0],[29.247876501615906,-1.7207389091396981,1461.0],[29.249642686378678,-1.7145572624699239,1461.0],[29.253763784158537,-1.708669979927294,1461.0],[29.256118697175594,-1.7027826973846629,1463.0583],[29.254646876539937,-1.696601050714889,1477.344],[29.246404680980248,-1.6910081322994019,1503.6096],[29.206076795563206,-1.6759955618156821,1470.592],[29.194596594605059,-1.6686364586373941,1479.2557],[29.173108013324452,-1.6506802468823589,1484.1301],[29.161333448239191,-1.6383169535428119,1476.0919],[29.150147611408187,-1.631840942745924,1507.1615],[29.119828106313633,-1.625070567821894,1468.6771],[29.107170448846972,-1.617711464643605,1477.6309],[29.08774241645628,-1.595634155108741,1479.635],[29.076556579625276,-1.5891581443118239,1473.8066],[29.0591890961245,-1.5865088671676519,1461.0],[29.042704705005121,-1.599166524634313,1461.0],[29.027986498648545,-1.629486029728866,1485.4027],[29.0173893900718,-1.663926632603278,1477.7549],[29.014445748800483,-1.690125039918001,1491.48],[29.020627395470257,-1.690125039918001,1461.0],[29.028280862775688,-1.67835047483274,1461.0],[29.078617128515191,-1.6215381982963211,1461.0],[29.082738226295049,-1.6144734592451471,1461.0],[29.094512791380311,-1.6389056817970979,1461.0],[29.097456432651626,-1.649502790373816,1461.0],[29.096278976143083,-1.6621604478404779,1606.0166],[29.09274660661751,-1.670991371654424,1504.5212],[29.04770889516638,-1.739578213276104,1496.2086],[29.031518868174118,-1.7542964196327091,1644.3169],[29.014445748800483,-1.7516471424885081,1780.3574],[29.014445748800483,-1.792563756159808,1492.8949],[29.027986498648545,-1.7857933812357769,1461.0],[29.024159764995829,-1.802866500609412,1606.1575],[29.015328841181883,-1.813169245059044,1611.23],[29.00414300435088,-1.822000168872989,1635.1077],[28.993840259901276,-1.833480369831108,1717.9922],[28.94644763543306,-1.9438669175054879,1875.2076],[28.928197059550911,-1.9677104118031541,1586.5901],[28.912007032558677,-1.9632949498961809,1726.8486],[28.90140992398193,-1.988904628956647,1852.4957],[28.8946395490579,-2.00009046578765,2013.2898],[28.884042440481153,-2.0115706667457691,2074.6169],[28.889046630642383,-2.0189297699240569,1894.5979],[28.891107179532327,-2.028938150246546,1703.7017],[28.890812815405184,-2.0533703727984691,1723.0034],[28.900232467473387,-2.0468943620015811,1482.5522],[28.910535211923019,-2.034825432789177,1461.0],[28.916716858592764,-2.0236395959581732,1461.0],[28.914950673829992,-2.018635405796942,1461.0],[28.904942293507503,-2.0148086721442269,1516.3435],[28.907297206524561,-2.0068608407116808,1531.6628],[28.918188679228422,-1.994497547372134,1476.2527],[28.919954863991222,-1.98331171054113,1461.0],[28.925253418279596,-1.980662433396958,1624.3879],[28.94232653765323,-1.983900438795388,1461.0],[28.949096912577261,-1.9874328083209889,1461.0],[28.950863097340061,-1.996263732134935,1461.0],[28.952040553848576,-2.0068608407116808,1461.0],[28.956161651628406,-2.01510303627137,1461.0],[28.967053124332296,-2.0533703727984691,1731.6262],[28.931435064949369,-2.085750426782965,1673.1604],[28.883453712226896,-2.114598111241861,1548.2598],[28.856666576657915,-2.141973975065099,1489.1511],[28.888163538261011,-2.138147241412383,1461.0],[28.897877554456358,-2.1499218064976731,1484.3597],[28.889046630642383,-2.16464001285425,1624.3789],[28.863436951581946,-2.169349838888365,1474.1179],[28.866969321107518,-2.1728822084139381,1496.4365],[28.869029869997433,-2.1764145779395112,1462.1112],[28.871679147141634,-2.179946947465083,1461.0],[28.876683337302865,-2.1828905887363992,1461.0],[28.864614408090461,-2.1946651538216879,1550.1681],[28.858138397293573,-2.2070284471612069,1461.1823],[28.85961021792923,-2.2176255557379529,1461.0],[28.870501690633091,-2.2241015665348409,1461.0],[28.865791864599004,-2.232049397967387,1461.0],[28.86373131570906,-2.240291593527076,1471.0623],[28.863436951581946,-2.258836533536368,1655.579],[28.867558049361776,-2.2555985281379378,1514.8781],[28.870501690633091,-2.2535379792480228,1465.1074],[28.873445331904406,-2.250594337976707,1461.0],[28.876683337302865,-2.2450014195611909,1461.0],[28.879921342701323,-2.2473563325782488,1461.0],[28.887574810006726,-2.2497112455953072,1461.0],[28.890812815405184,-2.2520661586123651,1461.0],[28.8928733642951,-2.2420577782898761,1461.0],[28.897288826202072,-2.23410994685733,1473.7335],[28.903470472871845,-2.2279283001875569,1467.7018],[28.912007032558677,-2.2241015665348409,1461.0],[28.925842146533853,-2.252654886866623,1549.0996],[28.919071771609822,-2.2788532941813462,1669.5791],[28.884042440481153,-2.3265402827766759,1529.5334],[28.911418304304391,-2.311233348165814,1485.9296],[28.933495613839284,-2.2906278592666069,1461.0],[28.972940406874926,-2.2450014195611909,1461.0],[28.972351678620669,-2.2641350878247408,1552.9482],[28.96234329829818,-2.2929827722836649,1510.8792],[28.959694021154007,-2.3103502557844142,1511.8281],[28.949980004958661,-2.311822076420071,1587.467],[28.8554891201494,-2.3603921573968019,1663.6191],[28.841654006174196,-2.3733441789906071,1566.9733],[28.836355451885822,-2.3918891189998992,1580.3173],[28.834883631250165,-2.4289789990184829,1512.4379],[28.836649816012965,-2.447523939027775,1554.8613],[28.842537098555596,-2.4628308736386368,1461.0],[28.842537098555596,-2.47048434094404,1461.0],[28.874034060158692,-2.4775490799952138,1461.0],[28.887280445879611,-2.461947781257237,1461.0],[28.8937564566765,-2.4354550098153709,1464.1392],[28.904647929380388,-2.4089622383735332,1461.0],[28.924075961771052,-2.3918891189998992,1484.0612],[28.967641852586553,-2.3751103637533788,1461.0],[28.986481156722988,-2.361275249778203,1461.0],[28.990602254502818,-2.3571541519983441,1461.0],[28.993545895774133,-2.3559766954898289,1461.0],[28.996489537045449,-2.353621782472771,1461.0],[29.000610634825307,-2.3474401358030259,1461.0],[29.014151384673369,-2.3003418754619531,1461.0],[29.019744303088856,-2.290922223393721,1461.0],[29.027986498648545,-2.2859180332324911,1461.0],[29.047120166912094,-2.2923940440293791,1461.0],[29.051535628819067,-2.31506008181853,1536.1621],[29.052713085327611,-2.340375396751853,1461.0],[29.062132737395814,-2.354799238981315,1461.0],[29.053301813581868,-2.375699092007665,1571.3505],[29.041821612623721,-2.395421488525471,1576.3601],[29.057717275488841,-2.3851187440758679,1461.0],[29.065076378667129,-2.370106173592148,1461.0],[29.070080568828359,-2.353327418345657,1461.0],[29.079500220896591,-2.33772611960768,1461.0],[29.081560769786506,-2.3318388370650212,1461.0],[29.080972041532249,-2.3182980872169878,1461.0],[29.082738226295049,-2.3132938970557291,1461.0],[29.086859324074879,-2.3121164405472139,1461.0],[29.093040970744653,-2.312999532928615,1461.0],[29.097456432651626,-2.31594317419993,1461.0],[29.096278976143083,-2.32094736436116,1461.0],[29.108936633609744,-2.3065235221316982,1481.9867],[29.11364645964386,-2.2979869624448952,1461.0],[29.116884465042318,-2.2859180332324911,1461.0],[29.124243568220606,-2.2859180332324911,1461.0],[29.123360475839206,-2.2982813265720381,1461.0],[29.118945013932233,-2.3147657176913872,1495.4758],[29.116884465042318,-2.3265402827766759,1481.2357],[29.158389806967875,-2.2450014195611909,1461.0],[29.171047464434537,-2.25324361512088,1461.0],[29.185176942536856,-2.2564816205193381,1461.0],[29.19636277936786,-2.2520661586123651,1568.6316],[29.199895148893432,-2.2376423163829031,1720.2689],[29.1931247739694,-2.242352142417019,1605.4194],[29.185765670791113,-2.2450014195611909,1461.0],[29.180761480629883,-2.2246902947890992,1461.0],[29.183116393646941,-2.2058509906526922,1461.0],[29.193713502223687,-2.1946651538216879,1461.0],[29.213730262868637,-2.1973144309658612,1461.0],[29.206076795563206,-2.1681723823798218,1461.0],[29.224327371445355,-2.14962744237053,1461.0],[29.252291963522879,-2.148155621734873,1461.0],[29.274663637184887,-2.169349838888365,1463.1431],[29.272014360040686,-2.152571083641845,1560.9083],[29.262594707972482,-2.1428570674464988,1492.9509],[29.252586327650022,-2.1369697849038691,1461.0],[29.247876501615906,-2.131671230615495,1461.0],[29.248465229870163,-2.0995855407581421,1461.0],[29.254352512412794,-2.0872222474186231,1461.0],[29.268187626388,-2.0798631442403348,1461.0],[29.263477800353883,-2.1072390080635728,1505.7484],[29.26318343622674,-2.1184248448945771,1600.4639],[29.268187626388,-2.127550132835665,1646.7056],[29.274663637184887,-2.127550132835665,1461.0],[29.277312914329059,-2.0984080842496269,1461.0],[29.281434012108917,-2.08280678551165,1461.0],[29.288204387032948,-2.0730927693163039,1461.0],[29.297035310846894,-2.072504041062047,1461.0],[29.304394414025182,-2.079274415986049,1461.0],[29.315580250856186,-2.1010573613937988,1569.835],[29.321173169271674,-2.0910489810713391,1461.0],[29.322350625780217,-2.0801575083674488,1461.0],[29.319995712763159,-2.0692660356635879,1488.5388],[29.315580250856186,-2.0595520194682422,1461.0],[29.32588299530579,-2.0566083781969269,1461.0],[29.333242098484078,-2.0513098239085541,1461.0]],
[[29.099516981541541,-1.95564148259075,1646.5712],[29.096278976143083,-1.957113303226407,1609.1641],[29.095984612015968,-1.967121683548896,1463.3695],[29.098928253287283,-1.9730089660915271,1461.0],[29.102166258685713,-1.978896248634157,1461.0],[29.106287356465572,-2.00009046578765,1473.6099],[29.115118280279518,-2.026877601356631,1461.0],[29.11364645964386,-2.0357085251705769,1474.1062],[29.108053541228372,-2.0389465305690351,1541.9276],[29.093040970744653,-2.0454225413659231,1602.4137],[29.090097329473338,-2.0495436391457531,1605.0627],[29.090097329473338,-2.0589632912139848,1501.4252],[29.088919872964794,-2.0639674813752151,1461.0],[29.084798775184964,-2.0663223943922731,1461.0],[29.075967851371018,-2.06691112264653,1549.0115],[29.075967851371018,-2.0730927693163039,1686.3959],[29.088036780583394,-2.0816293290031069,1461.0],[29.093924063126025,-2.0925208017069958,1461.0],[29.098339525033026,-2.1051784591736582,1461.0],[29.107170448846972,-2.1181304807674342,1461.0],[29.10952536186403,-2.1340261436325529,1463.9835],[29.089508601219052,-2.1740596649224528,1549.7338],[29.093335334871767,-2.1934876973131452,1461.0],[29.093924063126025,-2.2202748328821258,1544.0901],[29.068608748192702,-2.2458845119425921,1834.3649],[29.036228694208233,-2.2620745389348258,1728.6072],[29.014445748800483,-2.258836533536368,1468.8945],[29.013857020546226,-2.2455901478154492,1461.0],[29.015328841181883,-2.2346986751115878,1461.0],[29.020038667216,-2.2252790230433561,1485.3872],[29.027986498648545,-2.21733119161081,1498.5924],[29.022687944360172,-2.219686104627868,1571.8835],[29.019744303088856,-2.2202748328821258,1579.1791],[29.017683754198941,-2.2208635611363832,1559.4004],[29.014445748800483,-2.2241015665348409,1469.6342],[29.007381009749338,-2.2167424633565531,1545.7039],[29.00414300435088,-2.2117382731953228,1461.0],[29.004437368478023,-2.2058509906526922,1461.0],[29.007675373876452,-2.1973144309658612,1465.1962],[29.000904998952421,-2.1990806157286609,1501.4695],[28.986775520850102,-2.2011411646185759,1476.4143],[28.980299510053214,-2.2034960776356338,1461.0],[28.985598064341588,-2.1861285941348569,1461.0],[28.995606444664048,-2.1725878442867952,1461.0],[29.006203553240795,-2.1605189150743911,1461.0],[29.014445748800483,-2.14874434998913,1461.0],[29.0173893900718,-2.141679610937985,1461.0],[29.019449938961714,-2.1343205077596958,1461.0],[29.020627395470257,-2.1181304807674342,1461.0],[29.022393580233057,-2.1143037471147181,1461.0],[29.028575226902802,-2.089577160435681,1461.0],[29.027986498648545,-2.087516611545738,1461.0],[29.050358172310553,-2.0492492750186391,1461.0],[29.05595109072604,-2.0321761556450042,1461.0],[29.0618383732687,-2.0003848299147649,1574.0226],[29.057422911361698,-1.991259541973704,1619.3787],[29.041821612623721,-1.9980299168977349,1461.0],[29.044176525640779,-1.971537145455869,1467.7637],[29.05094690056481,-1.9515203848109191,1461.0],[29.075967851371018,-1.91560796130085,1461.0],[29.078617128515191,-1.921200879716366,1461.0],[29.081855133913649,-1.9238501568605391,1461.0],[29.085681867566365,-1.9256163416233389,1461.0],[29.090097329473338,-1.9291487111489121,1461.0],[29.096867704397368,-1.9185516025721649,1461.0],[29.106876084719829,-1.9188459666993081,1461.0],[29.115118280279518,-1.9279712546403971,1461.0],[29.116884465042318,-1.943278189251231,1461.0],[29.099516981541541,-1.95564148259075,1646.5712]]]}
,"properties": {"featurecla": "Lake","scalerank": 4,"name": "Lake Kivu","name_abb": "L. Kivu","name_alt": null,"note": null,"delta": null,"dam_name": null,"year": -99,"admin": "admin-0","min_zoom": 4.0,"min_label": 5.0,"area_km2": 2414.706,"hist_schema_id": "Elevation0-9000","hist_area_km2": {"1450": 2178.185,"1475": 64.879,"1500": 40.278,"1525": 29.916,"1550": 24.238,"1575": 18.327,"1600": 14.196,"1625": 10.933,"1650": 8.009,"1675": 6.844,"1700": 4.852,"1725": 3.835,"1750": 2.754,"1775": 1.971,"1800": 1.356,"1825": 1.165,"1850": 0.784,"1875": 0.551,"1900": 0.403,"1925": 0.275,"1950": 0.106,"1975": 0.403,"2000": 0.212,"2025": 0.127,"2050": 0.064,"2075": 0.042}}}