{"type":"Feature","properties":{"GID_2":"COD.11.17_1","GID_0":"COD","country":"DemocraticRepublicoftheCongo","GID_1":"COD.11_1","province":"Kongo-Central","NL_NAME_1":"NA","county":"Songololo","VARNAME_2":"NA","NL_NAME_2":"NA","TYPE_2":"Territoire","ENGTYPE_2":"Territory","CC_2":"NA","HASC_2":"NA","name":"Songololo.county"},
"geometry":{"type": "MultiPolygon","coordinates": [[[[14.611,-5.9096,461.4277],[14.6072,-5.9016,478.9713],[14.6092,-5.8945,461.7693],[14.6145,-5.8921,462.9467],[14.6161,-5.8878,485.1521],[14.6202,-5.8864,446.4018],[14.6221,-5.8825,457.3602],[14.6312,-5.8733,439.8187],[14.6344,-5.8647,450.0181],[14.6397,-5.8654,449.8764],[14.6436,-5.8601,446.672],[14.6461,-5.8629,412.8103],[14.6494,-5.858,426.9238],[14.6533,-5.861,399.0415],[14.6572,-5.859,411.5122],[14.6549,-5.8544,415.5518],[14.656,-5.8504,413.2995],[14.6585,-5.85,420.2599],[14.6599,-5.8477,416.4075],[14.6592,-5.8451,423.8269],[14.6553,-5.8426,400.9294],[14.6562,-5.8408,419.5481],[14.6532,-5.8364,424.4668],[14.6514,-5.8275,434.3188],[14.6486,-5.8275,421.7131],[14.6357,-5.8098,416.2958],[14.6256,-5.8027,383.3518],[14.6288,-5.7964,392.5815],[14.6318,-5.7955,382.5678],[14.6363,-5.7909,394.1289],[14.6412,-5.793,380.1146],[14.6432,-5.7909,386.7337],[14.6428,-5.784,387.7906],[14.6464,-5.7822,391.9928],[14.6473,-5.7796,398.6021],[14.6464,-5.7769,399.5864],[14.6418,-5.7773,381.0839],[14.6377,-5.7663,390.5867],[14.6356,-5.7693,380.776],[14.6326,-5.7693,381.0366],[14.6315,-5.7659,382.4955],[14.634,-5.7619,402.3719],[14.6303,-5.7509,397.8918],[14.6257,-5.7479,382.0314],[14.6342,-5.735,376.2473],[14.6348,-5.7288,375.1997],[14.6318,-5.7171,382.3805],[14.6288,-5.7139,379.5648],[14.6297,-5.71,382.8369],[14.626,-5.7017,416.1579],[14.6103,-5.7035,411.7537],[14.5866,-5.7203,446.387],[14.5722,-5.7397,417.5984],[14.568,-5.7423,420.8192],[14.563,-5.7414,436.4113],[14.5491,-5.7262,418.2989],[14.5319,-5.723,418.5536],[14.5264,-5.72,421.8701],[14.5227,-5.7223,426.6149],[14.5202,-5.7219,422.3952],[14.5165,-5.7111,405.334],[14.516,-5.7062,410.5972],[14.5179,-5.7014,410.1],[14.5107,-5.6987,397.2915],[14.5096,-5.6961,392.5672],[14.5137,-5.6924,406.2484],[14.5139,-5.6885,397.3253],[14.5222,-5.683,395.5806],[14.524,-5.6802,397.2198],[14.5231,-5.6759,401.6064],[14.5157,-5.6711,378.9479],[14.5113,-5.6602,388.8533],[14.5051,-5.6591,393.6897],[14.4987,-5.6536,374.0211],[14.4969,-5.6497,373.0064],[14.4991,-5.643,378.4318],[14.4957,-5.6272,391.6187],[14.4986,-5.6205,377.6563],[14.4837,-5.6198,359.9424],[14.4773,-5.6221,372.273],[14.4727,-5.6214,365.2693],[14.4676,-5.6168,360.1622],[14.4534,-5.6195,368.2087],[14.4348,-5.619,341.2106],[14.4204,-5.6126,390.9198],[14.4204,-5.6003,385.3246],[14.4179,-5.5897,424.8369],[14.4199,-5.5801,386.004],[14.4242,-5.572,362.5769],[14.4282,-5.5285,315.3542],[14.4326,-5.5087,543.9397],[14.4444,-5.501,316.7106],[14.4542,-5.4974,323.8631],[14.4615,-5.4972,377.9527],[14.4833,-5.5014,350.2382],[14.481,-5.4908,337.076],[14.4826,-5.482,356.6613],[14.486,-5.4755,359.587],[14.4859,-5.4632,342.8165],[14.4882,-5.4545,374.7253],[14.5109,-5.4391,363.5415],[14.5046,-5.4321,374.5428],[14.496,-5.4269,373.5748],[14.4925,-5.4228,372.5239],[14.4952,-5.4047,352.2863],[14.5017,-5.4091,353.4275],[14.5095,-5.398,368.9518],[14.5287,-5.3833,384.2777],[14.5234,-5.3805,379.626],[14.4799,-5.383,670.0023],[14.4686,-5.3888,730.6076],[14.4498,-5.3942,668.1856],[14.4288,-5.4068,700.1467],[14.4071,-5.4128,629.1837],[14.4029,-5.4006,603.3582],[14.3991,-5.3811,530.1436],[14.3879,-5.3573,258.8359],[14.3886,-5.3322,269.8112],[14.3873,-5.3233,268.4604],[14.3832,-5.3189,266.5711],[14.3745,-5.3168,242.6018],[14.383,-5.3115,250.2826],[14.3876,-5.311,236.72],[14.3871,-5.3085,233.7731],[14.391,-5.3007,240.8507],[14.3954,-5.3007,237.5677],[14.3947,-5.2958,249.0513],[14.391,-5.291,247.7799],[14.391,-5.2813,234.2696],[14.394,-5.2781,229.0542],[14.3953,-5.2721,230.7397],[14.3988,-5.2705,240.2475],[14.399,-5.2684,248.5249],[14.3933,-5.2659,235.0281],[14.3923,-5.2593,227.9318],[14.3877,-5.2528,235.0083],[14.3808,-5.2485,231.3044],[14.3806,-5.2399,230.3561],[14.3739,-5.24,225.3249],[14.373,-5.2337,225.2068],[14.3677,-5.2326,223.9166],[14.3716,-5.225,225.113],[14.3712,-5.2227,225.7876],[14.367,-5.2252,227.5948],[14.3624,-5.2239,224.8675],[14.3601,-5.2133,219.9565],[14.3622,-5.2119,220.6027],[14.3645,-5.2177,221.2433],[14.3691,-5.2181,224.0302],[14.3722,-5.1882,219.3147],[14.3715,-5.1852,222.7614],[14.3663,-5.1808,217.8313],[14.3665,-5.1781,218.226],[14.3734,-5.1698,217.0771],[14.3724,-5.1677,216.9888],[14.366,-5.1728,217.5935],[14.3633,-5.1714,218.331],[14.3639,-5.168,217.7374],[14.3623,-5.1659,216.8957],[14.3564,-5.1664,246.1324],[14.355,-5.1585,217.3434],[14.3492,-5.1585,239.7744],[14.3485,-5.1567,215.6911],[14.355,-5.1491,210.7954],[14.3589,-5.1496,214.982],[14.3621,-5.1463,213.6647],[14.3678,-5.1459,225.1225],[14.3692,-5.1413,226.2654],[14.3724,-5.1383,232.6921],[14.3712,-5.1353,225.6272],[14.3692,-5.1357,213.368],[14.3671,-5.1394,215.4756],[14.3644,-5.139,213.8013],[14.3604,-5.1325,211.4272],[14.3611,-5.1298,211.7742],[14.3597,-5.127,215.7357],[14.357,-5.1266,219.3454],[14.3561,-5.1289,214.296],[14.351,-5.1298,233.7431],[14.3487,-5.1284,219.8403],[14.3478,-5.127,214.7754],[14.3519,-5.1217,209.16309999999999],[14.3457,-5.1146,220.2132],[14.3377,-5.1149,212.3133],[14.3317,-5.1045,209.8109],[14.328,-5.1018,208.5375],[14.3319,-5.0944,209.0679],[14.339,-5.0953,234.4781],[14.3409,-5.0916,228.2134],[14.3388,-5.0856,209.7775],[14.333,-5.0886,206.5457],[14.3323,-5.0827,202.6245],[14.3298,-5.0813,202.7057],[14.33,-5.0778,204.0582],[14.3339,-5.0774,205.6913],[14.3344,-5.0723,203.8878],[14.3376,-5.0718,212.1329],[14.3383,-5.0688,209.9374],[14.3353,-5.0624,217.6382],[14.3323,-5.0682,207.5924],[14.3247,-5.0638,203.0985],[14.322,-5.0601,211.2093],[14.3227,-5.0578,203.617],[14.3289,-5.0576,204.9588],[14.3286,-5.0525,214.2886],[14.3236,-5.0442,203.5217],[14.3231,-5.0401,199.8553],[14.319,-5.0378,200.2435],[14.3178,-5.0334,197.5834],[14.31,-5.0305,197.547],[14.3079,-5.0334,196.529],[14.3045,-5.0302,196.8994],[14.2981,-5.0298,214.5067],[14.2873,-5.0208,195.1349],[14.2818,-5.0222,208.1897],[14.2806,-5.0188,194.1069],[14.2827,-5.0146,198.0285],[14.282,-5.0125,199.0181],[14.2719,-5.0031,201.6703],[14.2581,-5.005,221.4789],[14.2483,-5.0,224.2012],[14.2337,-5.0009,207.1947],[14.2319,-4.9981,201.7301],[14.234,-4.9924,188.398],[14.2333,-4.9898,187.9622],[14.2275,-4.9901,188.5223],[14.2232,-4.9871,192.2272],[14.219,-4.9894,232.9971],[14.2183,-4.9873,217.7312],[14.2209,-4.982,187.7035],[14.2199,-4.9795,187.5777],[14.2117,-4.9744,186.6417],[14.2071,-4.983,211.0584],[14.1993,-4.9887,219.1028],[14.1981,-4.985,219.652],[14.2032,-4.9823,218.5311],[14.2066,-4.9747,185.0002],[14.2032,-4.9694,184.4927],[14.2062,-4.9673,190.1201],[14.2055,-4.965,193.5537],[14.1986,-4.9643,188.316],[14.196,-4.9613,187.5943],[14.1933,-4.9655,187.8468],[14.1912,-4.9657,188.5481],[14.1864,-4.9545,186.4664],[14.1818,-4.954,186.4155],[14.1752,-4.9614,197.6516],[14.1669,-4.9669,201.6624],[14.1467,-4.9862,184.71],[14.1346,-5.0021,196.4625],[14.122,-5.0132,193.8551],[14.1036,-5.0203,188.5575],[14.0635,-5.0455,194.4648],[14.047,-5.0476,185.3476],[14.0438,-5.0466,181.1137],[14.027,-5.0322,163.0],[14.0153,-5.0319,212.9718],[14.0123,-5.0345,221.0338],[14.0103,-5.0393,194.6673],[14.0123,-5.0476,225.0677],[14.0096,-5.0506,187.3729],[14.0045,-5.0522,232.3081],[13.9951,-5.0587,186.9685],[13.9935,-5.0547,165.2204],[13.9885,-5.0536,198.7666],[13.9857,-5.0577,173.9568],[13.991,-5.0778,202.1495],[13.9945,-5.0828,288.8147],[13.9927,-5.0922,220.3908],[13.997,-5.0975,229.819],[13.9996,-5.1304,234.5909],[13.9975,-5.1366,204.6255],[13.9996,-5.1406,192.1187],[13.9939,-5.147,207.6436],[13.9971,-5.155,200.4537],[13.9911,-5.1707,181.9688],[13.9861,-5.1771,180.0755],[13.9724,-5.2062,183.2444],[13.9696,-5.2167,183.9576],[13.971,-5.2202,193.029],[13.9669,-5.2225,161.3145],[13.9634,-5.2271,190.1711],[13.9588,-5.2252,157.5],[13.9559,-5.2262,159.2385],[13.9504,-5.2384,174.0578],[13.9474,-5.24,176.3907],[13.9448,-5.2354,157.0],[13.941,-5.2391,171.7792],[13.938,-5.2386,159.9391],[13.9345,-5.2418,175.3431],[13.9295,-5.2409,157.0],[13.9237,-5.2439,167.7178],[13.9198,-5.2442,158.4376],[13.9159,-5.2405,157.0],[13.912,-5.2414,185.6841],[13.9088,-5.2398,162.4162],[13.9063,-5.2345,156.5],[13.9024,-5.2357,164.3157],[13.8987,-5.2324,159.5988],[13.8937,-5.243,184.1319],[13.8836,-5.2479,175.5239],[13.885,-5.2677,177.2318],[13.8886,-5.275,199.5888],[13.8875,-5.2881,203.4257],[13.8859,-5.292,186.459],[13.8811,-5.2946,177.2159],[13.8758,-5.2863,155.5],[13.8721,-5.2847,197.4482],[13.8731,-5.2934,179.8299],[13.877,-5.3012,209.8237],[13.8751,-5.3056,233.668],[13.8689,-5.3075,155.125],[13.8664,-5.3105,192.5122],[13.868,-5.313,283.7307],[13.8674,-5.3192,282.8669],[13.8641,-5.3263,254.6838],[13.8605,-5.3266,157.0655],[13.8589,-5.336,180.5658],[13.8501,-5.3332,155.0],[13.8348,-5.3316,155.0],[13.8212,-5.3261,155.0],[13.8035,-5.3105,155.0],[13.7978,-5.2969,154.5],[13.7925,-5.293,154.5],[13.7876,-5.2838,154.5],[13.7759,-5.2746,156.8647],[13.767,-5.2742,169.1063],[13.7596,-5.2808,209.8099],[13.7548,-5.2825,189.0735],[13.7527,-5.2887,217.2524],[13.7498,-5.2891,219.3954],[13.7468,-5.2951,176.9724],[13.7358,-5.3048,175.8317],[13.7335,-5.3165,176.2082],[13.7358,-5.3271,166.8251],[13.7351,-5.3313,181.0347],[13.7294,-5.3395,179.7293],[13.7163,-5.3393,198.8419],[13.6961,-5.331,154.0],[13.6853,-5.317,154.0],[13.6802,-5.3147,164.8612],[13.6621,-5.2975,154.0],[13.6471,-5.2862,153.0],[13.6446,-5.2867,187.3887],[13.6361,-5.2936,210.788],[13.6384,-5.3016,206.5051],[13.6373,-5.3028,191.4675],[13.6327,-5.3023,260.9012],[13.6304,-5.306,233.392],[13.6327,-5.3111,207.1991],[13.6304,-5.315,156.4852],[13.6309,-5.3198,166.6969],[13.6272,-5.3336,161.453],[13.6233,-5.3315,154.9409],[13.6194,-5.332,147.0],[13.6095,-5.3251,147.0],[13.5957,-5.3237,147.899],[13.584,-5.3437,187.1772],[13.5804,-5.3543,205.8992],[13.5758,-5.3541,144.0],[13.5726,-5.3564,161.6952],[13.5661,-5.3553,143.875],[13.5579,-5.3594,235.7869],[13.5524,-5.3665,265.5216],[13.5473,-5.39,146.8666],[13.5526,-5.4006,243.9604],[13.5653,-5.4107,275.7451],[13.5678,-5.4185,228.7966],[13.5763,-5.4252,228.4565],[13.5806,-5.4351,147.9361],[13.5864,-5.436,198.682],[13.6211,-5.4693,178.2048],[13.6342,-5.4873,212.1335],[13.6427,-5.508,121.2179],[13.6593,-5.522,135.2159],[13.6641,-5.5291,131.51],[13.665,-5.5369,110.3166],[13.6581,-5.5434,116.5997],[13.6536,-5.5432,104.8385],[13.6455,-5.5376,81.4034],[13.6365,-5.5358,79.6674],[13.6315,-5.5324,71.5],[13.6161,-5.5328,87.6996],[13.6127,-5.5317,66.25],[13.6117,-5.5289,87.1255],[13.5951,-5.5328,61.2437],[13.5932,-5.5466,217.3891],[13.5909,-5.5517,77.7497],[13.5748,-5.5508,49.117],[13.5693,-5.5485,45.1833],[13.5672,-5.5522,65.1452],[13.5688,-5.5581,168.4255],[13.5773,-5.5694,189.4601],[13.5812,-5.571,170.0646],[13.587,-5.5777,65.482],[13.5962,-5.5823,96.9677],[13.5976,-5.5864,66.295],[13.596,-5.5924,40.0],[13.5969,-5.6048,78.0298],[13.5996,-5.611,130.253],[13.5983,-5.6156,39.0],[13.5941,-5.6184,39.0],[13.5934,-5.6269,57.4732],[13.5992,-5.643,118.9474],[13.5928,-5.6748,126.7237],[13.5963,-5.6966,94.9648],[13.585,-5.7175,49.4425],[13.5827,-5.7192,49.8327],[13.5784,-5.7192,36.9338],[13.5749,-5.7219,40.3944],[13.5673,-5.7221,26.25],[13.5602,-5.7155,24.125],[13.5584,-5.7224,322.6278],[13.5517,-5.7222,20.0],[13.5522,-5.7256,181.372],[13.5467,-5.732,68.6465],[13.5437,-5.7399,104.1391],[13.5393,-5.7431,106.4327],[13.538,-5.7504,63.1772],[13.5249,-5.7702,22.341],[13.5207,-5.7709,13.6252],[13.5191,-5.7735,22.8527],[13.5219,-5.7776,106.163],[13.5198,-5.7836,50.5823],[13.5194,-5.7879,99.1218],[13.521,-5.7912,268.7634],[13.5191,-5.7983,69.0364],[13.5166,-5.7997,69.9352],[13.512,-5.7969,18.3404],[13.5079,-5.7999,60.3273],[13.5028,-5.796,9.5],[13.5003,-5.7962,18.9729],[13.4978,-5.8064,137.9025],[13.4941,-5.8098,269.9272],[13.484,-5.8084,23.4996],[13.4816,-5.8096,15.4327],[13.4777,-5.8077,9.5],[13.4745,-5.8291,194.3663],[13.5186,-5.8717,155.9562],[13.5248,-5.8756,202.4216],[13.5318,-5.8783,224.8483],[13.5485,-5.879,133.5544],[13.5591,-5.8752,133.4603],[13.573,-5.8741,189.9903],[13.5917,-5.8763,145.408],[13.8055,-5.8753,286.0019],[13.8069,-5.8794,321.987],[13.8167,-5.8789,312.2996],[13.8387,-5.8756,440.9642],[13.857,-5.8694,308.4141],[13.8928,-5.8609,296.2584],[13.9685,-5.8492,340.7382],[13.9878,-5.8429,298.9124],[14.0381,-5.8842,349.4064],[14.0618,-5.8779,320.2939],[14.0786,-5.8664,313.3102],[14.1316,-5.8641,500.7803],[14.1502,-5.8691,429.9487],[14.164,-5.8688,359.5427],[14.1773,-5.8616,433.0618],[14.1961,-5.8699,335.0056],[14.2316,-5.8892,479.5193],[14.2433,-5.8892,494.1147],[14.2952,-5.8823,596.2947],[14.366,-5.896,657.8195],[14.3976,-5.8998,623.656],[14.4053,-5.8982,601.6962],[14.4586,-5.9012,571.7971],[14.4756,-5.8997,592.0984],[14.4873,-5.8969,594.967],[14.5034,-5.8902,565.0871],[14.5091,-5.8904,559.5136],[14.5951,-5.9102,501.8315],[14.611,-5.9096,461.4277]]]]}}