{"type":"Feature","properties":{"GID_2":"COD.1.10_1","GID_0":"COD","country":"DemocraticRepublicoftheCongo","GID_1":"COD.1_1","province":"Bas-Uele","NL_NAME_1":"NA","county":"Poko","VARNAME_2":"NA","NL_NAME_2":"NA","TYPE_2":"Territoire","ENGTYPE_2":"Territory","CC_2":"NA","HASC_2":"NA","name":"Poko.county"},
"geometry":{"type": "MultiPolygon","coordinates": [[[[26.1418,3.6542,623.7943],[26.135,3.65,614.4934],[26.1375,3.6429,620.1041],[26.1488,3.6264,625.4824],[26.1527,3.6114,615.9433],[26.1484,3.5946,617.5938],[26.151,3.5817,613.8876],[26.1485,3.5723,648.2554],[26.1492,3.5681,667.4178],[26.1526,3.5631,638.6208],[26.1645,3.5566,623.1292],[26.168,3.5504,627.3323],[26.1776,3.5442,643.9371],[26.1827,3.5445,637.9252],[26.1886,3.5498,635.6599],[26.1927,3.5498,630.6413],[26.2005,3.5429,626.2343],[26.2072,3.5413,619.89],[26.2159,3.5356,632.7709],[26.2184,3.5289,623.9415],[26.2155,3.5176,654.3765],[26.2219,3.5114,634.8695],[26.2318,3.5135,642.2414],[26.2391,3.5096,633.4211],[26.2462,3.5099,622.1874],[26.265,3.5014,624.7695],[26.2737,3.495,626.4083],[26.2845,3.4805,623.4029],[26.2912,3.4755,628.698],[26.3026,3.4716,643.2784],[26.3075,3.4677,640.1118],[26.3171,3.4532,661.2106],[26.324,3.4311,628.2048],[26.3302,3.4277,646.9114],[26.3421,3.4298,630.5637],[26.3554,3.4289,625.2523],[26.36,3.4208,632.3047],[26.3687,3.4204,624.2233],[26.3724,3.4243,629.6124],[26.3808,3.4207,639.5254],[26.3829,3.4158,643.4049],[26.3877,3.4119,645.1624],[26.393,3.4142,646.9884],[26.3937,3.4122,646.0236],[26.3912,3.4059,638.6993],[26.3882,3.4036,641.3738],[26.3818,3.4041,646.5631],[26.3779,3.3974,650.6467],[26.3692,3.3948,637.8485],[26.3645,3.3739,630.5403],[26.3691,3.3617,633.7953],[26.3714,3.3615,633.3088],[26.3743,3.3656,634.442],[26.3782,3.3645,638.7871],[26.3801,3.3661,637.1538],[26.3862,3.3666,628.0018],[26.3872,3.3645,639.2816],[26.3853,3.3631,651.869],[26.3858,3.3615,651.1707],[26.3899,3.3604,641.5812],[26.3872,3.3537,636.0452],[26.3879,3.3505,638.2668],[26.397,3.3447,640.929],[26.4001,3.3332,651.155],[26.3971,3.3203,641.8966],[26.4003,3.313,637.0037],[26.4035,3.3121,636.8416],[26.4003,3.3077,638.7836],[26.3992,3.3001,642.0332],[26.3953,3.2982,631.3134],[26.3896,3.2867,639.7268],[26.3896,3.2835,645.2431],[26.3944,3.2826,642.5771],[26.3821,3.2602,643.2884],[26.3758,3.2429,635.2631],[26.3781,3.2377,633.6218],[26.3888,3.2356,633.2988],[26.3934,3.2322,649.1226],[26.3971,3.2271,647.8165],[26.4014,3.2244,649.2452],[26.4042,3.2186,637.5541],[26.4079,3.217,639.5697],[26.4127,3.2115,644.8238],[26.4186,3.2076,641.3524],[26.4262,3.2069,638.126],[26.4312,3.2035,645.5192],[26.4368,3.1968,643.855],[26.4565,3.1904,641.9421],[26.4611,3.1851,662.2625],[26.4638,3.1782,645.3896],[26.4629,3.1739,640.2463],[26.4577,3.1665,658.0889],[26.4561,3.1614,637.6765],[26.4582,3.1515,641.619],[26.4554,3.1474,642.1491],[26.4593,3.1446,645.6089],[26.4589,3.1421,646.9883],[26.4513,3.1338,641.8337],[26.4523,3.1257,640.8146],[26.4564,3.1227,655.2391],[26.4557,3.1172,654.1395],[26.4516,3.1115,639.6862],[26.4569,3.0942,641.2148],[26.4636,3.0882,637.3448],[26.4663,3.0811,642.8773],[26.481,3.0733,642.6209],[26.4828,3.0623,641.4628],[26.4881,3.0565,643.5728],[26.4886,3.0524,645.1803],[26.4838,3.0466,641.6893],[26.4881,3.0402,640.4147],[26.4886,3.031,646.1082],[26.4967,3.0183,646.6494],[26.4997,3.0004,659.1109],[26.5125,3.0018,668.9304],[26.5171,3.0053,665.6603],[26.5194,3.003,666.1932],[26.5242,3.0041,653.0531],[26.5312,3.0005,651.0004],[26.5386,2.9998,651.9838],[26.5436,2.9956,653.3552],[26.5475,2.9883,663.5648],[26.5544,2.9851,652.8015],[26.5553,2.9812,665.1636],[26.552,2.9704,663.7324],[26.5449,2.9641,696.0712],[26.5305,2.962,653.7013],[26.4933,2.964,677.7659],[26.4882,2.9578,672.1511],[26.4997,2.9187,690.4721],[26.4903,2.9073,693.9254],[26.4488,2.888,683.5941],[26.4416,2.8822,673.8542],[26.4332,2.8708,711.1168],[26.4272,2.8567,686.2485],[26.4218,2.8558,687.5424],[26.4177,2.8571,695.8536],[26.4063,2.869,698.1222],[26.3939,2.8787,688.9055],[26.3882,2.8799,696.0942],[26.3549,2.8794,682.2999],[26.3442,2.8816,666.7634],[26.3174,2.8941,647.1346],[26.308,2.8958,649.0571],[26.2893,2.889,642.6971],[26.2815,2.8881,635.9954],[26.2654,2.8926,626.4188],[26.254,2.8901,656.9673],[26.2485,2.8879,655.5282],[26.2423,2.8743,644.8095],[26.2251,2.8693,647.4067],[26.2095,2.8606,665.1974],[26.198,2.8577,637.4075],[26.2036,2.84,636.743],[26.2023,2.8266,636.4529],[26.2037,2.8151,637.2542],[26.2031,2.8039,633.6261],[26.1978,2.7921,618.4301],[26.2059,2.7618,620.7164],[26.2052,2.7555,617.3277],[26.2094,2.7408,616.7817],[26.2085,2.7341,619.8752],[26.2048,2.7281,628.5597],[26.1982,2.7307,619.3057],[26.1916,2.7281,627.3588],[26.181,2.7288,620.068],[26.1714,2.7219,628.373],[26.1689,2.7175,628.1221],[26.1623,2.7165,635.8165],[26.1566,2.7195,627.8433],[26.1426,2.7216,630.9281],[26.1369,2.7275,620.923],[26.1282,2.7227,615.3439],[26.131,2.7178,625.4856],[26.131,2.71,638.0532],[26.1363,2.7045,624.2129],[26.1379,2.693,636.6323],[26.1443,2.6863,630.415],[26.1448,2.682,642.0344],[26.1494,2.6762,646.1398],[26.1507,2.6488,657.064],[26.1448,2.6128999999999998,666.9704],[26.1448,2.5937,662.4749],[26.1467,2.5811,657.4258],[26.1452,2.5591,654.4098],[26.1322,2.5188,641.0078],[26.125,2.5074,658.2548],[26.1245,2.4696,638.8121],[26.186,2.4286,653.2219],[26.212,2.4166,672.5565],[26.2359,2.41,674.5197],[26.2755,2.3956,689.7733],[26.3077,2.4067,690.7023],[26.3266,2.3181,706.1085],[26.3266,2.3055,688.353],[26.3183,2.2962,674.8918],[26.3132,2.27,655.9325],[26.3132,2.25,635.2982],[26.3288,2.2392,610.7027],[26.3299,2.2256,580.3289],[26.3278,2.2161,617.4433],[26.3164,2.21,536.0026],[26.3254,2.135,501.8572],[26.3241,2.1209,514.0795],[26.3259,2.117,516.6669],[26.3312,2.1171,504.9601],[26.3308,2.1078,515.3696],[26.3333,2.1067,505.8734],[26.3365,2.0993,512.4313],[26.3422,2.0945,502.613],[26.3418,2.0878,493.4155],[26.3562,2.0685,507.7559],[26.3687,2.0631,511.0048],[26.3978,2.0594,518.5305],[26.4248,2.0653,531.5563],[26.4352,2.0851,599.4332],[26.4752,2.1157,604.3684],[26.4825,2.113,608.5464],[26.4862,2.1008,590.8247],[26.4956,2.0513,575.4622],[26.5039,2.0469,571.8312],[26.564,2.0504,551.4373],[26.5843,2.0532,575.3883],[26.5999,2.0677,580.013],[26.604,2.095,604.0219],[26.5998,2.1014,591.032],[26.5972,2.1103,604.9245],[26.6026,2.1163,610.0269],[26.6149,2.1206,615.5317],[26.6221,2.1204,631.5936],[26.6266,2.1104,604.4547],[26.6263,2.0967,601.106],[26.6422,2.1025,590.153],[26.7191,2.174,652.1223],[26.7455,2.1931,611.2136],[26.7638,2.1938,570.2484],[26.7695,2.1919,547.4598],[26.7747,2.1789,547.7593],[26.7729,2.1671,544.6462],[26.775,2.1563,568.5171],[26.7805,2.1499,564.3444],[26.7888,2.1487,595.3157],[26.7966,2.1386,535.5447],[26.8008,2.1294,555.1882],[26.8091,2.1274,534.64],[26.8154,2.1304,538.0059],[26.8213,2.1445,532.0586],[26.8262,2.15,535.2009],[26.8369,2.1506,525.3301],[26.8471,2.1494,530.9671],[26.8554,2.1456,526.486],[26.8593,2.146,529.641],[26.8645,2.1528,530.5195],[26.8686,2.1643,505.8743],[26.8689,2.1731,513.655],[26.8817,2.1701,523.8155],[26.8863,2.1593,544.2645],[26.8936,2.1494,528.5781],[26.8934,2.1411,529.9401],[26.895,2.1363,528.4481],[26.8978,2.1333,523.9146],[26.9019,2.1331,528.312],[26.9014,2.1276,526.0358],[26.9069,2.1251,511.2086],[26.9106,2.1175,511.6356],[26.9159,2.1172,517.5735],[26.9232,2.0943,504.0876],[26.928,2.0956,505.4319],[26.9294,2.092,500.6534],[26.9274,2.0853,504.982],[26.931,2.0851,504.8863],[26.9319,2.0805,504.7076],[26.9299,2.0738,525.4974],[26.9265,2.0713,522.7858],[26.9285,2.063,506.4019],[26.9354,2.0577,502.961],[26.9365,2.0549,499.5228],[26.9345,2.0515,499.6119],[26.9386,2.0464,504.274],[26.937,2.0423,497.0887],[26.9414,2.0271,493.5001],[26.9377,2.0209,498.3781],[26.94,2.017,497.4089],[26.9371,2.0135,502.562],[26.9366,2.0075,499.6721],[26.9421,1.9981,517.0495],[26.9458,1.9956,500.2574],[26.9513,1.9947,497.9729],[26.9527,1.9889,496.3853],[26.9565,1.9892,497.0238],[26.9595,1.9857,494.242],[26.9618,1.9859,498.7678],[26.9664,1.98,494.2418],[26.9707,1.9788,494.1132],[26.9746,1.971,494.4473],[26.9783,1.9678,489.7217],[26.9826,1.9671,506.4101],[26.9849,1.9632,492.6878],[26.9826,1.9579,495.9383],[26.984,1.9552,499.5576],[26.9996,1.9547,501.1742],[27.0078,1.9453,494.3395],[27.0151,1.9465,511.9548],[27.0286,1.9529,498.263],[27.0316,1.9449,494.9628],[27.0348,1.9414,495.2716],[27.044,1.9412,513.036],[27.0451,1.9552,506.2982],[27.0403,1.9589,508.2314],[27.0354,1.9677,505.1275],[27.0361,1.9748,513.394],[27.0418,1.9838,498.0237],[27.0432,2.0109,503.6259],[27.0457,2.0169,510.3716],[27.0523,2.0234,521.9642],[27.0518,2.0316,496.3802],[27.0568,2.0471,527.3522],[27.0561,2.053,493.1921],[27.0593,2.0625,516.5632],[27.0586,2.0678,522.5935],[27.0554,2.0714,528.416],[27.0536,2.0823,527.5636],[27.0549,2.0961,541.5297],[27.0538,2.1158,504.8304],[27.0558,2.1221,522.371],[27.072,2.1361,510.8734],[27.0759,2.1373,546.8611],[27.083,2.1348,555.0674],[27.085,2.1364,539.2305],[27.0871,2.1465,551.7087],[27.0917,2.1504,669.2205],[27.0949,2.1592,648.2916],[27.1024,2.1578,653.1964],[27.1042,2.1589,657.4695],[27.1065,2.1649,660.7989],[27.1095,2.1661,663.5145],[27.1115,2.1638,672.0756],[27.114,2.1654,688.7261],[27.1216,2.1852,672.2847],[27.1213,2.1976,676.8696],[27.1261,2.2034,681.6655],[27.1261,2.2197,694.6726],[27.1286,2.2225,679.1066],[27.1336,2.2241,692.5659],[27.1637,2.2867,683.0955],[27.1713,2.2909,682.6198],[27.1779,2.29,685.8405],[27.1885,2.328,721.9117],[27.1911,2.3519,737.8846],[27.1883,2.3601,721.5779],[27.1666,2.3751,725.6002],[27.1531,2.3898,722.2267],[27.1519,2.3944,721.0968],[27.1451,2.4052,713.0907],[27.1371,2.4068,719.3843],[27.1451,2.4116,739.7985],[27.1514,2.4188,699.7148],[27.1576,2.419,717.9399],[27.1601,2.4172,710.7496],[27.1608,2.4142,700.4889],[27.1643,2.414,701.0825],[27.167,2.4407,716.5743],[27.1603,2.4545,717.5372],[27.1525,2.4779,720.7054],[27.1484,2.4844,719.1351],[27.149,2.5439,742.6897],[27.1442,2.5631,767.6523],[27.1355,2.5755,740.3054],[27.13,2.5688,731.0522],[27.113,2.5685,722.579],[27.1101,2.5701,718.6967],[27.1018,2.5651,733.1645],[27.0957,2.5664,711.1577],[27.0556,2.562,716.6768],[27.0426,2.5624,699.4316],[27.0332,2.5657,701.4042],[27.0257,2.5564,729.5732],[27.0181,2.5373,724.5424],[27.0138,2.5353,715.2472],[27.0019,2.5336,715.9318],[26.9953,2.5343,702.8356],[26.9898,2.5322,697.4741],[26.985,2.5329,699.6342],[26.9804,2.5368,712.5501],[26.9731,2.535,721.7047],[26.9561,2.5386,682.6595],[26.9495,2.5368,696.5516],[26.942,2.5379,667.4645],[26.9381,2.5374,665.1883],[26.9289,2.5305,672.7155],[26.9196,2.5289,649.9332],[26.9157,2.5294,661.7228],[26.9015,2.5365,667.5455],[26.8932,2.5348,644.1789],[26.9033,2.55,649.7723],[26.9097,2.571,667.2751],[26.9101,2.5887,659.9542],[26.9192,2.6021,661.7163],[26.9313,2.612,680.4977],[26.935,2.6189,675.6381],[26.9318,2.6272,679.356],[26.9333,2.6405,701.3201],[26.9363,2.6426,726.5668],[26.9411,2.6431,713.4127],[26.9454,2.6465,715.7518],[26.9555,2.6477,728.5292],[26.9624,2.6514,721.7449],[26.9635,2.6546,698.8676],[26.9566,2.6728,720.6201],[26.958,2.679,720.0754],[26.9708,2.6896,718.4741],[26.9756,2.7014,734.1254],[26.9785,2.7039,737.6545],[26.987,2.7044,722.7572],[26.9948,2.6961,707.2103],[27.0039,2.703,717.3652],[26.9992,2.7136,725.2646],[27.0001,2.7217,743.9048],[27.0105,2.7259,742.1113],[27.0376,2.7216,710.5709],[27.0452,2.7224,703.0529],[27.0721,2.7466,738.5229],[27.0887,2.7666,747.7256],[27.0977,2.7731,735.5496],[27.1118,2.7952,704.7684],[27.1187,2.8093,723.1306],[27.1209,2.8198,708.2537],[27.1248,2.8284,714.4283],[27.1275,2.847,728.142],[27.1227,2.8558,677.8279],[27.1264,2.8638,680.6888],[27.1277,2.8806,670.4093],[27.1323,2.8958,670.3942],[27.1346,2.9029,673.0535],[27.1396,2.9103,668.1221],[27.1423,2.9066,663.5515],[27.1542,2.8988,659.5443],[27.1634,2.8958,699.0725],[27.1694,2.8848,663.8763],[27.1733,2.8848,667.2299],[27.1765,2.8869,671.6166],[27.1813,2.883,671.3945],[27.1827,2.8738,670.5239],[27.1856,2.871,670.8446],[27.1966,2.8717,666.4698],[27.2177,2.8593,668.6646],[27.2232,2.854,671.7814],[27.2323,2.8517,676.0892],[27.2468,2.8439,677.786],[27.2525,2.8377,691.5091],[27.2612,2.8202,695.9088],[27.2695,2.815,680.1866],[27.272,2.8078,695.9806],[27.286,2.7878,699.3213],[27.3045,2.7766,687.3285],[27.3201,2.7596,691.1986],[27.3274,2.7538,687.1392],[27.3442,2.7492,700.8725],[27.3731,2.7363,703.2677],[27.384,2.7366,706.6469],[27.3949,2.7498,710.5456],[27.4244,2.759,750.5396],[27.44,2.7683,722.7079],[27.4609,2.7612,741.494],[27.4751,2.7826,730.4279],[27.4879,2.7891,763.8043],[27.504,2.7888,733.0188],[27.5064,2.7907,719.6901],[27.505,2.8017,732.5667],[27.4997,2.8076,742.3288],[27.4997,2.8152,744.1564],[27.5073,2.817,732.8578],[27.5182,2.8164,739.244],[27.5187,2.8308,727.4197],[27.5225,2.8417,733.6921],[27.5286,2.8474,762.5497],[27.5367,2.8506,746.3735],[27.5666,2.8309,736.6393],[27.5946,2.8195,751.0988],[27.6046,2.8188,760.8882],[27.6079,2.826,741.3412],[27.6036,2.8409,722.5089],[27.6026,2.8596,720.196],[27.6107,2.8647,719.0923],[27.6232,2.8625,722.2193],[27.6373,2.8638,725.659],[27.6444,2.8675,743.5084],[27.6558,2.8798,727.3962],[27.6609,2.8956,721.0034],[27.6609,2.9128,734.032],[27.6381,2.9276,734.0974],[27.5882,2.9418,721.7197],[27.552,2.9584,711.2787],[27.5536,2.9655,712.7612],[27.5531,2.9722,720.1934],[27.5467,2.9837,715.8112],[27.5458,2.9897,702.577],[27.5574,2.9927,713.6179],[27.5682,2.9922,723.6401],[27.5785,2.9849,717.9363],[27.6735,3.0132,746.3123],[27.6906,3.0561,744.6673],[27.7048,3.0722,738.9703],[27.7057,3.0798,740.5087],[27.6924,3.0829,728.001],[27.663,3.0738,747.0305],[27.6478,3.0779,751.9805],[27.6601,3.1026,749.0173],[27.6467,3.1421,732.4735],[27.6486,3.1564,744.2784],[27.6562,3.1707,749.5738],[27.6609,3.186,720.879],[27.6551,3.2474,734.9058],[27.6655,3.2769,723.5677],[27.6619,3.2925,705.3111],[27.6577,3.3028,705.0115],[27.6453,3.2986,718.6151],[27.6362,3.3048,711.0355],[27.6295,3.3067,694.8048],[27.627,3.3115,675.9385],[27.6245,3.3127,660.0626],[27.6163,3.312,661.0607],[27.6119,3.3039,686.7103],[27.6089,3.3041,686.0331],[27.5989,3.3099,681.546],[27.5924,3.3177,661.4714],[27.5904,3.3159,681.3622],[27.5881,3.303,703.9276],[27.5808,3.2938,700.4565],[27.5643,3.2912,727.5812],[27.5586,3.2967,698.2222],[27.5531,3.2891,728.0181],[27.551,3.2896,728.0367],[27.5487,3.2958,713.4305],[27.5451,3.2965,694.3463],[27.5377,3.2894,709.8046],[27.5288,3.2873,700.7412],[27.5263,3.2891,699.8419],[27.5235,3.296,678.5092],[27.5178,3.299,692.5868],[27.5059,3.299,688.7828],[27.4997,3.293,700.6967],[27.494,3.2928,695.7423],[27.491,3.29,700.1935],[27.4899,3.2803,684.5034],[27.4871,3.2829,670.8554],[27.4832,3.2833,674.9152],[27.48,3.2783,691.1132],[27.4764,3.278,697.8864],[27.4732,3.2801,718.1617],[27.4716,3.2849,687.9001],[27.4732,3.2967,689.1216],[27.4709,3.3015,688.7639],[27.467,3.3059,675.3909],[27.4624,3.3066,672.0993],[27.456,3.3033,680.5266],[27.4612,3.2994,683.3519],[27.4622,3.295,683.5768],[27.4601,3.2886,694.701],[27.4571,3.2865,692.1284],[27.4436,3.2849,706.9498],[27.4372,3.2819,697.0112],[27.4255,3.2842,703.2784],[27.4219,3.2828,707.6616],[27.4212,3.28,707.7968],[27.4253,3.2642,711.0089],[27.4249,3.2575,704.8486],[27.421,3.2529,726.1381],[27.4114,3.2513,710.5325],[27.404,3.2575,710.6127],[27.4033,3.2623,701.0149],[27.4054,3.2701,709.8163],[27.4038,3.274,701.7682],[27.3953,3.2713,694.0612],[27.3839,3.2644,680.3102],[27.383,3.2618,677.7817],[27.3846,3.2584,678.0311],[27.3921,3.2538,681.5973],[27.3935,3.2494,692.0002],[27.3915,3.2459,679.7893],[27.3816,3.2489,694.558],[27.3773,3.2471,699.2623],[27.3727,3.2519,690.8014],[27.3647,3.2494,718.5887],[27.361,3.2459,726.9587],[27.3583,3.2349,689.3221],[27.3525,3.2298,706.7191],[27.3409,3.2293,707.0419],[27.3329,3.2217,704.4138],[27.3303,3.2243,707.0537],[27.3287,3.2312,697.2974],[27.3294,3.2369,692.1219],[27.3269,3.2401,707.3312],[27.318,3.2387,693.9744],[27.3134,3.2341,696.1537],[27.3093,3.2256,680.7655],[27.3003,3.2272,676.0834],[27.2882,3.2711,668.1231],[27.2834,3.2788,682.2661],[27.2739,3.2828,678.6586],[27.2587,3.2773,679.5181],[27.2464,3.2775,680.3515],[27.2435,3.2967,678.1691],[27.2539,3.3205,664.747],[27.2729,3.3317,697.9899],[27.2861,3.3727,696.6547],[27.2851,3.4005,703.2363],[27.2803,3.413,699.8715],[27.2945,3.4271,705.4795],[27.2983,3.451,725.6465],[27.3135,3.4575,730.6266],[27.3191,3.4785,724.2674],[27.3371,3.505,734.225],[27.3674,3.539,735.6237],[27.374,3.5485,743.9618],[27.3692,3.5763,716.9327],[27.3673,3.6233,705.9719],[27.3625,3.6301,704.8619],[27.3463,3.6409,719.136],[27.3312,3.643,712.8311],[27.3274,3.646,719.0635],[27.3216,3.6547,699.1133],[27.3339,3.6966,695.6313],[27.3329,3.7129,699.299],[27.3424,3.7316,681.764],[27.3385,3.7399,678.5539],[27.3366,3.7551,666.9677],[27.3343,3.7553,663.6622],[27.329,3.7813,652.0496],[27.3226,3.7946,650.6943],[27.3173,3.8004,650.7654],[27.3102,3.814,652.2379],[27.3033,3.8209,656.0917],[27.2953,3.8349,644.0],[27.288,3.8441,648.6241],[27.2763,3.8517,652.3881],[27.2545,3.8567,664.8723],[27.2515,3.8533,649.3524],[27.2465,3.8371,668.9758],[27.2394,3.8307,681.5883],[27.2293,3.8254,706.1735],[27.2197,3.8231,691.9091],[27.2021,3.8221,679.7178],[27.1966,3.8235,696.8669],[27.1787,3.8389,689.9229],[27.1732,3.8398,646.8893],[27.1542,3.8572,646.3141],[27.1487,3.858,655.2933],[27.1428,3.8505,658.3144],[27.127,3.8075,691.2557],[27.1155,3.7968,680.0319],[27.1106,3.7977,686.526],[27.1032,3.8085,695.8768],[27.0998,3.8217,689.5721],[27.0908,3.8218,698.029],[27.071,3.8153,684.8002],[27.0513,3.8056,722.7546],[27.0447,3.7943,702.963],[27.0316,3.791,704.0612],[27.0316,3.786,707.7654],[27.0296,3.7825,705.6177],[27.0188,3.7777,721.232],[27.0122,3.7781,707.2137],[27.003,3.7827,707.5832],[26.978,3.7781,676.097],[26.9654,3.7854,710.4719],[26.951,3.7856,680.6335],[26.9476,3.7838,676.723],[26.945,3.7794,672.6931],[26.9448,3.775,677.1646],[26.9497,3.7599,672.8154],[26.9474,3.7548,673.2471],[26.9327,3.7469,674.0024],[26.9277,3.7458,681.4081],[26.9158,3.7467,695.4212],[26.9018,3.7437,698.5966],[26.8981,3.7441,724.7925],[26.8901,3.7515,689.3854],[26.8825,3.7535,692.9344],[26.8603,3.7544,664.9857],[26.8443,3.7618,659.391],[26.8404,3.7661,663.7168],[26.8337,3.7944,654.4598],[26.83,3.7983,650.4689],[26.8229,3.8006,653.7742],[26.8121,3.8011,649.1471],[26.8119,3.811,637.7325],[26.8144,3.8181,645.0214],[26.8059,3.8354,632.6249],[26.8038,3.837,634.4119],[26.7836,3.8376,618.9268],[26.7786,3.8408,621.1998],[26.7738,3.8415,637.3182],[26.7627,3.868,623.3777],[26.7581,3.8878,615.5],[26.7496,3.8986,626.6642],[26.7436,3.9287,621.2303],[26.7342,3.9418,639.5212],[26.7296,3.9568,622.0736],[26.7357,3.9724,633.0999],[26.7344,3.9782,640.7083],[26.7375,3.9856,621.8149],[26.7357,3.9904,642.2437],[26.7281,4.0,635.5546],[26.7141,4.0088,618.27],[26.6965,4.0161,621.5353],[26.6862,4.0142,612.0],[26.6733,4.0154,631.9158],[26.6524,4.0241,620.8984],[26.6355,4.0236,616.1126],[26.6034,4.0113,617.0049],[26.5982,4.0065,617.0422],[26.5918,3.9933,637.1003],[26.5847,3.9864,633.0562],[26.5801,3.9774,619.1485],[26.5744,3.9723,616.3251],[26.5678,3.9622,617.4014],[26.5582,3.9571,615.9702],[26.5444,3.9428,624.0824],[26.5396,3.9348,633.5443],[26.5273,3.9269,619.1865],[26.5209,3.9193,640.7213],[26.5078,3.9177,654.3102],[26.5028,3.9153,645.0161],[26.4957,3.9082,636.8986],[26.4902,3.8932,640.3621],[26.4857,3.8886,634.1287],[26.4756,3.8838,625.4639],[26.4706,3.8789,631.3923],[26.4674,3.8667,625.4431],[26.4623,3.8584,630.6609],[26.4575,3.8559,626.8066],[26.4513,3.8598,624.7374],[26.4461,3.8595,617.8285],[26.4426,3.8556,619.1821],[26.4406,3.848,621.0019],[26.4429,3.8487,623.8924],[26.447,3.8577,614.4019],[26.452,3.8549,625.4304],[26.4463,3.8476,632.2294],[26.4363,3.8248,624.3],[26.4308,3.8234,637.954],[26.429,3.8259,625.6993],[26.4317,3.8305,630.1402],[26.4269,3.8296,628.4745],[26.4248,3.8259,625.1746],[26.431,3.8206,636.2125],[26.4329,3.8162,625.7504],[26.4304,3.8114,628.5843],[26.4176,3.8022,638.5657],[26.4061,3.7881,622.1971],[26.4041,3.7734,625.636],[26.3954,3.7736,627.3271],[26.3787,3.7809,616.194],[26.3448,3.7716,626.465],[26.3285,3.7587,623.2201],[26.3198,3.7552,615.7687],[26.3125,3.7451,619.6308],[26.3061,3.7437,615.3297],[26.3025,3.7388,621.0283],[26.2979,3.736,618.7971],[26.2967,3.7337,616.8201],[26.2977,3.7298,639.7247],[26.2917,3.722,642.0024],[26.2693,3.7231,630.6552],[26.264,3.7208,654.118],[26.2471,3.7051,627.4653],[26.2277,3.6905,623.3784],[26.224,3.6857,628.1249],[26.2224,3.6783,613.0283],[26.2231,3.6684,625.2264],[26.2195,3.664,622.4448],[26.2108,3.6608,626.6279],[26.2014,3.6601,622.3639],[26.1771,3.6674,623.2654],[26.1704,3.6761,603.2607],[26.1626,3.6763,605.3582],[26.1558,3.6701,613.5872],[26.153199999999998,3.6621,626.9617],[26.1418,3.6542,623.7943]]]]}}