{"type":"Feature","properties":{"GID_2":"COD.6.6_1","GID_0":"COD","country":"DemocraticRepublicoftheCongo","GID_1":"COD.6_1","province":"Ituri","NL_NAME_1":"NA","county":"Ingbokolo","VARNAME_2":"NA","NL_NAME_2":"NA","TYPE_2":"Ville","ENGTYPE_2":"Town","CC_2":"NA","HASC_2":"NA","name":"Ingbokolo.county"},
"geometry":{"type": "MultiPolygon","coordinates": [[[[30.7756,3.3769,1197.0743],[30.7848,3.3833,1191.3546],[30.7917,3.3944,1174.9561],[30.7914,3.4086,1187.3108],[30.7884,3.4142,1183.6962],[30.7798,3.4198,1186.5076],[30.7709,3.4211,1189.3815],[30.764,3.4203,1190.6523],[30.7463,3.4131,1201.0482],[30.7444,3.4014,1207.2937],[30.7491,3.3892,1188.3839],[30.7607,3.378,1198.4827],[30.7756,3.3769,1197.0743]]]]}}