{"type": "Feature","bbox": [12.469,-5.3285,13.4079,-4.639],"geometry": {"type": "MultiPolygon","coordinates": [[[[12.8074,-4.8035,179.4377],[12.8009,-4.8192,144.6377],[12.794,-4.8265,112.251],[12.7924,-4.8321,127.41],[12.802,-4.8409,141.5716],[12.7989,-4.8466,143.1371],[12.7865,-4.855,133.9901],[12.7787,-4.8693,137.1012],[12.7707,-4.8744,93.1265],[12.7546,-4.8765,149.8398],[12.7485,-4.8825,134.7479],[12.7396,-4.8953,74.7531],[12.7284,-4.9017,261.7651],[12.7267,-4.9106,159.8002],[12.7265,-4.9322,151.356],[12.7238,-4.9431,119.7571],[12.7176,-4.9495,105.9448],[12.7114,-4.9541,60.2593],[12.6936,-4.9544,54.0571],[12.6718,-4.959,65.5826],[12.6614,-4.9569,118.1695],[12.6497,-4.9509,129.3244],[12.6396,-4.9509,34.0316],[12.6343,-4.9551,85.7743],[12.6327,-4.9615,112.1206],[12.6405,-4.9776,101.5954],[12.6405,-4.9919,123.3264],[12.6295,-5.0206,68.1789],[12.6235,-5.0236,116.506],[12.615,-5.0218,17.8882],[12.6065,-5.0268,18.6477],[12.6012,-5.0376,35.3033],[12.5956,-5.0403,30.4981],[12.5867,-5.0401,13.8437],[12.5805,-5.0475,40.9619],[12.5754,-5.0506,26.0294],[12.556,-5.0493,42.9087],[12.5523,-5.0505,39.0526],[12.5392,-5.0631,63.9163],[12.5308,-5.0671,119.984],[12.519,-5.0705,92.3373],[12.5105,-5.0702,74.8747],[12.4922,-5.0651,20.5837],[12.4793,-5.0693,6.1838],[12.469,-5.0888,7.1457],[12.4873,-5.116,15.7955],[12.494,-5.1211,47.1505],[12.5215,-5.1335,13.6393],[12.5243,-5.1319,28.7743],[12.5349,-5.1346,10.6558],[12.5389,-5.1418,16.4138],[12.5479,-5.1427,18.1375],[12.553,-5.1379,8.1235],[12.5571,-5.1367,13.3174],[12.5681,-5.1358,4.8666],[12.5789,-5.1379,7.1898],[12.5879,-5.1338,18.4218],[12.614,-5.1313,23.3586],[12.6172,-5.1333,20.7814],[12.617,-5.1471,26.6822],[12.6188,-5.1547,25.725],[12.6216,-5.1554,26.8956],[12.6232,-5.1492,18.3791],[12.6253,-5.1485,25.0207],[12.6338,-5.1522,30.7934],[12.6411,-5.1472,53.1965],[12.6643,-5.1423,40.4627],[12.6762,-5.1364,16.7242],[12.6944,-5.1359,23.5728],[12.7088,-5.1401,46.1862],[12.7178,-5.1378,103.3913],[12.7274,-5.1302,105.3815],[12.749,-5.1192,156.1622],[12.7701,-5.1118,208.2814],[12.777,-5.1042,133.0217],[12.7961,-5.0985,127.9752],[12.8087,-5.1482,258.2201],[12.8146,-5.1638,276.3767],[12.8275,-5.1849,296.638],[12.8351,-5.1881,293.6036],[12.8457,-5.184,289.743],[12.8687,-5.1593,235.4036],[12.8863,-5.1531,253.4397],[12.901,-5.179,223.076],[12.9074,-5.1854,266.8206],[12.9218,-5.1937,332.6995],[12.95,-5.1832,370.0085],[12.9986,-5.2178,258.4198],[13.0183,-5.2371,309.9665],[13.0286,-5.2329,223.5528],[13.0373,-5.2246,193.1686],[13.041,-5.2237,245.2646],[13.0465,-5.2187,210.08],[13.0552,-5.2187,209.6959],[13.07,-5.2113,197.5582],[13.1265,-5.234,328.0217],[13.1196,-5.2416,311.4416],[13.118,-5.2534,327.5341],[13.1256,-5.2602,298.7019],[13.134,-5.2535,309.4008],[13.1431,-5.2512,324.9814],[13.1492,-5.2627,312.5199],[13.1331,-5.2797,416.2419],[13.1285,-5.2908,315.6559],[13.13,-5.2989,337.8177],[13.1421,-5.3172,306.6692],[13.1527,-5.3285,330.7465],[13.168,-5.3277,267.8923],[13.1761,-5.324,337.2115],[13.1964,-5.3016,243.6641],[13.198,-5.2945,281.6704],[13.1971,-5.2675,488.1158],[13.1914,-5.2603,465.9346],[13.1744,-5.2463,430.465],[13.1719,-5.2415,406.9261],[13.1695,-5.2232,495.443],[13.1702,-5.2089,544.0283],[13.184,-5.1951,378.5759],[13.1881,-5.1857,391.6556],[13.1799,-5.1743,355.5493],[13.1734,-5.171,303.9317],[13.1645,-5.1707,266.8296],[13.1637,-5.1779,317.0429],[13.1597,-5.1873,465.8839],[13.1548,-5.1911,470.8579],[13.1499,-5.1838,437.0298],[13.1458,-5.1718,287.3688],[13.1458,-5.1623,247.9142],[13.1401,-5.1511,307.4031],[13.1414,-5.1388,310.8182],[13.1474,-5.1188,407.0785],[13.1506,-5.1014,341.8182],[13.1473,-5.0886,314.1842],[13.1213,-5.0562,470.5699],[13.1132,-5.0393,371.1273],[13.114,-5.0306,411.0463],[13.1213,-5.0237,506.6748],[13.118,-5.0189,446.0814],[13.1115,-5.0171,390.6313],[13.1091,-5.0067,378.7654],[13.1091,-4.998,416.9462],[13.1058,-4.9939,362.3765],[13.0985,-4.9945,330.4528],[13.092,-4.9888,329.0514],[13.0977,-4.9787,327.3281],[13.1098,-4.9655,365.0081],[13.1269,-4.9596,289.7818],[13.1407,-4.9552,341.191],[13.1529,-4.954,397.2733],[13.1683,-4.9552,675.9493],[13.1797,-4.9595,706.8856],[13.2024,-4.9649,756.7177],[13.2178,-4.9613,493.3182],[13.2519,-4.9361,398.98],[13.2681,-4.9262,692.5598],[13.2868,-4.922,575.955],[13.299,-4.9223,540.969],[13.3436,-4.914,687.1519],[13.3563,-4.9184,660.7296],[13.3636,-4.9251,656.3092],[13.376,-4.9258,583.5162],[13.3764,-4.9132999999999996,695.9133],[13.3861,-4.9046,665.7318],[13.4079,-4.8963,531.4028],[13.3916,-4.8799,510.3174],[13.3875,-4.8786,534.6023],[13.3792,-4.8669,478.2751],[13.3785,-4.8607,594.4001],[13.3807,-4.8512,463.405],[13.3856,-4.8493,472.4558],[13.3815,-4.8402,427.1518],[13.3826,-4.8363,464.4214],[13.3787,-4.8326,423.0711],[13.3773,-4.8234,412.5018],[13.3815,-4.8165,417.1443],[13.3785,-4.8059,404.0356],[13.3727,-4.7986,401.8772],[13.3638,-4.799,397.5875],[13.3594,-4.7974,392.9476],[13.3502,-4.7868,391.701],[13.3404,-4.7848,390.7069],[13.3323,-4.7891,388.0659],[13.3241,-4.7836,382.7742],[13.3197,-4.7829,381.6555],[13.3165,-4.7864,380.7479],[13.3133,-4.7866,381.3993],[13.3101,-4.7838,380.3679],[13.3062,-4.7843,379.1161],[13.3025,-4.7822,383.933],[13.2984,-4.7751,376.386],[13.294,-4.7746,375.246],[13.2899,-4.7705,375.11],[13.2846,-4.7714,375.3936],[13.2818,-4.7664,373.2479],[13.2731,-4.7588,370.3103],[13.269,-4.75,367.935],[13.2548,-4.7383,364.6667],[13.2536,-4.7351,367.7275],[13.2555,-4.7307,363.1772],[13.2584,-4.7286,364.8305],[13.2651,-4.7291,370.0277],[13.2646,-4.727,369.5827],[13.2564,-4.7194,364.2144],[13.2467,-4.696,362.6996],[13.2329,-4.6798,359.6707],[13.2229,-4.6764,371.4015],[13.2098,-4.669,352.8028],[13.2004,-4.6573,349.6786],[13.1923,-4.6527,354.229],[13.1882,-4.643,354.6699],[13.1825,-4.639,349.8736],[13.1565,-4.6504,361.7041],[13.1444,-4.6523,352.6213],[13.1309,-4.652,370.1526],[13.1063,-4.6473,366.6907],[13.1048,-4.6486,344.9051],[13.1057,-4.6509,344.8187],[13.1046,-4.6587,334.5521],[13.1097,-4.6686,329.1034],[13.107,-4.6806,329.4568],[13.0976,-4.6893,328.79],[13.0839,-4.6891,384.3234],[13.057,-4.6792,285.4262],[13.0514,-4.6809,341.4883],[13.035,-4.6936,324.0551],[13.0146,-4.7003,266.0533],[13.0088,-4.6997,260.6669],[12.993,-4.7034,229.2831],[12.9861,-4.7031,205.8643],[12.9554,-4.7194,233.3284],[12.9432,-4.7221,187.9821],[12.9223,-4.7325,189.8983],[12.9143,-4.7346,189.1478],[12.8984,-4.7343,176.0132],[12.892,-4.7318,176.4513],[12.8767,-4.7334,184.6378],[12.8728,-4.7384,167.454],[12.8631,-4.7391,213.8112],[12.8606,-4.7412,189.6321],[12.856,-4.7538,154.1597],[12.8395,-4.7552,168.4491],[12.8365,-4.7598,139.0697],[12.8367,-4.7647,139.3396],[12.834,-4.7706,131.3497],[12.8312,-4.7743,128.2978],[12.8175,-4.7824,149.3739],[12.8074,-4.8035,179.4377]],
[[12.9448,-4.99,135.6357],[12.9269,-4.9817,165.0598],[12.9308,-4.9694,160.0148],[12.9353,-4.9653,169.0051],[12.9427,-4.9639,199.4793],[12.9572,-4.9646,195.9891],[12.9612,-4.9679,214.5266],[12.9661,-4.9761,228.3606],[12.9648,-4.9795,229.9496],[12.9661,-4.9817,225.2042],[12.9533,-4.9906,156.1922],[12.9492,-4.9918,153.1263],[12.9448,-4.99,135.6357]]]]}
,"properties": {"GID_2": "COD.11.18_1","GID_0": "COD","country": "DemocraticRepublicoftheCongo","GID_1": "COD.11_1","province": "Kongo-Central","NL_NAME_1": "NA","county": "Tshela","VARNAME_2": "NA","NL_NAME_2": "NA","TYPE_2": "Territoire","ENGTYPE_2": "Territory","CC_2": "NA","HASC_2": "NA","name": "Tshela.county","area_km2": 3297.317,"hist_schema_id": "Elevation0-9000","hist_area_km2": {"0": 10.685,"25": 57.061,"50": 51.34,"75": 54.341,"100": 83.343,"125": 114.611,"150": 171.287,"175": 211.884,"200": 250.279,"225": 265.116,"250": 247.895,"275": 228.569,"300": 219.701,"325": 172.538,"350": 198.133,"375": 160.514,"400": 104.613,"425": 80.783,"450": 74.087,"475": 67.37,"500": 61.308,"525": 56.576,"550": 82.413,"575": 73.498,"600": 51.57,"625": 35.323,"650": 27.295,"675": 21.845,"700": 20.281,"725": 17.936,"750": 13.922,"775": 7.521,"800": 3.211,"825": 0.465}}}