{"type":"Feature","properties":{"GID_2":"COD.2.9_1","GID_0":"COD","country":"DemocraticRepublicoftheCongo","GID_1":"COD.2_1","province":"Équateur","NL_NAME_1":"NA","county":"Mbandaka","VARNAME_2":"NA","NL_NAME_2":"NA","TYPE_2":"Territoire","ENGTYPE_2":"Territory","CC_2":"NA","HASC_2":"NA","name":"Mbandaka.county"},
"geometry":{"type": "MultiPolygon","coordinates": [[[[18.3947,-0.036,313.5185],[18.3935,-0.0267,306.6597],[18.3695,-0.0039,305.7738],[18.3708,0.0057,306.3465],[18.3699,0.013,298.5],[18.3627,0.0438,298.5],[18.3499,0.0557,298.5],[18.3246,0.072,306.4748],[18.3002,0.0765,298.5],[18.2891,0.0693,303.8092],[18.2837,0.0637,305.9172],[18.2741,0.0636,305.7293],[18.2691,0.0617,308.2061],[18.2484,0.0412,321.2333],[18.2386,0.0347,323.5805],[18.236,0.0305,316.6387],[18.2367,0.0248,313.1294],[18.2352,0.0188,310.6818],[18.2284,0.0121,310.8336],[18.2208,0.0,311.5824],[18.2163,0.0,314.4903],[18.2209,-0.0061,309.4885],[18.22,-0.0089,309.7354],[18.2039,-0.0214,317.9296],[18.1968,-0.0239,298.0],[18.1892,-0.0334,316.1497],[18.183,-0.0378,298.0],[18.1796,-0.0443,303.7631],[18.1788,-0.0523,314.461],[18.1625,-0.0685,311.1599],[18.1575,-0.0823,317.3939],[18.1529,-0.105,320.7386],[18.1499,-0.1106,312.5826],[18.1443,-0.1184,311.2075],[18.1304,-0.1307,302.7719],[18.1194,-0.1484,302.5728],[18.1181,-0.1601,301.9248],[18.1104,-0.1756,321.5626],[18.1014,-0.1866,318.9142],[18.118,-0.2148,315.0879],[18.1374,-0.2241,318.1411],[18.1534,-0.2281,320.5577],[18.1584,-0.2274,318.8173],[18.1747,-0.2307,323.9494],[18.1827,-0.2371,322.4888],[18.2332,-0.2451,326.1624],[18.2439,-0.2448,324.6906],[18.2541,-0.2387,320.7087],[18.2669,-0.234,326.8302],[18.3283,-0.1959,333.6777],[18.3319,-0.1927,342.4604],[18.3411,-0.1767,331.9434],[18.3574,-0.1589,327.0175],[18.3601,-0.1488,325.5364],[18.3542,-0.1189,324.3835],[18.3603,-0.0925,322.3244],[18.374,-0.0724,326.4625],[18.3846,-0.0634,306.4192],[18.39,-0.0528,312.417],[18.3947,-0.036,313.5185]]]]}}