{"type": "Feature","bbox": [27.7966,-0.8221,29.7418,0.6978],"geometry": {"type": "MultiPolygon","coordinates": [[[[28.0179,0.6362,647.4822],[28.009,0.6332,642.7076],[28.0033,0.6256,643.2627],[28.0024,0.6217,637.2253],[27.9931,0.6127,632.6054],[27.9883,0.6118,636.2519],[27.9766,0.6134,627.2292],[27.9691,0.6212,647.4552],[27.9552,0.6219,634.9686],[27.9412,0.6142,648.6417],[27.9227,0.5984,649.7439],[27.9158,0.5876,633.6458],[27.8931,0.5617,642.0062],[27.8552,0.5576,651.7327],[27.8303,0.545,628.0925],[27.8187,0.5419,644.4945],[27.7966,0.5297,625.0673],[27.8103,0.5201,633.0098],[27.8169,0.518,620.362],[27.8217,0.512,633.2937],[27.8258,0.51,620.1968],[27.8299,0.5035,623.2063],[27.8372,0.5003,630.9227],[27.8411,0.493,602.4019],[27.8541,0.4879,627.5272],[27.8637,0.4882,597.8721],[27.8811,0.4804,620.2098],[27.892,0.4833,629.7334],[27.8982,0.4909,620.6643],[27.9011,0.4914,626.1912],[27.905,0.4822,632.5062],[27.9107,0.4804,633.5328],[27.915,0.4845,635.3175],[27.9176,0.4918,635.5449],[27.921,0.4918,600.5],[27.9249,0.488,633.1171],[27.9294,0.4868,634.3298],[27.9349,0.4804,637.9248],[27.9411,0.4785,677.5959],[27.9536,0.4808,690.2479],[27.9598,0.4744,732.7057],[27.9828,0.4714,700.1267],[28.0041,0.474,666.7617],[28.0075,0.4714,650.7068],[28.013,0.4611,613.5],[28.0173,0.4606,654.211],[28.0239,0.4639,663.138],[28.0267,0.4634,633.5277],[28.0292,0.4583,636.9424],[28.0285,0.4519,623.5789],[28.0301,0.4475,665.7786],[28.0248,0.4388,686.4604],[28.026,0.4363,674.415],[28.0326,0.4367,664.7809],[28.0369,0.4317,653.0974],[28.0479,0.4278,700.4988],[28.0527,0.4126,691.4894],[28.0518,0.4076,738.2104],[28.0454,0.4108,715.0692],[28.0411,0.406,673.4685],[28.0372,0.4055,656.3268],[28.0344,0.4027,654.5809],[28.0429,0.397,860.6727],[28.044,0.3947,822.2949],[28.0447,0.3903,851.933],[28.0395,0.3809,670.6866],[28.042,0.3775,739.9393],[28.0504,0.3814,754.1838],[28.0563,0.3805,655.6074],[28.0591,0.3766,660.9521],[28.0566,0.3396,647.0247],[28.0621,0.332,637.5946],[28.0616,0.3295,645.5142],[28.0568,0.3265,642.8421],[28.0559,0.3242,669.618],[28.0568,0.318,641.5703],[28.0545,0.3074,699.7012],[28.0552,0.3021,709.6831],[28.0584,0.2968,700.7204],[28.0621,0.2849,693.696],[28.0678,0.2805,691.4487],[28.0685,0.278,697.0029],[28.0659,0.2729,709.4246],[28.0662,0.2697,734.2346],[28.0696,0.2649,717.7774],[28.0762,0.2651,727.3014],[28.0774,0.258,706.6815],[28.0803,0.2553,733.4972],[28.0833,0.2474,724.3475],[28.0869,0.2449,715.9927],[28.0942,0.2465,700.6562],[28.0968,0.2452,697.4543],[28.1,0.2348,689.6544],[28.1018,0.2334,714.5418],[28.1079,0.2321,759.3646],[28.113,0.2344,729.1736],[28.12,0.2341,711.6036],[28.1278,0.2286,757.7531],[28.1342,0.2208,777.2708],[28.1337,0.2162,785.7383],[28.128,0.2102,706.8964],[28.1271,0.1926,724.9221],[28.1203,0.1868,732.0491],[28.1219,0.185,725.8177],[28.1312,0.1868,752.9021],[28.1376,0.1836,716.889],[28.152,0.1581,709.9502],[28.154,0.151,703.7748],[28.1522,0.1448,728.4463],[28.1397,0.1381,705.8412],[28.1383,0.1342,702.4861],[28.1394,0.1326,700.7367],[28.1369,0.1278,727.7732],[28.1303,0.1273,722.3177],[28.1278,0.1246,718.2377],[28.1308,0.1193,735.9504],[28.128,0.1158,768.8973],[28.1043,0.1064,711.7511],[28.1025,0.103,701.1206],[28.1059,0.0982,744.1689],[28.1068,0.0938,767.7471],[28.1002,0.0832,748.0953],[28.0995,0.0791,733.6351],[28.1059,0.069,740.9339],[28.1066,0.063,736.4557],[28.1027,0.0492,741.3887],[28.0984,0.0419,743.1658],[28.0984,0.038,745.6669],[28.1027,0.0334,742.3035],[28.1025,0.0283,741.5896],[28.097,0.0224,752.2585],[28.0972,0.0187,748.4421],[28.1018,0.0152,745.1341],[28.1023,0.0127,737.6293],[28.1,0.0088,743.4433],[28.1007,0.0047,750.1234],[28.0913,-0.005,766.5508],[28.0989,-0.0183,752.7129],[28.1012,-0.0259,721.5248],[28.1038,-0.0392,743.3783],[28.102,-0.0507,737.5676],[28.1077,-0.0569,740.9369],[28.1103,-0.0803,739.2051],[28.1163,-0.0984,745.923],[28.1137,-0.111,749.9517],[28.1183,-0.1335,758.2141],[28.1186,-0.1539,766.5503],[28.1276,-0.1702,744.7676],[28.1313,-0.186,744.9128],[28.138,-0.1988,734.3133],[28.1427,-0.2266,767.8788],[28.145,-0.23,766.0667],[28.1535,-0.236,785.5594],[28.1605,-0.2371,773.7367],[28.1699,-0.2334,806.7295],[28.1815,-0.24,747.7485],[28.1877,-0.2407,762.7496],[28.192,-0.2393,800.298],[28.1993,-0.233,804.8955],[28.2115,-0.2073,794.3979],[28.2174,-0.2015,824.136],[28.2461,-0.1848,849.8891],[28.27,-0.1774,875.136],[28.2759,-0.1719,905.6012],[28.2831,-0.1585,847.0686],[28.2872,-0.1557,860.9936],[28.3082,-0.1573,899.6986],[28.3365,-0.1415,824.433],[28.3487,-0.1298,843.4496],[28.3615,-0.124,835.0667],[28.374,-0.1246,892.444],[28.3966,-0.116,843.8049],[28.4096,-0.1127,886.1624],[28.4492,-0.1075,918.6951],[28.4592,-0.1024,899.634],[28.464,-0.1024,853.9281],[28.473,-0.1147,853.7819],[28.4746,-0.1253,886.9297],[28.4783,-0.1349,937.1885],[28.4885,-0.1548,925.455],[28.4986,-0.1665,961.3252],[28.5015,-0.1672,957.7976],[28.5032,-0.1754,958.0886],[28.4989,-0.1803,948.5498],[28.5012,-0.1839,923.6368],[28.5044,-0.1869,900.3763],[28.5108,-0.1887,942.5035],[28.5154,-0.1942,953.1187],[28.5179,-0.1926,964.4673],[28.5192,-0.1852,940.2861],[28.5219,-0.1843,956.3237],[28.5242,-0.1786,917.1119],[28.5338,-0.1783,954.4592],[28.5358,-0.1847,953.8716],[28.5304,-0.1907,1014.3076],[28.532,-0.1992,1012.4255],[28.5298,-0.2118,962.202],[28.5235,-0.2226,985.9473],[28.5269,-0.2272,951.3354],[28.5319,-0.2228,997.2769],[28.5365,-0.2219,1000.7786],[28.5539,-0.2328,1104.641],[28.5655,-0.2353,1077.5687],[28.5978,-0.2581,1125.953],[28.6108,-0.2638,1141.7571],[28.6143,-0.2686,1142.8977],[28.6202,-0.2704,1147.7704],[28.6235,-0.2816,1153.6138],[28.6296,-0.2809,1151.5461],[28.6376,-0.2862,1170.5709],[28.6058,-0.3518,1099.5895],[28.607,-0.3603,1109.8513],[28.6132,-0.3718,1116.3358],[28.6189,-0.3781,1092.6904],[28.6234,-0.3907,1037.3325],[28.6334,-0.3978,1084.1615],[28.643,-0.3978,1250.5627],[28.6519,-0.3933,1100.5339],[28.6567,-0.3936,1107.0319],[28.6629,-0.399,1106.7974],[28.6736,-0.3999,1120.7476],[28.6768,-0.4045,1158.2964],[28.6799,-0.4228,1247.4785],[28.6758,-0.4371,1312.7069],[28.6695,-0.4472,1439.4465],[28.6684,-0.4525,1615.4255],[28.6698,-0.4569,1595.4357],[28.6797,-0.4727,1619.5104],[28.7018,-0.4882,1610.7036],[28.7092,-0.4973,1522.8347],[28.724,-0.5243,1811.9769],[28.7393,-0.5369,1753.6378],[28.7573,-0.5464,1843.8265],[28.7715,-0.5615,1731.3978],[28.777,-0.5649,1701.0225],[28.7856,-0.5661,1659.313],[28.7904,-0.5647,1644.8728],[28.8011,-0.5667,1632.1931],[28.8068,-0.5646,1663.7695],[28.8169,-0.5653,1641.51],[28.8214,-0.5627,1670.2274],[28.8326,-0.5604,1753.7108],[28.8431,-0.5642,1759.8479],[28.8488,-0.5711,1791.4916],[28.8528,-0.5734,1770.2875],[28.8657,-0.5734,1756.0004],[28.8719,-0.5672,1766.3047],[28.8871,-0.565,1755.4657],[28.9004,-0.5653,1767.8346],[28.9095,-0.5627,1754.9382],[28.9189,-0.5574,1766.8911],[28.9292,-0.5587,1773.6052],[28.9385,-0.5571,1782.0167],[28.9545,-0.5609,1828.3612],[28.9573,-0.5632,1849.3937],[28.9589,-0.5705,1832.334],[28.9639,-0.5765,1861.6233],[28.961,-0.5838,1922.83],[28.9659,-0.5939,1883.9517],[28.9675,-0.6013,1895.8693],[28.9705,-0.6045,1930.4232],[28.9726,-0.6123,1916.486],[28.976,-0.6166,1887.489],[28.9839,-0.6522,1888.1393],[28.9846,-0.6734,1872.2998],[28.9802,-0.6922,1870.2311],[28.9769,-0.6973,1941.8452],[28.9781,-0.711,1863.5947],[28.9861,-0.7322,1697.9265],[29.0037,-0.7609,1650.2445],[29.0184,-0.7638,1573.113],[29.0387,-0.7627,1483.3748],[29.0443,-0.7685,1452.8809],[29.0559,-0.8148,1393.939],[29.0657,-0.8221,1393.1462],[29.0707,-0.8098,1395.582],[29.0802,-0.7966,1421.0596],[29.0849,-0.7828,1414.2502],[29.0892,-0.7768,1439.0507],[29.1006,-0.7676,1456.9119],[29.1183,-0.7408,1487.5143],[29.1169,-0.7335,1519.5186],[29.1186,-0.7275,1497.7637],[29.1277,-0.7118,1496.1614],[29.1465,-0.7136,1532.4724],[29.1611,-0.7048,1742.5564],[29.1664,-0.698,1838.1804],[29.1831,-0.6824,1957.2819],[29.1855,-0.6668,1915.0601],[29.1897,-0.6639,1872.7046],[29.1989,-0.6658,1766.0209],[29.213,-0.6825,1595.8523],[29.2302,-0.6923,1626.9893],[29.2382,-0.7021,1329.5492],[29.2908,-0.6945,956.3732],[29.3253,-0.6701,934.5821],[29.3337,-0.6613,931.5319],[29.3279,-0.6437,927.4205],[29.3351,-0.6437,924.4465],[29.3421,-0.6506,925.6892],[29.3591,-0.6569,922.6758],[29.3625,-0.6553,921.1168],[29.3744,-0.6546,918.9841],[29.3729,-0.6562,918.5316],[29.3711,-0.6631,916.2637],[29.373,-0.6634,917.6509],[29.3707,-0.6686,915.5292],[29.3683,-0.6692,915.5934],[29.364,-0.6767,921.7442],[29.3626,-0.69,915.8123],[29.3638,-0.6918,915.5444],[29.3663,-0.6881,917.0675],[29.3662,-0.6847,912.0],[29.3675,-0.6849,912.0],[29.3677,-0.6915,914.9559],[29.3708,-0.6921,914.9848],[29.3684,-0.696,915.6816],[29.365,-0.6933,915.55],[29.3632,-0.6988,915.9301],[29.3676,-0.7,912.6485],[29.3674,-0.7023,915.5607],[29.3709,-0.7048,915.9778],[29.3711,-0.6978,912.0],[29.374,-0.6944,916.1925],[29.3752,-0.6862,912.0],[29.3779,-0.6818,912.0],[29.3813,-0.6829,912.59],[29.39,-0.6782,912.0],[29.3924,-0.6837,912.0],[29.3925,-0.6885,912.0],[29.3976,-0.6906,915.7236],[29.3993,-0.686,915.8701],[29.3982,-0.6822,912.0],[29.4017,-0.6767,915.7246],[29.4011,-0.6716,912.8572],[29.4043,-0.6711,914.9734],[29.4051,-0.666,912.0],[29.4076,-0.6663,916.2289],[29.4159,-0.655,912.0],[29.4206,-0.6561,915.9709],[29.4221,-0.6488,916.2375],[29.4355,-0.637,916.9435],[29.4319,-0.6316,914.986],[29.4318,-0.6257,916.6369],[29.4287,-0.6166,913.1321],[29.4301,-0.6142,912.0],[29.4349,-0.6149,912.0],[29.4347,-0.6122,912.0],[29.4424,-0.6091,917.0364],[29.4409,-0.6041,916.7556],[29.4449,-0.5999,912.0],[29.4535,-0.6033,912.0],[29.4536,-0.6076,914.6582],[29.4579,-0.6102,913.1709],[29.4595,-0.6151,916.7311],[29.4635,-0.6176,916.558],[29.4651,-0.6177,916.6439],[29.4637,-0.6141,916.787],[29.4648,-0.6131,912.0],[29.4713,-0.6153,912.0],[29.472,-0.6205,916.1945],[29.4669,-0.6238,915.8273],[29.4717,-0.6247,915.5484],[29.4729,-0.6263,915.1708],[29.4749,-0.6247,915.7833],[29.4767,-0.6257,915.9247],[29.4809,-0.6321,912.0],[29.48,-0.6412,917.5037],[29.4875,-0.6473,912.0],[29.4992,-0.6411,912.0],[29.5151,-0.6286,912.0],[29.526,-0.6223,912.0],[29.5163,-0.6182,912.0],[29.5161,-0.6166,912.0],[29.5344,-0.6206,912.0],[29.5539,-0.6211,912.0],[29.5589,-0.6191,912.0],[29.5717,-0.6063,912.0],[29.5845,-0.5854,912.0],[29.5935,-0.5782,912.0],[29.5994,-0.5647,912.0],[29.6123,-0.5459,913.7255],[29.6118,-0.5356,912.0],[29.613,-0.5334,912.0],[29.6137,-0.539,913.7251],[29.6166,-0.5328,912.8115],[29.6188,-0.5107,912.0],[29.626,-0.5047,912.0],[29.6264,-0.499,912.0],[29.6292,-0.4987,912.0],[29.6318,-0.4939,912.0],[29.6431,-0.4821,916.2982],[29.6474,-0.4686,912.7195],[29.6458,-0.4694,912.0],[29.6434,-0.4668,912.0],[29.6461,-0.4648,912.0],[29.6478,-0.4658,912.0],[29.6509,-0.4644,912.0],[29.652,-0.4617,912.0],[29.6507,-0.4605,912.0],[29.6592,-0.4163,912.0],[29.6873,-0.4163,912.0],[29.7035,-0.347,912.0],[29.6773,-0.3428,912.0],[29.6818,-0.3215,912.0],[29.7086,-0.3254,912.0],[29.7124,-0.3091,912.0],[29.6852,-0.3047,912.0],[29.7058,-0.2053,912.0],[29.7364,-0.2065,912.0],[29.7418,-0.1833,912.0],[29.7085,-0.1924,912.0],[29.7296,-0.0908,912.0],[29.73,-0.0831,912.0],[29.7266,-0.083,912.0],[29.7277,-0.0758,919.0957],[29.7265,-0.0733,923.5842],[29.7245,-0.0746,924.7728],[29.7152,-0.0725,917.8109],[29.7073,-0.0686,920.3705],[29.7055,-0.0695,919.8705],[29.7019,-0.066,930.4677],[29.6971,-0.0688,993.7954],[29.6967,-0.0709,992.0173],[29.7052,-0.0722,916.3933],[29.6989,-0.0733,936.7693],[29.6966,-0.0756,940.0654],[29.6963,-0.0789,945.9249],[29.6814,-0.1045,1003.4929],[29.6742,-0.1102,992.3537],[29.6549,-0.1181,1026.3278],[29.6501,-0.1239,967.8815],[29.643,-0.1287,955.2104],[29.6156,-0.1341,974.6561],[29.608,-0.1375,960.515],[29.5926,-0.1388,921.5421],[29.5782,-0.1446,928.614],[29.5391,-0.1525,932.9586],[29.5272,-0.1448,956.6595],[29.4817,-0.141,1689.4877],[29.4584,-0.1296,2305.7432],[29.4454,-0.1264,2592.1211],[29.4283,-0.1276,2840.9241],[29.4101,-0.1361,2543.9341],[29.4037,-0.1072,2249.7476],[29.403,-0.093,2205.3289],[29.405,-0.0884,2196.9741],[29.4123,-0.083,2273.9814],[29.4174,-0.0626,2202.2334],[29.4146,-0.0532,2153.4861],[29.4148,-0.0433,2132.1104],[29.4127,-0.0376,2095.2905],[29.4092,-0.0339,2124.3193],[29.4044,-0.034,2145.2437],[29.3999,-0.0361,2092.4241],[29.3976,-0.0411,2132.6072],[29.3935,-0.0421,2076.917],[29.3895,-0.0453,2122.4006],[29.3856,-0.0451,2137.0112],[29.3817,-0.0419,2029.5051],[29.3739,-0.0412,2017.2318],[29.3759,-0.0346,2190.1108],[29.369,-0.025,2073.1462],[29.3755,-0.0089,1912.6619],[29.3826,-0.0026,2020.1182],[29.3799,0.0,2002.2452],[29.3818,0.0226,1929.673],[29.3795,0.0357,1946.7346],[29.3804,0.0433,1848.9603],[29.3827,0.0458,1877.5991],[29.3903,0.0472,1938.616],[29.3802,0.0598,1951.4949],[29.3737,0.0656,1918.9641],[29.366,0.0689,1945.918],[29.3029,0.0606,1742.0818],[29.2949,0.0659,1744.964],[29.2924,0.0726,1745.049],[29.294,0.0797,1752.1123],[29.2925,0.0836,1712.8799],[29.2786,0.0972,1706.4004],[29.2715,0.108,1741.2701],[29.2674,0.1071,1704.4441],[29.2637,0.1039,1705.2278],[29.2621,0.0965,1664.333],[29.2546,0.0851,1725.7517],[29.248,0.0853,1680.3518],[29.2425,0.0901,1653.7617],[29.238,0.091,1651.475],[29.2347,0.0997,1513.0568],[29.2289,0.1067,1814.7993],[29.2113,0.1183,1726.3254],[29.2051,0.1448,1821.9819],[29.2035,0.1586,1820.3074],[29.1889,0.1685,1736.7988],[29.1661,0.1806,1628.8284],[29.1515,0.1929,1526.8335],[29.1496,0.201,1484.8992],[29.1527,0.2174,1509.1708],[29.1559,0.2237,1510.9629],[29.1558,0.2292,1511.707],[29.1473,0.2385,1578.3715],[29.1461,0.2457,1603.6395],[29.1496,0.2588,1831.9492],[29.1481,0.2639,1884.5979],[29.1341,0.2783,1676.3275],[29.1221,0.2809,1344.8796],[29.1128,0.2739,1485.98],[29.1037,0.2724,1571.7695],[29.091,0.2729,1609.2104],[29.064,0.2844,1171.9521],[29.0576,0.2897,1229.1166],[29.0565,0.2958,1222.8831],[29.0583,0.2998,1151.3732],[29.0627,0.3028,1160.6641],[29.0816,0.3054,1159.2427],[29.0948,0.3101,1206.1306],[29.1072,0.3197,1249.3029],[29.1155,0.3292,1202.5583],[29.097,0.3404,1135.6608],[29.0893,0.3515,1102.3881],[29.0833,0.3786,1561.0573],[29.0781,0.3858,1291.0428],[29.0727,0.3886,1184.6747],[29.0201,0.3982,1014.9589],[29.0111,0.4019,999.207],[29.0035,0.4106,1010.0361],[29.0035,0.4161,946.5101],[28.9988,0.4233,961.7661],[29.0031,0.4272,943.683],[29.0145,0.4515,910.245],[29.0241,0.4582,938.0718],[29.0271,0.4637,908.998],[29.0228,0.4678,913.3294],[29.0248,0.4715,906.9608],[29.0212,0.4795,886.4868],[29.0132,0.4837,886.0315],[29.0146,0.4853,873.558],[29.0139,0.4873,878.4781],[29.0105,0.4867,894.2356],[29.0091,0.488,898.2214],[29.0077,0.4945,900.9829],[29.0084,0.5007,895.0363],[29.0153,0.5156,903.6526],[29.0224,0.5243,872.9667],[29.0271,0.5257,885.1538],[29.0253,0.5298,871.4225],[29.0269,0.5326,870.101],[29.0319,0.5351,841.6745],[29.0361,0.5347,850.443],[29.0383,0.5376,848.032],[29.0372,0.5425,871.2332],[29.0406,0.5457,858.8339],[29.04,0.5507,890.0581],[29.0447,0.5512,857.278],[29.0463,0.5528,851.3987],[29.0448,0.5592,871.2034],[29.047,0.5645,868.6693],[29.0468,0.5691,981.23],[29.0514,0.5723,870.7717],[29.0486,0.5753,906.869],[29.0592,0.5866,852.3829],[29.0537,0.5937,854.9576],[29.0612,0.6003,846.8253],[29.0621,0.6082,844.0057],[29.0462,0.5895,926.6887],[29.017,0.5839,1018.1315],[29.0055,0.5634,983.1911],[28.9914,0.5603,1021.9671],[28.9718,0.5629,1033.7181],[28.9321,0.5821,881.3859],[28.9009,0.5876,1021.3954],[28.8406,0.5798,1082.6597],[28.8135,0.5791,1031.3398],[28.8034,0.5765,1170.4001],[28.7627,0.5756,1065.2413],[28.7535,0.5735,1073.0494],[28.7205,0.5735,1047.1838],[28.71,0.5715,1055.1765],[28.6899,0.5707,1030.4312],[28.6743,0.5716,930.1649],[28.6604,0.5814,917.6142],[28.6574,0.5724,964.8436],[28.6536,0.5724,924.5358],[28.6474,0.5644,883.6318],[28.6465,0.5586,905.6756],[28.6387,0.5543,891.0343],[28.636,0.5481,889.7314],[28.6317,0.5449,902.3175],[28.6273,0.5439,919.3693],[28.6157,0.5469,869.3132],[28.6109,0.5453,880.1244],[28.6084,0.5407,884.9539],[28.6049,0.5382,888.1439],[28.5919,0.5403,860.2778],[28.578,0.5274,892.2679],[28.5739,0.5267,935.8876],[28.5684,0.5226,866.9521],[28.555,0.5196,834.2649],[28.5536,0.5215,830.5607],[28.5588,0.5288,886.93],[28.5543,0.5325,822.3788],[28.5557,0.5403,837.416],[28.5547,0.5442,822.4023],[28.5438,0.5449,838.6552],[28.5404,0.5433,843.8078],[28.5333,0.544,830.9393],[28.5317,0.5421,831.5165],[28.529,0.5421,839.5765],[28.5262,0.5447,833.7257],[28.5232,0.5449,825.7401],[28.5205,0.5412,830.2681],[28.5166,0.5401,818.1516],[28.5123,0.5355,820.8163],[28.507,0.5339,817.4933],[28.5025,0.5396,811.4557],[28.4984,0.5419,819.6415],[28.4977,0.5447,815.3605],[28.4995,0.5484,812.9778],[28.4984,0.5518,818.6605],[28.5011,0.5555,816.2989],[28.5,0.5596,791.8192],[28.505,0.5667,797.8884],[28.4984,0.5727,802.9066],[28.4879,0.5778,794.2977],[28.4822,0.5861,809.2552],[28.4769,0.5872,809.4301],[28.4772,0.5932,800.4238],[28.4589,0.6067,789.2233],[28.447,0.6212,793.1564],[28.448,0.6265,778.3879],[28.4464,0.6297,788.4183],[28.4425,0.6284,768.6075],[28.4343,0.635,772.5286],[28.4233,0.6355,791.1646],[28.4183,0.6451,783.3804],[28.4101,0.6525,771.8734],[28.4028,0.6527,738.7992],[28.398,0.6575,752.105],[28.3927,0.6578,736.713],[28.3909,0.6635,762.7273],[28.3847,0.664,761.8712],[28.3781,0.6619,754.8334],[28.377,0.6704,748.5814],[28.3747,0.6748,749.806],[28.3754,0.6778,769.5531],[28.358,0.687,751.488],[28.3516,0.6863,741.0446],[28.3434,0.695,745.6135],[28.3377,0.6978,725.481],[28.3143,0.697,726.7449],[28.27,0.6904,717.2599],[28.2591,0.691,705.6474],[28.2485,0.688,711.1615],[28.1829,0.6845,793.7101],[28.1591,0.6852,677.9482],[28.1407,0.6828,815.4647],[28.096,0.6734,818.6401],[28.0739,0.6789,651.9798],[28.0695,0.6764,656.6266],[28.0681,0.6642,656.0458],[28.0618,0.6633,654.2189],[28.0503,0.6532,651.309],[28.0451,0.6509,646.1979],[28.0437,0.6465,650.359],[28.0444,0.6424,648.2026],[28.0428,0.6396,650.4906],[28.0275,0.633,648.716],[28.0227,0.6334,650.0086],[28.0179,0.6362,647.4822]]]]}
,"properties": {"GID_2": "COD.19.4_1","GID_0": "COD","country": "DemocraticRepublicoftheCongo","GID_1": "COD.19_1","province": "Nord-Kivu","NL_NAME_1": "NA","county": "Lubero","VARNAME_2": "NA","NL_NAME_2": "NA","TYPE_2": "Territoire","ENGTYPE_2": "Territory","CC_2": "NA","HASC_2": "NA","name": "Lubero.county","area_km2": 17142.12,"hist_schema_id": "Elevation0-9000","hist_area_km2": {"600": 5.36,"625": 71.58,"650": 220.17,"675": 127.57,"700": 190.96,"725": 323.01,"750": 448.65,"775": 504.41,"800": 538.67,"825": 596.19,"850": 562.91,"875": 568.32,"900": 2286.03,"925": 615.97,"950": 371.97,"975": 329.14,"1000": 406.46,"1025": 486.52,"1050": 519.02,"1075": 512.77,"1100": 464.26,"1125": 461.57,"1150": 409.52,"1175": 351.99,"1200": 276.71,"1225": 218.59,"1250": 184.16,"1275": 134.08,"1300": 103.63,"1325": 86.82,"1350": 79.0,"1375": 77.43,"1400": 77.07,"1425": 81.25,"1450": 88.16,"1475": 93.88,"1500": 108.15,"1525": 126.11,"1550": 142.11,"1575": 151.08,"1600": 138.45,"1625": 120.7,"1650": 119.6,"1675": 122.69,"1700": 132.98,"1725": 139.27,"1750": 157.55,"1775": 152.99,"1800": 150.81,"1825": 175.21,"1850": 207.25,"1875": 203.83,"1900": 159.95,"1925": 132.09,"1950": 107.22,"1975": 95.39,"2000": 85.89,"2025": 78.51,"2050": 71.15,"2075": 73.08,"2100": 83.24,"2125": 95.9,"2150": 108.89,"2175": 99.5,"2200": 82.33,"2225": 65.17,"2250": 52.41,"2275": 45.2,"2300": 40.09,"2325": 42.28,"2350": 44.82,"2375": 42.89,"2400": 39.58,"2425": 36.91,"2450": 31.76,"2475": 29.26,"2500": 25.29,"2525": 20.01,"2550": 18.85,"2575": 18.66,"2600": 18.3,"2625": 13.06,"2650": 12.28,"2675": 9.41,"2700": 8.31,"2725": 6.74,"2750": 5.07,"2775": 5.32,"2800": 5.55,"2825": 3.2,"2850": 1.7,"2875": 1.27,"2900": 1.1,"2925": 0.55,"2950": 0.4,"2975": 0.28,"3000": 0.19,"3050": 0.21}}}