{"type":"Feature","properties":{"GID_2":"COD.5.11_1","GID_0":"COD","country":"DemocraticRepublicoftheCongo","GID_1":"COD.5_1","province":"Haut-Uele","NL_NAME_1":"NA","county":"Watsa(ville)","VARNAME_2":"NA","NL_NAME_2":"NA","TYPE_2":"Ville","ENGTYPE_2":"Town","CC_2":"NA","HASC_2":"NA","name":"Watsa(ville).county"},
"geometry":{"type": "MultiPolygon","coordinates": [[[[29.5742,3.0882,806.4696],[29.5696,3.0884,804.568],[29.5673,3.0923,802.9651],[29.5687,3.1002,793.4122],[29.5671,3.102,796.2969],[29.5474,3.1083,788.6974],[29.542,3.108,786.8126],[29.536,3.1041,792.1039],[29.5316,3.1032,787.4938],[29.5068,3.087,801.8941],[29.4982,3.0692,830.3881],[29.4995,3.0402,998.5786],[29.5219,3.0083,961.3891],[29.5526,2.9981,974.5527],[29.5745,3.0002,940.4519],[29.5893,3.0109,951.3595],[29.6026,3.0295,987.7983],[29.6098,3.0467,888.4005],[29.5987,3.0752,812.9579],[29.5898,3.088,818.8558],[29.5877,3.089,815.9858],[29.5801,3.0806,799.0613],[29.5742,3.0882,806.4696]]]]}}