{"type": "Feature","bbox": [22.9486,-6.7714,24.1748,-5.6286],"geometry": {"type": "MultiPolygon","coordinates": [[[[23.8082,-6.3904,583.6907],[23.8393,-6.3677,541.3433],[23.8432,-6.3695,538.0],[23.8489,-6.3759,544.3378],[23.8466,-6.3833,544.329],[23.8526,-6.3925,542.8871],[23.8551,-6.3935,543.0042],[23.862,-6.3905,548.1854],[23.8767,-6.391,556.3938],[23.8816,-6.385,553.3437],[23.8963,-6.3887,544.886],[23.9046,-6.3866,549.8277],[23.9066,-6.3885,547.1329],[23.9094,-6.3988,546.518],[23.9073,-6.403,546.6884],[23.9126,-6.4046,546.9103],[23.917,-6.4082,553.843],[23.9234,-6.4083,591.7731],[23.9273,-6.4103,566.7526],[23.9271,-6.4064,598.5966],[23.9285,-6.4048,612.3203],[23.9351,-6.4103,554.4577],[23.9402,-6.4122,556.3284],[23.9487,-6.4062,614.8261],[23.9659,-6.3996,567.8522],[23.9701,-6.4003,566.8823],[23.9749,-6.3959,593.6889],[23.9799,-6.3996,570.4175],[23.9845,-6.3996,572.595],[23.9905,-6.3934,586.4761],[24.0165,-6.395,587.5358],[24.0216,-6.3874,584.7278],[24.0379,-6.3895,589.7591],[24.0427,-6.3855,599.4717],[24.0482,-6.3852,598.2265],[24.0565,-6.3793,607.2444],[24.0657,-6.3798,601.2772],[24.0676,-6.3749,610.3243],[24.0765,-6.369,608.6906],[24.0762,-6.3626,616.1729],[24.0833,-6.3586,623.4973],[24.0882,-6.3598,614.7718],[24.0914,-6.355,623.1019],[24.077,-6.3368,717.7709],[24.0202,-6.3053,825.8712],[24.0093,-6.3014,818.5865],[24.0041,-6.2965,853.1046],[24.0008,-6.2892,915.6549],[24.0012,-6.2762,905.2167],[24.0053,-6.2293,872.2302],[24.008,-6.2175,833.9572],[24.0295,-6.2097,865.7739],[24.0366,-6.2056,847.6459],[24.0581,-6.2085,831.9659],[24.0612,-6.2062,835.7168],[24.0658,-6.1954,825.9509],[24.0759,-6.1954,808.2783],[24.0814,-6.1894,800.7736],[24.0858,-6.1892,827.4885],[24.0904,-6.1914,824.4695],[24.0954,-6.1891,868.2863],[24.1003,-6.1928,849.7987],[24.1079,-6.1926,862.2167],[24.114,-6.1769,836.7413],[24.1392,-6.1459,821.0949],[24.1405,-6.1411,824.4856],[24.1391,-6.1362,806.9454],[24.1398,-6.1289,822.7701],[24.1428,-6.1259,796.6597],[24.1557,-6.1197,791.2209],[24.1623,-6.114,787.2017],[24.1662,-6.113,775.0197],[24.1727,-6.1071,772.8582],[24.1748,-6.1029,779.9208],[24.1683,-6.088,731.9602],[24.1633,-6.0852,743.8965],[24.161,-6.0751,730.8615],[24.1548,-6.0645,795.0821],[24.1516,-6.0622,787.551],[24.1454,-6.0624,811.6396],[24.1398,-6.0659,783.1169],[24.1304,-6.0631,773.035],[24.1189,-6.0654,741.8477],[24.1169,-6.0587,708.0417],[24.1118,-6.0514,749.1058],[24.1063,-6.0486,704.8381],[24.0955,-6.0488,726.502],[24.0884,-6.0548,707.5552],[24.0803,-6.0553,667.2831],[24.076,-6.0573,664.2616],[24.0714,-6.0569,662.3177],[24.062,-6.049,698.4064],[24.0578,-6.0373,626.6135],[24.0558,-6.0359,612.8658],[24.0523,-6.0355,610.7776],[24.0413,-6.0398,601.1879],[24.03,-6.0398,593.6594],[24.0245,-6.0373,612.4387],[24.0165,-6.0288,593.1444],[24.0087,-6.0246,584.5493],[23.9965,-6.0304,578.618],[23.9923,-6.0287,574.5976],[23.9896,-6.0255,576.5483],[23.9974,-6.0212,583.2242],[24.0026,-6.0062,673.7477],[24.0078,-5.9797,673.0612],[24.0152,-5.9613,684.6826],[24.0152,-5.9522,693.1677],[24.0113,-5.9464,657.652],[24.005,-5.9426,682.2729],[23.9815,-5.9433,678.3302],[23.9763,-5.9392,685.4484],[23.9705,-5.8861,689.6432],[23.9689,-5.8802,665.9094],[23.9645,-5.8772,675.3407],[23.9597,-5.8687,636.0008],[23.9564,-5.853,646.1006],[23.9612,-5.845,644.7013],[23.9576,-5.8409,670.4736],[23.9559,-5.8324,608.6446],[23.9556,-5.8231,571.0356],[23.9575,-5.816,635.721],[23.947,-5.8194,583.2643],[23.9451,-5.827,603.9053],[23.9396,-5.8266,606.2228],[23.9357,-5.8307,609.1583],[23.9359,-5.8344,595.7067],[23.93,-5.8408,601.3893],[23.9153,-5.8442,641.5875],[23.9116,-5.8491,591.1498],[23.9063,-5.8456,594.2495],[23.9038,-5.8495,597.117],[23.8996,-5.8488,597.5833],[23.901,-5.8456,569.7719],[23.8996,-5.8231,615.1364],[23.8918,-5.8194,630.9627],[23.8806,-5.8044,633.6979],[23.873,-5.801,612.9198],[23.8571,-5.8007,674.5397],[23.8477,-5.7982,687.0226],[23.8376,-5.7925,680.0317],[23.8366,-5.796,717.7188],[23.8274,-5.7996,710.1883],[23.8256,-5.793,700.1387],[23.8288,-5.779,671.0909],[23.8336,-5.7718,690.0539],[23.8366,-5.7707,717.7192],[23.837,-5.7631,718.7506],[23.84,-5.7599,716.0762],[23.8434,-5.7592,696.5798],[23.8441,-5.7534,664.5376],[23.8482,-5.7484,725.4557],[23.8434,-5.7483,694.329],[23.8329,-5.742,668.244],[23.8237,-5.7418,669.2296],[23.8124,-5.7443,689.2327],[23.8069,-5.7482,669.0291],[23.7968,-5.7519,677.1017],[23.7858,-5.762,627.7737],[23.7805,-5.7611,654.191],[23.7715,-5.77,611.4758],[23.7655,-5.7797,545.7189],[23.7621,-5.7788,503.5819],[23.7598,-5.7748,536.7335],[23.7506,-5.7746,508.8902],[23.7412,-5.7698,487.9815],[23.7366,-5.7631,511.0735],[23.721,-5.764,478.5145],[23.7187,-5.7666,472.5842],[23.712,-5.7635,462.521],[23.7104,-5.7585,493.7036],[23.712,-5.7527,458.0071],[23.7203,-5.7504,466.9043],[23.7261,-5.7392,455.1147],[23.735,-5.7139,473.875],[23.7337,-5.7047,453.3369],[23.7378,-5.6932,536.7142],[23.7323,-5.6851,462.4074],[23.7257,-5.6812,470.284],[23.7247,-5.6757,448.0],[23.7305,-5.6628,497.0836],[23.7447,-5.6509,490.0949],[23.748,-5.6499,468.7701],[23.7509,-5.646,445.0],[23.7507,-5.6426,509.1006],[23.7457,-5.6341,585.5327],[23.7091,-5.6287,687.6262],[23.6757,-5.6286,734.5399],[23.6599,-5.641,701.7533],[23.6476,-5.6413,733.5112],[23.638,-5.6434,690.4685],[23.6304,-5.6521,671.5247],[23.6117,-5.6592,629.3553],[23.5899,-5.6879,596.5245],[23.5809,-5.6923,536.6832],[23.5768,-5.6916,573.7941],[23.5715,-5.6881,559.5208],[23.5667,-5.6883,517.0207],[23.5619,-5.6835,565.4489],[23.552,-5.6812,560.2371],[23.5474,-5.681,551.6683],[23.5389,-5.6862,548.834],[23.5274,-5.686,545.9327],[23.5196,-5.6828,557.3861],[23.5102,-5.6823,488.2335],[23.5046,-5.6838,495.5719],[23.4984,-5.6945,548.0984],[23.4917,-5.716,516.649],[23.4839,-5.7341,566.8884],[23.4785,-5.7417,568.7158],[23.4723,-5.7455,587.9176],[23.4573,-5.7471,622.291],[23.4293,-5.7441,512.155],[23.4247,-5.7474,503.5682],[23.4169,-5.7662,496.856],[23.4069,-5.7725,498.838],[23.398,-5.7819,473.1779],[23.3946,-5.7833,461.3426],[23.3815,-5.7695,463.0624],[23.3822,-5.7681,463.0624],[23.3884,-5.7683,468.7361],[23.3939,-5.7605,461.8699],[23.3918,-5.7574,457.8582],[23.3922,-5.7545,465.3255],[23.3964,-5.7513,472.2712],[23.3937,-5.7463,476.0276],[23.401,-5.7362,465.909],[23.4006,-5.7338,500.7209],[23.4075,-5.7304,474.2405],[23.413,-5.7316,450.5659],[23.4144,-5.7288,469.1356],[23.4125,-5.7249,451.3098],[23.4096,-5.7233,459.9488],[23.4102,-5.7215,469.9973],[23.4181,-5.7159,474.7661],[23.4158,-5.7097,475.7613],[23.4169,-5.7065,492.1375],[23.4222,-5.7031,476.8536],[23.4264,-5.6966,472.8102],[23.4124,-5.7063,503.5738],[23.4024,-5.7078,522.911],[23.3944,-5.7138,480.4013],[23.3815,-5.7138,493.0272],[23.3657,-5.7241,474.3552],[23.3588,-5.723,481.6968],[23.3531,-5.7252,482.7939],[23.3342,-5.7241,486.3743],[23.3317,-5.7268,482.4487],[23.3207,-5.7257,487.2284],[23.3064,-5.731,515.8228],[23.2908,-5.7403,519.7179],[23.282,-5.7417,538.1854],[23.205,-5.7384,607.2722],[23.1015,-5.7277,667.8664],[23.0856,-5.7281,636.4666],[23.0764,-5.7311,625.6113],[23.0746,-5.7351,628.259],[23.075,-5.7403,638.7919],[23.0837,-5.7466,656.9795],[23.0837,-5.7502,661.2236],[23.0826,-5.7601,673.4154],[23.0779,-5.7701,622.0037],[23.0729,-5.7729,627.7828],[22.9805,-5.7797,723.4711],[22.9765,-5.7821,721.0624],[22.9553,-5.8187,682.6254],[22.9502,-5.8373,682.7593],[22.9502,-5.8412,667.9552],[22.9545,-5.8468,663.0644],[22.9669,-5.8607,661.4823],[22.9782,-5.8692,664.5419],[22.9864,-5.8819,691.1068],[22.9878,-5.8865,676.7749],[22.9864,-5.8908,712.4165],[22.9659,-5.9225,714.4807],[22.9542,-5.9361,691.6047],[22.9486,-5.948,699.036],[22.9518,-5.9827,713.6644],[22.9586,-5.9917,716.1649],[22.9632,-6.0058,724.7521],[22.974,-6.0189,725.7714],[22.9763,-6.0253,744.4104],[22.9754,-6.0285,746.3884],[22.9553,-6.0441,737.7662],[22.9546,-6.054,766.3656],[22.956,-6.0651,778.1355],[22.9642,-6.0756,756.3809],[22.9718,-6.0809,754.4019],[22.9959,-6.0915,694.4883],[23.0101,-6.1031,669.535],[23.004,-6.1266,692.0188],[23.0042,-6.1528,706.5427],[23.0053,-6.1607,756.2245],[23.0086,-6.1658,707.2255],[23.0138,-6.1701,776.9033],[23.02,-6.172,751.5989],[23.0418,-6.1735,755.7585],[23.0685,-6.1814,705.293],[23.0831,-6.1906,690.2189],[23.0835,-6.1934,677.3109],[23.0722,-6.2081,695.5659],[23.0674,-6.2102,708.6936],[23.0662,-6.2299,696.6282],[23.0602,-6.2488,708.9121],[23.0538,-6.2541,713.4465],[23.0644,-6.2932,740.3439],[23.0675,-6.3317,776.5973],[23.0712,-6.3481,763.0794],[23.0772,-6.3538,766.8948],[23.0858,-6.3565,755.8175],[23.0943,-6.3495,762.2576],[23.0998,-6.347,738.3785],[23.1072,-6.3475,742.6502],[23.1161,-6.3523,725.3682],[23.1292,-6.353,717.5573],[23.1412,-6.3593,719.4108],[23.1419,-6.3611,708.7216],[23.1469,-6.3625,701.6903],[23.1442,-6.368,708.2496],[23.1499,-6.3772,701.9031],[23.149,-6.3798,700.4014],[23.1416,-6.379,732.7386],[23.14,-6.3846,719.959],[23.1372,-6.3832,741.0378],[23.1331,-6.3845,747.6892],[23.1398,-6.3931,701.538],[23.1411,-6.3997,701.5764],[23.14,-6.4048,712.5183],[23.1423,-6.4089,719.4666],[23.1487,-6.4122,714.2646],[23.1494,-6.4152,720.1941],[23.1475,-6.4168,704.567],[23.1441,-6.4165,707.5216],[23.1404,-6.4195,719.8263],[23.1358,-6.4172,728.3571],[23.1342,-6.4179,728.3571],[23.1316,-6.431,726.5586],[23.1413,-6.4397,707.787],[23.1422,-6.4446,704.5627],[23.1362,-6.4554,740.5659],[23.1399,-6.4584,716.4926],[23.1504,-6.4588,727.7667],[23.1518,-6.4604,726.2119],[23.1555,-6.4759,714.3132],[23.1536,-6.4844,729.1678],[23.1476,-6.488,727.6947],[23.1511,-6.4924,720.6862],[23.1607,-6.4966,729.5676],[23.1621,-6.5007,726.9029],[23.1679,-6.5037,732.4722],[23.166,-6.5083,723.5132],[23.1674,-6.5124,718.8984],[23.1651,-6.5175,720.4301],[23.1662,-6.5225,718.56],[23.1724,-6.5253,727.8779],[23.1719,-6.5336,723.3468],[23.1683,-6.5423,729.1563],[23.1696,-6.5469,721.2819],[23.1685,-6.5513,726.5275],[23.1714,-6.5575,723.4481],[23.1797,-6.5639,740.5284],[23.1739,-6.5796,726.6047],[23.1764,-6.5945,746.6412],[23.1732,-6.5986,754.8003],[23.1734,-6.6018,753.8298],[23.1799,-6.6069,754.6331],[23.1807,-6.605,746.4724],[23.1942,-6.6018,752.8605],[23.2024,-6.5963,772.7959],[23.2068,-6.5953,787.6481],[23.2178,-6.5989,808.833],[23.2465,-6.5925,830.6165],[23.2559,-6.5884,803.6349],[23.276,-6.5771,782.6629],[23.3082,-6.5496,742.5729],[23.3222,-6.5356,733.4219],[23.3402,-6.5383,721.9036],[23.3605,-6.5256,690.4608],[23.3642,-6.5247,696.7861],[23.3692,-6.5259,699.597],[23.3793,-6.5353,688.6899],[23.386,-6.539,694.175],[23.3929,-6.5395,707.798],[23.4007,-6.5301,678.5593],[23.4042,-6.5299,682.7548],[23.4134,-6.5342,681.2919],[23.4256,-6.5262,672.7369],[23.429,-6.5283,663.1465],[23.4322,-6.5359,647.4257],[23.4377,-6.5327,649.2473],[23.4426,-6.5327,645.9728],[23.4398,-6.5446,648.3726],[23.4409,-6.5474,642.6807],[23.4464,-6.5462,631.6299],[23.4467,-6.549,634.4159],[23.4393,-6.5561,653.222],[23.4342,-6.5678,676.011],[23.4303,-6.5704,661.0142],[23.4276,-6.5763,675.2458],[23.4211,-6.5807,671.4161],[23.4167,-6.5809,673.8186],[23.4165,-6.5846,660.42],[23.4197,-6.5906,643.6613],[23.42,-6.6012,659.5579],[23.4283,-6.6094,657.6729],[23.427,-6.6156,652.3365],[23.4316,-6.623,648.0034],[23.4341,-6.6416,677.6573],[23.4408,-6.6474,680.1605],[23.442,-6.6455,684.5074],[23.4461,-6.6448,697.3641],[23.4502,-6.6465,688.8814],[23.4578,-6.6566,687.5029],[23.4684,-6.6601,705.1215],[23.475,-6.666,722.2894],[23.4778,-6.6706,703.2666],[23.4805,-6.6854,723.4678],[23.4879,-6.6911,721.6492],[23.4957,-6.7063,758.1945],[23.5072,-6.7167,757.921],[23.5145,-6.718,771.0496],[23.5343,-6.7362,751.2118],[23.5421,-6.7412,756.8353],[23.5867,-6.7655,791.0278],[23.599,-6.7704,751.694],[23.6164,-6.7714,744.0822],[23.6193,-6.7693,749.7916],[23.6242,-6.7533,737.9912],[23.628,-6.7486,723.498],[23.6383,-6.7459,724.494],[23.6484,-6.7463,715.9734],[23.6691,-6.7434,680.6617],[23.6751,-6.7411,685.657],[23.6909,-6.7271,676.4651],[23.6954,-6.7266,672.4148],[23.702,-6.7299,647.625],[23.7047,-6.7483,693.0499],[23.7091,-6.7487,681.8562],[23.7374,-6.7278,632.3334],[23.7289,-6.7216,606.2109],[23.7279,-6.7192,638.1774],[23.7468,-6.6919,602.9094],[23.7551,-6.6754,596.0242],[23.7595,-6.6719,620.2388],[23.765,-6.6703,600.7389],[23.7719,-6.6731,591.0377],[23.7774,-6.6722,598.5639],[23.7857,-6.6672,591.3522],[23.7839,-6.6616,589.6665],[23.7788,-6.6563,619.2543],[23.7733,-6.654,629.3694],[23.7607,-6.6529,597.0005],[23.7565,-6.6508,602.9259],[23.763,-6.643,613.1048],[23.7577,-6.64,655.7712],[23.7466,-6.6402,588.7977],[23.7437,-6.6381,588.1565],[23.7402,-6.6315,591.4133],[23.7473,-6.625,639.1587],[23.7487,-6.6211,619.1283],[23.7471,-6.6156,637.4404],[23.7483,-6.6085,607.6064],[23.7455,-6.5947,597.6873],[23.7483,-6.5811,608.5411],[23.7557,-6.5839,613.6385],[23.7623,-6.5842,603.6489],[23.7674,-6.5809,584.4637],[23.7711,-6.5747,564.795],[23.7667,-6.5653,577.4647],[23.7704,-6.5529,580.732],[23.7697,-6.5465,583.1439],[23.7718,-6.5389,574.2349],[23.7776,-6.5251,572.5442],[23.7828,-6.5249,561.6166],[23.7861,-6.5223,575.6459],[23.7849,-6.5201,576.3844],[23.7753,-6.5171,561.3965],[23.7732,-6.5125,563.0673],[23.7668,-6.5108,571.8037],[23.7656,-6.5078,572.1432],[23.779,-6.4977,562.409],[23.7808,-6.4929,559.3177],[23.7803,-6.489,561.5345],[23.776,-6.4828,580.6403],[23.7764,-6.4787,577.7668],[23.787,-6.4791,560.03],[23.7928,-6.466,569.0083],[23.7969,-6.4637,566.6836],[23.7997,-6.4539,559.8625],[23.7972,-6.4481,632.7108],[23.7985,-6.4454,624.0259],[23.8031,-6.444,630.1027],[23.8052,-6.4362,570.376],[23.7986,-6.4235,556.8806],[23.7914,-6.4168,597.8883],[23.7935,-6.4125,557.8785],[23.7942,-6.3969,597.4448],[23.796,-6.3936,610.3776],[23.7993,-6.3941,575.9271],[23.8075,-6.4033,547.8031],[23.8133,-6.4035,559.3337],[23.8151,-6.4012,545.3538],[23.814,-6.3978,552.3047],[23.8087,-6.3939,608.9003],[23.8082,-6.3904,583.6907]]]]}
,"properties": {"GID_1": "COD.8_1","GID_0": "COD","country": "DemocraticRepublicoftheCongo","province": "Kasaï-Oriental","VARNAME_1": "NA","NL_NAME_1": "NA","TYPE_1": "Province","ENGTYPE_1": "Province","CC_1": "NA","HASC_1": "CD.KO","ISO_1": "NA","name": "Kasaï-Oriental.province","area_km2": 10243.526,"hist_schema_id": "Elevation0-9000","hist_area_km2": {"450": 22.845,"475": 138.505,"500": 245.782,"525": 503.625,"550": 870.33,"575": 914.92,"600": 1008.712,"625": 1047.626,"650": 1088.396,"675": 1049.271,"700": 994.913,"725": 901.727,"750": 626.142,"775": 380.221,"800": 232.566,"825": 118.911,"850": 41.591,"875": 34.091,"900": 18.927,"925": 4.426}}}