{"type":"Feature","properties":{"GID_2":"COD.22.1_1","GID_0":"COD","country":"DemocraticRepublicoftheCongo","GID_1":"COD.22_1","province":"Sud-Kivu","NL_NAME_1":"NA","county":"Baraka","VARNAME_2":"NA","NL_NAME_2":"NA","TYPE_2":"Ville","ENGTYPE_2":"Town","CC_2":"NA","HASC_2":"NA","name":"Baraka.county"},
"geometry":{"type": "MultiPolygon","coordinates": [[[[29.0907,-4.0967,792.0443],[29.1001,-4.093,770.9568],[29.101,-4.0884,770.0],[29.0976,-4.0833,770.0],[29.0912,-4.0828,779.8287],[29.082,-4.0881,830.7038],[29.0814,-4.0906,838.526],[29.0836,-4.0947,820.1432],[29.0907,-4.0967,792.0443]]]]}}