{"type":"Feature","properties":{"GID_2":"COD.11.3_1","GID_0":"COD","country":"DemocraticRepublicoftheCongo","GID_1":"COD.11_1","province":"Kongo-Central","NL_NAME_1":"NA","county":"Inkisi","VARNAME_2":"NA","NL_NAME_2":"NA","TYPE_2":"Ville","ENGTYPE_2":"Town","CC_2":"NA","HASC_2":"NA","name":"Inkisi.county"},
"geometry":{"type": "MultiPolygon","coordinates": [[[[15.0892,-5.0931,519.8256],[15.0869,-5.0958,524.6385],[15.0779,-5.1004,508.2101],[15.0766,-5.1052,522.5044],[15.0782,-5.1098,498.1109],[15.0844,-5.1135,534.4139],[15.0833,-5.1176,516.8073],[15.0755,-5.1177,499.3841],[15.0736,-5.1197,502.7476],[15.0679,-5.1368,507.4175],[15.064,-5.1411,498.0936],[15.0615,-5.149,498.735],[15.062,-5.1547,501.1995],[15.0724,-5.1655,516.0895],[15.0731,-5.1736,508.8785],[15.0834,-5.1857,512.953],[15.0883,-5.1864,514.5918],[15.0973,-5.1827,507.3512],[15.0986,-5.1841,504.1372],[15.1054,-5.1827,526.8708],[15.1118,-5.1781,542.2427],[15.1154,-5.1715,583.5035],[15.1196,-5.1677,568.9102],[15.1215,-5.1569,572.0732],[15.1244,-5.1534,547.741],[15.1264,-5.143,560.9754],[15.1279,-5.1199,579.0595],[15.1251,-5.112,562.1928],[15.1129,-5.0955,548.7038],[15.1079,-5.0929,551.97],[15.1008,-5.092,522.3807],[15.0892,-5.0931,519.8256]]]]}}