{"type":"Feature","properties":{"GID_2":"COD.19.1_1","GID_0":"COD","country":"DemocraticRepublicoftheCongo","GID_1":"COD.19_1","province":"Nord-Kivu","NL_NAME_1":"NA","county":"Beni","VARNAME_2":"NA","NL_NAME_2":"NA","TYPE_2":"Territoire","ENGTYPE_2":"Territory","CC_2":"NA","HASC_2":"NA","name":"Beni.county"},
"geometry":{"type": "MultiPolygon","coordinates": [[[[29.3666,0.5317,1057.6636],[29.3542,0.5038,1048.4264],[29.3547,0.4662,1082.323],[29.3695,0.4359,1121.4355],[29.3971,0.4101,1323.2163],[29.4033,0.3802,1534.3568],[29.4933,0.3764,925.5422],[29.5132,0.3887,907.0098],[29.5467,0.4662,912.3839],[29.5522,0.4738,913.8567],[29.5501,0.4894,964.1939],[29.5298,0.548,961.7646],[29.5286,0.5574,967.9039],[29.5333,0.5685,935.1752],[29.535,0.5811,927.5913],[29.5277,0.5786,926.8607],[29.5227,0.5795,941.728],[29.5117,0.5855,968.7611],[29.4995,0.5846,1026.8879],[29.492,0.5727,1027.3584],[29.489,0.5548,1064.114],[29.4801,0.5502,1072.5889],[29.4361,0.5511,1036.9109],[29.4288,0.5554,1048.3057],[29.4171,0.5553,1038.3096],[29.3841,0.5448,1022.5665],[29.3666,0.5317,1057.6636]]]]}}