{"type": "Feature","bbox": [19.014,2.8168,23.5331,5.1457],"geometry": {"type": "MultiPolygon","coordinates": [[[[21.9822,4.237,416.0216],[21.965,4.2251,415.4858],[21.9595,4.2238,388.5],[21.9547,4.224,389.1656],[21.9354,4.2327,419.511],[21.912,4.234,418.7872],[21.875,4.241,387.9913],[21.8592,4.24,403.2491],[21.8489,4.2451,400.6765],[21.8301,4.2588,389.211],[21.8168,4.2618,403.6976],[21.8046,4.27,388.4506],[21.794,4.2711,387.0276],[21.7718,4.2701,412.2219],[21.761,4.2772,390.7335],[21.752,4.2931,385.5],[21.7444,4.2997,385.5],[21.7345,4.3039,391.8831],[21.7211,4.303,414.0522],[21.704,4.2975,384.5],[21.6924,4.2998,409.3851],[21.683,4.2956,387.2569],[21.6768,4.2956,384.5],[21.6678,4.3048,384.0],[21.66,4.309,384.0],[21.651,4.309,398.8445],[21.642,4.303,393.4423],[21.624,4.285,388.1302],[21.5968,4.2723,383.7592],[21.5835,4.2592,403.5802],[21.5648,4.2473,383.0483],[21.5409,4.2482,382.0],[21.495,4.258,381.5],[21.4686,4.2689,381.0],[21.46,4.269,381.0],[21.451,4.265,381.0],[21.4278,4.2607,380.5],[21.3991,4.2725,385.202],[21.3773,4.2775,380.0],[21.3514,4.2896,379.5],[21.3344,4.2939,379.5],[21.3241,4.3006,379.0],[21.313,4.312,379.0],[21.3001,4.3205,379.0],[21.2891,4.3345,378.5],[21.282,4.338,378.5],[21.279,4.338,381.8998],[21.2696,4.3328,391.0582],[21.257,4.332,399.7991],[21.251,4.329,379.092],[21.2419,4.3115,377.5],[21.2369,4.2954,381.4629],[21.2247,4.2884,377.5],[21.2113,4.287,384.4456],[21.206,4.29,385.6158],[21.202,4.296,377.0],[21.192,4.304,385.9197],[21.182,4.301,380.4485],[21.175,4.302,376.5],[21.172,4.306,376.5],[21.152,4.321,377.1049],[21.1189,4.3361,387.1082],[21.114,4.343,376.0],[21.1011,4.3704,391.3224],[21.075,4.392,375.5],[21.0542,4.3996,392.115],[21.054,4.401,375.5],[21.0244,4.4021,391.5378],[21.0085,4.408,391.8156],[20.988,4.4217,376.749],[20.97,4.428,378.7904],[20.9534,4.4296,378.1501],[20.9467,4.4282,375.0343],[20.9341,4.4302,374.6894],[20.911,4.439,374.5],[20.8848,4.4376,374.5],[20.8655,4.4458,374.0],[20.857,4.4455,376.0516],[20.8101,4.4193,373.5],[20.7945,4.414,411.6017],[20.7833,4.4125,375.0945],[20.7573,4.4133,378.2777],[20.7466,4.4151,376.3873],[20.7351,4.4206,378.9893],[20.728,4.421,373.489],[20.671,4.415,380.4023],[20.6637,4.4124,373.0],[20.656,4.4217,373.0],[20.6375,4.4164,374.3796],[20.631,4.405,376.3867],[20.624,4.402,375.3831],[20.6127,4.4016,375.5472],[20.6062,4.4034,375.2732],[20.5897,4.4112,372.5],[20.5552,4.4377,372.0],[20.5393,4.4397,372.0],[20.5329,4.4425,393.4147],[20.5087,4.4762,371.875],[20.5006,4.4805,371.5],[20.4896,4.4807,371.5],[20.4779,4.4855,371.5],[20.462,4.5029,373.2299],[20.4534,4.525,373.0925],[20.4503,4.545,373.6963],[20.4498,4.5641,371.0],[20.461,4.599,370.5],[20.461,4.606,378.6675],[20.453,4.627,370.0],[20.447,4.634,370.0],[20.4303,4.6475,369.625],[20.405,4.677,369.5],[20.3845,4.6945,370.9964],[20.3731,4.7092,386.1779],[20.3639,4.7285,379.5616],[20.3579,4.737,368.5],[20.343,4.751,368.5],[20.318,4.768,372.666],[20.308,4.773,368.9888],[20.281,4.775,368.0],[20.272,4.78,368.0],[20.2391,4.804,367.5],[20.2138,4.8193,369.2492],[20.1963,4.8273,367.0],[20.1698,4.8532,367.0],[20.1626,4.8702,366.5],[20.1568,4.8759,371.6461],[20.1375,4.888,368.3138],[20.123,4.894,366.5871],[20.1182,4.8939,366.0],[20.1081,4.897,366.0],[20.0963,4.9053,366.0],[20.0922,4.9064,366.0],[20.0682,4.9242,365.5],[20.0514,4.9462,365.5],[20.0368,4.9581,366.1582],[20.024,4.966,365.5654],[19.988,4.977,364.5],[19.972,4.979,364.125],[19.9493,4.9721,366.931],[19.9411,4.9721,368.3038],[19.931,4.974,363.0],[19.915,4.98,364.7045],[19.901,4.994,362.0],[19.8904,5.0013,362.0],[19.8738,5.0171,367.043],[19.8634,5.0366,361.5],[19.8547,5.0637,361.0],[19.8513,5.0693,360.5],[19.848,5.074,360.5],[19.825,5.093,364.9928],[19.7928,5.1009,359.5],[19.7756,5.1021,361.2246],[19.741,5.115,358.5],[19.725,5.119,358.5],[19.696,5.133,358.0],[19.682,5.133,364.151],[19.6352,5.128,364.9877],[19.613,5.128,356.5],[19.577,5.139,360.4323],[19.566,5.144,356.0],[19.5549,5.1457,355.5],[19.5267,5.1385,355.0],[19.5075,5.1252,363.3356],[19.4897,5.1223,354.5],[19.4752,5.1225,354.0],[19.4469,5.1285,354.0],[19.43,5.13,353.5],[19.4034,5.1211,353.0],[19.3919,5.1128,353.0],[19.378,5.0986,352.5],[19.368,5.0818,352.0],[19.3589,5.073,352.0],[19.3378,5.0606,351.5],[19.3227,5.0543,351.5],[19.2846,5.0265,350.5],[19.2626,5.016,350.0],[19.2562,5.0148,350.0],[19.2413,5.0069,350.0],[19.231,4.997,349.5],[19.2282,4.992,349.5],[19.212,4.9498,352.4977],[19.2024,4.9422,349.0],[19.1875,4.9393,349.0],[19.1483,4.9418,370.1098],[19.1361,4.9406,351.4692],[19.113,4.933,348.5],[19.098,4.922,348.5],[19.077,4.895,348.0],[19.0681,4.8778,350.1243],[19.0594,4.8439,348.0],[19.0433,4.8205,347.5],[19.0347,4.8012,357.7773],[19.0226,4.7914,359.0907],[19.0191,4.7865,363.6482],[19.014,4.768,347.0],[19.0334,4.7689,388.021],[19.0364,4.7659,372.1641],[19.0407,4.7657,367.7803],[19.0422,4.7616,390.2856],[19.0522,4.7642,380.4255],[19.0584,4.7687,391.7955],[19.0579,4.7724,364.9398],[19.0624,4.774,367.2487],[19.068,4.7734,368.8232],[19.0723,4.7769,369.1062],[19.0751,4.7714,373.4197],[19.0724,4.7617,382.4498],[19.075,4.7615,380.1485],[19.0825,4.7692,379.137],[19.0873,4.7644,372.2986],[19.0951,4.7673,384.7614],[19.1141,4.7663,377.7917],[19.1243,4.7416,423.5912],[19.1246,4.7347,419.7445],[19.1354,4.7304,438.6064],[19.1451,4.7298,450.0989],[19.1498,4.7343,434.5653],[19.1523,4.7347,443.9279],[19.1539,4.7184,433.1716],[19.1587,4.7166,441.2614],[19.1622,4.7118,440.1224],[19.1618,4.7054,463.4654],[19.1635,4.7031,484.2177],[19.1796,4.6987,442.6003],[19.1862,4.6999,457.6265],[19.1879,4.6967,515.2181],[19.187,4.6928,490.0318],[19.1895,4.6903,455.3115],[19.2056,4.693,450.5857],[19.2108,4.6997,474.3415],[19.215699999999998,4.6929,454.8332],[19.2237,4.6923,464.461],[19.2263,4.681,454.7857],[19.2293,4.6804,468.1395],[19.2302,4.688,460.7497],[19.2345,4.6878,472.9257],[19.238,4.6855,467.6989],[19.2423,4.686,461.5508],[19.2504,4.6875,459.6597],[19.2554,4.6919,458.0243],[19.2758,4.6905,472.8237],[19.2784,4.6839,469.6612],[19.2825,4.6805,483.0585],[19.2854,4.6754,464.8007],[19.2883,4.675,471.0602],[19.2904,4.6766,469.3928],[19.2915,4.6815,468.457],[19.2983,4.6843,485.4778],[19.3041,4.6816,486.5384],[19.3062,4.6743,470.5357],[19.312,4.6711,477.866],[19.3086,4.6667,468.7916],[19.3109,4.6642,478.6228],[19.3282,4.6593,488.9786],[19.3302,4.6465,483.0606],[19.3343,4.6447,481.4823],[19.3465,4.6455,526.9607],[19.3508,4.6425,526.1248],[19.3539,4.6357,495.4513],[19.3581,4.6336,483.9536],[19.3736,4.6347,505.4351],[19.3799,4.6251,494.2664],[19.3847,4.6268,500.4719],[19.3881,4.634,500.7683],[19.3922,4.6377,503.0015],[19.3936,4.6513,498.831],[19.4046,4.6574,500.5908],[19.4153,4.6686,509.0359],[19.4209,4.6776,512.2828],[19.4271,4.6793,501.0914],[19.4585,4.6775,515.4949],[19.4707,4.6708,523.5396],[19.4749,4.6632,513.4513],[19.475,4.6556,516.9451],[19.4712,4.648,521.5539],[19.4697,4.6385,540.2613],[19.474,4.619,584.9846],[19.4831,4.612,589.6454],[19.4845,4.6081,592.9668],[19.4914,4.6038,603.3235],[19.5018,4.5997,610.4745],[19.5091,4.5993,613.612],[19.5124,4.5971,611.278],[19.5186,4.5872,622.8477],[19.5186,4.5732,629.1925],[19.5165,4.569,618.9911],[19.5102,4.5646,627.0933],[19.5086,4.557,626.4993],[19.4893,4.5177,632.9398],[19.4877,4.509,643.2745],[19.4768,4.4828,638.0705],[19.4596,4.4504,608.4579],[19.4542,4.4319,600.4702],[19.4189,4.3519,420.6519],[19.3762,4.2498,445.287],[19.357,4.1974,399.4293],[19.3512,4.1902,418.1343],[19.3426,4.1664,391.52],[19.3386,4.1602,394.3264],[19.3343,4.1578,391.3113],[19.3077,4.0857,430.1637],[19.3025,4.081,417.0043],[19.2965,4.0797,442.2452],[19.2724,4.0782,453.122],[19.2682,4.0733,422.6394],[19.2683,4.0701,410.2949],[19.2729,4.066,407.0373],[19.2744,4.0572,421.9272],[19.27,4.0399,418.2088],[19.2659,4.0362,403.812],[19.2664,4.0335,397.1402],[19.2731,4.0287,392.8874],[19.2867,4.0233,381.118],[19.305,4.0042,373.6386],[19.3117,4.0049,373.9955],[19.3172,4.0032,370.5818],[19.327,4.0056,366.8958],[19.345,3.9926,384.141],[19.349,3.9878,367.1278],[19.3538,3.9865,372.8762],[19.3596,3.9811,364.7207],[19.364,3.9719,378.8375],[19.368,3.9678,372.4073],[19.3809,3.9592,386.2992],[19.384,3.9532,380.085],[19.3885,3.9328,363.8871],[19.3955,3.9241,366.5614],[19.4149,3.9112,364.7316],[19.4174,3.9076,364.2573],[19.418,3.8963,373.155],[19.4258,3.8994,356.5579],[19.4305,3.91,381.1444],[19.4298,3.9134,369.6004],[19.4228,3.9191,358.9706],[19.4246,3.9235,371.5729],[19.431,3.9266,368.4662],[19.4296,3.9319,351.2328],[19.4311,3.9381,360.4473],[19.4249,3.9385,367.6259],[19.4207,3.9412,368.3164],[19.4205,3.9446,365.5838],[19.4262,3.9491,368.9783],[19.4323,3.9498,365.6568],[19.4342,3.9482,353.6431],[19.4359,3.9414,370.287],[19.442,3.9499,352.774],[19.4447,3.9502,361.3947],[19.4485,3.9351,380.6797],[19.4522,3.9337,380.2793],[19.4556,3.9358,364.0389],[19.4563,3.9418,358.0966],[19.4693,3.9472,403.8396],[19.4692,3.95,392.6435],[19.4601,3.9511,353.1986],[19.4591,3.9538,352.4459],[19.4618,3.9621,354.4314],[19.4571,3.9708,372.0964],[19.4587,3.9738,353.161],[19.4683,3.9716,366.238],[19.4706,3.9747,383.4654],[19.471,4.0034,375.1776],[19.4681,4.0121,354.747],[19.4697,4.0154,354.9109],[19.4752,4.0148,367.5557],[19.4795,4.0164,386.6489],[19.482,4.0238,354.437],[19.4905,4.0232,363.4114],[19.4986,4.0304,367.6466],[19.4995,4.038,376.8505],[19.5026,4.0424,391.3688],[19.509,4.0469,374.1651],[19.5096,4.0575,379.1227],[19.5118,4.06,358.8907],[19.516,4.061,380.9299],[19.5222,4.0581,366.1068],[19.5289,4.0469,385.5749],[19.5326,4.0462,375.9707],[19.5376,4.0502,370.5315],[19.5406,4.0502,370.0126],[19.5466,4.0436,375.2956],[19.5503,4.0429,377.329],[19.5523,4.0473,373.6181],[19.5499,4.0579,369.4671],[19.5519,4.0646,377.6359],[19.5606,4.064,364.0447],[19.5687,4.0593,375.729],[19.5753,4.0596,383.6097],[19.5813,4.0638,373.0041],[19.589,4.0641,360.3405],[19.5932,4.06,374.2011],[19.5962,4.0598,377.5325],[19.5996,4.0637,371.9304],[19.6042,4.0647,357.2593],[19.609,4.0622,380.2282],[19.6131,4.0666,369.0558],[19.6234,4.0704,371.342],[19.6281,4.0751,371.0804],[19.638,4.0763,373.8037],[19.6428,4.0736,366.6773],[19.6474,4.075,359.5954],[19.6517,4.0788,361.4225],[19.6547,4.0786,360.4538],[19.6559,4.0719,371.9241],[19.6603,4.0678,373.464],[19.6619,4.0678,367.3389],[19.6637,4.0722,371.6251],[19.6671,4.0718,367.132],[19.6731,4.0663,364.9755],[19.6759,4.0664,367.5699],[19.6774,4.0774,366.981],[19.6815,4.0802,363.8783],[19.6865,4.0798,370.8969],[19.6951,4.0735,364.0128],[19.6984,4.0625,366.1797],[19.7037,4.0554,366.4974],[19.7152,4.0578,365.0408],[19.7202,4.0641,375.32],[19.731,4.0609,378.9176],[19.7389,4.0663,361.9189],[19.74,4.0705,374.5342],[19.7496,4.0743,362.7379],[19.7544,4.0791,376.0591],[19.7617,4.0799,384.5066],[19.7652,4.0751,374.157],[19.7711,4.0759,373.7299],[19.7751,4.0718,371.0196],[19.7787,4.0725,391.5792],[19.7831,4.0774,385.6623],[19.7888,4.079,381.5082],[19.7931,4.0848,382.2832],[19.8084,4.085,384.817],[19.8133,4.0827,382.7629],[19.8155,4.0848,384.9266],[19.8203,4.0844,383.184],[19.825,4.0785,387.3599],[19.8282,4.0778,377.991],[19.8305,4.0802,381.8064],[19.8477,4.0783,382.861],[19.858,4.0807,382.2678],[19.8631,4.0768,377.9213],[19.8699,4.0771,386.5536],[19.8801,4.0728,392.1612],[19.8938,4.0737,387.7599],[19.8975,4.0705,388.5103],[19.9035,4.0701,392.1945],[19.9065,4.0653,379.9062],[19.9138,4.0631,389.6581],[19.9192,4.0578,382.5485],[19.9169,4.0548,408.9771],[19.9156,4.0474,394.3418],[19.9069,4.0432,388.5657],[19.9029,4.0378,406.2547],[19.901,4.0171,440.3028],[19.8913,3.9988,412.3262],[19.8879,3.9797,471.2524],[19.8896,3.97,509.4474],[19.8938,3.9632,451.1287],[19.9107,3.9445,401.7381],[19.9359,3.9178,502.8548],[19.9474,3.9082,450.8298],[19.9808,3.8823,425.9921],[19.9961,3.8739,440.4547],[20.0216,3.8703,415.1916],[20.0583,3.852,404.3518],[20.0999,3.8412,395.7546],[20.1057,3.8372,388.6918],[20.1118,3.8262,382.6175],[20.1161,3.8236,385.91],[20.1241,3.8241,385.876],[20.1359,3.8139,395.7437],[20.1467,3.8096,383.3156],[20.1678,3.8084,387.7515],[20.197,3.8004,373.5479],[20.2027,3.7973,370.1928],[20.2136,3.7833,375.1456],[20.2183,3.7714,376.6671],[20.1923,3.7613,390.942],[20.1413,3.7322,375.7768],[20.131,3.731,381.0455],[20.1371,3.7108,373.4189],[20.135,3.6974,371.1968],[20.1373,3.6882,374.8822],[20.132,3.6741,377.2974],[20.134,3.655,381.8478],[20.15,3.6395,387.4406],[20.1254,3.5963,385.4258],[20.1145,3.5835,382.0055],[20.1113,3.5671,390.0935],[20.1118,3.5614,397.6905],[20.1165,3.5497,399.297],[20.1267,3.5343,391.3033],[20.1385,3.5232,400.1848],[20.1807,3.4932,408.7911],[20.2092,3.4765,424.7751],[20.2173,3.4683,440.3521],[20.2203,3.4629,443.9295],[20.2225,3.4564,478.363],[20.2226,3.4416,508.2862],[20.2102,3.4097,413.614],[20.2091,3.4015,421.0938],[20.2113,3.383,396.5514],[20.2201,3.3723,401.8203],[20.2274,3.3526,395.5586],[20.2495,3.3383,408.4374],[20.2727,3.3194,414.9171],[20.2812,3.3032,425.4702],[20.2823,3.2952,400.9046],[20.278199999999998,3.262,435.9252],[20.2784,3.2571,439.4529],[20.2857,3.2367,463.3828],[20.2855,3.197,457.2431],[20.2844,3.189,446.6632],[20.2774,3.1821,448.8475],[20.248,3.1607,436.8915],[20.2285,3.14,445.9007],[20.2256,3.135,444.1029],[20.2217,3.1185,400.0986],[20.198,3.0848,419.7933],[20.1783,3.0456,399.2127],[20.1746,3.0352,370.2776],[20.1753,3.0278,404.6836],[20.1796,3.0199,393.5988],[20.1804,3.0101,374.9309],[20.1953,2.9912,400.491],[20.2047,2.9744,401.303],[20.2099,2.9586,387.1377],[20.2086,2.9518,399.8281],[20.2221,2.9267,390.7655],[20.2312,2.9188,377.01],[20.2618,2.9004,387.1514],[20.2757,2.8853,394.5103],[20.3235,2.8504,408.5178],[20.337,2.8419,401.2652],[20.3719,2.8248,368.43],[20.3823,2.8168,370.8544],[20.3947,2.8269,384.6404],[20.411,2.8473,399.7167],[20.4447,2.8834,390.6029],[20.4884,2.934,391.9363],[20.5515,2.9988,394.5614],[20.5929,3.0442,396.5317],[20.6297,3.0934,373.3368],[20.6471,3.112,362.9949],[20.701,3.1651,360.1868],[20.7334,3.1884,366.8222],[20.7437,3.1979,367.7921],[20.7504,3.2074,369.6953],[20.7637,3.2112,364.319],[20.7664,3.214,370.3501],[20.7672,3.2257,364.9306],[20.7701,3.2343,373.9818],[20.7724,3.2348,372.4391],[20.7786,3.2284,368.9584],[20.7825,3.2303,364.8114],[20.7866,3.2393,368.9246],[20.7947,3.2474,350.4331],[20.8002,3.2475,366.3397],[20.806,3.2434,367.091],[20.812,3.2347,366.5602],[20.8123,3.2296,365.5671],[20.8206,3.2219,408.1954],[20.8234,3.2113,385.9275],[20.8274,3.2042,377.113],[20.8389,3.1951,378.1017],[20.8503,3.1805,381.5137],[20.8678,3.1726,376.5074],[20.8841,3.1674,408.9325],[20.8887,3.1631,424.8276],[20.8917,3.1551,424.5742],[20.8975,3.1489,448.4742],[20.9075,3.126,453.6042],[20.9248,3.1112,469.2229],[20.9309,3.102,481.1434],[20.9431,3.0967,517.4397],[20.9472,3.0967,510.4322],[20.9665,3.1107,512.4099],[20.9745,3.1122,522.7751],[20.9796,3.1114,507.6783],[20.9825,3.1102,500.873],[21.033,3.0644,426.7614],[21.0395,3.0568,440.0449],[21.0424,3.0448,423.2238],[21.0436,3.0139,422.2371],[21.0457,3.0065,477.2053],[21.1172,2.9453,452.2602],[21.1315,2.9313,493.8212],[21.1448,2.9224,448.5702],[21.147,2.9232,435.5334],[21.1479,2.929,452.877],[21.1544,3.0379,491.7804],[21.1546,3.0718,431.3126],[21.1647,3.0963,420.1078],[21.1662,3.141,368.2355],[21.1703,3.1632,368.335],[21.1815,3.162,386.1681],[21.1857,3.1496,367.1891],[21.1913,3.1462,361.7502],[21.1972,3.1469,368.8274],[21.2052,3.1454,370.8582],[21.208,3.1433,369.2272],[21.2113,3.1369,372.1521],[21.2113,3.1305,373.791],[21.2219,3.1213,377.9161],[21.2403,3.1169,359.3501],[21.244,3.1128,359.3414],[21.2467,3.119,385.8488],[21.2501,3.1186,390.5269],[21.2541,3.1101,374.6773],[21.2644,3.1063,369.9814],[21.2739,3.0978,375.4724],[21.2744,3.0889,372.273],[21.2797,3.0894,377.7332],[21.2898,3.0796,376.3299],[21.2945,3.0683,357.3384],[21.2979,3.0686,357.7744],[21.3027,3.0725,377.1796],[21.3055,3.0698,382.8701],[21.3091,3.071,373.8945],[21.3094,3.0643,377.5038],[21.3147,3.0639,378.7656],[21.3209,3.0568,357.7682],[21.328,3.0559,379.4532],[21.3298,3.0587,374.0002],[21.3335,3.0569,380.7645],[21.3352,3.0473,379.2151],[21.337,3.0454,358.304],[21.3481,3.0416,378.6227],[21.3519,3.0439,381.5437],[21.3554,3.0431,396.084],[21.3591,3.0364,387.3123],[21.3688,3.0264,373.7098],[21.3938,3.019,371.0755],[21.4016,3.0218,372.1727],[21.4066,3.0191,383.1778],[21.4083,3.011,421.3286],[21.4101,3.0099,416.7454],[21.4184,3.0107,433.3219],[21.4347,3.0011,421.3524],[21.4343,2.9926,380.8695],[21.4392,2.9798,377.8482],[21.4429,2.9796,385.6967],[21.4493,2.9734,382.4315],[21.451,2.9695,375.1942],[21.4572,2.9686,390.3626],[21.4685,2.9501,362.2299],[21.4713,2.9478,364.0545],[21.4759,2.9465,370.6763],[21.4798,2.9476,362.4233],[21.4825,2.9527,362.3363],[21.4857,2.9525,362.4146],[21.4887,2.9475,364.2873],[21.4928,2.9466,363.0289],[21.5,2.9375,365.0203],[21.5121,2.9382,363.4064],[21.5246,2.9278,367.8528],[21.5337,2.9258,367.0183],[21.5431,2.9302,364.0189],[21.5564,2.9243,369.2593],[21.5632,2.9283,364.2913],[21.5688,2.9247,384.4036],[21.5712,2.9295,364.9197],[21.5738,2.9302,364.496],[21.5793,2.9197,379.493],[21.5826,2.9176,378.9077],[21.5885,2.917,381.2512],[21.5922,2.9133,387.3101],[21.5997,2.9166,374.6538],[21.6048,2.916,374.6093],[21.6082,2.9181,366.7585],[21.6107,2.9176,365.9491],[21.613,2.9131,380.7039],[21.6151,2.9128,390.396],[21.6162,2.9168,369.6032],[21.6215,2.9173,366.8878],[21.627,2.9118,385.0138],[21.6292,2.9189,374.9235],[21.6338,2.9229,370.8948],[21.6404,2.9236,368.2953],[21.6471,2.9205,375.8294],[21.6534,2.9258,368.6332],[21.6636,2.9206,367.8654],[21.6725,2.92,369.2077],[21.6754,2.9218,369.2228],[21.6833,2.9182,379.0996],[21.6858,2.9192,382.8635],[21.6903,2.9252,371.837],[21.6985,2.9241,378.814],[21.7052,2.9265,374.2685],[21.7239,2.9248,378.0286],[21.7404,2.9323,372.2419],[21.7456,2.9332,377.037],[21.7488,2.9307,372.542],[21.7814,2.9259,376.441],[21.7846,2.9289,376.3874],[21.7947,2.9244,373.2883],[21.8103,2.9142,379.0327],[21.8186,2.9135,386.6652],[21.8273,2.9069,384.9519],[21.8415,2.907,391.2984],[21.8463,2.9039,401.709],[21.8566,2.903,388.8609],[21.8732,2.8958,393.1492],[21.8894,2.9014,394.8803],[21.894,2.9015,388.9453],[21.9011,2.8985,405.6174],[21.9171,2.903,394.6836],[21.9393,2.8995,391.5471],[21.9469,2.8963,401.0808],[21.9496,2.8984,404.7968],[21.9551,2.8992,400.9859],[21.9646,2.9087,394.3248],[21.9669,2.9089,391.9062],[21.9805,2.9033,391.1131],[21.9825,2.9049,388.8556],[21.9901,2.9059,392.4625],[21.996,2.9034,403.7804],[22.0024,2.9032,393.1782],[22.03,2.9145,392.4082],[22.0383,2.9159,392.9124],[22.0437,2.9203,396.5333],[22.051,2.9229,397.0794],[22.0602,2.9223,408.1793],[22.0632,2.9237,405.956],[22.0691,2.9306,388.8457],[22.0764,2.9332,392.3726],[22.0871,2.9322,407.3568],[22.1086,2.9443,392.5199],[22.1166,2.9443,390.2397],[22.1339,2.9486,395.1287],[22.1452,2.9482,399.455],[22.1497,2.9536,396.2992],[22.1538,2.955,396.2445],[22.1599,2.961,399.0553],[22.1858,2.9623,400.1855],[22.1919,2.967,397.2547],[22.2045,2.9705,393.437],[22.2122,2.9777,398.116],[22.2214,2.9776,395.5015],[22.231,2.9813,392.4319],[22.2385,2.9869,396.7756],[22.2522,2.9879,397.2301],[22.2595,2.9912,398.6112],[22.2664,2.9917,395.2211],[22.2755,2.995,403.0444],[22.2833,2.9953,392.3183],[22.3036,3.0097,392.3954],[22.3178,3.0087,406.5674],[22.3419,3.0263,394.1347],[22.3547,3.0319,393.738],[22.3648,3.0315,398.3366],[22.3724,3.0249,408.6437],[22.4162,3.0073,437.5007],[22.4341,3.0033,409.7502],[22.4623,2.9998,404.3303],[22.4738,2.9925,437.9014],[22.4759,2.9849,400.0126],[22.4807,2.9801,412.5356],[22.4865,2.9785,408.3204],[22.5089,3.0162,475.2691],[22.509,3.0351,464.5168],[22.518,3.0503,460.4934],[22.5142,3.0639,448.9817],[22.5214,3.0858,491.5574],[22.533,3.0969,488.1207],[22.5433,3.0998,505.5223],[22.5499,3.1088,526.1255],[22.5512,3.115,514.6581],[22.5551,3.1185,516.5762],[22.5573,3.1238,513.7582],[22.5579,3.1448,526.3021],[22.5559,3.1705,567.8437],[22.5705,3.2035,558.556],[22.6037,3.2685,554.3578],[22.6212,3.2959,558.5571],[22.625,3.3149,553.8207],[22.6122,3.3433,550.5439],[22.6131,3.3597,545.6304],[22.6166,3.3693,549.2151],[22.6547,3.408,507.2301],[22.6658,3.429,526.7104],[22.6815,3.445,554.2261],[22.7053,3.4525,535.1821],[22.7288,3.477,512.0034],[22.7468,3.4898,518.5187],[22.7869,3.5039,533.0563],[22.8069,3.517,537.0991],[22.8197,3.5278,536.724],[22.8287,3.5456,549.8254],[22.8418,3.554,563.8629],[22.8821,3.562,557.3558],[22.9336,3.5655,540.5275],[22.9654,3.5754,557.6108],[22.9951,3.5808,548.2628],[23.0236,3.5906,554.4762],[23.0368,3.5994,507.353],[23.0467,3.6116,537.6459],[23.0567,3.6326,564.8361],[23.0615,3.6346,566.3079],[23.0843,3.6358,552.0771],[23.0912,3.6393,531.9818],[23.099,3.6496,511.4611],[23.1085,3.6757,503.9839],[23.1187,3.6919,514.7312],[23.1233,3.6962,512.4637],[23.1403,3.7003,535.7497],[23.143,3.7045,525.726],[23.1563,3.714,530.6703],[23.1809,3.725,523.027],[23.1869,3.7298,519.0085],[23.1908,3.731,525.9709],[23.2107,3.7531,544.1917],[23.2464,3.7714,551.5297],[23.2406,3.7822,570.5118],[23.2367,3.7856,573.4658],[23.243,3.7923,543.1798],[23.2624,3.7814,550.974],[23.2852,3.7777,570.5249],[23.3232,3.7487,586.611],[23.340699999999998,3.7249,594.6776],[23.3518,3.7128,554.1583],[23.4073,3.6883,573.3064],[23.4224,3.6903,554.5513],[23.4251,3.6979,531.2446],[23.434,3.7074,529.9579],[23.4383,3.7085,520.8287],[23.4436,3.7077,524.3508],[23.4493,3.7107,513.6348],[23.4589,3.7197,509.1639],[23.4636,3.7276,512.236],[23.4691,3.7315,509.9257],[23.4836,3.7304,514.6899],[23.4886,3.7335,526.4927],[23.4975,3.7441,504.6957],[23.5052,3.7478,516.2365],[23.5241,3.7657,505.876],[23.5305,3.7765,511.5596],[23.5331,3.8062,496.3539],[23.5291,3.8186,491.4784],[23.5197,3.8156,487.012],[23.5073,3.8176,460.0],[23.4826,3.8131,484.2729],[23.4611,3.818,480.487],[23.4578,3.8208,464.0377],[23.4557,3.8284,459.0],[23.4521,3.8288,468.6247],[23.4438,3.8234,486.8604],[23.4333,3.8225,485.3788],[23.4255,3.828,458.0],[23.414,3.8323,457.875],[23.4023,3.8333,479.7229],[23.4028,3.8246,483.4123],[23.3931,3.808,477.6054],[23.388,3.8075,471.9589],[23.3835,3.8035,478.2485],[23.3768,3.8028,476.0375],[23.3741,3.7991,479.8051],[23.3697,3.7977,478.884],[23.3656,3.8018,459.8807],[23.3635,3.808,456.0],[23.358,3.8124,465.4688],[23.3456,3.8164,467.4584],[23.3366,3.827,455.125],[23.3251,3.8246,486.0291],[23.3217,3.828,464.1636],[23.3242,3.8354,472.6837],[23.3209,3.8363,465.54],[23.3116,3.8319,511.2731],[23.301,3.8346,491.1107],[23.2978,3.8316,514.3854],[23.2912,3.8327,492.4647],[23.2852,3.8363,448.7247],[23.2781,3.8349,501.4156],[23.2689,3.8367,470.3752],[23.2554,3.8442,443.0875],[23.254,3.8465,441.0],[23.2547,3.8495,440.75],[23.2519,3.8511,442.0598],[23.2487,3.8499,456.0593],[23.2434,3.8545,457.0701],[23.2264,3.8628999999999998,439.0],[23.2151,3.8651,450.9228],[23.2078,3.8644,464.1256],[23.198,3.8524,472.4077],[23.1886,3.8516,468.0473],[23.1784,3.8451,459.9939],[23.169,3.8448,460.213],[23.1655,3.8485,455.7893],[23.1545,3.8477,446.2028],[23.1488,3.8555,436.5],[23.1548,3.876,448.701],[23.1537,3.8776,436.0],[23.1504,3.8774,455.1209],[23.1409,3.8649,467.8257],[23.1347,3.8669,444.3136],[23.1294,3.8644,466.8472],[23.1184,3.8664,455.0592],[23.1113,3.8728,430.5],[23.1065,3.873,430.0],[23.1017,3.8697,462.1757],[23.0978,3.8692,473.0862],[23.0926,3.8614,491.2463],[23.0891,3.8591,477.0705],[23.0773,3.8548,459.8692],[23.0715,3.8571,425.5],[23.069,3.8608,425.0],[23.0628,3.8554,468.3511],[23.0585,3.8543,472.0775],[23.0495,3.8618,430.7461],[23.0412,3.8617,454.1709],[23.0328,3.8582,458.1526],[23.0254,3.8607,442.4238],[23.0215,3.86,459.1193],[23.0127,3.8501,464.1961],[23.0056,3.8507,482.4529],[22.993,3.8384,459.9589],[22.9901,3.8382,449.4914],[22.9871,3.8402,435.5008],[22.9863,3.8458,451.3156],[22.9831,3.8469,425.9184],[22.9815,3.8503,422.9354],[22.9746,3.8514,447.4794],[22.973,3.8572,431.9932],[22.9693,3.8597,415.0],[22.9654,3.8597,458.321],[22.9631,3.8578,453.7154],[22.9595,3.8589,439.4877],[22.9492,3.852,452.6262],[22.937,3.8533,453.1426],[22.9288,3.8505,455.4025],[22.9181,3.843,433.0517],[22.9135,3.8441,427.2107],[22.9014,3.8346,473.3399],[22.8957,3.8362,456.3198],[22.8903,3.8451,409.0],[22.8818,3.8501,419.2349],[22.8761,3.8455,459.4457],[22.8709,3.8452,464.654],[22.8686,3.8436,467.8882],[22.8596,3.8486,428.9582],[22.8546,3.8493,414.8085],[22.849,3.8598,405.625],[22.8442,3.8616,408.0867],[22.838,3.8598,461.9668],[22.8289,3.8516,437.1832],[22.8263,3.8597,406.3088],[22.814,3.8559,438.1315],[22.8107,3.861,420.8166],[22.7958,3.871,433.5945],[22.7946,3.8754,430.2516],[22.7914,3.8792,428.383],[22.784,3.8829,425.2959],[22.7821,3.8856,440.6069],[22.7839,3.9047,463.9396],[22.7864,3.9082,448.8881],[22.798,3.9081,480.9829],[22.8005,3.9115,456.3658],[22.8019,3.9194,456.1661],[22.7985,3.9368,464.6766],[22.8044,3.9479,496.282],[22.8096,3.9652,483.7863],[22.8221,3.9819,489.8013],[22.8294,3.9861,503.142],[22.837,3.9871,492.9449],[22.8117,4.0188,520.8557],[22.8003,4.0201,533.6408],[22.7934,4.0289,529.0663],[22.7868,4.0338,515.967],[22.7757,4.0292,523.1194],[22.7601,4.0302,510.1192],[22.7609,4.0449,504.2074],[22.7475,4.0737,485.0],[22.7343,4.075,518.4104],[22.7222,4.0831,480.9709],[22.7143,4.1027,482.2976],[22.7098,4.1016,487.3265],[22.6941,4.084,500.3809],[22.6803,4.0924,494.216],[22.6735,4.1222,481.8781],[22.6676,4.1233,509.8557],[22.6485,4.1137,492.4692],[22.6291,4.1281,447.3909],[22.6215,4.1291,460.5651],[22.5999,4.1217,445.1105],[22.5853,4.122,438.4177],[22.5576,4.1345,436.0805],[22.5469,4.1363,436.5121],[22.5184,4.126,405.3604],[22.4989,4.1144,399.8519],[22.4879,4.1157,395.9604],[22.4769,4.1193,397.423],[22.4693,4.1167,394.5],[22.4629,4.1171,396.8164],[22.4449,4.1244,400.2516],[22.4094,4.1255,393.5938],[22.3982,4.1211,397.5571],[22.392,4.121,396.3116],[22.3874,4.1183,397.107],[22.3594,4.118,395.2052],[22.34,4.114,396.6425],[22.306,4.1152,391.0],[22.2813,4.1121,398.3395],[22.2664,4.1144,393.6164],[22.2402,4.1244,391.0],[22.2191,4.1264,395.2847],[22.1982,4.1351,390.5],[22.187,4.143,390.5],[22.164,4.154,390.5],[22.127,4.192,392.1895],[22.095,4.212,393.7616],[22.0689,4.2149,394.1238],[22.0588,4.22,389.5],[22.0313,4.2217,409.332],[22.007,4.239,393.39],[21.993,4.24,394.5955],[21.9822,4.237,416.0216]]]]}
,"properties": {"GID_1": "COD.20_1","GID_0": "COD","country": "DemocraticRepublicoftheCongo","province": "Nord-Ubangi","VARNAME_1": "NA","NL_NAME_1": "NA","TYPE_1": "Province","ENGTYPE_1": "Province","CC_1": "NA","HASC_1": "CD.NU","ISO_1": "NA","name": "Nord-Ubangi.province","area_km2": 54418.71,"hist_schema_id": "Elevation0-9000","hist_area_km2": {"350": 425.03,"375": 5377.58,"400": 11580.04,"425": 10134.97,"450": 8280.85,"475": 5937.47,"500": 4427.81,"525": 3469.01,"550": 2510.5,"575": 1120.54,"600": 632.22,"625": 412.96,"650": 108.87,"675": 0.85}}}