{"type":"Feature","properties":{"GID_1":"COD.13_1","GID_0":"COD","country":"DemocraticRepublicoftheCongo","province":"Kwilu","VARNAME_1":"NA","NL_NAME_1":"NA","TYPE_1":"Province","ENGTYPE_1":"Province","CC_1":"NA","HASC_1":"CD.KU","ISO_1":"CD-KL","name":"Kwilu.province"},
"geometry":{"type": "MultiPolygon","coordinates": [[[[20.1938,-5.157,391.0],[20.1934,-5.1498,397.4727],[20.1907,-5.1456,392.4191],[20.1862,-5.129,393.2797],[20.1796,-5.1216,393.2879],[20.1785,-5.1115,388.5],[20.1827,-5.0973,404.2943],[20.1822,-5.0931,405.2626],[20.1793,-5.0887,399.6229],[20.1697,-5.0843,386.0],[20.1683,-5.0808,385.5],[20.1702,-5.068,385.0],[20.1686,-5.062,391.2467],[20.164,-5.0578,384.0],[20.151,-5.0529,383.0],[20.1465,-5.0434,382.5],[20.1398,-5.0354,382.0],[20.1399,-5.0181,381.0],[20.1441,-5.0062,380.375],[20.1432,-4.9995,437.362],[20.1314,-4.9785,379.0],[20.1296,-4.9723,475.0761],[20.1191,-4.9655,411.9771],[20.1152,-4.9591,394.0905],[20.1101,-4.9314,383.5225],[20.1079,-4.904,432.6832],[20.1021,-4.8898,384.5303],[20.1012,-4.8831,397.843],[20.1026,-4.8711,401.1495],[20.0912,-4.8522,390.949],[20.0913,-4.8462,408.5134],[20.0847,-4.8285,371.5],[20.0859,-4.822,404.3388],[20.0784,-4.8116,386.822],[20.0691,-4.7888,411.8358],[20.0558,-4.7823,389.885],[20.058,-4.7563,372.2276],[20.0606,-4.7485,445.4058],[20.0508,-4.7404,380.7518],[20.0496,-4.7371,385.1514],[20.0566,-4.7291,372.6207],[20.06,-4.7213,367.8213],[20.0589,-4.7149,370.5553],[20.0519,-4.7008,364.0],[20.0551,-4.6909,378.9193],[20.0545,-4.6866,368.9077],[20.0568,-4.6838,381.823],[20.0667,-4.6825,366.5186],[20.0692,-4.6797,380.3952],[20.0709,-4.6685,424.07],[20.0649,-4.662,378.3701],[20.0609,-4.6502,361.25],[20.062,-4.6456,361.0],[20.069,-4.6369,367.7786],[20.0667,-4.6307,376.8079],[20.0565,-4.6182,362.0251],[20.0639,-4.6017,368.3113],[20.0621,-4.595,367.5379],[20.0693,-4.584,357.5],[20.0735,-4.5712,369.7775],[20.0813,-4.5648,360.7115],[20.0848,-4.5581,368.0017],[20.0855,-4.5415,368.8543],[20.0954,-4.5409,364.7854],[20.1024,-4.5283,374.866],[20.1111,-4.5203,373.0373],[20.113,-4.5086,425.0974],[20.1192,-4.5056,368.8234],[20.1248,-4.5001,402.0546],[20.1239,-4.4937,478.7996],[20.1145,-4.4849,372.3597],[20.1093,-4.4766,390.1265],[20.0992,-4.476,447.9935],[20.0923,-4.471,372.2327],[20.0901,-4.4654,365.0272],[20.0922,-4.4558,418.01],[20.0881,-4.4435,374.7022],[20.0932,-4.4344,371.4216],[20.0871,-4.4189,431.6394],[20.0748,-4.4021,371.3701],[20.0719,-4.3873,428.8152],[20.0669,-4.3813,443.1692],[20.0649,-4.3741,397.0837],[20.0619,-4.3698,420.0394],[20.0518,-4.3649,430.3988],[20.0473,-4.3602,408.5467],[20.0437,-4.3529,372.147],[20.0435,-4.342,391.7535],[20.0406,-4.3317,366.7422],[20.045,-4.3149,392.6146],[20.0434,-4.3114,390.9737],[20.0377,-4.3098,387.0356],[20.0336,-4.3056,359.4699],[20.033,-4.2927,345.8872],[20.038,-4.2859,341.0],[20.0335,-4.2737,424.2924],[20.0306,-4.2697,392.4336],[20.0292,-4.2614,432.5984],[20.0181,-4.2492,386.0732],[20.0179,-4.2333,396.7681],[20.01,-4.2222,384.7447],[20.0047,-4.2196,383.778],[20.0011,-4.2116,381.9434],[19.9963,-4.2065,369.6202],[19.9892,-4.2039,358.9474],[19.9853,-4.2004,356.382],[19.9801,-4.1838,373.5031],[19.965699999999998,-4.1739,393.0869],[19.9584,-4.1745,364.5122],[19.9499,-4.182,370.088],[19.9448,-4.1804,402.8298],[19.9414,-4.1772,413.8123],[19.938,-4.1668,422.6826],[19.9241,-4.1547,355.8746],[19.9154,-4.1512,386.3962],[19.9024,-4.15,381.727],[19.8909,-4.1435,357.8615],[19.8862,-4.1317,373.796],[19.8801,-4.1243,355.1734],[19.8739,-4.1121,353.0468],[19.8562,-4.0922,363.8118],[19.8507,-4.0896,362.9988],[19.8394,-4.0912,354.3589],[19.8282,-4.0904,353.1265],[19.8257,-4.0922,349.0514],[19.8209,-4.0913,352.7882],[19.8113,-4.0878,347.4763],[19.8017,-4.0788,343.9839],[19.7802,-4.0662,366.7084],[19.7699,-4.0661,372.2537],[19.7644,-4.0686,376.3387],[19.7602,-4.073,350.7433],[19.7579,-4.0725,358.7128],[19.7554,-4.0674,356.9008],[19.7341,-4.0636,387.7758],[19.7303,-4.0606,385.8302],[19.7126,-4.06,382.6314],[19.7062,-4.0561,400.7274],[19.6982,-4.0551,394.8624],[19.6888,-4.0585,352.3192],[19.6709,-4.0579,349.5932],[19.6643,-4.0519,346.4628],[19.6338,-4.0469,342.5978],[19.6233,-4.0422,344.6029],[19.6158,-4.0408,343.2703],[19.605,-4.0419,332.0],[19.5963,-4.0368,347.6092],[19.5881,-4.0282,340.7022],[19.5833,-4.0176,354.2404],[19.5685,-4.0037,367.4086],[19.5603,-4.0034,350.4794],[19.5543,-3.9995,377.2625],[19.5482,-3.9992,353.1113],[19.5374,-3.9924,335.4128],[19.5347,-3.9878,350.7072],[19.5016,-3.9736,331.5079],[19.4975,-3.9671,355.1077],[19.4778,-3.952,376.5166],[19.4621,-3.9464,359.7854],[19.4554,-3.9477,387.3074],[19.4517,-3.9468,390.7723],[19.442,-3.9325,350.2727],[19.426,-3.9255,386.2075],[19.3954,-3.9062,381.2044],[19.3831,-3.8939,351.1007],[19.373,-3.8931,348.2819],[19.3689,-3.8913,346.1044],[19.3563,-3.881,360.4365],[19.3527,-3.876,388.7643],[19.3205,-3.8573,350.1185],[19.3022,-3.8568,325.5],[19.2823,-3.8435,337.753],[19.2754,-3.8346,343.4618],[19.2629,-3.8267,330.5591],[19.2444,-3.8232,324.0],[19.23,-3.8123,325.4946],[19.2195,-3.8088,333.136],[19.202,-3.7969,326.4621],[19.1786,-3.7919,324.1066],[19.1594,-3.7817,331.3278],[19.1551,-3.7757,340.3864],[19.1466,-3.7738,330.2561],[19.1313,-3.7656,324.2788],[19.1047,-3.7671,322.5],[19.0951,-3.7661,322.5],[19.0835,-3.7593,322.0],[19.0654,-3.7539,321.5],[19.0579,-3.7488,341.7534],[19.0483,-3.7368,346.6491],[19.0417,-3.7319,341.8792],[19.0191,-3.7253,342.8832],[19.0,-3.7115,336.7844],[18.9883,-3.7103,321.5],[18.9759,-3.6995,334.1372],[18.9639,-3.6989,321.5],[18.9545,-3.6953,321.0],[18.9368,-3.6851,332.2182],[18.9315,-3.6791,340.2292],[18.9074,-3.6729,343.3616],[18.8839,-3.6608,337.985],[18.8686,-3.6591,328.3062],[18.8612,-3.6598,319.5],[18.8474,-3.6516,321.918],[18.833,-3.6508,329.7435],[18.8284,-3.6483,333.1616],[18.816,-3.6475,331.6752],[18.8054,-3.6439,319.786],[18.7994,-3.64,318.0],[18.7926,-3.6407,318.0],[18.7868,-3.6383,318.0],[18.7836,-3.6387,318.0],[18.7709,-3.6255,322.2561],[18.7659,-3.6239,320.0053],[18.745,-3.624,317.0],[18.7368,-3.6216,318.4277],[18.7262,-3.6149,317.0],[18.7211,-3.6159,316.5],[18.7152,-3.6233,316.5],[18.7118,-3.6236,316.5],[18.6842,-3.6116,317.1734],[18.6741,-3.6089,316.8824],[18.6663,-3.5995,316.7532],[18.658,-3.5952,316.6783],[18.6465,-3.5962,315.5],[18.6422,-3.598,315.5],[18.63,-3.5875,315.0],[18.6185,-3.5867,315.8056],[18.6155,-3.5807,330.9781],[18.604,-3.5709,322.1131],[18.5872,-3.5673,316.0771],[18.5813,-3.5685,315.8003],[18.5653,-3.5833,314.9731],[18.5525,-3.5834,313.5],[18.5499,-3.5764,314.7425],[18.5473,-3.5774,314.9259],[18.542,-3.5854,313.5],[18.5344,-3.5863,313.5],[18.5245,-3.5797,314.4607],[18.511,-3.5777,313.0],[18.502,-3.5736,313.0],[18.4874,-3.5744,312.5],[18.4814,-3.5779,312.5],[18.469,-3.5718,314.1698],[18.4628,-3.5709,312.7458],[18.4541,-3.5641,312.0],[18.4479,-3.5636,313.1399],[18.4413,-3.5683,313.1041],[18.4378,-3.5665,313.5359],[18.4378,-3.5593,313.4377],[18.4251,-3.5523,313.0333],[18.4129,-3.5397,313.6363],[18.4033,-3.5368,312.4464],[18.4019,-3.5382,312.5442],[18.4038,-3.5448,312.5667],[18.3958,-3.5465,311.6129],[18.3925,-3.5433,312.2713],[18.3955,-3.5419,312.0006],[18.3982,-3.5382,312.2969],[18.3978,-3.5366,312.1292],[18.3909,-3.5391,312.605],[18.3631,-3.5306,311.4786],[18.3569,-3.5223,310.0],[18.3552,-3.5164,311.6832],[18.347,-3.5141,309.5],[18.3419,-3.499,313.206],[18.3218,-3.489,318.167],[18.3122,-3.4858,312.2643],[18.3097,-3.4833,314.4661],[18.3055,-3.4736,318.3278],[18.3011,-3.4698,316.3107],[18.294,-3.4682,308.5],[18.2816,-3.4586,308.8752],[18.2731,-3.4573,314.1291],[18.2755,-3.4457,319.3699],[18.2683,-3.4283,315.4165],[18.2628,-3.4242,309.5962],[18.2527,-3.4206,308.2498],[18.2488,-3.4153,308.1836],[18.2462,-3.4038,309.9516],[18.2416,-3.3995,309.2469],[18.2269,-3.4032,308.808],[18.2143,-3.4042,308.9312],[18.2086,-3.4027,306.8239],[18.202,-3.4057,308.7839],[18.194,-3.414,306.9875],[18.1867,-3.4178,306.0],[18.1789,-3.4185,308.5078],[18.1737,-3.4218,308.4328],[18.1712,-3.4257,308.2277],[18.1692,-3.4356,305.5],[18.1662,-3.4411,305.5],[18.1566,-3.4472,305.5],[18.1511,-3.446,306.6973],[18.1382,-3.4351,307.8342],[18.1092,-3.4021,312.0839],[18.0941,-3.4047,304.0],[18.0851,-3.4032,303.5],[18.0681,-3.3849,311.2491],[18.0435,-3.3774,303.0],[18.0341,-3.3782,302.5],[18.0131,-3.387,302.0],[18.0,-3.3853,311.2084],[17.9918,-3.3823,302.0],[17.9678,-3.3905,307.2004],[17.9575,-3.4,301.5],[17.9525,-3.4026,301.5],[17.938,-3.4029,304.7332],[17.9282,-3.4101,301.5],[17.9205,-3.4104,301.5],[17.9154,-3.4125,301.5],[17.9058,-3.4111,310.8349],[17.9026,-3.4125,313.3401],[17.8785,-3.4136,304.2645],[17.8699,-3.4164,301.0],[17.8601,-3.4227,301.0],[17.8495,-3.4253,301.0],[17.8447,-3.4246,301.0],[17.8325,-3.4182,311.5025],[17.8265,-3.4095,305.4572],[17.8228,-3.3918,311.8049],[17.8193,-3.387,321.6035],[17.7991,-3.3818,302.8237],[17.7584,-3.363,302.4196],[17.755,-3.3602,300.923],[17.7511,-3.3533,301.3697],[17.7396,-3.3458,304.8956],[17.7193,-3.3229,299.5649],[17.711,-3.3193,306.7022],[17.7046,-3.3189,306.4888],[17.6993,-3.3205,303.7068],[17.6927,-3.3274,306.2024],[17.6859,-3.3318,306.3523],[17.6797,-3.3316,298.0],[17.6611,-3.3133,303.6085],[17.6569,-3.312,303.2164],[17.6468,-3.3136,302.0618],[17.6333,-3.3008,300.6929],[17.6275,-3.2988,299.6215],[17.6147,-3.2993,300.8488],[17.6028,-3.3051,301.6097],[17.5971,-3.3059,302.4053],[17.5854,-3.3055,300.5573],[17.5733,-3.3028,304.367],[17.5572,-3.2936,306.6766],[17.5309,-3.2646,313.1395],[17.5272,-3.2623,315.3916],[17.5031,-3.2504,298.2399],[17.4992,-3.2507,307.6988],[17.4924,-3.2546,303.6822],[17.4848,-3.2547,300.8981],[17.4731,-3.2469,299.1255],[17.4637,-3.2456,297.7468],[17.4423,-3.237,301.2552],[17.4329,-3.2315,312.6406],[17.4315,-3.2278,303.7409],[17.4319,-3.2184,294.7631],[17.4301,-3.2156,295.3894],[17.4257,-3.2124,308.4032],[17.42,-3.2118,303.4559],[17.4113,-3.2136,313.61],[17.4067,-3.2123,302.071],[17.4016,-3.2084,306.8192],[17.4,-3.2015,295.1602],[17.3975,-3.1981,298.8437],[17.3757,-3.1917,303.2746],[17.3663,-3.1978,302.4847],[17.3537,-3.1985,307.4682],[17.3562,-3.2141,292.5],[17.3776,-3.2481,292.5],[17.3809,-3.2649,295.7657],[17.366,-3.3054,294.0],[17.3603,-3.3126,294.0],[17.3466,-3.3219,294.5],[17.3391,-3.3293,295.1868],[17.3386,-3.3325,295.0],[17.3421,-3.338,295.0],[17.3522,-3.3492,297.1421],[17.358,-3.3589,296.0],[17.3592,-3.3635,296.0],[17.3559,-3.3788,296.5],[17.3531,-3.3863,296.5],[17.3484,-3.3911,296.5],[17.3344,-3.391,297.5342],[17.3303,-3.3961,298.1911],[17.3265,-3.4175,297.5],[17.3202,-3.4329,298.0],[17.3085,-3.4431,298.0],[17.3015,-3.4467,298.5],[17.2863,-3.4583,298.5],[17.2801,-3.4716,299.0],[17.2744,-3.4787,299.0],[17.2733,-3.4895,299.5],[17.2786,-3.5061,310.6819],[17.2799,-3.53,301.1411],[17.2822,-3.5355,300.833],[17.2868,-3.5396,301.7723],[17.2908,-3.547,301.9995],[17.2913,-3.553,301.0],[17.2865,-3.5705,301.9833],[17.2868,-3.5744,303.7079],[17.2958,-3.5872,302.7075],[17.305,-3.5945,302.9937],[17.3148,-3.6272,304.8528],[17.3183,-3.6315,304.1545],[17.3288,-3.6379,303.7485],[17.3326,-3.6494,312.9838],[17.3321,-3.6533,313.0404],[17.3292,-3.6586,304.5495],[17.3138,-3.6615,304.5085],[17.3079,-3.6638,304.9878],[17.3036,-3.6677,305.1633],[17.3036,-3.6755,304.9677],[17.3069,-3.6903,305.3719],[17.3058,-3.6958,305.5187],[17.3019,-3.7025,305.6333],[17.2978,-3.7062,305.7997],[17.2841,-3.7125,306.374],[17.2782,-3.7185,306.6528],[17.2673,-3.7399,307.0295],[17.2592,-3.7678,308.0829],[17.2409,-3.7856,308.397],[17.2357,-3.7972,308.0],[17.2344,-3.8124,324.344],[17.2363,-3.8216,328.6767],[17.2337,-3.8259,322.8741],[17.2192,-3.8403,310.1079],[17.2174,-3.8458,311.7824],[17.2191,-3.87,309.9994],[17.2174,-3.8909,312.5338],[17.207,-3.9126,316.757],[17.1992,-3.9205,321.4728],[17.192,-3.9366,335.7324],[17.1881,-3.9401,320.1188],[17.1743,-3.941,339.2173],[17.17,-3.9441,342.3382],[17.1548,-3.9655,383.4399],[17.1381,-3.981,359.4558],[17.1341,-3.9995,419.369],[17.1268,-4.011,407.3552],[17.1083,-4.0254,401.9738],[17.0991,-4.0282,428.2703],[17.081,-4.0234,350.1072],[17.0596,-4.0072,344.581],[17.0438,-4.0038,392.1251],[17.0327,-3.996,399.3794],[17.0224,-3.9841,333.2504],[17.0148,-3.9818,363.4397],[16.9902,-3.9815,390.0709],[16.9841,-3.9857,382.6322],[16.9737,-3.9804,352.7187],[16.9593,-3.9833,362.97],[16.9469,-3.9833,384.533],[16.9325,-3.9868,363.2644],[16.9154,-4.0035,395.8566],[16.9104,-4.0215,379.9076],[16.8783,-4.057,453.7067],[16.8728,-4.0617,465.8759],[16.8634,-4.0651,458.7588],[16.8547,-4.0737,385.5106],[16.8273,-4.0945,478.1783],[16.8218,-4.0971,435.71],[16.8173,-4.0969,425.7275],[16.7954,-4.0841,329.4],[16.7847,-4.0841,430.1832],[16.773,-4.0872,493.8574],[16.7611,-4.0962,491.3289],[16.7474,-4.1016,417.5311],[16.7305,-4.1173,502.2251],[16.7153,-4.1192,407.7689],[16.7105,-4.1229,397.353],[16.7026,-4.1399,422.1738],[16.6971,-4.1476,469.9767],[16.693,-4.1503,416.2097],[16.6884,-4.1511,442.1091],[16.6808,-4.1481,411.8373],[16.6749,-4.1428,351.6673],[16.6623,-4.1431,372.1901],[16.634,-4.1333,333.5236],[16.6177,-4.1366,393.9969],[16.6127,-4.1343,369.7083],[16.6086,-4.1348,386.0264],[16.5965,-4.1422,369.8327],[16.5857,-4.143,357.8962],[16.5786,-4.1481,425.3515],[16.5665,-4.153,409.7722],[16.5534,-4.1606,351.7707],[16.547,-4.1673,418.2084],[16.5128,-4.1779,341.6909],[16.502,-4.1838,339.722],[16.4962,-4.1847,330.0],[16.4945,-4.1928,330.0],[16.4978,-4.2014,344.3323],[16.4975,-4.2048,334.6649],[16.4935,-4.2056,365.7025],[16.4891,-4.214,344.0473],[16.4855,-4.2174,349.9637],[16.4823,-4.2262,364.7791],[16.4779,-4.2304,331.0],[16.4787,-4.2348,345.5246],[16.4841,-4.2389,350.2339],[16.4885,-4.2379,331.5],[16.4932,-4.2396,352.3577],[16.4936,-4.2422,382.8012],[16.4897,-4.2509,406.9868],[16.49,-4.2592,342.3569],[16.4942,-4.2642,332.0],[16.5045,-4.2693,332.5],[16.5061,-4.2787,371.5394],[16.51,-4.2847,408.4995],[16.5217,-4.3121,336.4343],[16.5221,-4.3238,348.8832],[16.5173,-4.3285,342.8705],[16.5164,-4.3333,377.2487],[16.5269,-4.3509,339.1614],[16.5324,-4.3568,355.3797],[16.5315,-4.3666,334.5],[16.527,-4.3749,340.1846],[16.5201,-4.3802,397.7348],[16.5165,-4.3877,341.8663],[16.5109,-4.3885,335.5],[16.5091,-4.3907,348.7563],[16.5083,-4.394,338.4946],[16.515,-4.4061,335.5],[16.5152,-4.41,337.9247],[16.5112,-4.4121,341.8976],[16.5057,-4.412,347.0089],[16.5033,-4.4166,336.0],[16.4978,-4.4215,352.1442],[16.4964,-4.4344,340.788],[16.4914,-4.4437,346.1489],[16.498,-4.4556,336.5],[16.4969,-4.4677,341.2723],[16.4987,-4.4738,340.739],[16.4942,-4.4835,337.5],[16.5149,-4.486,403.0718],[16.528,-4.4994,525.0394],[16.5554,-4.5228,575.0938],[16.5877,-4.5474,622.469],[16.603,-4.5559,610.69],[16.6073,-4.5559,613.449],[16.6098,-4.5534,615.0023],[16.6117,-4.54,689.5822],[16.6115,-4.4963,695.2477],[16.6063,-4.4117,658.9664],[16.608,-4.3952,629.9993],[16.6117,-4.381,599.7191],[16.6166,-4.3729,525.2302],[16.6209,-4.3704,538.4009],[16.6284,-4.3695,542.6944],[16.636,-4.3623,431.7392],[16.6474,-4.3606,509.0129],[16.6541,-4.3581,438.6485],[16.6584,-4.3535,414.5667],[16.663,-4.3532,531.1144],[16.6659,-4.3504,524.217],[16.6687,-4.3417,392.4332],[16.6798,-4.3292,362.4259],[16.6897,-4.3299,361.3541],[16.6954,-4.3284,359.6669],[16.7027,-4.3224,420.9513],[16.7081,-4.3339,466.2763],[16.7132,-4.3521,389.0302],[16.7198,-4.3482,422.5806],[16.7241,-4.3422,425.0808],[16.7289,-4.3303,503.3943],[16.7313,-4.3284,636.7658],[16.7371,-4.3284,651.4554],[16.74,-4.3314,625.1249],[16.7431,-4.3357,598.5977],[16.7447,-4.3449,605.8482],[16.7454,-4.379,467.3375],[16.7469,-4.3819,470.1265],[16.7537,-4.3823,629.9688],[16.758,-4.3806,665.077],[16.7639,-4.3752,671.663],[16.775,-4.3578,667.2695],[16.782,-4.3535,636.1191],[16.7859,-4.3528,636.0145],[16.7958,-4.3556,561.0243],[16.8031,-4.3623,557.4326],[16.8073,-4.3595,546.6799],[16.819,-4.359,603.7583],[16.826,-4.3543,561.7576],[16.8398,-4.3543,578.3068],[16.8444,-4.3517,546.0612],[16.8489,-4.3469,466.1177],[16.8519,-4.3363,526.288],[16.8518,-4.3144,448.1493],[16.8563,-4.2944,569.7789],[16.8629,-4.2973,581.6597],[16.8924,-4.3312,546.8476],[16.9076,-4.344,414.6757],[16.9174,-4.3566,398.0615],[16.9252,-4.3743,405.6591],[16.9282,-4.388,458.756],[16.9357,-4.4011,418.9677],[16.9386,-4.4037,375.6525],[16.9458,-4.4037,415.2646],[16.9628,-4.398,372.7809],[16.9672,-4.3984,373.786],[16.9701,-4.401,396.6253],[16.973,-4.4096,386.8722],[16.9734,-4.4291,454.8182],[16.9603,-4.4469,523.1572],[16.9405,-4.4619,504.1049],[16.9393,-4.4662,519.6963],[16.9406,-4.481,530.5477],[16.9463,-4.4951,529.7272],[16.9509,-4.501,475.1877],[16.9596,-4.5055,474.3534],[16.9841,-4.5034,402.6291],[16.9951,-4.4974,455.6078],[17.0122,-4.4789,485.3007],[17.0243,-4.4791,433.4494],[17.0319,-4.4834,419.2162],[17.0361,-4.4839,387.7491],[17.0543,-4.5045,381.7267],[17.0582,-4.5125,397.7811],[17.0675,-4.5249,358.7182],[17.0753,-4.5325,374.3831],[17.0948,-4.54,363.9845],[17.1068,-4.55,355.4148],[17.1192,-4.5518,346.3467],[17.1253,-4.5569,363.56],[17.1406,-4.565,356.0688],[17.1536,-4.5665,450.6024],[17.1675,-4.5608,497.6703],[17.1736,-4.5554,488.8896],[17.1779,-4.5488,473.1089],[17.1813,-4.5422,410.6211],[17.1907,-4.5115,399.8255],[17.1951,-4.4817,391.1816],[17.2019,-4.4568,508.9337],[17.2133,-4.4337,453.5466],[17.2265,-4.4167,463.6057],[17.2434,-4.3995,501.924],[17.259,-4.3881,462.7291],[17.2847,-4.3881,370.143],[17.3007,-4.3855,399.7142],[17.32,-4.3785,508.9912],[17.3406,-4.3685,475.0426],[17.3615,-4.3548,503.5742],[17.3902,-4.3319,513.2183],[17.4237,-4.3014,469.01],[17.4284,-4.2987,446.1869],[17.4575,-4.2921,462.4711],[17.494,-4.2552,417.625],[17.5074,-4.2434,444.1154],[17.5179,-4.2378,404.5604],[17.5527,-4.2414,453.4625],[17.6007,-4.2362,446.0469],[17.6122,-4.2331,422.7114],[17.624,-4.2432,453.2539],[17.6254,-4.2469,454.6335],[17.6245,-4.257,458.3411],[17.6298,-4.2634,448.1626],[17.6365,-4.2772,465.9142],[17.6384,-4.2894,439.0613],[17.6341,-4.2945,481.896],[17.6326,-4.3094,502.7164],[17.6261,-4.326,468.6191],[17.6262,-4.3299,473.7564],[17.6277,-4.334,450.3412],[17.6328,-4.3391,416.2169],[17.6382,-4.3413,442.0519],[17.652,-4.341,448.5868],[17.6809,-4.3342,437.5491],[17.7215,-4.3203,456.2311],[17.7608,-4.2992,365.0949],[17.7912,-4.2757,412.4444],[17.7939,-4.2751,411.451],[17.8065,-4.283,386.2662],[17.82,-4.2989,388.7993],[17.8251,-4.3096,360.6425],[17.8257,-4.3169,336.1389],[17.8221,-4.3268,395.669],[17.8034,-4.3363,401.542],[17.7972,-4.344,394.672],[17.7933,-4.3463,349.102],[17.7773,-4.3494,364.2691],[17.7748,-4.3533,375.1563],[17.773,-4.3639,341.2323],[17.7701,-4.3687,366.8172],[17.7484,-4.3843,351.9922],[17.7433,-4.3836,343.375],[17.7392,-4.3875,369.4712],[17.7362,-4.3869,364.3617],[17.7307,-4.3818,345.3708],[17.728,-4.3819,348.01],[17.7246,-4.3904,385.587],[17.7205,-4.3936,359.7462],[17.7156,-4.3927,342.6068],[17.7115,-4.3884,345.9523],[17.7087,-4.3889,349.0274],[17.7042,-4.4045,386.7654],[17.7052,-4.4119,354.8185],[17.7041,-4.416,351.9845],[17.696,-4.4087,346.651],[17.6938,-4.4216,354.2123],[17.6842,-4.4293,344.1324],[17.6868,-4.4373,370.5052],[17.6797,-4.4454,352.2277],[17.6747,-4.4558,357.9203],[17.6708,-4.4533,352.4525],[17.6671,-4.4462,372.131],[17.663,-4.4485,341.9091],[17.6612,-4.4559,348.5811],[17.6631,-4.4653,341.3358],[17.6723,-4.4675,372.9067],[17.6634,-4.4752,350.7348],[17.6576,-4.4699,376.5309],[17.6525,-4.4706,366.8491],[17.6469,-4.4799,351.0104],[17.6742,-4.4825,347.3162],[17.677,-4.4857,348.7358],[17.6752,-4.497,345.6506],[17.6766,-4.5018,350.4814],[17.6895,-4.5146,355.0195],[17.6859,-4.519,371.6789],[17.693,-4.5224,361.9732],[17.6967,-4.5304,398.1144],[17.6961,-4.5371,365.5806],[17.6883,-4.5445,373.7833],[17.6867,-4.5482,360.9195],[17.6881,-4.5505,360.715],[17.6815,-4.5581,372.8912],[17.6769,-4.557,384.7473],[17.6743,-4.5513,363.7422],[17.6704,-4.5495,351.1842],[17.6464,-4.5625,355.6209],[17.6522,-4.5659,368.4061],[17.6527,-4.5687,363.4465],[17.6433,-4.58,383.3055],[17.6371,-4.5795,354.9028],[17.6346,-4.5821,366.7112],[17.6356,-4.6014,356.924],[17.6409,-4.6032,367.3128],[17.6425,-4.6058,370.2757],[17.6373,-4.6143,362.2912],[17.6376,-4.6283,373.7781],[17.6328,-4.6295,358.5687],[17.6315,-4.633,370.9404],[17.6322,-4.6383,356.8169],[17.6228,-4.6505,359.6121],[17.6164,-4.6533,370.2169],[17.6185,-4.6606,403.1383],[17.6165,-4.6648,398.2714],[17.6048,-4.663,360.2619],[17.6014,-4.6681,374.8616],[17.6021,-4.6752,387.3049],[17.6003,-4.678,396.7248],[17.5923,-4.6785,353.946],[17.5865,-4.6813,373.3397],[17.5882,-4.6898,372.4562],[17.5868,-4.693,387.5145],[17.5816,-4.694,372.5558],[17.5784,-4.6965,366.7806],[17.5766,-4.7083,388.6546],[17.5716,-4.7145,365.8469],[17.5644,-4.7495,371.7666],[17.5612,-4.7528,365.0373],[17.5541,-4.7558,362.7347],[17.5533,-4.7634,365.9832],[17.5453,-4.7694,366.8471],[17.5407,-4.7791,363.0866],[17.5417,-4.7823,373.0797],[17.5463,-4.7862,419.2994],[17.5466,-4.7956,403.168],[17.5464,-4.8009,370.7444],[17.5398,-4.8127,386.7169],[17.5414,-4.8155,366.3335],[17.546,-4.8168,367.2986],[17.5472,-4.8191,389.6887],[17.5364,-4.827,379.0941],[17.5347,-4.8475,370.6694],[17.5326,-4.8505,381.1968],[17.5235,-4.8519,364.0656],[17.5214,-4.854,366.1453],[17.5235,-4.859,376.6374],[17.5219,-4.8618,394.9761],[17.5174,-4.8653,377.4655],[17.5142,-4.874,403.5104],[17.5082,-4.8766,380.2736],[17.5041,-4.881,392.1862],[17.4998,-4.8898,397.9349],[17.5019,-4.8955,426.2914],[17.4988,-4.9098,412.6639],[17.5036,-4.9139,378.9434],[17.5043,-4.9176,382.6528],[17.5009,-4.927,404.8925],[17.5024,-4.9335,404.8682],[17.5067,-4.9369,411.5573],[17.5189,-4.9366,404.0585],[17.5191,-4.9398,407.0132],[17.5146,-4.9442,426.2648],[17.5135,-4.9479,383.7726],[17.5195,-4.966,415.3342],[17.5148,-4.9806,399.8806],[17.5164,-4.9902,389.4139],[17.5155,-4.9937,413.2762],[17.5105,-4.9967,416.4404],[17.5076,-5.0008,376.7624],[17.5046,-5.0103,371.6342],[17.5051,-5.0135,383.5234],[17.509,-5.0153,393.6129],[17.5097,-5.0179,395.5811],[17.5075,-5.0245,393.3755],[17.5093,-5.0305,375.4511],[17.5153,-5.0353,408.6406],[17.528,-5.0399,393.9795],[17.5257,-5.0445,400.6902],[17.5259,-5.0484,416.5275],[17.5297,-5.0582,404.4802],[17.5292,-5.0626,394.826],[17.5242,-5.0677,419.3513],[17.5213,-5.0751,421.1881],[17.5135,-5.0836,377.7716],[17.5149,-5.0862,381.5448],[17.5241,-5.0903,381.1461],[17.5283,-5.0955,402.3681],[17.5223,-5.102,393.487],[17.5254,-5.1082,444.4785],[17.5309,-5.1093,407.6445],[17.535,-5.1127,398.3787],[17.5378,-5.1134,402.8932],[17.541,-5.1111,421.7724],[17.5435,-5.1127,426.1892],[17.5367,-5.1213,413.2291],[17.539,-5.1247,379.753],[17.545,-5.1258,392.5051],[17.5411,-5.1389,433.0767],[17.5359,-5.1417,402.1212],[17.5327,-5.1549,405.4037],[17.5293,-5.1526,452.4921],[17.5261,-5.1528,433.0624],[17.5195,-5.1621,402.5895],[17.517,-5.1752,387.8344],[17.5141,-5.1791,408.0863],[17.5103,-5.181,414.8746],[17.5093,-5.1881,404.9327],[17.5015,-5.1951,407.3172],[17.4956,-5.1967,407.1139],[17.4921,-5.1999,414.0024],[17.491,-5.2039,414.0117],[17.4943,-5.2107,418.1378],[17.4911,-5.2183,406.9778],[17.4863,-5.2218,420.2354],[17.4822,-5.2281,448.2863],[17.4882,-5.2365,420.9342],[17.4873,-5.2379,424.1218],[17.4802,-5.2375,389.6756],[17.4802,-5.2483,436.4494],[17.4777,-5.2518,429.3341],[17.4807,-5.2573,426.7452],[17.4764,-5.2672,423.6325],[17.4813,-5.2801,461.908],[17.4811,-5.2847,444.8068],[17.4768,-5.2881,414.7029],[17.4812,-5.2932,459.8926],[17.4789,-5.2957,419.368],[17.4774,-5.3121,455.292],[17.4772,-5.3238,429.1949],[17.4793,-5.3332,422.0737],[17.4764,-5.339,442.5838],[17.4766,-5.3456,453.6085],[17.4725,-5.3473,437.8536],[17.4712,-5.3641,473.9234],[17.4687,-5.368,455.3325],[17.469,-5.3717,427.4473],[17.4752,-5.3783,485.4926],[17.4682,-5.3919,443.9718],[17.4707,-5.4011,408.833],[17.4744,-5.4036,429.855],[17.4775,-5.4144,479.1129],[17.4741,-5.4275,477.1687],[17.4713,-5.4283,461.1599],[17.4702,-5.4313,400.2735],[17.473,-5.4358,424.124],[17.4778,-5.4379,510.9318],[17.4788,-5.4436,445.22],[17.4871,-5.4489,505.7755],[17.4793,-5.4572,478.5891],[17.4793,-5.4627,473.7108],[17.4771,-5.4641,487.2429],[17.4748,-5.4717,539.6787],[17.4765,-5.4834,577.2029],[17.4852,-5.4887,524.4193],[17.485,-5.4963,511.0815],[17.4876,-5.5036,560.1417],[17.4918,-5.5084,475.6566],[17.5001,-5.513,584.5905],[17.5077,-5.5141,523.01],[17.5093,-5.5215,481.3596],[17.5141,-5.5205,503.6279],[17.5155,-5.5219,482.5168],[17.5135,-5.5253,470.1609],[17.5142,-5.5276,460.2376],[17.5201,-5.5281,485.1215],[17.5266,-5.5398,499.0296],[17.5342,-5.5457,485.5644],[17.5226,-5.5667,430.0919],[17.5243,-5.5704,460.1624],[17.5224,-5.5729,497.1159],[17.5234,-5.5773,568.9158],[17.5205,-5.5874,474.4472],[17.5231,-5.601,497.7697],[17.5217,-5.6065,445.8142],[17.5149,-5.6146,434.9034],[17.5197,-5.6192,490.8173],[17.5184,-5.6332,477.5437],[17.5207,-5.6382,466.8921],[17.521,-5.644,437.2391],[17.5161,-5.6617,486.5875],[17.5233,-5.6757,477.8581],[17.532,-5.686,499.1446],[17.5373,-5.6869,527.5399],[17.5399,-5.691,512.7361],[17.542,-5.6993,508.0621],[17.5402,-5.7078,512.7625],[17.5517,-5.7066,525.319],[17.5574,-5.7082,533.6182],[17.5655,-5.7063,547.9306],[17.5735,-5.7077,545.0432],[17.5797,-5.7046,576.9592],[17.5935,-5.7027,719.7144],[17.5999,-5.7036,576.7579],[17.606,-5.6934,735.2098],[17.6134,-5.692,661.4666],[17.615,-5.6966,671.0003],[17.6196,-5.6968,746.2706],[17.6245,-5.6998,697.4608],[17.6274,-5.6968,741.7755],[17.6304,-5.6975,728.945],[17.6314,-5.703,772.1306],[17.6357,-5.705,777.2012],[17.6374,-5.7119,787.244],[17.6416,-5.7197,847.2446],[17.6643,-5.6978,780.589],[17.6728,-5.6933,777.0593],[17.6786,-5.6933,718.8603],[17.6847,-5.6937,725.2656],[17.698,-5.7019,760.0243],[17.7101,-5.7026,812.303],[17.7328,-5.7097,831.0884],[17.7535,-5.7089,783.9081],[17.767,-5.7144,818.2403],[17.778199999999998,-5.7153,873.85],[17.7828,-5.7173,825.1465],[17.789,-5.7164,828.8142],[17.7954,-5.7133,801.7287],[17.8,-5.709,782.5563],[17.8159,-5.6806,841.3823],[17.8202,-5.6688,831.3905],[17.8309,-5.654,795.3928],[17.8458,-5.639,812.4191],[17.8496,-5.6286,775.9342],[17.8554,-5.6286,836.0345],[17.8767,-5.6366,762.0789],[17.913,-5.6388,784.8832],[17.9165,-5.6411,790.7148],[17.9131,-5.6478,775.0924],[17.9138,-5.6531,780.4533],[17.9125,-5.6572,737.9988],[17.914,-5.6663,783.1977],[17.9218,-5.6696,800.5897],[17.9505,-5.6987,797.3976],[17.9573,-5.7034,868.8105],[17.964,-5.7061,868.5446],[17.9861,-5.7059,795.5187],[18.0015,-5.7023,833.4755],[18.0282,-5.6909,733.2092],[18.0319,-5.7182,742.8605],[18.0828,-5.7197,822.08],[18.0889,-5.7203,869.7765],[18.0929,-5.7236,869.3947],[18.0901,-5.7419,781.2498],[18.0932,-5.7446,813.2323],[18.1163,-5.7523,849.4021],[18.1188,-5.7562,866.3245],[18.1193,-5.7615,803.9194],[18.1191,-5.7686,785.0934],[18.0999,-5.7943,766.3344],[18.0997,-5.8142,839.2446],[18.1048,-5.8204,878.5544],[18.1142,-5.8151,788.0834],[18.1294,-5.8018,818.8997],[18.1328,-5.8033,795.2469],[18.1392,-5.8145,763.1231],[18.14,-5.8293,853.9344],[18.1393,-5.837,819.6343],[18.1347,-5.8438,756.7328],[18.1168,-5.8542,802.8256],[18.1016,-5.8574,873.2985],[18.0974,-5.8606,829.6552],[18.097,-5.8651,865.286],[18.1041,-5.8722,776.1426],[18.1126,-5.8722,788.6426],[18.1234,-5.8693,800.4333],[18.1394,-5.8687,821.936],[18.1489,-5.8729,783.3708],[18.1631,-5.8836,736.04],[18.169,-5.8836,761.6112],[18.1731,-5.8812,636.2218],[18.1814,-5.8634,550.1211],[18.1798,-5.8576,533.0454],[18.1839,-5.8509,577.111],[18.1829,-5.8484,533.8818],[18.1788,-5.8505,528.8521],[18.1781,-5.847,535.3047],[18.1806,-5.8381,545.1608],[18.1856,-5.8332,577.986],[18.1844,-5.8268,537.2777],[18.1882,-5.8182,522.6323],[18.1857,-5.813,503.7944],[18.1981,-5.8076,530.4718],[18.2074,-5.7905,509.8709],[18.2043,-5.785,504.3558],[18.2043,-5.7818,469.3614],[18.211,-5.7804,473.0705],[18.2164,-5.7728,527.2341],[18.2234,-5.7697,580.1918],[18.2265,-5.7727,619.3458],[18.2329,-5.7842,683.2338],[18.2417,-5.8082,844.3074],[18.2453,-5.8266,848.436],[18.2442,-5.8609,861.0935],[18.2469,-5.8689,802.5844],[18.2497,-5.8701,780.118],[18.2543,-5.8684,782.1862],[18.2639,-5.8608,775.3251],[18.2693,-5.8446,754.6638],[18.2748,-5.8405,768.7987],[18.28,-5.8465,834.6948],[18.2757,-5.8557,814.6323],[18.2746,-5.8652,854.6544],[18.285,-5.8693,848.3694],[18.2943,-5.869,855.0609],[18.3092,-5.8635,852.9493],[18.3161,-5.8573,726.3088],[18.3221,-5.8371,768.4656],[18.3267,-5.8354,737.7061],[18.3412,-5.8342,703.9808],[18.3495,-5.8166,703.8098],[18.3685,-5.7978,707.6974],[18.3827,-5.7996,701.4836],[18.3922,-5.7813,694.0372],[18.3968,-5.7801,693.7579],[18.3995,-5.7951,708.5832],[18.4048,-5.8077,699.9955],[18.4127,-5.8141,703.2885],[18.4298,-5.8155,734.5953],[18.442,-5.8146,775.8615],[18.4466,-5.8161,737.96],[18.461,-5.8351,765.4948],[18.4705,-5.8389,802.7482],[18.4779,-5.844,833.9197],[18.4804,-5.8526,831.5632],[18.4902,-5.8659,744.4442],[18.519,-5.8663,778.5826],[18.5224,-5.8684,767.7375],[18.526,-5.8755,800.983],[18.535,-5.8867,848.657],[18.5394,-5.8853,851.3895],[18.5433,-5.8808,847.2925],[18.5546,-5.8572,782.8618],[18.5594,-5.8533,754.8817],[18.5649,-5.8533,741.5868],[18.5713,-5.8565,728.6439],[18.5632,-5.8856,742.9376],[18.5525,-5.8967,747.8951],[18.5486,-5.9089,759.3937],[18.5411,-5.914,763.3943],[18.5391,-5.9241,767.8797],[18.5459,-5.9416,824.2125],[18.5488,-5.9586,784.7418],[18.5484,-5.971,794.6009],[18.5463,-5.974,793.7094],[18.5462,-5.9791,815.589],[18.535,-5.9871,854.0555],[18.5328,-5.9912,857.9129],[18.5357,-5.9939,804.99],[18.5401,-5.9915,832.3979],[18.5535,-5.9892,775.6064],[18.5767,-5.9925,849.1485],[18.6443,-5.9731,821.4125],[18.6669,-5.9773,823.0311],[18.7002,-5.9786,631.092],[18.7054,-5.9812,572.3467],[18.7069,-5.9922,611.0696],[18.7032,-5.9946,579.6318],[18.7021,-5.9976,585.3622],[18.7028,-6.0091,645.8774],[18.6955,-6.0181,634.9482],[18.6963,-6.022,634.0547],[18.6933,-6.0266,579.6725],[18.6982,-6.0312,648.1861],[18.7003,-6.0383,617.0109],[18.7047,-6.0396,649.9258],[18.7063,-6.0502,632.549],[18.7101,-6.0564,736.6348],[18.7122,-6.066,743.2526],[18.7208,-6.0855,766.9659],[18.7269,-6.0938,804.8214],[18.7246,-6.0981,780.9232],[18.7249,-6.103,750.3109],[18.7306,-6.1078,755.2271],[18.7279,-6.1117,752.3357],[18.7294,-6.1225,753.0399],[18.7476,-6.138,758.6297],[18.771,-6.1309,854.5365],[18.7793,-6.1223,856.524],[18.7972,-6.1182,852.661],[18.8279,-6.0982,853.2386],[18.8346,-6.0973,853.7432],[18.8417,-6.1047,858.0846],[18.8383,-6.1133,859.8627],[18.8293,-6.123,837.6547],[18.8289,-6.1289,840.7206],[18.833,-6.1372,850.0486],[18.8379,-6.1423,791.442],[18.8456,-6.1459,850.2286],[18.8494,-6.1438,856.433],[18.8639,-6.1219,778.7113],[18.8689,-6.1201,779.2842],[18.872,-6.1243,828.5408],[18.87,-6.1965,864.2849],[18.8655,-6.2013,862.9285],[18.8603,-6.2001,866.6402],[18.8486,-6.1903,868.5651],[18.8386,-6.1843,854.0181],[18.8328,-6.184,862.6001],[18.8318,-6.189,859.4676],[18.8347,-6.2009,835.4827],[18.8417,-6.2128,808.797],[18.8673,-6.2463,862.1204],[18.8734,-6.246,800.4784],[18.879,-6.2436,855.6224],[18.8943,-6.2365,865.9412],[18.9014,-6.2309,824.8138],[18.909,-6.2274,785.0944],[18.9165,-6.2263,793.6908],[18.9234,-6.2278,810.1791],[18.9251,-6.232,811.4958],[18.9228,-6.24,829.358],[18.9263,-6.2423,853.1228],[18.9347,-6.2556,829.2205],[18.9301,-6.2616,783.4857],[18.9315,-6.2655,785.4291],[18.9309,-6.2738,822.4976],[18.9334,-6.2772,818.8952],[18.933,-6.282,803.6802],[18.9361,-6.2905,839.6143],[18.932,-6.2942,791.9173],[18.9318,-6.297,803.9908],[18.944,-6.3083,874.1918],[18.9489,-6.3107,856.5462],[18.9556,-6.3119,835.3501],[18.9696,-6.3072,875.8895],[18.9934,-6.2847,844.5621],[19.0058,-6.2782,790.1986],[19.0242,-6.2744,814.3465],[19.0521,-6.2721,865.5462],[19.0554,-6.2701,867.8517],[19.0592,-6.2662,865.3864],[19.0696,-6.2337,796.6388],[19.0769,-6.2189,810.8062],[19.0822,-6.2159,826.2277],[19.0954,-6.2124,805.8706],[19.098,-6.189,765.9617],[19.1011,-6.181,759.0288],[19.1064,-6.1766,796.3562],[19.1114,-6.1754,840.5198],[19.1329,-6.1947,844.1899],[19.1446,-6.1962,846.8395],[19.1576,-6.1883,845.4272],[19.1786,-6.1824,844.1611],[19.1824,-6.1764,843.7652],[19.1824,-6.1681,842.592],[19.189,-6.148,830.0254],[19.2011,-6.1322,830.5295],[19.2059,-6.1228,827.9147],[19.2056,-6.1078,790.2514],[19.2172,-6.0932,819.1906],[19.2244,-6.104,818.7717],[19.235,-6.1085,781.5719],[19.2518,-6.1112,824.7619],[19.2639,-6.1174,827.0094],[19.3074,-6.1347,676.2855],[19.3153,-6.1341,687.9051],[19.321,-6.1316,681.8973],[19.3307,-6.1215,644.9464],[19.3372,-6.1202,659.2404],[19.356,-6.1208,731.3882],[19.3652,-6.1245,644.276],[19.3863,-6.1224,689.1539],[19.3921,-6.1238,724.844],[19.3911,-6.1298,653.8705],[19.3957,-6.1323,777.411],[19.3964,-6.1365,797.5527],[19.3943,-6.1415,724.3639],[19.3827,-6.1483,637.4827],[19.3813,-6.1529,668.325],[19.382,-6.1575,678.985],[19.3684,-6.1689,652.2488],[19.3347,-6.1848,629.0103],[19.3301,-6.1901,614.1286],[19.3191,-6.2144,805.1069],[19.3161,-6.2141,740.3877],[19.3136,-6.2113,651.1595],[19.3102,-6.2159,702.9382],[19.3056,-6.2173,643.077],[19.3048,-6.2322,812.7288],[19.2947,-6.2593,813.2527],[19.2984,-6.263,814.9216],[19.2992,-6.2807,812.9216],[19.3026,-6.2878,745.3967],[19.3108,-6.2973,828.4328],[19.3133,-6.3026,832.031],[19.3143,-6.3251,673.2342],[19.3207,-6.3348,667.0787],[19.324,-6.3549,671.2373],[19.3314,-6.3538,695.9146],[19.332,-6.3678,712.372],[19.3305,-6.3836,671.1157],[19.3372,-6.3822,683.9435],[19.3425,-6.3831,691.0566],[19.3523,-6.3896,693.8859],[19.366,-6.3913,819.5198],[19.3827,-6.3867,811.9337],[19.3908,-6.3826,816.2169],[19.3985,-6.3711,837.4256],[19.4062,-6.3469,732.1057],[19.414,-6.3306,826.6421],[19.4234,-6.3038,706.3102],[19.4297,-6.2923,669.8757],[19.4405,-6.2864,591.9967],[19.4454,-6.2816,636.952],[19.4545,-6.2838,651.2436],[19.4568,-6.2826,671.8783],[19.4699,-6.2901,657.902],[19.4728,-6.2995,568.6979],[19.4758,-6.3021,544.0254],[19.4905,-6.3072,618.8129],[19.4997,-6.3036,581.8748],[19.5036,-6.3052,615.5716],[19.5174,-6.3211,650.5669],[19.5296,-6.3257,649.5857],[19.5524,-6.3399,577.2691],[19.5745,-6.3427,614.7612],[19.6103,-6.3543,558.78],[19.6345,-6.358,520.2286],[19.6472,-6.3542,546.8218],[19.6558,-6.3464,505.7776],[19.6604,-6.3444,582.1355],[19.6769,-6.3415,562.695],[19.6836,-6.3367,530.0822],[19.6878,-6.337,511.3446],[19.6947,-6.3273,520.3597],[19.6906,-6.3218,550.5345],[19.6865,-6.3204,496.1151],[19.6842,-6.3172,499.7711],[19.6884,-6.3087,489.9662],[19.6859,-6.2995,542.6929],[19.6873,-6.2956,496.856],[19.6956,-6.2954,489.6693],[19.6977,-6.2855,556.9352],[19.6895,-6.2779,491.2254],[19.6879,-6.2733,526.0246],[19.6887,-6.2684,488.6396],[19.697,-6.2554,492.0434],[19.6955,-6.2495,549.9552],[19.6959,-6.2398,577.7223],[19.689,-6.2333,553.0491],[19.687,-6.2291,547.5323],[19.682,-6.2279,483.0],[19.6801,-6.2245,497.4148],[19.6864,-6.2126,523.4567],[19.69,-6.1951,480.5],[19.6955,-6.1876,553.201],[19.6974,-6.1802,540.8867],[19.6936,-6.1696,532.6447],[19.6954,-6.1618,478.0],[19.7061,-6.1449,510.3615],[19.7089,-6.1426,508.1285],[19.7167,-6.1424,475.625],[19.7197,-6.1406,519.0172],[19.7253,-6.1254,523.6164],[19.7283,-6.1234,506.4197],[19.7382,-6.1227,475.0369],[19.74,-6.1209,473.0],[19.745,-6.1028,533.3269],[19.7493,-6.1001,608.9485],[19.7634,-6.0995,571.0225],[19.7735,-6.0883,568.1132],[19.7843,-6.0851,582.3743],[19.7902,-6.075,572.0482],[19.8044,-6.0717,523.7992],[19.81,-6.0659,558.9417],[19.8151,-6.0565,514.0766],[19.8183,-6.0557,536.4785],[19.8294,-6.0461,486.613],[19.8324,-6.0376,545.5705],[19.8354,-6.0346,554.1876],[19.841,-6.033,575.3728],[19.855,-6.0329,567.9028],[19.8688,-6.0242,472.5186],[19.884,-6.0114,574.8649],[19.8854,-6.0078,595.1095],[19.8839,-5.9972,601.4084],[19.8857,-5.9958,595.9193],[19.9004,-6.0101,571.0216],[19.9087,-5.9976,506.677],[19.9188,-5.9971,553.2654],[19.9303,-5.991,574.6107],[19.9384,-5.9915,579.0375],[19.9531,-5.9962,491.097],[19.9604,-5.9884,523.8021],[19.9688,-5.9726,573.6555],[19.9739,-5.9726,555.4051],[19.9764,-5.9706,567.3086],[19.9865,-5.9718,515.0025],[19.9934,-5.9656,487.6034],[20.0,-5.9666,451.0],[20.004,-5.962,455.9246],[20.0075,-5.9528,527.619],[20.0082,-5.9461,552.126],[20.0128,-5.9434,489.0768],[20.0204,-5.9428,456.8428],[20.0228,-5.9393,447.75],[20.0281,-5.9251,447.0],[20.0265,-5.9182,525.6151],[20.0335,-5.9127,446.0],[20.0369,-5.9072,498.6125],[20.0343,-5.8936,504.1973],[20.0414,-5.8868,456.0599],[20.05,-5.8677,443.5],[20.0496,-5.8631,450.7928],[20.0514,-5.859,526.9756],[20.0558,-5.8565,482.5628],[20.0657,-5.8575,506.6772],[20.079,-5.8541,486.6223],[20.085,-5.8502,453.1462],[20.0915,-5.8484,442.214],[20.0972,-5.84,525.9705],[20.1092,-5.8373,443.7351],[20.1124,-5.8336,438.5],[20.1107,-5.815,437.5],[20.1149,-5.7973,465.98],[20.1258,-5.7858,460.4317],[20.1396,-5.7756,524.304],[20.1493,-5.7717,439.1528],[20.1542,-5.766,433.0],[20.1521,-5.7625,433.0],[20.1558,-5.7534,455.1655],[20.1604,-5.7472,481.7695],[20.166,-5.7463,431.5],[20.1711,-5.7387,486.5066],[20.1686,-5.7265,430.5],[20.1716,-5.7217,457.3813],[20.1705,-5.7189,466.867],[20.173,-5.7157,493.2164],[20.1712,-5.7098,495.4045],[20.1717,-5.7006,433.4667],[20.1674,-5.6932,486.3048],[20.1681,-5.6906,529.9892],[20.1722,-5.6897,451.1835],[20.1764,-5.6928,427.5],[20.1803,-5.6926,467.9848],[20.1819,-5.6905,434.3896],[20.1805,-5.6817,444.2143],[20.1813,-5.6705,442.3699],[20.1763,-5.6642,425.5],[20.1761,-5.6613,425.5],[20.1777,-5.6594,425.0],[20.1841,-5.6578,501.3305],[20.1862,-5.6537,493.0192],[20.1826,-5.6422,434.3331],[20.1863,-5.6307,458.6105],[20.1898,-5.6268,509.6045],[20.1907,-5.6231,517.2286],[20.1818,-5.6139,477.0991],[20.1814,-5.6086,495.2455],[20.1734,-5.6017,535.8558],[20.1665,-5.6014,499.0352],[20.1654,-5.5998,495.9139],[20.1728,-5.5904,447.7258],[20.1634,-5.5807,535.1195],[20.1545,-5.5756,517.1636],[20.1531,-5.5691,526.261],[20.1554,-5.5643,548.5405],[20.1545,-5.5618,542.8279],[20.1566,-5.5528,509.2577],[20.1509,-5.5479,458.9344],[20.1558,-5.5369,503.0017],[20.1558,-5.5314,517.9307],[20.1536,-5.5305,514.2423],[20.1485,-5.5344,469.3399],[20.1453,-5.5348,478.41609999999997],[20.1448,-5.5327,488.232],[20.1474,-5.5148,464.0273],[20.1504,-5.5102,508.3427],[20.1564,-5.5068,539.2484],[20.153199999999998,-5.5008,491.5542],[20.1528,-5.4921,466.1025],[20.1503,-5.487,515.5129],[20.1517,-5.4845,540.0681],[20.1641,-5.4864,488.4777],[20.1765,-5.4858,527.6138],[20.1786,-5.4837,526.0945],[20.1738,-5.4821,550.2106],[20.1662,-5.4827,529.68],[20.1644,-5.4813,532.7753],[20.1553,-5.4825,553.8191],[20.1513,-5.4773,532.7607],[20.1468,-5.463,514.5049],[20.1492,-5.4458,529.1935],[20.146,-5.4281,430.5512],[20.1472,-5.426,466.8572],[20.1544,-5.4246,468.5378],[20.162,-5.4179,502.3135],[20.1673,-5.4157,510.1168],[20.1686,-5.4132,519.4012],[20.1655,-5.4127,519.1383],[20.1507,-5.4221,451.6661],[20.1452,-5.4219,490.1756],[20.1426,-5.4198,494.8729],[20.1402,-5.4131,513.0852],[20.1427,-5.4011,523.3912],[20.1416,-5.394,471.2745],[20.1453,-5.386,475.1988],[20.1481,-5.3837,486.4786],[20.1573,-5.3844,538.9728],[20.1497,-5.3791,530.3007],[20.15,-5.375,539.7036],[20.1446,-5.3531,407.9127],[20.1462,-5.3503,448.4758],[20.1575,-5.3502,486.5742],[20.155,-5.3467,518.6582],[20.149,-5.3464,487.5166],[20.1573,-5.3336,400.5],[20.1672,-5.3279,399.5],[20.1748,-5.3263,421.0342],[20.1812,-5.3312,466.6779],[20.184,-5.331,485.2864],[20.1776,-5.3257,452.599],[20.1753,-5.3215,402.2027],[20.1811,-5.3137,473.8916],[20.1711,-5.2985,397.375],[20.1729,-5.2904,402.6806],[20.1764,-5.2879,499.8381],[20.1835,-5.2891,464.8996],[20.1999,-5.2782,396.0],[20.2038,-5.2706,399.4814],[20.2015,-5.263,426.668],[20.1926,-5.2533,395.0],[20.1906,-5.2448,423.002],[20.1863,-5.239,438.6466],[20.1872,-5.2344,499.5511],[20.1946,-5.2314,394.0],[20.199,-5.2266,394.0],[20.1988,-5.219,393.5],[20.1965,-5.213,405.703],[20.1982,-5.2059,422.6873],[20.1899,-5.1939,463.0039],[20.1994,-5.1908,423.8875],[20.2003,-5.1887,455.0358],[20.1994,-5.1859,443.4093],[20.1884,-5.1771,461.4553],[20.1875,-5.1746,430.2726],[20.1938,-5.157,391.0]]]]}}