{"type": "Feature","bbox": [25.3513,-0.5962,28.1545,2.1942],"geometry": {"type": "MultiPolygon","coordinates": [[[[26.5843,2.0532,575.3883],[26.576,2.0509,562.0804],[26.5609,2.0294,537.5122],[26.5584,2.0232,530.5429],[26.5647,2.0002,588.0244],[26.5699,1.9986,583.7984],[26.5768,1.9993,528.4919],[26.5823,2.0021,532.6313],[26.5859,2.0014,560.5538],[26.5965,1.9906,548.7285],[26.6042,1.9893,555.869],[26.6127,1.9828,638.9221],[26.6189,1.9817,635.4047],[26.6246,1.9753,603.4404],[26.6262,1.9665,596.8189],[26.623,1.9628,683.9129],[26.6135,1.934,520.6874],[26.5913,1.9017,543.0414],[26.5361,1.8521,522.2112],[26.5289,1.827,490.2681],[26.5384,1.8091,487.5108],[26.5383,1.7952,511.741],[26.5299,1.7859,529.5884],[26.5155,1.7617,570.7979],[26.5223,1.7236,537.8376],[26.5222,1.7027,509.5006],[26.5099,1.6929,557.754],[26.4892,1.6866,569.9224],[26.4795,1.6875,542.565],[26.4634,1.6955,528.5652],[26.4583,1.6906,543.7875],[26.4612,1.6577,548.0012],[26.4513,1.627,549.7798],[26.4384,1.6235,557.6861],[26.4281,1.6238,554.4678],[26.4101,1.6288,613.3723],[26.387,1.6414,577.5156],[26.0135,1.4396,568.1432],[25.9892,1.4719,561.0709],[25.9301,1.5014,534.893],[25.9185,1.5061,559.8981],[25.8979,1.5099,535.0787],[25.8689,1.5069,530.6285],[25.8515,1.5011,507.2359],[25.8359,1.4894,497.5126],[25.8133,1.4794,484.7922],[25.7918,1.461,482.1144],[25.7904,1.4402,473.9086],[25.7906,1.3745,481.8976],[25.772,1.3016,460.2318],[25.7805,1.2926,468.8028],[25.7862,1.2894,467.8079],[25.7892,1.2837,469.3303],[25.7822,1.2671,468.1595],[25.7813,1.2577,476.3018],[25.785,1.2467,475.4963],[25.7909,1.2469,481.8797],[25.7928,1.2441,471.4697],[25.7958,1.2315,479.5659],[25.8034,1.2182,481.1531],[25.8102,1.2097,466.4175],[25.8158,1.1948,476.7483],[25.8149,1.1895,484.8959],[25.8087,1.1844,494.8146],[25.8076,1.181,504.8059],[25.8109,1.1533,496.9079],[25.8233,1.1127,482.8534],[25.8263,1.1113,483.9015],[25.8274,1.1088,490.3868],[25.8361,1.11,490.8129],[25.8432,1.1052,495.5848],[25.8457,1.1063,490.3403],[25.8482,1.1027,501.84],[25.8505,1.108,481.0103],[25.8546,1.1073,486.8079],[25.8565,1.0997,499.9214],[25.8583,1.0993,502.9844],[25.8612,1.1036,490.8305],[25.8642,1.0997,491.3846],[25.8654,1.0901,477.0861],[25.8711,1.083,488.7834],[25.8771,1.0793,479.9827],[25.9043,1.072,496.1594],[25.9111,1.064,510.0049],[25.915,1.0622,500.8028],[25.9255,1.0629,509.6159],[25.934,1.0682,506.9706],[25.9381,1.0684,519.1778],[25.9468,1.0618,518.4325],[25.9541,1.0611,527.0817],[25.972,1.043,504.7387],[25.9857,1.021,508.439],[25.9332,1.0272,509.7523],[25.6818,1.0419,494.095],[25.6599,1.0463,502.6578],[25.6471,1.0618,491.5776],[25.6317,1.0673,485.3008],[25.5904,1.0685,499.0465],[25.5724,1.0664,478.7534],[25.5322,1.036,465.0049],[25.487,1.0335,460.5663],[25.4614,1.0506,463.2344],[25.4408,1.0613,454.0929],[25.433,1.0552,447.019],[25.4042,0.9953,461.834],[25.3887,0.9857,470.4748],[25.3592,0.9633,474.612],[25.3684,0.962,469.961],[25.3804,0.9295,483.6712],[25.3736,0.9242,480.2509],[25.3682,0.9113,470.57],[25.3659,0.8984,458.4893],[25.3589,0.8885,460.5219],[25.3566,0.882,461.0779],[25.37,0.8543,451.393],[25.3711,0.8474,460.548],[25.3696,0.8366,457.4863],[25.3723,0.8301,454.0659],[25.3717,0.8216,457.2151],[25.3731,0.8157,456.8209],[25.377,0.8099,448.2676],[25.3742,0.8044,454.8982],[25.3795,0.7906,448.5293],[25.3773,0.7858,452.7492],[25.3682,0.7809,453.5043],[25.362,0.7713,482.5334],[25.3534,0.7657,472.4817],[25.3513,0.7595,468.0609],[25.3568,0.749,458.697],[25.359,0.7222,447.3828],[25.3801,0.707,418.3217],[25.3844,0.7072,408.785],[25.3933,0.7017,430.9773],[25.4013,0.7013,440.8064],[25.4075,0.7039,449.0992],[25.422,0.7248,419.9656],[25.4247,0.7241,400.2543],[25.4293,0.7191,439.3418],[25.4323,0.7101,435.2649],[25.4394,0.7113,441.297],[25.4471,0.715,440.6596],[25.449,0.721,413.8635],[25.4524,0.7231,417.7947],[25.4604,0.7215,398.6454],[25.4702,0.7174,411.1505],[25.4718,0.7142,426.9383],[25.4707,0.705,397.0],[25.4758,0.691,402.7023],[25.4801,0.6896,424.696],[25.4949,0.691,425.4279],[25.4997,0.6883,420.8811],[25.5077,0.6893,424.5614],[25.5155,0.6932,432.9534],[25.5189,0.6983,435.1324],[25.5204,0.7104,422.2349],[25.5328,0.7075,402.0],[25.5319,0.6978,425.1506],[25.5333,0.6921,415.4867],[25.5406,0.6848,442.3463],[25.5413,0.6797,434.272],[25.537,0.6689,440.6871],[25.5388,0.665,421.9536],[25.5418,0.6632,436.7199],[25.5555,0.6694,446.8537],[25.5648,0.6768,457.6048],[25.5714,0.6862,452.0508],[25.5725,0.6934,450.3542],[25.5711,0.7046,442.3221],[25.5661,0.7166,440.2138],[25.5672,0.7195,446.2737],[25.5722,0.7239,430.9263],[25.590699999999998,0.7311,440.2046],[25.593,0.7334,442.9258],[25.5989,0.7332,445.2843],[25.6003,0.7224,447.6895],[25.603,0.7208,439.5536],[25.6071,0.7268,438.3652],[25.6101,0.7222,442.8647],[25.6156,0.7305,451.8519],[25.6219,0.7333,447.3197],[25.6185,0.737,453.6872],[25.6256,0.7402,444.493],[25.6249,0.7425,455.4431],[25.6262,0.745,447.0545],[25.6397,0.7465,464.3397],[25.6475,0.7529,473.2118],[25.6511,0.7536,474.7279],[25.6927,0.7443,483.6722],[25.6941,0.7521,466.6563],[25.6887,0.763,477.8801],[25.6883,0.7867,501.4645],[25.6932,0.7919,501.1916],[25.732,0.7949,470.9005],[25.7752,0.7857,472.0519],[25.7943,0.7878,471.3172],[25.8059,0.8034,473.747],[25.8095,0.8168,507.5776],[25.8206,0.8405,511.824],[25.8344,0.8426,523.9609],[25.8451,0.8374,476.6991],[25.8545,0.8469,483.6134],[25.8692,0.8707,507.4306],[25.8928,0.8741,571.6473],[25.9053,0.8736,589.6303],[25.9213,0.8784,575.3987],[25.9351,0.8865,565.2241],[25.9538,0.9003,569.1108],[25.969,0.9142,563.298],[25.9815,0.9215,515.8159],[25.9988,0.9154,494.5506],[26.0245,0.8768,485.1852],[26.0392,0.8369,488.3685],[26.0417,0.8234,486.6208],[26.055,0.8021,485.2302],[26.0498,0.7998,478.7639],[26.0459,0.7929,483.9207],[26.0436,0.7933,476.1393],[26.0375,0.8002,477.6521],[26.0329,0.7979,473.0629],[26.0311,0.7949,473.0678],[26.0304,0.786,472.6817],[26.0325,0.7823,466.4112],[26.0364,0.7855,480.1171],[26.04,0.7851,474.2731],[26.0377,0.7779,467.5967],[26.043,0.7773,469.4281],[26.0439,0.7752,477.6229],[26.0423,0.7731,467.3989],[26.0432,0.7701,458.7922],[26.0394,0.7657,461.6306],[26.0405,0.7646,456.8071],[26.051,0.7651,448.6035],[26.0615,0.7596,468.4591],[26.057,0.7545,467.6894],[26.0588,0.7493,461.3392],[26.0625,0.7488,462.3837],[26.0657,0.7529,466.9416],[26.0707,0.7527,469.6661],[26.0798,0.7431,470.9328],[26.083,0.7479,467.6205],[26.0874,0.7477,474.7327],[26.0901,0.7447,482.3135],[26.0903,0.7406,476.4457],[26.0844,0.7364,468.0432],[26.078,0.7374,454.4173],[26.0707,0.7424,467.7968],[26.0684,0.7422,462.2057],[26.0657,0.7385,465.7693],[26.065,0.73,460.979],[26.0607,0.726,456.3427],[26.0552,0.7256,457.7861],[26.0468,0.7288,464.0248],[26.0447,0.7246,469.4248],[26.0482,0.7214,480.9622],[26.0557,0.7194,476.871],[26.0676,0.7201,461.1157],[26.0785,0.7279,475.1806],[26.0856,0.7206,469.2663],[26.0868,0.7158,467.7961],[26.0804,0.707,444.2902],[26.0866,0.7004,460.9673],[26.0923,0.7008,447.759],[26.0948,0.7057,443.2406],[26.0922,0.7137,467.4521],[26.0927,0.7176,481.3932],[26.0989,0.7167,465.6588],[26.1055,0.7232,476.7014],[26.1201,0.725,469.3676],[26.124,0.7186,495.2585],[26.1267,0.7182,494.0473],[26.1297,0.7207,499.2426],[26.1372,0.7187,495.1028],[26.1404,0.7214,506.0798],[26.1438,0.7166,490.9913],[26.147,0.7168,492.4242],[26.1438,0.6626,480.3798],[26.1447,0.6204,487.5531],[26.1413,0.6038,480.3761],[26.1317,0.591,479.3037],[26.1264,0.5599,487.6726],[26.1228,0.556,502.622],[26.1197,0.5456,519.4872],[26.1297,0.54,529.7805],[26.1342,0.5348,523.8404],[26.1344,0.5235,538.6777],[26.1288,0.4876,533.0312],[26.128,0.4638,656.2043],[26.1248,0.4563,589.7017],[26.1208,0.4541,588.2789],[26.1148,0.4541,634.13],[26.1034,0.4624,642.6423],[26.0959,0.4642,657.5109],[26.0852,0.4529,581.5468],[26.0809,0.4435,552.2932],[26.1039,0.433,538.9227],[26.1095,0.4273,524.5192],[26.1112,0.4178,546.0541],[26.1184,0.4011,512.5408],[26.1382,0.3812,510.7845],[26.1698,0.3794,517.2697],[26.1836,0.3688,518.6794],[26.2039,0.3635,523.0969],[26.2226,0.3683,544.3781],[26.2534,0.3822,613.3242],[26.2614,0.3816,645.1129],[26.2647,0.3798,672.241],[26.269,0.3751,707.9712],[26.2723,0.3588,572.027],[26.2665,0.3245,563.2206],[26.2589,0.31,550.8512],[26.248,0.297,542.2697],[26.2474,0.2841,533.9694],[26.2543,0.2767,528.306],[26.3001,0.265,560.3217],[26.3047,0.2655,553.1597],[26.3092,0.2708,585.6442],[26.3215,0.2699,851.5128],[26.3222,0.2569,556.7562],[26.3371,0.2417,573.5997],[26.3498,0.2391,573.3544],[26.3596,0.2425,568.9993],[26.3677,0.239,575.1227],[26.3706,0.2252,569.4121],[26.3979,0.1966,581.5447],[26.404,0.2051,579.1353],[26.407,0.2051,572.6133],[26.412,0.2081,587.2753],[26.4193,0.2067,574.5352],[26.4218,0.2092,587.0538],[26.4266,0.2102,581.5993],[26.4278,0.2152,615.3094],[26.4334,0.2249,631.3414],[26.4443,0.2107,671.918],[26.4548,0.1785,675.1287],[26.4561,0.1681,651.4472],[26.4641,0.162,625.9202],[26.4717,0.1612,629.3336],[26.4922,0.1659,596.8701],[26.5065,0.1619,607.3755],[26.5123,0.1541,625.9065],[26.5189,0.1351,640.8389],[26.5265,0.1044,633.171],[26.5426,0.1026,596.0712],[26.5595,0.0952,616.5255],[26.5644,0.084,633.5533],[26.5648,0.061,570.3571],[26.5743,0.038,642.0553],[26.5748,0.0412,637.6938],[26.5859,0.0518,646.1767],[26.5962,0.0539,677.7777],[26.5996,0.0527,644.4011],[26.6165,0.06,672.5614],[26.6196,0.0769,660.019],[26.6152,0.0942,649.7411],[26.6232,0.105,616.1085],[26.662,0.1145,610.58],[26.7117,0.1393,666.7415],[26.714,0.1453,668.5096],[26.7178,0.1464,668.5424],[26.719,0.149,668.6788],[26.7171,0.1549,673.329],[26.7212,0.1614,672.9011],[26.7217,0.1662,664.7007],[26.7169,0.1715,657.8213],[26.7178,0.1747,645.373],[26.7488,0.1731,676.4073],[26.7578,0.1687,682.4185],[26.7637,0.1293,693.6605],[26.7596,0.1291,697.4179],[26.7548,0.1249,697.2415],[26.7555,0.1183,687.6059],[26.7514,0.1049,678.1909],[26.7586,0.1034,694.6765],[26.7551,0.0554,681.9965],[26.7544,-0.016,666.4062],[26.7305,-0.1178,955.439],[26.7189,-0.1314,657.7333],[26.7041,-0.139,597.6486],[26.7011,-0.1438,577.1385],[26.6959,-0.1592,572.6382],[26.6875,-0.1746,588.9123],[26.6875,-0.1783,573.4045],[26.6912,-0.1875,558.4219],[26.6821,-0.1949,539.9986],[26.6778,-0.1942,541.58],[26.6614,-0.2023,574.1415],[26.6545,-0.2016,637.1449],[26.6383,-0.2067,604.8992],[26.6322,-0.2051,586.0978],[26.6089,-0.2237,626.7494],[26.6033,-0.235,563.9419],[26.6021,-0.2419,556.8422],[26.6034,-0.269,625.9792],[26.6103,-0.2917,567.3659],[26.619,-0.2988,618.8312],[26.6297,-0.3119,572.442],[26.6307,-0.3252,564.5953],[26.6254,-0.3309,550.3099],[26.6148,-0.3521,557.4232],[26.6168,-0.357,559.6795],[26.666,-0.327,549.0673],[26.7091,-0.3161,550.6639],[26.746,-0.2914,630.0767],[26.7501,-0.2872,620.5428],[26.7553,-0.2739,642.4338],[26.7772,-0.2589,652.7612],[26.7906,-0.2525,651.6345],[26.7952,-0.2529,669.0793],[26.7998,-0.2568,678.5771],[26.8037,-0.257,696.8739],[26.8119,-0.265,551.4905],[26.8165,-0.2669,552.6873],[26.8254,-0.2657,549.305],[26.8409,-0.2592,545.6606],[26.8484,-0.2505,564.1102],[26.8472,-0.2454,627.6796],[26.8337,-0.2379,640.5156],[26.831,-0.2345,625.4434],[26.8284,-0.2264,674.3304],[26.828,-0.2179,663.5541],[26.8289,-0.2133,662.212],[26.8325,-0.209,693.8557],[26.846,-0.2057,701.5752],[26.8458,-0.2142,716.7448],[26.8512,-0.2142,713.2659],[26.8572,-0.2107,694.3854],[26.8706,-0.2197,669.4089],[26.875,-0.2254,662.6202],[26.8857,-0.2304,572.4588],[26.8876,-0.2325,594.5938],[26.889,-0.2405,577.6989],[26.8956,-0.2416,563.5557],[26.9035,-0.2294,563.5448],[26.9058,-0.229,557.1187],[26.9202,-0.2439,583.4478],[26.9275,-0.2464,625.803],[26.9367,-0.2555,646.2585],[26.9419,-0.2583,653.761],[26.9499,-0.2578,657.8031],[26.9563,-0.266,639.9018],[26.9678,-0.2697,640.0701],[26.9725,-0.2683,628.0024],[26.9751,-0.2701,637.3134],[26.9771,-0.2697,646.434],[26.9801,-0.2651,624.0665],[26.9853,-0.2722,655.8947],[26.994,-0.2758,654.6208],[27.0025,-0.2717,651.863],[27.0095,-0.2739,690.2839],[27.0086,-0.2827,646.5828],[27.0107,-0.2868,658.0279],[27.0288,-0.3042,658.1148],[27.0336,-0.3051,686.5859],[27.0386,-0.3094,671.0568],[27.0482,-0.3085,689.7094],[27.0702,-0.3293,661.5397],[27.0713,-0.3353,680.6339],[27.0632,-0.3452,686.4037],[27.0679,-0.347,680.6764],[27.0728,-0.3516,673.0263],[27.0737,-0.355,703.4271],[27.0698,-0.3629,712.2169],[27.0705,-0.3734,720.5554],[27.0728,-0.3801,734.2323],[27.0788,-0.3865,778.2885],[27.0822,-0.3881,735.4741],[27.0886,-0.386,722.7388],[27.0911,-0.3888,742.6847],[27.0952,-0.3881,749.1177],[27.0973,-0.3901,754.0818],[27.1007,-0.3896,761.7092],[27.1037,-0.3862,737.0018],[27.1128,-0.3892,719.5238],[27.1178,-0.388,711.7142],[27.1215,-0.4015,736.8344],[27.1206,-0.4057,737.2849],[27.1305,-0.4192,746.73],[27.1357,-0.4238,726.0799],[27.141,-0.4242,720.2338],[27.1767,-0.4418,748.0862],[27.1931,-0.4466,764.8442],[27.2257,-0.4476,757.7469],[27.2315,-0.4499,735.3527],[27.2515,-0.4482,738.583],[27.2568,-0.4528,733.9587],[27.2678,-0.4516,723.2333],[27.2785,-0.4532,750.5741],[27.2853,-0.4497,748.8333],[27.3004,-0.4527,738.0229],[27.3089,-0.4639,738.2047],[27.3205,-0.4643,745.804],[27.326,-0.4721,748.3997],[27.3304,-0.473,762.8868],[27.3349,-0.4712,761.3672],[27.3393,-0.4723,764.1852],[27.3445,-0.4762,772.3849],[27.348,-0.4812,767.2785],[27.3503,-0.506,748.1226],[27.3586,-0.5156,748.9183],[27.3752,-0.5133,744.8745],[27.3842,-0.5174,746.1852],[27.3933,-0.5162,773.5037],[27.399,-0.5132,795.7397],[27.4198,-0.5166,800.7222],[27.4264,-0.5131,771.6616],[27.4353,-0.5129,794.4437],[27.4466,-0.5011,790.6113],[27.4521,-0.5002,793.2117],[27.4598,-0.4942,821.057],[27.4719,-0.4912,824.7247],[27.4881,-0.4909,825.1906],[27.4952,-0.4927,810.7596],[27.4968,-0.495,808.8017],[27.4946,-0.5053,820.738],[27.4983,-0.52,817.8845],[27.4985,-0.5285,811.1833],[27.5191,-0.5415,815.903],[27.5273,-0.5367,796.7465],[27.5358,-0.536,821.5422],[27.5422,-0.532,821.4159],[27.5529,-0.5361,862.4497],[27.557,-0.534,844.0171],[27.5595,-0.5345,824.293],[27.562,-0.5393,877.4012],[27.5668,-0.5421,824.7339],[27.5678,-0.548,835.5651],[27.5717,-0.5519,835.3954],[27.5781,-0.5565,832.7725],[27.5957,-0.564,855.3441],[27.6014,-0.5729,829.0728],[27.6144,-0.5706,906.1028],[27.6208,-0.5724,899.1392],[27.63,-0.58,875.4021],[27.6353,-0.5868,869.9182],[27.6501,-0.5907,931.26],[27.6605,-0.5954,911.9399],[27.8869,-0.5962,908.4182],[27.9038,-0.594,861.4681],[27.9116,-0.5848,793.5898],[27.9356,-0.5763,869.6147],[27.9381,-0.5616,802.421],[27.9415,-0.5545,850.1318],[27.9474,-0.5498,779.8728],[27.9627,-0.55,784.55],[27.9704,-0.5447,838.5342],[27.9708,-0.5387,924.4732],[27.9776,-0.5235,796.3119],[27.9787,-0.5132,782.1501],[27.9756,-0.4884,790.7208],[27.9781,-0.47,766.5687],[27.9739,-0.4618,803.7799],[27.9693,-0.4443,786.8245],[27.9571,-0.432,836.1699],[27.9498,-0.4162,840.1698],[27.942,-0.4065,813.0801],[27.9463,-0.4022,800.5626],[27.9515,-0.3877,766.2505],[27.9633,-0.3782,762.0952],[27.9704,-0.3761,766.4218],[27.9856,-0.3609,773.8017],[27.9908,-0.3397,759.1537],[27.9962,-0.3287,744.3464],[28.0094,-0.3169,761.4816],[28.0356,-0.309,755.3447],[28.0732,-0.308,776.8518],[28.088,-0.2946,771.9777],[28.0962,-0.2936,761.9715],[28.1007,-0.2865,753.3511],[28.1069,-0.2844,747.1328],[28.1135,-0.2777,754.9276],[28.1183,-0.277,776.9456],[28.1336,-0.2797,771.0812],[28.1393,-0.2778,771.0596],[28.1504,-0.2691,789.6407],[28.1531,-0.2654,967.7322],[28.1545,-0.2587,856.0715],[28.1528,-0.2539,894.6638],[28.1469,-0.2477,777.8424],[28.1437,-0.2418,783.3147],[28.145,-0.23,766.0667],[28.1427,-0.2266,767.8788],[28.138,-0.1988,734.3133],[28.1313,-0.186,744.9128],[28.1276,-0.1702,744.7676],[28.1186,-0.1539,766.5503],[28.1183,-0.1335,758.2141],[28.1137,-0.111,749.9517],[28.1163,-0.0984,745.923],[28.1103,-0.0803,739.2051],[28.1077,-0.0569,740.9369],[28.102,-0.0507,737.5676],[28.1038,-0.0392,743.3783],[28.1012,-0.0259,721.5248],[28.0989,-0.0183,752.7129],[28.0913,-0.005,766.5508],[28.1007,0.0047,750.1234],[28.1,0.0088,743.4433],[28.1023,0.0127,737.6293],[28.1018,0.0152,745.1341],[28.0972,0.0187,748.4421],[28.097,0.0224,752.2585],[28.1025,0.0283,741.5896],[28.1027,0.0334,742.3035],[28.0984,0.038,745.6669],[28.0984,0.0419,743.1658],[28.1027,0.0492,741.3887],[28.1066,0.063,736.4557],[28.1059,0.069,740.9339],[28.0995,0.0791,733.6351],[28.1002,0.0832,748.0953],[28.1068,0.0938,767.7471],[28.1059,0.0982,744.1689],[28.1025,0.103,701.1206],[28.1043,0.1064,711.7511],[28.128,0.1158,768.8973],[28.1308,0.1193,735.9504],[28.1278,0.1246,718.2377],[28.1303,0.1273,722.3177],[28.1369,0.1278,727.7732],[28.1394,0.1326,700.7367],[28.1383,0.1342,702.4861],[28.1397,0.1381,705.8412],[28.1522,0.1448,728.4463],[28.154,0.151,703.7748],[28.152,0.1581,709.9502],[28.1376,0.1836,716.889],[28.1312,0.1868,752.9021],[28.1219,0.185,725.8177],[28.1203,0.1868,732.0491],[28.1271,0.1926,724.9221],[28.128,0.2102,706.8964],[28.1337,0.2162,785.7383],[28.1342,0.2208,777.2708],[28.1278,0.2286,757.7531],[28.12,0.2341,711.6036],[28.113,0.2344,729.1736],[28.1079,0.2321,759.3646],[28.1018,0.2334,714.5418],[28.1,0.2348,689.6544],[28.0968,0.2452,697.4543],[28.0942,0.2465,700.6562],[28.0869,0.2449,715.9927],[28.0833,0.2474,724.3475],[28.0803,0.2553,733.4972],[28.0774,0.258,706.6815],[28.0762,0.2651,727.3014],[28.0696,0.2649,717.7774],[28.0662,0.2697,734.2346],[28.0659,0.2729,709.4246],[28.0685,0.278,697.0029],[28.0678,0.2805,691.4487],[28.0621,0.2849,693.696],[28.0584,0.2968,700.7204],[28.0552,0.3021,709.6831],[28.0545,0.3074,699.7012],[28.0568,0.318,641.5703],[28.0559,0.3242,669.618],[28.0568,0.3265,642.8421],[28.0616,0.3295,645.5142],[28.0621,0.332,637.5946],[28.0566,0.3396,647.0247],[28.0591,0.3766,660.9521],[28.0563,0.3805,655.6074],[28.0504,0.3814,754.1838],[28.042,0.3775,739.9393],[28.0395,0.3809,670.6866],[28.0447,0.3903,851.933],[28.044,0.3947,822.2949],[28.0429,0.397,860.6727],[28.0344,0.4027,654.5809],[28.0372,0.4055,656.3268],[28.0411,0.406,673.4685],[28.0454,0.4108,715.0692],[28.0518,0.4076,738.2104],[28.0527,0.4126,691.4894],[28.0479,0.4278,700.4988],[28.0369,0.4317,653.0974],[28.0326,0.4367,664.7809],[28.026,0.4363,674.415],[28.0248,0.4388,686.4604],[28.0301,0.4475,665.7786],[28.0285,0.4519,623.5789],[28.0292,0.4583,636.9424],[28.0267,0.4634,633.5277],[28.0239,0.4639,663.138],[28.0173,0.4606,654.211],[28.013,0.4611,613.5],[28.0075,0.4714,650.7068],[28.0041,0.474,666.7617],[27.9828,0.4714,700.1267],[27.9598,0.4744,732.7057],[27.9536,0.4808,690.2479],[27.9411,0.4785,677.5959],[27.9349,0.4804,637.9248],[27.9294,0.4868,634.3298],[27.9249,0.488,633.1171],[27.921,0.4918,600.5],[27.9176,0.4918,635.5449],[27.915,0.4845,635.3175],[27.9107,0.4804,633.5328],[27.905,0.4822,632.5062],[27.9011,0.4914,626.1912],[27.8982,0.4909,620.6643],[27.892,0.4833,629.7334],[27.8811,0.4804,620.2098],[27.8637,0.4882,597.8721],[27.8541,0.4879,627.5272],[27.8411,0.493,602.4019],[27.8372,0.5003,630.9227],[27.8299,0.5035,623.2063],[27.8258,0.51,620.1968],[27.8217,0.512,633.2937],[27.8169,0.518,620.362],[27.8103,0.5201,633.0098],[27.7966,0.5297,625.0673],[27.8187,0.5419,644.4945],[27.8303,0.545,628.0925],[27.8552,0.5576,651.7327],[27.8931,0.5617,642.0062],[27.9158,0.5876,633.6458],[27.9227,0.5984,649.7439],[27.9412,0.6142,648.6417],[27.9552,0.6219,634.9686],[27.9691,0.6212,647.4552],[27.9766,0.6134,627.2292],[27.9883,0.6118,636.2519],[27.9931,0.6127,632.6054],[28.0024,0.6217,637.2253],[28.0033,0.6256,643.2627],[28.009,0.6332,642.7076],[28.0179,0.6362,647.4822],[28.0109,0.6498,634.6409],[27.9345,0.7489,699.2853],[27.9437,0.7572,692.2006],[27.9462,0.7618,722.2465],[27.9387,0.7656,714.9703],[27.9362,0.7899,691.7897],[27.9545,0.8464,715.2045],[27.9871,0.911,759.5762],[28.0007,0.9331,733.3342],[27.993,0.9304,736.2863],[27.988,0.9308,763.4106],[27.985,0.9386,764.7097],[27.982,0.9407,757.6077],[27.9742,0.9403,771.6727],[27.9653,0.9315,801.2476],[27.9507,0.9212,746.7238],[27.9457,0.9202,735.342],[27.9293,0.9225,734.8456],[27.9247,0.9264,741.7925],[27.9226,0.931,745.2723],[27.9197,0.9327,719.6599],[27.9167,0.9317,719.366],[27.9124,0.9255,720.7655],[27.9071,0.9251,711.2568],[27.8925,0.934,716.2563],[27.8861,0.9315,713.1415],[27.8777,0.9464,689.3753],[27.9225,1.0043,770.7303],[27.9287,1.0168,779.5272],[27.9361,1.037,748.0428],[27.9333,1.0428,705.9122],[27.9267,1.0464,716.7164],[27.9171,1.0471,756.2405],[27.9048,1.0432,751.9371],[27.8954,1.049,746.3114],[27.8751,1.0508,758.4113],[27.8635,1.0457,744.6884],[27.8609,1.043,745.8799],[27.8607,1.0395,754.7997],[27.853,1.0388,765.6932],[27.8475,1.0418,758.7811],[27.8443,1.046,729.7449],[27.8354,1.0499,726.1086],[27.8313,1.0535,715.4593],[27.8281,1.0616,721.8394],[27.8244,1.0634,712.6073],[27.8084,1.0623,706.0499],[27.8029,1.06,692.8921],[27.7828,1.0652,703.1814],[27.773,1.0583,699.7221],[27.7694,1.0657,680.0969],[27.757,1.0735,704.6351],[27.7531,1.0737,703.5671],[27.7468,1.0673,668.826],[27.7408,1.0684,677.8328],[27.739,1.093,720.9634],[27.7408,1.0988,717.2305],[27.7378,1.1091,727.7495],[27.7394,1.1215,714.8403],[27.7709,1.1496,729.4922],[27.7564,1.1949,623.5132],[27.7555,1.2117,658.4923],[27.7785,1.221,580.5684],[27.7835,1.2288,575.3865],[27.768,1.2445,603.1345],[27.7651,1.2566,600.8639],[27.7772,1.2825,570.0353],[27.7826,1.3015,559.0309],[27.7738,1.3087,554.2269],[27.7704,1.3073,550.1969],[27.7651,1.3078,555.743],[27.7555,1.3133,571.7853],[27.7507,1.3204,578.8302],[27.74,1.322,564.0183],[27.7333,1.325,545.7496],[27.7267,1.3315,567.7888],[27.7151,1.3335,558.9973],[27.7114,1.3356,574.1108],[27.7002,1.3487,562.2709],[27.6767,1.3505,573.2771],[27.6639,1.3438,563.4813],[27.6506,1.3448,553.3457],[27.6456,1.3411,564.004],[27.6335,1.3411,562.7314],[27.628,1.3431,561.1842],[27.6234,1.3486,559.559],[27.6207,1.3585,546.8962],[27.6127,1.3624,564.0665],[27.6077,1.3578,544.2955],[27.5992,1.341,553.3853],[27.5958,1.3394,551.6207],[27.5816,1.3408,548.3488],[27.5759,1.3392,543.532],[27.5723,1.3399,546.7349],[27.5707,1.3433,556.2316],[27.5711,1.3532,546.188],[27.5688,1.3596,547.1915],[27.5572,1.3737,552.6116],[27.5439,1.381,547.109],[27.5339,1.3895,548.2635],[27.5213,1.4102,550.7153],[27.5162,1.4152,565.9494],[27.5062,1.4162,561.1846],[27.5003,1.4189,557.6238],[27.4943,1.426,559.1144],[27.492,1.4364,552.5961],[27.484,1.4463,541.7527],[27.4783,1.4766,564.3125],[27.4803,1.4877,569.9032],[27.4783,1.4929,549.2953],[27.4625,1.509,548.2148],[27.4561,1.5244,553.4406],[27.4492,1.5352,551.516],[27.4496,1.547,551.425],[27.4462,1.5569,545.5331],[27.443,1.5621,551.2161],[27.4325,1.5716,550.3149],[27.4195,1.5738,553.0576],[27.3982,1.5642,547.1592],[27.3845,1.5669,550.5518],[27.3756,1.5651,548.5789],[27.371,1.5685,540.6666],[27.3699,1.5722,537.7347],[27.3703,1.5832,543.8026],[27.366,1.5874,549.1584],[27.3513,1.5924,540.7841],[27.3445,1.5896,543.1726],[27.3292,1.5885,538.1105],[27.3226,1.5864,540.3414],[27.3182,1.58,536.2913],[27.31,1.577,542.8544],[27.2949,1.5779,540.1824],[27.2771,1.5868,526.5587],[27.2414,1.5898,533.2522],[27.2268,1.5955,526.6077],[27.1947,1.6034,533.6605],[27.2067,1.6113,530.9747],[27.2135,1.6118,533.6544],[27.2158,1.6148,532.0663],[27.2133,1.6302,538.7224],[27.2144,1.6311,538.2311],[27.2174,1.6302,538.2949],[27.2238,1.6231,544.9648],[27.227,1.6238,540.6765],[27.2348,1.6279,546.3177],[27.2402,1.6385,548.4935],[27.2448,1.6401,567.1416],[27.2469,1.6369,571.5778],[27.2473,1.6289,557.0482],[27.2526,1.6252,572.2212],[27.2622,1.6227,535.1836],[27.2768,1.6238,529.3053],[27.2853,1.6326,522.1991],[27.2811,1.6402,516.5959],[27.2839,1.6464,525.2835],[27.2841,1.6535,528.5688],[27.2875,1.6643,504.6143],[27.2868,1.6722,514.1833],[27.2882,1.6765,507.1917],[27.2982,1.6864,522.5243],[27.2962,1.6903,519.7],[27.2984,1.6949,517.6327],[27.2973,1.6988,526.8528],[27.2984,1.7018,522.5739],[27.3009,1.7032,521.2422],[27.3051,1.7025,505.6819],[27.3085,1.7113,520.1854],[27.3091,1.7219,523.8876],[27.3062,1.7246,524.9238],[27.3062,1.7283,525.9799],[27.3132,1.74,559.1113],[27.3167,1.7403,510.4603],[27.3176,1.7453,522.2573],[27.3244,1.7566,540.2261],[27.3345,1.7631,523.8517],[27.3399,1.7734,539.9],[27.3457,1.7783,548.2574],[27.3589,1.778,542.7882],[27.3621,1.7794,540.8747],[27.3667,1.7847,547.6117],[27.3687,1.7829,550.0871],[27.3719,1.7902,547.7061],[27.3683,1.7988,558.5332],[27.3699,1.8031,557.1018],[27.3602,1.8112,557.8098],[27.3596,1.8199,562.0022],[27.3554,1.8277,569.8483],[27.3527,1.8404,586.1884],[27.354,1.8466,619.0385],[27.3588,1.8526,809.7379],[27.3652,1.8556,874.0956],[27.3657,1.8588,830.1987],[27.3499,1.876,711.6393],[27.3738,1.874,913.9479],[27.3835,1.8715,842.7992],[27.3951,1.8722,860.1985],[27.4016,1.8735,759.9853],[27.4098,1.8852,684.754],[27.4071,1.8929,714.5457],[27.392,1.9103,791.8942],[27.3821,1.9271,739.0593],[27.3819,1.9381,757.4769],[27.3786,1.9465,773.7246],[27.357,1.9625,772.4186],[27.3562,1.9729,790.2106],[27.3587,1.9781,760.9926],[27.3572,1.9955,777.999],[27.3285,2.0148,762.2297],[27.327,2.029,747.5681],[27.3138,2.0365,778.9568],[27.2941,2.0238,763.4269],[27.2864,2.0284,725.9291],[27.2667,2.0472,700.0327],[27.2537,2.048,707.3027],[27.2537,2.0406,706.0756],[27.2473,2.0319,687.1628],[27.2441,2.0289,678.5828],[27.2311,2.0259,671.4847],[27.2288,2.0238,664.3356],[27.227,2.0089,684.5066],[27.2288,2.0056,669.8138],[27.2348,2.0033,656.0782],[27.24,1.9856,672.6211],[27.2469,1.9806,660.673],[27.2485,1.976,654.6329],[27.2439,1.9721,648.2114],[27.2426,1.9682,641.1047],[27.2462,1.9617,641.1193],[27.2426,1.9583,633.7311],[27.2284,1.9596,629.6594],[27.2247,1.9584,616.5394],[27.2225,1.9532,612.7116],[27.2252,1.9447,603.8618],[27.2248,1.9396,585.8086],[27.2188,1.9334,577.0524],[27.2195,1.9295,573.545],[27.2159,1.923,560.1654],[27.2129,1.9212,562.7548],[27.2102,1.9113,554.1945],[27.1926,1.9124,546.1143],[27.1871,1.9062,552.9182],[27.1796,1.903,539.8073],[27.17,1.9057,538.113],[27.1528,1.902,538.5872],[27.1492,1.8965,538.6158],[27.143,1.896,532.6679],[27.1368,1.9043,545.2153],[27.111,1.9153,529.2523],[27.1064,1.9158,531.3796],[27.0929,1.9114,530.3819],[27.0746,1.9084,528.8738],[27.0604,1.9148,511.5881],[27.0536,1.9214,508.8609],[27.0479,1.924,511.0213],[27.044,1.9412,513.036],[27.0348,1.9414,495.2716],[27.0316,1.9449,494.9628],[27.0286,1.9529,498.263],[27.0151,1.9465,511.9548],[27.0078,1.9453,494.3395],[26.9996,1.9547,501.1742],[26.984,1.9552,499.5576],[26.9826,1.9579,495.9383],[26.9849,1.9632,492.6878],[26.9826,1.9671,506.4101],[26.9783,1.9678,489.7217],[26.9746,1.971,494.4473],[26.9707,1.9788,494.1132],[26.9664,1.98,494.2418],[26.9618,1.9859,498.7678],[26.9595,1.9857,494.242],[26.9565,1.9892,497.0238],[26.9527,1.9889,496.3853],[26.9513,1.9947,497.9729],[26.9458,1.9956,500.2574],[26.9421,1.9981,517.0495],[26.9366,2.0075,499.6721],[26.9371,2.0135,502.562],[26.94,2.017,497.4089],[26.9377,2.0209,498.3781],[26.9414,2.0271,493.5001],[26.937,2.0423,497.0887],[26.9386,2.0464,504.274],[26.9345,2.0515,499.6119],[26.9365,2.0549,499.5228],[26.9354,2.0577,502.961],[26.9285,2.063,506.4019],[26.9265,2.0713,522.7858],[26.9299,2.0738,525.4974],[26.9319,2.0805,504.7076],[26.931,2.0851,504.8863],[26.9274,2.0853,504.982],[26.9294,2.092,500.6534],[26.928,2.0956,505.4319],[26.9232,2.0943,504.0876],[26.9159,2.1172,517.5735],[26.9106,2.1175,511.6356],[26.9069,2.1251,511.2086],[26.9014,2.1276,526.0358],[26.9019,2.1331,528.312],[26.8978,2.1333,523.9146],[26.895,2.1363,528.4481],[26.8934,2.1411,529.9401],[26.8936,2.1494,528.5781],[26.8863,2.1593,544.2645],[26.8817,2.1701,523.8155],[26.8689,2.1731,513.655],[26.8686,2.1643,505.8743],[26.8645,2.1528,530.5195],[26.8593,2.146,529.641],[26.8554,2.1456,526.486],[26.8471,2.1494,530.9671],[26.8369,2.1506,525.3301],[26.8262,2.15,535.2009],[26.8213,2.1445,532.0586],[26.8154,2.1304,538.0059],[26.8091,2.1274,534.64],[26.8008,2.1294,555.1882],[26.7966,2.1386,535.5447],[26.7888,2.1487,595.3157],[26.7805,2.1499,564.3444],[26.775,2.1563,568.5171],[26.7729,2.1671,544.6462],[26.7747,2.1789,547.7593],[26.7695,2.1919,547.4598],[26.7559,2.1942,589.2129],[26.7455,2.1931,611.2136],[26.7191,2.174,652.1223],[26.6422,2.1025,590.153],[26.6263,2.0967,601.106],[26.6266,2.1104,604.4547],[26.6221,2.1204,631.5936],[26.6149,2.1206,615.5317],[26.6026,2.1163,610.0269],[26.5972,2.1103,604.9245],[26.5998,2.1014,591.032],[26.604,2.095,604.0219],[26.5999,2.0677,580.013],[26.5843,2.0532,575.3883]]]]}
,"properties": {"GID_2": "COD.25.1_1","GID_0": "COD","country": "DemocraticRepublicoftheCongo","GID_1": "COD.25_1","province": "Tshopo","NL_NAME_1": "NA","county": "Bafwasende","VARNAME_2": "NA","NL_NAME_2": "NA","TYPE_2": "Territoire","ENGTYPE_2": "Territory","CC_2": "NA","HASC_2": "NA","name": "Bafwasende.county","area_km2": 49023.55,"hist_schema_id": "Elevation0-9000","hist_area_km2": {"400": 8.8,"425": 101.36,"450": 607.26,"475": 1459.76,"500": 4413.65,"525": 5906.79,"550": 4224.25,"575": 3056.1,"600": 3575.96,"625": 4128.46,"650": 3492.61,"675": 3375.26,"700": 3573.08,"725": 3293.95,"750": 2598.55,"775": 1569.28,"800": 1358.02,"825": 933.27,"850": 517.66,"875": 322.99,"900": 200.38,"925": 121.72,"950": 73.29,"975": 42.53,"1000": 29.13,"1025": 19.63,"1050": 12.83,"1075": 4.94,"1100": 1.72}}}