{"type":"Feature","properties":{"GID_2":"COD.11.4_1","GID_0":"COD","country":"DemocraticRepublicoftheCongo","GID_1":"COD.11_1","province":"Kongo-Central","NL_NAME_1":"NA","county":"Kasangulu","VARNAME_2":"NA","NL_NAME_2":"NA","TYPE_2":"Territoire","ENGTYPE_2":"Territory","CC_2":"NA","HASC_2":"NA","name":"Kasangulu.county"},
"geometry":{"type": "MultiPolygon","coordinates": [[[[15.137,-4.4462,267.5138],[15.1327,-4.4441,248.3436],[15.129,-4.4453,236.0],[15.1249,-4.4549,235.0],[15.126,-4.4586,270.9823],[15.1232,-4.4617,234.5],[15.1248,-4.4625,237.6155],[15.1168,-4.4687,233.5],[15.1141,-4.4738,233.0],[15.115,-4.4775,232.5],[15.1083,-4.4813,246.0916],[15.108,-4.4844,249.2666],[15.1047,-4.487,231.0],[15.1048,-4.495,295.821],[15.0982,-4.4968,258.7357],[15.0872,-4.5105,323.8256],[15.0757,-4.5173,327.7541],[15.0714,-4.5227,365.8943],[15.0628,-4.5293,309.7531],[15.061,-4.5331,375.6546],[15.0525,-4.54,315.8555],[15.041,-4.5452,309.6393],[15.024,-4.5639,334.9659],[14.9955,-4.6034,359.6095],[14.9131,-4.6811,348.5369],[14.9036,-4.6988,384.3466],[14.8965,-4.7209,295.7203],[14.8821,-4.7426,313.4763],[14.8756,-4.7558,322.9388],[14.8728,-4.7682,306.5203],[14.8903,-4.7702,361.379],[14.8963,-4.7729,350.0861],[14.9025,-4.7819,363.9926],[14.9078,-4.7803,394.3144],[14.9179,-4.7996,435.1296],[14.9234,-4.8005,486.3516],[14.9296,-4.7989,463.0823],[14.9344,-4.8028,457.8724],[14.9437,-4.8216,431.7257],[14.9444,-4.8278,452.0356],[14.9513,-4.8322,469.3192],[14.96,-4.8462,453.8815],[14.9653,-4.8439,441.0088],[14.9687,-4.8448,444.6279],[14.9758,-4.8485,468.7565],[14.9818,-4.8542,456.2208],[14.9853,-4.8627,455.0055],[14.9793,-4.8685,453.0759],[14.9931,-4.8822,483.0694],[14.9936,-4.8855,471.7554],[14.9918,-4.8894,460.6614],[14.9973,-4.9002,464.9299],[15.0028,-4.9015,454.588],[15.0072,-4.9004,456.264],[15.0097,-4.9034,483.2986],[15.01,-4.91,479.6137],[15.0132,-4.9146,480.9116],[15.0192,-4.9137,461.9436],[15.0247,-4.9167,501.469],[15.0327,-4.9153,457.3961],[15.0389,-4.9162,464.5096],[15.0419,-4.9196,464.5641],[15.0481,-4.9178,479.7969],[15.0483,-4.9291,467.4987],[15.0564,-4.9286,461.3918],[15.0649,-4.9348,458.2916],[15.0729,-4.9295,502.334],[15.0867,-4.9257,494.9814],[15.108,-4.9262,515.2012],[15.1245,-4.9284,494.5763],[15.1369,-4.9337,504.3021],[15.1415,-4.9378,501.8434],[15.153,-4.9433,509.7779],[15.1889,-4.9582,502.3246],[15.1969,-4.96,504.9763],[15.2164,-4.9544,522.5243],[15.2318,-4.9574,554.449],[15.2437,-4.9564,536.538],[15.2492,-4.9592,553.1325],[15.2591,-4.9748,541.5615],[15.2628,-4.978,550.6652],[15.2736,-4.9791,560.5638],[15.2816,-4.977,569.9594],[15.2939,-4.9676,600.1782],[15.3044,-4.9629,550.3942],[15.3116,-4.9605,534.5267],[15.3187,-4.9614,532.8507],[15.3478,-4.9969,570.9337],[15.3457,-4.9879,535.554],[15.3466,-4.9812,520.753],[15.3571,-4.9612,528.2877],[15.3605,-4.9474,520.4406],[15.3635,-4.9453,527.4676],[15.3887,-4.9404,486.8278],[15.3938,-4.9381,495.5006],[15.4022,-4.9291,495.4884],[15.4091,-4.9272,515.782],[15.413,-4.924,494.1558],[15.4173,-4.9148,488.9336],[15.4201,-4.9125,474.3852],[15.4396,-4.9083,473.0047],[15.4563,-4.8961,450.6467],[15.4843,-4.8964,438.41],[15.4946,-4.8913,440.3613],[15.5028,-4.8918,420.9053],[15.5125,-4.8881,420.1169],[15.521,-4.8913,433.6086],[15.5276,-4.8906,427.9523],[15.5334,-4.8857,416.1566],[15.5388,-4.876,418.7151],[15.5413,-4.8742,413.618],[15.5443,-4.8751,408.8842],[15.5504,-4.8832,430.8604],[15.5499,-4.8882,417.0908],[15.538,-4.911,430.5085],[15.5272,-4.9233,440.4536],[15.5278,-4.9351,473.2341],[15.5331,-4.9461,514.7693],[15.5441,-4.9522,461.3634],[15.5544,-4.954,568.9316],[15.5631,-4.9583,525.4775],[15.5637,-4.965,557.9063],[15.5335,-5.0044,544.7958],[15.53,-5.0195,581.936],[15.5331,-5.046,496.3106],[15.5437,-5.05,527.0619],[15.5564,-5.0493,528.9677],[15.574,-5.0436,533.1835],[15.5908,-5.0412,466.6086],[15.601,-5.0447,417.6759],[15.6066,-5.0505,431.5515],[15.6092,-5.0567,418.2842],[15.6076,-5.0617,425.3481],[15.6097,-5.068,433.1324],[15.6088,-5.0749,412.4795],[15.61,-5.0852,432.0609],[15.6052,-5.0905,432.4333],[15.6047,-5.0988,427.851],[15.6066,-5.1029,469.3896],[15.6022,-5.1052,449.4455],[15.589,-5.1209,457.3902],[15.5871,-5.1274,452.9196],[15.5912,-5.1357,464.1562],[15.5986,-5.1427,467.5543],[15.6059,-5.1527,493.892],[15.6185,-5.1579,795.1779],[15.632,-5.1597,812.8834],[15.6852,-5.1611,814.8422],[15.6993,-5.1636,756.8892],[15.7013,-5.1572,752.2213],[15.7093,-5.1456,750.4099],[15.7201,-5.1403,761.8304],[15.724,-5.1336,791.9342],[15.7294,-5.1148,770.7069],[15.7305,-5.1035,777.3984],[15.7353,-5.0892,743.5547],[15.7371,-5.0696,734.3843],[15.7423,-5.0609,738.7587],[15.7409,-5.042,732.2236],[15.748,-5.0453,754.7299],[15.7671,-5.0481,776.4407],[15.7861,-5.0499,767.9888],[15.8036,-5.0484,785.6234],[15.8188,-5.0418,759.7476],[15.8245,-5.0377,725.4628],[15.8332,-5.0249,682.6013],[15.8209,-5.0243,704.2528],[15.8158,-5.0206,729.8237],[15.8049,-5.0248,703.2277],[15.7927,-5.0193,762.3881],[15.783,-5.0235,783.6586],[15.7794,-5.0235,781.5264],[15.7649,-5.0187,757.0621],[15.7544,-5.0182,727.0977],[15.7446,-4.9883,785.4139],[15.7436,-4.9696,774.1686],[15.7346,-4.9621,730.8708],[15.7179,-4.9567,540.8361],[15.6991,-4.9468,477.5617],[15.6855,-4.9372,498.8807],[15.6866,-4.9316,468.7081],[15.6849,-4.9272,405.3066],[15.6689,-4.9159,487.2296],[15.6389,-4.9037,398.1768],[15.6244,-4.8924,430.217],[15.6163,-4.8781,407.9249],[15.6138,-4.8617,412.4717],[15.62,-4.8319,438.4373],[15.6245,-4.8185,465.3102],[15.6359,-4.8104,393.3715],[15.6479,-4.8076,397.0778],[15.668,-4.8103,372.774],[15.6838,-4.8072,379.9154],[15.6988,-4.7939,387.9171],[15.7097,-4.7761,380.6318],[15.7128,-4.7635,418.6193],[15.7156,-4.7277,372.7869],[15.7202,-4.7106,389.5937],[15.7261,-4.6965,399.6554],[15.7377,-4.6794,405.7639],[15.751,-4.6475,726.7897],[15.7436,-4.6303,725.7386],[15.7326,-4.619,709.9073],[15.6984,-4.6082,632.3671],[15.6783,-4.5945,417.93],[15.6715,-4.5848,386.7711],[15.6703,-4.5717,332.3539],[15.6681,-4.573,345.7168],[15.6674,-4.5689,333.3721],[15.6632,-4.5717,331.8883],[15.6619,-4.5764,342.7589],[15.6563,-4.5739,335.826],[15.6544,-4.5765,332.2247],[15.6558,-4.5794,335.1519],[15.6521,-4.5827,345.3592],[15.6529,-4.5844,342.8227],[15.6513,-4.5861,334.9586],[15.6472,-4.6042,339.3162],[15.6346,-4.6023,345.4109],[15.596,-4.6026,466.7704],[15.5825,-4.6065,386.3036],[15.5712,-4.604,414.591],[15.5506,-4.6043,367.6124],[15.5427,-4.5958,357.4819],[15.5249,-4.5877,356.3424],[15.5171,-4.5946,354.3098],[15.5154,-4.6007,346.0717],[15.5094,-4.6039,346.9195],[15.5032,-4.6019,344.5767],[15.4859,-4.6081,356.5021],[15.4767,-4.6079,342.5035],[15.4664,-4.6,354.9579],[15.4641,-4.5935,340.107],[15.465,-4.591,341.3637],[15.462,-4.5869,329.4719],[15.4511,-4.5807,324.926],[15.4488,-4.5745,330.8409],[15.45,-4.5695,328.2012],[15.4395,-4.5541,319.26],[15.4384,-4.5462,325.3977],[15.4363,-4.5446,311.5061],[15.4291,-4.5459,309.4329],[15.4223,-4.5445,314.0524],[15.4197,-4.5467,313.5354],[15.4123,-4.5483,309.1775],[15.4061,-4.5527,302.546],[15.4072,-4.5543,308.6224],[15.4029,-4.5602,317.3811],[15.4064,-4.5644,335.5098],[15.404,-4.567,308.4005],[15.4062,-4.5737,306.3279],[15.4046,-4.5782,339.2845],[15.4074,-4.5816,320.0991],[15.4055,-4.5835,304.722],[15.4077,-4.5883,304.3043],[15.404,-4.5894,323.475],[15.4054,-4.5922,326.67],[15.4032,-4.6012,312.3625],[15.3968,-4.6052,322.2527],[15.3965,-4.6103,312.1855],[15.3923,-4.6131,316.6557],[15.3898,-4.625,317.1946],[15.3869,-4.6257,324.6307],[15.3803,-4.6326,330.4105],[15.3772,-4.6338,322.1057],[15.378,-4.6374,316.7996],[15.375,-4.6368,314.9174],[15.3731,-4.6387,315.3298],[15.3681,-4.6377,333.067],[15.3684,-4.6389,316.3443],[15.362,-4.644,317.0599],[15.3592,-4.6444,316.6014],[15.3597,-4.6423,317.0702],[15.3577,-4.6433,317.7406],[15.3578,-4.6466,316.9118],[15.3465,-4.6478,324.0923],[15.3417,-4.6462,328.7383],[15.3343,-4.6468,339.648],[15.3306,-4.6452,347.3179],[15.3289,-4.6425,339.2821],[15.3305,-4.6402,344.237],[15.3267,-4.6332,355.091],[15.3188,-4.6296,359.0809],[15.3144,-4.6246,362.439],[15.3044,-4.6242,365.5988],[15.3012,-4.6223,371.9085],[15.2919,-4.6213,376.6753],[15.2791,-4.6222,381.9782],[15.2727,-4.616,401.1526],[15.2681,-4.6151,397.5778],[15.2529,-4.6166,402.4202],[15.2456,-4.6156,384.9205],[15.2341,-4.5927,385.6286],[15.2314,-4.5919,377.9576],[15.2299,-4.5895,377.4803],[15.2162,-4.5855,372.7314],[15.2136,-4.5829,374.3115],[15.2068,-4.5665,359.2367],[15.1948,-4.5619,408.1529],[15.1748,-4.5591,469.4902],[15.1731,-4.5561,428.695],[15.1739,-4.5465,496.9496],[15.1765,-4.5408,450.8606],[15.1721,-4.5355,444.7353],[15.1724,-4.5268,394.3219],[15.1777,-4.5112,372.7166],[15.1737,-4.5032,350.9742],[15.1761,-4.4968,344.4773],[15.1733,-4.4755,334.9996],[15.1619,-4.4562,321.6432],[15.1566,-4.4541,304.405],[15.1542,-4.451,309.5118],[15.1523,-4.4531,302.0065],[15.1496,-4.4518,290.6371],[15.1464,-4.4526,289.8271],[15.1434,-4.4509,292.5899],[15.1427,-4.4471,300.0226],[15.1408,-4.4456,281.2952],[15.137,-4.4462,267.5138]],
[[15.1887,-4.6044,421.8596],[15.1844,-4.6061,406.7366],[15.1705,-4.6051,401.761],[15.1658,-4.6021,392.9396],[15.1603,-4.5903,428.3027],[15.1622,-4.5839,437.0642],[15.166,-4.5811,432.2667],[15.1761,-4.5781,383.699],[15.1901,-4.5836,392.8083],[15.1927,-4.5892,399.3058],[15.1925,-4.5926,399.9462],[15.1916,-4.5999,392.6398],[15.1887,-4.6044,421.8596]]]]}}