{"type": "Feature","bbox": [22.5745,2.0757,24.8666,3.7714],"geometry": {"type": "MultiPolygon","coordinates": [[[[23.5726,2.3962,518.1144],[23.5696,2.377,528.5212],[23.5815,2.3404,539.5192],[23.5844,2.3381,546.3503],[23.5852,2.3227,508.3814],[23.6064,2.2901,480.0366],[23.6071,2.286,478.994],[23.6037,2.2837,465.3185],[23.6033,2.2802,431.9056],[23.6117,2.2543,464.6057],[23.6103,2.249,462.5938],[23.6053,2.242,466.078],[23.6016,2.2199,461.7741],[23.6028,2.2096,435.2422],[23.594,2.1911,417.9633],[23.6189,2.192,421.5969],[23.637,2.1901,413.3231],[23.6486,2.1914,398.6249],[23.6649,2.1888,403.0172],[23.6802,2.1813,401.2703],[23.6981,2.1761,404.2318],[23.7123,2.1644,428.6671],[23.7224,2.1606,403.6675],[23.7316,2.1509,410.0646],[23.7566,2.137,420.0703],[23.7665,2.1283,429.7968],[23.7738,2.1252,447.3481],[23.7997,2.1239,443.5513],[23.8241,2.1287,450.3951],[23.8447,2.1288,442.8185],[23.8669,2.1268,455.1424],[23.8763,2.1243,452.0771],[23.8827,2.1202,425.1211],[23.8903,2.1083,451.5792],[23.8931,2.0989,433.8748],[23.8996,2.0876,454.1204],[23.9039,2.0844,454.3812],[23.914,2.0824,480.2073],[23.92,2.0781,494.971],[23.9305,2.0793,490.6296],[23.9463,2.0757,494.2646],[23.9602,2.0774,482.4107],[23.9627,2.0873,476.482],[23.9715,2.0977,516.495],[23.9749,2.112,513.1422],[23.9785,2.1141,514.5016],[23.9879,2.1155,521.6548],[24.0007,2.1245,528.5441],[24.0121,2.1278,522.5607],[24.024,2.124,527.5948],[24.0322,2.1242,561.0095],[24.0406,2.1342,551.2291],[24.0475,2.1365,566.5524],[24.0585,2.1347,555.1928],[24.0857,2.1543,529.8716],[24.0689,2.1708,548.9535],[24.0608,2.1761,564.5871],[24.0574,2.1848,563.9819],[24.058,2.1971,564.5948],[24.0638,2.2024,560.8423],[24.0656,2.2064,550.6],[24.0581,2.2071,548.7103],[24.0598,2.2106,540.1555],[24.0755,2.2158,525.6477],[24.0946,2.2075,527.6855],[24.1044,2.2057,510.5554],[24.1154,2.2097,546.5059],[24.1612,2.2195,574.5687],[24.1722,2.22,587.152],[24.1955,2.2287,581.4731],[24.2024,2.2369,571.929],[24.2036,2.245,572.2291],[24.2153,2.2602,568.6461],[24.2246,2.2637,570.1272],[24.2732,2.26,566.9714],[24.3046,2.2762,573.5466],[24.3104,2.2808,585.8148],[24.3196,2.2808,585.9266],[24.337,2.2749,571.0824],[24.3474,2.2608,582.8529],[24.3566,2.2432,582.8701],[24.3647,2.2397,578.6365],[24.41,2.2594,583.1956],[24.425,2.2593,573.0362],[24.4401,2.2698,542.672],[24.4483,2.2814,534.3721],[24.4575,2.2826,498.8386],[24.6985,2.2698,515.7178],[24.8445,2.2634,460.1588],[24.8616,2.2642,443.9167],[24.8637,2.2663,445.0539],[24.8612,2.2755,438.8363],[24.8635,2.2806,438.7398],[24.8666,2.2827,433.9605],[24.8609,2.2953,442.094],[24.8556,2.2999,435.8203],[24.8529,2.3003,435.4799],[24.8499,2.2976,445.2875],[24.8536,2.2904,440.9777],[24.852,2.2888,437.8816],[24.8383,2.2872,436.8211],[24.8364,2.2883,429.8975],[24.8357,2.2915,429.2781],[24.8426,2.3017,443.2944],[24.8421,2.3051,433.571],[24.8368,2.3065,435.9076],[24.8363,2.3106,428.2025],[24.8331,2.3136,423.9593],[24.8301,2.3274,434.5361],[24.8285,2.329,444.6349],[24.8255,2.3287,433.7024],[24.8232,2.3257,432.9808],[24.8203,2.3306,440.4176],[24.8209,2.3391,434.2946],[24.8195,2.3425,449.2561],[24.8161,2.3414,436.4937],[24.8147,2.3372,435.2262],[24.8127,2.3377,437.0934],[24.8094,2.3446,429.5528],[24.7959,2.347,436.2369],[24.7909,2.3498,436.5218],[24.7833,2.3569,427.9247],[24.7709,2.3745,436.7352],[24.7668,2.375,437.1639],[24.7641,2.3669,440.8718],[24.7609,2.3667,437.8522],[24.757,2.3708,447.2187],[24.7546,2.3784,437.218],[24.7553,2.3876,434.1681],[24.7525,2.3924,436.5599],[24.7443,2.3949,437.4768],[24.7406,2.3993,445.8478],[24.7387,2.4076,433.7178],[24.7316,2.4174,437.9402],[24.7222,2.422,439.7003],[24.7228,2.4367,431.4821],[24.721,2.4383,426.3419],[24.716,2.4344,432.7767],[24.7132,2.439,438.8908],[24.7166,2.4509,428.8541],[24.7099,2.4555,429.3687],[24.7038,2.4564,430.4138],[24.7019,2.4601,439.1468],[24.6976,2.461,437.6286],[24.6987,2.4667,431.9561],[24.6961,2.4693,430.6694],[24.6964,2.4734,431.9535],[24.6941,2.4778,438.2871],[24.689,2.4752,437.9834],[24.6867,2.4782,435.4488],[24.6853,2.4819,428.6039],[24.6874,2.4872,431.6125],[24.6871,2.4927,427.8245],[24.6839,2.4952,424.038],[24.6809,2.4952,430.0063],[24.6794,2.489,430.9461],[24.6778,2.4883,434.4621],[24.6681,2.4963,429.707],[24.6665,2.4993,425.2714],[24.6715,2.5044,434.6772],[24.6713,2.509,447.5401],[24.6653,2.5151,431.7919],[24.6616,2.5149,440.1017],[24.6589,2.508,438.6391],[24.6555,2.5128,456.7361],[24.6525,2.5135,445.0614],[24.6507,2.508,422.1125],[24.6417,2.5146,431.606],[24.639,2.5185,433.9201],[24.6349,2.5173,427.9477],[24.631,2.5136,426.6327],[24.6259,2.5143,407.2279],[24.6264,2.5246,427.8962],[24.622,2.5315,433.1176],[24.6238,2.5378,436.0961],[24.621,2.5428,448.2935],[24.6169,2.5435,452.1487],[24.6085,2.5379,435.1803],[24.6041,2.5384,417.5874],[24.6011,2.5413,408.2171],[24.6018,2.5464,431.6542],[24.5979,2.5512,432.5301],[24.5999,2.5535,431.4717],[24.5985,2.5581,416.3974],[24.6015,2.5618,429.5807],[24.601,2.568,433.0517],[24.5928,2.5671,429.8314],[24.5854,2.5742,436.2764],[24.5815,2.5854,443.8384],[24.5774,2.5861,421.5097],[24.5666,2.5819,430.0038],[24.5639,2.5778,423.0966],[24.5595,2.5858,440.1248],[24.5629,2.5906,434.2521],[24.5684,2.5916,425.7588],[24.5702,2.5937,424.9715],[24.5689,2.5955,431.7543],[24.5613,2.598,421.4177],[24.5534,2.6128999999999998,423.5621],[24.5493,2.6154,420.0759],[24.5479,2.6184,451.1573],[24.5452,2.6189,441.5693],[24.5415,2.6145,428.4372],[24.5383,2.6179,424.8041],[24.5358,2.6246,427.4548],[24.5353,2.6306,423.5796],[24.5376,2.6336,428.7455],[24.5431,2.6345,416.8333],[24.544,2.6368,438.7323],[24.5421,2.6412,449.7411],[24.5396,2.6412,439.5108],[24.5318,2.634,432.6216],[24.528,2.634,440.3757],[24.5254,2.6358,438.2523],[24.5206,2.6445,445.5235],[24.5167,2.645,461.7928],[24.5119,2.6417,432.5593],[24.5089,2.6417,427.4374],[24.5082,2.6445,430.3448],[24.5107,2.6507,438.6302],[24.5086,2.6544,427.3808],[24.5041,2.655,411.2372],[24.5009,2.653,421.2503],[24.4979,2.646,427.4213],[24.4954,2.6458,426.7939],[24.4926,2.6532,432.356],[24.4899,2.6559,411.6707],[24.4869,2.655,417.5178],[24.484,2.6455,417.868],[24.4752,2.657,424.6973],[24.4716,2.6581,432.5949],[24.4645,2.651,404.9014],[24.4608,2.6528,421.3403],[24.458,2.6622,433.787],[24.4548,2.6663,444.7485],[24.4466,2.6716,428.4019],[24.4438,2.6713,417.6418],[24.4397,2.6674,420.9386],[24.4317,2.6669,416.2613],[24.4253,2.6618,411.6252],[24.4201,2.6611,420.3519],[24.4081,2.667,425.7411],[24.4045,2.6638,421.9473],[24.4007,2.6539,414.9124],[24.3956,2.6575,422.4903],[24.3649,2.6659,416.7411],[24.3562,2.6631,415.29],[24.3415,2.6718,423.8106],[24.3322,2.6708,426.1433],[24.3292,2.6738,422.8466],[24.3235,2.6724,426.1782],[24.3202,2.674,436.2974],[24.3136,2.673,419.4347],[24.3104,2.6792,427.8569],[24.2893,2.6902,421.2662],[24.2858,2.6897,424.1147],[24.2836,2.6858,409.4299],[24.2815,2.6853,397.4478],[24.2769,2.689,423.7316],[24.2701,2.6887,406.409],[24.2673,2.6857,409.513],[24.2664,2.6806,405.4056],[24.2635,2.6804,407.9859],[24.2563,2.685,415.0356],[24.2513,2.6847,418.1595],[24.2458,2.6941,427.1988],[24.2416,2.6975,432.1281],[24.2359,2.6996,422.3336],[24.2348,2.6964,411.5059],[24.2359,2.6931,394.6126],[24.2302,2.6952,412.4761],[24.2297,2.703,416.5312],[24.2267,2.7053,426.3367],[24.221,2.7069,434.0537],[24.2116,2.705,413.8773],[24.2029,2.7123,418.1837],[24.1928,2.7102,408.2953],[24.1867,2.7134,419.8667],[24.172,2.7323,436.0427],[24.1668,2.7434,455.9944],[24.1663,2.7622,462.237],[24.1674,2.7651,462.1605],[24.175,2.7659,464.6741],[24.1897,2.7626,447.289],[24.1947,2.7644,455.258],[24.1964,2.8009,461.2691],[24.1935,2.8119,440.1573],[24.1941,2.8186,440.2585],[24.1852,2.8326,432.9313],[24.1849,2.8397,428.1007],[24.1949,2.8543,424.3392],[24.2118,2.8638,387.2728],[24.2152,2.8624,408.7899],[24.2146,2.8475,405.6259],[24.2164,2.8445,402.748],[24.2222,2.8422,412.361],[24.2222,2.8401,398.738],[24.2304,2.8379,428.7418],[24.2393,2.8485,415.3772],[24.2457,2.8529,414.7861],[24.2532,2.8559,409.7449],[24.2594,2.8555,387.3651],[24.2608,2.8528,403.9561],[24.2595,2.8438,412.0735],[24.2618,2.8383,413.3275],[24.265,2.8355,416.6877],[24.2769,2.8319,409.753],[24.2892,2.8382,427.7498],[24.2947,2.846,410.8068],[24.2972,2.8525,416.9227],[24.296,2.8603,414.8832],[24.2971,2.863,392.2939],[24.2987,2.8628,392.2939],[24.3022,2.855,403.4076],[24.3061,2.8511,403.2742],[24.3139,2.8516,417.2865],[24.3196,2.856,409.9034],[24.3224,2.8554,409.625],[24.323,2.8537,405.7676],[24.3174,2.8452,407.321],[24.3162,2.8394,419.5627],[24.3174,2.8307,420.2953],[24.3198,2.825,408.3501],[24.3289,2.8183,420.0825],[24.3337,2.8181,432.5769],[24.3412,2.831,415.7618],[24.3463,2.8354,396.4252],[24.3504,2.8364,402.6705],[24.3533,2.8348,408.0034],[24.3582,2.8263,408.2192],[24.3619,2.8245,417.1107],[24.3696,2.8263,404.1725],[24.3806,2.8321,406.0846],[24.3998,2.8311,423.8475],[24.4135,2.8424,414.0121],[24.4163,2.8424,401.7121],[24.417,2.8388,393.5514],[24.4147,2.8319,391.9844],[24.4159,2.8289,396.259],[24.4198,2.8256,420.2986],[24.431,2.8225,415.8315],[24.439,2.8223,402.3891],[24.4422,2.8191,407.5823],[24.4429,2.8142,397.955],[24.4233,2.7935,394.7054],[24.4222,2.787,411.9648],[24.4229,2.7799,422.1306],[24.4266,2.7774,425.4796],[24.434,2.776,417.3876],[24.4427,2.7705,429.3267],[24.447,2.771,424.8963],[24.455,2.775,414.5094],[24.4586,2.7897,418.4964],[24.4654,2.7962,411.6929],[24.4906,2.8002,400.8273],[24.4993,2.8,403.8035],[24.5011,2.8092,409.3246],[24.5061,2.8097,417.499],[24.513,2.8134,409.2927],[24.5143,2.8222,412.1997],[24.5131,2.83,413.3352],[24.519,2.8406,412.567],[24.5226,2.8554,398.6791],[24.5221,2.8618,408.2861],[24.5124,2.8804,422.3822],[24.4998,2.8902,411.5081],[24.4934,2.898,410.3107],[24.4841,2.9192,411.8778],[24.482,2.9277,418.593],[24.4832,2.9574,418.8273],[24.4908,2.9768,420.6611],[24.4941,2.9924,424.1676],[24.4949,3.0025,428.633],[24.4912,3.0119,427.6532],[24.4907,3.0198,427.2484],[24.4937,3.0262,429.3871],[24.4977,3.0502,434.0422],[24.4951,3.067,432.388],[24.4969,3.0732,429.4159],[24.5024,3.0781,437.7858],[24.5133,3.0836,441.5291],[24.5154,3.0873,446.6499],[24.5302,3.0989,447.1573],[24.5437,3.1052,447.0597],[24.5506,3.105,461.6612],[24.5684,3.1159,465.8378],[24.5732,3.1115,463.9133],[24.5764,3.1118,469.1783],[24.5842,3.1194,461.3471],[24.5922,3.1183,471.6806],[24.6049,3.131,469.7846],[24.61,3.1324,474.9803],[24.618,3.1301,499.7181],[24.628,3.1334,488.4597],[24.6358,3.1309,506.5729],[24.6535,3.1305,506.4854],[24.666,3.1336,510.8235],[24.677,3.1428,522.3616],[24.6765,3.147,523.5194],[24.6696,3.1543,518.3365],[24.6691,3.1584,509.1752],[24.6755,3.1667,542.9387],[24.678,3.1766,536.0937],[24.6832,3.185,549.5053],[24.6924,3.1912,595.7371],[24.6965,3.1864,577.5475],[24.7005,3.1634,582.2744],[24.7047,3.1544,579.3243],[24.7164,3.1537,575.9901],[24.719,3.1569,576.2029],[24.7192,3.1904,591.1805],[24.7081,3.2078,560.8461],[24.7035,3.2193,593.4398],[24.702,3.2354,569.1775],[24.6967,3.2559,575.7033],[24.698,3.2663,564.0999],[24.6954,3.2789,586.832],[24.6955,3.3061,575.8542],[24.7009,3.3296,562.8716],[24.7043,3.3379,550.6656],[24.699,3.3514,559.7629],[24.6905,3.3643,579.3083],[24.684,3.3788,569.3062],[24.6713,3.3902,584.6572],[24.6672,3.4029,551.1163],[24.6504,3.4194,552.9272],[24.6286,3.4358,539.4244],[24.6159,3.4411,537.1084],[24.6036,3.4424,549.4553],[24.5978,3.4458,539.3966],[24.593,3.4562,530.2987],[24.5792,3.4635,505.5],[24.5751,3.4641,510.8985],[24.5707,3.4685,508.273],[24.5654,3.4696,517.407],[24.5367,3.4888,505.5],[24.5217,3.5051,505.5],[24.5128,3.5124,505.0],[24.5084,3.5214,519.2339],[24.5029,3.5264,505.0],[24.496,3.5299,524.5256],[24.4841,3.5298,509.7446],[24.4806,3.5277,511.6243],[24.4737,3.5367,504.0],[24.4685,3.5396,523.9678],[24.4593,3.5361,515.8802],[24.4481,3.5359,565.9042],[24.4435,3.5319,500.375],[24.4322,3.5434,511.9517],[24.4214,3.5479,569.4931],[24.4105,3.5437,521.3312],[24.4047,3.5476,527.1302],[24.3963,3.5469,504.7904],[24.3852,3.5535,509.2846],[24.3607,3.5536,500.881],[24.3612,3.5573,496.0],[24.3589,3.5603,517.057],[24.3563,3.5697,500.2779],[24.354,3.5716,492.875],[24.3483,3.5715,503.3239],[24.3455,3.5731,511.5586],[24.3443,3.5784,491.0],[24.3319,3.5908,509.3698],[24.3253,3.5901,498.1574],[24.3239,3.5981,494.9298],[24.3216,3.6036,495.267],[24.3183,3.6066,502.4723],[24.3155,3.616,494.3083],[24.3123,3.6183,491.0],[24.3002,3.6206,504.8106],[24.2948,3.6318,491.0],[24.2926,3.6327,499.4982],[24.2886,3.6396,491.0],[24.2806,3.6446,509.1516],[24.2769,3.6513,506.3168],[24.2647,3.6634,491.0],[24.2477,3.6721,497.1775],[24.244,3.6778,503.7675],[24.243,3.6884,518.3834],[24.2407,3.6937,506.0674],[24.2347,3.6999,490.0],[24.232,3.7015,490.0],[24.221,3.7008,489.5],[24.2164,3.7033,489.0],[24.2047,3.7043,488.5],[24.1964,3.7108,487.5],[24.1884,3.7142,487.0],[24.1762,3.7127,486.5],[24.1632,3.7191,504.5005],[24.1579,3.7186,485.0],[24.1519,3.7156,485.0],[24.1393,3.7162,484.0],[24.1304,3.71,496.8349],[24.122,3.7097,483.0],[24.1171,3.7078,482.5],[24.1151,3.7044,482.5],[24.1124,3.7034,482.0],[24.1032,3.7087,481.5],[24.0993,3.7071,481.5],[24.0933,3.7075,502.0298],[24.0825,3.7166,480.0],[24.071,3.7214,505.5126],[24.0674,3.7209,479.25],[24.0619,3.7149,479.0],[24.0548,3.7156,478.5],[24.0465,3.7181,478.0],[24.035,3.7272,483.0987],[24.0318,3.7279,477.0],[24.0243,3.7244,503.6738],[24.0195,3.7195,491.0677],[24.0076,3.7222,481.9379],[23.992,3.7302,474.5],[23.9736,3.7253,474.5],[23.954,3.724,474.0],[23.9514,3.7226,474.0],[23.9489,3.7169,473.75],[23.9453,3.7146,473.5],[23.9428,3.7063,473.5],[23.9461,3.6977,496.7849],[23.947,3.6987,503.1134],[23.9479,3.6927,514.1473],[23.9446,3.6791,496.9521],[23.945,3.6622,545.1612],[23.9253,3.6495,533.8527],[23.9102,3.6339,538.0548],[23.8994,3.6172,533.4904],[23.8954,3.6167,538.3727],[23.8887,3.6239,542.5774],[23.878,3.6227,536.851],[23.8717,3.6142,550.053],[23.8676,3.6038,549.1523],[23.8571,3.59,538.8821],[23.853,3.5913,551.4795],[23.8367,3.6147,562.9972],[23.8269,3.6204,530.337],[23.8229,3.6181,542.9155],[23.8219,3.6138,535.8174],[23.8082,3.5928,504.4431],[23.7918,3.5774,474.7164],[23.7822,3.5704,474.1219],[23.769,3.567,456.9546],[23.7612,3.5656,451.3558],[23.7487,3.5708,479.4731],[23.7258,3.5878,483.6262],[23.7178,3.5881,463.812],[23.714,3.5847,463.775],[23.7088,3.577,470.9738],[23.704,3.5569,458.6961],[23.6993,3.5569,451.4432],[23.6717,3.5703,463.4533],[23.6404,3.5769,467.5761],[23.619,3.5565,458.6223],[23.6111,3.5406,431.8808],[23.6091,3.5263,443.3662],[23.5973,3.5092,441.1255],[23.5534,3.5202,447.0121],[23.5198,3.5345,466.8265],[23.3681,3.5334,459.611],[23.3665,3.5366,452.0211],[23.3605,3.5396,435.2965],[23.3598,3.5467,441.8569],[23.3549,3.5554,447.1226],[23.356,3.5598,454.2841],[23.353,3.563,445.0042],[23.3521,3.5676,446.4044],[23.348,3.5692,443.5222],[23.3452,3.575,444.223],[23.3456,3.5849,448.3041],[23.3426,3.5901,450.2319],[23.3377,3.5965,451.7806],[23.3309,3.597,451.5577],[23.3251,3.5951,466.8164],[23.3187,3.6008,459.2672],[23.3184,3.6049,453.3649],[23.3218,3.6133,459.1194],[23.3211,3.6167,460.533],[23.3245,3.6252,457.4034],[23.3233,3.6294,453.8362],[23.3171,3.6351,463.0241],[23.2916,3.6471,484.2058],[23.2854,3.6547,480.4766],[23.2826,3.663,481.1572],[23.278199999999998,3.6666,481.9152],[23.2768,3.674,499.3233],[23.2692,3.6735,491.0744],[23.2685,3.6774,503.011],[23.2737,3.6951,496.9287],[23.2833,3.7035,507.7134],[23.2871,3.7051,505.1766],[23.2896,3.7095,497.0287],[23.2818,3.7224,520.4283],[23.2769,3.726,515.631],[23.2657,3.7294,515.8143],[23.2535,3.73,507.987],[23.2499,3.7325,516.601],[23.2414,3.7318,512.0429],[23.24,3.7332,520.3854],[23.24,3.738,520.114],[23.2457,3.744,531.5321],[23.2467,3.7537,523.7534],[23.2556,3.7611,537.1544],[23.2549,3.7639,544.0659],[23.2464,3.7714,551.5297],[23.2107,3.7531,544.1917],[23.1908,3.731,525.9709],[23.1869,3.7298,519.0085],[23.1809,3.725,523.027],[23.1563,3.714,530.6703],[23.143,3.7045,525.726],[23.1403,3.7003,535.7497],[23.1233,3.6962,512.4637],[23.1187,3.6919,514.7312],[23.1085,3.6757,503.9839],[23.099,3.6496,511.4611],[23.0912,3.6393,531.9818],[23.0843,3.6358,552.0771],[23.0615,3.6346,566.3079],[23.0567,3.6326,564.8361],[23.0467,3.6116,537.6459],[23.0368,3.5994,507.353],[23.0236,3.5906,554.4762],[22.9951,3.5808,548.2628],[22.9654,3.5754,557.6108],[22.9336,3.5655,540.5275],[22.8821,3.562,557.3558],[22.8418,3.554,563.8629],[22.8287,3.5456,549.8254],[22.8197,3.5278,536.724],[22.8069,3.517,537.0991],[22.7869,3.5039,533.0563],[22.7468,3.4898,518.5187],[22.7288,3.477,512.0034],[22.7053,3.4525,535.1821],[22.6815,3.445,554.2261],[22.6737,3.4381,550.0691],[22.6658,3.429,526.7104],[22.6547,3.408,507.2301],[22.6166,3.3693,549.2151],[22.6131,3.3597,545.6304],[22.6122,3.3433,550.5439],[22.6159,3.3333,546.3319],[22.6286,3.3233,549.3057],[22.6402,3.3186,553.0223],[22.6486,3.3124,537.5623],[22.6529,3.3045,518.082],[22.6514,3.2838,539.8466],[22.6235,3.2544,546.0796],[22.613,3.2392,555.2076],[22.606,3.2228,551.5711],[22.5885,3.2025,560.4248],[22.5745,3.1692,545.5343],[22.5774,3.161,536.4398],[22.5843,3.1569,539.7709],[22.5953,3.1539,530.9113],[22.6596,3.1524,546.8447],[22.6706,3.1477,556.2244],[22.696,3.133,540.2481],[22.7007,3.133,539.5245],[22.715699999999998,3.1276,546.528],[22.7261,3.1188,548.7645],[22.7597,3.124,579.0548],[22.7696,3.1181,575.0411],[22.7817,3.1057,548.2895],[22.7815,3.0543,565.3309],[22.7884,3.0402,555.2125],[22.8115,3.0249,560.1243],[22.8278,3.019,565.7947],[22.844,3.0166,563.4101],[22.8579,3.02,557.9382],[22.8917,3.0678,565.5903],[22.9056,3.0771,564.7492],[22.9218,3.0806,571.3762],[22.9415,3.0817,565.0834],[22.9554,3.0804,557.916],[22.9659,3.0775,555.5134],[22.9913,3.0534,555.4311],[23.0,3.0569,570.7388],[23.0122,3.0708,566.8622],[23.0197,3.0714,564.0902],[23.0232,3.0679,542.9254],[23.028,3.0503,536.719],[23.0381,3.0453,515.0902],[23.0508,3.0336,507.3738],[23.0597,3.0334,496.0477],[23.0333,2.9889,542.8186],[23.0211,2.9597,519.5739],[22.9832,2.8897,437.1017],[22.9541,2.853,483.7303],[22.9521,2.7992,560.3452],[22.9486,2.7746,555.0564],[22.9428,2.7922,559.2368],[22.9324,2.8028,542.1284],[22.9162,2.8098,526.0332],[22.9058,2.8099,528.6163],[22.8849,2.7948,479.5671],[22.886,2.7772,445.6651],[22.8802,2.7644,459.7096],[22.879,2.7574,442.2365],[22.887,2.7386,463.4249],[22.8997,2.7234,497.2036],[23.0296,2.5906,450.6137],[23.0472,2.5745,432.3543],[23.0646,2.5636,483.0837],[23.075,2.56,470.5645],[23.0889,2.5597,466.7024],[23.0984,2.5531,464.1528],[23.1027,2.5605,445.3752],[23.1071,2.5631,423.4354],[23.1213,2.5618,433.5364],[23.1571,2.5425,427.2174],[23.169,2.5377,408.2384],[23.1804,2.5362,394.3676],[23.1974,2.5294,403.8465],[23.2141,2.5255,392.6822],[23.2153,2.5237,390.737],[23.2403,2.5181,384.2551],[23.2566,2.5099,397.1886],[23.2733,2.4987,375.5645],[23.2979,2.4775,376.069],[23.2986,2.4743,373.1034],[23.2936,2.4667,381.4024],[23.2884,2.4685,376.9496],[23.284,2.4726,366.9405],[23.2742,2.4702,378.2302],[23.2738,2.4649,380.2481],[23.2776,2.4679,378.5555],[23.282,2.468,374.2117],[23.2903,2.4517,382.4753],[23.2938,2.4503,380.4369],[23.3084,2.4511,379.2566],[23.3145,2.4564,369.4729],[23.317,2.4659,370.9763],[23.3142,2.4762,376.4519],[23.3167,2.4822,372.1688],[23.3148,2.49,371.1282],[23.3159,2.4919,371.8336],[23.3189,2.4926,380.0393],[23.326,2.4873,373.8327],[23.3345,2.4874,368.8458],[23.3381,2.4878999999999998,368.7178],[23.3427,2.4927,373.6194],[23.3442,2.5008,366.9287],[23.3384,2.5134,375.1887],[23.3386,2.5175,378.9388],[23.3479,2.5289,371.3799],[23.3499,2.551,385.3124],[23.356,2.5632,383.8274],[23.3594,2.5651,382.0625],[23.3633,2.5628,367.2322],[23.3739,2.5451,381.5578],[23.3771,2.5431,365.379],[23.3829,2.5438,358.8284],[23.3911,2.5295,382.0012],[23.4001,2.5336,389.8442],[23.4088,2.5302,384.5293],[23.4132,2.5265,385.2039],[23.4245,2.51,394.899],[23.4273,2.5029,397.2318],[23.4327,2.5117,397.0829],[23.4519,2.5111,401.1067],[23.4579,2.4985,410.818],[23.4876,2.4758,401.648],[23.4917,2.4745,418.6487],[23.5204,2.4556,420.674],[23.5364,2.4513,464.2122],[23.5429,2.4456,489.1386],[23.5473,2.4357,526.447],[23.5669,2.4162,521.3742],[23.5726,2.3962,518.1144]],
[[23.8592,2.7361,412.4228],[23.8562,2.7126,396.8466],[23.8408,2.6949,434.5918],[23.8181,2.6809,437.259],[23.8143,2.681,397.8488],[23.8124,2.696,389.2888],[23.8087,2.7075,393.8727],[23.8052,2.7135,383.8901],[23.7999,2.7153,380.694],[23.7921,2.7265,384.6373],[23.7752,2.7237,385.1619],[23.749,2.7351,371.565],[23.7451,2.7355,383.4411],[23.7412,2.7334,379.8869],[23.7382,2.745,382.2768],[23.7412,2.7634,385.6984],[23.7551,2.7782,389.6465],[23.7749,2.787,385.8077],[23.7866,2.7951,386.1821],[23.8079,2.7973,389.0908],[23.8262,2.7951,392.6221],[23.8452,2.7818,380.2492],[23.8577,2.7568,405.7391],[23.8592,2.7361,412.4228]]]]}
,"properties": {"GID_2": "COD.1.1_1","GID_0": "COD","country": "DemocraticRepublicoftheCongo","GID_1": "COD.1_1","province": "Bas-Uele","NL_NAME_1": "NA","county": "Aketi","VARNAME_2": "NA","NL_NAME_2": "NA","TYPE_2": "Territoire","ENGTYPE_2": "Territory","CC_2": "NA","HASC_2": "NA","name": "Aketi.county","area_km2": 27320.57,"hist_schema_id": "Elevation0-9000","hist_area_km2": {"350": 21.82,"375": 420.21,"400": 1701.48,"425": 4565.9,"450": 5156.64,"475": 3753.69,"500": 3397.34,"525": 3764.96,"550": 3366.81,"575": 1044.61,"600": 120.91,"625": 6.1}}}