{"type": "Feature","bbox": [26.8932,1.896,28.5046,3.3191],"geometry": {"type": "MultiPolygon","coordinates": [[[[27.044,1.9412,513.036],[27.0479,1.924,511.0213],[27.0536,1.9214,508.8609],[27.0604,1.9148,511.5881],[27.0746,1.9084,528.8738],[27.0929,1.9114,530.3819],[27.1064,1.9158,531.3796],[27.111,1.9153,529.2523],[27.1368,1.9043,545.2153],[27.143,1.896,532.6679],[27.1492,1.8965,538.6158],[27.1528,1.902,538.5872],[27.17,1.9057,538.113],[27.1796,1.903,539.8073],[27.1871,1.9062,552.9182],[27.1926,1.9124,546.1143],[27.2102,1.9113,554.1945],[27.2129,1.9212,562.7548],[27.2159,1.923,560.1654],[27.2195,1.9295,573.545],[27.2188,1.9334,577.0524],[27.2248,1.9396,585.8086],[27.2252,1.9447,603.8618],[27.2225,1.9532,612.7116],[27.2247,1.9584,616.5394],[27.2284,1.9596,629.6594],[27.2426,1.9583,633.7311],[27.2462,1.9617,641.1193],[27.2426,1.9682,641.1047],[27.2439,1.9721,648.2114],[27.2485,1.976,654.6329],[27.2469,1.9806,660.673],[27.24,1.9856,672.6211],[27.2348,2.0033,656.0782],[27.2288,2.0056,669.8138],[27.227,2.0089,684.5066],[27.2288,2.0238,664.3356],[27.2311,2.0259,671.4847],[27.2441,2.0289,678.5828],[27.2473,2.0319,687.1628],[27.2537,2.0406,706.0756],[27.2537,2.048,707.3027],[27.2667,2.0472,700.0327],[27.2864,2.0284,725.9291],[27.2941,2.0238,763.4269],[27.3138,2.0365,778.9568],[27.3156,2.0589,753.2312],[27.3187,2.0731,743.5171],[27.3216,2.077,740.6019],[27.3355,2.0858,747.1984],[27.3398,2.0851,746.4355],[27.3467,2.0874,718.0131],[27.351,2.0918,719.7126],[27.3611,2.09,719.5268],[27.3661,2.0916,732.3433],[27.3721,2.0994,729.9305],[27.3741,2.1123,736.8569],[27.3768,2.1181,760.4449],[27.3835,2.1247,751.5373],[27.3857,2.1326,747.5369],[27.3835,2.1372,745.923],[27.3869,2.1457,762.1011],[27.3962,2.1566,739.3387],[27.4019,2.1959,741.1927],[27.4131,2.2207,742.2027],[27.4099,2.2359,760.8602],[27.403,2.2469,749.0322],[27.395,2.2557,748.4669],[27.3934,2.261,761.563],[27.3957,2.2683,751.2587],[27.3952,2.2734,756.4534],[27.3915,2.2803,781.5857],[27.3831,2.2835,767.2465],[27.3792,2.2934,757.4573],[27.3808,2.2971,765.0894],[27.384,2.2996,778.736],[27.3908,2.2996,769.9549],[27.3956,2.3019,798.4929],[27.3987,2.3185,757.6963],[27.4063,2.3272,767.5671],[27.4245,2.3314,769.7981],[27.4765,2.3313,768.4191],[27.4859,2.3339,762.8485],[27.4985,2.3458,754.8047],[27.5113,2.3626,762.6807],[27.5068,2.385,756.9308],[27.5099,2.3927,740.3055],[27.5106,2.4014,747.518],[27.5044,2.426,750.2377],[27.5044,2.4327,752.1232],[27.5087,2.442,747.748],[27.5247,2.4648,742.1235],[27.5361,2.4737,759.1189],[27.565,2.5018,756.6008],[27.582,2.5148,775.8158],[27.5986,2.5343,739.0629],[27.6178,2.5649,744.2126],[27.6217,2.5833,730.4446],[27.6216,2.5915,767.2269],[27.6269,2.5975,743.9136],[27.6319,2.5986,757.2963],[27.6427,2.5857,738.9585],[27.647,2.5708,732.7957],[27.6529,2.5635,744.2466],[27.6618,2.5606,747.3846],[27.6818,2.574,745.603],[27.694,2.5862,756.8906],[27.6939,2.6029,787.3092],[27.703,2.6058,746.6874],[27.7107,2.606,760.4111],[27.7217,2.6219,755.5509],[27.7273,2.6251,770.1527],[27.7352,2.6271,763.7556],[27.7423,2.6319,796.4263],[27.7451,2.6397,764.5056],[27.7388,2.6534,808.4841],[27.7578,2.6749,762.6088],[27.7591,2.686,740.4673],[27.7639,2.684,738.3584],[27.7829,2.666,743.2178],[27.7989,2.666,751.9522],[27.8035,2.6635,753.1469],[27.8057,2.66,768.1061],[27.8181,2.6114,762.0947],[27.8202,2.5859,770.6852],[27.828,2.5449,772.6714],[27.8363,2.5136,776.8997],[27.8461,2.4855,802.161],[27.8568,2.4711,748.7412],[27.8594,2.4554,783.6783],[27.8778,2.4148,798.5254],[27.8821,2.4005,786.1816],[27.8831,2.392,804.3358],[27.8782,2.3794,796.1595],[27.8784,2.3672,789.8892],[27.888,2.3529,775.9613],[27.8974,2.3471,770.0576],[27.9008,2.3559,777.9117],[27.9036,2.3586,784.4291],[27.9225,2.366,783.1912],[27.9244,2.3688,776.373],[27.9246,2.3759,776.7367],[27.9308,2.3819,778.9766],[27.9328,2.386,757.1682],[27.9324,2.3895,763.3501],[27.9257,2.3913,766.7156],[27.9235,2.3952,772.4104],[27.9287,2.4056,775.7864],[27.9264,2.4111,777.3049],[27.9301,2.4148,773.4624],[27.9269,2.4205,768.8223],[27.9321,2.4201,770.0098],[27.9552,2.4376,765.8444],[27.9667,2.4443,772.3446],[27.9724,2.4436,784.1175],[27.9811,2.4357,772.3685],[27.9843,2.4346,764.485],[27.987,2.436,759.4685],[27.9982,2.4279,785.7874],[28.0029,2.4309,807.6614],[28.0064,2.4356,795.1332],[28.0261,2.4717,787.5278],[28.0383,2.483,791.0006],[28.0554,2.4864,793.4742],[28.0742,2.4989,809.0614],[28.1074,2.4899,795.4084],[28.1065,2.5117,793.9636],[28.0975,2.5288,782.0424],[28.1002,2.5482,785.5155],[28.1064,2.5563,793.1071],[28.1092,2.5545,781.1285],[28.1421,2.5542,783.4246],[28.1515,2.5626,810.5763],[28.1643,2.5769,786.7968],[28.1754,2.5925,804.7473],[28.1821,2.6257,796.8587],[28.1784,2.6403,794.9581],[28.1627,2.6702,803.1152],[28.1377,2.6868,769.9954],[28.1441,2.7004,767.2973],[28.165,2.7055,784.888],[28.1705,2.7103,783.8909],[28.1785,2.7121,774.3816],[28.1867,2.7207,769.2474],[28.2055,2.725,769.3992],[28.2345,2.7283,800.2476],[28.2471,2.7382,772.7009],[28.2515,2.7453,772.3201],[28.2508,2.7476,786.7104],[28.2707,2.7476,783.977],[28.2904,2.7175,798.6507],[28.2947,2.6938,808.7723],[28.3119,2.6935,803.3721],[28.3213,2.6976,819.5229],[28.3297,2.716,788.5312],[28.3377,2.7128,782.8403],[28.3457,2.7066,784.9589],[28.3545,2.6862,797.4601],[28.3556,2.642,838.1775],[28.3662,2.6443,818.5692],[28.4254,2.6785,824.2458],[28.4312,2.6894,832.9497],[28.4277,2.7421,825.8192],[28.44,2.7547,812.2941],[28.4606,2.7568,812.9283],[28.5023,2.7554,821.5155],[28.5041,2.7648,809.2014],[28.5018,2.7777,802.0424],[28.5046,2.797,791.4208],[28.5005,2.8182,792.0417],[28.503,2.8251,776.6606],[28.5007,2.8274,790.3704],[28.4867,2.826,807.4774],[28.4817,2.8299,787.4056],[28.4714,2.8272,805.9442],[28.4696,2.8299,807.7349],[28.4705,2.8364,787.4714],[28.4602,2.8555,784.5965],[28.4632,2.8628,785.3359],[28.4613,2.8647,758.8154],[28.4577,2.8617,783.8378],[28.4549,2.8622,785.7197],[28.4485,2.867,768.225],[28.4433,2.8684,786.8887],[28.4426,2.8704,785.4504],[28.4462,2.8748,785.3891],[28.4446,2.8769,787.1275],[28.432,2.8764,785.5074],[28.4217,2.8815,771.6088],[28.4071,2.8843,800.5996],[28.4,2.8919,766.5681],[28.3966,2.8923,766.6229],[28.3936,2.8847,784.5192],[28.3865,2.885,782.782],[28.381,2.8893,779.2651],[28.3684,2.8886,787.6447],[28.3604,2.8944,767.5962],[28.3478,2.9114,763.4365],[28.3444,2.9186,766.284],[28.3421,2.9305,764.6909],[28.346,2.937,764.7108],[28.3384,2.948,769.9807],[28.3309,2.9457,767.0942],[28.3178,2.9453,760.681],[28.3137,2.948,768.6455],[28.3085,2.9483,756.5027],[28.3064,2.9547,755.0499],[28.303,2.9549,754.1307],[28.3014,2.9526,756.8945],[28.3002,2.9388,749.1848],[28.2963,2.9363,753.6802],[28.2828,2.9368,750.9127],[28.2794,2.9388,791.0823],[28.2748,2.946,757.7745],[28.2554,2.9503,755.9479],[28.254,2.9526,766.0338],[28.259,2.9579,775.6268],[28.2586,2.96,772.257],[28.2409,2.9757,741.8271],[28.2348,2.9842,744.7169],[28.2286,2.9853,746.2154],[28.2281,2.9872,740.4031],[28.2318,2.9936,738.1101],[28.2265,3.0012,749.1367],[28.2286,3.0106,736.9354],[28.227,3.0146,754.8359],[28.2208,3.0139,754.7604],[28.2039,2.9975,737.4689],[28.2013,2.9872,727.625],[28.1981,2.9833,742.0676],[28.1839,2.9817,740.2493],[28.1771,2.9867,728.5797],[28.1711,2.9867,754.6857],[28.1668,2.989,732.9164],[28.1622,2.9948,752.0668],[28.1505,2.9934,771.1953],[28.1453,2.9948,756.9764],[28.1418,2.9938,734.0496],[28.1375,2.9874,731.6644],[28.1297,2.9883,724.5605],[28.1162,3.0074,731.3702],[28.1086,3.0093,721.7382],[28.1006,3.015,710.0316],[28.0942,3.0143,704.4332],[28.0917,3.0157,708.6837],[28.088,3.0219,707.2085],[28.0816,3.0231,697.8228],[28.0773,3.0268,699.1049],[28.0674,3.0408,688.4485],[28.064,3.0493,687.322],[28.0541,3.0518,713.421],[28.0496,3.0484,684.1365],[28.0377,3.0524,693.897],[28.0278,3.0627,698.81],[28.01,3.0723,680.3856],[28.0024,3.0737,714.3879],[27.9996,3.0815,709.3091],[28.0015,3.09,692.9877],[27.9964,3.0962,706.4605],[27.9978,3.0981,709.2167],[28.0072,3.0951,697.7759],[28.0093,3.0963,696.5162],[28.0086,3.0981,687.7977],[28.001,3.1027,681.0109],[27.9891,3.1032,688.9545],[27.9866,3.1057,693.4292],[27.9873,3.111,688.4023],[27.9845,3.1124,687.4852],[27.9795,3.1073,679.6038],[27.9745,3.1188,684.4949],[27.9797,3.1179,681.6946],[27.9804,3.12,677.8896],[27.9779,3.1241,682.5247],[27.9786,3.1266,685.5906],[27.985,3.1278,695.7664],[27.988,3.1305,699.9756],[27.9875,3.1333,686.4669],[27.985,3.1347,689.6301],[27.9692,3.1338,674.5624],[27.958,3.1381,686.1172],[27.955,3.1363,695.7177],[27.9483,3.1367,692.8647],[27.9463,3.1432,684.9349],[27.9406,3.151,685.3357],[27.9442,3.1639,694.5332],[27.9428,3.168,680.7321],[27.9394,3.172,690.0719],[27.9312,3.1766,676.4724],[27.9259,3.1759,673.4563],[27.9229,3.1772,684.0081],[27.9227,3.1869,688.2024],[27.9195,3.1881,681.4229],[27.9124,3.1855,679.3876],[27.9014,3.1867,682.6177],[27.8909,3.2002,678.6324],[27.8877,3.1913,683.135],[27.8822,3.1917,676.6987],[27.8739,3.1993,672.0117],[27.8714,3.1996,670.6763],[27.87,3.1975,674.1329],[27.8712,3.1922,684.7276],[27.8689,3.1897,676.5775],[27.8636,3.1899,673.4937],[27.8538,3.1938,683.9752],[27.8485,3.1931,669.1763],[27.8451,3.1991,680.5261],[27.840699999999998,3.2016,687.0607],[27.8419,3.2035,687.8408],[27.8382,3.2203,690.2183],[27.8304,3.2269,677.2773],[27.8299,3.2301,677.1287],[27.8368,3.2343,692.3987],[27.839,3.2398,687.5917],[27.8384,3.2417,687.1624],[27.8352,3.2426,692.1697],[27.8309,3.24,681.1349],[27.8292,3.2421,681.0901],[27.8357,3.2541,686.876],[27.835,3.2578,690.3],[27.8306,3.2612,692.153],[27.8311,3.2644,676.559],[27.8292,3.267,677.6039],[27.8249,3.2681,682.6858],[27.8231,3.2707,667.598],[27.8308,3.2769,686.0929],[27.8274,3.2815,695.9689],[27.8224,3.2819,685.6595],[27.8192,3.2771,687.6077],[27.8155,3.2764,685.1344],[27.8004,3.281,679.8126],[27.7979,3.2838,685.7377],[27.7997,3.2881,699.8842],[27.805,3.2925,715.4586],[27.8047,3.295,718.416],[27.7995,3.2983,696.8101],[27.791,3.2987,708.0361],[27.7866,3.3038,697.6011],[27.777,3.3095,702.181],[27.7711,3.3075,696.2402],[27.7628,3.3001,674.8079],[27.7571,3.3061,662.8977],[27.7546,3.3035,663.3478],[27.7555,3.2987,663.7496],[27.7539,3.2966,669.4982],[27.7468,3.2987,682.5444],[27.7454,3.3054,677.8689],[27.7413,3.3058,666.9945],[27.7324,3.3033,662.8549],[27.728,3.3042,663.2507],[27.7262,3.3077,665.2543],[27.7099,3.304,659.8953],[27.6987,3.3102,661.5963],[27.6982,3.3157,699.3287],[27.6955,3.3166,701.0299],[27.6882,3.3125,688.3608],[27.6827,3.3122,676.5321],[27.6776,3.3083,666.6297],[27.6669,3.3102,674.0959],[27.6616,3.3178,659.1766],[27.6543,3.3191,661.9163],[27.652,3.3154,675.6653],[27.6527,3.312,686.2633],[27.6579,3.3079,688.4648],[27.6591,3.3046,687.862],[27.6577,3.3028,705.0115],[27.6619,3.2925,705.3111],[27.6655,3.2769,723.5677],[27.6551,3.2474,734.9058],[27.6609,3.186,720.879],[27.6562,3.1707,749.5738],[27.6486,3.1564,744.2784],[27.6467,3.1421,732.4735],[27.6601,3.1026,749.0173],[27.6478,3.0779,751.9805],[27.663,3.0738,747.0305],[27.6924,3.0829,728.001],[27.7057,3.0798,740.5087],[27.7048,3.0722,738.9703],[27.6906,3.0561,744.6673],[27.6735,3.0132,746.3123],[27.5785,2.9849,717.9363],[27.5682,2.9922,723.6401],[27.5574,2.9927,713.6179],[27.5458,2.9897,702.577],[27.5467,2.9837,715.8112],[27.5531,2.9722,720.1934],[27.5536,2.9655,712.7612],[27.552,2.9584,711.2787],[27.5882,2.9418,721.7197],[27.6381,2.9276,734.0974],[27.6609,2.9128,734.032],[27.6609,2.8956,721.0034],[27.6558,2.8798,727.3962],[27.6444,2.8675,743.5084],[27.6373,2.8638,725.659],[27.6232,2.8625,722.2193],[27.6107,2.8647,719.0923],[27.6026,2.8596,720.196],[27.6036,2.8409,722.5089],[27.6079,2.826,741.3412],[27.6046,2.8188,760.8882],[27.5946,2.8195,751.0988],[27.5666,2.8309,736.6393],[27.5367,2.8506,746.3735],[27.5286,2.8474,762.5497],[27.5225,2.8417,733.6921],[27.5187,2.8308,727.4197],[27.5182,2.8164,739.244],[27.5073,2.817,732.8578],[27.4997,2.8152,744.1564],[27.4997,2.8076,742.3288],[27.505,2.8017,732.5667],[27.5064,2.7907,719.6901],[27.504,2.7888,733.0188],[27.4879,2.7891,763.8043],[27.4751,2.7826,730.4279],[27.4609,2.7612,741.494],[27.44,2.7683,722.7079],[27.4244,2.759,750.5396],[27.3949,2.7498,710.5456],[27.384,2.7366,706.6469],[27.3731,2.7363,703.2677],[27.3442,2.7492,700.8725],[27.3274,2.7538,687.1392],[27.3201,2.7596,691.1986],[27.3045,2.7766,687.3285],[27.286,2.7878,699.3213],[27.272,2.8078,695.9806],[27.2695,2.815,680.1866],[27.2612,2.8202,695.9088],[27.2525,2.8377,691.5091],[27.2468,2.8439,677.786],[27.2323,2.8517,676.0892],[27.2232,2.854,671.7814],[27.2177,2.8593,668.6646],[27.1966,2.8717,666.4698],[27.1856,2.871,670.8446],[27.1827,2.8738,670.5239],[27.1813,2.883,671.3945],[27.1765,2.8869,671.6166],[27.1733,2.8848,667.2299],[27.1694,2.8848,663.8763],[27.1634,2.8958,699.0725],[27.1542,2.8988,659.5443],[27.1423,2.9066,663.5515],[27.1396,2.9103,668.1221],[27.1346,2.9029,673.0535],[27.1323,2.8958,670.3942],[27.1277,2.8806,670.4093],[27.1264,2.8638,680.6888],[27.1227,2.8558,677.8279],[27.1275,2.847,728.142],[27.1248,2.8284,714.4283],[27.1209,2.8198,708.2537],[27.1187,2.8093,723.1306],[27.1118,2.7952,704.7684],[27.0977,2.7731,735.5496],[27.0887,2.7666,747.7256],[27.0721,2.7466,738.5229],[27.0452,2.7224,703.0529],[27.0376,2.7216,710.5709],[27.0105,2.7259,742.1113],[27.0001,2.7217,743.9048],[26.9992,2.7136,725.2646],[27.0039,2.703,717.3652],[26.9948,2.6961,707.2103],[26.987,2.7044,722.7572],[26.9785,2.7039,737.6545],[26.9756,2.7014,734.1254],[26.9708,2.6896,718.4741],[26.958,2.679,720.0754],[26.9566,2.6728,720.6201],[26.9635,2.6546,698.8676],[26.9624,2.6514,721.7449],[26.9555,2.6477,728.5292],[26.9454,2.6465,715.7518],[26.9411,2.6431,713.4127],[26.9363,2.6426,726.5668],[26.9333,2.6405,701.3201],[26.9318,2.6272,679.356],[26.935,2.6189,675.6381],[26.9313,2.612,680.4977],[26.9192,2.6021,661.7163],[26.9101,2.5887,659.9542],[26.9097,2.571,667.2751],[26.9033,2.55,649.7723],[26.8932,2.5348,644.1789],[26.9015,2.5365,667.5455],[26.9157,2.5294,661.7228],[26.9196,2.5289,649.9332],[26.9289,2.5305,672.7155],[26.9381,2.5374,665.1883],[26.942,2.5379,667.4645],[26.9495,2.5368,696.5516],[26.9561,2.5386,682.6595],[26.9731,2.535,721.7047],[26.9804,2.5368,712.5501],[26.985,2.5329,699.6342],[26.9898,2.5322,697.4741],[26.9953,2.5343,702.8356],[27.0019,2.5336,715.9318],[27.0138,2.5353,715.2472],[27.0181,2.5373,724.5424],[27.0257,2.5564,729.5732],[27.0332,2.5657,701.4042],[27.0426,2.5624,699.4316],[27.0556,2.562,716.6768],[27.0957,2.5664,711.1577],[27.1018,2.5651,733.1645],[27.1101,2.5701,718.6967],[27.113,2.5685,722.579],[27.13,2.5688,731.0522],[27.1355,2.5755,740.3054],[27.1442,2.5631,767.6523],[27.149,2.5439,742.6897],[27.1484,2.4844,719.1351],[27.1525,2.4779,720.7054],[27.1603,2.4545,717.5372],[27.167,2.4407,716.5743],[27.1643,2.414,701.0825],[27.1608,2.4142,700.4889],[27.1601,2.4172,710.7496],[27.1576,2.419,717.9399],[27.1514,2.4188,699.7148],[27.1451,2.4116,739.7985],[27.1371,2.4068,719.3843],[27.1451,2.4052,713.0907],[27.1519,2.3944,721.0968],[27.1531,2.3898,722.2267],[27.1666,2.3751,725.6002],[27.1883,2.3601,721.5779],[27.1911,2.3519,737.8846],[27.1885,2.328,721.9117],[27.1779,2.29,685.8405],[27.1713,2.2909,682.6198],[27.1637,2.2867,683.0955],[27.1336,2.2241,692.5659],[27.1286,2.2225,679.1066],[27.1261,2.2197,694.6726],[27.1261,2.2034,681.6655],[27.1213,2.1976,676.8696],[27.1216,2.1852,672.2847],[27.114,2.1654,688.7261],[27.1115,2.1638,672.0756],[27.1095,2.1661,663.5145],[27.1065,2.1649,660.7989],[27.1042,2.1589,657.4695],[27.1024,2.1578,653.1964],[27.0949,2.1592,648.2916],[27.0917,2.1504,669.2205],[27.0871,2.1465,551.7087],[27.085,2.1364,539.2305],[27.083,2.1348,555.0674],[27.0759,2.1373,546.8611],[27.072,2.1361,510.8734],[27.0558,2.1221,522.371],[27.0538,2.1158,504.8304],[27.0549,2.0961,541.5297],[27.0536,2.0823,527.5636],[27.0554,2.0714,528.416],[27.0586,2.0678,522.5935],[27.0593,2.0625,516.5632],[27.0561,2.053,493.1921],[27.0568,2.0471,527.3522],[27.0518,2.0316,496.3802],[27.0523,2.0234,521.9642],[27.0457,2.0169,510.3716],[27.0432,2.0109,503.6259],[27.0418,1.9838,498.0237],[27.0361,1.9748,513.394],[27.0354,1.9677,505.1275],[27.0403,1.9589,508.2314],[27.0451,1.9552,506.2982],[27.044,1.9412,513.036]],
[[27.646,2.7305,747.087],[27.6343,2.7278,771.5669],[27.6186,2.732,765.2262],[27.6038,2.7407,738.7527],[27.5973,2.7629,751.1],[27.6003,2.7864,753.8593],[27.6061,2.795,750.2582],[27.6214,2.7983,748.9915],[27.6289,2.8035,768.1379],[27.6458,2.8064,743.4791],[27.662,2.7976,749.1614],[27.6717,2.7901,767.429],[27.6775,2.7759,761.3246],[27.6778,2.7601,755.8056],[27.67,2.7459,755.6824],[27.646,2.7305,747.087]]]]}
,"properties": {"GID_2": "COD.5.7_1","GID_0": "COD","country": "DemocraticRepublicoftheCongo","GID_1": "COD.5_1","province": "Haut-Uele","NL_NAME_1": "NA","county": "Rungu","VARNAME_2": "NA","NL_NAME_2": "NA","TYPE_2": "Territoire","ENGTYPE_2": "Territory","CC_2": "NA","HASC_2": "NA","name": "Rungu.county","area_km2": 9367.288,"hist_schema_id": "Elevation0-9000","hist_area_km2": {"475": 0.615,"500": 10.743,"525": 68.591,"550": 84.038,"575": 35.556,"600": 27.906,"625": 33.627,"650": 67.586,"675": 225.608,"700": 788.125,"725": 2506.008,"750": 2416.341,"775": 1711.487,"800": 1166.534,"825": 216.031,"850": 7.01,"875": 0.678,"900": 0.339,"925": 0.275,"950": 0.127}}}