{"type":"Feature","properties":{"GID_2":"COD.26.7_1","GID_0":"COD","country":"DemocraticRepublicoftheCongo","GID_1":"COD.26_1","province":"Tshuapa","NL_NAME_1":"NA","county":"Monkoto","VARNAME_2":"NA","NL_NAME_2":"NA","TYPE_2":"Territoire","ENGTYPE_2":"Territory","CC_2":"NA","HASC_2":"NA","name":"Monkoto.county"},
"geometry":{"type": "MultiPolygon","coordinates": [[[[19.4334,-1.4247,327.5531],[19.4344,-1.4366,325.4215],[19.4456,-1.4532,326.7069],[19.4571,-1.4796,334.4944],[19.4756,-1.5419,337.299],[19.4947,-1.5721,332.2613],[19.4946,-1.5859,337.6346],[19.4904,-1.6004,348.8477],[19.4919,-1.608,339.8717],[19.4884,-1.6339,330.4347],[19.489,-1.6434,330.6804],[19.4928,-1.6531,330.3474],[19.5099,-1.6672,332.4185],[19.5133,-1.673,332.0932],[19.5157,-1.6838,330.8692],[19.5152,-1.6957,337.4048],[19.5204,-1.71,335.952],[19.5178,-1.7199,328.9248],[19.519,-1.7381,328.8943],[19.5178,-1.7473,329.1302],[19.5102,-1.7573,320.1436],[19.5068,-1.7681,322.16],[19.5026,-1.7743,321.1413],[19.5313,-1.7954,335.6492],[19.5434,-1.8001,334.6336],[19.6013,-1.802,331.1118],[19.6074,-1.7945,336.8361],[19.6209,-1.7884,330.303],[19.6343,-1.7775,342.2826],[19.6383,-1.7722,346.7216],[19.6444,-1.7579,341.0722],[19.6467,-1.728,339.439],[19.6526,-1.6966,350.2849],[19.6604,-1.6836,377.8506],[19.6652,-1.6817,384.4398],[19.6797,-1.6674,369.9884],[19.6795,-1.6644,364.9294],[19.6852,-1.663,365.1534],[19.6896,-1.6582,365.1642],[19.7122,-1.6131,358.0679],[19.7187,-1.6076,353.3654],[19.7274,-1.6042,357.1664],[19.7297,-1.5897,348.4486],[19.7293,-1.5807,356.9559],[19.7322,-1.5784,349.2523],[19.7492,-1.5862,352.4561],[19.7672,-1.6,346.7215],[19.8007,-1.6367,358.4156],[19.807,-1.6408,352.0385],[19.8176,-1.6431,351.0303],[19.8243,-1.6466,351.8277],[19.8354,-1.6571,365.9327],[19.8396,-1.6635,348.2704],[19.8551,-1.7069,367.0648],[19.8735,-1.7729,368.6309],[19.8975,-1.8497,355.6575],[19.9014,-1.8791,364.289],[19.9137,-1.8918,380.5241],[19.9276,-1.8972,356.7302],[19.933,-1.895,356.3076],[19.9695,-1.8957,352.9772],[20.1215,-1.916,370.9075],[20.1436,-1.9162,366.1945],[20.1535,-1.9191,353.4724],[20.1613,-1.9245,348.3853],[20.1658,-1.9347,347.4515],[20.1761,-1.9451,347.0275],[20.1849,-1.9585,351.6196],[20.1895,-1.9617,365.2146],[20.2235,-1.975,370.9457],[20.2355,-1.9875,384.3438],[20.2419,-1.9992,384.952],[20.2386,-2.0064,372.3337],[20.2395,-2.0176,390.3429],[20.242,-2.0229,386.5874],[20.2474,-2.0289,388.9089],[20.2554,-2.0331,381.7196],[20.268,-2.0369,411.139],[20.2885,-2.0407,402.0927],[20.3157,-2.0528,369.5105],[20.3262,-2.065,417.2439],[20.3476,-2.0808,395.7511],[20.3588,-2.0852,364.7455],[20.3852,-2.1051,419.9456],[20.3977,-2.1195,373.6498],[20.4142,-2.1118,405.1829],[20.4276,-2.0994,386.1678],[20.433,-2.0965,411.432],[20.4708,-2.0895,412.5891],[20.4953,-2.074,405.7272],[20.5074,-2.0716,409.434],[20.5214,-2.0601,415.8857],[20.5379,-2.0348,419.288],[20.5433,-2.0313,425.527],[20.5835,-2.0249,455.119],[20.6136,-2.0178,427.7971],[20.6255,-2.0132,438.1872],[20.6299,-2.005,410.4309],[20.6379,-1.9997,440.4625],[20.6416,-1.9942,432.3853],[20.6465,-1.9731,413.5632],[20.6502,-1.9655,409.3287],[20.6575,-1.9605,382.1453],[20.6686,-1.9785,400.0369],[20.6832,-1.996,388.973],[20.6864,-2.0034,422.011],[20.7107,-2.027,387.8764],[20.7169,-2.036,379.1682],[20.7223,-2.051,373.3839],[20.7311,-2.0639,402.7133],[20.7395,-2.0807,383.4036],[20.7587,-2.0992,406.0275],[20.7675,-2.1119,372.6064],[20.7741,-2.1177,393.3019],[20.7803,-2.1207,384.8642],[20.786,-2.1265,381.2045],[20.7976,-2.1438,394.8128],[20.8112,-2.159,406.0253],[20.8242,-2.1683,385.3165],[20.8319,-2.1766,387.1488],[20.8435,-2.1932,406.2212],[20.8602,-2.203,397.4515],[20.878,-2.2054,412.9501],[20.8887,-2.2146,413.4769],[20.9055,-2.2471,405.2022],[20.921,-2.2656,465.422],[20.9278,-2.2769,477.5412],[20.9298,-2.2902,429.2926],[20.9548,-2.3244,468.3941],[20.9575,-2.3401,456.1841],[20.9609,-2.347,504.5691],[20.9869,-2.3712,447.2909],[21.0118,-2.3838,409.682],[21.015,-2.3922,412.7282],[21.0223,-2.4037,440.3784],[21.0231,-2.4088,402.1548],[21.0233,-2.417,434.4147],[21.0201,-2.4346,415.6746],[21.0198,-2.4653,418.6741],[21.0163,-2.4944,429.7685],[21.0387,-2.4985,441.5532],[21.0543,-2.4937,424.8242],[21.068,-2.4942,424.2471],[21.0845,-2.5046,417.7444],[21.0941,-2.5056,425.0161],[21.122,-2.4965,419.94],[21.1326,-2.4961,437.3248],[21.1383,-2.4978,440.0916],[21.1515,-2.5072,425.8812],[21.1597,-2.5107,423.6735],[21.1748,-2.5142,495.3086],[21.2023,-2.5128,457.4041],[21.2446,-2.5028,397.8005],[21.251,-2.5054,387.4995],[21.2666,-2.5061,397.8082],[21.2746,-2.5041,403.5406],[21.3038,-2.4842,381.2537],[21.312,-2.4812,393.4252],[21.3227,-2.4801,400.2003],[21.3538,-2.4844,385.8581],[21.371,-2.4776,443.8676],[21.3914,-2.4731,436.6098],[21.4207,-2.4819,434.1208],[21.4277,-2.4889,423.1526],[21.4433,-2.4977,416.0336],[21.4127,-2.4459,416.7005],[21.4078,-2.3402,469.7198],[21.4101,-2.3096,462.686],[21.4165,-2.3163,463.4724],[21.4345,-2.3205,438.6047],[21.4553,-2.3293,410.0852],[21.4658,-2.3384,405.7723],[21.4857,-2.3476,464.3046],[21.4955,-2.35,434.7966],[21.5142,-2.3576,474.4353],[21.5368,-2.3738,443.7193],[21.5558,-2.376,445.7212],[21.5615,-2.3788,436.8789],[21.5665,-2.3834,466.8531],[21.5729,-2.4016,551.2363],[21.5952,-2.4194,447.0369],[21.608,-2.4213,461.37],[21.6341,-2.4312,466.7354],[21.6464,-2.4313,519.5306],[21.653,-2.4426,487.5612],[21.6644,-2.4514,479.2638],[21.6731,-2.4629,475.7803],[21.6811,-2.4689,476.8745],[21.6964,-2.4756,448.3862],[21.7314,-2.4834,489.8591],[21.7554,-2.4913,481.3529],[21.7688,-2.498,528.7978],[21.7761,-2.5063,520.4095],[21.8129,-2.5248,439.7024],[21.831,-2.5304,440.8152],[21.8441,-2.5324,516.1204],[21.8765,-2.5063,476.0489],[21.8927,-2.4899,542.718],[21.9089,-2.4765,464.2857],[21.9266,-2.455,564.4172],[21.9513,-2.4293,503.943],[21.9921,-2.3942,551.5493],[22.0054,-2.3754,559.3586],[22.0115,-2.3625,525.6957],[22.0425,-2.3157,544.2043],[22.0515,-2.3063,507.8447],[22.0612,-2.3008,486.831],[22.0835,-2.3019,490.9704],[22.0886,-2.303,493.2348],[22.0933,-2.3071,487.6649],[22.0945,-2.3222,518.3439],[22.0928,-2.3556,491.9981],[22.0937,-2.3625,496.4477],[22.1304,-2.3985,497.7716],[22.1312,-2.4337,485.3806],[22.1486,-2.4487,476.1252],[22.1551,-2.4491,478.9125],[22.1917,-2.4289,486.7582],[22.2008,-2.4277,476.7921],[22.2118,-2.4202,476.9189],[22.2234,-2.4069,447.7682],[22.2235,-2.4002,462.1635],[22.2205,-2.3949,442.1324],[22.213,-2.3875,462.0055],[22.2126,-2.3716,476.5529],[22.209,-2.3516,486.7988],[22.2101,-2.3408,490.9526],[22.2026,-2.3258,454.8911],[22.1954,-2.2761,499.3302],[22.1914,-2.2683,471.2029],[22.1921,-2.2598,443.4381],[22.188,-2.2476,447.5411],[22.1866,-2.2338,421.8522],[22.1929,-2.217,427.5268],[22.1833,-2.1956,464.0598],[22.1857,-2.1769,414.5115],[22.1818,-2.1645,427.5716],[22.1812,-2.1254,442.6823],[22.1772,-2.1095,437.114],[22.1624,-2.0789,456.6951],[22.1599,-2.0669,468.7567],[22.162,-2.0414,448.6882],[22.1463,-2.0046,433.587],[22.1445,-1.997,439.7024],[22.1471,-1.9731,400.5519],[22.151,-1.9646,394.6786],[22.1513,-1.9352,421.8611],[22.1389,-1.9059,400.2082],[22.1397,-1.8985,447.603],[22.1336,-1.8773,449.8306],[22.1348,-1.8734,438.7495],[22.152,-1.8599,402.4816],[22.1591,-1.8501,467.4742],[22.1688,-1.8469,435.3855],[22.1815,-1.8322,461.3355],[22.1854,-1.8228,472.8837],[22.1954,-1.8109,484.6113],[22.1785,-1.7929,467.3834],[22.1489,-1.7699,437.1691],[22.1466,-1.7486,471.2921],[22.1402,-1.7297,447.8448],[22.1307,-1.7191,462.9767],[22.1025,-1.6801,470.8184],[22.082,-1.6669,488.02],[22.0726,-1.6575,463.7887],[22.0593,-1.6358,461.3513],[22.0491,-1.6099,441.8223],[21.9788,-1.523,427.6349],[21.9527,-1.509,439.6761],[21.9363,-1.5028,450.3553],[21.9307,-1.5032,443.0546],[21.9255,-1.5068,404.9712],[21.9209,-1.5003,415.6377],[21.9198,-1.481,406.6468],[21.9027,-1.4106,415.4377],[21.8953,-1.3837,413.7072],[21.8856,-1.3583,417.3881],[21.8783,-1.3288,402.8535],[21.8673,-1.3016,423.6131],[21.8537,-1.2889,408.7747],[21.8129,-1.2605,380.8731],[21.765,-1.2184,372.9161],[21.7616,-1.2119,381.1913],[21.7629,-1.2114,373.9882],[21.7791,-1.1511,371.5358],[21.7842,-1.1405,354.2469],[21.7936,-1.1249,349.7379],[21.8172,-1.0997,357.7678],[21.8218,-1.0908,378.844],[21.8075,-1.079,380.6238],[21.8249,-1.0655,369.8131],[21.8246,-1.061,368.9904],[21.8137,-1.053,367.5251],[21.8057,-1.0436,377.5217],[21.8028,-1.0422,379.2919],[21.7997,-1.0469,368.1154],[21.8005,-1.0541,362.7206],[21.7996,-1.0562,365.2097],[21.7975,-1.056,366.0939],[21.795,-1.0514,364.4265],[21.798,-1.0341,379.3812],[21.7948,-1.0307,369.0284],[21.7841,-1.0256,404.6727],[21.7738,-1.0233,376.1761],[21.7481,-0.997,363.9335],[21.7406,-0.994,364.0873],[21.7335,-0.9935,367.1823],[21.7276,-0.9964,351.5253],[21.7195,-1.0159,360.5549],[21.7176,-1.0274,357.9178],[21.7163,-1.0614,345.6546],[21.7122,-1.0681,339.8984],[21.7058,-1.0734,380.6824],[21.6766,-1.0891,413.6145],[21.6326,-1.1215,392.2774],[21.6139,-1.1325,405.4726],[21.589,-1.1501,383.7514],[21.565,-1.1699,415.4409],[21.5549,-1.1705,420.555],[21.5447,-1.1666,417.5325],[21.5382,-1.1665,392.7424],[21.5118,-1.1859,383.3692],[21.4703,-1.194,420.3257],[21.4572,-1.1946,400.15],[21.4356,-1.1902,402.1661],[21.4297,-1.1933,395.5906],[21.4266,-1.2005,402.6702],[21.4234,-1.1967,379.4203],[21.418,-1.1968,424.0844],[21.4172,-1.1851,407.0558],[21.4144,-1.1832,412.0197],[21.4122,-1.1835,401.1067],[21.4095,-1.1873,394.0345],[21.4071,-1.1872,386.1904],[21.404,-1.1744,409.4995],[21.3949,-1.1679,403.0442],[21.3933,-1.1592,388.8262],[21.3855,-1.1599,411.2283],[21.3736,-1.1637,387.2115],[21.3682,-1.1611,405.224],[21.3567,-1.1653,393.0659],[21.3474,-1.1588,383.8591],[21.3469,-1.1563,384.4938],[21.3492,-1.1537,392.4035],[21.3477,-1.1512,398.9418],[21.3321,-1.1435,359.4938],[21.3306,-1.1394,379.3982],[21.3315,-1.1373,388.57],[21.3287,-1.1347,394.057],[21.3233,-1.1345,392.6266],[21.3104,-1.1428,359.0389],[21.3064,-1.1317,368.506],[21.2934,-1.1264,402.4779],[21.2747,-1.1238,396.0664],[21.2621,-1.1251,370.6876],[21.2527,-1.1216,379.054],[21.2434,-1.1218,372.4586],[21.2395,-1.1144,382.6924],[21.222,-1.1008,360.8896],[21.2071,-1.0971,379.5078],[21.198,-1.1009,365.9431],[21.1932,-1.1011,379.4137],[21.187,-1.0981,387.9621],[21.1823,-1.0921,381.1433],[21.1725,-1.0879,393.6401],[21.1645,-1.0815,389.48],[21.1508,-1.0782,390.7971],[21.1408,-1.071,375.7789],[21.1349,-1.0602,391.0444],[21.1317,-1.0579,417.1628],[21.1265,-1.0606,402.3478],[21.1223,-1.0595,394.168],[21.1183,-1.0512,377.3906],[21.1119,-1.0502,395.9385],[21.0922,-1.0529,388.7893],[21.0858,-1.0517,381.4254],[21.0827,-1.0488,396.8532],[21.0721,-1.0448,390.7002],[21.0674,-1.0396,384.578],[21.0631,-1.0393,388.4682],[21.0603,-1.0332,376.6117],[21.0475,-1.0361,355.5602],[21.0436,-1.0354,364.8067],[21.0293,-1.0213,383.388],[21.012,-1.0125,376.6426],[21.0085,-1.0071,394.2092],[21.0064,-0.9952,372.6395],[20.9904,-0.9854,390.0397],[20.9859,-0.9853,388.5375],[20.9812,-0.9831,394.8165],[20.9788,-0.9733,383.8594],[20.9758,-0.9712,394.0426],[20.9701,-0.9714,376.0181],[20.9628,-0.9751,393.0269],[20.9564,-0.9845,381.3365],[20.9502,-0.9835,388.9673],[20.9402,-0.9849,383.6029],[20.9313,-0.9807,390.6576],[20.9237,-0.9864,382.9965],[20.9175,-0.9889,393.3481],[20.9128,-0.987,382.8596],[20.9084,-0.9822,380.3681],[20.9021,-0.9785,366.7533],[20.8905,-0.9626,363.1038],[20.8821,-0.946,378.4061],[20.8734,-0.9466,391.1719],[20.8659,-0.95,376.774],[20.8608,-0.9482,393.313],[20.8535,-0.9514,382.6617],[20.8483,-0.9561,377.7428],[20.8463,-0.9607,379.1769],[20.8517,-0.9614,388.3705],[20.8519,-0.9634,392.911],[20.8332,-0.9703,381.7405],[20.8226,-0.9682,380.0315],[20.8192,-0.9652,379.8705],[20.8169,-0.9592,367.8718],[20.8137,-0.9597,371.1992],[20.8057,-0.9686,374.3983],[20.8032,-0.9674,371.8447],[20.8014,-0.961,357.7694],[20.7962,-0.9603,354.7123],[20.7927,-0.9623,356.4598],[20.7811,-0.964,378.5428],[20.7753,-0.9606,369.1169],[20.773,-0.9522,366.8496],[20.7703,-0.952,376.4162],[20.7649,-0.9574,387.0405],[20.753,-0.9525,358.9683],[20.748,-0.9488,365.5269],[20.7343,-0.9475,352.355],[20.7311,-0.9443,357.8081],[20.7298,-0.9386,359.6215],[20.7182,-0.9252,362.7268],[20.7176,-0.9199,362.7584],[20.7129,-0.9186,360.6759],[20.7062,-0.9127,380.8815],[20.7014,-0.9134,358.7394],[20.6965,-0.9173,370.733],[20.6929,-0.9113,362.5371],[20.69,-0.909,369.0274],[20.6866,-0.9087,370.7388],[20.6831,-0.9131,356.5385],[20.6744,-0.9112,365.5154],[20.671,-0.9158,356.104],[20.6685,-0.9118,353.8525],[20.6646,-0.9095,347.4578],[20.661,-0.913,354.9512],[20.6598,-0.9169,347.8244],[20.655,-0.9109,346.7337],[20.6533,-0.9011,354.5846],[20.6475,-0.9013,347.3609],[20.6446,-0.8995,357.9109],[20.6408,-0.9003,359.7385],[20.6391,-0.8942,352.0216],[20.6353,-0.8908,358.0333],[20.6399,-0.8835,373.1934],[20.6335,-0.8784,362.1298],[20.6306,-0.8682,368.5552],[20.6256,-0.8676,356.7875],[20.62,-0.8703,361.0538],[20.6121,-0.8618,351.2085],[20.6,-0.8564,365.5041],[20.5923,-0.8554,358.597],[20.5802,-0.8506,360.2802],[20.5831,-0.8443,359.997],[20.5719,-0.8376,350.96],[20.5641,-0.8375,356.6186],[20.5643,-0.8355,358.7557],[20.5586,-0.827,356.5374],[20.5591,-0.8178,358.2163],[20.5571,-0.8162,362.9411],[20.5527,-0.8166,362.3588],[20.5488,-0.8136,372.2307],[20.5366,-0.8143,372.3338],[20.5507,-0.8029,370.1791],[20.5518,-0.7993,359.7833],[20.5494,-0.7959,363.0256],[20.5298,-0.7959,351.3238],[20.5205,-0.792,360.2567],[20.5008,-0.7954,357.4992],[20.4852,-0.7937,349.8884],[20.4843,-0.7912,351.1678],[20.4913,-0.7779,356.9061],[20.4894,-0.7747,354.5739],[20.4874,-0.774,360.4377],[20.4801,-0.7776,367.228],[20.4785,-0.7732,366.1753],[20.4673,-0.7711,377.66],[20.4632,-0.7637,375.448],[20.4613,-0.7628,376.0515],[20.4409,-0.7632,358.3344],[20.4356,-0.7615,353.828],[20.4322,-0.762,350.7678],[20.4297,-0.7656,350.429],[20.4265,-0.7668,354.7446],[20.4187,-0.7637,350.2627],[20.402,-0.7689,348.3039],[20.3884,-0.759,346.2343],[20.3882,-0.7525,355.6738],[20.3866,-0.7507,346.5099],[20.3825,-0.7502,347.8837],[20.3795,-0.7451,348.8107],[20.3771,-0.733,358.5879],[20.3794,-0.7252,359.9632],[20.3785,-0.7219,359.2055],[20.3765,-0.7194,366.8985],[20.3687,-0.7171,360.3281],[20.3658,-0.7113,365.8534],[20.3679,-0.7026,364.0663],[20.3649,-0.6971,348.742],[20.3556,-0.6945,347.6633],[20.3503,-0.6954,348.3014],[20.3455,-0.7027,357.7014],[20.3351,-0.7036,353.2286],[20.3314,-0.7091,351.7603],[20.3245,-0.7092,343.3732],[20.3229,-0.7067,344.8555],[20.3256,-0.701,347.7283],[20.3234,-0.6984,346.4974],[20.3186,-0.6977,346.9886],[20.3132,-0.6885,363.6741],[20.3082,-0.6837,362.3581],[20.3048,-0.6733,351.2039],[20.2939,-0.665,352.6879],[20.287,-0.6647,350.6714],[20.277,-0.6698,341.7618],[20.2752,-0.6726,343.2848],[20.2726,-0.6841,338.1725],[20.2724,-0.6938,342.1456],[20.2665,-0.7055,344.0601],[20.2648,-0.7197,343.5192],[20.2544,-0.758,353.0535],[20.244,-0.772,344.9597],[20.2254,-0.7877,350.7176],[20.2234,-0.7912,348.5709],[20.2206,-0.8059,363.9283],[20.2176,-0.8109,363.927],[20.201,-0.8262,356.4571],[20.1918,-0.8397,367.7076],[20.1945,-0.8487,364.5432],[20.1904,-0.8588,357.416],[20.1924,-0.8666,350.272],[20.1919,-0.8721,349.3976],[20.1873,-0.8808,346.9777],[20.1668,-0.9032,353.89],[20.1599,-0.9232,340.8769],[20.1539,-0.9312,341.6749],[20.1374,-0.9451,341.4362],[20.1362,-0.95009999999999994,332.3922],[20.1375,-0.9616,343.9278],[20.135,-0.9717,339.3271],[20.1349,-0.9786,339.2492],[20.1376,-0.9874,340.4182],[20.1444,-0.9987,344.0541],[20.1594,-1.0132,340.8398],[20.1619,-1.0185,348.5757],[20.1566,-1.0265,342.2251],[20.1488,-1.0327,344.8638],[20.1346,-1.0391,341.4609],[20.1186,-1.0438,348.2081],[20.0922,-1.0655,349.9965],[20.0808,-1.0666,385.1075],[20.0497,-1.0809,355.4106],[20.0126,-1.0921,351.1331],[20.005,-1.0958,371.3182],[19.9854,-1.0947,382.5232],[19.9719,-1.0983,372.265],[19.9571,-1.0971,369.4088],[19.9482,-1.098,377.582],[19.9285,-1.1075,352.4409],[19.9155,-1.1063,365.5512],[19.9093,-1.1074,373.4843],[19.9015,-1.1115,344.9028],[19.8822,-1.1307,344.4973],[19.863,-1.1393,342.9031],[19.848,-1.1576,337.0062],[19.8098,-1.1565,331.5331],[19.7612,-1.1578,338.2926],[19.7248,-1.1713,347.7836],[19.7113,-1.1705,338.2494],[19.7036,-1.1629,353.7688],[19.6956,-1.159,343.679],[19.682,-1.1559,348.0388],[19.6845,-1.1449,350.8344],[19.6798,-1.1306,350.1163],[19.6794,-1.1246,349.7317],[19.6845,-1.1095,345.7455],[19.6843,-1.1037,348.2008],[19.6787,-1.0904,346.9832],[19.6716,-1.0597,341.9411],[19.6712,-1.0499,344.0416],[19.6733,-1.0359,345.418],[19.6876,-1.0081,351.7507],[19.6886,-0.9921,341.1432],[19.6786,-0.9853,342.1691],[19.6521,-0.978,337.5482],[19.6109,-0.9755,330.2891],[19.6017,-0.978,331.931],[19.6097,-1.0139,315.5],[19.6107,-1.0339,337.724],[19.6077,-1.0368,338.3302],[19.6061,-1.0421,338.9759],[19.6072,-1.0456,337.9816],[19.612,-1.0467,336.2686],[19.607,-1.0814,337.6113],[19.6153,-1.109,332.7493],[19.6106,-1.1352,334.0941],[19.6125,-1.1596,337.9174],[19.6104,-1.1711,336.7981],[19.5987,-1.1767,347.1399],[19.5895,-1.1833,357.3746],[19.5569,-1.2098,346.0576],[19.5452,-1.2263,342.1297],[19.5388,-1.2292,344.0636],[19.5339,-1.2368,334.0031],[19.5243,-1.2452,333.9342],[19.5144,-1.2571,353.4493],[19.5043,-1.2828,350.0928],[19.4836,-1.3207,356.9755],[19.4463,-1.3977,330.8359],[19.4388,-1.4096,329.2922],[19.4334,-1.4247,327.5531]]]]}}