{"type":"Feature","properties":{"GID_2":"COD.25.2_1","GID_0":"COD","country":"DemocraticRepublicoftheCongo","GID_1":"COD.25_1","province":"Tshopo","NL_NAME_1":"NA","county":"Banalia","VARNAME_2":"NA","NL_NAME_2":"NA","TYPE_2":"Territoire","ENGTYPE_2":"Territory","CC_2":"NA","HASC_2":"NA","name":"Banalia.county"},
"geometry":{"type": "MultiPolygon","coordinates": [[[[25.8941,2.2555,572.2646],[25.88,2.2515,561.8644],[25.864,2.2539,554.4881],[25.8499,2.2627,575.322],[25.8403,2.2652,593.563],[25.8205,2.2644,605.031],[25.807,2.2783,588.7118],[25.7923,2.2743,571.8177],[25.7776,2.2646,588.5659],[25.7622,2.2581,560.8369],[25.7405,2.2266,547.2873],[25.7289,2.2252,543.2126],[25.6931,2.1993,563.2032],[25.6598,2.1785,601.1713],[25.6419,2.1732,563.3687],[25.624,2.173,579.8641],[25.607,2.1677,567.6176],[25.602,2.1744,540.0316],[25.5934,2.1765,500.8835],[25.5874,2.1753,522.5254],[25.5842,2.1774,495.3652],[25.5696,2.175,512.5298],[25.5648,2.1771,482.1989],[25.5463,2.1749,498.7549],[25.5408,2.1724,492.15],[25.5275,2.174,485.5683],[25.5199,2.1778,489.1416],[25.5119,2.1912,489.0065],[25.5069,2.1953,485.2117],[25.4977,2.1964,485.3536],[25.4888,2.1998,485.4271],[25.4783,2.1991,487.6325],[25.4716,2.2018,488.4206],[25.465699999999998,2.2016,487.9759],[25.4627,2.1997,487.2648],[25.4568,2.2006,486.0627],[25.4513,2.1986,487.9645],[25.4364,2.1992,496.82],[25.4263,2.2061,476.9655],[25.4153,2.2067,484.7579],[25.413,2.2092,477.1163],[25.4155,2.2143,484.2405],[25.4128,2.2166,473.9651],[25.4025,2.2182,479.3214],[25.3977,2.2216,470.5603],[25.3846,2.2241,479.66],[25.3816,2.2291,473.4086],[25.37,2.2372,471.2377],[25.3619,2.2383,476.0665],[25.3532,2.2442,475.2457],[25.3468,2.2518,474.4863],[25.3466,2.2571,471.5056],[25.3401,2.2654,474.1],[25.3387,2.2702,468.3046],[25.3332,2.275,473.5191],[25.3277,2.2741,480.0201],[25.3179,2.277,472.8798],[25.3119,2.283,473.2311],[25.3053,2.2846,472.7059],[25.295,2.2831,477.9149],[25.2859,2.279,469.1182],[25.2827,2.2794,489.3057],[25.2632,2.2892,489.0874],[25.2492,2.2894,472.9251],[25.2114,2.3082,469.6687],[25.192,2.3065,466.6245],[25.1881,2.3021,470.3839],[25.1827,2.3002,458.9759],[25.177,2.2935,463.2142],[25.1717,2.2914,468.0955],[25.1697,2.2889,471.5127],[25.1679,2.2802,456.6876],[25.1642,2.2739,456.5669],[25.1556,2.2654,459.114],[25.1496,2.2647,457.8416],[25.138,2.2563,457.5094],[25.1295,2.2529,462.2505],[25.1259,2.2478,451.7386],[25.1225,2.2347,456.4911],[25.123,2.2314,458.083],[25.1189,2.2277,461.0028],[25.1123,2.2111,463.0793],[25.1205,2.2128,460.8553],[25.1352,2.2119,465.2888],[25.1421,2.2076,457.8845],[25.1503,2.2069,463.0952],[25.1556,2.2019,465.2972],[25.1577,2.192,463.6496],[25.1529,2.1743,471.6177],[25.1548,2.1674,468.7775],[25.1505,2.1581,477.0804],[25.1667,1.9201,466.9352],[25.1701,1.909,461.4241],[25.1639,1.8958,453.9833],[25.1515,1.8868,464.3622],[25.1085,1.8828,473.8839],[25.093,1.8776,476.3735],[25.0754,1.8745,503.1732],[25.0294,1.8742,528.0408],[24.9984,1.8627,582.1344],[24.9581,1.8407,525.1337],[24.9006,1.8288,595.6547],[24.7808,1.7828,527.0549],[24.7654,1.7726,552.2822],[24.7286,1.7532,519.6636],[24.7014,1.7348,530.312],[24.6843,1.7203,527.3714],[24.6607,1.667,516.3649],[24.639,1.6385,523.5491],[24.6161,1.601,481.3524],[24.5834,1.5649,473.7855],[24.5598,1.5439,461.5742],[24.551,1.5317,460.3862],[24.5421,1.505,470.7961],[24.5351,1.4606,485.2623],[24.4896,1.4108,470.4748],[24.4442,1.3763,448.9806],[24.4197,1.3616,464.0824],[24.4102,1.3527,450.3806],[24.4082,1.3466,412.8216],[24.4202,1.3404,421.4073],[24.4292,1.3312,415.2031],[24.4313,1.3255,400.904],[24.4402,1.317,384.3687],[24.3762,1.2176,428.2916],[24.3605,1.2099,422.7694],[24.3524,1.2,415.7622],[24.3504,1.189,424.0431],[24.3429,1.1719,422.8141],[24.3363,1.1657,417.266],[24.3346,1.1457,425.712],[24.3323,1.1401,411.7009],[24.3284,1.136,413.3842],[24.3205,1.1323,430.4232],[24.3189,1.1297,446.6168],[24.3148,1.1226,459.8148],[24.3022,1.0898,449.7149],[24.9005,1.0639,483.0056],[24.8986,0.9831,543.0039],[24.985,0.6165,428.8883],[25.0072,0.6278,427.3863],[25.0179,0.6306,434.1571],[25.0362,0.6325,436.7519],[25.0752,0.6302,431.8939],[25.14,0.6409,378.0],[25.1919,0.6595,425.4282],[25.2135,0.6749,424.3959],[25.2278,0.6878,427.3943],[25.25,0.7421,430.5684],[25.2541,0.7456,444.5172],[25.2571,0.7555,436.1628],[25.2546,0.7683,434.023],[25.2575,0.7788,447.3591],[25.2767,0.7878,448.466],[25.2767,0.7908,448.8631],[25.2815,0.7967,444.0315],[25.3492,0.957,472.7651],[25.4042,0.9953,461.834],[25.433,1.0552,447.019],[25.4408,1.0613,454.0929],[25.4614,1.0506,463.2344],[25.487,1.0335,460.5663],[25.5322,1.036,465.0049],[25.5724,1.0664,478.7534],[25.5904,1.0685,499.0465],[25.6317,1.0673,485.3008],[25.6471,1.0618,491.5776],[25.6599,1.0463,502.6578],[25.6818,1.0419,494.095],[25.9332,1.0272,509.7523],[25.9857,1.021,508.439],[25.972,1.043,504.7387],[25.9541,1.0611,527.0817],[25.9468,1.0618,518.4325],[25.9381,1.0684,519.1778],[25.934,1.0682,506.9706],[25.9255,1.0629,509.6159],[25.915,1.0622,500.8028],[25.9111,1.064,510.0049],[25.9043,1.072,496.1594],[25.8771,1.0793,479.9827],[25.8711,1.083,488.7834],[25.8654,1.0901,477.0861],[25.8642,1.0997,491.3846],[25.8612,1.1036,490.8305],[25.8583,1.0993,502.9844],[25.8565,1.0997,499.9214],[25.8546,1.1073,486.8079],[25.8505,1.108,481.0103],[25.8482,1.1027,501.84],[25.8457,1.1063,490.3403],[25.8432,1.1052,495.5848],[25.8361,1.11,490.8129],[25.8274,1.1088,490.3868],[25.8263,1.1113,483.9015],[25.8233,1.1127,482.8534],[25.8109,1.1533,496.9079],[25.8076,1.181,504.8059],[25.8087,1.1844,494.8146],[25.8149,1.1895,484.8959],[25.8158,1.1948,476.7483],[25.8102,1.2097,466.4175],[25.8034,1.2182,481.1531],[25.7958,1.2315,479.5659],[25.7928,1.2441,471.4697],[25.7909,1.2469,481.8797],[25.785,1.2467,475.4963],[25.7813,1.2577,476.3018],[25.7822,1.2671,468.1595],[25.7892,1.2837,469.3303],[25.7862,1.2894,467.8079],[25.7805,1.2926,468.8028],[25.772,1.3016,460.2318],[25.7906,1.3745,481.8976],[25.7904,1.4402,473.9086],[25.7918,1.461,482.1144],[25.8133,1.4794,484.7922],[25.8359,1.4894,497.5126],[25.8515,1.5011,507.2359],[25.8689,1.5069,530.6285],[25.8979,1.5099,535.0787],[25.9185,1.5061,559.8981],[25.9301,1.5014,534.893],[25.9892,1.4719,561.0709],[26.0135,1.4396,568.1432],[26.387,1.6414,577.5156],[26.4101,1.6288,613.3723],[26.4281,1.6238,554.4678],[26.4384,1.6235,557.6861],[26.4513,1.627,549.7798],[26.4612,1.6577,548.0012],[26.4583,1.6906,543.7875],[26.4634,1.6955,528.5652],[26.4795,1.6875,542.565],[26.4892,1.6866,569.9224],[26.5099,1.6929,557.754],[26.5222,1.7027,509.5006],[26.5223,1.7236,537.8376],[26.5155,1.7617,570.7979],[26.5299,1.7859,529.5884],[26.5383,1.7952,511.741],[26.5384,1.8091,487.5108],[26.5289,1.827,490.2681],[26.5361,1.8521,522.2112],[26.5913,1.9017,543.0414],[26.6135,1.934,520.6874],[26.623,1.9628,683.9129],[26.6262,1.9665,596.8189],[26.6246,1.9753,603.4404],[26.6189,1.9817,635.4047],[26.6127,1.9828,638.9221],[26.6042,1.9893,555.869],[26.5965,1.9906,548.7285],[26.5859,2.0014,560.5538],[26.5823,2.0021,532.6313],[26.5768,1.9993,528.4919],[26.5699,1.9986,583.7984],[26.5647,2.0002,588.0244],[26.5584,2.0232,530.5429],[26.5609,2.0294,537.5122],[26.576,2.0509,562.0804],[26.5843,2.0532,575.3883],[26.564,2.0504,551.4373],[26.5039,2.0469,571.8312],[26.4956,2.0513,575.4622],[26.4862,2.1008,590.8247],[26.4825,2.113,608.5464],[26.4752,2.1157,604.3684],[26.4716,2.1139,610.9624],[26.4352,2.0851,599.4332],[26.4248,2.0653,531.5563],[26.3978,2.0594,518.5305],[26.3687,2.0631,511.0048],[26.3562,2.0685,507.7559],[26.3418,2.0878,493.4155],[26.3422,2.0945,502.613],[26.3365,2.0993,512.4313],[26.3333,2.1067,505.8734],[26.3308,2.1078,515.3696],[26.3312,2.1171,504.9601],[26.3259,2.117,516.6669],[26.3241,2.1209,514.0795],[26.3254,2.135,501.8572],[26.3164,2.21,536.0026],[26.3278,2.2161,617.4433],[26.3299,2.2256,580.3289],[26.3288,2.2392,610.7027],[26.3132,2.25,635.2982],[26.3132,2.27,655.9325],[26.3183,2.2962,674.8918],[26.3266,2.3055,688.353],[26.3266,2.3181,706.1085],[26.3169,2.3644,692.9288],[26.2713,2.3626,656.981],[26.2622,2.3574,667.2144],[26.2566,2.3479,657.5953],[26.246,2.3436,664.6748],[26.2177,2.3416,654.3027],[26.2131,2.3383,653.4733],[26.2042,2.3277,652.1673],[26.1969,2.3227,643.5887],[26.1931,2.3125,637.1234],[26.1901,2.3127,638.0418],[26.175,2.3226,633.2144],[26.1718,2.3233,641.2191],[26.1651,2.3295,641.3773],[26.1537,2.3276,634.0437],[26.1464,2.3239,649.8253],[26.1372,2.3151,633.1199],[26.1276,2.3124,636.6973],[26.1135,2.3008,628.9296],[26.1121,2.2971,627.1378],[26.114,2.2916,633.4267],[26.1119,2.2879,624.5454],[26.1051,2.284,615.4612],[26.0875,2.2791,640.7867],[26.0696,2.2807,609.3419],[26.0536,2.2855,609.8398],[26.0394,2.2848,589.3796],[26.0264,2.2776,592.0559],[26.0164,2.2762,586.2978],[26.0127,2.2771,593.3914],[25.9905,2.2701,568.1169],[25.9851,2.2579,546.9005],[25.9794,2.239,566.8523],[25.9717,2.23,568.5249],[25.971,2.2236,574.4688],[25.966,2.2169,568.4175],[25.9676,2.2114,581.9179],[25.9658,2.2082,585.7903],[25.9582,2.2029,568.1758],[25.9532,2.204,554.2091],[25.9315,2.2159,532.1101],[25.9214,2.2152,536.6898],[25.9161,2.2188,529.6005],[25.8941,2.2555,572.2646]]]]}}