{"type":"Feature","properties":{"GID_2":"COD.22.4_1","GID_0":"COD","country":"DemocraticRepublicoftheCongo","GID_1":"COD.22_1","province":"Sud-Kivu","NL_NAME_1":"NA","county":"Idjwi","VARNAME_2":"NA","NL_NAME_2":"NA","TYPE_2":"Territoire","ENGTYPE_2":"Territory","CC_2":"NA","HASC_2":"NA","name":"Idjwi.county"},
"geometry":{"type": "MultiPolygon","coordinates": [[[[29.1446,-1.6388,1472.0585],[29.142,-1.6426,1485.3685],[29.1441,-1.66,1461.0],[29.1362,-1.6775,1461.0],[29.1296,-1.6986,1461.0],[29.1115,-1.7242,1461.0],[29.0702,-1.8204,1461.0],[29.0602,-1.8742,1461.0],[29.0247,-1.9714,1461.0],[29.0176,-1.9978,1461.0],[28.9947,-2.0642,1461.0],[28.9509,-2.1301,1461.0],[28.9289,-2.1577,1461.0],[28.946,-2.1748,1461.0],[28.9597,-2.214,1461.0],[28.9739,-2.2413,1461.0],[28.987,-2.2488,1461.0],[28.998,-2.2598,1461.0],[29.0045,-2.2709,1461.0],[29.0101,-2.2909,1461.0],[29.0825,-2.2792,1461.0],[29.0984,-2.2745,1461.0],[29.1085,-2.2664,1461.0],[29.1172,-2.2533,1461.0],[29.1631,-2.1578,1461.0],[29.174,-2.1275,1461.0],[29.1747,-2.1122,1461.0],[29.1731,-2.0799,1461.0],[29.1619,-2.0377,1461.0],[29.1414,-1.9895,1461.0],[29.1295,-1.9312,1461.0],[29.1259,-1.8896,1461.0],[29.142,-1.8438,1461.0],[29.1949,-1.7724,1461.0],[29.1905,-1.7724,1461.0],[29.2425,-1.7013,1461.0],[29.2424,-1.7001,1461.8865],[29.2396,-1.7006,1465.072],[29.2352,-1.6972,1462.4751],[29.2309,-1.6962,1462.8912],[29.2298,-1.6911,1471.6409],[29.2263,-1.6879,1461.0],[29.2265,-1.6863,1461.0],[29.2216,-1.6867,1463.1514],[29.2238,-1.6836,1467.9275],[29.2219,-1.6815,1467.6718],[29.2184,-1.683,1461.0],[29.2137,-1.6818,1461.9564],[29.1946,-1.6707,1468.547],[29.1897,-1.6689,1466.6144],[29.1791,-1.6687,1462.1208],[29.169,-1.6634,1461.0],[29.1659,-1.6512,1467.0977],[29.1636,-1.65,1461.0],[29.1631,-1.6467,1461.0],[29.1651,-1.6442,1461.5992],[29.1602,-1.6401,1461.5776],[29.1584,-1.634,1467.7965],[29.1572,-1.6365,1461.0],[29.1539,-1.6359,1507.9999],[29.1486,-1.6395,1467.0986],[29.1446,-1.6388,1472.0585]]]]}}