{"type": "Feature","bbox": [29.1238,-3.4332,29.2084,-3.385],"geometry": {"type": "MultiPolygon","coordinates": [[[[29.1971,-3.385,770.0],[29.1622,-3.3877,770.0],[29.1339,-3.3869,922.7052],[29.129,-3.391,1155.8533],[29.1238,-3.4073,912.0865],[29.1268,-3.4203,851.144],[29.1289,-3.4231,821.7628],[29.1408,-3.4277,770.0],[29.1629,-3.4332,770.0],[29.1974,-3.4319,770.0],[29.2084,-3.4288,770.0],[29.1971,-3.385,770.0]]]]}
,"properties": {"GID_2": "COD.22.12_1","GID_0": "COD","country": "DemocraticRepublicoftheCongo","GID_1": "COD.22_1","province": "Sud-Kivu","NL_NAME_1": "NA","county": "Uvira(ville)","VARNAME_2": "NA","NL_NAME_2": "NA","TYPE_2": "Ville","ENGTYPE_2": "Town","CC_2": "NA","HASC_2": "NA","name": "Uvira(ville).county","area_km2": 41.12298,"hist_schema_id": "Elevation0-9000","hist_area_km2": {"775": 35.55663,"800": 1.90483,"825": 1.10057,"850": 0.80426,"875": 0.59261,"900": 0.29631,"925": 0.27514,"950": 0.14815,"975": 0.10582,"1000": 0.14815,"1025": 0.08466,"1050": 0.0635,"1100": 0.02117,"1150": 0.02117}}}