{"type": "Feature","bbox": [27.6625,-13.4525,29.8257,-11.7429],"geometry": {"type": "MultiPolygon","coordinates": [[[[27.6625,-12.2855,1403.8362],[27.6692,-12.2872,1402.7185],[27.7249,-12.29,1431.7217],[27.7638,-12.2945,1410.5742],[27.7763,-12.2893,1366.3663],[27.8031,-12.2669,1353.563],[27.8147,-12.2612,1349.8959],[27.8249,-12.2446,1364.1782],[27.8321,-12.2424,1374.5569],[27.853,-12.2436,1377.3323],[27.8697,-12.249,1366.0479],[27.9041,-12.2525,1363.2891],[27.929,-12.2578,1362.2585],[27.9343,-12.2603,1357.6456],[27.9551,-12.2972,1333.4385],[27.9839,-12.3175,1272.5586],[28.0209,-12.3358,1316.5771],[28.0309,-12.3345,1319.7173],[28.0396,-12.3412,1318.2955],[28.0443,-12.3499,1352.4628],[28.049,-12.3692,1352.3629],[28.0556,-12.3759,1339.8184],[28.0583,-12.3956,1321.4578],[28.0546,-12.4008,1332.3561],[28.0556,-12.404,1336.4479],[28.0627,-12.407,1317.974],[28.0715,-12.4219,1265.0945],[28.0794,-12.429,1274.911],[28.0911,-12.4441,1290.5338],[28.0947,-12.443,1296.3167],[28.0973,-12.4407,1293.3959],[28.099,-12.4357,1311.4894],[28.1088,-12.4293,1304.7245],[28.1088,-12.4257,1314.0419],[28.0973,-12.4085,1309.2715],[28.0991,-12.4004,1324.3245],[28.1111,-12.3953,1328.13],[28.1158,-12.3893,1304.866],[28.1251,-12.3659,1257.7407],[28.1325,-12.3606,1250.0131],[28.1384,-12.3589,1257.2065],[28.145,-12.3615,1261.7711],[28.1291,-12.398,1296.7975],[28.1298,-12.4067,1296.0442],[28.1372,-12.41,1311.9463],[28.1469,-12.408,1315.649],[28.1545,-12.4107,1301.8577],[28.1699,-12.4214,1289.5049],[28.1793,-12.4194,1310.358],[28.1879,-12.4197,1319.2761],[28.1963,-12.4262,1305.5333],[28.2061,-12.4268,1312.2832],[28.2171,-12.4203,1329.9866],[28.2327,-12.4073,1306.1434],[28.2504,-12.4129,1308.049],[28.2717,-12.4229,1328.1698],[28.3152,-12.419,1335.4971],[28.323,-12.4242,1347.9723],[28.3282,-12.4353,1326.9274],[28.3321,-12.4541,1335.2078],[28.3354,-12.4593,1346.9067],[28.3562,-12.4717,1334.0587],[28.3697,-12.4858,1332.1689],[28.3731,-12.4963,1310.25],[28.3839,-12.5177,1304.4956],[28.3993,-12.528,1312.7891],[28.4084,-12.5304,1321.2158],[28.4295,-12.5401,1300.5161],[28.4319,-12.5433,1296.2852],[28.4333,-12.5496,1311.5175],[28.4289,-12.5637,1306.7494],[28.4292,-12.5681,1305.8486],[28.4329,-12.5746,1310.5559],[28.4415,-12.5831,1299.0325],[28.4671,-12.6005,1310.7614],[28.4843,-12.6147,1298.1624],[28.5121,-12.6451,1310.6292],[28.5145,-12.6511,1324.2708],[28.5135,-12.6548,1326.7521],[28.5075,-12.6619,1316.4019],[28.5044,-12.6683,1319.7681],[28.5064,-12.6823,1335.3708],[28.505,-12.6917,1335.4335],[28.4981,-12.7008,1298.8199],[28.4913,-12.7041,1279.119],[28.4706,-12.7065,1284.4972],[28.4659,-12.708,1301.1348],[28.4605,-12.7127,1317.3386],[28.4578,-12.7231,1339.2212],[28.4583,-12.7426,1304.4463],[28.4661,-12.7579,1299.2524],[28.4745,-12.7665,1307.156],[28.4862,-12.7856,1292.0352],[28.5119,-12.8066,1307.0229],[28.5281,-12.831,1336.236],[28.5295,-12.8374,1340.9996],[28.5279,-12.8576,1333.8729],[28.5306,-12.8691,1345.1276],[28.5433,-12.8838,1331.7185],[28.5509,-12.9039,1347.5459],[28.5562,-12.9081,1359.4243],[28.5645,-12.9095,1361.6195],[28.5732,-12.9068,1368.1196],[28.5776,-12.9037,1369.291],[28.5853,-12.8927,1354.6479],[28.5954,-12.8613,1295.1255],[28.6037,-12.8436,1288.153],[28.6227,-12.8279,1296.4053],[28.6284,-12.8262,1305.3333],[28.6402,-12.826,1297.3983],[28.6498,-12.8304,1298.6698],[28.6587,-12.8386,1296.1891],[28.6788,-12.8636,1281.5667],[28.7009,-12.8755,1290.7811],[28.7148,-12.8876,1309.168],[28.7262,-12.9054,1297.8336],[28.7324,-12.9119,1307.0608],[28.7486,-12.9443,1310.6826],[28.7772,-12.9566,1275.973],[28.7836,-12.969,1265.8617],[28.7959,-12.9855,1264.6864],[28.8112,-13.0007,1288.2107],[28.8195,-13.0168,1316.0789],[28.8241,-13.032,1337.6523],[28.823,-13.05,1356.0259],[28.8249,-13.0644,1384.8364],[28.834,-13.0786,1467.9539],[28.8333,-13.0827,1456.1016],[28.8204,-13.0903,1457.2998],[28.8205,-13.0938,1452.9238],[28.837,-13.1111,1389.3308],[28.8387,-13.116,1417.4293],[28.8397,-13.1291,1471.7042],[28.838,-13.1465,1388.54],[28.8399,-13.155,1381.3081],[28.8423,-13.1584,1494.259],[28.8503,-13.1615,1392.5566],[28.8625,-13.1613,1384.8235],[28.8691,-13.17,1364.2576],[28.8744,-13.1712,1358.8658],[28.8847,-13.1686,1359.7012],[28.8892,-13.1691,1354.7283],[28.8966,-13.1741,1338.0697],[28.9063,-13.1849,1325.9788],[28.9159,-13.2086,1321.0302],[28.9184,-13.2223,1322.9954],[28.9181,-13.2442,1318.1105],[28.9312,-13.2747,1311.6261],[28.939,-13.3052,1313.5691],[28.959,-13.3638,1376.0229],[28.9591,-13.3825,1359.4622],[28.9692,-13.3879,1376.4982],[28.9885,-13.378,1392.0059],[28.9978,-13.3795,1449.8181],[28.9978,-13.3849,1370.7795],[28.9953,-13.3888,1380.1414],[28.9828,-13.3997,1454.2877],[28.9797,-13.4071,1440.4309],[28.9852,-13.4187,1395.1039],[28.9923,-13.4253,1414.6079],[28.9959,-13.4267,1455.5759],[29.0077,-13.4257,1508.5741],[29.0191,-13.4224,1418.073],[29.0386,-13.4137,1384.5085],[29.0606,-13.3997,1386.7981],[29.086,-13.3864,1399.3696],[29.1041,-13.3788,1389.1062],[29.1203,-13.3763,1420.1304],[29.1347,-13.3807,1503.4966],[29.1419,-13.3848,1416.2032],[29.1597,-13.4066,1372.3965],[29.1665,-13.4215,1381.8579],[29.1703,-13.442,1417.1403],[29.1751,-13.4463,1431.6627],[29.1793,-13.4451,1429.0593],[29.1884,-13.4387,1417.5771],[29.2072,-13.4213,1372.4918],[29.2218,-13.4158,1387.8904],[29.2354,-13.4084,1391.2568],[29.2653,-13.3848,1381.5449],[29.2879,-13.3763,1362.0081],[29.2983,-13.3706,1359.3167],[29.3063,-13.3594,1355.517],[29.3083,-13.3517,1353.4929],[29.313,-13.3445,1359.9164],[29.3291,-13.3436,1361.5363],[29.3415,-13.3513,1364.0773],[29.3509,-13.3529,1369.8064],[29.3548,-13.3489,1366.4567],[29.358,-13.3357,1368.5945],[29.3615,-13.3308,1368.5103],[29.3657,-13.3283,1365.863],[29.386,-13.3296,1351.374],[29.4144,-13.318,1364.8823],[29.4437,-13.3108,1379.2798],[29.4808,-13.2808,1399.1967],[29.5088,-13.2461,1422.8347],[29.5259,-13.235,1448.6796],[29.5452,-13.2308,1503.9004],[29.5508,-13.227,1518.8862],[29.5594,-13.224,1546.5028],[29.5745,-13.2125,1533.084],[29.5791,-13.2116,1505.9949],[29.5925,-13.2152,1507.0367],[29.5969,-13.218,1502.1587],[29.6073,-13.2281,1491.6821],[29.6289,-13.244,1482.7281],[29.6366,-13.245,1486.2227],[29.6445,-13.2438,1471.8251],[29.662,-13.2317,1492.451],[29.6652,-13.2318,1489.0269],[29.6701,-13.2326,1494.4231],[29.6761,-13.2466,1507.9866],[29.6776,-13.2576,1492.1941],[29.6757,-13.263,1502.3684],[29.6626,-13.2808,1490.5493],[29.6536,-13.2882,1497.8035],[29.65,-13.2948,1479.2068],[29.6498,-13.3014,1473.3638],[29.656,-13.3218,1462.3632],[29.6565,-13.3284,1469.8665],[29.6456,-13.3531,1500.673],[29.6373,-13.3595,1591.1248],[29.6248,-13.3607,1661.0945],[29.6075,-13.359,1665.0634],[29.6037,-13.3611,1604.9204],[29.6036,-13.366,1599.3127],[29.6156,-13.3841,1637.2053],[29.6113,-13.4074,1558.0187],[29.6256,-13.4196,1519.3792],[29.6357,-13.4317,1514.0333],[29.6462,-13.4358,1524.6948],[29.6807,-13.431,1710.2368],[29.6869,-13.4345,1658.6664],[29.6969,-13.4444,1713.8721],[29.7074,-13.4504,1702.702],[29.7209,-13.4525,1644.3424],[29.739,-13.4501,1604.0796],[29.7592,-13.4408,1648.8372],[29.7712,-13.4326,1578.3373],[29.7765,-13.4328,1579.6147],[29.7972,-13.4415,1552.249],[29.8114,-13.445,1544.0562],[29.8257,-12.4954,1172.7881],[29.8223,-12.1467,1161.7135],[29.8135,-12.1495,1159.9858],[29.7827,-12.1463,1160.0646],[29.7709,-12.1487,1159.2408],[29.7542,-12.1615,1160.2263],[29.7486,-12.1688,1160.0419],[29.7422,-12.1815,1159.6527],[29.7403,-12.1949,1160.313],[29.7385,-12.1984,1159.896],[29.7301,-12.2025,1160.1665],[29.7253,-12.2126,1160.2344],[29.7099,-12.216,1159.8331],[29.6895,-12.2258,1159.4874],[29.6757,-12.228,1159.7593],[29.6607,-12.2272,1159.5712],[29.6503,-12.2239,1159.5271],[29.6455,-12.2169,1159.7405],[29.6385,-12.2119,1159.4148],[29.6275,-12.2159,1159.5696],[29.6234,-12.2139,1159.3099],[29.6156,-12.1989,1159.1288],[29.6106,-12.1926,1159.0193],[29.606,-12.1905,1159.4702],[29.595,-12.1925,1159.2468],[29.5911,-12.1914,1158.8086],[29.5886,-12.1848,1158.9907],[29.5853,-12.185,1159.1741],[29.5768,-12.1942,1159.52],[29.5722,-12.1961,1158.8024],[29.5623,-12.1965,1158.7593],[29.5589,-12.1993,1158.8826],[29.5525,-12.2132,1160.0968],[29.5462,-12.2193,1159.4373],[29.5188,-12.2281,1158.4414],[29.5075,-12.2335,1159.8156],[29.4995,-12.2394,1158.2412],[29.49,-12.2504,1159.3335],[29.4877,-12.2625,1160.0105],[29.4739,-12.2932,1163.0449],[29.4683,-12.3022,1159.549],[29.4674,-12.3198,1160.9524],[29.4918,-12.3824,1163.431],[29.4947,-12.3862,1161.8506],[29.5045,-12.393,1160.3308],[29.5324,-12.3881,1163.2144],[29.5362,-12.3903,1161.8579],[29.5387,-12.3974,1162.3555],[29.5406,-12.412,1159.8074],[29.5364,-12.4227,1162.3639],[29.5206,-12.435,1158.3939],[29.5108,-12.4383,1158.5503],[29.4943,-12.4514,1161.1777],[29.4793,-12.4514,1165.014],[29.4609,-12.441,1167.0457],[29.4426,-12.44,1164.8837],[29.4349,-12.4372,1162.0121],[29.418,-12.4301,1160.2148],[29.4057,-12.422,1162.171],[29.3984,-12.4139,1161.7136],[29.3849,-12.4066,1160.5779],[29.3732,-12.4083,1164.7402],[29.3553,-12.4184,1159.8713],[29.3459,-12.4193,1158.6144],[29.3409,-12.4177,1162.4589],[29.3267,-12.4068,1171.3258],[29.3161,-12.4049,1159.0026],[29.3136,-12.4027,1159.5594],[29.3152,-12.3872,1159.5209],[29.3111,-12.3828,1158.3156],[29.2817,-12.368,1153.7152],[29.2733,-12.3676,1154.9546],[29.2456,-12.3778,1148.75],[29.2365,-12.3782,1142.25],[29.2208,-12.3716,1145.2333],[29.1904,-12.371,1137.5825],[29.1649,-12.3782,1121.1371],[29.152,-12.3833,1145.1338],[29.1395,-12.3914,1158.0217],[29.1335,-12.393,1126.2778],[29.1256,-12.3776,1140.8293],[29.1203,-12.3741,1150.1226],[29.1126,-12.3741,1139.365],[29.1033,-12.3774,1093.9224],[29.088,-12.3856,1136.7644],[29.0664,-12.3835,1109.2321],[29.0509,-12.3782,1110.1169],[29.047,-12.3728,1136.8716],[29.0451,-12.3674,1139.6191],[29.0474,-12.3576,1140.5186],[29.047,-12.3499,1117.1582],[29.0309,-12.3314,1082.9341],[29.0253,-12.3209,1065.7753],[29.0222,-12.3097,1060.9401],[29.0201,-12.2905,1065.7791],[29.0151,-12.2813,1067.6449],[29.0022,-12.2705,1063.8983],[28.9901,-12.2561,1058.4996],[28.9821,-12.2398,1061.8707],[28.9724,-12.2267,1058.6436],[28.9642,-12.2094,1059.4954],[28.9559,-12.2004,1060.1395],[28.933,-12.1815,1058.7323],[28.9217,-12.1694,1068.7131],[28.9105,-12.1638,1057.993],[28.9004,-12.1619,1053.7247],[28.8825,-12.1529,1056.5182],[28.8681,-12.1373,1058.2804],[28.8475,-12.1002,1066.7511],[28.8304,-12.0856,1062.4125],[28.8139,-12.065,1064.0652],[28.7918,-12.0527,1060.8424],[28.7864,-12.0435,1080.3901],[28.7864,-12.0339,1059.2623],[28.7841,-12.0258,1054.9067],[28.7789,-12.0199,1058.4421],[28.7758,-11.9989,1065.0779],[28.7668,-11.9826,1057.9216],[28.7533,-11.9822,1054.0254],[28.7339,-11.9912,1055.0027],[28.7247,-11.9926,1054.4681],[28.7197,-11.9914,1053.7811],[28.7037,-11.983,1051.4708],[28.6858,-11.9672,1052.3959],[28.6555,-11.9503,1054.1429],[28.6476,-11.9435,1056.6013],[28.6393,-11.9347,1056.793],[28.6346,-11.9166,1062.373],[28.6278,-11.9097,1053.14],[28.6157,-11.9111,1054.4648],[28.6055,-11.9095,1050.3948],[28.5915,-11.9124,1056.5043],[28.5857,-11.912,1051.9824],[28.5655,-11.902,1048.0],[28.5486,-11.899,1048.0],[28.5232,-11.882,1051.406],[28.5125,-11.8805,1053.4348],[28.5079,-11.8778,1048.0],[28.5051,-11.8739,1053.0632],[28.5056,-11.8811,1048.4608],[28.5097,-11.8835,1056.2046],[28.4885,-11.8876,1067.7814],[28.4814,-11.8848,1055.4576],[28.4772,-11.8849,1058.5544],[28.4741,-11.893,1065.3405],[28.4774,-11.9049,1065.8008],[28.4764,-11.9118,1069.9065],[28.4905,-11.9175,1072.5239],[28.4927,-11.9218,1074.6787],[28.4883,-11.9323,1073.136],[28.4896,-11.9394,1075.1383],[28.4883,-11.9452,1076.8678],[28.483,-11.9563,1079.1814],[28.4847,-11.9613,1078.9154],[28.4699,-11.9663,1105.7368],[28.436,-11.9649,1120.1602],[28.428,-11.9602,1111.1779],[28.4196,-11.9356,1100.7345],[28.3758,-11.8556,1135.6243],[28.3596,-11.8106,1128.3374],[28.3292,-11.7543,1092.2229],[28.3173,-11.7429,1099.7942],[28.2024,-11.7493,1162.1919],[28.1927,-11.7533,1157.9753],[28.1925,-11.7678,1171.2576],[28.1839,-11.771,1167.9956],[28.1691,-11.7708,1179.6943],[28.1458,-11.7633,1183.0435],[28.1329,-11.7566,1156.9799],[28.1125,-11.7567,1154.0875],[28.0991,-11.752,1155.7844],[28.0832,-11.7503,1162.038],[28.0429,-11.7497,1120.7235],[28.0263,-11.7545,1130.2708],[28.024,-11.758,1119.5402],[28.015,-11.7639,1126.1361],[28.0135,-11.7911,1126.0499],[27.9992,-11.8012,1125.0253],[27.9935,-11.7963,1128.076],[27.9927,-11.7915,1127.6035],[27.9952,-11.7866,1127.7494],[27.9944,-11.7843,1133.4512],[27.9895,-11.7851,1127.3679],[27.9804,-11.7942,1122.5497],[27.9748,-11.7957,1126.1028],[27.9661,-11.8065,1126.7733],[27.9596,-11.807,1131.3713],[27.9572,-11.8052,1128.2179],[27.954,-11.797,1138.0758],[27.9499,-11.7992,1126.7223],[27.9474,-11.8047,1134.7963],[27.9419,-11.8083,1133.5011],[27.9365,-11.8079,1132.5557],[27.9178,-11.7936,1132.6183],[27.9056,-11.794,1131.3586],[27.9016,-11.7925,1129.6976],[27.8933,-11.7825,1133.4016],[27.8872,-11.7801,1132.7533],[27.8899,-11.778,1130.4661],[27.8898,-11.7743,1130.9922],[27.8821,-11.774,1136.6143],[27.8676,-11.7825,1131.8826],[27.8623,-11.7882,1134.4451],[27.8606,-11.7937,1127.335],[27.8634,-11.7964,1129.1677],[27.8671,-11.8056,1131.7543],[27.8725,-11.8084,1129.9756],[27.8733,-11.8121,1130.3264],[27.8708,-11.8158,1129.853],[27.841,-11.8325,1134.1797],[27.8355,-11.8372,1133.8387],[27.8306,-11.8529,1131.2408],[27.8277,-11.8555,1129.2054],[27.8146,-11.8578,1131.8147],[27.8104,-11.8568,1131.5276],[27.808,-11.8522,1133.4729],[27.8026,-11.8518,1135.196],[27.7993,-11.8533,1134.4362],[27.7964,-11.8593,1130.6021],[27.789,-11.8606,1132.2375],[27.783,-11.8651,1132.2111],[27.7801,-11.872,1134.8965],[27.7814,-11.8805,1133.8235],[27.7727,-11.8892,1134.9849],[27.7718,-11.9023,1150.1143],[27.7681,-11.9072,1138.3733],[27.7986,-11.9363,1140.2386],[27.8097,-11.9532,1150.4315],[27.8086,-11.9566,1147.5836],[27.7957,-11.9589,1140.6304],[27.7923,-11.962,1151.8322],[27.7871,-11.9819,1147.8081],[27.7788,-11.9878,1163.1792],[27.771,-11.9967,1175.9648],[27.7597,-12.0033,1166.4226],[27.7573,-12.0123,1186.6671],[27.7583,-12.0187,1180.4036],[27.757,-12.0238,1171.0205],[27.7476,-12.0316,1182.9829],[27.753,-12.0352,1186.6865],[27.7578,-12.0415,1183.1943],[27.7601,-12.0521,1188.8378],[27.7546,-12.0586,1199.4441],[27.7479,-12.0599,1198.0142],[27.7433,-12.0662,1205.1948],[27.737,-12.0654,1208.0848],[27.7287,-12.0607,1212.1028],[27.7227,-12.061,1206.0317],[27.7142,-12.0842,1210.1851],[27.711,-12.1114,1224.8645],[27.7092,-12.1142,1217.2609],[27.6971,-12.1201,1220.4261],[27.6872,-12.13,1227.4138],[27.6862,-12.1346,1226.496],[27.6895,-12.1513,1230.6938],[27.6982,-12.1654,1237.0354],[27.7063,-12.1717,1242.6733],[27.7106,-12.1795,1260.7358],[27.7103,-12.1869,1265.9346],[27.7137,-12.1944,1251.4178],[27.7236,-12.2094,1257.3906],[27.7218,-12.2142,1271.6338],[27.7094,-12.2257,1287.8228],[27.7072,-12.2341,1272.1901],[27.684,-12.2554,1302.3217],[27.6761,-12.2585,1306.3889],[27.6722,-12.2625,1313.2168],[27.6714,-12.2724,1352.7444],[27.673,-12.283,1408.4146],[27.6625,-12.2855,1403.8362]]]]}
,"properties": {"GID_2": "COD.3.9_1","GID_0": "COD","country": "DemocraticRepublicoftheCongo","GID_1": "COD.3_1","province": "Haut-Katanga","NL_NAME_1": "NA","county": "Sakania","VARNAME_2": "NA","NL_NAME_2": "NA","TYPE_2": "Territoire","ENGTYPE_2": "Territory","CC_2": "NA","HASC_2": "NA","name": "Sakania.county","area_km2": 21692.66,"hist_schema_id": "Elevation0-9000","hist_area_km2": {"1050": 131.7,"1075": 218.57,"1100": 533.08,"1125": 1032.94,"1150": 1549.43,"1175": 2624.16,"1200": 2505.18,"1225": 2619.01,"1250": 2756.66,"1275": 2337.91,"1300": 1834.97,"1325": 1195.43,"1350": 765.03,"1375": 518.04,"1400": 301.83,"1425": 213.3,"1450": 190.55,"1475": 143.61,"1500": 84.01,"1525": 60.23,"1550": 40.4,"1575": 15.76,"1600": 7.2,"1625": 6.1,"1650": 3.53,"1675": 1.67,"1700": 1.44,"1725": 0.62,"1750": 0.25}}}