{"type":"Feature","properties":{"ISO3166-1-Alpha-3":"COD","country":"Democratic Republic of the Congo","fill":"#FF0","id":"1871","name":"Bandundu"},
"geometry":{"type": "Polygon","coordinates": [[[19.59181,-1.79829,332.9107],[19.54277,-1.7925,333.248],[19.5269,-1.78811,324.7791],[19.51806,-1.78315,325.7449],[19.51403,-1.77881,325.731],[19.51295,-1.77204,326.4366],[19.51217,-1.74713,327.1801],[19.50799,-1.7202,332.8866],[19.48391,-1.62192,330.1097],[19.47352,-1.59515,346.8605],[19.41502,-1.5011,324.3004],[19.38495,-1.46172,335.7573],[19.36805,-1.4348,308.7278],[19.32676,-1.33563,330.7526],[19.32273,-1.32168,317.9966],[19.29446,-1.2731,326.8645],[19.21364,-1.1882,328.9215],[19.17483,-1.13445,355.3437],[19.14749,-1.08402,353.0291],[19.08589,-0.99813,344.6254],[19.08295,-0.99229,348.0684],[19.07923,-0.98232,345.8284],[19.06574,-0.90253,364.8882],[19.0628,-0.85457,353.2257],[19.05954,-0.84093,348.1365],[19.04807,-0.80848,343.7099],[19.0397,-0.79153,347.0481],[19.02771,-0.77411,361.354],[19.00585,-0.75008,370.9872],[18.9905,-0.74311,351.2603],[18.97789,-0.74579,373.4957],[18.9706,-0.7567,374.4405],[18.96533,-0.76962,356.0336],[18.95867,-0.79633,359.373],[18.9534,-0.80956,356.5648],[18.94564,-0.82186,357.5398],[18.93464,-0.8337,353.6776],[18.9228,-0.84382,371.869],[18.88312,-0.86863,347.4229],[18.83206,-0.88956,359.3005],[18.82012,-0.89705,355.438],[18.80943,-0.90697,363.9646],[18.80224,-0.91788,340.0475],[18.79713,-0.92987,341.6548],[18.79341,-0.95369,335.9639],[18.79449,-1.00299,343.7851],[18.79542,-1.01095,332.9322],[18.79852,-1.0218,325.7787],[18.80364,-1.03379,329.1807],[18.81015,-1.04536,325.2122],[18.81826,-1.05699,329.4286],[18.86265,-1.10479,343.6526],[18.8704,-1.11745,326.7128],[18.87614,-1.13089,324.7566],[18.87505,-1.14458,324.3051],[18.86885,-1.15719,317.3333],[18.84942,-1.17776,321.2723],[18.84214,-1.18882,318.8335],[18.83625,-1.20013,313.9283],[18.82927,-1.21104,316.3828],[18.81997,-1.22111,316.0095],[18.80891,-1.22845,314.7067],[18.79589,-1.23352,325.3358],[18.78255,-1.23657,330.6754],[18.76845,-1.23801,332.6383],[18.6868,-1.23321,315.8287],[18.65998,-1.23677,313.8806],[18.6328,-1.24421,311.1675],[18.59249,-1.26003,317.5667],[18.57941,-1.26375,319.7304],[18.55151,-1.26695,330.5771],[18.53818,-1.26705,323.1595],[18.52185,-1.26566,319.449],[18.50355,-1.26168,324.2821],[18.47751,-1.25305,321.7159],[18.4418,-1.23507,338.5332],[18.42738,-1.22514,333.8062],[18.36284,-1.16251,338.5777],[18.34961,-1.15631,324.1198],[18.33705,-1.15259,325.3268],[18.19148,-1.13073,325.4854],[18.16156,-1.13047,318.2008],[18.15024,-1.13352,322.4545],[18.14187,-1.14329,315.9076],[18.12461,-1.18401,328.5299],[18.11004,-1.2098,328.1234],[18.07169,-1.25718,320.5424],[18.01816,-1.31031,316.1512],[17.93082,-1.37387,312.1224],[17.89093,-1.3917,310.4763],[17.80184,-1.40989,311.7249],[17.76649,-1.42234,321.1657],[17.75052,-1.43087,321.3477],[17.69528,-1.46689,316.3734],[17.68004,-1.47386,325.5956],[17.66515,-1.47898,325.8055],[17.6065,-1.49128,328.601],[17.57271,-1.50218,321.0284],[17.52103,-1.52626,327.6696],[17.184,-1.72527,394.6725],[17.07677,-1.80759,377.4798],[17.04462,-1.81131,331.5745],[16.99822,-1.81023,355.9425],[16.84929,-1.79343,309.1086],[16.82056,-1.79343,292.1383],[16.81342,-1.80144,291.4308],[16.81032,-1.81147,294.6061],[16.81141,-1.82263,292.0917],[16.81575,-1.83286,305.9492],[16.82459,-1.84149,295.3515],[16.83497,-1.84728,298.7593],[16.86913,-1.86175,301.4144],[16.87998,-1.86888,317.0157],[16.88913,-1.87849,325.15],[16.89518,-1.89043,321.6672],[16.89766,-1.90231,323.1964],[16.9005,-1.99223,308.1772],[16.89936,-1.99605,312.7256],[16.88835,-1.9989,313.229],[16.64429,-1.99874,294.0244],[16.62739,-1.99559,293.6261],[16.61648,-1.98701,292.9042],[16.58827,-1.93621,304.7091],[16.55675,-1.89317,301.5666],[16.52838,-1.86237,283.0],[16.52497,-1.85853,283.0],[16.52254,-1.86175,283.0],[16.51716,-1.87373,283.0],[16.51396,-1.88738,286.0112],[16.50776,-1.89027,283.8401],[16.49029,-1.9036,283.0],[16.47479,-1.91011,287.0344],[16.47003,-1.9127,286.4243],[16.46094,-1.92086,285.7549],[16.44564,-1.9405,283.0],[16.3826,-2.0022,283.0],[16.34022,-2.03414,283.0],[16.28441,-2.08757,282.5],[16.25609,-2.1068,282.0],[16.23129,-2.12902,282.0],[16.20679,-2.16095,282.0],[16.1946,-2.18204,282.0],[16.18736,-2.20457,282.0],[16.1886,-2.22772,282.0],[16.19005,-2.23547,282.0],[16.18995,-2.24188,282.0],[16.17692,-2.28684,281.5],[16.17486,-2.30306,281.0],[16.17827,-2.31846,285.0145],[16.18747,-2.33231,281.3815],[16.18984,-2.33748,281.2531],[16.1917,-2.34688,280.6651],[16.19232,-2.39515,280.0],[16.2256,-2.63524,277.0],[16.20452,-2.78272,276.0],[16.18085,-2.85414,275.5],[16.17816,-2.86809,275.0],[16.17703,-2.88246,275.0],[16.18398,-2.94045,274.0],[16.18829,-2.97641,274.0],[16.18447,-3.02612,274.0],[16.18984,-3.08234,419.2522],[16.18571,-3.1364,277.9103],[16.18995,-3.15304,307.0275],[16.19925,-3.17185,273.0],[16.19946,-3.19479,285.308],[16.19336,-3.23841,338.0843],[16.19863,-3.25949,299.1018],[16.21041,-3.27107,273.0],[16.22209,-3.27913,275.339],[16.22746,-3.28988,279.9891],[16.2256,-3.31323,273.0],[16.22075,-3.33173,318.3731],[16.20772,-3.36191,287.1542],[16.15842,-3.44728,307.6182],[16.13786,-3.50072,377.5913],[16.11553,-3.54423,329.6379],[16.05331,-3.61998,291.8663],[16.0127,-3.70225,273.0],[16.00526,-3.72478,293.3834],[15.9911,-3.73894,273.0],[15.97425,-3.78649,287.4613],[15.95785,-3.8151,281.632],[15.94314,-3.84075,273.0],[15.93611,-3.8485,273.0],[15.93032,-3.85863,272.5],[15.91213,-3.91743,272.5],[15.88802,-3.94052,315.5602],[15.89074,-3.94296,272.5],[15.95456,-3.97883,561.5529],[15.9882,-3.9873,454.3719],[16.0728,-3.97712,599.3217],[16.14819,-3.98141,616.8787],[16.17599,-3.98653,595.1501],[16.20033,-3.99355,620.0237],[16.21615,-4.0011,579.8311],[16.26255,-4.03273,577.6981],[16.38963,-4.0997,605.969],[16.40378,-4.11272,584.8769],[16.44843,-4.18512,531.2188],[16.45934,-4.19871,549.3226],[16.47282,-4.21292,552.5233],[16.49685,-4.22941,504.603],[16.51251,-4.24315,485.8016],[16.52254,-4.25013,566.3826],[16.54016,-4.27777,570.6198],[16.54248,-4.29018,597.8741],[16.54042,-4.30087,491.8593],[16.53659,-4.31214,422.2955],[16.53484,-4.32278,417.7925],[16.54807,-4.34929,467.2035],[16.54419,-4.36573,446.0917],[16.53856,-4.37973,507.6747],[16.54248,-4.39012,429.3309],[16.54248,-4.39632,414.4068],[16.53075,-4.40867,565.5587],[16.51975,-4.42867,572.947],[16.51158,-4.45053,511.4059],[16.50838,-4.46831,534.5618],[16.50621,-4.47513,424.8795],[16.49685,-4.48774,354.349],[16.49468,-4.49626,368.369],[16.49143,-4.50262,352.9091],[16.49003,-4.50577,351.6696],[16.48445,-4.50789,338.0],[16.45246,-4.50851,510.595],[16.4413,-4.51213,658.1718],[16.4306,-4.52102,675.3308],[16.42177,-4.53254,695.1937],[16.32012,-4.71382,715.2142],[16.27263,-4.77154,627.8375],[16.26519,-4.78271,556.879],[16.26054,-4.79449,595.5723],[16.25976,-4.80637,573.4611],[16.26224,-4.83149,635.3912],[16.27294,-4.88518,579.7352],[16.27868,-4.99995,633.0792],[16.25589,-5.06718,638.3577],[16.25031,-5.10212,652.8614],[16.25837,-5.22092,649.0957],[16.25465,-5.25777,647.8151],[16.22746,-5.38241,691.3156],[16.2208,-5.4359,603.3917],[16.22953,-5.51625,813.2509],[16.22964,-5.64792,594.0948],[16.22674,-5.67826,577.5626],[16.22235,-5.70038,553.1765],[16.19057,-5.77169,539.1956],[16.18375,-5.78254,518.88],[16.17362,-5.7921,533.8309],[16.11543,-5.83432,584.3282],[16.10096,-5.85794,719.5709],[16.10086,-5.85811,719.5709],[16.16566,-5.85701,576.3099],[16.25702,-5.85556,500.3755],[16.31573,-5.85463,534.0],[16.34126,-5.8598,536.1412],[16.35852,-5.87023,500.9891],[16.37433,-5.88284,497.7647],[16.39614,-5.89411,413.6991],[16.41247,-5.8968,411.4587],[16.42745,-5.89463,413.065],[16.45949,-5.88522,460.1014],[16.47933,-5.88222,507.0087],[16.49732,-5.88284,505.2846],[16.51509,-5.88708,419.2116],[16.55292,-5.90238,604.0256],[16.56026,-5.90641,504.313],[16.59736,-5.9247,529.3193],[16.59406,-5.93318,534.3175],[16.58062,-5.94899,412.187],[16.58072,-5.9554,504.925],[16.59034,-5.96801,388.5],[16.5953,-5.97855,417.7303],[16.59716,-5.98785,448.7242],[16.60119,-6.05059,399.6589],[16.60429,-6.06185,392.5],[16.61008,-6.06123,394.427],[16.61948,-6.05658,463.3374],[16.62837,-6.05534,463.3649],[16.63219,-6.06526,442.6282],[16.61111,-6.08976,477.7638],[16.63095,-6.09172,552.6048],[16.64305,-6.10071,430.806],[16.6601,-6.12397,527.5298],[16.67178,-6.13017,543.9348],[16.68511,-6.1343,593.4137],[16.69586,-6.14092,468.4233],[16.70041,-6.15435,539.858],[16.71787,-6.17409,466.7483],[16.72676,-6.18918,422.0092],[16.72438,-6.20241,437.249],[16.71725,-6.21512,441.4893],[16.71477,-6.23156,397.0],[16.71539,-6.30483,398.0],[16.71694,-6.31331,398.0],[16.72015,-6.32261,398.5],[16.72232,-6.33243,436.2297],[16.72097,-6.34235,497.3243],[16.71529,-6.34597,482.8944],[16.70609,-6.34669,454.6702],[16.69741,-6.34979,431.0823],[16.69359,-6.35982,410.4356],[16.69297,-6.39837,436.7538],[16.69472,-6.40219,487.4596],[16.70041,-6.41129,453.7841],[16.70702,-6.41542,420.8798],[16.71364,-6.41397,427.1542],[16.71891,-6.41532,401.5],[16.72097,-6.42834,457.5242],[16.71519,-6.44136,407.4221],[16.70609,-6.45521,440.4851],[16.70609,-6.46503,444.1671],[16.7278,-6.46596,437.9421],[16.72128,-6.48053,443.5377],[16.7217,-6.4918,406.9071],[16.728,-6.5011,403.5],[16.73834,-6.51061,406.6311],[16.74733,-6.52198,410.7473],[16.74681,-6.53159,411.7556],[16.73451,-6.55236,435.4291],[16.73079,-6.56983,405.0],[16.734,-6.58606,406.6749],[16.74867,-6.61954,429.9888],[16.75301,-6.63722,416.9033],[16.75591,-6.67411,429.2455],[16.76035,-6.69199,407.5],[16.7681,-6.70832,412.621],[16.82309,-6.78511,496.5051],[16.82691,-6.79979,497.3709],[16.82856,-6.81436,414.0309],[16.8329,-6.8278,426.1236],[16.84448,-6.83844,426.3416],[16.85533,-6.84217,438.7423],[16.87941,-6.84465,471.4821],[16.89078,-6.84713,503.7456],[16.91497,-6.86408,578.6942],[16.92696,-6.88857,563.9035],[16.9345,-6.94572,503.5677],[16.93212,-6.94986,508.811],[16.92861,-6.95926,581.1631],[16.92871,-6.96867,522.6619],[16.9376,-6.97301,555.0608],[16.94907,-6.97539,563.6807],[16.95527,-6.98148,609.5056],[16.95931,-6.98944,602.8813],[16.96458,-6.99719,595.1434],[16.97315,-7.01476,537.9845],[16.96933,-7.03037,440.6221],[16.9623,-7.04742,426.1941],[16.96117,-7.06923,423.9853],[16.92913,-7.06065,559.7299],[16.92706,-7.08566,442.7042],[16.94752,-7.15109,437.4532],[16.94566,-7.20462,428.4655],[16.95083,-7.2132,422.0574],[16.96055,-7.21909,432.2273],[16.97284,-7.23222,432.1816],[16.98907,-7.25485,450.6421],[16.99165,-7.27056,430.5302],[16.99165,-7.28607,430.3778],[16.9961,-7.29795,424.7915],[17.02287,-7.30601,433.5631],[17.05666,-7.32989,428.0674],[17.0825,-7.34229,424.0],[17.09335,-7.35231,435.4768],[17.0978,-7.3674,433.8824],[17.09789,-7.37829,436.8199],[17.09811,-7.40234,440.5609],[17.104,-7.41608,425.9813],[17.11816,-7.42549,426.0],[17.12622,-7.41143,437.2793],[17.13221,-7.40957,434.2503],[17.13821,-7.41371,433.9321],[17.14617,-7.41805,429.804],[17.16746,-7.42353,429.8577],[17.17655,-7.42818,429.4128],[17.18027,-7.43541,431.5019],[17.1749,-7.44161,436.2997],[17.16312,-7.44554,436.7902],[17.15154,-7.45122,471.4829],[17.14617,-7.46311,467.7647],[17.14854,-7.47262,456.8486],[17.15495,-7.47913,428.0],[17.16343,-7.48523,429.8899],[17.17283,-7.49381,440.5348],[17.18627,-7.51634,456.4219],[17.20291,-7.56429,524.2968],[17.21779,-7.586,522.8743],[17.26657,-7.61039,449.3648],[17.28642,-7.62517,521.9225],[17.2827,-7.64398,577.6513],[17.28745,-7.6602,532.4029],[17.28652,-7.68366,566.1836],[17.2889,-7.69948,584.5182],[17.30378,-7.69245,573.4037],[17.30595,-7.7001,562.8936],[17.30812,-7.70185,565.211],[17.30812,-7.70237,565.211],[17.30378,-7.70671,589.6331],[17.32042,-7.71364,580.0669],[17.32063,-7.72242,644.4565],[17.31422,-7.73183,589.4231],[17.3106,-7.74082,589.6675],[17.31598,-7.75363,586.75],[17.33406,-7.76965,590.448],[17.33789,-7.77865,594.5135],[17.34243,-7.78402,595.9103],[17.36548,-7.78733,593.9411],[17.3754,-7.79229,594.6281],[17.37695,-7.80169,596.4476],[17.37613,-7.8141,592.0912],[17.38099,-7.82319,593.6144],[17.4,-7.8234,592.2604],[17.4,-7.83022,595.0627],[17.3907,-7.83921,592.7888],[17.39762,-7.84138,592.9091],[17.41085,-7.84148,596.1968],[17.42057,-7.84386,596.0311],[17.42357,-7.85513,596.1968],[17.42305,-7.86794,598.7967],[17.42636,-7.87549,613.0437],[17.44093,-7.87115,598.2112],[17.4524,-7.88396,607.8268],[17.44868,-7.89285,597.5278],[17.43938,-7.90215,598.3214],[17.43411,-7.91579,596.9183],[17.43783,-7.92241,601.0729],[17.44682,-7.92892,614.0867],[17.46832,-7.93946,598.663],[17.46356,-7.9469,598.3734],[17.46305,-7.9498,595.5068],[17.46522,-7.95259,597.6542],[17.46832,-7.95993,609.7831],[17.47111,-7.95559,601.778],[17.47721,-7.95052,599.1804],[17.48186,-7.94566,603.7596],[17.49095,-7.9775,601.2565],[17.49622,-7.98721,634.7474],[17.50635,-7.99651,629.8331],[17.52837,-8.00778,676.0189],[17.53653,-8.01512,651.061],[17.54005,-8.03207,644.9926],[17.52837,-8.06059,603.3162],[17.53622,-8.0754,662.6394],[17.53653,-8.0759899999999991,662.6394],[17.54428,-8.08478,675.154],[17.6002,-8.09852,639.5665],[17.62841,-8.09801,654.7827],[17.71326,-8.06834,758.6995],[17.74334,-8.07072,654.0853],[17.77724,-8.08333,770.095],[17.78954,-8.08178,776.4925],[17.85176,-8.04778,754.3306],[17.86798,-8.04447,699.2842],[17.90137,-8.04809,801.6191],[17.93082,-8.06214,782.7943],[17.98188,-8.10534,702.7584],[18.00854,-8.11124,764.4205],[18.09815,-8.10927,728.0901],[18.09174,-8.08416,771.1571],[18.09288,-8.05635,663.0576],[18.10218,-8.03331,654.2593],[18.12037,-8.02245,759.1517],[18.13577,-8.01853,829.6241],[18.1766,-7.9992,832.8148],[18.19272,-7.99693,761.744],[18.26734,-7.99982,822.8021],[18.31623,-8.00168,827.5515],[18.35364,-8.01594,857.5736],[18.36656,-8.01677,826.8012],[18.38196,-8.01233,802.0009],[18.40387,-8.00065,804.9012],[18.42051,-7.99827,859.6157],[18.4818,-7.99734,909.7704],[18.48789,-7.99827,959.606],[18.50763,-7.99755,1009.0784],[18.50226,-7.96013,954.0167],[18.50433,-7.9407,945.5024],[18.51652,-7.93223,915.7337],[18.58866,-7.93233,984.7022],[18.6669,-7.93233,1081.2832],[18.73853,-7.93233,1154.3292],[18.74731,-7.93781,1113.0554],[18.75206,-7.96592,1082.9714],[18.75827,-7.97822,1112.5044],[18.77377,-8.00199,1061.3434],[18.818,-8.00199,1145.1681],[18.94544,-8.00199,1109.1501],[19.07308,-8.00199,1056.8068],[19.20062,-8.00199,1026.0708],[19.32826,-8.00199,1097.8167],[19.35554,-8.00199,1069.5614],[19.33404,-7.92427,1075.3733],[19.33094,-7.89864,1073.1995],[19.33384,-7.86732,1019.052],[19.34851,-7.82154,1013.757],[19.35802,-7.79156,1017.0226],[19.37776,-7.73007,1045.9631],[19.38138,-7.70392,1054.3025],[19.38097,-7.67974,1032.0836],[19.37321,-7.6538,1010.2715],[19.36185,-7.62703,1009.3494],[19.35368,-7.60026,1023.5225],[19.35564,-7.57411,1015.7835],[19.42468,-7.57969,1020.0302],[19.44391,-7.57525,1019.6058],[19.45827,-7.56026,1008.3177],[19.46871,-7.52109,1006.382],[19.48236,-7.50352,972.4137],[19.48308,-7.5029,972.3221],[19.48391,-7.50238,967.1775],[19.48473,-7.50197,967.1775],[19.51315,-7.47944,973.8621],[19.51377,-7.44843,961.5057],[19.48721,-7.38198,961.2612],[19.47946,-7.34766,937.4915],[19.47636,-7.31593,915.6523],[19.48721,-7.15388,962.0952],[19.49703,-7.12173,950.7327],[19.50861,-7.10323,939.1357],[19.5362,-7.0684,922.4415],[19.54261,-7.05228,908.4141],[19.54023,-7.04164,809.365],[19.52184,-7.00195,921.8909],[19.57403,-7.00195,920.7733],[19.61609,-7.00195,912.8915],[19.65806,-7.00195,920.7985],[19.70002,-7.00195,915.5087],[19.74198,-7.00195,917.3112],[19.78404,-7.00195,911.1572],[19.82611,-7.00195,774.0543],[19.86807,-7.00195,710.9539],[19.91003,-7.00195,732.2521],[19.95209,-7.00195,645.7722],[19.96308,-7.00195,652.5102],[19.96305,-7.00174,652.5102],[19.96279,-6.99988,635.8174],[19.95132,-6.90568,572.4691],[19.94093,-6.86423,632.8099],[19.93318,-6.8462,649.9832],[19.91809,-6.81995,661.4178],[19.80559,-6.6845,613.5524],[19.74802,-6.59133,620.5089],[19.72942,-6.54947,568.981],[19.68984,-6.19802,485.4266],[19.68984,-6.19001,539.6233],[19.69108,-6.18365,547.0382],[19.69418,-6.17358,540.634],[19.69743,-6.15621,564.4167],[19.69945,-6.15125,576.1564],[19.70291,-6.14774,578.6262],[19.71531,-6.13957,524.3821],[19.73252,-6.12231,476.1241],[19.73547,-6.11828,473.0],[19.73779,-6.11379,496.7776],[19.74089,-6.10981,492.0484],[19.74492,-6.10691,539.8192],[19.75485,-6.10319,607.6407],[19.76808,-6.09492,588.4701],[19.778,-6.0911,564.6514],[19.78203,-6.08826,560.276],[19.78838,-6.08077,577.0132],[19.79195,-6.07751,569.6859],[19.79614,-6.07482,586.8668],[19.80606,-6.07084,557.4247],[19.81024,-6.06831,535.1207],[19.82316,-6.05539,517.6533],[19.83789,-6.03539,565.0237],[19.84146,-6.03209,580.9949],[19.84642,-6.03023,567.7148],[19.86409,-6.02723,538.16],[19.8689,-6.02516,510.2477],[19.87282,-6.02206,461.0],[19.87541,-6.01819,461.0],[19.88259,-6.00532,580.6496],[19.88414,-6.0032,593.646],[19.88662,-6.00175,603.1104],[19.88926,-6.00175,587.6192],[19.89484,-6.00273,560.9049],[19.90429,-6.00707,554.0145],[19.90848,-6.00785,482.4028],[19.91205,-6.00594,490.8399],[19.91468,-6.00315,505.3054],[19.92305,-5.99142,581.0501],[19.92491,-5.98971,586.5249],[19.92884,-5.98775,591.4868],[19.93396,-5.98677,588.8062],[19.94,-5.98666,584.5468],[19.95675,-5.98909,563.9219],[19.96186,-5.98816,485.6161],[19.96667,-5.9863,453.0],[19.97442,-5.98072,502.6409],[19.98124,-5.97436,545.4968],[19.98651,-5.97054,530.5017],[19.99493,-5.96594,464.2849],[20.00021,-5.96186,452.0046],[20.00207,-5.95974,451.0602],[20.00315,-5.95834,450.7816],[20.0047,-5.9554,475.8638],[20.00594,-5.95349,525.4113],[20.00873,-5.95039,522.6356],[20.01896,-5.94196,456.8428],[20.02082,-5.93979,449.3667],[20.02284,-5.93638,447.5],[20.03168,-5.90693,446.0],[20.03276,-5.90414,445.5],[20.0371,-5.89721,445.125],[20.03995,-5.8907,454.3126],[20.0447,-5.87706,486.0903],[20.04801,-5.87148,448.9866],[20.05343,-5.86533,443.0],[20.05529,-5.86424,443.0],[20.05917,-5.86254,443.0],[20.08118,-5.85742,441.5],[20.08583,-5.8554,452.8464],[20.10263,-5.8444,446.7332],[20.10867,-5.83913,443.4542],[20.1096,-5.83804,439.0],[20.11813,-5.80161,447.5442],[20.1203,-5.79505,435.875],[20.12216,-5.79241,435.5],[20.12774,-5.78698,435.0],[20.13953,-5.77846,455.2652],[20.15069,-5.76755,433.0],[20.15322,-5.76414,433.0],[20.16035,-5.75035,440.38],[20.16578,-5.73593,431.0],[20.1681,-5.72678,430.5],[20.16965,-5.69629,459.9945],[20.17337,-5.68999,434.9255],[20.17787,-5.68053,427.0],[20.17973,-5.66999,442.3699],[20.18113,-5.65025,456.9175],[20.17957,-5.63123,423.5],[20.17849,-5.6256,423.0],[20.17787,-5.61986,480.9752],[20.17678,-5.61444,461.573],[20.17477,-5.60968,508.2807],[20.16965,-5.60105,530.5108],[20.16454,-5.5854,486.0099],[20.16035,-5.57584,536.2344],[20.15756,-5.57165,518.3594],[20.15322,-5.56235,542.8279],[20.15146,-5.55733,515.3385],[20.15007,-5.55175,469.4551],[20.14836,-5.36303,496.0955],[20.14976,-5.34991,457.3076],[20.15115,-5.34381,492.4225],[20.15301,-5.33967,458.6653],[20.15673,-5.33394,400.5],[20.16252,-5.32696,407.6769],[20.16593,-5.32107,527.1853],[20.16934,-5.31301,404.6465],[20.17663,-5.28686,499.8381],[20.17787,-5.28531,443.6326],[20.17957,-5.28407,466.407],[20.18531,-5.28087,511.5319],[20.18965,-5.27802,419.6298],[20.1943,-5.27327,395.75],[20.19539,-5.26846,395.5],[20.19105,-5.15462,467.6032],[20.18996,-5.14718,396.7585],[20.17787,-5.11142,388.5],[20.17632,-5.09995,405.6837],[20.17477,-5.09483,402.056],[20.17058,-5.08522,386.0],[20.1664,-5.06889,426.2466],[20.16423,-5.06434,401.8331],[20.16113,-5.06036,385.8237],[20.15038,-5.05054,383.0],[20.14681,-5.04507,382.5],[20.14402,-5.03794,403.0162],[20.14154,-5.02486,381.5],[20.14247,-5.01623,381.0],[20.14433,-5.00817,392.2651],[20.14759,-4.99907,473.8087],[20.14759,-4.99267,508.3214],[20.14588,-4.98745,509.6659],[20.11844,-4.95324,467.2508],[20.11565,-4.94905,446.2059],[20.11131,-4.93949,376.5],[20.10805,-4.9291,376.0],[20.09669,-4.85795,405.4633],[20.09503,-4.85262,409.4376],[20.09033,-4.84342,390.4199],[20.08847,-4.83846,377.5055],[20.08242,-4.81025,479.0969],[20.07839,-4.80064,423.5425],[20.07266,-4.79247,466.2048],[20.06242,-4.78209,437.7893],[20.05963,-4.7779,384.2316],[20.05746,-4.77325,375.9538],[20.05545,-4.76576,386.5298],[20.05266,-4.7287,421.8847],[20.05452,-4.68927,372.6703],[20.05529,-4.684,393.421],[20.05777,-4.68033,386.2032],[20.06025,-4.6761,410.3838],[20.06428,-4.6654,362.0],[20.06506,-4.63072,371.0075],[20.06335,-4.61,371.4026],[20.06382,-4.59832,373.6361],[20.06521,-4.5915,374.8116],[20.07963,-4.55109,375.7903],[20.0818,-4.54763,374.8413],[20.08351,-4.54582,368.3073],[20.08661,-4.54375,360.2659],[20.09917,-4.53683,354.5],[20.10072,-4.53518,354.5],[20.10325,-4.53202,362.4323],[20.1172,-4.50422,370.3921],[20.11844,-4.50081,369.7347],[20.1186,-4.49812,368.5679],[20.1172,-4.49456,370.8053],[20.11472,-4.49068,354.4291],[20.11147,-4.4866,358.0938],[20.1079,-4.48329,355.1156],[20.09948,-4.47787,428.0719],[20.09576,-4.47466,412.9762],[20.09297,-4.47063,370.9714],[20.0911,-4.46412,391.6482],[20.09002,-4.45606,374.4849],[20.08909,-4.43456,371.5961],[20.08769,-4.42774,360.821],[20.08552,-4.42309,347.5],[20.07483,-4.40624,368.1881],[20.06459,-4.38195,422.9816],[20.06211,-4.37756,422.8636],[20.05917,-4.37358,373.1354],[20.04532,-4.35994,367.1986],[20.04253,-4.3541,366.1357],[20.04036,-4.34666,365.7376],[20.03555,-4.3047,370.7122],[20.03571,-4.29622,345.2118],[20.03648,-4.28945,341.0],[20.03788,-4.28475,341.0],[20.04542,-4.27514,405.0405],[20.05653,-4.27674,408.2672],[20.10867,-4.27333,371.5845],[20.13379,-4.28026,342.0],[20.16531,-4.31545,362.0974],[20.18464,-4.32914,417.7558],[20.20205,-4.32061,356.6183],[20.22164,-4.33286,361.2638],[20.23218,-4.34526,405.885],[20.25047,-4.37586,344.5],[20.26618,-4.39064,356.635],[20.27905,-4.39151,364.8861],[20.29378,-4.38614,410.0048],[20.31533,-4.38268,345.5],[20.32918,-4.38578,346.0],[20.33646,-4.39027,413.9349],[20.34236,-4.38934,413.5748],[20.35228,-4.37586,416.6592],[20.35662,-4.36568,380.4198],[20.3591,-4.33488,349.1833],[20.36545,-4.31245,348.8419],[20.37677,-4.2925,355.5742],[20.39393,-4.27824,373.4617],[20.41744,-4.27281,360.077],[20.42282,-4.27483,364.3661],[20.42855,-4.27886,354.9394],[20.43486,-4.2817,356.588],[20.44168,-4.28026,353.0887],[20.44514,-4.27535,353.9135],[20.44679,-4.26852,348.5],[20.44757,-4.26222,357.0266],[20.4485,-4.25912,358.6509],[20.46059,-4.25318,353.4896],[20.47578,-4.2523,352.8774],[20.51702,-4.24424,357.3454],[20.56007,-4.22879,359.9149],[20.59908,-4.20806,363.8614],[20.62787,-4.18403,352.5],[20.63391,-4.17323,362.855],[20.63805,-4.16217,365.7791],[20.64461,-4.15339,367.7081],[20.658,-4.14988,363.2133],[20.6612,-4.14693,362.3308],[20.67086,-4.13076,361.5196],[20.67551,-4.11112,366.8523],[20.67768,-4.09375,412.449],[20.669,-3.92219,485.1729],[20.66089,-3.86524,488.1929],[20.66404,-3.74551,471.947],[20.64244,-3.50842,374.862],[20.65515,-3.32688,400.3252],[20.66466,-3.28026,342.6614],[20.84139,-2.82753,385.5164],[20.87814,-2.77673,385.1341],[20.92671,-2.72759,422.5867],[20.93943,-2.71089,455.502],[20.95219,-2.68686,432.9185],[20.95762,-2.67033,450.387],[20.95979,-2.65653,450.6789],[20.95839,-2.6171,444.4893],[20.9601,-2.59431,444.6782],[20.96351,-2.57814,448.7724],[20.96862,-2.56155,430.7568],[21.00712,-2.48879,510.4426],[21.0017,-2.41334,434.4567],[20.99534,-2.39226,436.681],[20.98692,-2.37138,453.1205],[20.69117,-2.02303,439.4484],[20.6735,-2.01559,430.598],[20.66027,-2.01833,422.491],[20.65221,-2.02876,428.3629],[20.64353,-2.03832,442.6524],[20.63221,-2.04282,465.7546],[20.61965,-2.04251,475.1759],[20.5703,-2.03357,420.845],[20.55836,-2.03295,414.026],[20.54668,-2.03414,416.1613],[20.53444,-2.03724,404.9143],[20.52281,-2.0422,377.8932],[20.48261,-2.06788,394.7859],[20.45765,-2.08039,393.1548],[20.44462,-2.08478,415.5946],[20.4255,-2.0837,404.3819],[20.40209,-2.07703,402.8403],[20.33832,-2.04644,439.2422],[20.32013,-2.04039,415.0846],[20.29393,-2.03853,396.3163],[20.282,-2.0346,394.3818],[20.27037,-2.02468,392.4283],[20.26288,-2.01378,363.5186],[20.25776,-2.00448,391.7311],[20.25218,-1.99719,394.9395],[20.21993,-1.96773,380.8471],[20.20252,-1.95647,370.1293],[20.18609,-1.94846,351.0326],[20.17291,-1.94567,349.9131],[20.09793,-1.94071,384.2475],[20.01834,-1.94887,382.4571],[19.99866,-1.94846,364.4276],[19.93721,-1.93931,394.7318],[19.91995,-1.93389,369.5474],[19.9074,-1.92583,390.9982],[19.89701,-1.91451,366.1129],[19.8891,-1.90169,360.2384],[19.84037,-1.7849,356.9292],[19.82781,-1.74201,369.23],[19.81629,-1.72387,364.3637],[19.798,-1.70455,362.5051],[19.75376,-1.67333,361.8526],[19.72834,-1.66693,363.1194],[19.70891,-1.66817,357.089],[19.69604,-1.67845,373.3458],[19.67387,-1.70181,339.9974],[19.62374,-1.77684,339.8164],[19.61382,-1.78738,337.3038],[19.60452,-1.79488,336.2137],[19.59801,-1.79798,327.8436],[19.59181,-1.79829,332.9107]]]}}