{"type": "Feature","bbox": [23.6325,3.7662,23.701,3.8333],"geometry": {"type": "MultiPolygon","coordinates": [[[[23.6724,3.7667,511.6653],[23.6869,3.7676,494.2043],[23.701,3.773,466.0],[23.6904,3.7825,489.6022],[23.6869,3.7903,475.0048],[23.6825,3.7937,467.9947],[23.6784,3.8038,476.4054],[23.659,3.8226,464.5],[23.6422,3.8333,479.467],[23.6402,3.8324,496.2543],[23.6325,3.8179,507.7184],[23.6325,3.7966,526.1915],[23.645,3.7744,537.0376],[23.659,3.7662,532.2761],[23.6724,3.7667,511.6653]]]]}
,"properties": {"GID_2": "COD.1.6_1","GID_0": "COD","country": "DemocraticRepublicoftheCongo","GID_1": "COD.1_1","province": "Bas-Uele","NL_NAME_1": "NA","county": "Bondo(ville)","VARNAME_2": "NA","NL_NAME_2": "NA","TYPE_2": "Ville","ENGTYPE_2": "Town","CC_2": "NA","HASC_2": "NA","name": "Bondo(ville).county","area_km2": 32.24132,"hist_schema_id": "Elevation0-9000","hist_area_km2": {"475": 6.15627,"500": 17.263,"525": 8.6105,"550": 0.21156}}}