{"type":"Feature","properties":{"GID_2":"COD.1.9_1","GID_0":"COD","country":"DemocraticRepublicoftheCongo","GID_1":"COD.1_1","province":"Bas-Uele","NL_NAME_1":"NA","county":"Dingila","VARNAME_2":"NA","NL_NAME_2":"NA","TYPE_2":"Ville","ENGTYPE_2":"Town","CC_2":"NA","HASC_2":"NA","name":"Dingila.county"},
"geometry":{"type": "MultiPolygon","coordinates": [[[[26.0817,3.6322,644.037],[26.0923,3.6407,601.9872],[26.0956,3.6474,606.4167],[26.0949,3.6552,602.1484],[26.0917,3.6619,604.6951],[26.0858,3.6674,601.6109],[26.0791,3.6695,601.5753],[26.0711,3.6698,604.5579],[26.0562,3.6626,605.5162],[26.0532,3.6552,630.4739],[26.056,3.6385,637.8704],[26.0612,3.6335,616.1293],[26.0817,3.6322,644.037]]]]}}