{"type": "Feature","bbox": [15.1603,-4.6061,15.1927,-4.5781],"geometry": {"type": "MultiPolygon","coordinates": [[[[15.1887,-4.6044,421.8596],[15.1916,-4.5999,392.6398],[15.1925,-4.5926,399.9462],[15.1927,-4.5892,399.3058],[15.1901,-4.5836,392.8083],[15.1761,-4.5781,383.699],[15.166,-4.5811,432.2667],[15.1622,-4.5839,437.0642],[15.1603,-4.5903,428.3027],[15.1658,-4.6021,392.9396],[15.1705,-4.6051,401.761],[15.1844,-4.6061,406.7366],[15.1887,-4.6044,421.8596]]]]}
,"properties": {"GID_2": "COD.11.5_1","GID_0": "COD","country": "DemocraticRepublicoftheCongo","GID_1": "COD.11_1","province": "Kongo-Central","NL_NAME_1": "NA","county": "Kasangulu(ville)","VARNAME_2": "NA","NL_NAME_2": "NA","TYPE_2": "Ville","ENGTYPE_2": "Town","CC_2": "NA","HASC_2": "NA","name": "Kasangulu(ville).county","area_km2": 8.601594,"hist_schema_id": "Elevation0-9000","hist_area_km2": {"375": 1.648471,"400": 4.036622,"425": 2.789696,"450": 0.126805}}}